HIERARCHY
ROOT Hips
{
	OFFSET -0.001795 -0.223333 0.028219
	CHANNELS 6 Xposition Yposition Zposition Zrotation Yrotation Xrotation 
	JOINT LeftUpLeg
	{
		OFFSET 0.069520 -0.091406 -0.006815
		CHANNELS 3 Zrotation Yrotation Xrotation
		JOINT LeftLeg
		{
			OFFSET 0.034277 -0.375199 -0.004496
			CHANNELS 3 Zrotation Yrotation Xrotation
			JOINT LeftFoot
			{
				OFFSET -0.013596 -0.397961 -0.043693
				CHANNELS 3 Zrotation Yrotation Xrotation
				JOINT LeftToe
				{
					OFFSET 0.026358 -0.055791 0.119288
					CHANNELS 3 Zrotation Yrotation Xrotation
					End Site
					{
						OFFSET 0.000000 0.000000 0.000000
					}
				}
			}
		}
	}
	JOINT RightUpLeg
	{
		OFFSET -0.067670 -0.090522 -0.004320
		CHANNELS 3 Zrotation Yrotation Xrotation
		JOINT RightLeg
		{
			OFFSET -0.038290 -0.382569 -0.008850
			CHANNELS 3 Zrotation Yrotation Xrotation
			JOINT RightFoot
			{
				OFFSET 0.015774 -0.398415 -0.042312
				CHANNELS 3 Zrotation Yrotation Xrotation
				JOINT RightToe
				{
					OFFSET -0.025372 -0.048144 0.123348
					CHANNELS 3 Zrotation Yrotation Xrotation
					End Site
					{
						OFFSET 0.000000 0.000000 0.000000
					}
				}
			}
		}
	}
	JOINT Spine
	{
		OFFSET -0.002533 0.108963 -0.026696
		CHANNELS 3 Zrotation Yrotation Xrotation
		JOINT Spine1
		{
			OFFSET 0.005487 0.135180 0.001092
			CHANNELS 3 Zrotation Yrotation Xrotation
			JOINT Spine2
			{
				OFFSET 0.001457 0.052922 0.025425
				CHANNELS 3 Zrotation Yrotation Xrotation
				JOINT Neck
				{
					OFFSET -0.002778 0.213870 -0.042857
					CHANNELS 3 Zrotation Yrotation Xrotation
					JOINT Head
					{
						OFFSET 0.005152 0.064970 0.051349
						CHANNELS 3 Zrotation Yrotation Xrotation
						End Site
						{
							OFFSET 0.000000 0.000000 0.000000
						}
					}
				}
				JOINT LeftShoulder
				{
					OFFSET 0.078845 0.121749 -0.034090
					CHANNELS 3 Zrotation Yrotation Xrotation
					JOINT LeftArm
					{
						OFFSET 0.090977 0.030469 -0.008868
						CHANNELS 3 Zrotation Yrotation Xrotation
						JOINT LeftForeArm
						{
							OFFSET 0.259612 -0.012772 -0.027456
							CHANNELS 3 Zrotation Yrotation Xrotation
							JOINT LeftHand
							{
								OFFSET 0.249234 0.008986 -0.001171
								CHANNELS 3 Zrotation Yrotation Xrotation
								End Site
								{
									OFFSET 0.000000 0.000000 0.000000
								}
							}
						}
					}
				}
				JOINT RightShoulder
				{
					OFFSET -0.081759 0.118833 -0.038615
					CHANNELS 3 Zrotation Yrotation Xrotation
					JOINT RightArm
					{
						OFFSET -0.096012 0.032551 -0.009143
						CHANNELS 3 Zrotation Yrotation Xrotation
						JOINT RightForeArm
						{
							OFFSET -0.253742 -0.013329 -0.021401
							CHANNELS 3 Zrotation Yrotation Xrotation
							JOINT RightHand
							{
								OFFSET -0.255298 0.007772 -0.005559
								CHANNELS 3 Zrotation Yrotation Xrotation
								End Site
								{
									OFFSET 0.000000 0.000000 0.000000
								}
							}
						}
					}
				}
			}
		}
	}
}
MOTION
Frames: 136
Frame Time: 0.050000
0.000000 0.607525 0.000000 -2.981808 -4.503649 24.978152 8.842050 2.475122 52.417274 -1.796469 3.320477 -66.948279 7.669376 20.761097 113.733404 0.000000 0.000000 0.000000 -17.325319 5.535915 47.841706 11.094315 4.115554 -75.043667 -33.001499 -21.599300 123.145004 0.000000 0.000000 0.000000 0.125465 2.117050 -30.968089 1.047652 4.212123 -92.269494 -2.628131 -0.283920 110.734386 12.759080 2.711031 -109.423271 0.000000 0.000000 0.000000 -17.661737 14.603343 -3.697165 -51.025375 -1.341097 -30.314030 131.800322 55.477402 141.254622 0.000000 0.000000 0.000000 32.187479 -11.083363 -1.066251 55.240717 22.735668 -23.505631 -28.333907 -70.853250 48.504333 0.000000 0.000000 0.000000 
-0.001638 0.610346 0.000348 -2.073292 -5.666918 24.651339 8.491856 3.104786 53.044145 -3.442447 2.680333 -67.137811 6.947241 20.720654 111.988365 0.000000 0.000000 0.000000 -18.146587 6.483430 48.631783 10.388501 3.961874 -76.608256 -33.105431 -21.438263 124.164999 0.000000 0.000000 0.000000 -3.432380 1.626871 -30.663079 4.305759 6.491589 -97.922905 -7.819976 0.797451 115.029874 7.593813 4.092562 -111.113370 0.000000 0.000000 0.000000 -17.048465 18.208366 -6.188191 -51.072030 3.939697 -33.103952 123.693971 48.291443 122.552528 0.000000 0.000000 0.000000 27.700604 -11.072519 -2.706072 57.695893 22.507973 -24.465078 -42.351347 -69.094846 59.396251 0.000000 0.000000 0.000000 
-0.002749 0.617001 0.000608 -3.259117 -8.082275 24.623990 7.797056 4.457892 53.491145 -4.346217 2.848515 -68.137265 14.076624 21.921896 114.588101 0.000000 0.000000 0.000000 -19.153718 7.816243 47.070743 11.427796 5.357107 -76.340821 -36.467712 -21.523618 124.105517 0.000000 0.000000 0.000000 -2.074482 2.581388 -34.456818 17.023437 12.904796 -95.455071 -11.653499 15.817930 117.437229 16.029219 3.378003 -108.661563 0.000000 0.000000 0.000000 -10.293399 19.678140 -9.851965 -53.566712 10.175878 -38.446193 117.884001 39.133653 102.766848 0.000000 0.000000 0.000000 28.902488 -9.754661 3.486728 55.686653 29.872551 -24.165449 -28.468122 -70.027637 53.734645 0.000000 0.000000 0.000000 
-0.004060 0.621631 0.000049 -3.597226 -9.582039 24.376499 6.312892 6.063568 54.874621 -4.176265 3.111622 -67.779953 15.439547 22.387150 107.293338 0.000000 0.000000 0.000000 -20.418031 8.945656 46.141749 12.032525 6.059015 -75.963063 -30.539305 -20.409523 127.602408 0.000000 0.000000 0.000000 -1.378844 2.925127 -34.117832 10.964076 9.597540 -89.935897 -9.312467 7.088004 110.926088 5.640179 3.809829 -108.188748 0.000000 0.000000 0.000000 -13.196872 21.336188 -10.093021 -52.006653 13.808686 -35.245851 118.267434 38.222503 100.006696 0.000000 0.000000 0.000000 27.499084 -10.069104 -0.614008 57.163472 28.601855 -21.062159 -30.291873 -68.232728 48.628372 0.000000 0.000000 0.000000 
-0.005432 0.630225 -0.000857 -3.332428 -9.106318 24.044231 5.742785 6.094575 54.319584 -3.337399 3.455303 -67.961141 16.905620 22.490429 109.789335 0.000000 0.000000 0.000000 -19.556410 8.256828 46.171709 11.877003 5.951127 -76.251491 -34.501754 -20.522882 128.287964 0.000000 0.000000 0.000000 -1.650857 2.896940 -35.158702 10.204422 8.817835 -89.191793 -9.151991 5.931898 112.192182 1.697498 4.113683 -109.842298 0.000000 0.000000 0.000000 -13.298817 22.436883 -10.994638 -50.204154 17.698242 -36.894568 115.015748 31.288711 84.090488 0.000000 0.000000 0.000000 29.250844 -9.121096 0.191512 55.216674 30.420627 -21.690239 -30.583220 -66.862779 47.750171 0.000000 0.000000 0.000000 
-0.006889 0.635637 -0.001869 -3.766378 -9.962876 23.634618 4.804154 6.972668 54.550011 -2.073655 4.300176 -68.395989 15.496985 22.328357 112.121922 0.000000 0.000000 0.000000 -20.780392 9.072599 45.175610 13.246643 6.908885 -75.304753 -36.118193 -20.472011 128.767555 0.000000 0.000000 0.000000 -0.991266 3.096100 -34.502568 11.900053 9.489717 -87.118352 -8.165561 6.562561 110.213959 -2.741628 3.867335 -110.260147 0.000000 0.000000 0.000000 -12.066067 22.746796 -11.643584 -48.361219 22.148430 -36.263088 114.608565 26.463149 70.591579 0.000000 0.000000 0.000000 30.411870 -9.750539 -0.205193 53.846204 30.646599 -20.490978 -27.909858 -65.073693 42.379831 0.000000 0.000000 0.000000 
-0.008573 0.641287 -0.003398 -3.721314 -9.896024 23.873859 3.238598 7.756390 54.157947 0.385752 5.421682 -67.297115 11.229724 21.782780 111.074652 0.000000 0.000000 0.000000 -20.829474 9.109150 45.288157 14.344421 7.677824 -76.062886 -38.338817 -20.789323 128.360473 0.000000 0.000000 0.000000 -1.073120 3.141934 -35.032976 10.047697 8.372437 -85.221423 -6.568247 3.757427 108.816944 -6.792700 3.735356 -110.891938 0.000000 0.000000 0.000000 -10.593302 23.426004 -12.441370 -47.846219 27.261687 -36.448051 113.715539 21.016277 58.840805 0.000000 0.000000 0.000000 30.385638 -9.728271 -1.098567 53.914696 31.415828 -19.407790 -28.231795 -64.731382 41.307818 0.000000 0.000000 0.000000 
-0.010412 0.643977 -0.004903 -3.958287 -9.734287 23.307630 1.870553 8.526467 54.462325 3.427569 6.727631 -66.297662 7.518778 21.227985 110.537609 0.000000 0.000000 0.000000 -21.238763 9.337058 45.730647 15.608438 8.278271 -75.378924 -40.096386 -21.127040 127.441762 0.000000 0.000000 0.000000 -1.827134 2.926734 -34.898783 14.444012 9.937573 -85.684254 -8.449882 7.756487 110.755622 -5.252157 3.857697 -112.067406 0.000000 0.000000 0.000000 -7.806133 24.227047 -13.989408 -46.600927 31.574779 -38.402316 114.278539 14.955009 47.037314 0.000000 0.000000 0.000000 32.144355 -9.663521 0.773637 52.393284 34.811496 -19.733944 -27.261536 -64.108058 41.876255 0.000000 0.000000 0.000000 
-0.012544 0.646044 -0.006326 -4.133478 -10.123922 23.883749 0.461045 9.545754 54.612108 5.825047 7.980922 -66.260441 4.240287 20.689315 109.597832 0.000000 0.000000 0.000000 -21.561660 9.713969 45.784347 15.451668 8.412323 -76.593078 -39.491158 -20.625724 129.578984 0.000000 0.000000 0.000000 -1.840948 3.084044 -35.439766 13.486454 10.582901 -89.565262 -8.171570 7.108447 115.407677 -10.063751 3.951398 -112.238868 0.000000 0.000000 0.000000 -4.627572 24.672993 -15.413090 -47.035723 37.209590 -42.647959 113.058803 8.438185 35.516010 0.000000 0.000000 0.000000 30.355147 -10.281433 0.634720 54.225968 36.241931 -21.089732 -30.552763 -63.584058 46.708711 0.000000 0.000000 0.000000 
-0.014999 0.647364 -0.006660 -4.078765 -9.446563 23.755501 0.370415 9.485083 55.194136 7.386084 8.484702 -65.756123 2.048165 20.029105 107.265864 0.000000 0.000000 0.000000 -21.225467 9.495380 47.044635 15.966840 8.660259 -77.658734 -40.876809 -20.826785 129.507188 0.000000 0.000000 0.000000 -2.188326 2.884199 -35.459046 13.970185 10.761606 -90.771495 -8.760883 7.729092 116.830595 -8.635412 4.030519 -112.553704 0.000000 0.000000 0.000000 -2.659222 24.495892 -15.940921 -46.817435 41.173901 -45.241388 112.668417 4.760659 27.702405 0.000000 0.000000 0.000000 30.308492 -10.237633 1.160286 54.386193 36.560525 -21.885371 -30.190115 -62.867643 46.889182 0.000000 0.000000 0.000000 
-0.017499 0.648330 -0.006157 -4.557778 -9.479535 24.043355 0.229645 9.571380 55.102182 8.720725 9.001548 -64.800832 -2.533579 18.984221 105.137671 0.000000 0.000000 0.000000 -21.764749 9.730070 46.555912 16.866904 9.080325 -76.925281 -40.725421 -21.385981 127.520889 0.000000 0.000000 0.000000 -1.822009 3.148172 -36.874571 15.897629 11.445994 -90.739764 -9.542623 10.267214 117.502669 -5.651703 4.089336 -111.909243 0.000000 0.000000 0.000000 0.188740 24.696554 -17.044021 -47.326582 45.034181 -48.200847 112.928271 1.756997 21.844280 0.000000 0.000000 0.000000 31.235936 -11.066039 1.872743 54.636912 37.178389 -22.883459 -33.050435 -60.422207 49.344132 0.000000 0.000000 0.000000 
-0.019674 0.650544 -0.004932 -4.553705 -8.672264 23.882966 0.612316 8.996485 54.952403 8.809493 8.737208 -64.029318 -3.401604 18.682684 104.639490 0.000000 0.000000 0.000000 -21.537147 9.382484 47.229970 17.172919 8.839159 -75.988239 -38.564118 -22.067035 124.481086 0.000000 0.000000 0.000000 -2.256114 2.949867 -37.484384 13.925295 10.611597 -92.958161 -9.126500 8.275621 120.015542 -4.128993 4.081573 -112.088841 0.000000 0.000000 0.000000 0.776550 24.562408 -17.887055 -47.845644 46.378480 -51.444104 113.369855 -1.635868 17.492917 0.000000 0.000000 0.000000 31.010192 -11.242433 1.781969 54.789012 37.013862 -25.067588 -36.463008 -59.150910 52.969903 0.000000 0.000000 0.000000 
-0.021198 0.652878 -0.003612 -4.769503 -7.899037 23.769163 1.558103 8.130177 54.868671 8.033269 8.123575 -63.448047 -3.962853 18.354980 103.511907 0.000000 0.000000 0.000000 -21.557800 9.137524 47.579401 18.504118 9.322134 -75.331263 -38.249870 -22.709057 122.017113 0.000000 0.000000 0.000000 -2.553121 2.758521 -37.853868 16.232501 11.255746 -92.909746 -9.898298 10.591656 119.886440 2.584654 3.936601 -111.142640 0.000000 0.000000 0.000000 1.882737 24.407015 -17.958115 -49.455150 46.650735 -52.983667 112.682056 -1.020218 19.289092 0.000000 0.000000 0.000000 32.006974 -11.764067 2.475697 54.859168 37.155657 -25.386820 -38.196217 -58.729683 55.487492 0.000000 0.000000 0.000000 
-0.022242 0.655131 -0.002858 -4.907994 -7.226083 23.886087 2.224661 7.428666 54.512512 6.989905 7.412001 -62.774832 -2.927460 18.548962 103.599802 0.000000 0.000000 0.000000 -20.964919 8.615913 48.045007 18.540586 9.130180 -75.035785 -36.723681 -22.790215 121.100337 0.000000 0.000000 0.000000 -3.217958 2.495760 -38.205717 15.934990 10.596388 -91.878530 -10.531195 9.114332 117.968500 1.970267 4.081193 -111.188325 0.000000 0.000000 0.000000 0.898446 24.160428 -17.344108 -50.929721 45.806984 -52.226201 111.619033 2.162800 25.540007 0.000000 0.000000 0.000000 32.035424 -11.189224 2.049281 54.846234 35.984412 -24.995545 -39.574172 -59.864468 56.722645 0.000000 0.000000 0.000000 
-0.023060 0.656049 -0.002530 -4.837304 -6.616034 23.857484 2.695536 6.822397 53.939054 6.126671 6.806427 -62.054156 -1.727332 18.843887 104.212870 0.000000 0.000000 0.000000 -20.407280 8.103323 48.380001 18.083739 8.621942 -74.492154 -34.291436 -22.497321 121.094034 0.000000 0.000000 0.000000 -3.779806 2.253529 -38.555732 16.184890 9.984972 -90.079559 -10.579188 8.723292 116.285933 2.577038 4.061476 -111.538810 0.000000 0.000000 0.000000 -0.581989 23.898049 -16.678485 -52.256756 43.611357 -51.727020 111.089684 5.029297 31.580924 0.000000 0.000000 0.000000 33.361256 -10.758170 2.483701 53.409790 36.428572 -24.820913 -40.445492 -61.459617 58.450420 0.000000 0.000000 0.000000 
-0.024043 0.656935 -0.002611 -5.078304 -7.170939 23.835272 2.979414 6.873414 53.957775 5.121739 6.535624 -62.520173 -1.500376 19.107643 105.386809 0.000000 0.000000 0.000000 -21.053238 8.655395 48.059727 18.827657 9.159831 -74.195848 -35.984575 -22.619076 121.214369 0.000000 0.000000 0.000000 -3.681743 2.474208 -39.448688 18.194752 9.942116 -86.084229 -10.858906 10.076244 113.319787 2.323064 4.061143 -112.680578 0.000000 0.000000 0.000000 -2.373709 24.068084 -16.096906 -52.670045 41.010709 -49.711151 111.817085 9.060285 39.019101 0.000000 0.000000 0.000000 35.470153 -10.307248 3.466931 51.484299 37.223698 -23.921980 -38.086202 -62.843223 56.400059 0.000000 0.000000 0.000000 
-0.025260 0.657981 -0.003007 -5.058971 -6.701277 23.614784 3.529194 6.360162 53.822872 4.316081 6.009492 -62.017102 -0.829114 19.231337 105.619546 0.000000 0.000000 0.000000 -21.126613 8.598793 48.672303 19.266654 9.249220 -74.103431 -36.978186 -22.857470 120.826757 0.000000 0.000000 0.000000 -3.974854 2.283528 -39.352639 17.965228 9.838107 -86.851812 -10.678437 10.298662 114.987040 4.725094 3.968048 -113.452197 0.000000 0.000000 0.000000 -1.506914 23.577554 -16.382738 -53.706668 41.209647 -52.265337 111.319779 7.159921 37.205693 0.000000 0.000000 0.000000 37.122857 -10.261959 4.552543 50.212355 38.447867 -25.413545 -39.824063 -62.156939 58.923731 0.000000 0.000000 0.000000 
-0.026668 0.657764 -0.003873 -5.563261 -7.065459 23.575689 3.638378 6.503389 54.179895 4.287881 6.100123 -62.251032 -1.744528 19.142539 105.924649 0.000000 0.000000 0.000000 -21.832226 9.155195 48.570848 20.625523 10.035196 -73.596233 -40.426345 -23.338439 120.429441 0.000000 0.000000 0.000000 -3.478894 2.507741 -39.432338 22.463780 11.029160 -84.290257 -12.078143 15.249895 112.808136 9.107973 4.082070 -113.892325 0.000000 0.000000 0.000000 -0.251008 23.871334 -16.550804 -53.272782 40.687145 -51.227167 112.710257 7.542299 36.965282 0.000000 0.000000 0.000000 39.427521 -10.547020 6.556971 48.479994 39.831009 -24.829004 -37.060146 -63.083251 57.351841 0.000000 0.000000 0.000000 
-0.027704 0.658276 -0.005341 -5.738492 -7.432906 23.376694 3.770767 6.599452 54.404083 3.935549 5.978759 -62.103903 -1.918818 19.202114 106.266174 0.000000 0.000000 0.000000 -22.703333 9.743021 48.230910 21.781211 10.591073 -72.677684 -42.247173 -23.521724 120.427308 0.000000 0.000000 0.000000 -3.720398 2.449970 -38.550313 24.158131 11.933995 -84.430135 -12.497903 17.014825 112.580348 12.644614 4.064825 -113.697495 0.000000 0.000000 0.000000 0.921589 23.434038 -16.098988 -53.500437 39.715524 -49.935626 114.775535 9.412161 40.117094 0.000000 0.000000 0.000000 40.006407 -10.431218 6.966525 48.440101 40.143351 -23.795145 -36.286016 -64.356331 57.135393 0.000000 0.000000 0.000000 
-0.028104 0.656878 -0.007261 -5.837419 -7.525855 23.458495 3.588985 6.816744 54.849057 4.032093 6.102404 -62.773584 -2.816901 19.040869 106.462503 0.000000 0.000000 0.000000 -23.373284 10.055110 47.672678 22.590606 10.767130 -71.368672 -43.991952 -23.970762 119.474190 0.000000 0.000000 0.000000 -3.379622 2.508659 -38.106302 23.922570 11.590433 -83.091911 -12.048102 16.713237 110.559278 12.253578 3.923524 -113.216172 0.000000 0.000000 0.000000 0.674828 23.636573 -15.911483 -53.034892 38.253621 -47.145019 117.957127 11.920484 44.995744 0.000000 0.000000 0.000000 40.073789 -9.926103 6.672850 48.338208 39.165283 -22.366229 -35.094891 -65.542592 55.151740 0.000000 0.000000 0.000000 
-0.027931 0.654720 -0.009161 -5.586243 -7.054931 23.854184 3.462899 6.764739 55.111066 4.080779 6.147899 -63.794699 -3.332258 18.891755 106.808024 0.000000 0.000000 0.000000 -23.682301 9.959115 47.249494 21.989899 10.159671 -70.912115 -41.415271 -23.534779 119.956287 0.000000 0.000000 0.000000 -3.886315 2.257408 -37.627349 23.049070 12.193170 -86.599744 -11.528702 16.190178 113.704728 9.514707 3.884553 -113.163601 0.000000 0.000000 0.000000 1.567404 23.137578 -15.765911 -53.564019 36.319461 -47.238701 121.081713 11.695075 47.664093 0.000000 0.000000 0.000000 38.429179 -9.958509 6.421977 50.365669 39.219271 -22.585133 -38.598182 -65.952598 60.178665 0.000000 0.000000 0.000000 
-0.027536 0.653339 -0.010276 -5.271421 -6.811935 23.931346 3.620846 6.624809 55.409666 3.218407 5.842106 -65.261805 -1.668197 19.211925 107.730550 0.000000 0.000000 0.000000 -24.004332 9.962392 46.935589 21.150531 9.470238 -70.340086 -37.366485 -23.324460 118.805238 0.000000 0.000000 0.000000 -3.804836 2.219838 -37.631756 22.640212 12.473172 -88.456000 -11.353449 16.692513 115.549386 11.354444 3.808453 -112.711527 0.000000 0.000000 0.000000 2.065200 23.258728 -15.902434 -53.737687 35.199922 -47.288422 124.520944 11.114528 48.764551 0.000000 0.000000 0.000000 37.031154 -9.830313 6.538868 51.325574 38.753525 -22.858761 -38.002897 -64.434965 58.630192 0.000000 0.000000 0.000000 
-0.027261 0.652765 -0.010676 -4.749791 -6.420958 24.382828 3.593259 6.475572 55.366789 2.318899 5.383125 -66.034243 -1.057866 19.093095 106.512786 0.000000 0.000000 0.000000 -23.587976 9.624693 47.291568 18.834003 8.092121 -70.813806 -29.995451 -22.671320 117.434314 0.000000 0.000000 0.000000 -4.541078 1.981615 -37.970145 21.365376 11.805319 -88.627013 -10.938756 15.278452 114.933776 10.153197 3.839110 -112.854576 0.000000 0.000000 0.000000 1.789480 23.689914 -16.099116 -52.847486 34.143008 -45.512069 127.728958 10.756987 49.088315 0.000000 0.000000 0.000000 35.831951 -10.140064 5.451250 52.149774 36.860470 -22.851300 -37.422586 -62.081512 55.098111 0.000000 0.000000 0.000000 
-0.027302 0.651845 -0.011038 -4.256760 -5.994178 25.067163 3.580159 6.212000 54.720049 1.966654 5.042310 -65.190197 -1.215722 18.773075 104.228685 0.000000 0.000000 0.000000 -23.048465 9.114861 47.049744 16.299427 6.581505 -71.179701 -22.857406 -21.813611 116.852783 0.000000 0.000000 0.000000 -5.479383 1.672517 -37.768738 17.742437 11.317881 -93.503582 -10.144368 12.017329 118.447463 9.142127 3.807296 -111.746432 0.000000 0.000000 0.000000 1.517354 23.840968 -16.433198 -52.820317 33.814910 -45.816417 130.153240 10.019725 49.328760 0.000000 0.000000 0.000000 32.926682 -10.357248 3.651397 54.311420 34.474608 -24.143321 -39.864448 -58.331669 54.084796 0.000000 0.000000 0.000000 
-0.027802 0.649838 -0.011796 -3.794792 -5.694195 25.371496 3.885552 5.820249 54.169767 1.568500 4.703096 -64.217782 -1.720131 18.408041 102.122685 0.000000 0.000000 0.000000 -22.622179 8.683699 46.690744 14.374920 5.327900 -70.537209 -19.252620 -21.444324 115.467872 0.000000 0.000000 0.000000 -6.476743 1.379675 -38.087304 17.406478 10.558544 -91.876866 -10.064968 11.191275 116.518853 8.356156 3.888110 -112.283051 0.000000 0.000000 0.000000 0.080982 23.844332 -15.885621 -51.884868 31.808612 -43.861654 132.871020 11.777646 53.734847 0.000000 0.000000 0.000000 33.173682 -10.686574 2.942940 53.523289 32.895425 -24.122977 -38.341859 -55.785010 48.984641 0.000000 0.000000 0.000000 
-0.028499 0.646841 -0.013460 -3.480558 -5.594579 25.899045 3.514282 5.896234 53.567973 1.746659 4.677364 -63.293473 -2.459468 18.096072 100.910174 0.000000 0.000000 0.000000 -22.235173 8.223823 45.368055 12.765280 4.280043 -68.948300 -20.247803 -21.622244 115.301509 0.000000 0.000000 0.000000 -7.159126 1.172857 -37.141943 13.183082 9.137800 -93.665123 -8.571778 6.602205 116.610284 4.584595 3.892118 -111.949168 0.000000 0.000000 0.000000 -0.773021 24.239392 -15.836037 -51.895274 30.423797 -41.550610 133.891952 13.083506 59.030935 0.000000 0.000000 0.000000 31.510077 -10.667526 0.833311 54.478817 30.701546 -23.640866 -38.431288 -54.462576 45.838468 0.000000 0.000000 0.000000 
-0.029009 0.642875 -0.015443 -3.744233 -5.698759 26.384706 3.203026 6.039659 53.055324 2.545022 5.030179 -62.652435 -4.439345 17.539485 99.988427 0.000000 0.000000 0.000000 -22.501364 8.305887 44.582161 13.051642 4.316717 -67.624524 -23.437693 -22.298798 113.922821 0.000000 0.000000 0.000000 -7.161151 1.206054 -37.046184 13.575826 9.062339 -92.098421 -8.385046 6.934693 114.983383 4.365856 3.952446 -112.807774 0.000000 0.000000 0.000000 -2.244720 24.383931 -15.369120 -51.919642 28.516960 -40.276484 133.832969 16.134892 67.490190 0.000000 0.000000 0.000000 31.597576 -10.339321 0.957495 53.493592 31.120930 -22.585268 -35.299111 -55.262810 42.578329 0.000000 0.000000 0.000000 
-0.029290 0.636605 -0.017203 -3.660946 -5.063341 26.981284 3.605701 5.487619 52.394443 2.371531 4.813271 -62.183774 -4.962539 17.408078 100.215440 0.000000 0.000000 0.000000 -22.695417 8.083882 43.922800 13.493814 4.224770 -66.267756 -26.084141 -22.905259 113.300405 0.000000 0.000000 0.000000 -7.331057 1.035100 -36.194888 11.200505 7.960739 -92.550878 -7.050566 4.542006 113.708750 -1.880280 3.739012 -112.876261 0.000000 0.000000 0.000000 -3.588301 24.399162 -14.847594 -52.435671 26.167942 -38.422874 133.988111 19.552093 77.578170 0.000000 0.000000 0.000000 30.634944 -10.019833 0.180155 53.710667 30.330402 -21.371521 -33.351097 -55.833567 39.748715 0.000000 0.000000 0.000000 
-0.029414 0.629699 -0.017839 -3.887874 -4.474340 27.119525 4.067707 5.053054 52.555348 2.374205 4.659023 -61.706796 -6.376758 16.932936 99.635500 0.000000 0.000000 0.000000 -22.996271 8.064499 44.118333 14.305954 4.391568 -65.366882 -27.640637 -23.386160 112.344714 0.000000 0.000000 0.000000 -7.227761 0.948870 -36.021206 11.714527 7.968911 -92.793107 -7.127936 5.527148 113.713487 -0.712969 3.757912 -113.589973 0.000000 0.000000 0.000000 -5.501988 24.347014 -14.405089 -53.357227 23.725109 -38.404915 134.034263 23.197391 89.199344 0.000000 0.000000 0.000000 31.407554 -9.634223 1.005398 52.807194 31.663395 -20.995887 -32.195129 -56.073422 39.104282 0.000000 0.000000 0.000000 
-0.029519 0.621257 -0.017727 -4.060533 -3.980576 27.572811 4.704402 4.593681 53.020569 2.290300 4.527901 -61.619195 -7.968221 16.389779 99.017926 0.000000 0.000000 0.000000 -23.169360 8.047743 44.500957 14.772673 4.386141 -64.550262 -23.236344 -23.008827 109.004165 0.000000 0.000000 0.000000 -7.257334 0.867074 -36.223834 11.703027 7.665746 -92.298797 -6.350017 5.432575 112.716428 -3.986920 3.481071 -114.874196 0.000000 0.000000 0.000000 -7.493052 24.346677 -14.000333 -53.281955 20.299451 -37.026272 133.017882 26.474663 96.877406 0.000000 0.000000 0.000000 31.889742 -9.706612 1.078771 52.182617 32.031154 -20.333139 -30.606226 -56.595234 37.767076 0.000000 0.000000 0.000000 
-0.029864 0.613724 -0.017133 -4.193251 -3.326845 27.456365 5.489971 4.027712 54.007535 1.699469 4.157112 -61.987892 -7.360200 16.405055 98.697352 0.000000 0.000000 0.000000 -23.183588 7.973155 45.657769 15.237639 4.452305 -64.514634 -19.978924 -22.541250 107.113845 0.000000 0.000000 0.000000 -7.743573 0.643497 -35.545000 13.554498 8.716173 -95.461654 -7.157976 7.635295 115.691226 -1.838121 3.644486 -116.305685 0.000000 0.000000 0.000000 -9.153806 23.800679 -13.353891 -53.921647 16.663085 -37.983379 133.364804 29.610785 107.994351 0.000000 0.000000 0.000000 31.855925 -9.127225 2.619538 52.434624 35.204984 -20.334562 -28.525622 -56.986506 38.107091 0.000000 0.000000 0.000000 
-0.030599 0.605397 -0.016702 -4.142532 -2.634326 27.687243 6.544170 3.232359 54.724597 0.569143 3.594276 -62.899991 -6.915631 16.442277 98.698407 0.000000 0.000000 0.000000 -22.950100 7.783138 47.084911 14.813755 4.167128 -65.496427 -15.244162 -21.602523 105.623586 0.000000 0.000000 0.000000 -8.027748 0.459633 -36.338428 13.735991 8.556493 -96.390979 -6.238836 8.107048 117.127329 -6.258723 3.138530 -117.672680 0.000000 0.000000 0.000000 -11.029514 23.214990 -12.704219 -53.085969 11.876304 -37.606598 132.945484 32.401775 114.752553 0.000000 0.000000 0.000000 32.639278 -8.329164 4.213247 51.060187 38.151690 -20.230960 -25.221851 -59.510109 38.278064 0.000000 0.000000 0.000000 
-0.031831 0.596427 -0.016026 -4.363699 -1.867794 27.397444 7.758242 2.313308 55.832161 -0.408868 3.036841 -63.426402 -5.019981 16.912870 99.282942 0.000000 0.000000 0.000000 -23.016144 7.648857 48.172863 15.696698 4.387927 -64.939849 -12.584527 -21.055477 103.837023 0.000000 0.000000 0.000000 -7.894685 0.344661 -36.305202 14.433768 9.448380 -101.281036 -5.246058 9.560582 122.864299 -3.765799 2.951740 -119.207022 0.000000 0.000000 0.000000 -11.665855 21.317808 -11.124176 -53.330139 6.262363 -39.323856 132.621479 35.306607 123.208832 0.000000 0.000000 0.000000 32.800626 -8.253082 5.853720 50.691081 41.525076 -21.670857 -21.754449 -60.075277 38.685515 0.000000 0.000000 0.000000 
-0.033697 0.587128 -0.015351 -4.730167 -1.450092 27.487248 8.764175 1.622173 56.739519 -0.934325 2.774692 -63.960956 -5.818533 16.668608 99.152093 0.000000 0.000000 0.000000 -22.781527 7.504084 49.230195 16.043548 4.549321 -65.441817 -10.977138 -20.658301 102.783481 0.000000 0.000000 0.000000 -7.221002 0.415710 -37.529446 13.676893 9.779430 -106.340072 -3.504656 9.567476 129.275325 -6.888065 2.330394 -120.772188 0.000000 0.000000 0.000000 -12.586053 20.560149 -10.467203 -53.400220 1.126811 -41.806033 130.565736 37.301171 129.044484 0.000000 0.000000 0.000000 32.269886 -7.887047 6.950572 50.550348 44.329482 -23.550098 -21.687268 -61.466749 42.474930 0.000000 0.000000 0.000000 
-0.035601 0.580494 -0.014279 -4.723715 -0.292456 26.892507 9.773468 0.566029 58.285106 -1.450487 2.380098 -65.493997 -4.549267 17.018303 100.261262 0.000000 0.000000 0.000000 -22.661477 7.112354 50.942839 16.827419 4.746102 -65.669121 -8.819295 -20.168411 102.501885 0.000000 0.000000 0.000000 -7.418935 0.120818 -37.656928 12.681872 9.628126 -112.212749 -2.609026 8.533682 135.335214 -7.111512 2.149208 -120.633095 0.000000 0.000000 0.000000 -13.102851 18.951422 -9.082655 -53.897647 -2.462748 -44.270485 125.874415 40.584589 130.882519 0.000000 0.000000 0.000000 30.973460 -7.285592 6.946828 51.433976 44.650624 -25.537606 -21.187812 -61.950604 44.246566 0.000000 0.000000 0.000000 
-0.037053 0.575443 -0.013356 -4.885272 -0.216274 26.754009 9.686060 0.641349 59.862644 -1.288150 2.491763 -67.175812 -6.235972 16.765049 101.287042 0.000000 0.000000 0.000000 -22.486621 7.161688 52.718144 17.187282 5.078447 -66.968420 -8.391184 -20.015049 100.170167 0.000000 0.000000 0.000000 -6.632675 0.253673 -39.280198 14.634132 11.135625 -113.899731 -1.334437 11.282227 138.379610 -0.046116 1.834095 -121.824292 0.000000 0.000000 0.000000 -13.132522 18.831184 -9.292312 -54.837723 -4.949148 -46.183853 119.002045 41.996503 128.029748 0.000000 0.000000 0.000000 30.747023 -6.991369 7.503871 51.487372 45.129929 -25.731715 -19.696288 -63.625268 45.344080 0.000000 0.000000 0.000000 
-0.037884 0.572057 -0.013125 -4.866290 0.418106 25.905532 9.955541 0.194515 61.578852 -1.780030 2.150371 -68.851473 -5.048291 17.004707 101.622272 0.000000 0.000000 0.000000 -22.499420 6.987822 54.217903 17.999507 5.411582 -66.954143 -8.520068 -20.078680 99.491001 0.000000 0.000000 0.000000 -6.385599 0.125687 -40.359922 16.694546 12.953059 -117.515545 -0.403594 13.801218 144.164083 10.555684 1.734489 -122.455441 0.000000 0.000000 0.000000 -12.200581 17.882635 -9.108198 -56.038543 -6.568045 -50.447029 108.130231 42.056581 118.487927 0.000000 0.000000 0.000000 29.941910 -7.172186 6.815064 52.328114 45.672727 -26.865614 -21.033039 -63.920324 48.112028 0.000000 0.000000 0.000000 
-0.038456 0.569638 -0.014022 -4.718301 0.688294 25.780679 9.570179 0.313983 62.254088 -1.294603 2.366071 -69.839580 -5.831945 16.905809 102.339418 0.000000 0.000000 0.000000 -22.491842 6.925297 55.148333 17.386439 5.137296 -67.803603 -4.937258 -19.020564 99.349958 0.000000 0.000000 0.000000 -6.641913 -0.060847 -42.336603 19.141935 14.674164 -118.829198 -0.265774 16.912533 146.993179 20.224747 1.937297 -123.088549 0.000000 0.000000 0.000000 -11.915568 18.294057 -9.750421 -58.007369 -7.835305 -53.124362 98.338100 41.481807 111.924410 0.000000 0.000000 0.000000 29.833752 -6.151628 6.777239 51.939691 45.859788 -27.050284 -22.968316 -66.201440 50.770480 0.000000 0.000000 0.000000 
-0.038872 0.567759 -0.016126 -4.331085 1.274074 25.263123 9.421635 0.120754 63.807585 -1.299933 2.299136 -71.853801 -4.030625 17.294502 102.795899 0.000000 0.000000 0.000000 -22.412979 6.672036 56.441831 17.066150 4.990176 -68.716129 -3.749137 -18.728409 100.025350 0.000000 0.000000 0.000000 -6.841276 -0.325663 -43.045148 20.782486 15.028989 -117.344017 -0.558686 18.560642 145.855481 27.554266 2.452441 -123.034401 0.000000 0.000000 0.000000 -11.790883 18.543931 -9.821377 -59.275117 -9.039430 -51.882667 91.827326 41.811695 105.870296 0.000000 0.000000 0.000000 29.322480 -6.405623 6.606202 52.837024 46.044486 -25.892213 -24.627160 -66.493004 52.293293 0.000000 0.000000 0.000000 
-0.039426 0.565014 -0.020071 -4.004407 1.228881 25.040677 8.612251 0.691893 64.445690 -0.521209 2.712921 -72.550995 -4.908951 17.131614 103.063705 0.000000 0.000000 0.000000 -22.443988 6.699434 56.686299 15.905493 4.394520 -68.859841 -0.446336 -17.759911 100.168343 0.000000 0.000000 0.000000 -6.446100 -0.230283 -42.929526 21.993541 15.369340 -115.556394 -0.811962 20.240966 143.776751 36.121080 3.300475 -123.397654 0.000000 0.000000 0.000000 -11.615089 19.326021 -10.438057 -60.594680 -9.508191 -49.709652 85.970120 42.967631 99.708996 0.000000 0.000000 0.000000 29.023725 -6.944346 6.711100 53.647003 47.065436 -23.554237 -25.390071 -67.043450 53.082623 0.000000 0.000000 0.000000 
-0.040110 0.562795 -0.026004 -3.706332 1.294106 24.908156 7.804043 1.218980 65.077388 0.545147 3.323725 -73.774277 -5.574136 17.167262 104.486835 0.000000 0.000000 0.000000 -22.437374 6.653635 56.891136 14.701469 3.737315 -68.915983 4.205830 -16.268905 99.336899 0.000000 0.000000 0.000000 -6.021907 -0.147643 -42.715972 20.971299 14.113254 -113.304841 -1.394682 19.033284 140.568486 40.878997 4.372128 -123.539544 0.000000 0.000000 0.000000 -12.680576 19.445778 -10.184308 -60.728919 -11.669248 -46.107702 84.312746 46.054449 99.468562 0.000000 0.000000 0.000000 28.478942 -7.033598 6.813101 54.112804 47.710732 -21.917074 -26.587417 -66.816853 53.483138 0.000000 0.000000 0.000000 
-0.041114 0.560580 -0.033574 -3.483493 1.094248 24.889918 7.288365 1.668105 64.979051 0.674041 3.427989 -74.278561 -4.537802 17.522165 105.696701 0.000000 0.000000 0.000000 -22.799000 6.867178 55.991856 13.949619 3.281542 -68.275545 8.112907 -15.192234 100.132355 0.000000 0.000000 0.000000 -5.916470 -0.053688 -41.814092 21.560891 14.624648 -113.672808 -2.002891 20.095676 139.203713 44.938171 4.723794 -122.892025 0.000000 0.000000 0.000000 -11.875525 19.781223 -10.555222 -61.943107 -11.150235 -44.445512 82.542234 46.944863 96.724885 0.000000 0.000000 0.000000 27.399505 -7.687202 6.236658 56.025699 46.923427 -20.429670 -29.100156 -66.929621 55.927975 0.000000 0.000000 0.000000 
-0.042523 0.560681 -0.042042 -3.459295 0.658439 25.173193 6.896033 2.163198 64.637862 0.637811 3.493880 -74.693652 -4.099398 17.737892 106.664136 0.000000 0.000000 0.000000 -22.264158 6.715277 55.373200 11.970432 2.328699 -68.428870 12.213394 -13.641484 98.874102 0.000000 0.000000 0.000000 -5.838157 0.097857 -41.264642 20.512487 14.089712 -113.225541 -3.333436 18.882228 137.086196 44.200214 5.279724 -122.413106 0.000000 0.000000 0.000000 -12.018984 20.180435 -10.569651 -62.473934 -11.669486 -42.052041 87.230935 49.639734 104.980452 0.000000 0.000000 0.000000 27.114492 -8.191873 6.040601 57.555468 46.580116 -19.967123 -35.710392 -65.689578 61.491973 0.000000 0.000000 0.000000 
-0.044282 0.560535 -0.050781 -3.094420 0.460634 25.740502 6.600921 2.431502 64.022197 0.099664 3.177222 -74.382810 -2.714052 17.892196 105.889548 0.000000 0.000000 0.000000 -21.901674 6.533742 54.622564 10.134195 1.342428 -68.017430 17.444302 -11.049983 95.560332 0.000000 0.000000 0.000000 -6.760443 -0.052386 -39.951473 21.563751 15.465280 -116.042461 -4.889726 20.219668 137.313306 40.815210 4.847316 -120.951983 0.000000 0.000000 0.000000 -10.293850 20.055158 -10.448258 -63.048021 -9.994599 -41.929953 93.456706 50.942922 113.400451 0.000000 0.000000 0.000000 25.822667 -8.904067 5.185344 60.630641 45.353680 -19.418170 -42.847695 -65.065968 69.214250 0.000000 0.000000 0.000000 
-0.046015 0.562807 -0.059533 -2.998946 0.183902 26.346505 6.194634 2.829075 63.488152 0.342244 3.381357 -74.646344 -4.027519 17.596330 105.324957 0.000000 0.000000 0.000000 -21.533734 6.452366 54.472273 8.975218 0.773920 -68.709802 20.278982 -8.777042 91.579337 0.000000 0.000000 0.000000 -7.803741 -0.192017 -39.037129 21.554951 15.948760 -117.891706 -6.606309 20.099199 136.860409 36.314022 4.764858 -119.708082 0.000000 0.000000 0.000000 -8.884702 20.818857 -11.178482 -63.085421 -7.335615 -41.800708 103.793957 50.186864 125.276909 0.000000 0.000000 0.000000 24.912663 -9.708497 4.298623 62.662234 42.873338 -20.425167 -52.151746 -64.227229 79.378020 0.000000 0.000000 0.000000 
-0.047122 0.566585 -0.068873 -3.143747 -0.238964 26.646169 5.405730 3.556461 63.056935 0.912226 3.842511 -75.732671 -3.837622 17.815722 106.748907 0.000000 0.000000 0.000000 -21.652847 6.658266 53.702443 9.282410 0.991009 -68.498324 19.627043 -8.032438 88.345087 0.000000 0.000000 0.000000 -7.945217 -0.035535 -36.302486 21.190979 16.364488 -119.282083 -7.384367 19.304145 134.672522 33.234076 4.340974 -117.599556 0.000000 0.000000 0.000000 -7.150525 21.192083 -11.710215 -63.372793 -3.627665 -40.617668 112.052737 47.673904 130.094184 0.000000 0.000000 0.000000 24.076850 -10.956727 2.958942 64.593656 40.015908 -19.758771 -56.647600 -64.861467 84.394104 0.000000 0.000000 0.000000 
-0.047180 0.571639 -0.079225 -3.142610 -0.319576 27.274383 4.920045 3.810703 61.571941 1.476200 4.173125 -75.123901 -5.206646 17.593050 106.806473 0.000000 0.000000 0.000000 -21.653473 6.643011 52.901116 9.392672 1.030632 -68.535608 19.578555 -6.786378 84.383214 0.000000 0.000000 0.000000 -7.950417 0.036771 -34.856147 20.991239 15.995488 -118.443050 -7.413378 18.506870 132.414713 29.152124 4.143543 -117.014030 0.000000 0.000000 0.000000 -6.105922 21.816719 -12.414828 -63.128211 -0.280171 -40.162931 116.677557 44.410935 128.704722 0.000000 0.000000 0.000000 24.551743 -11.664965 2.531657 64.542672 37.890281 -19.879408 -59.516944 -67.282008 89.459449 0.000000 0.000000 0.000000 
-0.046438 0.578274 -0.089766 -3.712584 -0.532187 27.683443 3.879817 4.513308 60.406482 2.795459 5.013148 -75.290670 -6.124772 17.553898 107.612534 0.000000 0.000000 0.000000 -22.370949 7.013097 51.281480 10.895843 1.771160 -67.293025 20.634757 -4.806762 80.188851 0.000000 0.000000 0.000000 -7.448393 0.242143 -32.682325 22.517808 16.942015 -117.304419 -8.310672 19.846641 129.449322 27.563290 3.755220 -114.947044 0.000000 0.000000 0.000000 -4.942207 22.515190 -13.094048 -62.511235 4.203224 -40.059752 118.991410 40.963837 121.868193 0.000000 0.000000 0.000000 25.200333 -11.779657 2.596799 63.795718 36.073453 -19.336234 -59.429884 -69.479309 89.465948 0.000000 0.000000 0.000000 
-0.045644 0.585171 -0.098771 -4.227925 -1.376264 28.560253 2.761030 5.517626 59.181435 4.002654 5.880955 -74.836415 -9.854728 16.762538 106.366011 0.000000 0.000000 0.000000 -23.588948 7.897007 49.491851 12.236420 2.558205 -67.574417 21.793866 -3.770630 79.227218 0.000000 0.000000 0.000000 -6.987187 0.499087 -31.542550 22.734594 16.880845 -114.508465 -9.346267 18.928810 125.256076 22.535635 3.945721 -113.963200 0.000000 0.000000 0.000000 -4.267588 23.966104 -14.247568 -61.908204 9.506505 -39.368678 118.284001 38.166408 111.823600 0.000000 0.000000 0.000000 25.249758 -11.401042 2.305212 64.006715 33.646420 -18.537614 -57.827114 -70.738037 86.552385 0.000000 0.000000 0.000000 
-0.045599 0.590711 -0.105091 -4.787866 -1.285774 28.921875 2.241198 5.751481 58.435463 5.839058 6.947031 -74.482628 -12.113075 16.274667 105.944410 0.000000 0.000000 0.000000 -23.931900 7.991391 48.747259 13.683573 3.281123 -67.703888 18.729079 -7.233811 84.659891 0.000000 0.000000 0.000000 -7.040402 0.501678 -31.154870 24.686144 17.479536 -112.530827 -10.243335 20.178837 123.859904 23.026313 3.836590 -112.980948 0.000000 0.000000 0.000000 -2.924113 24.134599 -14.469697 -61.804059 13.488803 -40.375310 117.693888 36.056825 105.042585 0.000000 0.000000 0.000000 26.087633 -12.003652 2.299630 63.341298 33.428454 -18.472880 -55.140775 -71.469179 84.403852 0.000000 0.000000 0.000000 
-0.046744 0.592955 -0.109095 -5.590466 -2.346880 29.367137 0.922628 7.067419 58.220612 8.699692 8.783429 -73.842472 -17.141956 15.001585 104.401952 0.000000 0.000000 0.000000 -24.438261 8.666286 48.024381 14.023513 3.731402 -68.466879 16.641472 -9.962910 90.828622 0.000000 0.000000 0.000000 -6.270537 0.813625 -31.370546 23.122833 16.686593 -110.323586 -10.402892 17.474945 121.663489 18.995213 4.251505 -113.383325 0.000000 0.000000 0.000000 -3.141320 24.580219 -14.672114 -61.299211 15.548788 -39.598895 120.225513 35.036564 105.472599 0.000000 0.000000 0.000000 26.468922 -10.866052 2.448324 62.739182 33.431570 -18.005196 -53.466327 -72.715799 81.979024 0.000000 0.000000 0.000000 
-0.048273 0.593250 -0.111560 -5.983204 -2.146668 29.221857 0.732675 7.160092 58.438038 10.590677 9.871348 -73.850418 -17.717272 14.856718 104.355045 0.000000 0.000000 0.000000 -24.091502 8.507459 48.695500 14.731903 4.188898 -69.530070 12.364790 -13.272436 97.934250 0.000000 0.000000 0.000000 -7.115434 0.660840 -31.298016 23.557933 16.486228 -109.351005 -10.911623 16.615414 120.947186 18.653750 4.203221 -112.544268 0.000000 0.000000 0.000000 -3.770099 22.858147 -13.035238 -61.531780 15.071705 -39.506586 124.250984 35.558293 111.265361 0.000000 0.000000 0.000000 27.050995 -10.057740 2.932423 62.432051 35.889801 -16.745051 -47.061419 -75.100262 77.694169 0.000000 0.000000 0.000000 
-0.049622 0.591203 -0.113665 -6.277216 -2.607203 29.093059 0.201842 7.864155 59.327439 11.554000 10.729410 -75.022812 -18.259364 14.934799 105.120777 0.000000 0.000000 0.000000 -24.480976 9.026854 49.360787 15.424736 4.828361 -71.348156 7.753918 -15.957731 105.194738 0.000000 0.000000 0.000000 -6.747603 0.795193 -31.871858 22.193189 15.993835 -109.135881 -10.740382 15.474163 122.227126 14.550889 4.367785 -113.029655 0.000000 0.000000 0.000000 -4.852584 21.829531 -12.081031 -61.501845 14.324875 -40.164594 129.580450 35.732358 120.696230 0.000000 0.000000 0.000000 26.810414 -7.768267 4.355807 60.735426 40.293648 -15.679985 -33.720985 -77.538820 66.683902 0.000000 0.000000 0.000000 
-0.050479 0.589039 -0.115448 -6.715184 -2.406941 28.635862 -0.061070 8.123651 60.240359 12.735173 11.494404 -75.590580 -18.114837 14.940773 105.123746 0.000000 0.000000 0.000000 -24.539607 9.140768 50.422005 16.158487 5.364328 -72.599166 6.000739 -16.937999 109.019819 0.000000 0.000000 0.000000 -6.348077 0.827823 -32.558112 19.948344 13.602366 -105.113086 -10.169632 12.018705 119.923779 14.304192 4.501223 -113.203872 0.000000 0.000000 0.000000 -6.917602 19.861975 -10.201189 -60.994929 13.607895 -39.333408 134.274561 36.263629 126.812346 0.000000 0.000000 0.000000 27.833590 -6.048937 4.882959 58.488009 42.062765 -14.947725 -20.186343 -76.266823 50.485036 0.000000 0.000000 0.000000 
-0.051034 0.588797 -0.117078 -6.897537 -2.573405 28.504768 -0.154371 8.323185 60.560854 12.421301 11.562238 -76.717088 -17.376674 15.374041 106.311374 0.000000 0.000000 0.000000 -24.992226 9.444671 50.236171 17.015600 5.899355 -72.755690 4.967193 -17.394181 110.871931 0.000000 0.000000 0.000000 -5.123300 1.088238 -33.632405 17.751906 12.734221 -105.426138 -8.172709 11.290033 123.741610 13.323123 4.142153 -114.536104 0.000000 0.000000 0.000000 -7.622879 18.831557 -9.632107 -61.495153 12.410943 -41.872999 137.483525 33.746205 131.137700 0.000000 0.000000 0.000000 29.694745 -4.628837 7.008874 54.895040 46.332614 -16.307490 -12.388673 -74.103302 42.928736 0.000000 0.000000 0.000000 
-0.051734 0.592844 -0.118624 -6.901101 -2.257539 28.505747 0.309796 7.865937 60.478437 11.620132 11.136781 -77.248726 -15.338461 15.905269 106.967322 0.000000 0.000000 0.000000 -24.882797 9.251176 50.231470 17.522384 6.142227 -72.803029 3.638772 -17.777885 111.822929 0.000000 0.000000 0.000000 -4.720993 1.132148 -34.389426 14.508194 10.942977 -105.867935 -7.171648 8.433936 126.288536 10.162614 4.132714 -115.691479 0.000000 0.000000 0.000000 -9.501802 17.855864 -8.701471 -61.455235 11.725099 -43.833182 141.737231 31.462932 135.801754 0.000000 0.000000 0.000000 30.140972 -2.868353 7.823032 51.816306 47.688646 -18.264077 -10.660470 -71.787438 38.938138 0.000000 0.000000 0.000000 
-0.052294 0.600095 -0.120448 -7.071057 -2.106034 28.672153 0.509288 7.653589 60.261121 11.454326 11.134446 -77.695098 -14.669153 15.916390 106.459585 0.000000 0.000000 0.000000 -24.373971 8.988241 50.684406 17.829172 6.363140 -73.023131 2.666163 -17.773046 110.193867 0.000000 0.000000 0.000000 -4.572643 1.163714 -34.841639 14.831194 10.983927 -105.417193 -7.231365 9.343792 126.867295 10.481556 4.203197 -116.520746 0.000000 0.000000 0.000000 -8.757874 18.299593 -9.390583 -61.994617 14.205311 -45.905207 141.340359 26.913208 124.423644 0.000000 0.000000 0.000000 31.038452 -1.406559 9.101620 49.585243 48.574892 -18.729722 -10.484249 -70.910999 37.292288 0.000000 0.000000 0.000000 
-0.052848 0.606665 -0.123013 -7.037837 -2.445879 29.168141 0.180868 7.895849 59.463302 11.132163 11.120926 -78.183954 -13.290925 16.174585 106.441058 0.000000 0.000000 0.000000 -24.522802 9.135454 49.953523 17.360791 6.166797 -73.392286 3.850589 -17.415046 109.287486 0.000000 0.000000 0.000000 -4.723354 1.200317 -34.706344 11.889759 9.590510 -105.484570 -6.230672 5.769589 127.909236 3.622834 4.073807 -117.951450 0.000000 0.000000 0.000000 -9.955536 17.202815 -8.427956 -61.455017 13.458602 -46.415847 144.618315 25.459388 123.174409 0.000000 0.000000 0.000000 30.873884 -0.071357 9.109867 47.718728 49.748706 -19.150805 -6.322135 -70.204704 32.367299 0.000000 0.000000 0.000000 
-0.053602 0.612382 -0.126001 -6.877527 -2.899654 29.522417 0.206092 7.938463 58.647040 10.628432 10.986975 -78.342645 -10.608441 16.801144 107.016278 0.000000 0.000000 0.000000 -24.432607 9.220311 49.493703 16.475357 5.836027 -74.201510 4.025678 -17.348847 109.145737 0.000000 0.000000 0.000000 -5.120525 1.203811 -34.416053 11.288492 9.593453 -106.039043 -6.410826 4.778951 128.058553 -0.913074 4.019610 -118.600087 0.000000 0.000000 0.000000 -9.381100 17.562086 -8.849851 -61.675343 15.024320 -46.650279 143.285803 21.867366 109.730526 0.000000 0.000000 0.000000 30.725422 0.126990 8.811073 46.471379 49.616496 -19.344231 -6.430996 -71.167123 31.875929 0.000000 0.000000 0.000000 
-0.054922 0.613725 -0.128340 -6.577380 -3.678569 29.545857 0.091274 8.275882 58.384115 10.979013 11.270198 -77.664508 -11.245305 16.472895 105.653133 0.000000 0.000000 0.000000 -24.734904 9.629344 49.001374 15.613213 5.542545 -74.962572 5.934513 -16.962120 109.572268 0.000000 0.000000 0.000000 -5.502841 1.249009 -34.157490 10.896470 9.903930 -107.098902 -6.780500 4.514204 129.550214 -4.659103 4.095561 -118.568492 0.000000 0.000000 0.000000 -8.817416 17.620781 -9.139259 -61.406572 14.830813 -46.759774 143.807726 19.655251 101.295702 0.000000 0.000000 0.000000 29.101867 0.693358 8.634847 48.180267 49.386926 -19.327041 -9.792680 -71.193967 35.136215 0.000000 0.000000 0.000000 
-0.057167 0.612103 -0.129352 -5.883780 -4.198905 29.783937 0.388974 8.182225 57.888319 10.423264 10.898659 -76.840202 -10.187096 16.630015 105.173759 0.000000 0.000000 0.000000 -24.296567 9.587866 49.014422 13.707932 4.611463 -76.405381 7.062333 -16.970137 111.399346 0.000000 0.000000 0.000000 -6.414396 1.136417 -33.378201 8.513644 8.696721 -106.522568 -6.957818 1.436399 127.875659 -6.447868 4.258306 -119.255602 0.000000 0.000000 0.000000 -9.651697 17.048513 -8.325896 -59.915463 13.838928 -44.409934 144.186738 20.132486 98.527529 0.000000 0.000000 0.000000 28.264417 0.691288 7.445600 49.340834 48.215399 -18.588009 -9.243891 -72.132661 34.113916 0.000000 0.000000 0.000000 
-0.059707 0.608834 -0.128343 -5.465229 -5.063836 29.752452 0.751262 8.363266 58.226833 10.389664 10.905519 -75.931912 -10.990394 16.276413 103.827995 0.000000 0.000000 0.000000 -24.087755 9.880033 49.324966 12.769732 4.294327 -77.246061 4.123741 -17.740765 113.291523 0.000000 0.000000 0.000000 -6.694772 1.220802 -33.195058 8.543597 9.686526 -109.996757 -8.007294 2.859475 131.172029 -5.174328 4.710930 -118.339207 0.000000 0.000000 0.000000 -7.614897 17.538225 -9.703360 -59.870971 15.610078 -46.175929 141.054514 16.925565 83.603520 0.000000 0.000000 0.000000 26.913870 0.419952 7.383173 52.723053 47.998258 -19.336586 -19.202865 -73.200175 46.000322 0.000000 0.000000 0.000000 
-0.061919 0.604488 -0.126334 -5.358264 -5.237275 29.757284 1.489559 7.956793 58.216915 10.062603 10.605032 -74.979663 -13.519152 15.489061 102.458885 0.000000 0.000000 0.000000 -23.431439 9.601169 49.491583 12.016330 3.860658 -76.650116 3.580502 -17.929398 114.428562 0.000000 0.000000 0.000000 -7.376992 1.141454 -33.631850 10.494165 10.662566 -109.216425 -9.328435 5.259973 130.293916 -4.492875 4.982363 -118.406180 0.000000 0.000000 0.000000 -6.705531 18.511212 -10.509773 -59.610589 15.389000 -45.206496 140.344847 15.826600 80.640470 0.000000 0.000000 0.000000 27.029954 -0.816177 6.988017 55.007798 47.246976 -19.094593 -28.364163 -73.738308 56.148110 0.000000 0.000000 0.000000 
-0.062988 0.601516 -0.123699 -5.222482 -5.893828 29.531919 2.246503 7.728537 58.102721 8.957127 9.987841 -74.098462 -15.683132 15.225844 103.042254 0.000000 0.000000 0.000000 -23.201085 9.748748 49.472850 11.628169 3.769609 -75.895118 2.741647 -18.014326 114.425215 0.000000 0.000000 0.000000 -7.493503 1.247877 -34.263845 8.750723 10.262952 -110.854542 -9.527533 3.994242 131.682908 -3.269592 5.267158 -118.426000 0.000000 0.000000 0.000000 -5.683181 19.217078 -11.686730 -59.497016 15.447273 -45.028829 138.286023 12.324674 69.605349 0.000000 0.000000 0.000000 26.339093 -2.277934 5.740873 56.003524 44.882991 -21.280046 -43.068031 -73.210339 70.502532 0.000000 0.000000 0.000000 
-0.063064 0.598566 -0.121031 -5.256098 -5.783416 29.117168 2.989867 7.110754 57.628513 8.058387 9.190630 -72.398283 -18.025139 14.439462 101.788056 0.000000 0.000000 0.000000 -22.749375 9.396733 49.310727 11.694876 3.739619 -74.192038 3.170482 -17.781486 113.240259 0.000000 0.000000 0.000000 -7.511638 1.217087 -34.448704 9.978289 10.960002 -111.283264 -9.857424 5.758561 131.120617 -0.229182 5.336865 -117.887033 0.000000 0.000000 0.000000 -4.912565 20.005929 -12.233932 -59.947808 13.843231 -43.539719 137.411080 10.430490 68.371233 0.000000 0.000000 0.000000 26.368648 -4.354617 4.762555 58.147560 41.595632 -22.106100 -50.379519 -69.754694 75.756711 0.000000 0.000000 0.000000 
-0.062680 0.593229 -0.118768 -4.928905 -5.294696 29.158850 4.311510 6.128191 57.790327 6.521748 8.082043 -71.264130 -20.029756 13.999017 101.776673 0.000000 0.000000 0.000000 -21.666705 8.702193 50.148626 10.546833 3.030323 -74.175349 7.374368 -16.864046 112.094555 0.000000 0.000000 0.000000 -7.958375 1.086524 -35.600137 10.159695 10.779889 -111.854504 -10.283539 5.697339 130.663635 -2.526201 5.396845 -117.763230 0.000000 0.000000 0.000000 -6.311724 20.591387 -12.030348 -58.228083 10.350824 -41.636159 133.683080 7.640161 62.299777 0.000000 0.000000 0.000000 26.946318 -5.552968 3.857730 57.760069 37.934101 -24.247245 -53.937618 -66.812861 76.267891 0.000000 0.000000 0.000000 
-0.061869 0.584130 -0.116632 -5.176909 -5.924762 28.843964 4.396729 6.460823 58.559399 6.267407 7.781366 -69.729618 -24.198821 12.244121 99.342378 0.000000 0.000000 0.000000 -22.097766 9.202974 50.000288 10.737692 3.156334 -72.432113 10.953065 -15.781344 110.081138 0.000000 0.000000 0.000000 -7.076907 1.383915 -36.103890 10.708108 11.693076 -112.686976 -9.845090 6.603217 131.276060 -0.000267 5.314591 -117.246032 0.000000 0.000000 0.000000 -7.662330 20.354582 -11.406319 -56.022355 5.814357 -40.369346 129.464768 6.021099 58.861680 0.000000 0.000000 0.000000 26.170183 -6.556972 3.408553 59.226721 35.880672 -25.208671 -53.326001 -63.224039 73.345248 0.000000 0.000000 0.000000 
-0.060812 0.575350 -0.115285 -5.414094 -6.210742 28.483618 4.904535 6.460977 59.652031 5.644745 7.452243 -69.640821 -26.859973 11.309868 98.731997 0.000000 0.000000 0.000000 -22.302874 9.575655 50.703989 11.203780 3.486514 -72.235826 11.644810 -15.369318 108.861756 0.000000 0.000000 0.000000 -6.041820 1.767296 -38.769474 12.891206 12.669825 -110.653200 -9.311364 9.059309 131.899269 -4.940461 4.773719 -117.443944 0.000000 0.000000 0.000000 -9.654292 19.633582 -10.281172 -52.755422 -0.213757 -39.658972 121.739229 3.435906 51.548385 0.000000 0.000000 0.000000 26.781168 -7.642505 3.919037 57.705874 35.492177 -27.274800 -52.619353 -60.450625 71.618847 0.000000 0.000000 0.000000 
-0.059364 0.563773 -0.114297 -5.894550 -6.677771 27.696158 5.378569 6.469903 60.314938 5.402388 7.020905 -67.146724 -29.428632 10.120907 97.358187 0.000000 0.000000 0.000000 -23.183523 10.198977 50.132893 12.005990 3.818262 -69.182420 13.258700 -14.607165 107.174847 0.000000 0.000000 0.000000 -3.870981 2.447000 -40.124328 13.270073 13.025478 -109.677307 -7.233656 10.183637 134.168865 -7.477478 3.988011 -116.732295 0.000000 0.000000 0.000000 -10.389445 18.471432 -9.540554 -51.193269 -4.844499 -40.308530 110.780157 2.573539 48.313075 0.000000 0.000000 0.000000 28.792173 -8.378590 5.096197 54.907600 36.795117 -29.585360 -46.471724 -56.227299 62.810510 0.000000 0.000000 0.000000 
-0.057495 0.554654 -0.113784 -6.318823 -6.574340 27.864543 5.760508 6.206564 60.284863 4.341124 6.198081 -65.019905 -30.863936 8.871311 95.279071 0.000000 0.000000 0.000000 -23.199693 10.145726 49.797129 11.862500 3.660605 -67.986012 14.838955 -13.890223 105.781924 0.000000 0.000000 0.000000 -2.368936 3.117351 -43.391409 14.230131 13.071821 -108.858485 -6.206668 11.670627 136.972961 -12.081028 3.601412 -116.099813 0.000000 0.000000 0.000000 -11.173263 18.104826 -9.732723 -50.754497 -7.682072 -43.243794 100.533033 1.132394 45.204917 0.000000 0.000000 0.000000 29.407429 -8.781992 5.996897 53.056334 37.554423 -33.474461 -44.979230 -51.259301 59.338404 0.000000 0.000000 0.000000 
-0.055741 0.546560 -0.113605 -6.014019 -5.778253 27.043951 7.248634 4.934700 60.870367 2.031084 4.795349 -63.888981 -27.105216 10.559010 96.585683 0.000000 0.000000 0.000000 -22.965196 9.681571 50.177309 11.139777 3.042334 -66.277334 15.331741 -13.783301 105.851143 0.000000 0.000000 0.000000 -2.254621 2.930770 -43.617298 14.429361 13.395337 -111.913045 -5.681323 12.870768 141.348751 -9.221326 3.225724 -115.329437 0.000000 0.000000 0.000000 -11.402594 17.102893 -9.743046 -50.667833 -7.456251 -47.113423 89.953050 0.338398 42.155612 0.000000 0.000000 0.000000 29.138372 -8.898214 6.048069 52.433850 37.582530 -36.457095 -43.518321 -47.774870 56.340415 0.000000 0.000000 0.000000 
-0.054384 0.540452 -0.114197 -5.598116 -5.228267 26.930615 8.229700 4.056588 61.065652 -0.874183 3.282554 -63.392341 -24.488372 11.763273 97.905259 0.000000 0.000000 0.000000 -22.157451 9.172957 51.553599 8.917921 1.843259 -67.296863 18.126646 -13.000046 105.282622 0.000000 0.000000 0.000000 -2.136270 2.913130 -44.909048 12.800566 12.666462 -115.514735 -4.477396 11.687763 145.982371 -11.909129 2.851029 -115.153042 0.000000 0.000000 0.000000 -11.147135 17.122316 -10.973956 -51.991744 -5.059111 -52.581674 83.650041 -4.175844 38.281884 0.000000 0.000000 0.000000 28.347293 -9.203374 5.096678 53.430884 36.219846 -40.343285 -45.459709 -43.688101 57.051468 0.000000 0.000000 0.000000 
-0.053063 0.535750 -0.115628 -5.041546 -3.865839 26.400719 9.772216 2.389761 60.921810 -3.817264 1.688923 -62.906624 -21.372366 13.364146 100.605120 0.000000 0.000000 0.000000 -20.973931 8.029960 53.064816 6.296885 0.257856 -67.133488 24.360911 -10.714314 103.039453 0.000000 0.000000 0.000000 -3.028347 2.333245 -45.995030 10.470247 11.277489 -121.735090 -3.314672 9.045438 152.855689 -11.874890 2.651824 -113.988516 0.000000 0.000000 0.000000 -9.071020 16.186000 -13.695359 -55.425235 -0.909561 -60.074154 83.013431 -11.162604 35.081116 0.000000 0.000000 0.000000 26.513772 -10.459007 2.307207 56.543708 34.019842 -46.097667 -50.369484 -37.585587 61.768055 0.000000 0.000000 0.000000 
-0.051689 0.533423 -0.117745 -4.704973 -3.136881 25.839286 11.053278 1.189790 60.767145 -7.155037 0.040651 -62.739448 -16.568966 15.381359 104.310132 0.000000 0.000000 0.000000 -20.254698 7.389962 54.416345 4.342499 -0.874607 -67.770508 27.774362 -9.110145 101.271097 0.000000 0.000000 0.000000 -3.268766 2.024648 -45.903962 9.074315 10.518025 -125.180289 -2.198583 7.796784 155.762258 -13.956071 2.244211 -114.131349 0.000000 0.000000 0.000000 -9.659164 16.534140 -14.168030 -57.616853 0.485451 -64.139385 86.229071 -12.641979 39.431657 0.000000 0.000000 0.000000 25.829329 -10.247327 1.388372 56.837253 33.516984 -46.621644 -51.994542 -37.710168 63.179253 0.000000 0.000000 0.000000 
-0.050567 0.533641 -0.119469 -4.066690 -1.672615 25.951073 12.033578 -0.158574 60.563135 -9.095034 -1.117844 -64.580515 -12.901036 16.504589 106.961015 0.000000 0.000000 0.000000 -19.153122 6.198480 56.289695 2.845535 -2.001504 -70.293414 27.436655 -8.566135 99.406127 0.000000 0.000000 0.000000 -5.250942 1.002266 -46.190813 9.799312 10.288025 -125.999076 -2.602472 7.873135 155.521651 -17.027288 2.518594 -114.732589 0.000000 0.000000 0.000000 -9.830301 16.962035 -13.955162 -58.745411 2.011737 -64.342424 91.372374 -8.635093 45.582853 0.000000 0.000000 0.000000 25.286738 -10.787294 0.945857 57.286195 33.023278 -46.402938 -54.242440 -39.216651 66.952817 0.000000 0.000000 0.000000 
-0.050178 0.531462 -0.120180 -3.767217 -1.310351 26.083923 12.541002 -0.670590 60.830482 -10.120461 -1.725952 -66.017246 -11.364341 16.872989 107.804768 0.000000 0.000000 0.000000 -18.719284 5.796598 56.989673 1.647834 -2.795062 -71.341585 26.931414 -8.194942 97.873286 0.000000 0.000000 0.000000 -5.700036 0.745898 -45.615790 9.017327 9.727084 -127.642375 -1.730725 6.822304 155.695532 -18.259072 2.376875 -114.298394 0.000000 0.000000 0.000000 -8.729765 18.570058 -15.214049 -60.286960 5.119658 -65.954841 95.081301 -8.901685 49.121654 0.000000 0.000000 0.000000 25.050358 -11.297017 0.461395 58.040898 33.018916 -45.035542 -55.494866 -40.593776 69.424620 0.000000 0.000000 0.000000 
-0.050892 0.531255 -0.119980 -3.711067 -0.781517 25.793287 12.649872 -0.994890 61.060456 -9.916205 -1.774096 -67.268201 -9.564782 17.425462 109.501746 0.000000 0.000000 0.000000 -18.263860 5.306055 57.820096 1.468780 -2.990311 -72.074030 24.915081 -8.755291 97.453875 0.000000 0.000000 0.000000 -6.801131 0.256546 -45.562441 9.954288 10.235622 -128.363700 -2.200173 7.626304 155.988099 -13.275099 2.334216 -115.184952 0.000000 0.000000 0.000000 -8.190616 19.314612 -16.004578 -60.372255 7.722505 -67.361547 97.928615 -8.522818 49.358953 0.000000 0.000000 0.000000 24.943833 -12.008195 0.029035 58.351657 32.838541 -45.363008 -56.906283 -39.984967 71.186301 0.000000 0.000000 0.000000 
-0.052617 0.529451 -0.119287 -3.505572 -0.487449 25.399435 13.208421 -1.516978 61.250632 -10.097192 -1.939621 -67.899406 -7.412280 17.945142 111.005720 0.000000 0.000000 0.000000 -18.023520 5.015240 58.269690 1.485575 -3.010263 -71.891047 21.589088 -9.791940 96.952696 0.000000 0.000000 0.000000 -7.718190 -0.099873 -44.705255 8.459722 9.092801 -130.387800 -2.132618 5.582263 156.444161 -14.597239 2.599908 -115.374135 0.000000 0.000000 0.000000 -6.267586 19.920409 -17.745137 -60.387394 11.741467 -68.185427 98.480784 -8.659006 46.146485 0.000000 0.000000 0.000000 24.832850 -12.833636 -0.511013 58.876043 32.420870 -45.731165 -58.369749 -38.450711 72.346600 0.000000 0.000000 0.000000 
-0.054451 0.528827 -0.118391 -3.570500 -0.223149 25.184572 13.388790 -1.760360 61.446445 -9.555510 -1.708418 -68.097736 -4.978998 18.333624 111.551538 0.000000 0.000000 0.000000 -17.788327 4.756211 58.629104 2.172994 -2.619337 -71.733470 18.387387 -10.832322 96.669379 0.000000 0.000000 0.000000 -8.490837 -0.416157 -44.957472 8.671491 9.019556 -130.155639 -2.571348 5.317739 156.109312 -12.672927 2.876366 -115.266050 0.000000 0.000000 0.000000 -4.595485 19.484622 -18.518318 -59.802322 13.182060 -67.733072 100.884531 -6.953572 43.134448 0.000000 0.000000 0.000000 24.921011 -13.005872 -0.550507 59.254223 33.057213 -45.742765 -60.299201 -37.437398 74.731578 0.000000 0.000000 0.000000 
-0.055690 0.528346 -0.117646 -3.746603 0.140818 25.096532 12.888499 -1.617311 61.648319 -7.569189 -0.759391 -68.342322 -6.194994 18.137634 111.319264 0.000000 0.000000 0.000000 -17.532227 4.412724 58.698980 2.431592 -2.490890 -70.998237 18.702640 -10.264771 94.973810 0.000000 0.000000 0.000000 -9.088610 -0.640371 -43.728504 10.884608 10.736185 -130.936381 -2.685535 8.242344 155.235302 -1.743185 2.496168 -115.021890 0.000000 0.000000 0.000000 -2.641325 20.257967 -18.755872 -58.988929 13.973211 -65.959659 103.441764 -4.287692 44.913321 0.000000 0.000000 0.000000 25.792152 -13.478073 -0.086575 59.207309 33.851922 -43.327843 -61.190841 -38.190179 75.745261 0.000000 0.000000 0.000000 
-0.056181 0.527896 -0.117622 -4.308345 -0.443536 25.436626 12.306798 -0.920301 62.087853 -5.814070 0.261768 -69.326001 -7.473101 18.197550 112.329207 0.000000 0.000000 0.000000 -18.005912 4.994533 58.211662 4.190470 -1.438595 -71.464532 13.911646 -12.158703 95.719526 0.000000 0.000000 0.000000 -9.172648 -0.474964 -43.740096 14.365620 14.238367 -132.242051 -2.906986 13.054968 155.797538 6.328766 1.821293 -113.486551 0.000000 0.000000 0.000000 0.267313 20.372814 -19.287553 -58.302701 15.756755 -66.855994 105.512699 -4.688975 40.911381 0.000000 0.000000 0.000000 25.244223 -13.348655 -0.165533 59.610990 34.278375 -41.567748 -62.202222 -39.553450 76.790561 0.000000 0.000000 0.000000 
-0.056363 0.527749 -0.118445 -4.575191 -0.609922 25.656148 11.138084 -0.045157 62.463416 -3.575047 1.468575 -70.245293 -9.463342 18.017507 112.600607 0.000000 0.000000 0.000000 -18.718924 5.496155 57.624930 6.007699 -0.419812 -71.049549 11.665222 -12.859524 95.295358 0.000000 0.000000 0.000000 -8.620179 -0.201405 -41.863966 14.742289 14.993588 -132.999633 -2.630936 13.746356 153.748948 13.461729 1.344042 -112.030516 0.000000 0.000000 0.000000 1.650315 20.621496 -18.588744 -57.316449 15.628812 -62.758706 106.880562 -1.396335 43.197006 0.000000 0.000000 0.000000 24.433792 -13.566395 -0.132318 60.590706 34.065577 -38.240537 -62.476784 -41.819851 77.521415 0.000000 0.000000 0.000000 
-0.056275 0.526440 -0.119989 -5.291639 -1.128508 26.116719 9.970929 1.036899 62.698417 -0.806605 3.048747 -70.224615 -15.852605 16.903512 110.952640 0.000000 0.000000 0.000000 -19.537333 6.198920 56.423527 8.620990 1.081760 -70.676021 5.788067 -14.998494 96.071352 0.000000 0.000000 0.000000 -7.923739 0.175548 -40.429560 16.641416 16.661500 -131.318875 -3.196014 15.828750 150.172937 19.675125 1.183031 -111.788788 0.000000 0.000000 0.000000 0.882396 21.025037 -16.898029 -55.689686 13.259590 -57.409452 108.358018 4.720195 51.195363 0.000000 0.000000 0.000000 24.499695 -13.580597 0.701082 59.850085 35.616070 -34.191260 -62.075348 -45.656587 77.534321 0.000000 0.000000 0.000000 
-0.056530 0.527954 -0.121890 -5.313402 -0.565205 26.807547 9.197669 1.243280 61.861544 1.377179 4.097979 -69.576974 -19.776524 15.842295 109.111013 0.000000 0.000000 0.000000 -19.646304 5.929561 55.385520 9.396686 1.339544 -69.923512 6.887927 -14.518985 95.195075 0.000000 0.000000 0.000000 -8.149999 0.043709 -39.364201 18.618154 17.778908 -130.641026 -3.384032 17.576699 147.721632 22.098085 1.007066 -111.052128 0.000000 0.000000 0.000000 1.420880 20.510621 -15.615136 -54.404276 12.427611 -54.144117 108.691594 7.501088 51.945952 0.000000 0.000000 0.000000 24.155738 -13.804310 0.753262 59.804705 34.939851 -32.088891 -62.541040 -48.083830 78.470288 0.000000 0.000000 0.000000 
-0.057432 0.530137 -0.123852 -5.757086 -0.784152 27.687133 7.887080 2.246709 61.616934 4.052659 5.581575 -69.688667 -23.570079 14.268104 105.984014 0.000000 0.000000 0.000000 -20.339375 6.415257 54.430189 10.664306 2.032818 -70.503451 9.032379 -13.828048 95.485563 0.000000 0.000000 0.000000 -8.137097 0.165686 -38.227891 21.450478 19.187588 -127.277368 -4.866071 19.948600 142.413540 23.268756 1.660114 -111.309933 0.000000 0.000000 0.000000 -0.919454 22.327122 -15.021486 -51.627306 10.647392 -48.470383 107.444272 10.775327 53.742031 0.000000 0.000000 0.000000 24.105765 -13.300100 1.605348 58.351693 34.830140 -29.002863 -61.914644 -51.746768 77.070295 0.000000 0.000000 0.000000 
-0.059589 0.536107 -0.125205 -5.654640 -1.206224 28.309657 6.763843 3.096622 60.546983 5.751481 6.559914 -69.718663 -25.280117 13.767669 105.445260 0.000000 0.000000 0.000000 -20.742408 6.709731 52.961982 11.485378 2.496520 -70.124415 6.515734 -14.796247 96.089403 0.000000 0.000000 0.000000 -7.542461 0.398121 -37.516407 23.610678 20.302815 -124.489638 -5.015562 22.241817 139.542983 28.988815 1.075893 -110.061918 0.000000 0.000000 0.000000 -1.059697 22.156246 -14.275401 -50.881164 9.939221 -46.210481 108.684520 13.984443 56.667642 0.000000 0.000000 0.000000 24.519465 -13.640698 1.960078 58.686653 34.662735 -26.837466 -60.218894 -53.473176 76.066579 0.000000 0.000000 0.000000 
-0.063302 0.543206 -0.125728 -5.319101 -1.199631 28.619985 6.274103 3.354033 59.958462 6.549068 6.996408 -69.815523 -25.466602 13.357398 104.341411 0.000000 0.000000 0.000000 -20.849056 6.665349 51.971013 11.373725 2.432188 -70.306375 7.607909 -14.960286 99.160872 0.000000 0.000000 0.000000 -8.001218 0.307358 -36.382016 22.654619 18.832181 -122.160595 -6.428034 20.177454 135.870900 27.114904 2.177926 -110.996440 0.000000 0.000000 0.000000 -2.771255 23.136137 -14.531641 -49.140255 9.297520 -42.750141 108.666847 16.092230 57.939953 0.000000 0.000000 0.000000 25.311858 -13.591421 2.039553 55.970259 32.899792 -27.491683 -58.451595 -53.097076 70.864655 0.000000 0.000000 0.000000 
-0.068113 0.551678 -0.125107 -5.087823 -2.261849 28.732922 5.227018 4.493880 59.989035 6.778351 7.336897 -70.392830 -22.343459 13.890229 103.861034 0.000000 0.000000 0.000000 -21.805853 7.493952 50.547247 11.835144 2.860582 -70.520210 7.185200 -15.760339 103.510141 0.000000 0.000000 0.000000 -8.647431 0.362095 -37.251019 25.835362 19.942050 -117.133923 -8.410565 22.782718 132.243831 29.995483 2.514439 -111.182268 0.000000 0.000000 0.000000 -1.951694 23.656932 -14.758499 -48.550009 10.973023 -41.419566 111.036611 17.379621 58.463895 0.000000 0.000000 0.000000 25.519006 -14.008991 2.040288 55.673502 31.411157 -26.917545 -55.943419 -52.696827 66.792418 0.000000 0.000000 0.000000 
-0.073357 0.560619 -0.124320 -4.563807 -2.800856 28.974798 4.613279 5.118430 60.051252 6.840658 7.577916 -71.448264 -21.012397 13.971784 103.194841 0.000000 0.000000 0.000000 -22.093544 7.821964 50.246417 11.699424 2.932618 -71.753543 6.745490 -16.173737 105.398772 0.000000 0.000000 0.000000 -9.248968 0.317972 -37.659867 23.624801 17.797710 -114.273740 -10.201338 19.266952 129.318720 23.265049 4.029052 -112.966868 0.000000 0.000000 0.000000 -2.448298 25.043690 -15.757033 -47.523656 14.369610 -40.319461 113.422949 17.430094 59.621218 0.000000 0.000000 0.000000 24.833129 -13.418436 1.094967 55.332915 28.537358 -27.671102 -55.906665 -52.582776 64.578675 0.000000 0.000000 0.000000 
-0.078470 0.567828 -0.123806 -4.702776 -3.831147 29.101055 3.573079 6.329961 60.474263 7.971342 8.529791 -72.461290 -20.847627 13.834543 102.548274 0.000000 0.000000 0.000000 -22.908539 8.688208 49.887812 12.320385 3.546454 -72.804686 7.983829 -15.951385 106.121029 0.000000 0.000000 0.000000 -9.691069 0.438076 -38.346060 26.444401 18.467759 -109.416401 -12.203119 20.777034 126.024400 22.447936 4.845422 -114.564171 0.000000 0.000000 0.000000 -0.492575 25.728953 -16.339597 -48.565741 18.274675 -40.224338 117.687599 17.356341 61.561521 0.000000 0.000000 0.000000 25.094073 -13.804450 0.730903 55.270526 27.719152 -26.752209 -52.873873 -53.015409 60.863392 0.000000 0.000000 0.000000 
-0.083079 0.573544 -0.124567 -4.808697 -5.126589 29.155461 2.770882 7.487191 60.686151 8.196792 9.005726 -73.196168 -19.929524 14.099729 102.625774 0.000000 0.000000 0.000000 -23.668285 9.661973 49.693524 12.941289 4.264191 -74.009578 6.181916 -16.417261 106.562705 0.000000 0.000000 0.000000 -8.826289 0.905616 -39.215987 26.687747 17.887078 -104.884956 -12.652257 20.689496 122.731464 24.852651 5.316344 -115.523627 0.000000 0.000000 0.000000 1.592311 26.228621 -16.951054 -49.324821 23.099980 -40.218466 121.544104 16.501489 60.709308 0.000000 0.000000 0.000000 25.362787 -13.775014 0.523910 54.860786 26.945752 -25.557802 -50.712720 -54.837693 58.760110 0.000000 0.000000 0.000000 
-0.087005 0.574692 -0.126650 -4.714023 -5.828503 28.914422 2.190463 8.297069 61.346338 8.849766 9.655402 -74.304593 -20.640051 14.089068 103.194983 0.000000 0.000000 0.000000 -24.374728 10.365194 49.732868 13.826765 4.939462 -74.510716 4.384328 -16.921544 107.284705 0.000000 0.000000 0.000000 -8.556595 1.098289 -38.791776 27.319806 18.545359 -104.430730 -13.670251 21.819544 122.614796 24.592973 5.768143 -116.399093 0.000000 0.000000 0.000000 3.669356 27.138330 -17.889267 -50.341428 26.040561 -40.964290 126.296601 13.679137 58.886068 0.000000 0.000000 0.000000 24.576328 -13.645276 0.360852 55.225771 27.036008 -25.138460 -49.429314 -56.487691 58.852205 0.000000 0.000000 0.000000 
-0.090073 0.572013 -0.129830 -5.009950 -7.037191 29.119153 1.055499 9.791639 62.060611 9.759705 10.407762 -74.689445 -21.332818 13.466518 101.621115 0.000000 0.000000 0.000000 -25.489704 11.583529 49.689206 14.478977 5.674337 -76.288729 4.831397 -17.032632 108.927282 0.000000 0.000000 0.000000 -8.030239 1.481848 -38.706370 27.186450 18.946479 -103.730972 -14.637559 21.536115 121.916583 22.970429 6.762921 -118.734279 0.000000 0.000000 0.000000 4.743781 27.247376 -17.967691 -50.461649 27.555176 -40.554085 129.639860 13.404157 59.763838 0.000000 0.000000 0.000000 23.731730 -13.544223 -0.265653 57.128441 28.469034 -23.541354 -53.112662 -58.900146 64.982214 0.000000 0.000000 0.000000 
-0.092237 0.566334 -0.132703 -4.816822 -7.369547 29.044753 0.562802 10.495815 63.059495 10.597839 10.979360 -75.334623 -22.238802 12.876236 100.553646 0.000000 0.000000 0.000000 -25.864896 12.223816 51.025589 15.345629 6.371067 -78.091294 1.159183 -17.830483 108.769682 0.000000 0.000000 0.000000 -7.769643 1.606465 -39.088687 27.333652 18.997881 -103.225651 -15.162749 21.790754 122.072093 24.985603 7.580104 -120.433748 0.000000 0.000000 0.000000 4.467870 27.036340 -17.651609 -50.448308 26.085233 -40.183800 133.065172 13.550331 61.973333 0.000000 0.000000 0.000000 22.902173 -13.025565 -0.114090 58.476095 29.534943 -22.780633 -54.899276 -60.802597 69.277710 0.000000 0.000000 0.000000 
-0.094061 0.558020 -0.134779 -5.019083 -7.915840 29.050557 0.224591 11.164320 63.736785 11.237001 11.367865 -75.228307 -23.532864 12.017637 98.947593 0.000000 0.000000 0.000000 -26.830046 13.089496 51.040220 16.818389 7.343353 -78.409954 -1.138384 -18.407922 109.944647 0.000000 0.000000 0.000000 -7.080964 1.864530 -38.457328 27.838130 20.541369 -105.543485 -15.591376 23.249254 123.479019 28.488810 7.794432 -119.842808 0.000000 0.000000 0.000000 4.194626 26.331372 -16.939977 -49.745045 24.129908 -40.067794 135.459901 14.572266 64.178896 0.000000 0.000000 0.000000 22.404369 -13.301515 -0.226682 60.405682 30.455832 -22.176673 -57.508143 -61.028095 73.969417 0.000000 0.000000 0.000000 
-0.095847 0.550375 -0.135981 -4.732385 -7.669361 28.274270 0.215120 11.190441 64.507343 11.385429 11.249564 -74.893486 -21.415248 12.754934 99.537549 0.000000 0.000000 0.000000 -27.045853 13.390618 52.459393 18.423055 8.319157 -78.705281 -7.541906 -19.709958 110.802973 0.000000 0.000000 0.000000 -6.932525 1.820227 -38.609402 27.813992 21.050397 -107.465455 -15.598471 24.371685 125.955450 34.287762 8.248054 -120.273907 0.000000 0.000000 0.000000 3.631504 25.115348 -16.171247 -50.366326 20.971009 -41.117817 138.220113 16.276697 71.237903 0.000000 0.000000 0.000000 23.260865 -13.075707 0.727432 60.365098 32.078168 -23.096595 -59.102976 -61.337274 78.237517 0.000000 0.000000 0.000000 
-0.098130 0.542617 -0.136680 -4.477081 -7.601259 26.971975 1.182554 10.650650 65.566980 10.438883 10.456994 -74.076959 -21.137783 13.157740 100.589476 0.000000 0.000000 0.000000 -27.766301 13.903044 53.110283 20.714567 9.555874 -77.461875 -15.351097 -21.069504 113.198903 0.000000 0.000000 0.000000 -6.790286 1.797842 -38.654693 32.270055 23.159193 -106.372764 -16.095410 29.467815 126.420468 37.281796 7.527382 -120.043160 0.000000 0.000000 0.000000 3.621269 23.693669 -14.485216 -51.800729 15.936554 -41.433878 142.275684 18.981225 82.726598 0.000000 0.000000 0.000000 25.303264 -13.204200 2.694901 59.546651 33.837196 -22.880627 -54.476309 -62.186793 75.831757 0.000000 0.000000 0.000000 
-0.100991 0.536533 -0.137382 -3.567781 -6.264902 26.079742 2.432884 9.179827 66.369655 9.185936 9.382603 -73.641400 -20.370011 13.319849 100.591531 0.000000 0.000000 0.000000 -26.899617 13.153007 55.508071 20.714241 9.449147 -78.105884 -18.546792 -21.603963 113.574592 0.000000 0.000000 0.000000 -7.255219 1.360912 -38.848523 30.504001 21.741957 -107.559617 -15.151452 28.035835 127.441524 35.278358 7.538504 -120.882904 0.000000 0.000000 0.000000 2.659546 22.344851 -13.591179 -53.635100 10.387907 -40.799382 146.902489 22.154720 101.867146 0.000000 0.000000 0.000000 25.561356 -13.140977 2.732451 59.070970 33.195743 -24.166647 -53.415534 -63.634653 76.694744 0.000000 0.000000 0.000000 
-0.104662 0.532563 -0.138100 -3.232154 -5.512317 24.895613 3.253556 8.275574 67.159681 8.393699 8.745051 -73.540778 -18.606018 14.278976 102.620667 0.000000 0.000000 0.000000 -26.805027 12.888205 56.717724 22.056218 10.007117 -76.931883 -22.239173 -22.206243 113.592909 0.000000 0.000000 0.000000 -7.245325 1.170390 -39.424937 33.643655 23.446112 -108.322617 -13.650505 32.447454 130.588522 38.224075 5.904400 -119.698188 0.000000 0.000000 0.000000 2.893289 20.883816 -12.108291 -55.300046 4.599094 -42.012109 151.107956 24.787738 119.565183 0.000000 0.000000 0.000000 26.346344 -13.717837 3.917095 58.065809 33.389478 -25.436170 -49.256656 -64.482848 74.837898 0.000000 0.000000 0.000000 
-0.109366 0.532730 -0.139899 -2.524298 -4.310904 24.474583 4.574123 6.571185 66.669622 6.765913 7.594390 -72.986123 -19.420743 14.424022 103.839576 0.000000 0.000000 0.000000 -25.975580 11.910483 57.928671 21.961371 9.909664 -77.450193 -24.830688 -22.529147 114.711646 0.000000 0.000000 0.000000 -7.890283 0.726967 -39.870235 34.035489 23.648127 -110.053108 -11.722970 33.729519 133.041211 37.866113 4.709183 -119.074228 0.000000 0.000000 0.000000 1.424739 20.149680 -11.194301 -56.970108 -1.025669 -42.654618 153.831216 29.763715 148.796456 0.000000 0.000000 0.000000 26.799474 -13.371692 4.722903 56.775307 32.968994 -26.885881 -45.479192 -65.526530 72.028161 0.000000 0.000000 0.000000 
-0.114725 0.533334 -0.142400 -1.843114 -2.414947 23.815815 5.949760 4.485435 66.272989 5.039602 6.347553 -73.069584 -19.324563 14.913380 105.780839 0.000000 0.000000 0.000000 -25.192142 10.472120 58.877756 22.475049 9.793131 -76.405985 -25.609141 -22.657021 115.080186 0.000000 0.000000 0.000000 -7.855392 0.255229 -39.815401 31.869133 22.020142 -111.776440 -7.758144 31.721918 135.974463 32.563504 3.524058 -120.104176 0.000000 0.000000 0.000000 -0.273558 19.218257 -10.593978 -58.674917 -5.029336 -43.507487 149.491037 37.036417 164.303397 0.000000 0.000000 0.000000 27.902691 -14.277975 4.486490 54.753435 31.997710 -28.885711 -43.755427 -65.267756 69.672281 0.000000 0.000000 0.000000 
-0.120510 0.535616 -0.145615 -1.769235 -1.401438 23.498191 6.888437 3.247150 65.957545 3.959781 5.605380 -73.094809 -21.180411 15.009020 107.474693 0.000000 0.000000 0.000000 -24.369619 9.443584 59.317793 22.434945 9.586819 -76.013294 -24.138319 -22.466955 114.971174 0.000000 0.000000 0.000000 -7.293395 0.150600 -40.348888 31.477886 22.472634 -114.658270 -4.768457 32.297757 140.297235 29.057296 1.826664 -118.660118 0.000000 0.000000 0.000000 -1.607652 18.455777 -9.910219 -59.869457 -6.471957 -46.764055 138.501931 45.188298 161.424123 0.000000 0.000000 0.000000 28.213749 -14.643112 4.065019 53.543308 30.479511 -31.443184 -43.984370 -62.728934 66.789188 0.000000 0.000000 0.000000 
-0.126256 0.538636 -0.148904 -1.231266 0.385289 23.172422 7.958695 1.471211 65.273174 3.186290 5.020376 -74.371022 -19.305749 16.113913 110.646932 0.000000 0.000000 0.000000 -22.865271 7.633126 60.705841 21.572897 9.161444 -77.805024 -26.652207 -22.495301 118.404283 0.000000 0.000000 0.000000 -7.187667 -0.313762 -41.168791 28.488295 19.524338 -114.524606 -2.733292 28.715585 141.153890 22.399716 1.326177 -119.030426 0.000000 0.000000 0.000000 -4.053101 17.658474 -9.438462 -61.879935 -7.356383 -47.906784 120.322996 51.486993 147.023219 0.000000 0.000000 0.000000 28.554574 -13.834226 4.087253 51.046845 30.260992 -32.521501 -41.202883 -61.795391 60.819528 0.000000 0.000000 0.000000 
-0.131633 0.540856 -0.152015 -1.281798 1.240426 23.202679 8.540255 0.610070 65.189823 3.272292 5.041823 -75.261495 -20.431687 16.484535 112.707927 0.000000 0.000000 0.000000 -22.272951 6.869347 61.535757 21.168836 9.053749 -79.270087 -21.552024 -21.744691 119.444979 0.000000 0.000000 0.000000 -6.495557 -0.363286 -42.043391 28.185738 18.978475 -114.600987 -0.838802 28.269196 142.229483 20.540496 0.631225 -119.066816 0.000000 0.000000 0.000000 -5.447484 17.056939 -9.052689 -62.429157 -5.145954 -50.257116 94.878892 50.595325 110.187259 0.000000 0.000000 0.000000 28.733009 -13.579224 3.858462 49.232339 30.034469 -32.494473 -40.283505 -58.385603 54.471899 0.000000 0.000000 0.000000 
-0.135971 0.542158 -0.154764 -1.539310 1.942013 22.963253 8.747057 0.097784 64.710846 3.481226 5.065474 -75.290869 -20.156709 16.982086 114.509374 0.000000 0.000000 0.000000 -21.584969 6.061006 61.610353 20.949044 8.848966 -79.305588 -20.061278 -21.418832 121.185615 0.000000 0.000000 0.000000 -5.416642 -0.286733 -43.901417 25.846053 17.769970 -115.960708 1.986830 25.741767 146.014310 27.594105 -0.311551 -118.830472 0.000000 0.000000 0.000000 -4.789979 15.801911 -8.593987 -64.190451 -2.084185 -55.835455 76.182313 43.738112 84.276005 0.000000 0.000000 0.000000 28.076290 -13.016322 2.167691 48.574901 29.395126 -33.604591 -39.728847 -55.008494 49.379708 0.000000 0.000000 0.000000 
-0.139010 0.544321 -0.157589 -1.937661 2.661967 22.493261 9.038992 -0.475596 64.372371 4.292141 5.372168 -74.452192 -23.254903 17.080817 115.963787 0.000000 0.000000 0.000000 -21.670080 5.718955 61.362702 21.513449 8.969704 -78.562645 -14.794626 -20.759812 123.249582 0.000000 0.000000 0.000000 -4.923763 -0.329942 -44.038871 24.561293 17.311241 -118.023484 3.869159 24.102622 147.994988 27.368170 -0.893571 -119.195810 0.000000 0.000000 0.000000 -5.030764 15.735147 -9.132260 -64.456929 0.928732 -59.078235 68.103512 35.135602 67.288997 0.000000 0.000000 0.000000 27.922602 -12.038546 1.405884 47.157016 27.873502 -33.834146 -38.719813 -52.359070 43.755603 0.000000 0.000000 0.000000 
-0.140424 0.546421 -0.160729 -2.042366 3.633110 22.514472 8.918280 -0.889577 63.651133 5.260938 5.771619 -74.462026 -24.763148 17.370298 117.482048 0.000000 0.000000 0.000000 -21.063280 4.826307 61.408870 20.606527 8.238425 -78.700536 -6.899914 -20.035014 123.413494 0.000000 0.000000 0.000000 -4.850394 -0.615797 -45.285824 24.013023 15.685219 -115.473206 4.105476 22.263165 145.695976 19.645007 -0.870384 -119.404635 0.000000 0.000000 0.000000 -5.128695 15.645716 -9.146680 -64.764834 1.654264 -57.919515 68.168977 33.413331 65.579900 0.000000 0.000000 0.000000 27.948010 -11.503166 2.006212 45.572693 30.350362 -31.679984 -36.338957 -55.527733 43.243390 0.000000 0.000000 0.000000 
-0.140768 0.548005 -0.163269 -2.363983 4.124395 21.979982 8.947866 -1.167208 63.896479 6.260688 6.356342 -75.027443 -29.105187 17.454098 118.700280 0.000000 0.000000 0.000000 -21.482715 4.817165 61.195315 21.565686 8.687880 -78.231647 -5.181996 -19.979583 125.928176 0.000000 0.000000 0.000000 -3.886824 -0.457353 -45.266788 22.314763 14.625508 -116.052145 5.569837 19.660149 146.006664 10.996121 -1.610471 -117.592240 0.000000 0.000000 0.000000 -5.471457 15.536428 -9.474962 -65.269524 2.907167 -58.487999 68.761426 30.060656 63.861413 0.000000 0.000000 0.000000 27.733611 -11.010213 1.614931 45.059762 30.405382 -30.885633 -34.543009 -56.936697 41.673021 0.000000 0.000000 0.000000 
-0.140747 0.548718 -0.164323 -2.453290 4.654027 21.363091 9.115485 -1.565511 63.409181 7.198139 6.703949 -74.245764 -36.047073 17.231895 119.305535 0.000000 0.000000 0.000000 -22.002187 4.810768 60.558978 22.818237 9.083889 -76.693324 -6.437218 -20.197272 129.164081 0.000000 0.000000 0.000000 -3.216905 -0.390935 -44.650157 21.242903 13.896117 -116.197587 6.940220 17.629582 145.720456 7.596447 -1.922184 -115.162081 0.000000 0.000000 0.000000 -4.928349 15.318344 -9.752553 -65.123731 2.732558 -57.718589 72.636321 29.270977 66.642141 0.000000 0.000000 0.000000 27.585021 -11.482542 1.026985 45.258099 31.481076 -29.702412 -29.817405 -58.835603 39.724766 0.000000 0.000000 0.000000 
-0.140874 0.550108 -0.163607 -2.958484 5.029621 20.662053 8.677418 -1.457725 63.871512 8.617348 7.328284 -73.205230 -36.609139 16.783061 118.318026 0.000000 0.000000 0.000000 -22.430130 4.860886 60.236994 23.846254 9.322710 -74.921511 -2.290287 -20.068780 129.566095 0.000000 0.000000 0.000000 -2.431351 -0.251641 -44.949736 20.684202 13.628865 -116.449306 7.759946 16.377272 146.345967 3.840606 -2.036292 -113.647524 0.000000 0.000000 0.000000 -3.474783 14.514718 -9.536786 -65.116694 3.416334 -59.388132 76.266405 25.813396 67.657446 0.000000 0.000000 0.000000 26.286756 -11.019646 -0.262003 46.575764 30.594062 -29.423194 -27.679235 -60.869249 39.091236 0.000000 0.000000 0.000000 
-0.141590 0.552378 -0.162653 -3.435118 4.422512 20.117007 8.535344 -1.034938 64.291042 9.092063 7.691153 -73.000241 -39.053441 16.867461 118.876860 0.000000 0.000000 0.000000 -22.283684 5.060926 59.610225 23.924355 9.156470 -73.087019 -2.830206 -20.070411 128.783277 0.000000 0.000000 0.000000 -1.736103 0.151487 -45.048629 21.207136 14.354156 -116.374385 8.062009 16.785541 147.062214 3.836181 -2.024468 -111.459213 0.000000 0.000000 0.000000 -2.044845 14.661744 -10.074395 -65.116294 3.408878 -60.341502 79.887047 22.498453 68.636413 0.000000 0.000000 0.000000 25.574198 -11.115226 -1.177196 49.738594 29.697053 -29.902671 -29.887452 -61.683440 43.489644 0.000000 0.000000 0.000000 
-0.142946 0.555576 -0.163146 -4.019384 3.479456 19.724071 8.246929 -0.322941 64.210265 9.552414 8.026943 -72.440124 -34.938024 17.892186 120.733971 0.000000 0.000000 0.000000 -21.903304 5.265839 58.641673 23.705245 8.969504 -71.699812 -5.838483 -20.212813 129.133841 0.000000 0.000000 0.000000 -1.586203 0.498973 -43.772348 21.371325 14.619012 -115.647822 7.513066 16.313034 145.123833 0.879155 -1.142565 -107.934337 0.000000 0.000000 0.000000 -1.616326 13.782132 -9.087167 -63.964969 1.029122 -56.826754 83.471401 24.101228 71.015211 0.000000 0.000000 0.000000 24.938319 -12.675979 -1.193973 52.203554 30.884954 -28.963776 -31.720678 -63.529170 50.145838 0.000000 0.000000 0.000000 
-0.144690 0.559629 -0.165302 -4.648655 2.652981 19.305712 7.843559 0.399558 64.309996 10.650911 8.738294 -72.062508 -37.346247 17.959714 121.119210 0.000000 0.000000 0.000000 -21.504547 5.393827 57.841990 24.155772 9.138002 -70.214771 -12.174580 -20.474393 128.423976 0.000000 0.000000 0.000000 -1.568421 0.735891 -41.816277 21.869955 14.412215 -112.502932 5.886851 17.170120 139.956475 0.776190 -0.174418 -106.072124 0.000000 0.000000 0.000000 -1.419026 13.854115 -8.656575 -63.170163 -1.643681 -50.225766 85.957073 27.563921 72.869729 0.000000 0.000000 0.000000 24.835609 -12.675437 0.692938 53.834686 31.463884 -27.045531 -32.930860 -64.961301 54.910182 0.000000 0.000000 0.000000 
-0.146565 0.562581 -0.168828 -5.429034 1.780002 18.560386 7.654635 1.005386 64.651536 11.639184 9.307750 -71.215834 -39.368851 17.473693 120.192540 0.000000 0.000000 0.000000 -21.988217 6.032816 56.791041 26.570300 10.287637 -68.441130 -24.302762 -20.793481 130.305534 0.000000 0.000000 0.000000 -1.076593 1.082228 -40.140079 24.377328 15.376764 -108.952009 4.606849 19.751806 136.939616 3.917102 0.100446 -103.366359 0.000000 0.000000 0.000000 -0.481138 12.665922 -7.484993 -62.534516 -5.345961 -46.360910 87.393466 29.468686 72.800139 0.000000 0.000000 0.000000 25.391966 -13.566989 1.387848 56.186390 32.303153 -25.338166 -33.712153 -64.273213 57.763476 0.000000 0.000000 0.000000 
-0.148348 0.564565 -0.173236 -5.456363 1.242680 18.391054 7.833556 1.123511 63.540876 11.929947 9.244953 -69.442632 -42.155676 17.785665 121.122588 0.000000 0.000000 0.000000 -21.729835 5.977635 54.994703 26.102264 9.728532 -66.520724 -29.006104 -20.350622 133.719283 0.000000 0.000000 0.000000 -0.896472 1.217649 -38.726334 22.493963 14.152099 -107.237124 4.042776 17.989832 134.174902 3.246416 0.465179 -102.640274 0.000000 0.000000 0.000000 -1.439380 11.378020 -6.425866 -60.900939 -10.049726 -42.243497 90.774235 29.181964 73.646436 0.000000 0.000000 0.000000 26.769272 -13.462595 2.496062 55.484826 33.475146 -24.882247 -37.580212 -64.863146 61.849585 0.000000 0.000000 0.000000 
-0.149638 0.566236 -0.177803 -6.524585 -0.218086 18.071915 6.693571 2.614282 63.072017 14.474064 10.498534 -67.607145 -49.477655 16.443066 119.367404 0.000000 0.000000 0.000000 -22.740956 7.006251 52.728584 28.814853 10.421070 -62.280260 -32.698140 -20.620820 131.230564 0.000000 0.000000 0.000000 0.427456 1.813945 -37.052690 26.384770 15.030302 -100.172739 2.671154 22.768161 128.964363 12.252761 -0.256170 -103.103777 0.000000 0.000000 0.000000 -1.151072 10.466432 -5.591265 -59.344719 -13.491591 -38.086963 96.427496 29.254662 73.188286 0.000000 0.000000 0.000000 30.357192 -14.296008 4.813110 53.684258 36.084702 -22.856211 -37.167703 -65.768910 62.046728 0.000000 0.000000 0.000000 
-0.150695 0.568077 -0.182416 -7.106711 -2.000933 17.747891 6.115012 3.793390 62.196073 15.307267 10.772835 -65.412339 -51.468655 17.260788 120.916796 0.000000 0.000000 0.000000 -24.208028 8.173778 49.474299 30.960030 10.770613 -58.165939 -40.035882 -19.606833 134.618115 0.000000 0.000000 0.000000 2.030816 2.395043 -34.855803 27.209981 13.576337 -90.865830 0.377919 25.040413 119.333402 17.439783 -0.043529 -103.846424 0.000000 0.000000 0.000000 -4.606493 9.879431 -5.097867 -54.948394 -16.427091 -32.045824 106.562181 28.409982 73.328640 0.000000 0.000000 0.000000 34.898727 -12.790290 8.324683 48.394540 38.427678 -20.830076 -32.999010 -68.187394 56.198214 0.000000 0.000000 0.000000 
-0.151387 0.571499 -0.185821 -7.737213 -3.839153 17.565751 5.126231 5.144510 60.875677 15.758094 11.164508 -64.549544 -57.087341 17.127639 121.216928 0.000000 0.000000 0.000000 -25.558151 9.015123 45.449087 34.562569 11.417758 -53.312791 -65.205192 -18.917412 134.742160 0.000000 0.000000 0.000000 2.865938 2.699970 -32.691897 32.522187 12.201427 -78.139444 -4.694198 31.266055 105.166489 27.206312 0.139643 -104.007352 0.000000 0.000000 0.000000 -6.632623 8.796972 -5.381900 -51.494172 -16.256459 -25.465099 117.364502 28.908052 70.340440 0.000000 0.000000 0.000000 41.798718 -12.772701 11.621540 41.990342 39.580966 -18.493685 -28.997161 -69.425040 48.399106 0.000000 0.000000 0.000000 
-0.151954 0.575438 -0.187487 -8.155486 -5.467115 18.399328 4.363697 6.176384 59.436373 14.810216 10.936838 -63.999758 -49.849007 19.106797 123.591722 0.000000 0.000000 0.000000 -26.503709 9.605108 42.286944 36.016381 11.478362 -50.259140 -70.060790 -20.067648 131.576897 0.000000 0.000000 0.000000 3.195769 2.921084 -31.717346 36.692508 10.829025 -69.242937 -11.320834 35.776002 92.285276 35.504125 -0.018109 -101.563406 0.000000 0.000000 0.000000 -7.116216 9.531965 -6.951896 -49.671038 -12.456033 -21.898643 127.010062 27.356058 65.985378 0.000000 0.000000 0.000000 46.695965 -12.565272 13.849018 37.703750 37.739153 -17.390073 -33.751974 -70.101810 48.711852 0.000000 0.000000 0.000000 
-0.152381 0.583081 -0.187415 -8.543543 -6.306042 19.712066 4.304372 6.439114 58.302434 12.486448 10.237214 -64.965384 -36.137135 19.952610 124.030180 0.000000 0.000000 0.000000 -26.382389 9.553237 40.301368 35.901533 11.413898 -49.419181 -66.476024 -21.956237 127.132570 0.000000 0.000000 0.000000 2.776650 2.933024 -31.466292 33.241622 10.171923 -68.962122 -10.445852 30.840143 91.177773 37.720223 0.436369 -104.285008 0.000000 0.000000 0.000000 -10.067572 10.632888 -7.313755 -48.277325 -9.565520 -22.046301 133.252652 27.961568 77.578845 0.000000 0.000000 0.000000 45.921324 -12.486433 10.616491 39.388146 33.450559 -17.440341 -48.772452 -69.371626 60.426086 0.000000 0.000000 0.000000 
-0.152746 0.593969 -0.187031 -8.488487 -6.427334 21.460119 4.128651 6.496449 57.325386 10.155135 9.627086 -67.302485 -19.236785 20.410732 123.833151 0.000000 0.000000 0.000000 -25.217310 9.234445 40.842009 33.861189 11.700177 -52.987869 -54.865532 -24.620145 118.953570 0.000000 0.000000 0.000000 1.236193 2.708012 -31.994876 30.875513 10.450756 -71.431102 -10.747550 26.419997 93.302093 39.063629 1.586523 -107.486859 0.000000 0.000000 0.000000 -11.670434 12.852387 -7.775792 -48.031896 -6.523893 -23.969666 137.948339 29.331863 92.374111 0.000000 0.000000 0.000000 44.504508 -11.785081 8.518308 41.273457 30.398648 -18.337135 -62.223974 -69.601824 73.658253 0.000000 0.000000 0.000000 
-0.153368 0.604436 -0.187115 -8.007449 -6.576592 23.364274 4.639153 6.015610 55.596768 6.523850 8.215871 -69.241902 -7.744850 20.579877 122.527070 0.000000 0.000000 0.000000 -24.383798 8.874275 40.293913 31.426311 11.551436 -55.921964 -47.305871 -25.040307 114.864799 0.000000 0.000000 0.000000 -1.025775 2.250170 -31.437342 28.925177 11.955038 -77.201733 -10.397283 22.683741 98.401846 33.337157 2.411617 -108.850615 0.000000 0.000000 0.000000 -11.999560 14.555042 -7.837789 -49.922939 -4.116921 -26.377082 140.824240 31.201383 107.296127 0.000000 0.000000 0.000000 40.671337 -12.053701 5.577714 45.545624 28.387850 -19.149081 -75.590097 -68.040081 87.903152 0.000000 0.000000 0.000000 
-0.154152 0.614551 -0.187360 -7.602569 -6.764224 24.975537 4.255988 6.233564 54.854626 4.964611 7.842876 -71.612140 -5.302752 20.118547 118.960375 0.000000 0.000000 0.000000 -23.139157 8.660989 41.741898 27.997109 11.446987 -61.387720 -36.159624 -24.729550 109.569922 0.000000 0.000000 0.000000 -2.328043 2.026081 -30.942844 22.101108 11.922309 -84.713581 -7.998519 15.449700 104.863325 30.619823 3.589471 -112.236163 0.000000 0.000000 0.000000 -12.716850 16.041494 -7.497297 -51.474802 -2.118691 -28.677769 141.478661 32.317722 118.958082 0.000000 0.000000 0.000000 36.485279 -11.630952 2.331116 49.089909 23.943421 -21.079736 -82.323891 -66.778282 94.231170 0.000000 0.000000 0.000000 
-0.155065 0.620997 -0.187539 -6.763047 -6.142476 26.012051 4.271628 5.847438 53.903428 2.865623 6.838495 -73.846524 2.635592 20.485601 118.506575 0.000000 0.000000 0.000000 -21.525060 7.772119 42.483020 25.098637 10.746894 -65.093912 -37.224511 -24.991338 110.167133 0.000000 0.000000 0.000000 -4.041921 1.554729 -29.071696 16.373058 11.294758 -91.899060 -6.961968 9.808545 109.384777 24.409673 4.004076 -112.763536 0.000000 0.000000 0.000000 -11.404261 17.108907 -7.672094 -54.310408 0.712172 -30.350939 140.983151 32.427427 124.291753 0.000000 0.000000 0.000000 32.770747 -11.802721 -0.240716 52.971360 21.692010 -22.056577 -92.804671 -66.312822 106.751426 0.000000 0.000000 0.000000 
-0.155410 0.624963 -0.186835 -6.222853 -5.726838 27.598665 3.721321 6.028326 53.806880 2.746294 6.989689 -76.420297 1.616193 20.008088 115.452938 0.000000 0.000000 0.000000 -19.972524 7.070094 43.833058 22.078286 10.019658 -69.969942 -33.373507 -24.805942 108.450380 0.000000 0.000000 0.000000 -5.034537 1.379027 -28.828151 11.860095 9.962387 -96.075813 -6.096982 5.357390 112.052147 18.626537 4.811163 -115.684095 0.000000 0.000000 0.000000 -11.027588 18.114333 -8.098367 -55.903259 3.182144 -31.531208 139.855363 32.232410 125.714300 0.000000 0.000000 0.000000 29.364278 -11.371684 -1.437912 55.861827 20.325063 -22.774710 -104.152938 -67.298886 121.818281 0.000000 0.000000 0.000000 
-0.155067 0.626482 -0.184962 -6.169076 -5.799083 28.619279 2.678775 6.645363 53.590363 3.658791 7.659571 -77.165122 0.144706 19.526250 112.198603 0.000000 0.000000 0.000000 -19.204728 6.784737 44.338604 20.636154 9.564456 -71.782372 -26.992722 -23.075493 111.504903 0.000000 0.000000 0.000000 -4.460199 1.449594 -28.062514 10.484942 9.565732 -96.411972 -5.097887 5.394646 111.406466 21.455018 4.961797 -116.105187 0.000000 0.000000 0.000000 -8.558668 18.522110 -8.948142 -57.704486 6.726954 -32.161324 137.514991 32.041396 120.823781 0.000000 0.000000 0.000000 28.570019 -11.189281 -1.140613 57.179203 21.258921 -21.617076 -115.218372 -68.516302 137.362025 0.000000 0.000000 0.000000 
-0.154493 0.626591 -0.182409 -6.136574 -5.979186 29.005952 2.110765 7.062864 53.644179 3.574300 7.827907 -78.564289 2.692142 19.868982 112.967591 0.000000 0.000000 0.000000 -18.708148 6.678907 44.962447 20.182109 9.832090 -74.228682 -27.453996 -22.516185 116.212755 0.000000 0.000000 0.000000 -3.751385 1.552992 -27.775280 9.222925 9.119447 -96.023310 -3.571052 5.126091 110.605243 19.871127 4.659667 -116.267426 0.000000 0.000000 0.000000 -7.348147 18.901163 -9.512586 -58.558579 9.027217 -32.507569 135.447463 31.011815 114.930419 0.000000 0.000000 0.000000 27.201521 -10.773960 -0.776164 58.266651 23.161894 -19.975060 -129.797597 -67.811424 156.383801 0.000000 0.000000 0.000000 
-0.154104 0.627452 -0.179220 -5.954433 -6.166597 29.752506 1.647038 7.194605 52.543023 3.614499 7.996988 -78.739828 3.379122 20.073203 114.494067 0.000000 0.000000 0.000000 -18.536168 6.611596 44.514362 19.210483 9.407989 -74.885123 -24.784423 -21.991831 117.315816 0.000000 0.000000 0.000000 -3.174967 1.612322 -27.087548 7.498336 8.686537 -96.878458 -2.495682 4.624598 109.711906 20.174788 4.356039 -115.178621 0.000000 0.000000 0.000000 -6.995926 19.349449 -9.922466 -58.390886 11.529621 -32.684381 132.150006 30.357549 106.763269 0.000000 0.000000 0.000000 25.325096 -10.408589 -0.755923 60.194893 24.290853 -18.310830 -140.599826 -66.438337 170.908629 0.000000 0.000000 0.000000 
-0.154166 0.629286 -0.175976 -5.842201 -6.366958 30.320202 1.552592 7.222482 52.007547 3.401713 7.985326 -78.879824 2.112033 19.974245 114.668533 0.000000 0.000000 0.000000 -18.100382 6.469924 44.583629 18.124520 8.971044 -75.796899 -24.002512 -21.993322 116.455223 0.000000 0.000000 0.000000 -3.272148 1.590236 -26.531564 6.803611 8.211707 -94.933664 -1.619126 4.112344 105.578545 16.786521 4.265648 -115.271056 0.000000 0.000000 0.000000 -7.185859 19.923130 -10.270801 -57.480290 13.208131 -31.412150 129.765835 29.948795 98.895826 0.000000 0.000000 0.000000 24.508202 -9.878353 -0.985825 61.600793 25.884942 -15.322486 -156.974516 -63.755718 -167.659335 0.000000 0.000000 0.000000 
-0.154505 0.629241 -0.173132 -5.831754 -6.733858 31.013326 1.157681 7.465438 51.379996 3.413551 8.191792 -79.126406 7.066638 20.527533 114.751206 0.000000 0.000000 0.000000 -17.649452 6.313562 44.053194 16.970936 8.391937 -75.623784 -23.029522 -22.002698 114.867207 0.000000 0.000000 0.000000 -3.430407 1.585606 -25.889993 4.611957 7.483312 -94.677043 -0.410165 1.811768 102.531247 10.735966 3.883013 -113.901451 0.000000 0.000000 0.000000 -6.058153 19.118051 -9.638747 -57.328184 16.077428 -30.857726 126.810766 29.602781 90.798000 0.000000 0.000000 0.000000 22.235118 -10.071356 -2.166827 64.036014 25.351539 -13.561597 -162.325855 -61.528154 -161.996824 0.000000 0.000000 0.000000 
-0.154703 0.629980 -0.170648 -6.043116 -7.398571 31.969031 1.259037 7.551072 50.790566 3.463134 8.598203 -79.346040 5.870737 20.364584 112.462900 0.000000 0.000000 0.000000 -17.388365 6.396242 43.628231 15.584315 7.797431 -75.791467 -18.392512 -21.477945 111.552367 0.000000 0.000000 0.000000 -3.929389 1.640016 -26.006415 3.451263 7.131734 -93.261188 -0.743162 -0.120611 99.852440 9.492127 4.372815 -113.611098 0.000000 0.000000 0.000000 -8.217765 19.646761 -9.497702 -54.905852 16.425520 -29.502295 127.098754 28.966117 88.723377 0.000000 0.000000 0.000000 22.781019 -8.889147 -2.385512 63.701252 25.483111 -12.744636 -166.949115 -60.087252 -158.403480 0.000000 0.000000 0.000000 
-0.154282 0.631982 -0.169022 -6.462140 -8.420883 31.995423 0.987242 8.001841 50.592180 3.560282 9.068661 -79.567425 6.123444 20.500788 112.820003 0.000000 0.000000 0.000000 -17.440345 6.644568 42.661426 15.551953 7.956530 -74.220041 -20.978462 -21.732338 112.501992 0.000000 0.000000 0.000000 -3.871428 1.750038 -25.953113 4.026959 7.357652 -89.513361 -0.366717 -0.227031 96.460326 8.488755 4.491266 -114.028657 0.000000 0.000000 0.000000 -9.919581 19.315116 -8.994481 -51.253700 14.855543 -27.154922 130.458030 27.425312 86.459756 0.000000 0.000000 0.000000 23.502795 -8.999089 -2.955675 62.634462 25.337295 -11.998461 -170.303400 -60.650266 -155.809704 0.000000 0.000000 0.000000 
-0.153563 0.633756 -0.168663 -6.974569 -9.639377 32.316207 1.048426 8.161705 49.601199 2.802805 8.826439 -77.539125 4.080134 20.430626 111.465702 0.000000 0.000000 0.000000 -18.031345 7.104461 40.714669 15.379148 7.958265 -71.624346 -18.765513 -21.032669 113.432319 0.000000 0.000000 0.000000 -3.782276 1.835897 -25.066621 3.686688 7.271163 -85.627005 0.756581 -0.991973 91.182868 7.966547 4.429002 -112.347094 0.000000 0.000000 0.000000 -9.471051 18.107350 -8.145023 -48.874768 16.843693 -25.428212 131.527158 26.576655 80.847356 0.000000 0.000000 0.000000 24.526482 -9.024196 -4.043863 60.499871 21.302218 -12.521261 -172.386909 -65.230092 -159.780602 0.000000 0.000000 0.000000 
-0.152758 0.634334 -0.169171 -7.563004 -9.894188 31.923155 1.218253 8.043838 49.065720 3.268625 9.286113 -77.138774 5.163270 20.969177 116.278411 0.000000 0.000000 0.000000 -18.636598 7.314435 39.402563 16.755661 8.569804 -69.252138 -18.534098 -20.827593 114.103976 0.000000 0.000000 0.000000 -2.936100 1.875767 -24.090193 4.908238 7.623867 -83.969124 -0.144105 -0.378628 90.189734 6.779167 4.447599 -112.344887 0.000000 0.000000 0.000000 -13.024364 18.235800 -7.833826 -44.869193 13.479657 -23.253093 136.391627 27.607255 86.684580 0.000000 0.000000 0.000000 25.332738 -8.466838 -4.064390 58.309766 18.878648 -13.471595 -175.770046 -72.837528 -159.376700 0.000000 0.000000 0.000000 
-0.151931 0.634391 -0.170386 -7.686879 -10.807005 32.601222 0.991958 7.479763 45.302746 4.930413 9.988042 -72.052099 -3.741547 20.975382 118.018964 0.000000 0.000000 0.000000 -19.616616 7.250575 34.505512 18.844842 9.040085 -63.450415 -28.561925 -21.749898 115.342726 0.000000 0.000000 0.000000 -3.385036 1.926766 -24.254599 6.813279 7.533607 -78.624558 0.159480 1.970153 85.051347 15.681532 3.900177 -107.598063 0.000000 0.000000 0.000000 -10.786508 15.977753 -6.874842 -43.403154 12.768493 -21.300862 140.166113 29.143132 88.864231 0.000000 0.000000 0.000000 26.101299 -9.736781 -4.907153 57.804989 15.205921 -13.881096 163.359115 -82.170229 -140.081482 0.000000 0.000000 0.000000 
-0.151332 0.637889 -0.171580 -7.513322 -9.626528 31.568268 2.146692 6.194353 43.489474 5.736813 9.237180 -66.956461 -8.198392 20.134048 113.793772 0.000000 0.000000 0.000000 -17.660986 5.979013 34.487347 18.909109 8.427426 -60.555638 -38.851713 -23.783120 112.386525 0.000000 0.000000 0.000000 -1.604089 1.952714 -23.995972 7.981127 6.947488 -75.759355 -1.547267 4.270812 85.127144 15.279212 3.210968 -108.183575 0.000000 0.000000 0.000000 -11.567158 15.671173 -6.891149 -40.935647 8.295051 -19.844127 143.721501 25.150231 83.528977 0.000000 0.000000 0.000000 31.088474 -8.253420 -3.024325 54.925097 14.248695 -15.179648 -2.219807 -86.710848 20.732054 0.000000 0.000000 0.000000 
