HIERARCHY
ROOT Hips
{
	OFFSET -0.001795 -0.223333 0.028219
	CHANNELS 6 Xposition Yposition Zposition Zrotation Yrotation Xrotation 
	JOINT LeftUpLeg
	{
		OFFSET 0.069520 -0.091406 -0.006815
		CHANNELS 3 Zrotation Yrotation Xrotation
		JOINT LeftLeg
		{
			OFFSET 0.034277 -0.375199 -0.004496
			CHANNELS 3 Zrotation Yrotation Xrotation
			JOINT LeftFoot
			{
				OFFSET -0.013596 -0.397961 -0.043693
				CHANNELS 3 Zrotation Yrotation Xrotation
				JOINT LeftToe
				{
					OFFSET 0.026358 -0.055791 0.119288
					CHANNELS 3 Zrotation Yrotation Xrotation
					End Site
					{
						OFFSET 0.000000 0.000000 0.000000
					}
				}
			}
		}
	}
	JOINT RightUpLeg
	{
		OFFSET -0.067670 -0.090522 -0.004320
		CHANNELS 3 Zrotation Yrotation Xrotation
		JOINT RightLeg
		{
			OFFSET -0.038290 -0.382569 -0.008850
			CHANNELS 3 Zrotation Yrotation Xrotation
			JOINT RightFoot
			{
				OFFSET 0.015774 -0.398415 -0.042312
				CHANNELS 3 Zrotation Yrotation Xrotation
				JOINT RightToe
				{
					OFFSET -0.025372 -0.048144 0.123348
					CHANNELS 3 Zrotation Yrotation Xrotation
					End Site
					{
						OFFSET 0.000000 0.000000 0.000000
					}
				}
			}
		}
	}
	JOINT Spine
	{
		OFFSET -0.002533 0.108963 -0.026696
		CHANNELS 3 Zrotation Yrotation Xrotation
		JOINT Spine1
		{
			OFFSET 0.005487 0.135180 0.001092
			CHANNELS 3 Zrotation Yrotation Xrotation
			JOINT Spine2
			{
				OFFSET 0.001457 0.052922 0.025425
				CHANNELS 3 Zrotation Yrotation Xrotation
				JOINT Neck
				{
					OFFSET -0.002778 0.213870 -0.042857
					CHANNELS 3 Zrotation Yrotation Xrotation
					JOINT Head
					{
						OFFSET 0.005152 0.064970 0.051349
						CHANNELS 3 Zrotation Yrotation Xrotation
						End Site
						{
							OFFSET 0.000000 0.000000 0.000000
						}
					}
				}
				JOINT LeftShoulder
				{
					OFFSET 0.078845 0.121749 -0.034090
					CHANNELS 3 Zrotation Yrotation Xrotation
					JOINT LeftArm
					{
						OFFSET 0.090977 0.030469 -0.008868
						CHANNELS 3 Zrotation Yrotation Xrotation
						JOINT LeftForeArm
						{
							OFFSET 0.259612 -0.012772 -0.027456
							CHANNELS 3 Zrotation Yrotation Xrotation
							JOINT LeftHand
							{
								OFFSET 0.249234 0.008986 -0.001171
								CHANNELS 3 Zrotation Yrotation Xrotation
								End Site
								{
									OFFSET 0.000000 0.000000 0.000000
								}
							}
						}
					}
				}
				JOINT RightShoulder
				{
					OFFSET -0.081759 0.118833 -0.038615
					CHANNELS 3 Zrotation Yrotation Xrotation
					JOINT RightArm
					{
						OFFSET -0.096012 0.032551 -0.009143
						CHANNELS 3 Zrotation Yrotation Xrotation
						JOINT RightForeArm
						{
							OFFSET -0.253742 -0.013329 -0.021401
							CHANNELS 3 Zrotation Yrotation Xrotation
							JOINT RightHand
							{
								OFFSET -0.255298 0.007772 -0.005559
								CHANNELS 3 Zrotation Yrotation Xrotation
								End Site
								{
									OFFSET 0.000000 0.000000 0.000000
								}
							}
						}
					}
				}
			}
		}
	}
}
MOTION
Frames: 96
Frame Time: 0.050000
0.000000 0.965127 0.000000 -0.889775 -0.543829 2.260753 1.303396 0.054243 0.938916 -1.292411 0.226279 -3.714351 4.307244 12.559872 18.563123 0.000000 0.000000 0.000000 -1.157144 0.375081 -3.797402 1.162448 -0.082078 1.316475 -0.008564 -7.210051 19.160698 0.000000 0.000000 0.000000 7.459743 -1.060051 8.911214 -6.058348 2.142888 -20.805692 -2.049689 4.359891 24.409562 11.476228 -5.638921 -20.182234 0.000000 0.000000 0.000000 -22.173811 -16.717083 7.059261 -46.538983 -8.758117 -3.890496 -8.786593 -23.576501 2.711869 0.000000 0.000000 0.000000 31.654689 2.718397 1.456588 47.939594 14.017709 -1.898967 4.265934 25.672609 2.176486 0.000000 0.000000 0.000000 
-0.000287 0.964143 0.000248 -1.130174 -0.341770 2.959797 1.773770 0.007110 0.513630 -1.553729 0.254388 -4.150809 4.105412 12.207048 17.947824 0.000000 0.000000 0.000000 -0.830340 0.452788 -4.602886 1.040099 -0.052889 1.817076 -0.025011 -6.928864 18.155518 0.000000 0.000000 0.000000 7.946131 -0.989395 7.682310 -6.304569 2.224023 -20.304140 -2.433002 3.914173 24.593041 11.721603 -5.955987 -19.731404 0.000000 0.000000 0.000000 -21.357244 -17.091731 7.343316 -47.088478 -9.462004 -3.727467 -7.837041 -23.617289 2.530838 0.000000 0.000000 0.000000 31.301011 3.250287 1.677025 49.538950 13.704906 -1.945863 3.626013 27.263131 2.207822 0.000000 0.000000 0.000000 
-0.000542 0.964209 0.000369 -0.933592 0.209575 3.059191 2.205966 -0.062019 -0.278377 -2.489740 0.301395 -2.647500 3.560609 11.303613 16.762961 0.000000 0.000000 0.000000 -0.764344 0.474896 -4.835256 1.078453 -0.036410 2.582805 -0.965236 -8.122205 17.004297 0.000000 0.000000 0.000000 7.711501 -0.976815 7.691195 -5.785377 2.088385 -20.496556 -2.673113 3.595067 25.130740 10.805225 -5.521580 -18.961472 0.000000 0.000000 0.000000 -22.031862 -17.267872 7.511050 -46.544519 -10.273919 -3.443435 -7.645287 -23.671684 2.503352 0.000000 0.000000 0.000000 31.192298 3.088684 1.629335 48.917140 13.632070 -2.067859 3.961576 28.229930 2.399429 0.000000 0.000000 0.000000 
-0.000762 0.965199 0.001001 -0.931198 0.448838 3.330597 2.071529 -0.066028 -0.337452 -2.435620 0.294031 -2.524321 3.588158 11.195717 15.760092 0.000000 0.000000 0.000000 -0.848613 0.500572 -5.121768 1.447437 -0.086278 2.524900 -1.340465 -8.858083 17.611399 0.000000 0.000000 0.000000 7.986599 -0.967284 7.323906 -6.197958 2.188234 -20.965869 -2.694479 3.532536 25.846295 10.683351 -5.258072 -19.916753 0.000000 0.000000 0.000000 -21.734134 -17.987401 7.903692 -46.534786 -10.378656 -3.454844 -8.357371 -25.044421 2.813736 0.000000 0.000000 0.000000 31.326678 2.744789 1.437520 48.415784 13.366322 -2.248611 4.597505 29.090583 2.653317 0.000000 0.000000 0.000000 
-0.001107 0.965849 0.002126 -0.780222 0.907106 3.289701 2.270104 -0.076246 -0.411772 -3.078338 0.340472 -1.761074 3.348624 10.678465 14.622539 0.000000 0.000000 0.000000 -0.990318 0.499285 -5.140549 1.597867 -0.095384 3.041341 -1.651704 -9.232182 17.288620 0.000000 0.000000 0.000000 7.564882 -0.939356 7.375145 -5.522021 2.022936 -20.863894 -3.145963 2.982601 25.571134 10.253437 -5.011074 -19.762796 0.000000 0.000000 0.000000 -22.584531 -17.644685 7.832053 -46.176146 -10.499896 -3.365859 -8.428702 -26.487378 3.016510 0.000000 0.000000 0.000000 31.274653 2.725559 1.300558 48.065041 12.614481 -2.465750 5.514935 29.893925 2.948323 0.000000 0.000000 0.000000 
-0.001797 0.966639 0.004236 -0.698430 1.257971 3.229641 2.238102 -0.073745 -0.370547 -3.067193 0.335488 -1.496653 3.187254 10.476390 14.614247 0.000000 0.000000 0.000000 -1.190587 0.466124 -4.814957 1.844671 -0.129850 3.080609 -1.597495 -9.033251 17.076727 0.000000 0.000000 0.000000 7.481438 -0.955847 7.583039 -5.699292 2.068398 -21.213648 -3.002546 2.676305 25.633107 10.090663 -4.762435 -20.598186 0.000000 0.000000 0.000000 -23.152382 -17.722459 7.950514 -45.834799 -10.440690 -3.372123 -9.049316 -27.829356 3.340580 0.000000 0.000000 0.000000 31.034793 2.557709 1.150335 48.244018 12.022754 -2.683402 5.799712 30.184862 3.055425 0.000000 0.000000 0.000000 
-0.003082 0.966910 0.007226 -0.637383 1.654406 3.231722 2.175647 -0.052058 -0.061844 -3.063428 0.335539 -1.943832 3.357391 10.851790 14.982300 0.000000 0.000000 0.000000 -1.125449 0.425772 -4.360745 2.066834 -0.164874 2.975235 -2.050594 -9.608582 16.431853 0.000000 0.000000 0.000000 7.484080 -0.945187 7.456161 -5.803819 2.108114 -21.049896 -3.228630 2.361664 25.507004 10.184891 -4.816027 -20.670615 0.000000 0.000000 0.000000 -23.263949 -17.243217 7.683342 -45.742934 -10.312201 -3.405812 -8.996183 -28.724007 3.446710 0.000000 0.000000 0.000000 30.956215 2.012022 0.744508 48.689779 11.408588 -2.904519 6.100899 30.475443 3.181802 0.000000 0.000000 0.000000 
-0.005163 0.966797 0.010956 -0.586148 1.886841 3.277095 2.042825 -0.032005 0.189384 -2.935241 0.326158 -2.341293 3.804192 11.629829 15.441295 0.000000 0.000000 0.000000 -0.976282 0.400461 -4.065034 2.186918 -0.183042 2.957082 -2.422290 -10.125404 15.982418 0.000000 0.000000 0.000000 7.319054 -0.944256 7.556843 -5.761547 2.081869 -21.681351 -3.334857 2.448557 25.957721 10.489658 -4.975656 -20.822275 0.000000 0.000000 0.000000 -23.285163 -17.197158 7.598415 -45.580692 -10.228943 -3.453769 -9.351272 -28.984793 3.565789 0.000000 0.000000 0.000000 31.040346 1.335935 0.387813 48.939915 10.987305 -3.150999 6.031300 29.776173 3.103127 0.000000 0.000000 0.000000 
-0.007989 0.966654 0.015096 -0.493185 2.038350 3.569731 2.072145 -0.012157 0.501325 -2.899961 0.328704 -3.161178 3.899488 11.865855 15.888864 0.000000 0.000000 0.000000 -0.892763 0.382301 -3.854378 2.273466 -0.200746 2.667682 -2.526741 -10.197184 15.521516 0.000000 0.000000 0.000000 7.118466 -0.913859 7.370202 -5.877611 2.106132 -21.868139 -3.355770 2.238992 25.897996 10.520133 -4.898997 -21.380399 0.000000 0.000000 0.000000 -23.200146 -16.548107 7.245315 -45.455879 -9.870854 -3.581412 -9.024277 -28.722719 3.450293 0.000000 0.000000 0.000000 31.012201 0.900348 0.027925 49.306495 10.138467 -3.462652 5.580339 28.795137 2.867891 0.000000 0.000000 0.000000 
-0.011423 0.966203 0.019679 -0.369676 2.193327 3.922418 2.048551 -0.010469 0.543148 -2.872356 0.328642 -3.570928 4.225686 12.405504 16.178558 0.000000 0.000000 0.000000 -0.667058 0.363292 -3.630227 2.159361 -0.191017 2.412025 -2.663939 -10.262892 14.695268 0.000000 0.000000 0.000000 6.946726 -0.904762 7.352620 -6.125543 2.132876 -22.943754 -3.393658 2.289750 26.535283 10.925943 -4.913302 -22.668864 0.000000 0.000000 0.000000 -23.156273 -16.018416 6.919035 -45.110149 -9.340007 -3.804641 -8.840069 -28.109058 3.322852 0.000000 0.000000 0.000000 31.159501 0.389532 -0.250504 49.665085 9.434158 -3.831897 5.233669 27.900689 2.701675 0.000000 0.000000 0.000000 
-0.015208 0.965791 0.024967 -0.373707 2.149228 4.114839 1.964037 0.004856 0.728149 -2.559509 0.310005 -3.911402 4.836591 13.352201 16.668475 0.000000 0.000000 0.000000 -0.448726 0.358126 -3.563598 2.007613 -0.172166 2.335600 -2.408420 -9.841982 14.839960 0.000000 0.000000 0.000000 6.859608 -0.885667 7.204437 -6.200913 2.149528 -22.856631 -3.497803 2.354908 26.412877 11.066699 -4.930377 -22.963296 0.000000 0.000000 0.000000 -23.240822 -15.633481 6.677475 -44.815906 -8.460250 -4.073978 -8.259549 -26.748944 3.002914 0.000000 0.000000 0.000000 31.128895 -0.156149 -0.618755 50.008543 8.587881 -4.169952 4.938720 26.780951 2.511321 0.000000 0.000000 0.000000 
-0.019380 0.964859 0.031079 -0.431764 1.674352 4.399861 2.031417 -0.010826 0.531945 -2.257601 0.285271 -3.460703 5.372936 14.075235 16.803944 0.000000 0.000000 0.000000 0.014502 0.345820 -3.430343 1.748647 -0.137858 2.234622 -2.273871 -9.549866 14.213443 0.000000 0.000000 0.000000 6.918733 -0.867279 6.948391 -6.223740 2.135262 -23.130007 -3.458606 2.918476 26.683724 11.016298 -4.853968 -22.985840 0.000000 0.000000 0.000000 -22.817989 -15.180584 6.330450 -45.114486 -7.811206 -4.339791 -7.736973 -26.022938 2.792366 0.000000 0.000000 0.000000 30.940696 -0.893765 -1.012147 50.538195 7.654956 -4.613625 4.557912 26.798183 2.462361 0.000000 0.000000 0.000000 
-0.023873 0.963877 0.038087 -0.343603 1.571116 4.312649 1.961139 0.011127 0.793989 -1.922917 0.258098 -3.281762 5.889115 14.863049 17.412017 0.000000 0.000000 0.000000 0.425929 0.284699 -2.841186 1.395731 -0.094310 2.150623 -2.319601 -9.544746 13.707140 0.000000 0.000000 0.000000 7.046121 -0.851824 6.725138 -6.213879 2.153657 -22.501444 -3.639500 3.059828 26.398689 10.957428 -4.731753 -23.284185 0.000000 0.000000 0.000000 -22.672255 -14.715205 6.014513 -45.211042 -7.047146 -4.589343 -6.662974 -25.129559 2.449071 0.000000 0.000000 0.000000 30.701373 -1.158006 -1.158881 50.993727 6.461318 -5.090201 3.919561 26.893763 2.341646 0.000000 0.000000 0.000000 
-0.028683 0.962443 0.045502 -0.364699 0.811459 4.602648 2.325632 -0.024779 0.417332 -2.164948 0.266721 -2.393134 6.576309 15.768877 17.777457 0.000000 0.000000 0.000000 0.815408 0.256617 -2.623837 1.188134 -0.058159 2.378292 -2.006838 -8.726485 12.148677 0.000000 0.000000 0.000000 7.005482 -0.805735 6.291105 -6.194931 2.123102 -22.704210 -3.409096 3.935641 26.561832 10.946348 -4.653778 -23.325625 0.000000 0.000000 0.000000 -22.445625 -14.317069 5.670812 -45.919440 -6.688499 -4.780117 -6.151309 -24.548207 2.276270 0.000000 0.000000 0.000000 31.126280 -1.870258 -1.526589 50.922408 6.026954 -5.329669 3.168728 27.032857 2.224129 0.000000 0.000000 0.000000 
-0.033651 0.960488 0.053089 -0.301206 0.084781 4.921527 2.805375 -0.061797 0.030256 -2.662525 0.303033 -1.459291 7.056442 16.365988 17.987387 0.000000 0.000000 0.000000 1.252108 0.240472 -2.547607 0.739271 0.007631 2.566603 -1.839959 -8.219539 11.001490 0.000000 0.000000 0.000000 7.199243 -0.768322 5.758898 -6.180507 2.113398 -22.396945 -3.523800 4.482952 26.434962 10.858450 -4.560238 -23.356557 0.000000 0.000000 0.000000 -22.163464 -13.978791 5.447621 -45.921876 -6.242074 -4.925485 -5.747832 -25.030851 2.234371 0.000000 0.000000 0.000000 30.790871 -1.954722 -1.531006 52.061191 6.153464 -5.340466 1.735907 27.135350 1.949259 0.000000 0.000000 0.000000 
-0.038265 0.957848 0.060594 -0.476450 -0.963422 4.879206 3.546548 -0.153770 -1.327326 -3.648929 0.400534 3.165762 7.633031 16.877925 14.891318 0.000000 0.000000 0.000000 1.702615 0.175270 -2.065387 0.399704 0.073985 3.117763 -1.266658 -6.619746 8.947248 0.000000 0.000000 0.000000 7.493858 -0.826852 6.162707 -6.255732 2.094580 -22.927927 -3.423902 5.200913 26.567695 10.816701 -4.548285 -23.258032 0.000000 0.000000 0.000000 -21.786382 -13.730516 5.300941 -45.553569 -6.647113 -4.769790 -5.645710 -26.129519 2.312762 0.000000 0.000000 0.000000 30.767243 -2.354786 -1.798588 52.205470 5.986246 -5.441368 1.047201 28.280128 1.917858 0.000000 0.000000 0.000000 
-0.041783 0.955187 0.068791 -0.746425 -1.370173 4.810887 4.412530 -0.307495 -4.203858 -4.787136 0.642125 9.814906 8.505987 18.080387 13.458576 0.000000 0.000000 0.000000 2.044883 0.116738 -1.632375 0.497961 0.099403 4.111201 -1.061625 -5.520759 6.830112 0.000000 0.000000 0.000000 8.003444 -0.922184 6.701226 -6.400704 2.113560 -23.101135 -3.261937 5.514386 26.491173 10.725711 -4.476482 -23.284182 0.000000 0.000000 0.000000 -20.326196 -14.416131 5.647638 -45.545164 -8.032343 -4.310188 -5.306424 -27.847585 2.389900 0.000000 0.000000 0.000000 30.251437 -2.623330 -1.926719 51.224017 8.164412 -4.505945 -1.537530 28.948426 1.384851 0.000000 0.000000 0.000000 
-0.043848 0.951903 0.078403 -0.636804 -1.872228 4.790642 5.056881 -0.506164 -8.993628 -6.573911 1.308280 18.612889 10.310475 20.680216 16.127500 0.000000 0.000000 0.000000 2.026707 0.041555 -1.009040 -0.054066 0.218236 5.069137 -0.578983 -3.446019 4.170787 0.000000 0.000000 0.000000 7.762668 -0.909708 6.801960 -5.512537 1.907676 -22.248644 -4.188207 5.855443 25.534124 10.218918 -4.474259 -21.268873 0.000000 0.000000 0.000000 -19.144618 -14.722200 5.722021 -43.124302 -9.116850 -3.667720 -2.592734 -30.700374 1.867461 0.000000 0.000000 0.000000 30.066577 -1.448936 -1.108342 47.242559 10.926308 -3.239060 -5.707403 30.355336 0.381623 0.000000 0.000000 0.000000 
-0.044431 0.949263 0.090135 -0.856926 -3.736034 5.155108 6.251876 -0.543679 -13.929133 -9.329858 2.901351 27.421182 12.105270 22.912403 18.242717 0.000000 0.000000 0.000000 1.772675 0.085240 -1.415432 -0.430186 0.381585 7.100752 0.474466 0.061555 1.933989 0.000000 0.000000 0.000000 7.611127 -0.933185 7.160958 -5.627988 1.863231 -23.387649 -3.369282 7.591943 25.852820 9.616678 -4.129897 -20.546935 0.000000 0.000000 0.000000 -16.693926 -14.727042 5.569397 -39.216628 -11.646366 -2.712957 2.952364 -33.481469 0.323263 0.000000 0.000000 0.000000 28.944409 -1.679929 -0.999684 40.438269 14.267408 -2.155573 -11.077472 32.412725 -1.038898 0.000000 0.000000 0.000000 
-0.043681 0.946820 0.105494 -0.526718 -3.034467 4.540248 7.022893 -0.585440 -19.658839 -11.472710 4.451431 35.724026 12.886010 23.606574 23.511926 0.000000 0.000000 0.000000 1.253488 -0.010463 -0.368178 -0.344815 0.446123 8.785001 0.254127 0.374963 0.465493 0.000000 0.000000 0.000000 6.866036 -0.961823 8.177155 -5.343937 1.801540 -24.013913 -3.678287 7.326510 25.793050 8.753590 -3.504883 -20.709734 0.000000 0.000000 0.000000 -15.488377 -14.924869 5.582680 -30.426942 -14.162722 -1.726627 11.398352 -36.670507 -2.617107 0.000000 0.000000 0.000000 26.514363 -1.224435 -0.506294 32.775246 18.201445 -1.205603 -19.338804 32.621819 -3.336401 0.000000 0.000000 0.000000 
-0.041798 0.945238 0.124935 -0.234701 -4.243671 3.679475 8.470282 -0.269458 -24.190298 -13.886525 5.816828 35.958428 14.605963 24.994005 28.855280 0.000000 0.000000 0.000000 0.699347 -0.279400 2.452012 -1.143749 0.565165 8.237554 0.749006 2.489093 -0.885770 0.000000 0.000000 0.000000 5.946329 -1.040123 10.332711 -5.099945 1.701576 -25.833748 -3.140028 9.701901 26.016248 10.275832 -4.469942 -19.681567 0.000000 0.000000 0.000000 -10.489084 -15.805720 5.565043 -22.755477 -16.094688 -1.236011 24.888614 -34.680876 -7.145370 0.000000 0.000000 0.000000 22.739488 -0.706431 0.393406 23.864772 21.322195 -0.999481 -30.946286 31.959429 -6.310869 0.000000 0.000000 0.000000 
-0.038824 0.942595 0.148498 0.046443 -3.733632 3.186369 8.575116 -0.269574 -27.691772 -12.296281 4.289489 30.240246 11.164302 21.497999 20.237337 0.000000 0.000000 0.000000 -0.138121 -0.468846 5.027382 -0.911088 0.494865 7.773449 0.840414 3.119491 -1.477096 0.000000 0.000000 0.000000 4.540774 -1.049002 12.570032 -5.604745 1.808155 -26.873537 -2.571657 9.510661 25.595388 9.264330 -3.823316 -19.238448 0.000000 0.000000 0.000000 -5.690060 -14.998713 5.102073 -14.838952 -17.490670 -1.093620 35.298181 -29.219246 -9.242985 0.000000 0.000000 0.000000 17.868970 -0.822154 0.260021 15.876894 24.531629 -0.936499 -40.149988 28.758483 -7.889991 0.000000 0.000000 0.000000 
-0.034553 0.938509 0.176446 -0.296553 -3.795181 3.385356 8.636036 -0.237326 -29.928490 -8.989448 2.214973 20.209485 9.146257 18.784102 13.466476 0.000000 0.000000 0.000000 -0.194679 -0.677689 7.373874 -0.879441 0.442186 6.916731 0.708508 3.149184 -2.037872 0.000000 0.000000 0.000000 3.192007 -0.984731 14.304856 -4.815512 1.617503 -28.439105 -2.648102 10.801269 25.846235 10.459059 -4.307410 -19.850011 0.000000 0.000000 0.000000 0.275998 -13.023552 4.286419 -9.560195 -19.614557 -1.167236 40.208624 -23.140929 -8.970622 0.000000 0.000000 0.000000 14.314095 -2.033540 -0.226936 9.272880 26.819480 -1.309455 -46.352726 25.595458 -8.139990 0.000000 0.000000 0.000000 
-0.028794 0.932217 0.209890 -0.281768 -3.172160 2.471725 7.571036 -0.570508 -30.609960 -6.107917 1.043768 12.829958 7.604854 16.587024 15.080988 0.000000 0.000000 0.000000 -0.368779 -0.967037 10.733405 -1.554225 0.536087 6.715973 0.612420 2.695170 -1.781168 0.000000 0.000000 0.000000 1.545200 -0.841310 16.240308 -4.819653 1.648215 -27.222326 -2.424291 10.720591 24.735580 11.203052 -4.565528 -20.556299 0.000000 0.000000 0.000000 4.583710 -12.225966 4.086643 -4.661398 -21.365820 -1.405068 42.772985 -17.531517 -7.739259 0.000000 0.000000 0.000000 10.724074 -0.867911 0.232314 6.130105 26.255802 -1.434290 -52.075254 22.154049 -7.794169 0.000000 0.000000 0.000000 
-0.020980 0.926849 0.249987 -0.774426 -3.337182 2.572673 7.796911 -0.494330 -31.597162 -6.276337 1.068645 12.251401 7.548148 16.575401 16.976493 0.000000 0.000000 0.000000 -0.257165 -1.179989 13.004298 -2.859274 0.804014 7.532547 1.301758 4.397001 -1.583021 0.000000 0.000000 0.000000 0.277086 -0.668507 17.151122 -5.759380 1.827434 -28.119060 -0.786354 11.150871 25.463247 11.634908 -4.701882 -21.222780 0.000000 0.000000 0.000000 6.776130 -12.178093 4.103665 0.086060 -21.887086 -1.775719 44.003636 -13.895981 -6.776696 0.000000 0.000000 0.000000 9.589826 -1.745341 -0.206653 3.051157 27.915532 -1.737955 -56.255638 21.791729 -8.493085 0.000000 0.000000 0.000000 
-0.010210 0.926858 0.297452 -1.122902 -3.160492 2.483611 8.078547 -0.431742 -31.674072 -8.007532 1.664337 16.438931 7.832586 17.147809 20.190739 0.000000 0.000000 0.000000 -0.614909 -1.321241 15.217656 -3.328357 1.014014 9.237205 1.758005 3.277646 1.813885 0.000000 0.000000 0.000000 -0.849841 -0.501551 17.784115 -5.810234 1.833565 -28.331358 -0.686982 10.868668 26.320143 11.825182 -4.666855 -22.222662 0.000000 0.000000 0.000000 9.064124 -10.313212 3.648380 2.105697 -22.696862 -2.036828 45.723617 -11.803524 -6.347667 0.000000 0.000000 0.000000 7.928278 -1.181495 -0.029336 2.058034 27.331504 -1.787966 -57.069389 22.570030 -9.118003 0.000000 0.000000 0.000000 
0.003336 0.936427 0.352399 -0.979835 -2.741880 2.574123 7.066254 -0.736201 -29.956592 -8.716215 1.988385 19.140167 7.346598 16.624604 21.133928 0.000000 0.000000 0.000000 -1.488889 -1.116156 14.289900 -2.888117 1.344307 14.780407 2.251972 -0.088622 9.997641 0.000000 0.000000 0.000000 -2.779602 -0.166694 16.830300 -5.399539 1.768094 -27.659826 -0.154612 11.093409 26.250021 10.765336 -4.044599 -21.409677 0.000000 0.000000 0.000000 9.991031 -9.707202 3.573002 2.366753 -23.332741 -2.171062 43.960551 -13.007824 -6.583259 0.000000 0.000000 0.000000 5.848936 -2.729043 -0.785027 5.107339 25.822186 -1.413768 -58.915095 29.618396 -12.859506 0.000000 0.000000 0.000000 
0.018471 0.951370 0.410886 -0.953871 -1.511248 3.052257 5.108061 -1.199910 -25.953239 -7.537669 1.554095 18.847884 7.233769 16.544889 19.304172 0.000000 0.000000 0.000000 -1.483162 -0.699562 8.790380 -2.157464 2.000512 27.028866 2.891643 -2.797683 19.867240 0.000000 0.000000 0.000000 -3.252498 -0.114700 16.808168 -5.032649 1.699163 -27.998125 -0.267824 9.956871 26.621657 11.179739 -4.709163 -20.064491 0.000000 0.000000 0.000000 10.449793 -9.399826 3.474117 0.808688 -22.445905 -1.935658 42.933277 -17.642104 -8.103122 0.000000 0.000000 0.000000 6.046297 -4.565526 -1.588165 6.640924 24.589210 -1.336364 -62.143976 38.642672 -19.034625 0.000000 0.000000 0.000000 
0.033616 0.964465 0.468965 -0.768262 0.270088 2.126180 2.692384 -1.404023 -19.884034 -5.730898 0.905277 17.271469 6.252264 15.440164 19.193617 0.000000 0.000000 0.000000 -1.146112 -0.129721 1.781511 0.560742 1.428502 41.351225 1.867509 -5.324336 23.597908 0.000000 0.000000 0.000000 -3.265102 -0.192231 18.539241 -5.206241 1.756042 -28.228149 -1.288687 7.274429 27.386684 10.828465 -4.738814 -20.419066 0.000000 0.000000 0.000000 10.211174 -8.986358 3.195054 -0.689105 -21.316882 -1.676692 39.921470 -20.943643 -8.342074 0.000000 0.000000 0.000000 6.752307 -4.364581 -1.584387 9.390838 22.563829 -1.217066 -63.329893 43.931558 -23.192264 0.000000 0.000000 0.000000 
0.048872 0.972335 0.526837 -1.163198 1.241125 1.382141 1.347526 -1.070150 -13.031395 -4.436693 0.509441 14.431133 5.586234 14.503418 17.880432 0.000000 0.000000 0.000000 0.538512 0.748076 -7.247385 1.758344 0.795777 50.792524 -0.357970 -7.099708 17.394899 0.000000 0.000000 0.000000 -1.951991 -0.511210 20.089651 -6.056474 1.925774 -28.643509 -2.037734 4.368509 28.150675 9.408158 -4.741648 -17.763494 0.000000 0.000000 0.000000 7.115480 -9.009507 2.994646 -2.950027 -18.732602 -1.366609 38.144483 -25.274507 -8.973453 0.000000 0.000000 0.000000 9.957746 -3.949556 -1.602526 13.338025 22.929889 -1.087592 -59.297714 49.035956 -24.801466 0.000000 0.000000 0.000000 
0.065000 0.974460 0.586143 -1.744614 3.073347 1.012432 0.530378 -0.637782 -7.255585 -3.184007 0.172587 12.955849 3.873006 11.920608 15.557477 0.000000 0.000000 0.000000 1.136133 1.733776 -16.379412 4.185108 -1.279756 51.587471 -2.700639 -9.585096 10.697172 0.000000 0.000000 0.000000 0.062211 -1.040717 21.426138 -5.933864 1.909850 -28.852658 -3.570680 2.169026 29.473765 8.764742 -4.761959 -16.763903 0.000000 0.000000 0.000000 2.248757 -11.149444 3.688591 -6.054114 -16.897952 -1.306769 34.910429 -24.138788 -7.497843 0.000000 0.000000 0.000000 15.669510 -3.797246 -1.827504 18.822672 21.481997 -1.098794 -46.721634 53.526659 -20.617661 0.000000 0.000000 0.000000 
0.082305 0.968807 0.647759 -1.462093 4.646218 1.487384 -0.320423 -0.198774 -2.259538 -3.448615 0.202053 11.829774 2.882971 9.558894 11.122153 0.000000 0.000000 0.000000 0.697757 2.421296 -24.974590 5.631371 -2.249697 45.277989 -3.353697 -9.810982 6.159355 0.000000 0.000000 0.000000 1.984309 -1.540935 22.037744 -7.290204 2.163943 -29.144003 -3.378663 -0.401088 30.457179 7.311630 -3.645186 -19.040177 0.000000 0.000000 0.000000 -5.244430 -12.712380 4.729965 -10.359301 -16.465365 -1.446762 29.754074 -24.273493 -5.938689 0.000000 0.000000 0.000000 20.671953 -2.495073 -1.682435 27.329098 19.172533 -1.256993 -20.486942 48.677002 -6.327088 0.000000 0.000000 0.000000 
0.100371 0.955382 0.713711 -1.156937 6.164556 1.315944 -1.417574 0.347042 3.234488 -2.506810 0.023288 10.213411 2.134436 7.675879 8.562341 0.000000 0.000000 0.000000 0.639622 2.710033 -30.004102 5.084054 -1.426158 30.096625 -4.038269 -10.776617 4.324035 0.000000 0.000000 0.000000 3.549050 -2.001505 22.730108 -8.536112 2.423312 -29.005744 -2.719437 -2.405025 31.569017 6.634352 -2.621047 -24.904272 0.000000 0.000000 0.000000 -11.323430 -14.736444 6.230554 -16.127419 -16.571292 -1.664996 24.039427 -25.973195 -4.737472 0.000000 0.000000 0.000000 26.805980 -1.158565 -1.610243 32.948161 15.144793 -2.095253 -7.617600 37.083122 -0.586908 0.000000 0.000000 0.000000 
0.118120 0.938013 0.785933 -0.560506 8.146118 1.583686 -2.859580 1.063424 9.745886 -0.028009 -0.278759 6.624403 0.317301 4.165817 7.225472 0.000000 0.000000 0.000000 0.272403 2.592771 -32.656361 3.070383 -0.388499 12.347916 -2.646332 -7.935345 6.580836 0.000000 0.000000 0.000000 4.450653 -2.141922 21.466393 -6.742425 2.223099 -26.772453 -3.464136 -3.879547 31.122922 6.198628 -1.871983 -28.700847 0.000000 0.000000 0.000000 -15.075488 -14.582836 6.497740 -24.829048 -17.286099 -1.717078 16.239998 -26.017963 -2.723922 0.000000 0.000000 0.000000 29.865914 -0.987123 -1.925311 40.363311 11.543462 -3.082886 -3.746091 27.845317 0.511470 0.000000 0.000000 0.000000 
0.135554 0.921647 0.866701 -0.173795 9.576588 3.252278 -4.372121 1.795092 15.621215 2.823961 -0.508077 3.669420 -0.720197 1.915784 6.167103 0.000000 0.000000 0.000000 0.403605 2.566677 -34.860022 2.209007 -0.249556 1.690451 -1.630450 -6.293583 9.671719 0.000000 0.000000 0.000000 5.771255 -2.024075 17.766707 -6.423885 2.250617 -24.905131 -3.175776 -6.094310 30.745108 5.935439 -1.649821 -30.855236 0.000000 0.000000 0.000000 -17.697329 -14.892005 7.177071 -31.981870 -17.036935 -1.885135 9.391565 -27.974852 -1.099252 0.000000 0.000000 0.000000 30.569833 -0.064227 -1.899314 45.496604 8.532097 -4.071046 -2.058066 20.186621 0.589932 0.000000 0.000000 0.000000 
0.151779 0.912535 0.957466 -1.050817 10.004455 4.844247 -3.118332 1.836636 18.973793 2.768165 -0.598157 5.058551 -2.206892 1.427539 10.427057 0.000000 0.000000 0.000000 1.255097 2.921276 -38.452690 3.350963 -0.409983 4.353089 -0.886214 -5.744652 13.958667 0.000000 0.000000 0.000000 7.936637 -1.902382 13.663453 -3.970203 1.639168 -27.167233 -5.835104 -4.976579 32.881034 8.527484 -2.125135 -36.011162 0.000000 0.000000 0.000000 -17.536423 -14.215469 6.515136 -39.632186 -17.041586 -2.015490 2.741464 -28.515060 0.587975 0.000000 0.000000 0.000000 32.987168 -1.749002 -2.700295 48.512215 8.499759 -4.567181 -0.641573 16.306813 0.693437 0.000000 0.000000 0.000000 
0.166273 0.911435 1.056924 -1.756100 10.736360 5.150938 -0.471000 1.186593 17.462251 1.068779 -1.056247 15.033458 -5.886206 0.961831 21.563745 0.000000 0.000000 0.000000 2.899017 3.344446 -38.300662 3.124051 -0.459617 12.652659 -1.780308 -7.741686 16.598448 0.000000 0.000000 0.000000 11.416540 -2.118464 11.305500 -4.717687 1.840848 -25.447047 -6.198626 -5.403379 29.590409 6.314457 -0.884426 -35.477904 0.000000 0.000000 0.000000 -20.221813 -15.024822 7.002123 -43.264956 -14.896720 -2.319258 -1.542468 -29.265814 1.721293 0.000000 0.000000 0.000000 30.212262 -1.103214 -2.082967 52.666968 7.720216 -4.644003 -1.769866 13.750886 0.451170 0.000000 0.000000 0.000000 
0.178732 0.916997 1.156433 -3.069153 9.190983 2.969232 2.581130 0.491877 12.070581 -3.363815 -1.019134 33.541078 -5.852113 4.107030 31.309921 0.000000 0.000000 0.000000 5.072281 4.108968 -36.124667 3.114848 -0.621098 21.655611 -2.697690 -9.366752 15.130924 0.000000 0.000000 0.000000 13.113232 -2.445349 12.296835 -4.673095 1.747867 -27.451915 -5.054430 -1.676364 29.786824 8.785405 -1.719457 -35.049406 0.000000 0.000000 0.000000 -20.656947 -18.347366 8.059475 -44.863238 -13.880380 -2.535265 -2.680574 -28.225868 1.818051 0.000000 0.000000 0.000000 30.437793 0.027244 -0.086536 49.735295 11.457253 -3.472740 -1.031391 16.051914 0.648278 0.000000 0.000000 0.000000 
0.188887 0.932318 1.248695 -3.495975 8.386262 0.516149 4.299485 0.012976 3.547119 -6.903394 -0.211132 49.208341 -3.855653 7.229876 35.963429 0.000000 0.000000 0.000000 6.538556 3.901610 -29.097421 2.413380 -0.452106 24.158337 -2.601242 -8.666014 11.220349 0.000000 0.000000 0.000000 12.582187 -2.500398 13.702453 -4.125337 1.668345 -27.188011 -4.914588 0.676288 29.514820 9.596047 -2.174366 -32.613127 0.000000 0.000000 0.000000 -17.256596 -18.764084 7.458681 -44.808219 -14.488015 -2.266805 0.847689 -30.482129 0.924572 0.000000 0.000000 0.000000 29.058456 2.021368 2.122406 45.078271 16.658582 -1.768001 -3.661587 19.594024 0.448420 0.000000 0.000000 0.000000 
0.197828 0.953050 1.336690 -2.816185 6.788969 -1.678664 4.971802 -0.354388 -5.089324 -10.470585 2.241399 55.182703 3.022181 13.073367 28.868742 0.000000 0.000000 0.000000 7.105654 2.763651 -18.501972 0.620415 0.254020 20.573618 -1.365142 -5.633226 7.703718 0.000000 0.000000 0.000000 10.843223 -2.330526 15.110237 -5.725968 1.955865 -28.397827 -2.433537 3.148397 30.678333 11.111619 -3.196856 -30.630224 0.000000 0.000000 0.000000 -15.376929 -18.748880 7.011212 -39.059809 -16.295233 -1.682098 2.391256 -31.859527 0.343142 0.000000 0.000000 0.000000 27.257112 2.841313 3.238879 36.559819 23.031502 -0.460675 -7.221398 21.333658 -0.111297 0.000000 0.000000 0.000000 
0.206873 0.974247 1.421517 -1.236379 5.915571 -3.406256 4.645802 -0.747744 -12.212360 -11.096287 2.878681 50.640665 6.467185 15.645457 14.953828 0.000000 0.000000 0.000000 5.815098 1.221171 -8.458617 -0.777442 0.619934 15.430383 0.586723 -1.791847 8.282397 0.000000 0.000000 0.000000 8.366931 -1.844806 14.940986 -6.674645 2.177546 -28.171285 -0.775155 6.397504 30.286120 12.547608 -4.229708 -27.327860 0.000000 0.000000 0.000000 -11.522908 -17.597039 5.819966 -33.469376 -17.572502 -1.229902 5.587616 -34.125757 -0.986552 0.000000 0.000000 0.000000 24.348380 1.995144 3.269305 27.022726 25.113597 -0.682668 -7.236133 24.231460 -0.239349 0.000000 0.000000 0.000000 
0.217089 0.989142 1.503404 -0.249227 3.766757 -4.272033 4.641079 -0.962660 -16.445797 -9.857049 2.442532 37.273021 8.412226 18.190415 12.245446 0.000000 0.000000 0.000000 4.013784 -0.053278 0.142162 -1.065800 0.615671 11.354096 2.347717 1.551517 8.601579 0.000000 0.000000 0.000000 7.220975 -1.720093 15.898125 -8.209212 2.335501 -30.502732 0.696991 9.553810 30.291086 12.353575 -4.079077 -25.864150 0.000000 0.000000 0.000000 -8.380404 -14.872516 4.476040 -27.756299 -16.279823 -1.412401 11.302299 -37.057340 -3.466159 0.000000 0.000000 0.000000 20.402160 0.768020 2.597187 21.237819 27.947595 -0.632483 -8.555313 22.921628 -0.473900 0.000000 0.000000 0.000000 
0.229426 0.997274 1.583665 -0.435528 1.460628 -4.965534 4.870700 -0.859286 -16.475523 -5.436181 0.743426 15.471742 8.371284 18.179114 15.449752 0.000000 0.000000 0.000000 2.619129 -1.011916 7.817118 -0.717722 0.439564 8.047438 3.710895 4.103703 8.741410 0.000000 0.000000 0.000000 6.925728 -1.655975 16.329924 -8.284092 2.306091 -31.250773 1.214786 12.348549 29.477145 13.223689 -4.269757 -26.127126 0.000000 0.000000 0.000000 -5.307478 -11.334927 3.147634 -25.106261 -15.217576 -1.459020 14.460063 -36.700395 -4.871637 0.000000 0.000000 0.000000 16.030895 -0.445298 1.628228 16.890258 29.462881 -0.604919 -9.999682 23.754268 -0.740601 0.000000 0.000000 0.000000 
0.244249 1.000780 1.665347 -0.919522 0.092003 -4.496750 5.637186 -0.722784 -16.707737 -2.303877 0.292585 -2.744396 4.832875 13.726572 21.038497 0.000000 0.000000 0.000000 1.623201 -1.451555 12.368409 -1.288104 0.556446 8.092593 4.238678 4.850528 9.111163 0.000000 0.000000 0.000000 6.780070 -1.419675 14.447990 -8.028727 2.362412 -29.057892 1.690802 13.946612 26.592881 11.375740 -3.231166 -23.986243 0.000000 0.000000 0.000000 -2.640795 -8.080519 2.175887 -24.286898 -11.323697 -1.777561 13.418310 -37.363538 -4.882348 0.000000 0.000000 0.000000 11.738541 -1.389953 0.679626 15.778843 28.214718 -0.478293 -11.460576 24.486327 -0.934948 0.000000 0.000000 0.000000 
0.261992 0.998606 1.750590 -1.046750 -0.915073 -5.106793 4.961704 -0.727516 -15.533287 -1.225199 0.388686 -10.751189 1.542759 11.444494 33.505887 0.000000 0.000000 0.000000 -0.274089 -1.480969 15.353688 -0.805337 0.718123 12.852700 4.654632 4.425827 11.143732 0.000000 0.000000 0.000000 6.018366 -1.133826 12.697850 -7.606065 2.222400 -30.252021 3.867211 15.307951 30.098263 12.730620 -3.966569 -24.417157 0.000000 0.000000 0.000000 -1.437716 -7.270875 2.053595 -24.875543 -8.713209 -2.397391 13.331079 -37.179415 -4.962967 0.000000 0.000000 0.000000 10.255965 -4.334980 -0.769673 16.536781 27.984963 -0.549039 -14.267100 27.776231 -1.468836 0.000000 0.000000 0.000000 
0.282875 0.991073 1.838745 -1.521126 -2.684465 -5.531438 4.691985 -0.682073 -14.900132 -2.411115 0.380092 -7.438543 2.535120 13.214587 41.172236 0.000000 0.000000 0.000000 -2.143975 -0.989396 13.407023 -1.245058 1.584678 24.104255 7.086110 5.591617 16.893988 0.000000 0.000000 0.000000 5.866858 -0.941323 11.023240 -6.701377 2.083104 -28.849347 3.833125 15.298659 29.902750 11.498404 -3.317483 -24.284573 0.000000 0.000000 0.000000 -1.790457 -4.018116 0.929137 -28.884604 -5.317242 -3.461348 10.755876 -36.320942 -3.707445 0.000000 0.000000 0.000000 10.362089 -3.647072 -0.542390 21.468923 25.137199 -0.454427 -15.959189 31.224336 -1.961420 0.000000 0.000000 0.000000 
0.304893 0.975552 1.923549 -1.530118 -2.760403 -5.317562 1.729424 -1.045005 -14.294852 -2.196084 0.240176 1.255326 4.905626 14.625722 32.848413 0.000000 0.000000 0.000000 -2.842115 -0.401983 6.266871 -1.463353 3.053561 41.186947 5.445803 3.510494 15.307069 0.000000 0.000000 0.000000 4.955946 -0.784141 9.998996 -4.941871 1.724130 -27.883753 2.092392 14.951053 30.209835 12.123049 -3.730553 -24.752106 0.000000 0.000000 0.000000 -5.181828 -5.835425 1.088920 -30.032067 0.045134 -4.675663 7.398233 -32.747299 -2.053513 0.000000 0.000000 0.000000 15.018520 -3.857247 -0.284494 26.714987 21.389524 -1.057666 -13.863630 31.173493 -1.406315 0.000000 0.000000 0.000000 
0.325524 0.955477 1.998542 -0.896522 -0.979849 -6.166612 -0.032874 -1.371094 -15.035686 -4.406050 0.572464 11.993631 6.579154 16.009471 23.145995 0.000000 0.000000 0.000000 -2.607252 0.399159 -4.769631 -1.322202 3.983298 57.648118 2.699754 -0.982524 14.624411 0.000000 0.000000 0.000000 4.220841 -0.998112 13.499878 -5.591355 1.870255 -28.830164 1.447625 11.319483 29.291383 9.836710 -2.268965 -27.298567 0.000000 0.000000 0.000000 -12.079293 -8.119270 1.446382 -33.103596 2.799631 -5.784458 5.008570 -26.710147 -0.653696 0.000000 0.000000 0.000000 20.891563 -3.132934 0.010377 33.789787 17.667705 -1.827637 -12.596207 26.429091 -0.945747 0.000000 0.000000 0.000000 
0.344256 0.937678 2.067455 -0.593342 1.482687 -6.990901 -2.234413 -1.533694 -13.552943 -4.744891 0.579030 18.452027 7.739105 17.185070 14.376059 0.000000 0.000000 0.000000 -2.891059 1.112913 -14.871289 -0.720294 3.039258 64.690955 -0.674860 -5.533328 9.867095 0.000000 0.000000 0.000000 4.708732 -1.263698 15.644195 -5.919655 1.993247 -28.414073 0.058569 8.403313 29.473121 8.174332 -1.066432 -30.660702 0.000000 0.000000 0.000000 -17.684294 -10.009048 2.071117 -37.176454 1.622685 -6.225490 1.983964 -22.326057 0.245085 0.000000 0.000000 0.000000 27.376827 -3.250060 -0.170381 41.442248 14.997490 -2.792742 -10.985856 21.435942 -0.423575 0.000000 0.000000 0.000000 
0.360626 0.932284 2.134082 -0.600289 3.350004 -8.704046 -4.488953 -1.255044 -9.336325 -3.313130 0.005431 22.124508 8.108181 17.456209 9.685090 0.000000 0.000000 0.000000 -2.064705 1.630603 -21.116770 -0.498727 1.896879 60.288865 -2.045450 -7.357100 7.024546 0.000000 0.000000 0.000000 4.894649 -1.569451 18.403209 -5.926650 1.973874 -29.992796 -0.333155 5.495274 31.346212 8.227171 -1.433985 -31.251233 0.000000 0.000000 0.000000 -22.244049 -11.609734 3.177547 -40.056027 -1.695746 -5.952626 0.380906 -18.801579 0.582526 0.000000 0.000000 0.000000 31.068491 -3.401490 -0.848079 47.824057 11.012145 -4.397662 -7.476100 15.728307 0.085856 0.000000 0.000000 0.000000 
0.374976 0.933124 2.200102 -1.214272 4.962703 -9.029674 -4.963805 -0.556753 -4.048603 -2.512153 -0.323687 21.381350 7.662950 16.401434 6.384264 0.000000 0.000000 0.000000 -1.140576 1.976723 -24.444787 0.446784 0.567124 48.339388 -1.970098 -7.318925 8.219663 0.000000 0.000000 0.000000 6.127027 -1.747472 17.903906 -7.015423 2.275699 -28.730736 -0.276546 2.824621 30.533167 8.276191 -1.700999 -31.471803 0.000000 0.000000 0.000000 -23.657974 -11.234738 3.362263 -40.701736 -5.402783 -4.941190 0.820317 -18.494572 0.550083 0.000000 0.000000 0.000000 29.144017 -5.385367 -2.814925 51.193229 5.487671 -6.313930 -7.366017 10.951021 0.106700 0.000000 0.000000 0.000000 
0.388192 0.941061 2.266927 -1.892756 5.740444 -9.509909 -5.284955 0.174871 1.485831 -1.276178 -0.676872 20.250627 7.212029 15.795485 7.447870 0.000000 0.000000 0.000000 0.649318 2.288537 -23.901154 1.587742 -0.041567 30.791882 -0.647890 -5.429745 11.899460 0.000000 0.000000 0.000000 7.081197 -1.758010 16.672332 -6.043512 2.038436 -29.471851 -1.745432 2.019151 31.397691 8.299466 -2.205016 -28.567710 0.000000 0.000000 0.000000 -19.824222 -8.093448 1.898201 -37.109443 -7.056369 -4.263426 5.247934 -19.695444 -0.183901 0.000000 0.000000 0.000000 23.932951 -9.093018 -4.867694 48.628965 1.588021 -7.454176 -9.443898 10.407492 0.030865 0.000000 0.000000 0.000000 
0.401322 0.948339 2.335280 -1.690098 5.557762 -7.980102 -5.909170 0.632512 4.713101 -0.944525 -0.661049 18.562519 6.921961 16.034087 12.437873 0.000000 0.000000 0.000000 3.129664 2.680384 -22.557320 1.713803 -0.010269 15.795405 1.399757 -3.074886 17.018016 0.000000 0.000000 0.000000 7.207907 -1.317528 12.774785 -5.116270 1.800207 -30.411204 -3.204081 2.387352 31.777668 9.231826 -3.165937 -25.794436 0.000000 0.000000 0.000000 -11.473537 -6.227388 1.489803 -29.890333 -8.333384 -3.344697 10.449981 -20.146656 -1.230203 0.000000 0.000000 0.000000 19.314528 -12.285224 -6.340993 36.081495 -0.305473 -6.191484 -13.723464 11.332898 -0.290484 0.000000 0.000000 0.000000 
0.416018 0.951799 2.405549 -1.812667 6.608162 -6.832097 -5.056552 0.919498 7.284250 -1.435194 -0.613292 19.290947 4.095561 12.749028 16.685747 0.000000 0.000000 0.000000 5.687673 2.775465 -19.707840 -0.141110 0.313091 9.572520 2.951137 -1.123820 19.982315 0.000000 0.000000 0.000000 8.253854 -0.956032 8.736023 -5.763978 1.945794 -29.538458 -4.010657 1.399839 29.478796 8.074426 -3.191888 -20.965393 0.000000 0.000000 0.000000 -3.017745 -3.676415 1.026760 -20.506636 -10.285373 -2.118495 18.038317 -17.566206 -2.425991 0.000000 0.000000 0.000000 11.576095 -13.907124 -6.478430 20.490440 0.114755 -3.326544 -14.955273 8.436083 -0.273445 0.000000 0.000000 0.000000 
0.431915 0.950984 2.474988 -1.715374 7.633588 -6.554155 -3.360747 0.917995 8.459301 -3.445535 -0.371407 24.979964 -0.085904 7.740742 19.523194 0.000000 0.000000 0.000000 6.250806 2.498094 -17.086218 -0.989574 0.523103 11.333655 0.170364 -4.921665 17.676122 0.000000 0.000000 0.000000 8.940903 -0.832237 7.283190 -6.388677 1.831510 -33.423429 -4.708349 1.974555 30.838925 8.329552 -4.126101 -16.112875 0.000000 0.000000 0.000000 7.296576 -0.638431 0.887923 -7.988201 -14.180966 -1.241735 20.655251 -12.670971 -2.336363 0.000000 0.000000 0.000000 1.592079 -16.922693 -6.672585 6.462677 5.679670 -1.152343 -11.588712 3.969819 0.111372 0.000000 0.000000 0.000000 
0.446408 0.951681 2.536737 -2.053566 7.091426 -6.691239 0.956244 0.474132 6.978627 -8.225657 1.132384 33.301851 -4.416198 3.395605 24.579962 0.000000 0.000000 0.000000 7.061647 2.206148 -14.116527 -0.703055 0.510018 13.110258 -1.213787 -6.709025 14.299156 0.000000 0.000000 0.000000 8.946315 -0.894599 7.827942 -5.623704 1.598454 -35.385636 -5.053990 1.754493 29.527843 7.133140 -3.786061 -13.347259 0.000000 0.000000 0.000000 14.819994 2.298070 0.781621 3.193793 -15.239310 -1.051275 19.879784 -4.659409 -1.026232 0.000000 0.000000 0.000000 -7.197163 -14.671379 -4.859227 -1.976233 9.062216 -0.475545 -10.377647 -0.566208 0.355120 0.000000 0.000000 0.000000 
0.458529 0.956010 2.586869 -2.248643 8.150774 -6.857854 4.390137 0.047425 2.851134 -10.901248 2.037165 40.610013 -5.483555 4.236472 31.047434 0.000000 0.000000 0.000000 7.159634 1.749441 -10.938305 -1.175091 0.601759 13.305848 -2.575596 -8.752273 12.325525 0.000000 0.000000 0.000000 8.383939 -1.125796 9.913127 -7.401872 1.498634 -39.600813 -2.804867 1.928065 31.162219 8.486284 -5.082446 -12.235798 0.000000 0.000000 0.000000 20.373183 4.908068 0.839467 11.817709 -19.982987 -2.091503 20.810676 2.978230 -0.003693 0.000000 0.000000 0.000000 -13.451847 -16.299835 -4.931921 -7.508182 11.509005 -0.339865 -9.142102 -2.826095 0.428652 0.000000 0.000000 0.000000 
0.469326 0.962848 2.627745 -1.888934 7.646949 -6.167828 5.549023 -0.105907 -0.299789 -11.322775 2.333850 39.542452 0.939062 9.954971 23.638409 0.000000 0.000000 0.000000 6.606781 1.225612 -7.807875 -0.875667 0.510593 11.860908 -2.622052 -8.799216 11.345671 0.000000 0.000000 0.000000 7.573956 -1.153646 10.640083 -6.999842 1.373626 -40.724580 -1.579566 2.837056 30.623379 8.338006 -5.160644 -10.920446 0.000000 0.000000 0.000000 23.804092 6.313604 1.077371 15.645201 -21.063398 -2.669000 21.044176 8.934016 0.811864 0.000000 0.000000 0.000000 -18.523085 -14.658255 -4.230039 -10.956183 13.109715 -0.343911 -8.980269 -4.451350 0.507316 0.000000 0.000000 0.000000 
0.479569 0.969976 2.661366 -1.030829 6.939350 -5.372873 5.678790 -0.185982 -2.417998 -9.196120 1.534623 33.919049 4.519523 12.151623 10.770094 0.000000 0.000000 0.000000 6.060583 0.818713 -5.413301 -2.136326 0.732221 9.837425 -1.942139 -7.743012 12.158742 0.000000 0.000000 0.000000 6.540100 -1.237000 12.187183 -6.522358 1.177617 -43.431099 -0.845179 5.092662 31.108582 9.716453 -6.234408 -10.412526 0.000000 0.000000 0.000000 25.304213 8.017664 1.347605 17.816415 -23.974714 -3.885454 22.476429 12.770425 1.327251 0.000000 0.000000 0.000000 -19.930721 -14.061385 -4.428906 -13.601459 15.335487 -0.477815 -9.345400 -6.556348 0.667027 0.000000 0.000000 0.000000 
0.489293 0.974213 2.689650 -0.385964 5.617332 -4.506841 4.463952 -0.179467 -2.331249 -5.843276 0.594435 22.527656 4.085501 9.830475 4.487584 0.000000 0.000000 0.000000 4.939627 0.434779 -3.180727 -1.957683 0.595738 7.238351 -1.545941 -7.296108 12.655463 0.000000 0.000000 0.000000 5.869107 -1.123439 11.828284 -6.335901 1.270478 -42.786514 -0.931565 6.386423 30.716818 10.732826 -6.776618 -11.196144 0.000000 0.000000 0.000000 27.361713 8.350701 1.697069 19.386431 -25.164049 -4.544665 23.520227 15.885035 1.831835 0.000000 0.000000 0.000000 -21.396009 -13.252768 -4.265388 -13.887301 18.067458 -0.914897 -10.648499 -7.588209 0.871959 0.000000 0.000000 0.000000 
0.497937 0.975674 2.713730 -0.007576 5.206173 -4.152620 4.020502 -0.165492 -2.047299 -3.914728 0.260146 13.269271 0.312935 4.256421 7.873368 0.000000 0.000000 0.000000 3.944801 0.201087 -1.653170 -1.913011 0.563739 6.675085 -1.270042 -6.734191 12.171064 0.000000 0.000000 0.000000 5.691990 -1.148949 12.261201 -7.147265 1.400256 -42.172717 -0.861520 6.080006 29.942252 11.576749 -7.603188 -11.069123 0.000000 0.000000 0.000000 28.953926 8.318066 1.797042 20.948553 -25.175581 -4.708359 21.981059 15.774819 1.725565 0.000000 0.000000 0.000000 -21.962039 -13.227212 -4.060137 -15.500516 20.380390 -1.398389 -11.641055 -7.640796 0.960977 0.000000 0.000000 0.000000 
0.505213 0.975127 2.734283 -0.151915 4.738144 -3.843160 3.354845 -0.057237 -0.203135 -1.708289 0.034486 5.733373 -3.027330 2.030465 16.094102 0.000000 0.000000 0.000000 3.457216 -0.006918 -0.152662 -2.430948 0.567018 5.018698 0.065461 -4.492087 13.080446 0.000000 0.000000 0.000000 5.571694 -1.036532 11.264377 -6.989943 1.472442 -41.087622 -0.996379 6.291689 30.544269 14.208549 -9.584460 -12.150644 0.000000 0.000000 0.000000 30.979455 6.602843 2.075465 22.519475 -24.093301 -4.553134 19.269675 16.277641 1.512854 0.000000 0.000000 0.000000 -21.712819 -13.181187 -4.093624 -18.244513 21.528908 -1.692983 -11.032181 -7.516648 0.870206 0.000000 0.000000 0.000000 
0.511106 0.973738 2.751583 -0.542766 4.030542 -4.332909 2.836453 0.108025 2.249708 -0.755551 -0.043564 3.922183 -3.484090 1.928951 17.821015 0.000000 0.000000 0.000000 3.377517 -0.117645 0.683758 -2.622893 0.608285 5.183494 0.899822 -3.512299 14.653750 0.000000 0.000000 0.000000 5.433162 -0.993354 11.091592 -6.321216 1.505409 -39.835729 -1.625266 6.121798 30.327846 14.899937 -11.125771 -9.579690 0.000000 0.000000 0.000000 31.684272 5.723363 2.031970 25.075692 -22.722872 -4.313232 16.149626 14.945167 1.105682 0.000000 0.000000 0.000000 -21.772881 -11.711060 -3.724611 -19.849730 22.169451 -1.920028 -11.552620 -7.380408 0.884236 0.000000 0.000000 0.000000 
0.515837 0.972356 2.765187 -0.771932 3.958868 -4.381200 2.464988 0.238608 4.118286 -0.714559 0.009909 2.108520 -2.186925 3.722337 17.516284 0.000000 0.000000 0.000000 2.948986 -0.199660 1.364075 -2.405373 0.586294 5.405878 1.602620 -2.204940 14.572857 0.000000 0.000000 0.000000 5.486697 -0.890602 9.993582 -6.482090 1.637921 -37.755687 -1.940842 5.366436 30.094626 15.570706 -11.816593 -9.627510 0.000000 0.000000 0.000000 31.912158 4.733198 1.931019 26.819552 -21.404921 -3.925896 13.464295 13.327287 0.773279 0.000000 0.000000 0.000000 -21.437559 -11.450057 -3.522486 -22.374994 22.467736 -2.182375 -10.832192 -6.775939 0.745149 0.000000 0.000000 0.000000 
0.520010 0.971597 2.774502 -0.985158 3.203583 -4.096750 1.885913 0.385154 5.790337 -0.333493 0.013251 0.667784 -0.850589 4.863146 15.359822 0.000000 0.000000 0.000000 2.761923 -0.254370 1.790972 -2.096609 0.505053 4.799620 1.830381 -1.999552 14.820235 0.000000 0.000000 0.000000 5.625842 -0.821034 9.138779 -6.175255 1.632708 -37.187655 -2.017997 5.912851 30.574769 15.014054 -11.384374 -9.355226 0.000000 0.000000 0.000000 31.900725 4.101698 1.958021 27.758255 -20.598942 -3.742626 12.375912 11.509436 0.579089 0.000000 0.000000 0.000000 -21.147171 -10.888580 -3.481796 -23.514598 22.235762 -2.136705 -11.399360 -5.646837 0.707121 0.000000 0.000000 0.000000 
0.523969 0.971168 2.779737 -0.898130 3.115276 -3.729255 0.925727 0.504113 6.586733 -0.185321 0.030956 -0.339214 0.707426 6.835112 14.102415 0.000000 0.000000 0.000000 2.145456 -0.277506 2.091309 -1.855250 0.434196 4.165787 2.222855 -1.280619 14.778656 0.000000 0.000000 0.000000 5.210791 -0.722865 8.366885 -5.911932 1.683131 -35.252709 -2.698758 5.369973 29.681851 14.971571 -10.834136 -10.830798 0.000000 0.000000 0.000000 31.044354 3.055278 1.912999 27.666716 -19.162618 -3.125444 13.383142 10.181778 0.581491 0.000000 0.000000 0.000000 -19.631599 -10.437449 -3.247911 -24.591911 22.176111 -2.312365 -11.601214 -4.455469 0.618296 0.000000 0.000000 0.000000 
0.527662 0.970722 2.781430 -0.968460 2.880170 -3.099702 0.715556 0.508379 6.433327 -0.180678 0.055937 -1.108806 0.902210 7.133981 14.218147 0.000000 0.000000 0.000000 1.724217 -0.242135 1.875174 -1.374272 0.343946 3.796737 2.265455 -1.013950 14.163202 0.000000 0.000000 0.000000 5.024223 -0.655183 7.659104 -6.221360 1.787621 -33.909296 -2.199702 5.007700 29.663389 13.763895 -9.619342 -11.545614 0.000000 0.000000 0.000000 30.185728 2.639524 1.752438 24.648743 -18.167669 -2.437813 16.654193 9.089432 0.681731 0.000000 0.000000 0.000000 -18.042943 -10.423246 -3.188957 -23.505148 21.197866 -2.086130 -13.548520 -3.134450 0.616671 0.000000 0.000000 0.000000 
0.531252 0.970583 2.781524 -0.830263 2.086924 -2.635997 0.116236 0.544533 6.285198 -0.487385 0.097803 -1.514378 2.091616 8.835811 14.146017 0.000000 0.000000 0.000000 1.237287 -0.190823 1.533816 -1.344420 0.333807 3.676793 2.671993 -0.182919 13.645025 0.000000 0.000000 0.000000 4.754542 -0.652218 7.794829 -5.826370 1.773974 -32.665596 -2.266243 5.716447 29.075336 12.534561 -9.227828 -9.016953 0.000000 0.000000 0.000000 27.217272 3.106806 1.631654 21.275699 -17.143330 -1.935303 19.773873 6.794632 0.517284 0.000000 0.000000 0.000000 -14.587135 -10.827409 -3.414822 -21.386216 20.196868 -1.773532 -15.015917 -0.440392 0.421521 0.000000 0.000000 0.000000 
0.534638 0.969759 2.780936 -0.797476 1.837401 -1.800351 -0.079370 0.516170 5.782482 -0.713422 0.135548 -2.118525 2.265528 8.980087 13.789917 0.000000 0.000000 0.000000 0.543523 -0.100913 0.863158 -1.088664 0.266151 3.029378 3.497024 1.186183 13.994660 0.000000 0.000000 0.000000 4.770921 -0.649318 7.609679 -6.000485 1.845755 -31.434855 -2.434650 5.370212 28.661744 11.508088 -8.434048 -8.734009 0.000000 0.000000 0.000000 23.040036 2.873526 1.286426 16.571232 -16.403273 -1.479482 23.222008 3.889189 0.144467 0.000000 0.000000 0.000000 -9.965351 -11.285365 -3.660530 -17.121712 20.321001 -1.798913 -16.696601 1.996208 0.183636 0.000000 0.000000 0.000000 
0.538268 0.967988 2.780288 -0.703977 2.009380 -0.605373 0.124285 0.431602 4.956628 -1.662480 0.235954 -3.088611 2.195468 8.842378 13.614305 0.000000 0.000000 0.000000 0.166023 0.020884 -0.232101 -1.373033 0.323395 3.411815 3.684041 2.417251 12.144704 0.000000 0.000000 0.000000 5.158465 -0.644738 7.016785 -6.001167 1.867665 -30.568391 -2.761983 6.317748 28.232490 10.754902 -8.065230 -6.992254 0.000000 0.000000 0.000000 16.870286 1.643768 1.256040 11.116243 -15.858478 -1.286793 26.230152 -0.862768 -0.870377 0.000000 0.000000 0.000000 -2.891446 -11.079568 -4.053111 -11.210937 18.737100 -1.354874 -19.017547 5.902500 -0.293322 0.000000 0.000000 0.000000 
0.541966 0.966104 2.780094 -0.699164 1.570722 0.295826 -0.272942 0.386313 4.166806 -1.625008 0.245515 -3.700120 2.769629 9.741650 13.915694 0.000000 0.000000 0.000000 -0.273191 0.094625 -0.899015 -0.869373 0.220456 2.707854 3.519215 2.129663 11.924326 0.000000 0.000000 0.000000 5.913564 -0.634316 6.186561 -5.946713 1.932837 -28.122646 -3.445653 6.854316 26.926085 11.223715 -7.814071 -8.960373 0.000000 0.000000 0.000000 9.136593 -0.378245 1.084939 4.552802 -14.941809 -1.069092 27.300471 -6.556415 -2.101393 0.000000 0.000000 0.000000 6.107023 -9.628860 -3.876612 -4.275797 18.624362 -1.379128 -21.137610 9.465320 -0.865640 0.000000 0.000000 0.000000 
0.545507 0.964357 2.781243 -0.444921 2.008511 1.365809 -0.734329 0.325105 3.258340 -1.555724 0.253450 -4.468796 2.583574 9.626155 14.446003 0.000000 0.000000 0.000000 -0.934652 0.252711 -2.498769 -0.601731 0.209042 3.289668 3.326433 1.686861 12.215822 0.000000 0.000000 0.000000 6.245542 -0.640782 5.808725 -5.973903 1.927698 -28.366677 -3.687175 7.250448 27.716586 11.099436 -7.054791 -11.089857 0.000000 0.000000 0.000000 -0.225129 -3.848042 1.226216 -6.108600 -14.349910 -1.112981 28.563805 -14.801472 -4.070234 0.000000 0.000000 0.000000 15.108310 -7.717990 -3.154671 7.484246 17.230727 -1.501850 -20.605561 14.316747 -1.430412 0.000000 0.000000 0.000000 
0.548299 0.962955 2.784616 -0.395209 1.920602 1.687847 -0.835210 0.259031 2.512109 -1.610289 0.241886 -3.654874 2.552441 9.588389 14.533081 0.000000 0.000000 0.000000 -1.441267 0.272254 -2.710795 0.478326 0.036873 2.619540 2.577800 -0.270732 13.375342 0.000000 0.000000 0.000000 6.644941 -0.581549 4.899806 -6.205955 2.076140 -25.555813 -3.238549 7.518207 26.324281 10.914779 -6.484228 -12.294435 0.000000 0.000000 0.000000 -10.430486 -7.754259 1.721241 -19.469858 -13.504737 -1.373687 21.372556 -19.061195 -3.370221 0.000000 0.000000 0.000000 24.331499 -5.482815 -2.053202 21.812129 16.099361 -1.917941 -17.888674 17.287729 -1.347197 0.000000 0.000000 0.000000 
0.550066 0.960144 2.790365 -0.045449 1.300954 1.869627 -1.071807 0.280274 2.616615 -1.741085 0.253072 -3.619511 2.306164 9.116995 14.452001 0.000000 0.000000 0.000000 -2.062545 0.291951 -2.931816 1.172318 -0.030322 3.418290 1.833809 -1.155826 11.758572 0.000000 0.000000 0.000000 6.385359 -0.574295 4.974531 -6.260373 2.142035 -23.801352 -2.640151 7.374738 25.566483 10.865061 -5.814951 -14.987415 0.000000 0.000000 0.000000 -17.924525 -9.834014 2.160499 -33.764583 -10.526201 -2.425864 10.608330 -19.359052 -1.232921 0.000000 0.000000 0.000000 30.406295 -3.027309 -0.743823 35.376978 16.162963 -2.029312 -11.025225 14.232813 -0.332918 0.000000 0.000000 0.000000 
0.551155 0.957206 2.797804 0.019310 1.973388 1.546972 -1.375015 0.368152 3.377674 -1.293447 0.215642 -3.507199 2.166809 8.715997 13.336339 0.000000 0.000000 0.000000 -1.817562 0.237458 -2.318625 1.566217 -0.077629 3.917631 0.034455 -4.182511 10.582126 0.000000 0.000000 0.000000 6.525671 -0.541312 4.604946 -6.712998 2.302703 -22.918827 -2.355673 6.912372 26.328380 11.525971 -5.954209 -16.672892 0.000000 0.000000 0.000000 -22.486961 -11.767046 2.924068 -44.410100 -6.596085 -4.363418 3.506742 -16.635254 0.068666 0.000000 0.000000 0.000000 33.945892 -1.876391 0.107959 45.778629 14.188154 -2.775501 -5.833179 10.225959 0.143969 0.000000 0.000000 0.000000 
0.551624 0.954138 2.805313 -0.073830 2.069253 1.747480 -1.399611 0.412032 3.797182 -1.085429 0.205388 -3.740550 2.310930 8.705127 12.354428 0.000000 0.000000 0.000000 -1.929117 0.195304 -1.803279 2.335187 -0.193226 3.718973 -0.650481 -5.101870 9.186089 0.000000 0.000000 0.000000 6.784204 -0.510773 4.113687 -7.147856 2.448640 -22.067957 -1.981665 6.545896 26.316643 11.771314 -5.994997 -17.406026 0.000000 0.000000 0.000000 -24.513957 -12.604510 3.388065 -49.617823 -3.767929 -5.905076 -0.655331 -12.871269 0.535442 0.000000 0.000000 0.000000 33.860397 -1.897122 -0.045776 53.225690 11.604426 -3.653692 -2.220124 7.485147 0.251980 0.000000 0.000000 0.000000 
0.551596 0.953423 2.811936 -0.141687 2.642551 2.043645 -0.884263 0.388008 3.838256 -1.680194 0.244448 -3.683080 2.043645 8.255969 12.037989 0.000000 0.000000 0.000000 -1.274189 0.205937 -1.967939 1.842407 -0.118987 4.092535 -1.532719 -6.833396 9.192587 0.000000 0.000000 0.000000 6.456725 -0.488666 3.982576 -6.719364 2.341675 -22.187394 -2.069183 5.479035 26.694515 11.594318 -5.961060 -17.577201 0.000000 0.000000 0.000000 -24.980988 -12.336314 3.477175 -50.314524 -1.711699 -6.908760 -1.096120 -11.324777 0.522283 0.000000 0.000000 0.000000 33.431559 -1.160028 0.212219 54.166721 8.819669 -4.804221 -3.143611 7.505324 0.223122 0.000000 0.000000 0.000000 
0.551154 0.954025 2.816931 -0.351363 2.253964 2.355717 -0.645151 0.359215 3.651735 -1.713711 0.242546 -3.370754 2.234856 8.565284 12.217443 0.000000 0.000000 0.000000 -1.093112 0.189461 -1.779928 2.079140 -0.161675 3.494086 -1.523959 -6.980293 9.645479 0.000000 0.000000 0.000000 6.648442 -0.430082 3.239024 -6.958355 2.394705 -22.085850 -1.813256 6.037838 27.137100 11.758768 -6.260928 -16.644784 0.000000 0.000000 0.000000 -23.851123 -12.820632 3.725743 -49.131793 -1.160592 -6.993465 -1.530193 -11.028940 0.540743 0.000000 0.000000 0.000000 32.517120 -1.562148 0.048891 53.492947 7.913572 -5.186188 -2.548474 8.889797 0.280666 0.000000 0.000000 0.000000 
0.550511 0.954634 2.820317 -0.597028 1.919937 2.494738 -0.259974 0.353524 3.802095 -1.907536 0.260227 -3.500452 2.354170 8.778604 12.462916 0.000000 0.000000 0.000000 -0.922563 0.166093 -1.533571 2.408718 -0.215324 2.884557 -1.514535 -7.166520 10.275049 0.000000 0.000000 0.000000 6.852217 -0.444832 3.265679 -6.845711 2.358520 -22.041736 -2.013276 6.115107 26.966687 12.333145 -6.673033 -16.724784 0.000000 0.000000 0.000000 -22.915165 -12.390131 3.553111 -47.630001 -1.124646 -6.802968 -0.982886 -12.165765 0.537110 0.000000 0.000000 0.000000 31.441647 -1.412109 0.105760 52.786428 7.969014 -5.059103 -2.911981 10.375747 0.303613 0.000000 0.000000 0.000000 
0.549815 0.954752 2.822155 -0.775622 2.099920 2.663824 0.142808 0.333661 3.835697 -2.133997 0.278908 -3.713721 2.245169 8.631419 12.493729 0.000000 0.000000 0.000000 -0.710251 0.131834 -1.192985 2.801574 -0.279646 2.145742 -1.926373 -8.006662 10.466711 0.000000 0.000000 0.000000 6.752809 -0.431358 3.133024 -6.959385 2.381988 -22.187364 -1.658562 6.226204 26.937553 12.505086 -6.729013 -16.866070 0.000000 0.000000 0.000000 -21.959576 -12.653199 3.671809 -46.738586 -1.509618 -6.541294 -0.450998 -14.170682 0.553893 0.000000 0.000000 0.000000 31.371376 -0.986832 0.513958 51.156220 8.346011 -4.881821 -2.930429 12.359903 0.357369 0.000000 0.000000 0.000000 
0.549248 0.955015 2.822700 -0.851352 2.085494 2.741950 0.413780 0.339630 4.084163 -2.395778 0.303833 -4.244958 2.178092 8.573129 12.695951 0.000000 0.000000 0.000000 -0.664258 0.083354 -0.689635 3.199601 -0.340735 1.154761 -2.184665 -8.558757 10.652272 0.000000 0.000000 0.000000 6.652766 -0.442145 3.269130 -7.135310 2.402230 -22.688741 -1.287592 6.164873 26.860130 12.538130 -6.711857 -17.047878 0.000000 0.000000 0.000000 -21.515801 -12.419086 3.577806 -45.647962 -2.753810 -5.948421 -1.079302 -15.516044 0.683864 0.000000 0.000000 0.000000 30.812443 -0.560388 0.770173 50.224083 9.171090 -4.471036 -1.883792 14.589777 0.520034 0.000000 0.000000 0.000000 
0.548798 0.955034 2.822285 -0.951260 2.031042 2.758723 0.715100 0.321712 4.075832 -2.698031 0.324716 -4.307262 2.190629 8.590666 12.715493 0.000000 0.000000 0.000000 -0.561243 0.055050 -0.415474 3.311203 -0.358693 0.601114 -2.185812 -8.578310 10.702822 0.000000 0.000000 0.000000 6.517590 -0.449202 3.401202 -6.853240 2.333255 -22.629320 -1.288466 6.315349 26.524769 12.718409 -6.734910 -17.348182 0.000000 0.000000 0.000000 -21.233129 -12.989300 3.861643 -45.417829 -3.701123 -5.552942 -1.139066 -17.092069 0.755582 0.000000 0.000000 0.000000 30.636765 0.338244 1.433361 49.818645 10.510555 -3.907691 -0.852989 16.446856 0.710154 0.000000 0.000000 0.000000 
0.548439 0.955344 2.821204 -0.979407 1.788123 2.928982 0.732933 0.301733 3.830269 -2.708482 0.326785 -4.302048 2.302243 8.774737 12.858682 0.000000 0.000000 0.000000 -0.583984 0.040860 -0.259055 3.296952 -0.360575 0.003222 -1.855017 -7.936394 10.602753 0.000000 0.000000 0.000000 6.387216 -0.435422 3.294633 -6.842806 2.318168 -22.766310 -1.007418 6.881831 26.465069 12.774005 -6.554419 -17.971122 0.000000 0.000000 0.000000 -20.733232 -13.496823 4.038236 -45.629525 -4.837983 -5.158959 -1.356218 -18.990544 0.863824 0.000000 0.000000 0.000000 31.067758 0.677601 1.839390 49.177282 11.791162 -3.451939 0.728418 18.033463 1.003947 0.000000 0.000000 0.000000 
0.548152 0.955310 2.819919 -1.137870 1.557488 3.079617 0.745342 0.279424 3.558128 -2.470682 0.311230 -4.235469 2.472632 9.005260 12.813613 0.000000 0.000000 0.000000 -0.368216 0.034268 -0.241794 3.274060 -0.360839 -0.454319 -1.795202 -7.846262 10.597867 0.000000 0.000000 0.000000 6.382182 -0.444281 3.361812 -6.592872 2.249072 -22.785740 -0.929833 7.300959 26.104046 12.859717 -6.382589 -18.617704 0.000000 0.000000 0.000000 -20.647996 -13.667364 4.037148 -45.977589 -5.408549 -4.936188 -1.984338 -20.772861 1.046786 0.000000 0.000000 0.000000 31.025656 1.201559 2.287685 49.330613 12.745206 -3.046297 1.378245 19.387635 1.194351 0.000000 0.000000 0.000000 
0.547898 0.955554 2.818669 -1.184724 1.364146 3.121480 0.812719 0.261618 3.373842 -2.527098 0.314816 -4.112608 2.569958 9.155183 12.890081 0.000000 0.000000 0.000000 -0.321492 0.034749 -0.257939 3.245220 -0.360594 -0.860435 -1.679721 -7.768030 11.084304 0.000000 0.000000 0.000000 6.263096 -0.447105 3.448326 -6.442447 2.207839 -22.776351 -0.821566 7.427658 25.865353 12.726847 -6.102318 -19.326346 0.000000 0.000000 0.000000 -20.462470 -13.974830 4.204443 -46.542613 -6.060557 -4.746275 -2.477167 -22.049025 1.205465 0.000000 0.000000 0.000000 31.173553 1.609500 2.570425 49.308669 13.333158 -2.792598 1.623265 20.355235 1.307412 0.000000 0.000000 0.000000 
0.547685 0.955456 2.817741 -1.272071 1.618899 3.350367 0.922912 0.234840 3.133479 -2.473567 0.311397 -4.281753 2.464505 9.002460 12.830870 0.000000 0.000000 0.000000 -0.067222 0.025078 -0.223135 2.874012 -0.332104 -1.407139 -1.538538 -7.491646 11.198799 0.000000 0.000000 0.000000 6.146651 -0.454945 3.535197 -6.311152 2.161928 -23.200915 -0.627227 7.168044 25.873658 12.595946 -5.917541 -19.760223 0.000000 0.000000 0.000000 -20.397054 -14.068416 4.287170 -47.246899 -6.459869 -4.681014 -2.669068 -22.778286 1.291590 0.000000 0.000000 0.000000 30.872303 1.727999 2.601895 49.711670 13.401403 -2.726957 1.853574 21.355436 1.435298 0.000000 0.000000 0.000000 
0.547534 0.955754 2.817098 -1.312798 1.637395 3.352221 0.948728 0.229385 3.083320 -2.420041 0.307674 -4.280677 2.447524 8.996017 12.905121 0.000000 0.000000 0.000000 -0.029966 0.019378 -0.176048 2.814907 -0.332090 -1.786193 -1.428091 -7.432973 11.806673 0.000000 0.000000 0.000000 6.170095 -0.453784 3.510029 -6.261271 2.148061 -23.255823 -0.544295 7.344535 25.852945 12.473008 -5.760750 -19.926834 0.000000 0.000000 0.000000 -20.411786 -14.220169 4.309829 -47.473814 -6.730853 -4.582837 -2.954913 -23.316581 1.374444 0.000000 0.000000 0.000000 31.011134 1.583215 2.588116 49.805452 13.256618 -2.810984 1.885981 22.468503 1.554505 0.000000 0.000000 0.000000 
0.547509 0.955896 2.816693 -1.341807 1.641119 3.305652 1.001436 0.221678 3.019426 -2.453308 0.308131 -4.128820 2.451082 9.002507 12.905261 0.000000 0.000000 0.000000 0.093622 0.013716 -0.151837 2.498792 -0.306325 -1.996674 -1.251176 -7.227772 12.317401 0.000000 0.000000 0.000000 6.124578 -0.458621 3.594209 -6.236031 2.135935 -23.433922 -0.395077 7.193919 26.004853 12.416319 -5.695191 -20.146012 0.000000 0.000000 0.000000 -20.411707 -14.370177 4.440371 -47.944068 -6.761550 -4.638807 -2.898211 -23.527359 1.385731 0.000000 0.000000 0.000000 30.827811 1.395154 2.406535 50.189251 12.936098 -2.931248 1.934600 23.396257 1.663850 0.000000 0.000000 0.000000 
0.547563 0.956054 2.816556 -1.421276 1.259279 3.140265 0.961625 0.235890 3.146649 -2.333056 0.300465 -3.991494 2.649681 9.285646 12.955212 0.000000 0.000000 0.000000 0.101680 0.021978 -0.237453 2.379136 -0.291771 -1.905709 -0.889153 -6.769208 12.952549 0.000000 0.000000 0.000000 6.240706 -0.458613 3.573484 -6.281343 2.148044 -23.229044 -0.374117 7.284440 25.866724 12.350739 -5.647615 -20.228048 0.000000 0.000000 0.000000 -20.428717 -14.427180 4.518180 -48.243403 -6.343983 -4.830828 -3.573793 -23.399892 1.522967 0.000000 0.000000 0.000000 30.796845 1.490386 2.393518 50.410370 12.401693 -3.109702 2.180399 24.417101 1.808055 0.000000 0.000000 0.000000 
0.547647 0.956317 2.816745 -1.472606 0.839062 3.181410 0.762943 0.257308 3.267356 -2.005153 0.282351 -4.199082 2.850936 9.592843 13.129904 0.000000 0.000000 0.000000 0.144314 0.029028 -0.320644 2.248284 -0.281577 -2.092492 -0.619277 -6.475780 13.475960 0.000000 0.000000 0.000000 6.201067 -0.434532 3.348363 -6.107356 2.097981 -23.199856 -0.289766 7.176789 25.869838 11.931856 -5.390272 -20.316590 0.000000 0.000000 0.000000 -20.431803 -14.346176 4.589046 -48.797492 -6.034934 -5.031794 -3.610276 -23.175848 1.532490 0.000000 0.000000 0.000000 30.741570 1.585100 2.300586 50.815805 11.891920 -3.266093 2.071407 25.149016 1.856387 0.000000 0.000000 0.000000 
0.547604 0.956362 2.817164 -1.511728 0.383492 3.034860 0.654167 0.298994 3.670806 -1.847940 0.278834 -4.503411 3.050077 9.886160 13.274313 0.000000 0.000000 0.000000 0.138974 0.026931 -0.302581 2.207028 -0.274860 -2.046557 -0.373978 -6.190606 13.816280 0.000000 0.000000 0.000000 6.195600 -0.434651 3.391309 -5.838374 2.022005 -23.273490 -0.426158 7.213167 25.820414 11.785524 -5.432616 -19.846851 0.000000 0.000000 0.000000 -20.517150 -14.202778 4.591371 -49.003347 -5.505956 -5.281230 -4.055619 -22.921954 1.615010 0.000000 0.000000 0.000000 30.733725 1.694176 2.258558 50.950454 11.411760 -3.429049 2.196169 25.670408 1.925849 0.000000 0.000000 0.000000 
0.547423 0.956366 2.817533 -1.383798 0.376797 3.112879 0.571919 0.314424 3.799780 -1.928324 0.289961 -4.837885 3.002821 9.838209 13.402970 0.000000 0.000000 0.000000 0.115169 0.016537 -0.194622 2.034958 -0.265272 -2.308784 -0.386010 -6.190936 13.737370 0.000000 0.000000 0.000000 5.953516 -0.411595 3.256334 -5.612930 1.975974 -22.952193 -0.740450 6.960708 25.466011 11.485509 -5.277433 -19.712666 0.000000 0.000000 0.000000 -20.472826 -13.594565 4.315211 -49.317748 -5.027495 -5.488179 -4.627888 -23.205861 1.757945 0.000000 0.000000 0.000000 31.138763 1.469453 1.999120 51.151978 10.828226 -3.623144 2.397569 26.532782 2.058532 0.000000 0.000000 0.000000 
0.547045 0.956127 2.817559 -1.326202 0.674166 3.173243 0.715421 0.288905 3.605029 -2.171271 0.301514 -4.652233 2.868120 9.631904 13.267631 0.000000 0.000000 0.000000 -0.127333 0.013097 -0.092013 2.283500 -0.291503 -2.489792 -0.250931 -5.869879 13.651525 0.000000 0.000000 0.000000 5.789382 -0.384628 3.030316 -5.680264 1.996330 -23.011238 -0.841174 6.604999 25.632043 11.433189 -5.291376 -19.683545 0.000000 0.000000 0.000000 -20.948486 -13.715087 4.430459 -48.632180 -4.700882 -5.547907 -4.426303 -23.185944 1.718781 0.000000 0.000000 0.000000 31.427325 1.605112 2.035620 51.412017 10.543718 -3.752995 2.231975 26.412331 2.006266 0.000000 0.000000 0.000000 
0.546696 0.956252 2.816993 -1.258198 0.919705 2.729785 0.925062 0.297339 3.848352 -2.552754 0.321717 -4.322679 2.720807 9.414912 13.198344 0.000000 0.000000 0.000000 -0.201878 0.006343 -0.004998 2.228180 -0.281718 -2.150483 -0.235659 -5.994953 14.300612 0.000000 0.000000 0.000000 5.570547 -0.407001 3.468856 -5.434639 1.950654 -22.827091 -0.874465 6.092838 25.601036 11.164179 -5.264553 -19.243568 0.000000 0.000000 0.000000 -21.739852 -12.963642 4.094837 -48.384231 -4.489935 -5.606374 -5.021164 -23.633750 1.889774 0.000000 0.000000 0.000000 31.440241 1.739059 1.980910 51.127696 10.175699 -3.860760 2.704895 27.732287 2.230289 0.000000 0.000000 0.000000 
0.546349 0.956751 2.815961 -1.543648 0.442166 2.810436 0.897511 0.253691 3.275654 -2.050886 0.277178 -3.529996 3.068521 9.905044 13.187781 0.000000 0.000000 0.000000 -0.032913 0.035801 -0.345331 2.867175 -0.334244 -2.089535 -0.634821 -6.927282 14.783176 0.000000 0.000000 0.000000 5.736044 -0.414959 3.452990 -5.530717 1.982018 -22.119759 -0.973740 6.770189 24.758323 11.535667 -5.418639 -19.240582 0.000000 0.000000 0.000000 -20.958076 -12.778823 3.858087 -49.308106 -4.380153 -5.668783 -5.187782 -24.362011 1.967104 0.000000 0.000000 0.000000 31.383521 1.845572 2.173100 51.882282 11.152062 -3.404141 1.303878 26.099894 1.775709 0.000000 0.000000 0.000000 
0.546041 0.957382 2.814757 -1.274824 1.072082 2.312920 0.929694 0.265984 3.468333 -2.407415 0.296918 -3.152627 2.678923 9.385451 13.259775 0.000000 0.000000 0.000000 -0.253919 -0.033204 0.405558 2.982992 -0.353039 -2.376111 -1.007878 -7.481615 14.715637 0.000000 0.000000 0.000000 5.701401 -0.449576 3.941941 -5.834232 2.081746 -22.072343 -0.777080 6.223216 24.962079 11.438778 -5.469541 -18.921499 0.000000 0.000000 0.000000 -21.498394 -12.939224 3.977305 -48.605159 -4.940493 -5.379252 -5.851884 -23.187540 2.005369 0.000000 0.000000 0.000000 31.200662 1.976200 2.230543 51.853300 12.099841 -3.027701 1.246821 25.555167 1.714040 0.000000 0.000000 0.000000 
