HIERARCHY
ROOT Hips
{
	OFFSET -0.001795 -0.223333 0.028219
	CHANNELS 6 Xposition Yposition Zposition Zrotation Yrotation Xrotation 
	JOINT LeftUpLeg
	{
		OFFSET 0.069520 -0.091406 -0.006815
		CHANNELS 3 Zrotation Yrotation Xrotation
		JOINT LeftLeg
		{
			OFFSET 0.034277 -0.375199 -0.004496
			CHANNELS 3 Zrotation Yrotation Xrotation
			JOINT LeftFoot
			{
				OFFSET -0.013596 -0.397961 -0.043693
				CHANNELS 3 Zrotation Yrotation Xrotation
				JOINT LeftToe
				{
					OFFSET 0.026358 -0.055791 0.119288
					CHANNELS 3 Zrotation Yrotation Xrotation
					End Site
					{
						OFFSET 0.000000 0.000000 0.000000
					}
				}
			}
		}
	}
	JOINT RightUpLeg
	{
		OFFSET -0.067670 -0.090522 -0.004320
		CHANNELS 3 Zrotation Yrotation Xrotation
		JOINT RightLeg
		{
			OFFSET -0.038290 -0.382569 -0.008850
			CHANNELS 3 Zrotation Yrotation Xrotation
			JOINT RightFoot
			{
				OFFSET 0.015774 -0.398415 -0.042312
				CHANNELS 3 Zrotation Yrotation Xrotation
				JOINT RightToe
				{
					OFFSET -0.025372 -0.048144 0.123348
					CHANNELS 3 Zrotation Yrotation Xrotation
					End Site
					{
						OFFSET 0.000000 0.000000 0.000000
					}
				}
			}
		}
	}
	JOINT Spine
	{
		OFFSET -0.002533 0.108963 -0.026696
		CHANNELS 3 Zrotation Yrotation Xrotation
		JOINT Spine1
		{
			OFFSET 0.005487 0.135180 0.001092
			CHANNELS 3 Zrotation Yrotation Xrotation
			JOINT Spine2
			{
				OFFSET 0.001457 0.052922 0.025425
				CHANNELS 3 Zrotation Yrotation Xrotation
				JOINT Neck
				{
					OFFSET -0.002778 0.213870 -0.042857
					CHANNELS 3 Zrotation Yrotation Xrotation
					JOINT Head
					{
						OFFSET 0.005152 0.064970 0.051349
						CHANNELS 3 Zrotation Yrotation Xrotation
						End Site
						{
							OFFSET 0.000000 0.000000 0.000000
						}
					}
				}
				JOINT LeftShoulder
				{
					OFFSET 0.078845 0.121749 -0.034090
					CHANNELS 3 Zrotation Yrotation Xrotation
					JOINT LeftArm
					{
						OFFSET 0.090977 0.030469 -0.008868
						CHANNELS 3 Zrotation Yrotation Xrotation
						JOINT LeftForeArm
						{
							OFFSET 0.259612 -0.012772 -0.027456
							CHANNELS 3 Zrotation Yrotation Xrotation
							JOINT LeftHand
							{
								OFFSET 0.249234 0.008986 -0.001171
								CHANNELS 3 Zrotation Yrotation Xrotation
								End Site
								{
									OFFSET 0.000000 0.000000 0.000000
								}
							}
						}
					}
				}
				JOINT RightShoulder
				{
					OFFSET -0.081759 0.118833 -0.038615
					CHANNELS 3 Zrotation Yrotation Xrotation
					JOINT RightArm
					{
						OFFSET -0.096012 0.032551 -0.009143
						CHANNELS 3 Zrotation Yrotation Xrotation
						JOINT RightForeArm
						{
							OFFSET -0.253742 -0.013329 -0.021401
							CHANNELS 3 Zrotation Yrotation Xrotation
							JOINT RightHand
							{
								OFFSET -0.255298 0.007772 -0.005559
								CHANNELS 3 Zrotation Yrotation Xrotation
								End Site
								{
									OFFSET 0.000000 0.000000 0.000000
								}
							}
						}
					}
				}
			}
		}
	}
}
MOTION
Frames: 96
Frame Time: 0.050000
0.000000 0.965127 0.000000 -1.015005 -0.588984 3.787874 1.652309 -0.093240 -0.777255 -2.074384 0.272465 -2.894914 4.517145 11.983847 12.802657 0.000000 0.000000 0.000000 -1.300923 0.547291 -5.680300 1.703735 -0.129987 1.842223 -1.385586 -6.776775 8.824339 0.000000 0.000000 0.000000 7.365232 -0.716619 5.358054 -5.011907 1.872953 -20.004880 -2.292535 4.996367 26.744479 10.984994 -4.215140 -25.125925 0.000000 0.000000 0.000000 -16.615436 -15.889092 6.220517 -51.650818 -11.200850 -3.429615 -8.745475 -23.943484 2.776747 0.000000 0.000000 0.000000 25.849437 1.662026 1.076056 53.928512 15.701068 -1.008924 4.035769 25.870431 2.274441 0.000000 0.000000 0.000000 
-0.000287 0.964143 0.000248 -1.270039 -0.372649 4.513744 2.152075 -0.136630 -1.226323 -1.927046 0.267700 -3.415330 4.675839 12.187669 12.406916 0.000000 0.000000 0.000000 -0.956868 0.631898 -6.518987 1.572293 -0.101149 2.364989 -1.773782 -7.386392 8.280810 0.000000 0.000000 0.000000 7.857039 -0.635515 4.131502 -5.224489 1.939392 -19.617586 -2.690632 4.580522 26.984872 11.233197 -4.511610 -24.653086 0.000000 0.000000 0.000000 -15.810779 -16.265560 6.458108 -52.170173 -11.879234 -3.210816 -7.805067 -23.999703 2.597157 0.000000 0.000000 0.000000 25.493527 2.176768 1.283944 55.501703 15.384778 -1.034256 3.402064 27.482259 2.316267 0.000000 0.000000 0.000000 
-0.000542 0.964209 0.000369 -1.069731 0.166148 4.660084 2.607032 -0.204022 -2.096809 -2.934514 0.329534 -1.713674 4.742418 12.228932 11.707663 0.000000 0.000000 0.000000 -0.889366 0.660254 -6.817220 1.605718 -0.087614 3.169887 -2.354587 -8.360838 7.656231 0.000000 0.000000 0.000000 7.618016 -0.618523 4.047346 -4.783754 1.824922 -19.746378 -2.876102 4.204895 27.464500 10.359314 -4.142562 -23.921618 0.000000 0.000000 0.000000 -16.433349 -16.434887 6.610847 -51.712714 -12.711348 -2.886047 -7.565485 -24.031419 2.559965 0.000000 0.000000 0.000000 25.321943 2.010330 1.203541 54.941537 15.247257 -1.194676 3.775892 28.454603 2.524439 0.000000 0.000000 0.000000 
-0.000762 0.965199 0.001001 -1.089341 0.389320 4.936468 2.492703 -0.209390 -2.149332 -3.056948 0.339982 -1.812200 5.106212 12.827836 11.722701 0.000000 0.000000 0.000000 -0.951382 0.686116 -7.115931 1.981394 -0.139778 3.115633 -2.541674 -8.784250 7.872769 0.000000 0.000000 0.000000 7.910114 -0.604316 3.692477 -5.143975 1.916429 -20.170778 -2.922756 4.199543 28.063691 10.216754 -3.913129 -24.677250 0.000000 0.000000 0.000000 -16.123845 -17.167431 6.949065 -51.688438 -12.787215 -2.891455 -8.295930 -25.434559 2.880339 0.000000 0.000000 0.000000 25.457630 1.630636 1.016888 54.435947 14.916293 -1.432734 4.475787 29.327130 2.808753 0.000000 0.000000 0.000000 
-0.001107 0.965849 0.002126 -0.925706 0.843993 4.878292 2.688344 -0.215737 -2.206561 -3.701595 0.394021 -1.320471 4.939351 12.601846 11.726377 0.000000 0.000000 0.000000 -1.108363 0.680402 -7.117618 2.140688 -0.153834 3.646924 -2.762826 -9.167781 7.737950 0.000000 0.000000 0.000000 7.486533 -0.587625 3.757238 -4.585861 1.776206 -20.055170 -3.307765 3.575084 27.795314 9.812782 -3.732903 -24.506871 0.000000 0.000000 0.000000 -16.974475 -16.837973 6.905686 -51.375160 -12.940977 -2.788516 -8.312243 -26.879257 3.079928 0.000000 0.000000 0.000000 25.421554 1.619068 0.881129 54.038125 14.176198 -1.719134 5.430889 30.143750 3.119554 0.000000 0.000000 0.000000 
-0.001797 0.966639 0.004236 -0.838787 1.190425 4.816872 2.650954 -0.213520 -2.163796 -3.666252 0.387842 -1.198259 5.060590 12.833332 11.785961 0.000000 0.000000 0.000000 -1.317246 0.643546 -6.780952 2.399230 -0.192205 3.673474 -2.878287 -9.363234 7.684493 0.000000 0.000000 0.000000 7.394610 -0.603755 3.959685 -4.731085 1.817830 -20.355417 -3.202215 3.286317 27.810602 9.643488 -3.516063 -25.250829 0.000000 0.000000 0.000000 -17.532940 -16.942675 7.012146 -51.041793 -12.868334 -2.798501 -8.908846 -28.244302 3.403863 0.000000 0.000000 0.000000 25.220750 1.459754 0.755170 54.172919 13.562875 -1.976081 5.738875 30.445725 3.235241 0.000000 0.000000 0.000000 
-0.003082 0.966910 0.007226 -0.771704 1.586729 4.810206 2.578417 -0.191873 -1.834571 -3.657774 0.384487 -1.671190 5.169066 13.143211 12.480602 0.000000 0.000000 0.000000 -1.252661 0.602451 -6.305090 2.624617 -0.228935 3.556278 -3.258897 -10.165154 7.923974 0.000000 0.000000 0.000000 7.379066 -0.593109 3.854893 -4.806853 1.848518 -20.225762 -3.439412 2.987367 27.709057 9.721034 -3.556385 -25.318550 0.000000 0.000000 0.000000 -17.690950 -16.454971 6.772033 -50.938284 -12.716617 -2.853008 -8.866850 -29.144141 3.516694 0.000000 0.000000 0.000000 25.140951 0.897419 0.383660 54.613204 12.913361 -2.241818 6.079776 30.739994 3.376919 0.000000 0.000000 0.000000 
-0.005163 0.966797 0.010956 -0.714348 1.818119 4.862820 2.433474 -0.173875 -1.582555 -3.520126 0.371696 -2.088162 5.339794 13.399994 12.302189 0.000000 0.000000 0.000000 -1.102610 0.578981 -6.005164 2.742240 -0.247884 3.523847 -3.426976 -10.490863 7.922337 0.000000 0.000000 0.000000 7.213014 -0.592902 3.927776 -4.769351 1.831299 -20.739257 -3.537763 3.059151 28.040271 9.991430 -3.680639 -25.417148 0.000000 0.000000 0.000000 -17.741265 -16.400249 6.699894 -50.766105 -12.616341 -2.915418 -9.234497 -29.407911 3.640087 0.000000 0.000000 0.000000 25.226029 0.202667 0.028754 54.866596 12.397548 -2.524102 6.053769 30.042180 3.301681 0.000000 0.000000 0.000000 
-0.007989 0.966654 0.015096 -0.615753 1.964978 5.164472 2.456305 -0.154036 -1.258434 -3.481218 0.369623 -2.954248 5.626471 13.941894 12.931828 0.000000 0.000000 0.000000 -1.019134 0.561739 -5.789005 2.824169 -0.264302 3.210749 -3.273162 -10.198406 8.101027 0.000000 0.000000 0.000000 7.010375 -0.566055 3.719135 -4.871772 1.855857 -20.893793 -3.579527 2.867745 27.963396 10.017824 -3.619579 -25.917347 0.000000 0.000000 0.000000 -17.698410 -15.746176 6.378035 -50.618321 -12.207481 -3.078394 -8.936344 -29.146677 3.529509 0.000000 0.000000 0.000000 25.222377 -0.247241 -0.297202 55.206977 11.518099 -2.896715 5.628743 29.062525 3.059858 0.000000 0.000000 0.000000 
-0.011423 0.966203 0.019679 -0.488873 2.113031 5.529672 2.430747 -0.153299 -1.218113 -3.454062 0.367103 -3.385450 5.823255 14.246639 12.899687 0.000000 0.000000 0.000000 -0.785094 0.545639 -5.560416 2.693810 -0.251191 2.929836 -3.187056 -9.977555 7.938190 0.000000 0.000000 0.000000 6.838320 -0.556979 3.651391 -5.085699 1.889972 -21.767575 -3.636180 2.937431 28.406078 10.365858 -3.617561 -27.023872 0.000000 0.000000 0.000000 -17.684702 -15.203511 6.071913 -50.279953 -11.608073 -3.353247 -8.792747 -28.526504 3.405522 0.000000 0.000000 0.000000 25.355410 -0.791489 -0.577056 55.580454 10.730049 -3.313459 5.325089 28.166972 2.893906 0.000000 0.000000 0.000000 
-0.015208 0.965791 0.024967 -0.490660 2.071082 5.731842 2.337463 -0.139293 -1.030119 -3.123210 0.345563 -3.749362 5.964212 14.477622 13.052657 0.000000 0.000000 0.000000 -0.561755 0.543581 -5.495637 2.530131 -0.229783 2.844285 -2.923296 -9.350163 7.536563 0.000000 0.000000 0.000000 6.752102 -0.538975 3.484367 -5.145445 1.905025 -21.694895 -3.747752 3.012930 28.310598 10.485732 -3.625705 -27.289151 0.000000 0.000000 0.000000 -17.806665 -14.818887 5.859682 -49.965256 -10.699989 -3.690545 -8.242270 -27.157702 3.085991 0.000000 0.000000 0.000000 25.314381 -1.352010 -0.919395 55.920267 9.834727 -3.713571 5.056247 27.048144 2.695950 0.000000 0.000000 0.000000 
-0.019380 0.964859 0.031079 -0.552798 1.599594 6.015442 2.410688 -0.153926 -1.218733 -2.813727 0.322883 -3.290733 6.477025 15.160963 12.571665 0.000000 0.000000 0.000000 -0.079211 0.536309 -5.348902 2.249620 -0.190219 2.737151 -2.773932 -8.824978 6.462112 0.000000 0.000000 0.000000 6.819344 -0.521923 3.232659 -5.174046 1.896583 -21.933308 -3.686033 3.565915 28.529439 10.418858 -3.547611 -27.275883 0.000000 0.000000 0.000000 -17.404347 -14.339093 5.544151 -50.272451 -10.007600 -4.006279 -7.764321 -26.426197 2.878106 0.000000 0.000000 0.000000 25.067945 -2.125727 -1.312081 56.484606 8.794659 -4.223697 4.744906 27.073682 2.662677 0.000000 0.000000 0.000000 
-0.023873 0.963877 0.038087 -0.461074 1.490452 5.926762 2.334297 -0.132764 -0.948878 -2.469980 0.295653 -3.108134 6.459396 15.098618 12.348007 0.000000 0.000000 0.000000 0.347936 0.479029 -4.740259 1.869272 -0.141758 2.635042 -2.718036 -8.513652 5.654496 0.000000 0.000000 0.000000 6.919911 -0.505421 3.041108 -5.150868 1.902750 -21.430187 -3.840330 3.723480 28.347196 10.343414 -3.430996 -27.570652 0.000000 0.000000 0.000000 -17.277939 -13.861802 5.264418 -50.372852 -9.225574 -4.317971 -6.714501 -25.524576 2.532461 0.000000 0.000000 0.000000 24.798767 -2.401576 -1.448948 56.927332 7.567916 -4.781444 4.163057 27.184725 2.556491 0.000000 0.000000 0.000000 
-0.028683 0.962443 0.045502 -0.495476 0.723007 6.233409 2.729034 -0.166286 -1.342755 -2.739822 0.311846 -2.192061 7.371024 16.404556 11.896989 0.000000 0.000000 0.000000 0.766455 0.456269 -4.527344 1.639714 -0.101616 2.863330 -2.607972 -7.994884 4.459242 0.000000 0.000000 0.000000 6.902931 -0.462918 2.588967 -5.137536 1.879333 -21.598403 -3.590146 4.595399 28.478468 10.310642 -3.344500 -27.585795 0.000000 0.000000 0.000000 -17.091024 -13.442182 4.958776 -51.074164 -8.834964 -4.534019 -6.227347 -24.944198 2.358392 0.000000 0.000000 0.000000 25.190931 -3.132555 -1.808590 56.894791 7.055843 -5.063899 3.436162 27.345607 2.448127 0.000000 0.000000 0.000000 
-0.033651 0.960488 0.053089 -0.440784 -0.015372 6.549656 3.237573 -0.197182 -1.719319 -3.274709 0.358173 -1.240045 7.805809 16.964253 10.868757 0.000000 0.000000 0.000000 1.230121 0.443153 -4.434012 1.157560 -0.029773 3.047438 -2.474468 -7.378011 3.291062 0.000000 0.000000 0.000000 7.088097 -0.425259 2.083105 -5.119921 1.865007 -21.359693 -3.660171 5.156478 28.404403 10.206943 -3.252098 -27.623336 0.000000 0.000000 0.000000 -16.816788 -13.087755 4.756995 -51.092300 -8.381538 -4.717570 -5.850498 -25.424298 2.322006 0.000000 0.000000 0.000000 24.753364 -3.243784 -1.824964 58.116788 7.157869 -5.038615 2.006234 27.448440 2.171723 0.000000 0.000000 0.000000 
-0.038265 0.957848 0.060594 -0.621747 -1.048714 6.518282 4.019733 -0.278628 -3.136573 -4.338185 0.496966 3.568735 8.312868 17.590159 7.815242 0.000000 0.000000 0.000000 1.701774 0.381880 -3.943448 0.798217 0.039811 3.602604 -2.514226 -6.721165 0.994065 0.000000 0.000000 0.000000 7.390068 -0.472986 2.438682 -5.179213 1.850535 -21.770115 -3.548871 5.859379 28.469319 10.144008 -3.218390 -27.561581 0.000000 0.000000 0.000000 -16.534515 -12.834972 4.623886 -50.643803 -8.761060 -4.541692 -5.747874 -26.541746 2.402178 0.000000 0.000000 0.000000 24.716234 -3.664534 -2.079432 58.259065 6.964643 -5.150982 1.351903 28.605184 2.162771 0.000000 0.000000 0.000000 
-0.041783 0.955187 0.068791 -0.899261 -1.437212 6.440672 4.940387 -0.411152 -6.110628 -5.560790 0.811063 10.518347 8.824631 18.403551 5.903937 0.000000 0.000000 0.000000 2.059450 0.323766 -3.484532 0.899234 0.062320 4.616812 -2.589783 -6.102508 -1.133395 0.000000 0.000000 0.000000 7.893863 -0.552562 2.961304 -5.272540 1.865753 -21.900471 -3.413227 6.176999 28.384772 10.055159 -3.148076 -27.603045 0.000000 0.000000 0.000000 -15.018361 -13.483213 4.924515 -50.616102 -10.220527 -3.982188 -5.395411 -28.241674 2.478211 0.000000 0.000000 0.000000 24.198636 -3.926781 -2.196346 57.303234 9.159469 -4.076312 -1.318642 29.274274 1.611686 0.000000 0.000000 0.000000 
-0.043848 0.951903 0.078403 -0.785499 -1.945441 6.417119 5.640279 -0.575262 -11.055376 -7.442539 1.608354 19.688626 9.524370 19.629064 5.013018 0.000000 0.000000 0.000000 2.042426 0.244239 -2.833695 0.326945 0.183652 5.582443 -2.537806 -4.946268 -3.465917 0.000000 0.000000 0.000000 7.657865 -0.547911 3.053198 -4.544273 1.680612 -21.159422 -4.168968 6.442223 27.612898 9.597253 -3.145521 -25.868226 0.000000 0.000000 0.000000 -13.926599 -13.784547 5.033815 -48.056827 -11.431268 -3.301203 -2.556875 -31.090168 1.921154 0.000000 0.000000 0.000000 23.956986 -2.724325 -1.461867 53.319882 12.143303 -2.672716 -5.615453 30.669150 0.593745 0.000000 0.000000 0.000000 
-0.044431 0.949263 0.090135 -1.021039 -3.803248 6.797323 6.919105 -0.548512 -16.167034 -10.285417 3.398514 28.842495 10.939098 21.963491 6.926915 0.000000 0.000000 0.000000 1.788951 0.285246 -3.253949 -0.046109 0.346847 7.677878 -1.977555 -2.397975 -5.049270 0.000000 0.000000 0.000000 7.562395 -0.575241 3.324244 -4.655713 1.657588 -22.034605 -3.374347 8.160797 27.757414 9.035518 -2.824051 -25.218822 0.000000 0.000000 0.000000 -11.420558 -13.687885 4.871488 -44.085859 -14.024123 -2.279178 3.126984 -33.780801 0.306831 0.000000 0.000000 0.000000 22.830976 -2.946166 -1.395162 46.455272 15.551532 -1.514605 -11.056915 32.688268 -0.805225 0.000000 0.000000 0.000000 
-0.043681 0.946820 0.105494 -0.661834 -3.112338 6.157546 7.727282 -0.531845 -22.086144 -12.466217 5.130962 37.449910 10.235018 20.738289 7.972344 0.000000 0.000000 0.000000 1.231190 0.179789 -2.166119 0.054822 0.403263 9.391486 -2.139109 -2.620458 -5.615872 0.000000 0.000000 0.000000 6.801445 -0.621107 4.325705 -4.408068 1.605681 -22.518021 -3.677903 7.877969 27.612625 8.208597 -2.264351 -25.466392 0.000000 0.000000 0.000000 -10.215127 -13.848591 4.885905 -35.105732 -16.587087 -1.342623 11.902548 -36.753394 -2.765163 0.000000 0.000000 0.000000 20.387846 -2.472910 -0.981904 38.664213 19.606216 -0.473974 -19.437893 32.747667 -3.084912 0.000000 0.000000 0.000000 
-0.041798 0.945238 0.124935 -0.319283 -4.318693 5.290375 9.181161 -0.135004 -26.782637 -14.939175 6.593439 37.764005 10.774263 21.487646 8.824800 0.000000 0.000000 0.000000 0.617103 -0.104772 0.728330 -0.746852 0.524172 8.763610 -1.135456 0.166205 -5.189636 0.000000 0.000000 0.000000 5.854797 -0.724248 6.390930 -4.230790 1.533459 -23.970904 -3.077091 10.187006 27.574882 9.648453 -3.018695 -24.525760 0.000000 0.000000 0.000000 -5.266655 -14.541810 4.901076 -27.125810 -18.560702 -0.945757 25.428273 -34.266589 -7.239577 0.000000 0.000000 0.000000 16.628128 -1.912374 -0.283171 29.487608 22.683523 -0.258599 -30.972054 31.888527 -5.885793 0.000000 0.000000 0.000000 
-0.038824 0.942595 0.148498 -0.067530 -3.850362 4.769672 9.355898 -0.083548 -30.361833 -13.372302 4.955062 32.028403 9.949119 20.137298 9.249714 0.000000 0.000000 0.000000 -0.200488 -0.313640 3.403017 -0.511727 0.449183 8.209208 -1.083973 0.424897 -5.431425 0.000000 0.000000 0.000000 4.584377 -0.779893 8.534247 -4.725187 1.655451 -24.757626 -2.635129 10.089961 27.046456 8.726790 -2.475975 -24.075632 0.000000 0.000000 0.000000 -0.632443 -13.564558 4.491363 -18.836722 -19.789275 -0.927679 35.532371 -28.354281 -9.077114 0.000000 0.000000 0.000000 11.993459 -1.985101 -0.398013 21.030516 25.807278 -0.209322 -40.059958 28.328698 -7.237153 0.000000 0.000000 0.000000 
-0.034553 0.938509 0.176446 -0.398190 -3.878604 4.960672 9.383499 -0.039204 -32.664362 -9.988509 2.649757 21.910455 9.875479 19.982718 9.920874 0.000000 0.000000 0.000000 -0.274486 -0.532361 5.855385 -0.458821 0.389207 7.230914 -0.969241 0.621546 -5.227683 0.000000 0.000000 0.000000 3.359717 -0.766039 10.134515 -4.165462 1.515346 -25.993724 -2.664314 11.234305 27.089666 9.821970 -2.865402 -24.538244 0.000000 0.000000 0.000000 5.051051 -11.424908 3.871154 -13.250965 -21.715568 -1.056930 40.086246 -22.011754 -8.582815 0.000000 0.000000 0.000000 8.563254 -3.167781 -0.920013 14.189226 27.845805 -0.585153 -46.008612 25.015628 -7.276113 0.000000 0.000000 0.000000 
-0.028794 0.932217 0.209890 -0.394229 -3.262476 4.008502 8.297294 -0.401778 -33.349223 -6.984595 1.308572 14.429336 8.396321 17.680842 11.665945 0.000000 0.000000 0.000000 -0.429591 -0.835719 9.347721 -1.163215 0.483501 6.932160 -0.915901 1.110995 -5.823319 0.000000 0.000000 0.000000 1.859176 -0.692852 12.076593 -4.295739 1.565973 -24.979776 -2.444300 11.158510 26.240563 10.556028 -3.127703 -25.108808 0.000000 0.000000 0.000000 9.120281 -10.548104 3.765739 -7.973295 -23.251184 -1.346206 42.377886 -16.216595 -7.232712 0.000000 0.000000 0.000000 5.140872 -1.991713 -0.516289 10.738348 27.213940 -0.818585 -51.505548 21.441646 -6.754025 0.000000 0.000000 0.000000 
-0.020980 0.926849 0.249987 -0.922015 -3.410032 4.073733 8.539764 -0.304772 -34.316912 -7.139003 1.327589 13.846169 8.365353 17.665747 13.600454 0.000000 0.000000 0.000000 -0.280919 -1.066063 11.749346 -2.512236 0.751985 7.681668 -0.127215 3.992175 -6.537228 0.000000 0.000000 0.000000 0.794359 -0.593061 12.974379 -5.223059 1.764254 -25.709047 -1.023021 11.664651 26.823845 10.989707 -3.248769 -25.649103 0.000000 0.000000 0.000000 11.210525 -10.424394 3.807971 -3.027670 -23.595957 -1.769697 43.405494 -12.510533 -6.235523 0.000000 0.000000 0.000000 4.238407 -2.822655 -0.889795 7.437255 28.754594 -1.102528 -55.601891 20.968531 -7.259189 0.000000 0.000000 0.000000 
-0.010210 0.926858 0.297452 -1.261397 -3.199051 3.980988 8.793027 -0.249605 -34.402701 -8.896229 1.997895 18.108803 8.670954 18.223322 17.010991 0.000000 0.000000 0.000000 -0.653595 -1.215274 14.044082 -2.979209 0.953704 9.357363 0.284928 2.553428 -2.920814 0.000000 0.000000 0.000000 -0.226254 -0.477082 13.565122 -5.348950 1.794016 -25.833127 -1.001290 11.344708 27.573260 11.160536 -3.255514 -26.441173 0.000000 0.000000 0.000000 13.302905 -8.589157 3.438448 -0.876277 -24.201115 -2.026114 44.924161 -10.447303 -5.765158 0.000000 0.000000 0.000000 2.620142 -2.269679 -0.740739 6.386210 28.115583 -1.199830 -56.305306 21.805229 -7.862320 0.000000 0.000000 0.000000 
0.003336 0.936427 0.352399 -1.106212 -2.790934 4.098650 7.755388 -0.604448 -32.680274 -9.615894 2.363865 20.842582 8.215997 17.680147 17.934156 0.000000 0.000000 0.000000 -1.573384 -1.000217 13.052641 -2.487408 1.267013 15.105948 1.049190 -0.311557 5.278321 0.000000 0.000000 0.000000 -2.048125 -0.207404 12.652028 -5.089011 1.749281 -25.355276 -0.477298 11.511377 27.631684 10.174515 -2.725757 -25.677686 0.000000 0.000000 0.000000 14.251415 -7.934105 3.402403 -0.631093 -24.827237 -2.147869 43.184996 -11.664298 -6.019179 0.000000 0.000000 0.000000 0.679531 -3.773994 -1.411386 9.287888 26.463947 -0.860120 -58.048192 28.906161 -11.486252 0.000000 0.000000 0.000000 
0.018471 0.951370 0.410886 -1.085558 -1.568351 4.598270 5.755712 -1.164993 -28.593116 -8.397876 1.885443 20.498027 7.961502 17.350641 14.814572 0.000000 0.000000 0.000000 -1.578815 -0.561614 7.350244 -1.714950 1.896353 27.894061 2.018017 -2.732216 15.645965 0.000000 0.000000 0.000000 -2.481986 -0.161354 12.570068 -4.805680 1.693324 -25.652005 -0.592441 10.327240 27.959848 10.604395 -3.295482 -24.532525 0.000000 0.000000 0.000000 14.701699 -7.621861 3.293719 -2.233535 -23.971939 -1.913088 42.234603 -16.354984 -7.527116 0.000000 0.000000 0.000000 0.883287 -5.580107 -2.099066 10.892382 25.150188 -0.828179 -61.246922 38.016529 -17.468018 0.000000 0.000000 0.000000 
0.033616 0.964465 0.468965 -0.897640 0.199213 3.655067 3.246943 -1.481296 -22.354097 -6.496688 1.149904 18.787362 6.916397 15.800022 12.590520 0.000000 0.000000 0.000000 -1.254428 0.033485 0.076184 1.076700 1.224233 42.840302 1.137422 -5.396466 19.871808 0.000000 0.000000 0.000000 -2.501280 -0.226151 14.256765 -4.949327 1.747250 -25.785905 -1.668408 7.663920 28.612989 10.292445 -3.376506 -24.840520 0.000000 0.000000 0.000000 14.496362 -7.260210 2.962414 -3.857329 -22.833961 -1.656196 39.288432 -19.826768 -7.819611 0.000000 0.000000 0.000000 1.700636 -5.400615 -2.025319 13.525271 23.196866 -0.794706 -62.455995 43.394945 -21.622068 0.000000 0.000000 0.000000 
0.048872 0.972335 0.526837 -1.339765 1.173957 2.871642 1.855697 -1.197206 -15.250014 -5.120472 0.684699 15.704166 6.527926 14.897108 9.368045 0.000000 0.000000 0.000000 0.490832 0.951693 -9.250311 2.286997 0.520189 52.778209 -1.039184 -7.365245 13.764026 0.000000 0.000000 0.000000 -1.158530 -0.499297 15.783819 -5.631638 1.904654 -26.051114 -2.557805 4.846719 29.239033 9.029769 -3.441521 -22.477742 0.000000 0.000000 0.000000 11.659911 -7.325675 2.622578 -6.511772 -20.334813 -1.372954 37.580572 -24.342062 -8.487732 0.000000 0.000000 0.000000 4.782692 -5.041210 -1.961139 17.728454 23.736121 -0.602303 -58.754379 48.536920 -23.444147 0.000000 0.000000 0.000000 
0.065000 0.974460 0.586143 -1.951982 3.046932 2.510187 0.980548 -0.795180 -9.304237 -3.770071 0.291967 14.033182 5.334846 12.703742 7.522708 0.000000 0.000000 0.000000 1.068433 1.961664 -18.711227 4.774910 -1.688281 53.769008 -3.319959 -10.102038 7.140632 0.000000 0.000000 0.000000 0.841311 -0.929484 16.978496 -5.453283 1.882488 -26.050749 -4.091995 2.577094 30.390880 8.451681 -3.522929 -21.486240 0.000000 0.000000 0.000000 7.057408 -9.563726 3.093756 -9.949335 -18.659546 -1.325046 34.447906 -23.451522 -7.111594 0.000000 0.000000 0.000000 10.384590 -4.945303 -2.165825 23.542134 22.412628 -0.607971 -46.528979 53.364487 -19.757263 0.000000 0.000000 0.000000 
0.082305 0.968807 0.647759 -1.687134 4.586309 3.012853 0.096742 -0.367782 -4.137269 -4.024684 0.312869 12.671436 4.186017 9.974132 4.362363 0.000000 0.000000 0.000000 0.605192 2.642979 -27.633086 6.230588 -2.659097 47.500924 -3.939346 -10.426729 2.637443 0.000000 0.000000 0.000000 2.631046 -1.306187 17.425444 -6.464600 2.108517 -26.162470 -4.048651 0.190496 31.253309 7.059278 -2.619472 -23.378538 0.000000 0.000000 0.000000 -0.157429 -11.305841 3.880195 -14.587994 -18.309861 -1.395299 29.508814 -23.872260 -5.708306 0.000000 0.000000 0.000000 15.321795 -3.688269 -1.967131 32.437358 20.255338 -0.739469 -20.405176 48.820271 -5.871336 0.000000 0.000000 0.000000 
0.100371 0.955382 0.713711 -1.405896 6.064365 2.854737 -1.042577 0.176071 1.532349 -3.021913 0.108932 10.820639 3.380976 7.712666 2.038556 0.000000 0.000000 0.000000 0.584756 2.933616 -32.853119 5.625664 -1.696441 32.159121 -4.575437 -11.455645 0.544098 0.000000 0.000000 0.000000 4.107918 -1.661252 18.024686 -7.406409 2.332192 -25.944299 -3.562322 -1.607268 32.284507 6.419013 -1.760138 -28.562885 0.000000 0.000000 0.000000 -6.139440 -13.549038 5.157495 -20.429028 -18.403866 -1.482201 23.955788 -25.836264 -4.623485 0.000000 0.000000 0.000000 21.702137 -2.364859 -1.809384 38.105242 16.336932 -1.743794 -7.475037 37.358538 -0.292210 0.000000 0.000000 0.000000 
0.118120 0.938013 0.785933 -0.791342 8.018888 3.121511 -2.586737 0.914210 8.283323 -0.401775 -0.230567 6.891679 2.203305 4.798415 0.663009 0.000000 0.000000 0.000000 0.231852 2.788365 -35.582709 3.509319 -0.498976 14.096418 -3.191555 -8.492580 2.911951 0.000000 0.000000 0.000000 4.843734 -1.722076 16.861949 -5.780163 2.084641 -24.185207 -4.119224 -3.247281 32.211804 5.947196 -1.143836 -31.998721 0.000000 0.000000 0.000000 -9.903394 -13.492284 5.455544 -29.260351 -19.145758 -1.331990 16.247983 -26.052569 -2.666880 0.000000 0.000000 0.000000 24.803989 -2.171981 -2.107537 45.615041 12.637631 -2.826191 -3.616513 28.143739 0.676714 0.000000 0.000000 0.000000 
0.135554 0.921647 0.866701 -0.350516 9.447106 4.867136 -4.243092 1.686717 14.321305 2.633023 -0.475893 3.613522 1.323705 2.903121 0.469327 0.000000 0.000000 0.000000 0.334929 2.734918 -37.868059 2.576627 -0.283006 3.182522 -2.142989 -6.750963 6.409002 0.000000 0.000000 0.000000 5.912852 -1.533368 13.204632 -5.389627 2.057669 -22.711600 -3.849512 -5.434320 32.130761 5.778503 -1.025660 -33.939020 0.000000 0.000000 0.000000 -12.330432 -13.868492 6.031696 -36.665151 -18.874551 -1.331535 9.397287 -28.167968 -1.037322 0.000000 0.000000 0.000000 25.498765 -1.257325 -2.035915 50.869263 9.639590 -3.927293 -2.001407 20.453436 0.670994 0.000000 0.000000 0.000000 
0.151779 0.912535 0.957466 -1.252213 9.933100 6.475744 -2.940879 1.747459 17.803023 2.566694 -0.554044 4.904908 -0.834246 1.410231 5.634103 0.000000 0.000000 0.000000 1.187083 3.090978 -41.497356 3.725312 -0.471971 5.883963 -1.421336 -6.202183 10.959614 0.000000 0.000000 0.000000 8.005876 -1.375632 9.206030 -3.247489 1.500208 -24.654307 -6.064295 -4.673442 33.729178 7.956110 -1.349637 -38.554030 0.000000 0.000000 0.000000 -12.282585 -13.175300 5.548693 -44.506989 -18.846795 -1.272420 2.722018 -28.802695 0.671996 0.000000 0.000000 0.000000 27.599221 -3.047016 -3.032798 54.196535 9.193943 -4.397481 -0.591335 16.587114 0.746565 0.000000 0.000000 0.000000 
0.166273 0.911435 1.056924 -1.965984 10.729077 6.748102 -0.189745 1.090502 16.281358 0.749327 -0.984377 15.218757 -4.593325 -0.209500 14.988489 0.000000 0.000000 0.000000 2.847968 3.536147 -41.289638 3.485417 -0.559395 14.340326 -2.295488 -8.272174 13.672742 0.000000 0.000000 0.000000 11.284051 -1.500911 7.099536 -3.733807 1.637136 -23.437786 -6.462101 -5.015023 30.929941 5.914520 -0.280797 -38.276751 0.000000 0.000000 0.000000 -14.793534 -14.090932 6.050812 -48.349870 -16.934540 -1.560354 -1.431732 -29.588455 1.782705 0.000000 0.000000 0.000000 24.665539 -2.320486 -2.342099 58.394437 8.627413 -4.349971 -1.764810 13.987988 0.483362 0.000000 0.000000 0.000000 
0.178732 0.916997 1.156433 -3.289260 9.303015 4.506894 2.998055 0.373792 10.691064 -3.875565 -0.838521 34.498656 -2.786022 4.675854 21.648011 0.000000 0.000000 0.000000 4.977977 4.347614 -39.039102 3.524202 -0.780001 23.517924 -3.272204 -10.032339 12.015082 0.000000 0.000000 0.000000 12.991183 -1.794555 8.264365 -3.660491 1.564169 -25.182252 -5.286236 -1.455538 30.791513 8.170886 -0.939864 -37.892060 0.000000 0.000000 0.000000 -15.091624 -17.436734 7.096820 -49.967956 -16.233761 -1.758351 -2.466564 -28.548645 1.834982 0.000000 0.000000 0.000000 24.836903 -1.099349 -0.611788 55.519962 12.390186 -2.827961 -1.063094 16.262053 0.690761 0.000000 0.000000 0.000000 
0.188887 0.932318 1.248695 -3.730233 8.530391 1.965001 4.810766 -0.098202 1.876573 -7.558986 0.151965 50.875782 -0.411866 7.339134 20.892570 0.000000 0.000000 0.000000 6.496902 4.189401 -31.762599 2.828519 -0.622321 25.958150 -3.222632 -9.360417 7.640340 0.000000 0.000000 0.000000 12.553054 -1.901128 9.898789 -3.258193 1.492054 -25.057081 -5.061837 0.807326 30.532529 8.916979 -1.278487 -35.750638 0.000000 0.000000 0.000000 -11.605037 -17.709146 6.578931 -49.900885 -17.023016 -1.490253 1.075788 -30.742474 0.914862 0.000000 0.000000 0.000000 23.254552 0.956471 1.325861 51.003626 17.758720 -0.747820 -3.743575 19.764548 0.507181 0.000000 0.000000 0.000000 
0.197828 0.953050 1.336690 -3.024553 6.870799 -0.274944 5.529200 -0.451615 -7.086029 -11.261392 2.862538 57.214629 5.043701 13.620262 15.477300 0.000000 0.000000 0.000000 7.157172 3.088550 -20.856506 0.971339 0.156968 22.146804 -2.092836 -6.203113 3.465723 0.000000 0.000000 0.000000 10.833538 -1.811751 11.478705 -4.611522 1.762485 -26.130105 -2.831066 3.535163 31.405173 10.370166 -2.049153 -34.021242 0.000000 0.000000 0.000000 -9.763609 -17.574009 6.144684 -43.906967 -18.819458 -1.001565 2.624580 -32.099011 0.290126 0.000000 0.000000 0.000000 21.474385 1.789352 2.321283 42.483976 24.320862 0.830792 -7.363322 21.414774 -0.026550 0.000000 0.000000 0.000000 
0.206873 0.974247 1.421517 -1.330458 5.898716 -2.022255 5.161452 -0.844534 -14.469015 -12.015539 3.588335 52.769367 7.218908 16.405575 11.799279 0.000000 0.000000 0.000000 5.835262 1.506769 -10.524677 -0.482568 0.580208 16.696637 -0.267740 -2.099331 3.677880 0.000000 0.000000 0.000000 8.204520 -1.421135 11.563653 -5.388851 1.943401 -26.119916 -1.239041 7.023252 31.069186 11.770929 -2.801440 -31.147875 0.000000 0.000000 0.000000 -6.072222 -16.244512 5.176009 -37.936408 -20.155111 -0.722493 5.870859 -34.283416 -1.122915 0.000000 0.000000 0.000000 18.676010 0.967278 2.266555 32.596056 26.417997 0.462493 -7.238974 24.322782 -0.079643 0.000000 0.000000 0.000000 
0.217089 0.989142 1.503404 -0.338633 3.649674 -2.890638 5.243131 -1.026607 -18.850139 -10.869136 3.041269 39.285705 9.225859 19.244785 8.618669 0.000000 0.000000 0.000000 4.060452 0.187212 -1.675575 -0.787100 0.594152 12.290894 1.356780 1.532438 3.813941 0.000000 0.000000 0.000000 7.058006 -1.342999 12.555724 -6.671969 2.117910 -28.117495 0.063188 10.456387 30.769755 11.575377 -2.536391 -29.889440 0.000000 0.000000 0.000000 -3.237509 -13.426925 4.079627 -31.885801 -18.707350 -1.122657 11.602875 -37.063966 -3.698607 0.000000 0.000000 0.000000 14.734113 -0.258883 1.536632 26.660495 29.125841 0.587587 -8.481622 22.941139 -0.295620 0.000000 0.000000 0.000000 
0.229426 0.997274 1.583665 -0.511986 1.344638 -3.641891 5.445617 -0.899849 -18.817345 -6.296678 0.989214 17.040644 9.336586 19.399565 11.352973 0.000000 0.000000 0.000000 2.624061 -0.825868 6.320920 -0.383836 0.403800 8.633987 2.555424 4.293438 3.724091 0.000000 0.000000 0.000000 6.774657 -1.317867 13.138636 -6.773166 2.104230 -28.872783 0.605681 13.252552 29.954314 12.315723 -2.617847 -30.189525 0.000000 0.000000 0.000000 -0.383425 -9.809890 3.034193 -29.113051 -17.548777 -1.302482 14.664128 -36.567537 -5.087063 0.000000 0.000000 0.000000 10.413063 -1.456036 0.550094 22.025924 30.444228 0.615540 -9.846915 23.726961 -0.528019 0.000000 0.000000 0.000000 
0.244249 1.000780 1.665347 -0.984121 0.032072 -3.183290 6.175765 -0.745648 -19.031033 -2.962700 0.340679 -1.664418 8.049897 17.664115 16.793955 0.000000 0.000000 0.000000 1.578161 -1.297884 11.077889 -0.919897 0.508863 8.483272 3.045355 5.101816 4.173538 0.000000 0.000000 0.000000 6.653487 -1.117960 11.395880 -6.632110 2.129914 -27.160254 1.203847 14.749181 27.634555 10.589543 -1.692076 -28.484702 0.000000 0.000000 0.000000 2.217977 -6.443900 2.299076 -28.311835 -13.686994 -1.801084 13.488037 -37.159908 -5.064372 0.000000 0.000000 0.000000 6.126872 -2.394983 -0.357392 20.671762 29.077376 0.632778 -11.253340 24.388876 -0.698607 0.000000 0.000000 0.000000 
0.261992 0.998606 1.750590 -1.139638 -0.968460 -3.821591 5.488339 -0.759107 -17.789507 -1.769106 0.383915 -9.945930 6.511326 15.891736 22.692387 0.000000 0.000000 0.000000 -0.347068 -1.355964 14.185892 -0.372189 0.642499 13.286366 3.518630 4.730450 6.428000 0.000000 0.000000 0.000000 6.006623 -0.891252 9.902054 -6.389606 2.031998 -28.362741 3.300548 16.036306 30.717639 11.874562 -2.347046 -28.600470 0.000000 0.000000 0.000000 3.625696 -5.543784 2.243625 -29.052590 -11.007950 -2.543952 12.949235 -37.042983 -4.989369 0.000000 0.000000 0.000000 4.574984 -5.302350 -1.742427 21.696486 28.469334 0.601418 -13.877692 27.720515 -1.112022 0.000000 0.000000 0.000000 
0.282875 0.991073 1.838745 -1.643136 -2.721493 -4.278951 5.212807 -0.709172 -17.123426 -2.747620 0.389561 -6.775215 6.953124 16.534138 28.256281 0.000000 0.000000 0.000000 -2.275784 -0.879352 12.199157 -0.738317 1.469475 24.943790 6.037985 6.086602 12.638036 0.000000 0.000000 0.000000 5.946955 -0.734461 8.466039 -5.697647 1.903545 -27.328383 3.369528 15.891134 30.679698 10.724921 -1.856368 -28.516217 0.000000 0.000000 0.000000 3.401305 -2.323837 1.234368 -33.278972 -7.451732 -3.749054 9.948061 -36.299997 -3.564011 0.000000 0.000000 0.000000 4.568078 -4.654140 -1.505931 26.697272 25.652397 0.650737 -15.551639 31.175292 -1.554650 0.000000 0.000000 0.000000 
0.304893 0.975552 1.923549 -1.672085 -2.794691 -4.044470 2.176734 -1.140675 -16.530966 -2.477631 0.264581 2.381403 7.020055 16.383371 24.712986 0.000000 0.000000 0.000000 -2.994427 -0.282747 4.790473 -0.904906 2.888756 42.709466 4.483221 3.793029 11.355041 0.000000 0.000000 0.000000 5.139428 -0.601501 7.460142 -4.266312 1.594998 -26.514465 1.853913 15.318915 31.029598 11.235751 -2.219173 -28.923329 0.000000 0.000000 0.000000 0.135582 -4.184396 1.275154 -34.692229 -2.131763 -5.158637 6.475971 -32.867275 -1.867889 0.000000 0.000000 0.000000 9.013831 -4.911699 -1.272244 32.232250 21.905053 -0.065145 -13.359604 31.301223 -1.008497 0.000000 0.000000 0.000000 
0.325524 0.955477 1.998542 -1.016094 -1.072903 -4.930639 0.378891 -1.509982 -17.269138 -4.792794 0.682214 13.992747 7.560831 16.957903 18.787917 0.000000 0.000000 0.000000 -2.791770 0.541057 -6.635785 -0.750912 3.779319 59.838272 2.007071 -0.963507 11.447075 0.000000 0.000000 0.000000 4.386348 -0.813298 10.796506 -4.791623 1.728180 -27.164836 1.078763 11.829076 30.063003 9.115901 -1.095278 -31.229356 0.000000 0.000000 0.000000 -6.609942 -6.621130 1.352953 -38.044385 0.637697 -6.306452 4.315537 -26.981532 -0.544308 0.000000 0.000000 0.000000 14.894905 -4.218673 -0.817934 39.563980 18.430913 -0.938666 -12.302090 26.621715 -0.688623 0.000000 0.000000 0.000000 
0.344256 0.937678 2.067455 -0.724222 1.346942 -5.781730 -1.864671 -1.730832 -15.726147 -5.216332 0.730379 20.811820 9.092999 19.044986 12.638068 0.000000 0.000000 0.000000 -3.076388 1.252458 -17.064985 -0.162191 2.798335 67.161129 -1.187150 -5.727877 7.189431 0.000000 0.000000 0.000000 4.843514 -1.045466 12.873944 -5.034510 1.823262 -26.749153 -0.300860 8.995007 30.277364 7.546574 -0.149009 -34.183893 0.000000 0.000000 0.000000 -12.182845 -8.715585 1.794397 -42.299987 -0.459064 -6.659543 1.526161 -22.680813 0.314034 0.000000 0.000000 0.000000 21.325001 -4.427549 -0.883610 47.591716 15.766122 -1.957337 -10.860022 21.703093 -0.263809 0.000000 0.000000 0.000000 
0.360626 0.932284 2.134082 -0.723606 3.220907 -7.582422 -4.236214 -1.496437 -11.315416 -4.841455 0.461679 24.861950 9.555576 19.550730 6.533964 0.000000 0.000000 0.000000 -2.240434 1.770884 -23.436106 0.026933 1.668526 62.792737 -2.548307 -7.671189 4.215312 0.000000 0.000000 0.000000 5.012180 -1.328878 15.677814 -4.990528 1.809165 -27.997149 -0.793432 6.082751 31.742672 7.628850 -0.500762 -34.640385 0.000000 0.000000 0.000000 -16.783853 -10.466712 2.659444 -45.215903 -3.614708 -6.152715 0.121250 -19.183297 0.631510 0.000000 0.000000 0.000000 25.217960 -4.647376 -1.423846 53.942084 11.641218 -3.772831 -7.454691 16.051785 0.161184 0.000000 0.000000 0.000000 
0.374976 0.933124 2.200102 -1.345673 4.906045 -7.902365 -4.799364 -0.792624 -5.867544 -3.757582 -0.015531 23.854499 8.121701 16.656035 2.265885 0.000000 0.000000 0.000000 -1.343758 2.108352 -26.858577 0.977338 0.305066 50.679105 -2.530821 -7.723429 5.091281 0.000000 0.000000 0.000000 6.204214 -1.468073 15.220744 -5.842120 2.050541 -26.970411 -0.923809 3.489227 31.166636 7.736637 -0.771819 -34.842383 0.000000 0.000000 0.000000 -17.982798 -10.082944 2.726631 -46.111483 -7.345519 -4.927737 0.672708 -18.822107 0.583132 0.000000 0.000000 0.000000 23.405847 -6.668647 -3.124050 57.087677 6.006185 -6.051673 -7.289121 11.309098 0.150660 0.000000 0.000000 0.000000 
0.388192 0.941061 2.266927 -2.069838 5.724930 -8.478699 -5.139364 -0.022643 -0.047021 -2.284437 -0.458565 21.940026 7.524833 15.452653 1.972588 0.000000 0.000000 0.000000 0.508093 2.453314 -26.202943 2.110266 -0.259038 32.790769 -1.321344 -5.861669 8.408634 0.000000 0.000000 0.000000 7.195189 -1.491167 14.281231 -5.040480 1.850483 -27.763574 -2.243246 2.495442 31.815046 7.740093 -1.187059 -32.223228 0.000000 0.000000 0.000000 -14.280607 -6.805562 1.446086 -42.383876 -8.867193 -4.254937 4.956170 -20.007533 -0.133980 0.000000 0.000000 0.000000 17.951761 -10.415619 -5.067042 54.335943 1.691810 -7.523149 -9.034434 10.854342 0.079135 0.000000 0.000000 0.000000 
0.401322 0.948339 2.335280 -1.849891 5.559081 -6.893633 -5.816610 0.446216 3.281717 -1.495909 -0.538261 19.215893 8.009617 16.431881 2.664397 0.000000 0.000000 0.000000 3.040779 2.911794 -24.862352 2.148803 -0.117520 17.459552 0.624812 -3.420690 13.401730 0.000000 0.000000 0.000000 7.247407 -1.069513 10.476710 -4.251037 1.640585 -28.633838 -3.506234 2.721652 31.967592 8.596263 -1.969144 -29.773678 0.000000 0.000000 0.000000 -6.179768 -4.829487 1.191208 -34.695942 -10.119296 -3.353736 9.961687 -20.337540 -1.147812 0.000000 0.000000 0.000000 13.251192 -13.563912 -6.380739 41.387781 -0.282404 -6.528272 -12.902906 11.853523 -0.211170 0.000000 0.000000 0.000000 
0.416018 0.951799 2.405549 -1.988003 6.638048 -5.670104 -4.926887 0.752717 5.879835 -1.564861 -0.620020 20.220877 6.689638 14.202058 3.609844 0.000000 0.000000 0.000000 5.692260 3.066327 -21.981116 0.161970 0.284554 11.007757 2.142579 -1.356599 16.298370 0.000000 0.000000 0.000000 8.220452 -0.710151 6.547457 -4.731094 1.748452 -28.066176 -4.353302 1.811577 29.936741 7.620927 -1.975625 -25.676169 0.000000 0.000000 0.000000 1.995084 -2.197578 0.901226 -24.779576 -11.997509 -2.157754 17.359387 -17.477531 -2.299888 0.000000 0.000000 0.000000 5.837579 -14.981680 -6.310002 25.154271 0.330229 -3.768783 -13.861400 8.773752 -0.186012 0.000000 0.000000 0.000000 
0.431915 0.950984 2.474988 -1.838541 7.669663 -5.370737 -3.232900 0.777467 7.078133 -3.721655 -0.328762 26.259237 3.781517 9.981562 6.946588 0.000000 0.000000 0.000000 6.232696 2.785557 -19.300250 -0.702777 0.498113 12.776946 -0.614887 -5.394498 13.585314 0.000000 0.000000 0.000000 8.742960 -0.579137 5.152274 -5.163665 1.681385 -31.339837 -5.077038 2.356432 30.572310 7.944329 -2.719194 -21.209691 0.000000 0.000000 0.000000 11.764269 0.865576 1.011971 -11.633925 -15.533715 -1.296618 19.745094 -12.347183 -2.158241 0.000000 0.000000 0.000000 -3.715859 -17.719234 -6.315381 10.471901 5.617453 -1.455135 -10.427213 4.133090 0.149115 0.000000 0.000000 0.000000 
0.446408 0.951681 2.536737 -2.210063 7.127813 -5.507834 1.278404 0.358988 5.527632 -8.891263 1.414026 34.668976 1.239087 6.965349 11.064333 0.000000 0.000000 0.000000 7.116477 2.518675 -16.250221 -0.421410 0.477590 14.549718 -1.988697 -7.307290 9.850427 0.000000 0.000000 0.000000 8.838287 -0.638419 5.651958 -4.573041 1.503514 -32.927694 -5.344522 1.981548 29.060242 6.852182 -2.438793 -18.915490 0.000000 0.000000 0.000000 18.844291 3.800439 1.043435 -0.126232 -16.173339 -1.156095 18.862379 -4.329856 -0.895961 0.000000 0.000000 0.000000 -11.873249 -15.432290 -4.536918 1.492094 9.040638 -0.687354 -9.329295 -0.467556 0.341035 0.000000 0.000000 0.000000 
0.458529 0.956010 2.586869 -2.397374 8.203654 -5.665299 4.836577 -0.038452 1.220348 -11.730328 2.481186 42.246868 2.574107 9.476299 12.368251 0.000000 0.000000 0.000000 7.217527 2.053909 -12.985734 -0.892030 0.567130 14.674781 -3.279152 -9.479471 7.597079 0.000000 0.000000 0.000000 8.333665 -0.846179 7.533498 -6.082429 1.520182 -36.263484 -3.507839 2.329079 29.954929 8.288714 -3.533037 -17.858742 0.000000 0.000000 0.000000 24.182770 6.373325 1.368688 8.689784 -20.482311 -2.075522 19.713318 3.209490 0.043890 0.000000 0.000000 0.000000 -17.684175 -16.906782 -4.497915 -4.277150 11.242329 -0.507813 -8.230015 -2.674119 0.398827 0.000000 0.000000 0.000000 
0.469326 0.962848 2.627745 -2.026406 7.662595 -4.931416 6.051478 -0.181648 -2.057516 -12.244726 2.839282 41.210570 5.128542 12.839211 9.567053 0.000000 0.000000 0.000000 6.678718 1.517540 -9.775436 -0.590466 0.477105 13.075931 -3.343238 -9.537587 6.400998 0.000000 0.000000 0.000000 7.558344 -0.870919 8.083328 -5.780345 1.431200 -37.101482 -2.318736 3.259875 29.315283 8.229440 -3.612821 -16.716025 0.000000 0.000000 0.000000 27.351321 7.745849 1.707632 12.760570 -21.304999 -2.591074 19.782842 9.034585 0.776700 0.000000 0.000000 0.000000 -22.412246 -15.304011 -3.825818 -7.935768 12.786918 -0.485782 -8.112804 -4.268887 0.467264 0.000000 0.000000 0.000000 
0.479569 0.969976 2.661366 -1.133337 6.903000 -4.095340 6.186203 -0.261183 -4.244022 -10.136375 1.973883 35.490685 6.465718 14.584665 7.159034 0.000000 0.000000 0.000000 6.129816 1.097380 -7.324573 -1.913194 0.732394 10.913860 -2.389166 -7.696882 7.107400 0.000000 0.000000 0.000000 6.493357 -0.942419 9.364592 -5.371097 1.294554 -39.129681 -1.633318 5.512862 29.343288 9.602470 -4.459651 -16.257544 0.000000 0.000000 0.000000 28.573960 9.361377 2.089239 15.208371 -24.016798 -3.679046 21.096102 12.859251 1.241434 0.000000 0.000000 0.000000 -23.734170 -14.741635 -4.035747 -10.604071 14.932029 -0.597129 -8.515390 -6.296870 0.617850 0.000000 0.000000 0.000000 
0.489293 0.974213 2.689650 -0.439354 5.552102 -3.192490 4.887968 -0.273736 -4.148471 -6.680641 0.860012 23.814448 6.581093 14.689836 6.702073 0.000000 0.000000 0.000000 4.950071 0.688084 -5.026611 -1.716133 0.593670 8.141196 -1.685637 -6.456126 7.628762 0.000000 0.000000 0.000000 5.741346 -0.839875 8.934707 -5.185070 1.348826 -38.599970 -1.663322 6.829730 29.118444 10.527908 -4.884033 -16.944761 0.000000 0.000000 0.000000 30.512190 9.684712 2.462487 16.829608 -25.101966 -4.268738 22.020266 15.928550 1.687825 0.000000 0.000000 0.000000 -25.179875 -13.973267 -3.894257 -10.954422 17.597171 -0.932902 -9.770807 -7.298830 0.814177 0.000000 0.000000 0.000000 
0.497937 0.975674 2.713730 -0.084435 5.095741 -2.823188 4.473718 -0.265367 -3.848806 -4.695607 0.426693 14.278428 4.131942 10.572479 6.930022 0.000000 0.000000 0.000000 3.974182 0.438261 -3.464967 -1.665398 0.559635 7.510154 -1.275661 -5.686884 7.800649 0.000000 0.000000 0.000000 5.589932 -0.862613 9.268129 -5.836579 1.471295 -38.011770 -1.655108 6.688156 28.498021 11.378535 -5.570853 -16.968286 0.000000 0.000000 0.000000 31.938015 9.682539 2.581711 18.538549 -25.033345 -4.449483 20.561154 15.785921 1.571485 0.000000 0.000000 0.000000 -25.690274 -13.965046 -3.713108 -12.581567 19.839038 -1.308054 -10.752782 -7.347299 0.908777 0.000000 0.000000 0.000000 
0.505213 0.975127 2.734283 -0.184990 4.657936 -2.513056 3.707308 -0.166278 -1.932340 -2.344167 0.115883 6.466280 1.530797 6.306089 7.779458 0.000000 0.000000 0.000000 3.415482 0.215246 -1.887649 -2.166160 0.562104 5.727405 -1.289863 -5.937596 8.457150 0.000000 0.000000 0.000000 5.414254 -0.761431 8.330705 -5.709967 1.505681 -37.147579 -1.750747 6.876061 29.215992 13.907178 -7.249548 -17.955597 0.000000 0.000000 0.000000 33.935486 8.051581 2.833017 20.088412 -24.010881 -4.343531 17.954046 16.176884 1.354003 0.000000 0.000000 0.000000 -25.499158 -13.921223 -3.755121 -15.204842 20.947699 -1.558407 -10.198106 -7.175429 0.822260 0.000000 0.000000 0.000000 
0.511106 0.973738 2.751583 -0.605084 3.973854 -3.006725 3.178535 -0.006648 0.583640 -1.324104 0.017622 4.547566 1.095876 5.731659 8.442076 0.000000 0.000000 0.000000 3.358960 0.102510 -1.029783 -2.350409 0.602926 5.878084 -1.001649 -5.187177 7.699831 0.000000 0.000000 0.000000 5.365788 -0.735617 8.215853 -5.192458 1.504295 -36.119498 -2.282868 6.607713 29.166153 14.713005 -8.618251 -15.721383 0.000000 0.000000 0.000000 34.635401 7.226762 2.739041 22.515299 -22.646691 -4.131695 15.053680 14.767342 0.983916 0.000000 0.000000 0.000000 -25.653212 -12.549245 -3.428079 -16.703855 21.631224 -1.769027 -10.731348 -7.026050 0.841818 0.000000 0.000000 0.000000 
0.515837 0.972356 2.765187 -0.831338 3.913233 -3.068327 2.770412 0.123223 2.532773 -1.247925 0.061264 2.611202 1.325691 6.318736 9.032485 0.000000 0.000000 0.000000 2.906468 0.011489 -0.309889 -2.100581 0.572717 6.082860 -1.139508 -5.169134 6.607496 0.000000 0.000000 0.000000 5.424416 -0.647056 7.242754 -5.344140 1.594873 -34.506622 -2.554131 5.877453 29.293064 15.356249 -9.182587 -15.965804 0.000000 0.000000 0.000000 34.905080 6.290530 2.580598 24.146641 -21.347954 -3.786469 12.550350 13.099665 0.679574 0.000000 0.000000 0.000000 -25.421581 -12.310169 -3.253275 -19.044360 21.922152 -1.988311 -10.081720 -6.400121 0.711669 0.000000 0.000000 0.000000 
0.520010 0.971597 2.774502 -1.072682 3.159898 -2.789179 2.187115 0.264536 4.282517 -0.822975 0.056107 1.051953 1.991224 7.251061 8.599202 0.000000 0.000000 0.000000 2.741834 -0.050025 0.147812 -1.775923 0.487464 5.431283 -1.112994 -5.011283 6.081126 0.000000 0.000000 0.000000 5.615658 -0.587842 6.451114 -5.126606 1.580239 -34.115307 -2.573645 6.385176 29.849694 14.803555 -8.844181 -15.616346 0.000000 0.000000 0.000000 34.896471 5.650447 2.568075 25.032353 -20.566774 -3.616534 11.572947 11.287298 0.509500 0.000000 0.000000 0.000000 -25.225653 -11.760537 -3.237328 -20.074499 21.707055 -1.959244 -10.669325 -5.275729 0.685116 0.000000 0.000000 0.000000 
0.523969 0.971168 2.779737 -0.997100 3.057063 -2.420586 1.203533 0.375866 5.122070 -0.637467 0.067645 -0.031569 2.322750 7.897635 8.921473 0.000000 0.000000 0.000000 2.122408 -0.082700 0.465492 -1.514789 0.412360 4.758871 -1.090478 -5.099640 6.488409 0.000000 0.000000 0.000000 5.243426 -0.505678 5.716190 -4.932818 1.605680 -32.552610 -3.160238 5.826438 29.325221 14.649442 -8.379675 -16.948501 0.000000 0.000000 0.000000 34.095715 4.659304 2.427391 24.863214 -19.216737 -3.053575 12.594022 10.053898 0.526605 0.000000 0.000000 0.000000 -23.839256 -11.354128 -3.051907 -21.019796 21.698478 -2.106759 -10.902402 -4.134472 0.607582 0.000000 0.000000 0.000000 
0.527662 0.970722 2.781430 -1.062115 2.836685 -1.769910 0.975106 0.377008 4.958468 -0.612546 0.088885 -0.838930 2.617859 8.344498 8.804247 0.000000 0.000000 0.000000 1.675770 -0.052033 0.242041 -0.998855 0.314593 4.362870 -1.374150 -5.599299 6.044279 0.000000 0.000000 0.000000 5.069438 -0.442819 4.980529 -5.219827 1.688057 -31.445980 -2.702105 5.517276 29.536095 13.455774 -7.379478 -17.575388 0.000000 0.000000 0.000000 33.358042 4.253016 2.236657 21.836465 -18.345565 -2.446203 15.739357 9.075774 0.638085 0.000000 0.000000 0.000000 -22.338293 -11.331580 -3.033249 -19.838042 20.805825 -1.910567 -12.785270 -2.877928 0.623870 0.000000 0.000000 0.000000 
0.531252 0.970583 2.781524 -0.927874 2.029191 -1.284771 0.363949 0.404030 4.797605 -0.916071 0.130692 -1.265046 3.408230 9.544881 8.494806 0.000000 0.000000 0.000000 1.179769 -0.005478 -0.124342 -0.959108 0.304300 4.243086 -1.097638 -4.985293 5.839249 0.000000 0.000000 0.000000 4.816129 -0.441168 5.034185 -4.897641 1.664440 -30.372704 -2.693650 6.206309 29.200820 12.377197 -7.102695 -15.282004 0.000000 0.000000 0.000000 30.555520 4.654491 2.063051 18.358659 -17.448849 -1.976459 18.775965 6.933366 0.512634 0.000000 0.000000 0.000000 -19.100984 -11.731413 -3.298130 -17.561651 19.897956 -1.649928 -14.214115 -0.265898 0.461391 0.000000 0.000000 0.000000 
0.534638 0.969759 2.780936 -0.897299 1.785936 -0.433321 0.164923 0.372575 4.288212 -1.135855 0.166900 -1.901116 3.178599 9.341709 9.325726 0.000000 0.000000 0.000000 0.460117 0.076888 -0.810005 -0.669094 0.232279 3.575977 -0.540438 -3.853417 6.060575 0.000000 0.000000 0.000000 4.834505 -0.433678 4.771370 -5.058189 1.718370 -29.320320 -2.843780 5.885693 29.033158 11.387685 -6.446837 -15.089024 0.000000 0.000000 0.000000 26.702319 4.400430 1.651122 13.443682 -16.909234 -1.571065 22.131228 4.176637 0.196097 0.000000 0.000000 0.000000 -14.748237 -12.202902 -3.569270 -13.122808 20.142866 -1.654701 -15.810912 2.096149 0.258496 0.000000 0.000000 0.000000 
0.538268 0.967988 2.780288 -0.810567 1.947474 0.801512 0.390111 0.286636 3.427919 -2.185796 0.271514 -2.795848 3.979587 10.826071 9.987424 0.000000 0.000000 0.000000 0.074933 0.197762 -1.952592 -0.955757 0.290360 3.974275 -0.423458 -3.618800 6.165658 0.000000 0.000000 0.000000 5.193134 -0.411369 4.056110 -5.040131 1.728506 -28.538981 -3.100129 6.845019 28.784084 10.716917 -6.146010 -13.388732 0.000000 0.000000 0.000000 20.906689 3.187614 1.546457 7.714583 -16.678857 -1.398990 25.161111 -0.384695 -0.732400 0.000000 0.000000 0.000000 -8.165199 -12.058693 -4.089892 -6.807127 18.781133 -1.302858 -18.059094 5.965254 -0.147167 0.000000 0.000000 0.000000 
0.541966 0.966104 2.780094 -0.812634 1.510863 1.723036 -0.010054 0.235250 2.617088 -2.370184 0.292345 -3.177157 4.276591 11.402509 10.612629 0.000000 0.000000 0.000000 -0.375934 0.267021 -2.637190 -0.422090 0.183278 3.245735 -0.162915 -3.181310 6.431289 0.000000 0.000000 0.000000 5.893154 -0.381061 3.186102 -4.950467 1.755499 -26.483190 -3.673118 7.409306 27.944758 11.058836 -5.878930 -15.202129 0.000000 0.000000 0.000000 13.528520 1.158355 1.257442 0.870778 -16.106879 -1.201542 26.380439 -5.967053 -1.907823 0.000000 0.000000 0.000000 0.426298 -10.741919 -4.083200 0.474136 19.005484 -1.305353 -20.208024 9.491531 -0.652924 0.000000 0.000000 0.000000 
0.545507 0.964357 2.781243 -0.579438 1.914182 2.849298 -0.453247 0.165036 1.651815 -2.732178 0.322436 -3.761384 4.324609 11.663006 11.399151 0.000000 0.000000 0.000000 -1.034633 0.424061 -4.331644 -0.142441 0.168138 3.872218 -0.199595 -3.322668 6.698451 0.000000 0.000000 0.000000 6.212761 -0.366400 2.643722 -4.948419 1.750025 -26.591663 -3.871551 7.832832 28.647320 10.813730 -5.190114 -16.945298 0.000000 0.000000 0.000000 4.555552 -2.356175 1.246812 -10.145028 -15.978494 -1.197674 27.918796 -14.231683 -3.864530 0.000000 0.000000 0.000000 9.010508 -8.937856 -3.586151 12.785572 17.942682 -1.379739 -19.827095 14.461627 -1.181330 0.000000 0.000000 0.000000 
0.548299 0.962955 2.784616 -0.542140 1.811603 3.180055 -0.537907 0.096261 0.883468 -3.500590 0.374595 -2.797527 4.543267 11.854754 10.602132 0.000000 0.000000 0.000000 -1.543253 0.438205 -4.554357 0.979915 -0.012358 3.177980 -0.162682 -3.226989 6.633342 0.000000 0.000000 0.000000 6.591547 -0.302554 1.766076 -5.127002 1.848904 -24.269134 -3.389257 8.177969 27.780898 10.568703 -4.666623 -18.110618 0.000000 0.000000 0.000000 -5.337543 -6.389724 1.565255 -23.948204 -15.614667 -1.310360 21.225984 -18.787253 -3.338095 0.000000 0.000000 0.000000 18.136367 -6.747784 -2.576251 27.572107 17.169450 -1.598551 -17.543964 17.508509 -1.143804 0.000000 0.000000 0.000000 
0.550066 0.960144 2.790365 -0.188293 1.158536 3.385919 -0.780367 0.112691 0.977418 -3.520089 0.382370 -3.229453 4.542824 11.720575 10.149614 0.000000 0.000000 0.000000 -2.182552 0.453541 -4.817421 1.704840 -0.088105 4.020326 0.432210 -1.783880 6.131525 0.000000 0.000000 0.000000 6.317053 -0.296719 1.785003 -5.181035 1.890638 -22.786315 -2.775880 8.085656 27.354846 10.426849 -4.102409 -20.583274 0.000000 0.000000 0.000000 -12.702470 -8.669909 1.882015 -38.692120 -12.818157 -2.257606 10.676824 -19.493265 -1.270626 0.000000 0.000000 0.000000 24.281528 -4.255940 -1.252625 41.493258 17.455915 -1.342970 -11.077375 14.410903 -0.247577 0.000000 0.000000 0.000000 
0.551155 0.957206 2.797804 -0.118094 1.824998 3.049635 -1.104267 0.200974 1.768892 -3.275862 0.353450 -2.089709 4.222234 10.871926 8.350872 0.000000 0.000000 0.000000 -1.929849 0.400682 -4.180454 2.099290 -0.140923 4.524010 -0.032287 -2.676063 5.932086 0.000000 0.000000 0.000000 6.428522 -0.266350 1.494212 -5.539582 2.014615 -22.100695 -2.558468 7.692549 28.179474 11.017414 -4.242102 -21.961058 0.000000 0.000000 0.000000 -17.187299 -10.751669 2.534019 -49.635621 -8.836663 -4.260335 3.560264 -16.959168 0.056499 0.000000 0.000000 0.000000 27.807974 -3.112494 -0.413552 52.188430 15.386350 -1.915117 -6.052939 10.402074 0.176360 0.000000 0.000000 0.000000 
0.551624 0.954138 2.805313 -0.196247 1.942602 3.252373 -1.152344 0.246452 2.202055 -2.794166 0.310399 -1.996779 3.951284 10.180746 7.313361 0.000000 0.000000 0.000000 -2.065539 0.355754 -3.636051 2.905310 -0.265367 4.286395 -0.342561 -2.896173 4.725551 0.000000 0.000000 0.000000 6.646374 -0.232052 1.022164 -5.891250 2.127160 -21.403764 -2.249845 7.358319 28.286450 11.233275 -4.287393 -22.620667 0.000000 0.000000 0.000000 -19.125336 -11.649097 2.929637 -54.995403 -5.947207 -5.921635 -0.627924 -13.207479 0.546888 0.000000 0.000000 0.000000 27.719714 -3.147577 -0.523501 59.696647 12.627979 -2.754216 -2.473870 7.641110 0.266034 0.000000 0.000000 0.000000 
0.551596 0.953423 2.811936 -0.252167 2.533120 3.557460 -0.634484 0.228330 2.240012 -3.277167 0.345617 -1.730528 3.452135 9.200846 6.766525 0.000000 0.000000 0.000000 -1.405695 0.374252 -3.802715 2.381845 -0.187364 4.666330 -0.570306 -3.314799 4.563389 0.000000 0.000000 0.000000 6.333322 -0.215598 0.869956 -5.567882 2.047108 -21.515545 -2.332272 6.218820 28.622544 11.086107 -4.315595 -22.724660 0.000000 0.000000 0.000000 -19.563649 -11.391499 2.999888 -55.700137 -3.780256 -7.043855 -1.102476 -11.689997 0.542222 0.000000 0.000000 0.000000 27.313168 -2.389222 -0.280573 60.548133 9.807976 -4.116578 -3.379154 7.726135 0.238663 0.000000 0.000000 0.000000 
0.551154 0.954025 2.816931 -0.475193 2.155939 3.880147 -0.374580 0.199342 2.042120 -3.180198 0.338439 -1.559125 3.355846 9.090619 7.071184 0.000000 0.000000 0.000000 -1.208022 0.359852 -3.605832 2.622643 -0.228495 4.028599 -0.518811 -3.382453 4.994722 0.000000 0.000000 0.000000 6.547559 -0.157267 0.142842 -5.779924 2.094271 -21.444533 -2.096115 6.787595 29.037376 11.273712 -4.578612 -21.813465 0.000000 0.000000 0.000000 -18.431412 -11.847576 3.229563 -54.439953 -3.230406 -7.180987 -1.605078 -11.397881 0.568119 0.000000 0.000000 0.000000 26.407914 -2.813310 -0.463560 59.786041 8.805974 -4.602421 -2.691823 9.140178 0.303067 0.000000 0.000000 0.000000 
0.550511 0.954634 2.820317 -0.723033 1.844488 4.025733 0.019246 0.196275 2.192774 -3.095287 0.333025 -1.577801 3.225515 8.816097 6.964707 0.000000 0.000000 0.000000 -1.034977 0.337753 -3.344959 2.965121 -0.282280 3.376185 -0.418041 -3.335204 5.417124 0.000000 0.000000 0.000000 6.759952 -0.165571 0.148761 -5.694533 2.066029 -21.400754 -2.273897 6.831677 28.887387 11.812965 -4.932854 -21.903403 0.000000 0.000000 0.000000 -17.506847 -11.389749 3.080074 -52.900535 -3.200060 -7.002868 -1.105215 -12.538472 0.568313 0.000000 0.000000 0.000000 25.285501 -2.662431 -0.429241 59.057787 8.873581 -4.478445 -2.992042 10.634143 0.333803 0.000000 0.000000 0.000000 
0.549815 0.954752 2.822155 -0.906833 2.041017 4.221945 0.438397 0.177375 2.196665 -3.156131 0.336804 -1.574280 2.924435 8.240347 6.768276 0.000000 0.000000 0.000000 -0.813576 0.308120 -3.018070 3.370100 -0.346486 2.601955 -0.278615 -2.976418 5.332646 0.000000 0.000000 0.000000 6.692471 -0.150652 -0.038091 -5.800808 2.091460 -21.505427 -1.967511 6.941613 28.856495 11.993255 -4.990106 -22.006706 0.000000 0.000000 0.000000 -16.507019 -11.620297 3.191392 -51.972819 -3.639547 -6.718487 -0.617100 -14.555000 0.589975 0.000000 0.000000 0.000000 25.228704 -2.212711 -0.054114 57.416118 9.320511 -4.296652 -2.985382 12.624787 0.399386 0.000000 0.000000 0.000000 
0.549248 0.955015 2.822700 -0.991884 2.029123 4.292686 0.727659 0.186228 2.464074 -3.383601 0.360454 -2.448605 2.855002 8.280250 7.373331 0.000000 0.000000 0.000000 -0.754560 0.258305 -2.485531 3.777280 -0.405120 1.557985 -0.540575 -3.813146 6.019494 0.000000 0.000000 0.000000 6.623540 -0.163382 0.090035 -5.959210 2.117285 -21.912304 -1.655369 6.894489 28.718884 12.039431 -4.980179 -22.194207 0.000000 0.000000 0.000000 -16.027124 -11.364809 3.096592 -50.882585 -4.912287 -6.053860 -1.254976 -15.883272 0.723390 0.000000 0.000000 0.000000 24.711446 -1.757656 0.196797 56.444548 10.225113 -3.821190 -1.915007 14.838722 0.575636 0.000000 0.000000 0.000000 
0.548798 0.955034 2.822285 -1.088498 1.986278 4.322375 1.033065 0.169745 2.439817 -3.512056 0.372289 -2.817912 2.860940 8.343206 7.576685 0.000000 0.000000 0.000000 -0.652843 0.231721 -2.211656 3.893135 -0.421227 0.972339 -0.723478 -4.224439 6.034066 0.000000 0.000000 0.000000 6.503095 -0.170304 0.185128 -5.732150 2.060410 -21.844034 -1.630581 7.002370 28.426552 12.203447 -5.002039 -22.476292 0.000000 0.000000 0.000000 -15.739835 -11.938494 3.370048 -50.620411 -5.945684 -5.583584 -1.289268 -17.458737 0.794034 0.000000 0.000000 0.000000 24.538518 -0.814214 0.806876 56.041933 11.664539 -3.130617 -0.904685 16.673794 0.773951 0.000000 0.000000 0.000000 
0.548439 0.955344 2.821204 -1.124241 1.740607 4.489148 1.060843 0.149619 2.197336 -3.501638 0.373763 -3.009037 2.952152 8.567727 7.883041 0.000000 0.000000 0.000000 -0.667856 0.216046 -2.042141 3.877043 -0.419128 0.349480 -0.739231 -4.473635 6.602278 0.000000 0.000000 0.000000 6.396649 -0.160182 0.076854 -5.727389 2.051221 -21.953337 -1.354648 7.568584 28.360026 12.230983 -4.819276 -23.072006 0.000000 0.000000 0.000000 -15.219780 -12.434261 3.543175 -50.816742 -7.156013 -5.114642 -1.491389 -19.358355 0.901152 0.000000 0.000000 0.000000 24.980630 -0.441910 1.182378 55.426811 12.990514 -2.573595 0.651244 18.252819 1.077488 0.000000 0.000000 0.000000 
0.548152 0.955310 2.819919 -1.287697 1.519900 4.643336 1.077267 0.126490 1.914455 -3.425014 0.369432 -3.082819 3.122516 8.851535 7.896759 0.000000 0.000000 0.000000 -0.443843 0.211483 -2.022582 3.852118 -0.416248 -0.124951 -1.099236 -5.317806 6.746010 0.000000 0.000000 0.000000 6.414186 -0.167505 0.119282 -5.531307 1.996287 -21.949381 -1.245525 7.946526 28.025812 12.292285 -4.676814 -23.637985 0.000000 0.000000 0.000000 -15.136865 -12.601397 3.563719 -51.159659 -7.791308 -4.848463 -2.099935 -21.143934 1.084940 0.000000 0.000000 0.000000 24.956440 0.118904 1.591710 55.569980 13.997931 -2.057998 1.268713 19.598959 1.272443 0.000000 0.000000 0.000000 
0.547898 0.955554 2.818669 -1.343310 1.324802 4.682517 1.156822 0.108933 1.729801 -3.471280 0.374377 -3.032736 3.158834 8.969302 8.165849 0.000000 0.000000 0.000000 -0.386259 0.211636 -2.033319 3.818339 -0.413197 -0.547877 -1.095284 -5.459940 7.158291 0.000000 0.000000 0.000000 6.326382 -0.173145 0.201703 -5.426405 1.965157 -21.942347 -1.123272 8.055942 27.815220 12.144188 -4.430428 -24.315313 0.000000 0.000000 0.000000 -14.931545 -12.914617 3.722333 -51.723063 -8.487498 -4.600452 -2.573581 -22.428543 1.243725 0.000000 0.000000 0.000000 25.109951 0.549477 1.861966 55.562407 14.643458 -1.741367 1.475956 20.561434 1.386257 0.000000 0.000000 0.000000 
0.547685 0.955456 2.817741 -1.436487 1.583068 4.918902 1.276568 0.082788 1.478735 -3.418462 0.368439 -3.164457 3.073643 8.776945 7.920862 0.000000 0.000000 0.000000 -0.119196 0.205151 -2.000801 3.428742 -0.379697 -1.113303 -1.196055 -5.728402 7.405282 0.000000 0.000000 0.000000 6.235914 -0.180965 0.246727 -5.322996 1.933201 -22.274732 -0.955713 7.777798 27.770409 12.023890 -4.290916 -24.693069 0.000000 0.000000 0.000000 -14.799302 -12.990267 3.789542 -52.474511 -8.915287 -4.490741 -2.764998 -23.153791 1.332892 0.000000 0.000000 0.000000 24.834471 0.683607 1.892436 55.954197 14.716533 -1.643074 1.697368 21.563934 1.518440 0.000000 0.000000 0.000000 
0.547534 0.955754 2.817098 -1.481623 1.603102 4.916915 1.307012 0.077981 1.433021 -3.294445 0.358837 -3.120626 2.879061 8.493984 8.119177 0.000000 0.000000 0.000000 -0.076433 0.199242 -1.947465 3.366782 -0.377607 -1.506128 -1.336765 -6.118200 7.715826 0.000000 0.000000 0.000000 6.268083 -0.179938 0.226856 -5.281913 1.921903 -22.316557 -0.870122 7.946225 27.741258 11.897606 -4.147929 -24.854817 0.000000 0.000000 0.000000 -14.802600 -13.136612 3.815959 -52.710659 -9.215645 -4.373517 -3.040538 -23.691335 1.414508 0.000000 0.000000 0.000000 24.966011 0.541302 1.872768 56.064587 14.554325 -1.731071 1.735464 22.687574 1.649745 0.000000 0.000000 0.000000 
0.547509 0.955896 2.816693 -1.506912 1.611576 4.866926 1.357425 0.071060 1.368052 -3.084562 0.342455 -3.068504 3.049172 8.780362 8.085731 0.000000 0.000000 0.000000 0.046394 0.194524 -1.918562 3.038578 -0.349305 -1.723292 -1.503797 -6.589738 8.135758 0.000000 0.000000 0.000000 6.222699 -0.185858 0.313772 -5.261808 1.913398 -22.465513 -0.739316 7.785289 27.856784 11.844738 -4.103540 -25.037142 0.000000 0.000000 0.000000 -14.740350 -13.274539 3.921210 -53.229492 -9.252627 -4.414519 -2.992784 -23.899725 1.429024 0.000000 0.000000 0.000000 24.769637 0.342226 1.700215 56.473824 14.203963 -1.867664 1.801585 23.618868 1.769878 0.000000 0.000000 0.000000 
0.547563 0.956054 2.816556 -1.591362 1.233914 4.696789 1.321836 0.084019 1.495786 -2.831874 0.326634 -3.206645 3.109069 8.923916 8.349186 0.000000 0.000000 0.000000 0.059782 0.202078 -2.000916 2.913188 -0.334265 -1.632310 -1.564967 -6.805858 8.316561 0.000000 0.000000 0.000000 6.345605 -0.185408 0.324367 -5.304541 1.922399 -22.325441 -0.715770 7.875442 27.762254 11.779291 -4.069032 -25.095231 0.000000 0.000000 0.000000 -14.743463 -13.346012 3.989113 -53.541884 -8.823465 -4.622436 -3.683546 -23.780201 1.572099 0.000000 0.000000 0.000000 24.739752 0.444443 1.703458 56.674683 13.677690 -2.084146 2.058389 24.654913 1.925865 0.000000 0.000000 0.000000 
0.547647 0.956317 2.816745 -1.641565 0.820049 4.737586 1.111811 0.103433 1.623457 -2.661946 0.320767 -3.671373 3.365660 9.399241 8.617939 0.000000 0.000000 0.000000 0.100001 0.209228 -2.084425 2.780276 -0.322105 -1.820580 -1.559116 -6.938824 8.678783 0.000000 0.000000 0.000000 6.308563 -0.163793 0.114539 -5.157233 1.879332 -22.302900 -0.633836 7.743313 27.760332 11.390836 -3.872583 -25.186234 0.000000 0.000000 0.000000 -14.717557 -13.255519 4.039291 -54.115163 -8.501911 -4.826526 -3.748574 -23.551756 1.592450 0.000000 0.000000 0.000000 24.679603 0.532108 1.625762 57.086025 13.179167 -2.277116 1.965393 25.393443 1.983441 0.000000 0.000000 0.000000 
0.547604 0.956362 2.817164 -1.678991 0.368992 4.589734 0.994308 0.143462 2.037373 -2.356537 0.307329 -4.161235 3.480070 9.586477 8.715792 0.000000 0.000000 0.000000 0.092010 0.206734 -2.066529 2.738776 -0.314881 -1.771047 -1.554710 -7.026365 8.857211 0.000000 0.000000 0.000000 6.307607 -0.165120 0.174988 -4.947539 1.816132 -22.382092 -0.727841 7.739352 27.700571 11.266295 -3.924840 -24.747166 0.000000 0.000000 0.000000 -14.824023 -13.132451 4.044506 -54.313236 -7.940537 -5.095731 -4.205010 -23.309698 1.680704 0.000000 0.000000 0.000000 24.671493 0.640608 1.589549 57.200318 12.706721 -2.480338 2.104870 25.919885 2.059080 0.000000 0.000000 0.000000 
0.547423 0.956366 2.817533 -1.545692 0.353482 4.665481 0.904677 0.158884 2.178693 -2.434370 0.321613 -4.864569 3.723212 10.127984 9.319220 0.000000 0.000000 0.000000 0.064814 0.195420 -1.951700 2.558946 -0.303225 -2.044241 -1.345935 -6.579671 8.779100 0.000000 0.000000 0.000000 6.064790 -0.148550 0.049187 -4.766779 1.775750 -22.120608 -1.003534 7.473406 27.413846 10.984198 -3.799765 -24.663103 0.000000 0.000000 0.000000 -14.813931 -12.526602 3.801682 -54.622718 -7.432023 -5.331747 -4.805592 -23.597069 1.834934 0.000000 0.000000 0.000000 25.056809 0.403851 1.361036 57.426536 12.134704 -2.728412 2.321599 26.787383 2.205168 0.000000 0.000000 0.000000 
0.547045 0.956127 2.817559 -1.477333 0.655342 4.732905 1.043724 0.134688 1.968573 -2.664923 0.335232 -4.947005 3.822383 10.319718 9.335835 0.000000 0.000000 0.000000 -0.195949 0.189997 -1.848759 2.822664 -0.331121 -2.243232 -1.562017 -7.044924 8.973321 0.000000 0.000000 0.000000 5.887741 -0.125118 -0.179903 -4.815947 1.793015 -22.168719 -1.128485 7.121723 27.551064 10.930472 -3.808044 -24.659082 0.000000 0.000000 0.000000 -15.292203 -12.661606 3.896117 -53.936549 -7.090074 -5.414973 -4.594206 -23.582386 1.794411 0.000000 0.000000 0.000000 25.362770 0.547748 1.410347 57.673064 11.849989 -2.882148 2.152737 26.679500 2.150934 0.000000 0.000000 0.000000 
0.546696 0.956252 2.816993 -1.393556 0.904349 4.263712 1.243003 0.147964 2.236203 -2.773459 0.339348 -4.800376 3.824705 10.374137 9.485355 0.000000 0.000000 0.000000 -0.290806 0.181405 -1.745777 2.774355 -0.323465 -1.879116 -1.677902 -7.212405 8.825602 0.000000 0.000000 0.000000 5.653362 -0.155079 0.298232 -4.609013 1.752493 -22.012562 -1.157254 6.578129 27.530042 10.702575 -3.809295 -24.280542 0.000000 0.000000 0.000000 -16.098064 -11.913667 3.586381 -53.718716 -6.825478 -5.501264 -5.195165 -24.031231 1.974152 0.000000 0.000000 0.000000 25.419739 0.686815 1.373299 57.345350 11.508192 -3.044563 2.652040 28.010562 2.395523 0.000000 0.000000 0.000000 
0.546349 0.956751 2.815961 -1.679983 0.456216 4.341809 1.215179 0.102590 1.638254 -2.393582 0.307419 -4.004877 4.016574 10.651477 9.430374 0.000000 0.000000 0.000000 -0.122610 0.211461 -2.079130 3.435750 -0.379141 -1.829319 -1.895163 -7.551766 8.289650 0.000000 0.000000 0.000000 5.834640 -0.159151 0.281311 -4.706066 1.777809 -21.418944 -1.230442 7.240214 26.854022 11.036459 -3.908918 -24.341956 0.000000 0.000000 0.000000 -15.339041 -11.724558 3.405303 -54.629874 -6.766968 -5.565977 -5.371187 -24.756729 2.052284 0.000000 0.000000 0.000000 25.326849 0.811658 1.551701 58.136888 12.524721 -2.454961 1.158990 26.349470 1.898966 0.000000 0.000000 0.000000 
0.546041 0.957382 2.814757 -1.408285 1.058688 3.822944 1.249551 0.118091 1.853961 -2.674398 0.321096 -3.663894 3.599674 10.254574 10.598122 0.000000 0.000000 0.000000 -0.344065 0.138787 -1.303615 3.553557 -0.397846 -2.124648 -1.721254 -7.281783 8.812239 0.000000 0.000000 0.000000 5.773952 -0.196562 0.803506 -4.936007 1.855854 -21.382817 -1.091077 6.760652 27.046637 10.975506 -3.959238 -24.076297 0.000000 0.000000 0.000000 -15.892954 -11.896091 3.492227 -53.896899 -7.312852 -5.253379 -6.012950 -23.571752 2.084433 0.000000 0.000000 0.000000 25.155287 0.935433 1.619125 58.138876 13.503744 -2.004660 1.066517 25.786703 1.825402 0.000000 0.000000 0.000000 
