HIERARCHY
ROOT Hips
{
	OFFSET -0.001795 -0.223333 0.028219
	CHANNELS 6 Xposition Yposition Zposition Zrotation Yrotation Xrotation 
	JOINT LeftUpLeg
	{
		OFFSET 0.069520 -0.091406 -0.006815
		CHANNELS 3 Zrotation Yrotation Xrotation
		JOINT LeftLeg
		{
			OFFSET 0.034277 -0.375199 -0.004496
			CHANNELS 3 Zrotation Yrotation Xrotation
			JOINT LeftFoot
			{
				OFFSET -0.013596 -0.397961 -0.043693
				CHANNELS 3 Zrotation Yrotation Xrotation
				JOINT LeftToe
				{
					OFFSET 0.026358 -0.055791 0.119288
					CHANNELS 3 Zrotation Yrotation Xrotation
					End Site
					{
						OFFSET 0.000000 0.000000 0.000000
					}
				}
			}
		}
	}
	JOINT RightUpLeg
	{
		OFFSET -0.067670 -0.090522 -0.004320
		CHANNELS 3 Zrotation Yrotation Xrotation
		JOINT RightLeg
		{
			OFFSET -0.038290 -0.382569 -0.008850
			CHANNELS 3 Zrotation Yrotation Xrotation
			JOINT RightFoot
			{
				OFFSET 0.015774 -0.398415 -0.042312
				CHANNELS 3 Zrotation Yrotation Xrotation
				JOINT RightToe
				{
					OFFSET -0.025372 -0.048144 0.123348
					CHANNELS 3 Zrotation Yrotation Xrotation
					End Site
					{
						OFFSET 0.000000 0.000000 0.000000
					}
				}
			}
		}
	}
	JOINT Spine
	{
		OFFSET -0.002533 0.108963 -0.026696
		CHANNELS 3 Zrotation Yrotation Xrotation
		JOINT Spine1
		{
			OFFSET 0.005487 0.135180 0.001092
			CHANNELS 3 Zrotation Yrotation Xrotation
			JOINT Spine2
			{
				OFFSET 0.001457 0.052922 0.025425
				CHANNELS 3 Zrotation Yrotation Xrotation
				JOINT Neck
				{
					OFFSET -0.002778 0.213870 -0.042857
					CHANNELS 3 Zrotation Yrotation Xrotation
					JOINT Head
					{
						OFFSET 0.005152 0.064970 0.051349
						CHANNELS 3 Zrotation Yrotation Xrotation
						End Site
						{
							OFFSET 0.000000 0.000000 0.000000
						}
					}
				}
				JOINT LeftShoulder
				{
					OFFSET 0.078845 0.121749 -0.034090
					CHANNELS 3 Zrotation Yrotation Xrotation
					JOINT LeftArm
					{
						OFFSET 0.090977 0.030469 -0.008868
						CHANNELS 3 Zrotation Yrotation Xrotation
						JOINT LeftForeArm
						{
							OFFSET 0.259612 -0.012772 -0.027456
							CHANNELS 3 Zrotation Yrotation Xrotation
							JOINT LeftHand
							{
								OFFSET 0.249234 0.008986 -0.001171
								CHANNELS 3 Zrotation Yrotation Xrotation
								End Site
								{
									OFFSET 0.000000 0.000000 0.000000
								}
							}
						}
					}
				}
				JOINT RightShoulder
				{
					OFFSET -0.081759 0.118833 -0.038615
					CHANNELS 3 Zrotation Yrotation Xrotation
					JOINT RightArm
					{
						OFFSET -0.096012 0.032551 -0.009143
						CHANNELS 3 Zrotation Yrotation Xrotation
						JOINT RightForeArm
						{
							OFFSET -0.253742 -0.013329 -0.021401
							CHANNELS 3 Zrotation Yrotation Xrotation
							JOINT RightHand
							{
								OFFSET -0.255298 0.007772 -0.005559
								CHANNELS 3 Zrotation Yrotation Xrotation
								End Site
								{
									OFFSET 0.000000 0.000000 0.000000
								}
							}
						}
					}
				}
			}
		}
	}
}
MOTION
Frames: 144
Frame Time: 0.050000
0.000000 0.925770 0.000000 1.575172 -7.414793 -1.936022 8.862690 0.084764 -2.033766 -4.493781 0.640581 4.896739 3.472297 8.429000 5.298276 0.000000 0.000000 0.000000 -10.216578 0.447241 -4.608139 5.564301 -0.473522 11.118186 -5.495202 -14.177385 3.284890 0.000000 0.000000 0.000000 1.239777 -0.579345 13.755285 6.128155 -1.793659 -15.178102 3.545768 4.314279 24.332342 0.354016 1.104119 -20.519224 0.000000 0.000000 0.000000 -26.397693 -6.232729 2.302805 -43.639880 -5.929104 -4.972400 -19.682405 -34.842528 7.955521 0.000000 0.000000 0.000000 23.164163 15.827292 7.699408 46.946783 15.830506 -0.483285 -7.567714 24.722152 -0.522914 0.000000 0.000000 0.000000 
0.000448 0.925995 -0.001094 1.319508 -7.722049 -1.564330 9.153001 0.100681 -1.611177 -3.976231 0.543859 4.133128 2.295447 6.023127 4.539946 0.000000 0.000000 0.000000 -9.785066 0.465133 -5.139235 5.651663 -0.480092 11.286490 -5.774628 -14.997371 4.273428 0.000000 0.000000 0.000000 1.370025 -0.603167 14.065094 6.154825 -1.748613 -15.816307 4.355770 3.967590 23.805593 1.043406 0.506243 -19.411450 0.000000 0.000000 0.000000 -27.146078 -6.183340 2.450911 -43.982418 -4.415168 -5.533329 -18.216058 -34.532043 7.451536 0.000000 0.000000 0.000000 22.898204 16.992747 8.156107 47.963553 14.937979 -0.675654 -8.631717 26.220825 -0.799637 0.000000 0.000000 0.000000 
0.000756 0.925710 -0.001780 1.354326 -6.268785 -1.584757 9.562864 0.073804 -2.018829 -4.124803 0.559449 5.021491 2.235513 5.749237 3.636622 0.000000 0.000000 0.000000 -10.232597 0.429349 -5.218379 6.240078 -0.631687 11.689389 -6.135789 -15.896082 5.141303 0.000000 0.000000 0.000000 1.138734 -0.594469 13.920773 7.137057 -2.015513 -15.965470 3.515870 3.251546 23.796219 0.824062 0.746672 -20.814877 0.000000 0.000000 0.000000 -27.668226 -5.617408 2.043850 -43.689041 -5.242869 -5.247981 -18.105459 -32.700704 6.992143 0.000000 0.000000 0.000000 22.199831 16.656970 7.958331 47.004574 15.576273 -0.491045 -8.074245 26.781544 -0.704495 0.000000 0.000000 0.000000 
0.001136 0.927042 -0.001974 1.576862 -6.579963 -1.932931 9.664832 0.099450 -1.394621 -4.214697 0.576699 4.786303 1.533763 4.522615 4.221236 0.000000 0.000000 0.000000 -10.373329 0.433525 -5.604183 5.998411 -0.571722 12.525702 -6.224873 -16.285355 6.335577 0.000000 0.000000 0.000000 0.158678 -0.477992 14.519284 8.145397 -2.360764 -15.768825 3.874002 3.774754 23.300561 0.940104 0.708479 -20.383348 0.000000 0.000000 0.000000 -27.573687 -5.798867 2.001095 -43.439962 -3.952794 -5.559715 -20.126679 -34.215890 7.951528 0.000000 0.000000 0.000000 22.431731 17.012861 8.266620 46.693651 14.951943 -0.703724 -9.178309 29.319692 -1.031633 0.000000 0.000000 0.000000 
0.001563 0.927085 -0.001713 1.566202 -5.755670 -2.220134 9.591669 0.083264 -1.290180 -3.954517 0.520234 4.743365 1.212531 3.797804 3.756364 0.000000 0.000000 0.000000 -10.509265 0.395894 -4.977406 5.994037 -0.600267 12.268284 -6.045235 -15.963929 6.715889 0.000000 0.000000 0.000000 0.429199 -0.535854 14.836492 8.217957 -2.420721 -15.315699 3.831515 3.869816 22.790094 0.915144 0.876036 -21.292164 0.000000 0.000000 0.000000 -26.882993 -5.815064 1.773990 -44.685066 -4.083981 -5.536715 -20.749606 -35.251629 8.400834 0.000000 0.000000 0.000000 22.364782 16.309737 8.014957 45.620445 15.272007 -0.595616 -9.886808 31.797251 -1.293392 0.000000 0.000000 0.000000 
0.002345 0.927381 -0.000986 1.682174 -4.966453 -2.302253 9.601680 0.066937 -1.005927 -3.884795 0.492848 4.100300 0.615075 2.805111 4.208138 0.000000 0.000000 0.000000 -10.809694 0.367895 -4.878403 5.953882 -0.618621 12.697988 -5.641614 -15.157730 6.819727 0.000000 0.000000 0.000000 0.202165 -0.533500 15.307189 8.651154 -2.478987 -15.961568 4.110171 4.526120 22.939681 1.664700 0.577023 -21.305143 0.000000 0.000000 0.000000 -27.335872 -6.404014 1.714045 -44.932785 -3.844926 -5.541798 -21.591110 -35.815177 8.738853 0.000000 0.000000 0.000000 21.856823 16.160223 8.233863 44.701665 16.357530 -0.342285 -12.563430 32.639611 -1.979230 0.000000 0.000000 0.000000 
0.003605 0.927529 -0.000026 1.777872 -3.952803 -2.251863 9.322130 0.033209 -1.092228 -3.800241 0.464749 3.616877 0.262563 2.247205 4.439164 0.000000 0.000000 0.000000 -11.197272 0.334374 -4.736453 6.340350 -0.735895 13.120023 -5.574285 -14.956978 6.656034 0.000000 0.000000 0.000000 0.557486 -0.607852 15.506935 8.563137 -2.405708 -16.193562 4.178020 4.781892 22.788607 2.499872 0.173550 -21.280088 0.000000 0.000000 0.000000 -27.668859 -6.394035 1.364147 -45.343205 -3.500832 -5.606176 -22.798288 -36.979776 9.411264 0.000000 0.000000 0.000000 21.832673 16.482359 8.679250 42.806260 18.725973 0.349331 -15.189744 30.200692 -2.436119 0.000000 0.000000 0.000000 
0.005338 0.927649 0.000826 1.739864 -3.183258 -2.155744 9.185060 0.008734 -1.151496 -3.417888 0.397659 3.576012 -0.175175 1.423941 4.406907 0.000000 0.000000 0.000000 -11.333459 0.310556 -4.676236 6.342485 -0.767319 13.430708 -5.755547 -15.323069 6.878206 0.000000 0.000000 0.000000 0.809067 -0.676439 15.968359 8.576889 -2.348521 -16.621633 4.735654 5.730754 22.687164 2.948748 0.128138 -21.521233 0.000000 0.000000 0.000000 -28.507801 -6.653600 0.920382 -45.263291 -3.017635 -5.576989 -25.162105 -38.619760 10.593043 0.000000 0.000000 0.000000 21.696900 17.288789 9.535913 39.840741 21.664401 1.041631 -17.579893 24.284157 -2.328377 0.000000 0.000000 0.000000 
0.007040 0.927630 0.001409 1.979416 -2.199945 -2.144508 8.585607 -0.022481 -1.160425 -3.179326 0.352725 3.398862 -0.431161 0.896688 4.210717 0.000000 0.000000 0.000000 -11.590212 0.275290 -4.651067 6.265004 -0.788288 13.502923 -6.075745 -15.953982 7.105996 0.000000 0.000000 0.000000 1.234780 -0.763491 16.112508 8.308104 -2.217846 -16.905908 5.421652 6.366838 22.558900 3.373215 0.078605 -21.873272 0.000000 0.000000 0.000000 -28.447690 -6.805926 0.535741 -45.755055 -2.239085 -5.753612 -27.943634 -40.283851 12.033613 0.000000 0.000000 0.000000 21.756073 18.019627 10.314988 36.781926 24.387754 1.527143 -18.232434 17.587290 -1.643637 0.000000 0.000000 0.000000 
0.008352 0.927620 0.001800 2.110819 -1.219976 -2.287467 8.154205 -0.049070 -1.362232 -2.812939 0.288640 3.627049 -0.877350 -0.044393 3.937989 0.000000 0.000000 0.000000 -11.775375 0.235075 -4.516732 6.353273 -0.849240 13.816523 -6.604410 -17.035946 7.910702 0.000000 0.000000 0.000000 1.350986 -0.827745 16.681484 8.410643 -2.215623 -17.079901 5.954839 7.405762 22.333865 3.942128 0.029113 -22.392623 0.000000 0.000000 0.000000 -28.757377 -7.246049 0.122858 -45.362448 -1.837880 -5.609825 -31.605959 -42.007427 13.856935 0.000000 0.000000 0.000000 21.723043 18.419294 11.001232 33.454342 25.799444 1.470876 -18.391519 12.355417 -1.005143 0.000000 0.000000 0.000000 
0.009193 0.927365 0.002179 2.256852 -0.013051 -2.069028 7.856083 -0.090095 -1.814841 -2.600954 0.247741 3.600599 -1.369615 -1.203629 3.416290 0.000000 0.000000 0.000000 -12.167463 0.190618 -4.486817 6.699115 -0.979957 13.954709 -6.880923 -17.514744 7.766739 0.000000 0.000000 0.000000 1.716549 -0.918049 16.796702 8.091944 -2.052280 -17.436358 6.537533 7.811351 22.278328 4.387059 -0.071420 -22.490201 0.000000 0.000000 0.000000 -28.262475 -7.157650 -0.332420 -45.412487 -1.325956 -5.669652 -36.063286 -42.964867 15.907162 0.000000 0.000000 0.000000 21.226798 18.611638 11.321442 31.771857 26.610905 1.441171 -18.126046 7.793746 -0.398673 0.000000 0.000000 0.000000 
0.009854 0.926674 0.002670 2.242891 1.189703 -1.929483 8.186465 -0.121159 -2.162719 -2.941154 0.286495 3.451903 -1.812259 -1.885015 3.708231 0.000000 0.000000 0.000000 -12.359643 0.146745 -4.271000 6.949127 -1.092005 14.034917 -7.657280 -18.999710 8.490175 0.000000 0.000000 0.000000 1.936252 -0.983379 16.806609 8.133022 -2.019002 -17.638593 6.760618 8.090798 21.938450 5.061763 -0.381231 -22.171684 0.000000 0.000000 0.000000 -28.319150 -7.326353 -0.645723 -44.819041 -0.819657 -5.608166 -39.753549 -43.954479 17.738713 0.000000 0.000000 0.000000 20.714126 18.517331 11.421989 30.333752 26.283806 1.176137 -17.374005 4.954092 -0.019771 0.000000 0.000000 0.000000 
0.010535 0.926160 0.003129 2.368819 1.782075 -1.675088 8.116414 -0.147533 -2.611800 -2.955016 0.281544 3.590240 -2.104454 -2.559089 3.481961 0.000000 0.000000 0.000000 -12.657919 0.124100 -4.261815 7.278621 -1.200284 14.165188 -8.001323 -19.637496 8.380691 0.000000 0.000000 0.000000 2.201593 -1.032418 16.695298 7.801949 -1.872395 -17.923291 7.153256 8.252609 22.137085 5.330385 -0.521652 -21.825983 0.000000 0.000000 0.000000 -28.237253 -7.386173 -0.797580 -44.189105 -0.190152 -5.688642 -42.823383 -44.654394 19.339286 0.000000 0.000000 0.000000 20.008319 18.291059 11.268824 29.921091 25.711980 0.989819 -16.940382 3.127587 0.215715 0.000000 0.000000 0.000000 
0.011279 0.925732 0.003509 2.383367 2.348080 -1.330986 8.229046 -0.172322 -2.983647 -3.157566 0.305766 3.341170 -2.238386 -2.806808 3.473195 0.000000 0.000000 0.000000 -12.699554 0.112032 -4.184257 7.400146 -1.247304 13.908663 -8.441750 -20.462372 8.414855 0.000000 0.000000 0.000000 2.541940 -1.078941 16.381386 7.828377 -1.869402 -17.849825 7.287749 8.393916 21.904090 5.219980 -0.354380 -22.039221 0.000000 0.000000 0.000000 -28.359158 -7.517059 -0.940434 -43.717762 0.319511 -5.696599 -44.528615 -45.748069 20.555727 0.000000 0.000000 0.000000 19.606765 18.314589 11.314257 29.374405 24.649948 0.702687 -16.331707 2.636886 0.269854 0.000000 0.000000 0.000000 
0.012046 0.925840 0.003768 2.326066 2.136100 -1.286370 8.461416 -0.164242 -2.843745 -3.235459 0.319176 3.212487 -2.231722 -2.781060 3.514453 0.000000 0.000000 0.000000 -12.814783 0.118295 -4.219313 7.412332 -1.238220 13.822276 -8.358128 -20.306356 8.607501 0.000000 0.000000 0.000000 2.900768 -1.119857 16.261162 7.578367 -1.803844 -17.783029 7.398472 8.347019 21.923890 5.509299 -0.607558 -21.686190 0.000000 0.000000 0.000000 -28.515561 -7.336324 -1.006969 -43.344844 0.751672 -5.800294 -44.397126 -45.339037 20.319823 0.000000 0.000000 0.000000 19.558021 18.147628 11.167610 29.292412 23.900766 0.531711 -16.247323 3.241802 0.194761 0.000000 0.000000 0.000000 
0.012652 0.926063 0.004002 2.327530 1.857920 -1.206321 8.581648 -0.160149 -2.918718 -3.495451 0.356195 3.302796 -1.998406 -2.365273 3.443750 0.000000 0.000000 0.000000 -12.922124 0.130267 -4.159109 7.398180 -1.216988 13.649348 -8.300049 -20.204891 8.684099 0.000000 0.000000 0.000000 3.014271 -1.107267 15.936252 7.610767 -1.824690 -17.717146 7.521948 8.128900 22.083596 5.490675 -0.779889 -20.774971 0.000000 0.000000 0.000000 -28.476889 -7.303163 -0.859100 -43.410936 1.064635 -5.975750 -42.788405 -45.296327 19.631253 0.000000 0.000000 0.000000 19.417864 17.913341 10.916882 29.248990 23.054793 0.342391 -16.068982 4.750813 0.013574 0.000000 0.000000 0.000000 
0.012959 0.926508 0.004326 2.154994 1.135460 -1.184728 8.850532 -0.137956 -2.616208 -3.413499 0.352734 3.195895 -1.685444 -1.679931 3.625192 0.000000 0.000000 0.000000 -12.888730 0.161160 -4.163333 7.312956 -1.154926 13.270395 -8.000682 -19.662639 8.946826 0.000000 0.000000 0.000000 3.251828 -1.087588 15.394543 7.989098 -1.998145 -17.296842 7.145904 7.760809 22.056433 5.606790 -1.132928 -19.616871 0.000000 0.000000 0.000000 -28.608725 -7.119179 -0.670591 -43.505248 1.301131 -6.161054 -39.576613 -44.845373 18.102668 0.000000 0.000000 0.000000 19.445078 17.758624 10.633811 29.806113 22.526742 0.305653 -16.162305 7.412094 -0.297959 0.000000 0.000000 0.000000 
0.012965 0.926826 0.004721 2.123721 0.180800 -1.026491 9.156680 -0.112620 -2.337515 -3.717430 0.404394 3.034563 -1.179714 -0.717140 3.632192 0.000000 0.000000 0.000000 -12.891362 0.204402 -4.179335 7.152842 -1.067546 12.815955 -7.582962 -18.900593 8.519602 0.000000 0.000000 0.000000 3.454077 -1.072947 15.044074 8.059552 -2.038478 -17.281062 7.110483 7.384773 22.029079 5.425237 -1.295980 -18.585274 0.000000 0.000000 0.000000 -28.386948 -6.677499 -0.534412 -43.694256 1.718482 -6.454273 -35.891503 -44.655252 16.530932 0.000000 0.000000 0.000000 19.690155 17.184158 10.116994 31.021431 21.917416 0.298246 -15.722420 10.419649 -0.612965 0.000000 0.000000 0.000000 
0.012719 0.927171 0.005039 2.005795 -0.943912 -1.165886 9.333104 -0.075050 -1.864959 -3.641858 0.406192 2.973746 -0.879417 -0.036215 3.941880 0.000000 0.000000 0.000000 -12.751462 0.248762 -4.024096 7.034110 -0.991365 12.547936 -7.569736 -18.923686 8.636954 0.000000 0.000000 0.000000 3.436105 -1.033363 14.859015 8.438846 -2.206704 -17.013733 6.930221 6.904103 21.821373 5.022680 -1.261334 -18.077998 0.000000 0.000000 0.000000 -28.646748 -6.546779 -0.171346 -43.663525 1.633996 -6.544710 -32.273771 -44.669096 15.129183 0.000000 0.000000 0.000000 19.974970 16.961545 9.723723 32.880831 21.007913 0.282129 -15.956716 13.509022 -0.958219 0.000000 0.000000 0.000000 
0.012476 0.927339 0.005130 1.927945 -1.918870 -1.123713 9.529992 -0.045875 -1.517378 -3.650713 0.417642 2.649587 -0.504096 0.700914 4.053935 0.000000 0.000000 0.000000 -12.813740 0.288659 -3.950665 6.973247 -0.932641 12.038482 -7.293214 -18.427516 8.447478 0.000000 0.000000 0.000000 3.719464 -1.036157 14.609635 8.608985 -2.274786 -17.033875 6.571956 6.220069 21.731223 4.475764 -1.175536 -17.268978 0.000000 0.000000 0.000000 -28.376306 -6.092384 0.077052 -44.142299 1.163111 -6.622195 -29.223296 -43.845148 13.707840 0.000000 0.000000 0.000000 20.336679 16.441657 9.144696 34.892945 19.880835 0.192805 -15.338942 16.059749 -1.164301 0.000000 0.000000 0.000000 
0.012196 0.927146 0.004947 1.975977 -2.822644 -1.172159 9.423871 -0.020319 -1.247506 -3.549304 0.412564 2.554310 -0.342559 0.979300 4.070099 0.000000 0.000000 0.000000 -12.958409 0.319986 -4.150157 6.951067 -0.896466 12.160471 -7.233042 -18.358560 8.600877 0.000000 0.000000 0.000000 3.631987 -1.006781 14.614263 8.824332 -2.355292 -17.073574 6.521104 5.718986 21.752484 3.922504 -1.031576 -16.534047 0.000000 0.000000 0.000000 -28.192533 -5.936119 0.413954 -44.145504 -0.008186 -6.357420 -26.482884 -43.040976 12.429262 0.000000 0.000000 0.000000 20.395563 15.896799 8.557013 37.043123 18.319864 -0.067572 -14.943578 18.048648 -1.307876 0.000000 0.000000 0.000000 
0.012023 0.927037 0.004523 2.096656 -3.686394 -1.273079 9.365051 0.005567 -1.069755 -3.518088 0.417022 2.566653 -0.307206 1.095683 4.303836 0.000000 0.000000 0.000000 -13.153993 0.347205 -4.413236 6.981113 -0.873568 12.383090 -7.027499 -17.977429 8.244681 0.000000 0.000000 0.000000 3.645628 -0.979845 14.468373 9.064116 -2.465116 -16.881238 6.195195 5.032006 21.784341 3.449563 -0.912686 -16.178326 0.000000 0.000000 0.000000 -27.791527 -5.422271 0.594208 -44.619025 -1.179534 -6.186133 -24.675430 -42.268117 11.620185 0.000000 0.000000 0.000000 20.488197 15.417630 7.954352 38.721154 16.929219 -0.329343 -14.007482 19.530939 -1.328820 0.000000 0.000000 0.000000 
0.011805 0.926779 0.003832 2.195289 -4.460213 -1.392259 9.441110 0.033028 -0.758689 -3.638644 0.441505 2.212724 -0.475683 0.859622 4.656325 0.000000 0.000000 0.000000 -13.471704 0.372372 -4.576877 7.231223 -0.896625 12.478638 -6.950926 -17.863653 8.260643 0.000000 0.000000 0.000000 3.655599 -0.972056 14.597652 9.211947 -2.535780 -16.800007 6.083303 4.737595 21.767630 3.083018 -0.759550 -16.154693 0.000000 0.000000 0.000000 -27.793937 -5.123436 0.691239 -45.009077 -1.898983 -6.077086 -23.583063 -42.058191 11.219497 0.000000 0.000000 0.000000 20.532927 14.819781 7.401502 39.704513 15.486326 -0.686716 -13.395135 20.615264 -1.338344 0.000000 0.000000 0.000000 
0.011481 0.926524 0.003040 2.348596 -5.344558 -1.536757 9.515512 0.064910 -0.426902 -3.829713 0.477163 1.986874 -0.782481 0.322501 4.941857 0.000000 0.000000 0.000000 -13.619405 0.398136 -4.979235 7.320164 -0.885582 12.985375 -6.862575 -17.683861 7.832118 0.000000 0.000000 0.000000 3.677569 -0.970520 14.877858 9.247143 -2.575268 -16.696297 5.873089 4.441571 21.596118 3.048148 -0.761184 -16.937158 0.000000 0.000000 0.000000 -27.939569 -4.485782 0.576969 -45.331329 -2.586992 -5.956351 -22.955964 -41.651252 10.955222 0.000000 0.000000 0.000000 20.834026 14.443782 6.969371 39.643733 14.496835 -0.918556 -12.704800 21.597596 -1.332357 0.000000 0.000000 0.000000 
0.011050 0.926155 0.002116 2.465587 -6.323112 -1.736045 9.470117 0.100705 0.005589 -3.844158 0.488014 1.625125 -0.869325 0.142580 5.061767 0.000000 0.000000 0.000000 -13.689654 0.430291 -5.143616 7.424598 -0.868187 12.990908 -6.776089 -17.535441 7.690241 0.000000 0.000000 0.000000 3.700266 -0.957762 15.034708 9.220738 -2.567219 -16.842323 5.716535 4.195935 21.858489 2.764722 -0.631274 -17.451298 0.000000 0.000000 0.000000 -28.166499 -3.840638 0.477709 -45.717499 -2.724242 -6.078072 -23.293201 -41.239683 11.095746 0.000000 0.000000 0.000000 20.727246 14.061009 6.504005 39.282288 14.002167 -1.030738 -12.599034 22.181346 -1.387315 0.000000 0.000000 0.000000 
0.010684 0.925937 0.001016 2.548719 -7.344611 -1.876716 9.589024 0.138978 0.380067 -3.941425 0.510144 1.204751 -1.136999 -0.375509 5.224834 0.000000 0.000000 0.000000 -13.779669 0.461253 -5.618413 7.437276 -0.831334 13.178995 -6.570567 -17.161501 7.526803 0.000000 0.000000 0.000000 3.867671 -0.958572 15.087069 9.036915 -2.537675 -16.773839 5.564778 4.010952 21.849424 3.419767 -1.131501 -17.873202 0.000000 0.000000 0.000000 -28.324056 -3.333800 0.442566 -46.461595 -2.866404 -6.204217 -23.728162 -40.661896 11.213974 0.000000 0.000000 0.000000 20.655016 13.687557 6.050908 38.551146 13.996861 -0.972594 -12.844038 22.832827 -1.514194 0.000000 0.000000 0.000000 
0.010434 0.925800 -0.000532 2.584256 -8.412986 -2.109815 9.530078 0.179941 0.858206 -3.863062 0.507971 0.906889 -1.199780 -0.520996 5.338270 0.000000 0.000000 0.000000 -13.792938 0.495181 -5.861448 7.324338 -0.767087 13.272569 -6.294924 -16.724925 7.823748 0.000000 0.000000 0.000000 4.183309 -0.981820 15.254049 9.048720 -2.542489 -16.949569 5.244161 3.942661 22.179369 3.920760 -1.458006 -18.819295 0.000000 0.000000 0.000000 -28.420546 -3.166965 0.610832 -47.236074 -3.001635 -6.360358 -23.598524 -39.208793 10.829667 0.000000 0.000000 0.000000 20.366662 13.659204 5.823317 37.323736 14.926566 -0.687867 -13.682451 23.080782 -1.721250 0.000000 0.000000 0.000000 
0.010405 0.925818 -0.002662 2.517928 -9.404498 -2.458608 9.573175 0.226577 1.413179 -3.737104 0.498398 0.603087 -1.060669 -0.285070 5.417457 0.000000 0.000000 0.000000 -13.623084 0.521861 -6.056738 7.256412 -0.714546 13.265112 -6.066685 -16.339660 7.853169 0.000000 0.000000 0.000000 4.644105 -1.034698 15.660374 8.732059 -2.483377 -16.826764 5.104290 3.759840 22.125022 4.737994 -1.992140 -19.740420 0.000000 0.000000 0.000000 -28.531553 -3.249797 0.953679 -47.975489 -2.900145 -6.569092 -23.493839 -38.520442 10.677430 0.000000 0.000000 0.000000 19.811651 13.906953 5.697471 36.546241 15.883029 -0.362244 -15.230828 23.664274 -2.108985 0.000000 0.000000 0.000000 
0.010426 0.925800 -0.005385 2.550210 -10.437683 -2.548382 9.472557 0.258793 1.548837 -3.569986 0.483686 0.533891 -0.638628 0.512166 5.573666 0.000000 0.000000 0.000000 -13.745278 0.557885 -6.441326 7.274428 -0.677539 13.349989 -5.896520 -16.088291 7.974574 0.000000 0.000000 0.000000 5.020410 -1.077887 16.078022 8.709201 -2.464456 -17.073249 4.710974 3.663919 22.282845 5.457322 -2.425095 -20.783104 0.000000 0.000000 0.000000 -28.527654 -3.622812 1.472716 -48.944633 -3.095978 -6.701581 -22.425634 -37.173965 9.964480 0.000000 0.000000 0.000000 19.520163 14.392758 5.749961 35.450992 17.514849 0.095133 -16.542136 24.029440 -2.446345 0.000000 0.000000 0.000000 
0.010346 0.925898 -0.008377 2.469599 -11.371051 -2.543602 9.460690 0.287026 1.629405 -3.437041 0.472750 0.541262 -0.198764 1.297109 5.566814 0.000000 0.000000 0.000000 -13.650280 0.587715 -7.022514 7.313611 -0.648687 13.321855 -5.792081 -15.950460 8.023368 0.000000 0.000000 0.000000 5.270032 -1.109674 16.521160 8.592158 -2.429707 -17.198938 4.575535 3.362043 22.094512 5.749131 -2.644581 -21.412311 0.000000 0.000000 0.000000 -28.725947 -3.764358 1.875546 -49.036531 -3.202335 -6.740760 -22.175424 -36.627992 9.776201 0.000000 0.000000 0.000000 18.995333 14.915232 5.758258 34.956933 18.712168 0.475635 -17.727114 24.871986 -2.846431 0.000000 0.000000 0.000000 
0.009997 0.926232 -0.011260 2.305488 -12.199182 -2.517201 9.508854 0.305835 1.344841 -3.260851 0.454897 0.975568 0.256404 2.101287 5.494219 0.000000 0.000000 0.000000 -13.346596 0.614368 -7.502717 7.150887 -0.583243 13.579871 -5.685743 -15.840245 8.227036 0.000000 0.000000 0.000000 5.308103 -1.111697 16.884856 8.686654 -2.457572 -17.310702 4.402037 3.241670 22.039228 6.018832 -2.896395 -21.337335 0.000000 0.000000 0.000000 -28.819005 -4.297245 2.447442 -49.035115 -3.532457 -6.670715 -21.207534 -36.038840 9.288994 0.000000 0.000000 0.000000 19.250684 15.486369 5.902940 34.408700 19.920993 0.815659 -18.355122 25.033300 -3.036150 0.000000 0.000000 0.000000 
0.009458 0.926679 -0.013571 2.003798 -12.617998 -2.412290 10.006826 0.332126 1.394503 -3.301034 0.464165 0.937831 0.573036 2.705688 5.567243 0.000000 0.000000 0.000000 -13.072950 0.629645 -7.755093 7.049034 -0.551530 13.329013 -5.438569 -15.439577 8.366514 0.000000 0.000000 0.000000 5.331663 -1.108392 16.895119 8.627163 -2.456467 -17.216548 4.412835 2.801012 21.697313 6.433395 -3.266118 -21.128690 0.000000 0.000000 0.000000 -28.541541 -4.565021 2.863721 -48.994163 -3.526135 -6.693729 -20.964106 -36.071450 9.247569 0.000000 0.000000 0.000000 19.485230 15.997382 5.972718 34.371083 20.173974 0.972343 -18.257488 26.083650 -3.211147 0.000000 0.000000 0.000000 
0.009110 0.927174 -0.015080 1.607043 -13.167719 -2.341681 10.540965 0.366828 1.478589 -3.386643 0.482126 1.048692 0.654059 2.845772 5.620725 0.000000 0.000000 0.000000 -12.667987 0.647882 -7.791736 6.899859 -0.506848 13.151906 -5.240008 -15.191000 8.735038 0.000000 0.000000 0.000000 5.202440 -1.088405 17.100343 8.874362 -2.493823 -17.577024 4.500477 2.694454 21.701354 6.611968 -3.385477 -21.498351 0.000000 0.000000 0.000000 -28.833712 -4.725442 3.137621 -48.346709 -3.496086 -6.681318 -21.209403 -36.403186 9.435975 0.000000 0.000000 0.000000 19.648191 16.155550 5.934131 34.801304 20.042072 1.007666 -17.656592 27.178624 -3.256130 0.000000 0.000000 0.000000 
0.009161 0.927562 -0.015955 1.381283 -13.093387 -2.348177 10.795664 0.373223 1.401092 -3.271196 0.463954 1.140238 0.745939 3.058441 5.758782 0.000000 0.000000 0.000000 -12.354911 0.642464 -7.808031 6.610412 -0.457329 13.109837 -5.199347 -15.097555 8.662322 0.000000 0.000000 0.000000 4.919150 -1.046656 16.955345 9.028920 -2.542489 -17.530981 4.517643 2.143279 21.443415 6.881143 -3.634044 -21.413459 0.000000 0.000000 0.000000 -28.903674 -4.654226 3.295317 -48.186205 -3.482032 -6.711057 -20.825834 -36.491621 9.367358 0.000000 0.000000 0.000000 19.688172 16.496814 5.954447 35.711164 19.536447 1.000887 -17.258443 28.318943 -3.352529 0.000000 0.000000 0.000000 
0.009591 0.927578 -0.016381 1.208171 -12.987847 -2.349160 11.162870 0.382509 1.424338 -3.304943 0.467917 1.203148 0.752487 3.138407 6.019026 0.000000 0.000000 0.000000 -12.344594 0.637507 -7.701393 6.559367 -0.453802 13.025213 -5.197350 -15.153414 8.934194 0.000000 0.000000 0.000000 4.741369 -1.020092 16.803104 9.101146 -2.548045 -17.650309 4.627837 1.750488 21.420269 6.509961 -3.438606 -21.561149 0.000000 0.000000 0.000000 -28.963125 -4.519882 3.343493 -48.008564 -3.648539 -6.661672 -20.834213 -37.093174 9.573854 0.000000 0.000000 0.000000 19.774223 16.410117 5.800843 36.630945 18.566699 0.826200 -16.457821 29.874459 -3.386181 0.000000 0.000000 0.000000 
0.010098 0.927202 -0.016787 1.294486 -12.638460 -2.517762 11.248168 0.377867 1.449751 -3.432388 0.485859 1.401626 0.762176 3.149740 5.879890 0.000000 0.000000 0.000000 -12.396878 0.620900 -7.352775 6.324820 -0.425276 12.936339 -5.311595 -15.269337 8.645561 0.000000 0.000000 0.000000 4.433152 -0.986086 16.871841 9.515835 -2.627348 -17.941025 4.635287 1.534686 21.626909 6.205007 -3.155377 -22.435698 0.000000 0.000000 0.000000 -29.065652 -4.412103 3.298555 -47.931946 -3.851770 -6.609531 -20.600273 -37.422153 9.600987 0.000000 0.000000 0.000000 19.744157 16.418980 5.805491 37.460723 17.399291 0.521988 -16.093726 31.549002 -3.507770 0.000000 0.000000 0.000000 
0.010507 0.926924 -0.017417 1.216362 -12.046114 -2.750332 11.602554 0.375240 1.599963 -3.464113 0.483864 1.161373 0.608538 3.093174 6.682401 0.000000 0.000000 0.000000 -12.265113 0.591646 -6.666588 5.974412 -0.392057 12.435555 -5.416235 -15.490598 8.938734 0.000000 0.000000 0.000000 4.338626 -0.989752 16.994662 9.890171 -2.777387 -17.559780 4.691366 1.233914 21.047745 5.832379 -2.820094 -23.149172 0.000000 0.000000 0.000000 -29.036565 -4.213698 3.103109 -47.887313 -3.903735 -6.520276 -21.192543 -37.726219 9.893203 0.000000 0.000000 0.000000 19.651297 16.470816 5.830364 38.074249 16.455701 0.317263 -16.064262 32.626372 -3.643469 0.000000 0.000000 0.000000 
0.010684 0.926576 -0.018439 1.161493 -11.702268 -3.069912 11.907407 0.380746 1.795526 -3.593560 0.499396 0.995304 0.359946 2.662765 6.696850 0.000000 0.000000 0.000000 -12.306993 0.571792 -6.011812 5.796839 -0.380612 12.008394 -5.284706 -15.193356 8.810857 0.000000 0.000000 0.000000 4.126536 -0.980226 17.407107 10.499895 -2.945214 -17.623122 4.733530 1.189935 20.891227 5.822361 -2.711014 -23.765839 0.000000 0.000000 0.000000 -28.701966 -4.276213 3.044362 -48.113066 -3.935816 -6.491377 -21.300747 -38.226825 10.070398 0.000000 0.000000 0.000000 19.531772 16.448497 5.868142 38.313197 15.749034 0.107776 -16.329686 34.112434 -3.907417 0.000000 0.000000 0.000000 
0.010867 0.926765 -0.019869 1.205952 -11.395210 -3.083617 12.021602 0.372304 1.772427 -3.876508 0.537642 0.838328 0.181833 2.351678 6.687084 0.000000 0.000000 0.000000 -12.396626 0.563616 -5.409277 5.572798 -0.366528 11.237499 -5.408297 -15.448859 9.044715 0.000000 0.000000 0.000000 4.004361 -0.971358 17.421015 10.845095 -3.042889 -17.600963 5.016853 0.875511 20.762013 5.501877 -2.505458 -24.098928 0.000000 0.000000 0.000000 -28.527143 -4.195341 3.032045 -48.326770 -4.174246 -6.419708 -21.592536 -38.611218 10.319443 0.000000 0.000000 0.000000 19.442348 16.416358 5.804316 38.509048 15.121964 -0.050206 -17.054548 35.436385 -4.330497 0.000000 0.000000 0.000000 
0.011263 0.926812 -0.021528 1.149774 -10.925635 -3.306335 12.276669 0.368555 1.643702 -4.008157 0.553991 1.011114 0.101196 2.265657 6.784598 0.000000 0.000000 0.000000 -12.383837 0.542856 -4.833267 5.347891 -0.355021 10.533098 -5.389396 -15.422748 9.221286 0.000000 0.000000 0.000000 3.842202 -0.976548 17.921347 11.383329 -3.176852 -17.753712 5.370568 0.697236 20.661541 5.453895 -2.478564 -23.999504 0.000000 0.000000 0.000000 -28.494113 -4.376024 3.105799 -48.354880 -4.424911 -6.315282 -21.991306 -39.007093 10.584179 0.000000 0.000000 0.000000 19.381128 16.545144 5.901446 38.295868 14.683004 -0.186584 -17.938277 36.830002 -4.817387 0.000000 0.000000 0.000000 
0.011806 0.927247 -0.023060 1.225177 -10.678831 -3.451333 12.108659 0.358252 1.571088 -3.987809 0.550501 1.245842 -0.098573 1.883010 6.685660 0.000000 0.000000 0.000000 -12.596490 0.540185 -4.196235 5.200377 -0.352194 9.724382 -5.304354 -15.286637 9.398589 0.000000 0.000000 0.000000 3.999525 -1.021147 18.354140 11.652942 -3.239535 -17.883592 5.656169 0.567040 20.392651 5.664506 -2.534776 -24.507664 0.000000 0.000000 0.000000 -28.605883 -4.947766 3.466987 -48.486122 -4.395780 -6.323399 -22.103451 -39.741169 10.840399 0.000000 0.000000 0.000000 19.517143 16.817757 6.049444 37.482586 14.854415 -0.126053 -18.705387 37.161912 -5.133476 0.000000 0.000000 0.000000 
0.012401 0.927568 -0.024101 1.221662 -10.311486 -3.726069 12.230720 0.355498 1.622686 -4.210763 0.583618 1.556855 -0.129335 1.868841 6.723826 0.000000 0.000000 0.000000 -12.751307 0.531375 -3.374599 5.083163 -0.356552 8.920522 -5.369543 -15.391974 9.470845 0.000000 0.000000 0.000000 4.176264 -1.074959 18.860959 11.869481 -3.283352 -18.049420 6.240984 0.511049 20.271801 5.422881 -2.357837 -24.692964 0.000000 0.000000 0.000000 -28.795604 -5.326607 3.668134 -48.561875 -4.756686 -6.188915 -22.064715 -39.773028 10.821645 0.000000 0.000000 0.000000 19.715190 17.174485 6.285735 36.798466 14.614114 -0.200935 -19.739163 37.839411 -5.587532 0.000000 0.000000 0.000000 
0.012769 0.927851 -0.024516 1.196219 -9.983857 -3.791656 12.264218 0.345339 1.562362 -4.263474 0.589053 1.685238 -0.297746 1.593662 6.772904 0.000000 0.000000 0.000000 -12.746850 0.522579 -2.909263 4.903352 -0.344813 8.388255 -5.355902 -15.348833 9.489178 0.000000 0.000000 0.000000 4.681687 -1.176176 19.160040 12.186846 -3.371796 -18.082780 6.615578 0.457655 19.887084 5.449357 -2.401813 -24.217899 0.000000 0.000000 0.000000 -29.014212 -5.706677 3.845988 -48.464161 -4.585625 -6.200745 -22.727816 -39.951084 11.091697 0.000000 0.000000 0.000000 20.131965 17.336881 6.420068 35.820867 14.629666 -0.187934 -20.136354 37.524082 -5.664707 0.000000 0.000000 0.000000 
0.012794 0.927886 -0.024260 1.253511 -9.669541 -3.939600 12.396340 0.341115 1.580850 -4.538095 0.630531 1.898715 -0.292567 1.574575 6.589420 0.000000 0.000000 0.000000 -12.990344 0.521126 -2.484776 4.891474 -0.354354 8.084631 -5.412921 -15.427248 9.471044 0.000000 0.000000 0.000000 4.975186 -1.241648 19.418878 12.468705 -3.413213 -18.366050 7.127866 0.651831 19.549456 5.704772 -2.504290 -24.144320 0.000000 0.000000 0.000000 -28.913869 -6.119170 3.968642 -48.775988 -4.163789 -6.333821 -23.266218 -39.697679 11.188571 0.000000 0.000000 0.000000 20.512740 17.389672 6.554790 34.996190 14.018150 -0.353474 -19.685095 37.210021 -5.439386 0.000000 0.000000 0.000000 
0.012552 0.927730 -0.023512 1.320587 -9.467006 -4.175356 12.411839 0.338559 1.934865 -4.586781 0.633640 1.747239 -0.307043 1.565925 6.593835 0.000000 0.000000 0.000000 -13.014315 0.516677 -1.947653 4.661998 -0.329380 7.754862 -5.554866 -15.677532 9.508831 0.000000 0.000000 0.000000 5.228725 -1.284145 19.440843 12.738980 -3.472108 -18.527801 7.574137 0.821609 19.351157 5.833775 -2.577989 -23.817405 0.000000 0.000000 0.000000 -28.926386 -6.325532 3.988131 -48.800691 -3.657514 -6.485320 -24.357911 -39.149916 11.395332 0.000000 0.000000 0.000000 20.776610 17.325838 6.598839 34.576665 13.495537 -0.493876 -19.118491 35.611666 -4.971975 0.000000 0.000000 0.000000 
0.012153 0.927421 -0.022553 1.455656 -9.017096 -4.486341 12.430927 0.329224 2.240002 -4.737278 0.650912 1.702591 -0.317110 1.568179 6.548626 0.000000 0.000000 0.000000 -13.114668 0.502758 -1.485699 4.487714 -0.307505 7.997037 -5.713477 -15.918198 9.400492 0.000000 0.000000 0.000000 5.487075 -1.342177 19.624238 12.911309 -3.462264 -18.955789 7.925997 0.834563 19.347470 6.147135 -2.757568 -23.662038 0.000000 0.000000 0.000000 -29.073517 -6.691332 4.146237 -48.730161 -3.357477 -6.585074 -24.659066 -38.452354 11.252571 0.000000 0.000000 0.000000 21.051053 17.300183 6.669310 34.305874 12.521078 -0.760793 -18.447653 34.389571 -4.553708 0.000000 0.000000 0.000000 
0.011777 0.927108 -0.021609 1.563100 -8.943846 -4.601556 12.405662 0.328567 2.459339 -4.811643 0.661257 1.684287 -0.521286 1.158017 6.443884 0.000000 0.000000 0.000000 -13.279295 0.504451 -1.433814 4.414156 -0.290164 8.402399 -5.682216 -15.805810 9.126934 0.000000 0.000000 0.000000 5.704402 -1.370833 19.550633 13.075905 -3.496998 -19.058417 8.146464 0.924299 19.166608 6.231436 -2.804386 -23.521989 0.000000 0.000000 0.000000 -29.468780 -6.875641 4.236957 -48.477302 -2.997284 -6.679576 -24.692861 -37.541445 10.937161 0.000000 0.000000 0.000000 21.282745 17.128362 6.608916 34.225032 11.653589 -0.971801 -17.742368 33.396664 -4.189222 0.000000 0.000000 0.000000 
0.011445 0.926442 -0.020819 1.603635 -8.869126 -4.753836 12.488436 0.331730 2.549221 -5.041869 0.696234 1.733725 -0.579828 0.999920 6.269468 0.000000 0.000000 0.000000 -13.479060 0.500351 -1.594669 4.551591 -0.299138 9.173577 -5.900287 -16.172554 8.967420 0.000000 0.000000 0.000000 5.835457 -1.405593 19.831836 13.302960 -3.504399 -19.443800 8.307782 0.887563 19.097023 6.177161 -2.788846 -23.398434 0.000000 0.000000 0.000000 -29.727926 -6.741855 4.156258 -48.405311 -2.603752 -6.826653 -24.522317 -36.682774 10.592562 0.000000 0.000000 0.000000 21.185710 16.932530 6.491546 34.363064 10.898789 -1.162943 -17.473386 32.717438 -4.014961 0.000000 0.000000 0.000000 
0.011122 0.925988 -0.020371 1.770209 -8.856547 -4.730077 12.471135 0.331421 2.438491 -5.241874 0.726987 1.753721 -0.763612 0.648720 6.253624 0.000000 0.000000 0.000000 -13.660367 0.502174 -1.818757 4.526583 -0.285944 9.647145 -6.015455 -16.330444 8.665929 0.000000 0.000000 0.000000 6.008861 -1.416458 19.572656 13.372957 -3.544745 -19.307905 8.341958 0.651776 18.803357 6.123298 -2.838305 -22.940048 0.000000 0.000000 0.000000 -29.972531 -6.800406 4.293379 -48.121399 -2.258813 -6.930074 -24.481764 -35.936901 10.337726 0.000000 0.000000 0.000000 21.084905 16.726668 6.287348 34.512618 10.038943 -1.344718 -17.674496 32.826193 -4.109905 0.000000 0.000000 0.000000 
0.010797 0.925703 -0.020332 1.886967 -8.640143 -4.496568 12.563885 0.318669 2.166823 -5.543649 0.768245 1.690410 -1.039247 0.199472 6.421378 0.000000 0.000000 0.000000 -13.810897 0.494894 -2.288282 4.648435 -0.296364 10.388818 -6.195514 -16.639988 8.568103 0.000000 0.000000 0.000000 6.054281 -1.423229 19.350037 13.709101 -3.586352 -19.586541 8.224916 0.390048 18.719077 6.089240 -2.823248 -23.054307 0.000000 0.000000 0.000000 -30.088200 -6.783412 4.342989 -48.027591 -1.834758 -7.084519 -24.482506 -35.525615 10.206878 0.000000 0.000000 0.000000 21.130799 16.350564 6.037963 34.298514 9.283154 -1.513527 -17.771332 33.088065 -4.190101 0.000000 0.000000 0.000000 
0.010521 0.925747 -0.020586 1.920741 -8.633193 -4.432865 12.589679 0.318060 2.015138 -5.727878 0.801228 1.908108 -1.115244 0.009444 6.283897 0.000000 0.000000 0.000000 -13.893152 0.491172 -2.624692 4.779805 -0.309924 10.878105 -6.341354 -16.890515 8.443723 0.000000 0.000000 0.000000 5.991575 -1.411216 19.284800 13.762998 -3.586386 -19.657988 8.202782 0.173591 18.725854 6.191765 -2.906937 -23.117287 0.000000 0.000000 0.000000 -30.065286 -6.675553 4.365845 -48.052875 -1.712446 -7.162674 -24.243115 -35.134285 10.022884 0.000000 0.000000 0.000000 20.853169 16.020772 5.782225 34.419714 8.730726 -1.644607 -18.430386 33.612751 -4.482282 0.000000 0.000000 0.000000 
0.010362 0.925835 -0.021002 2.102220 -8.587026 -4.267029 12.672366 0.314095 1.846227 -6.035883 0.849153 1.959449 -1.328832 -0.292255 6.562259 0.000000 0.000000 0.000000 -14.067822 0.487542 -3.139568 4.846081 -0.312544 11.392183 -6.430831 -17.087606 8.618322 0.000000 0.000000 0.000000 5.866079 -1.396266 19.289288 13.863304 -3.591739 -19.759608 8.116043 0.163894 18.643244 6.105983 -2.880430 -22.899860 0.000000 0.000000 0.000000 -30.259996 -6.488849 4.241311 -47.745779 -1.505333 -7.194413 -24.220243 -34.799617 9.897441 0.000000 0.000000 0.000000 20.868704 15.592666 5.549421 34.091060 8.377087 -1.717238 -19.162626 34.254499 -4.807475 0.000000 0.000000 0.000000 
0.010351 0.926015 -0.021328 2.229771 -8.531475 -4.103235 12.704001 0.310086 1.606058 -6.239341 0.888333 2.259853 -1.416311 -0.514767 6.392037 0.000000 0.000000 0.000000 -14.243305 0.486146 -3.501911 4.827537 -0.302594 11.778087 -6.409726 -17.037115 8.533814 0.000000 0.000000 0.000000 5.849329 -1.395903 19.251195 13.997848 -3.645098 -19.622688 7.942417 0.071620 18.251913 5.797641 -2.712973 -22.718200 0.000000 0.000000 0.000000 -30.552862 -6.199992 4.072824 -47.761026 -1.091540 -7.331949 -24.089387 -34.875714 9.880080 0.000000 0.000000 0.000000 21.057843 15.669799 5.564334 33.479138 8.146093 -1.707762 -20.365786 34.489191 -5.225477 0.000000 0.000000 0.000000 
0.010476 0.926159 -0.021466 2.523614 -8.667782 -4.073164 12.687803 0.317040 1.434147 -6.687942 0.964759 2.337379 -1.494783 -0.538766 6.759394 0.000000 0.000000 0.000000 -14.674841 0.498643 -3.693183 4.944278 -0.314213 12.104357 -6.342607 -16.897541 8.395168 0.000000 0.000000 0.000000 5.839225 -1.402214 19.513145 13.873741 -3.575740 -19.836691 7.944992 0.145118 18.146498 4.982775 -2.186121 -23.100451 0.000000 0.000000 0.000000 -30.849105 -6.004501 3.956315 -47.854130 -0.873829 -7.431345 -23.852353 -34.538241 9.700232 0.000000 0.000000 0.000000 21.037868 15.509152 5.468587 33.024554 7.999967 -1.715479 -21.384852 35.171010 -5.673234 0.000000 0.000000 0.000000 
0.010504 0.926090 -0.021560 2.844950 -8.759331 -3.907698 12.511327 0.311134 1.483007 -6.851501 0.982995 2.050285 -1.491417 -0.447914 7.027661 0.000000 0.000000 0.000000 -14.921167 0.508792 -3.923946 4.842394 -0.287842 12.303940 -6.368860 -16.909979 8.141402 0.000000 0.000000 0.000000 5.873845 -1.420426 19.772568 13.916678 -3.583611 -19.842956 7.805849 0.244555 18.017333 4.529010 -1.938707 -22.823286 0.000000 0.000000 0.000000 -31.553151 -5.719652 3.753664 -47.584030 -0.651198 -7.475885 -23.735966 -34.603502 9.665007 0.000000 0.000000 0.000000 21.289493 15.585444 5.534598 32.324206 8.004332 -1.677736 -23.113954 36.360639 -6.460092 0.000000 0.000000 0.000000 
0.010297 0.925682 -0.021620 3.184232 -8.809448 -3.924288 12.339917 0.309222 1.653344 -7.134477 1.024012 1.905618 -1.530589 -0.442121 7.263196 0.000000 0.000000 0.000000 -15.387292 0.517456 -4.070790 4.885564 -0.291044 12.471450 -6.308242 -16.753582 7.863819 0.000000 0.000000 0.000000 5.987232 -1.467632 20.389444 13.918414 -3.560041 -19.988292 7.654279 0.516801 17.926741 3.575138 -1.322773 -22.950827 0.000000 0.000000 0.000000 -31.995120 -5.512076 3.498888 -47.546206 -0.640186 -7.449096 -23.929686 -34.293987 9.614134 0.000000 0.000000 0.000000 21.435397 15.577697 5.614932 31.895827 8.018061 -1.672508 -24.733247 37.600626 -7.244982 0.000000 0.000000 0.000000 
0.009703 0.924789 -0.021764 3.478999 -9.071329 -3.899051 12.193830 0.314496 1.933136 -7.329622 1.046285 1.535589 -1.421288 -0.120961 7.669105 0.000000 0.000000 0.000000 -15.589335 0.531268 -4.216012 4.720280 -0.251333 12.502274 -6.414444 -16.927715 7.662153 0.000000 0.000000 0.000000 6.131593 -1.510101 20.941915 13.865639 -3.542674 -20.024056 7.644301 0.738173 17.838534 2.826002 -0.879197 -22.723979 0.000000 0.000000 0.000000 -32.593557 -5.302785 3.313699 -47.289413 -0.316957 -7.526071 -24.111871 -34.522897 9.728577 0.000000 0.000000 0.000000 21.332343 15.347330 5.516569 31.512109 8.263760 -1.610515 -26.191963 39.307797 -8.150721 0.000000 0.000000 0.000000 
0.008881 0.924168 -0.021957 3.656541 -9.006058 -3.825054 12.263047 0.310919 2.056257 -7.548726 1.072645 1.373972 -1.576784 -0.376517 7.734716 0.000000 0.000000 0.000000 -15.771056 0.527027 -4.402802 4.695216 -0.243750 12.706464 -6.387516 -16.820612 7.335674 0.000000 0.000000 0.000000 6.334997 -1.583009 21.554042 13.911612 -3.567645 -19.945981 7.507263 1.173907 17.458856 2.295630 -0.465812 -22.897728 0.000000 0.000000 0.000000 -33.075260 -5.199165 2.996109 -47.082727 -0.146623 -7.464894 -24.616070 -34.198895 9.743173 0.000000 0.000000 0.000000 21.271605 15.011345 5.473489 31.200552 8.510511 -1.563178 -28.132562 40.922296 -9.222740 0.000000 0.000000 0.000000 
0.007967 0.923672 -0.022238 3.815182 -8.911375 -3.845836 12.330792 0.308678 2.259323 -7.863449 1.108980 1.127309 -1.599839 -0.295060 8.060099 0.000000 0.000000 0.000000 -16.013247 0.534202 -4.211711 4.696561 -0.254015 12.414288 -6.342648 -16.706514 7.196893 0.000000 0.000000 0.000000 6.567049 -1.643356 21.851106 13.858244 -3.560930 -19.924904 7.553321 1.039306 17.537026 1.928720 -0.247861 -23.105360 0.000000 0.000000 0.000000 -33.561063 -5.423378 3.197425 -47.261422 -0.360446 -7.442319 -24.566097 -34.482706 9.821963 0.000000 0.000000 0.000000 20.976689 15.136042 5.524403 30.563463 9.009744 -1.436806 -30.025880 41.817310 -10.216781 0.000000 0.000000 0.000000 
0.007213 0.923320 -0.022531 3.834424 -8.627828 -3.749532 12.404095 0.296104 2.231660 -7.993565 1.110577 0.852393 -1.617838 -0.222172 8.290140 0.000000 0.000000 0.000000 -16.090639 0.521141 -4.257364 4.629403 -0.248469 12.454909 -6.257166 -16.483337 6.904225 0.000000 0.000000 0.000000 6.822379 -1.748252 22.547306 13.935343 -3.562955 -20.032464 7.673320 1.335250 17.361107 1.555091 0.055838 -23.237552 0.000000 0.000000 0.000000 -33.701663 -5.507110 3.023498 -47.599581 -0.560856 -7.335016 -25.280211 -34.308250 9.972435 0.000000 0.000000 0.000000 20.193405 15.147563 5.653319 29.941473 9.350818 -1.381929 -32.112021 42.650189 -11.247579 0.000000 0.000000 0.000000 
0.006439 0.922866 -0.022808 3.958539 -8.585673 -3.608354 12.278965 0.287457 2.351901 -8.066262 1.110407 0.617752 -1.522194 -0.049683 8.283983 0.000000 0.000000 0.000000 -16.369836 0.534537 -4.167379 4.706365 -0.274772 12.016777 -6.236793 -16.439036 6.885004 0.000000 0.000000 0.000000 7.111096 -1.834437 22.981114 13.859501 -3.517569 -20.178505 7.779496 1.482096 17.369178 1.216001 0.287250 -23.348337 0.000000 0.000000 0.000000 -34.304892 -5.619482 3.017354 -47.736385 -1.015307 -7.166393 -25.402735 -34.394087 10.022647 0.000000 0.000000 0.000000 19.922950 15.139820 5.700586 28.838506 10.329695 -1.170974 -33.163082 42.495136 -11.617504 0.000000 0.000000 0.000000 
0.005475 0.922607 -0.022993 4.036200 -8.535556 -3.294069 12.343819 0.275597 2.497626 -8.108397 1.093132 0.107188 -1.401911 0.281316 8.608350 0.000000 0.000000 0.000000 -16.505118 0.541860 -4.255404 4.657816 -0.276173 11.627937 -6.038635 -15.969171 6.423628 0.000000 0.000000 0.000000 7.434901 -1.923057 23.231329 13.915675 -3.512590 -20.242689 7.957588 1.851267 17.125338 1.007584 0.445081 -22.910594 0.000000 0.000000 0.000000 -34.289153 -5.706833 2.880450 -48.028140 -0.745509 -7.221538 -25.464332 -34.304354 9.979989 0.000000 0.000000 0.000000 19.082755 15.270740 5.850751 28.684717 10.557976 -1.143318 -33.232034 42.932637 -11.742889 0.000000 0.000000 0.000000 
0.004110 0.922222 -0.023114 4.048314 -8.723764 -2.979631 12.212259 0.270913 2.532185 -7.763910 1.032448 -0.285340 -1.220748 0.598539 8.648587 0.000000 0.000000 0.000000 -16.520716 0.556482 -4.413272 4.603268 -0.271004 11.209482 -5.991226 -15.888629 6.452192 0.000000 0.000000 0.000000 7.627845 -1.983915 23.584474 14.016194 -3.487614 -20.515799 8.078600 2.152120 17.225614 1.013389 0.458341 -22.637443 0.000000 0.000000 0.000000 -34.497516 -5.652746 2.737702 -48.023777 -0.833119 -7.160530 -25.391845 -34.070677 9.860398 0.000000 0.000000 0.000000 18.749128 15.508351 6.031245 28.297852 10.941562 -1.084582 -32.304137 43.637168 -11.563658 0.000000 0.000000 0.000000 
0.002116 0.922207 -0.023290 4.099835 -8.819703 -2.580511 12.084922 0.259794 2.550026 -7.745801 1.013095 -0.767457 -1.038147 0.927799 8.693785 0.000000 0.000000 0.000000 -16.585548 0.574803 -4.507270 4.636521 -0.285209 10.725793 -5.832413 -15.519803 6.148459 0.000000 0.000000 0.000000 7.901893 -2.053047 23.709756 13.970709 -3.446717 -20.616044 8.274532 2.413381 17.107476 0.983761 0.488279 -22.367800 0.000000 0.000000 0.000000 -34.253374 -5.584797 2.589195 -48.216613 -0.761470 -7.163445 -25.524535 -33.820972 9.809859 0.000000 0.000000 0.000000 18.511407 15.605699 6.124649 28.117966 10.809570 -1.112128 -29.858080 45.060230 -10.953249 0.000000 0.000000 0.000000 
-0.000400 0.922367 -0.023541 3.951968 -8.825349 -2.113341 12.161489 0.245578 2.239442 -7.418861 0.963084 -0.905163 -0.997941 0.996561 8.703628 0.000000 0.000000 0.000000 -16.421980 0.575001 -4.812777 4.589716 -0.281878 10.496713 -5.740050 -15.311464 6.004119 0.000000 0.000000 0.000000 8.076074 -2.122825 23.952344 14.232182 -3.433651 -21.019706 8.351737 2.738123 17.429656 1.037709 0.512210 -22.515123 0.000000 0.000000 0.000000 -34.295303 -5.437511 2.332147 -47.782956 -0.622424 -7.126331 -25.363234 -33.769467 9.706240 0.000000 0.000000 0.000000 18.279318 15.697357 6.270134 28.533507 10.383578 -1.250617 -27.119725 46.767573 -10.191679 0.000000 0.000000 0.000000 
-0.003436 0.922410 -0.023793 3.887522 -8.837948 -1.775451 12.349258 0.237788 1.962816 -7.269983 0.941579 -0.922898 -0.976030 1.107882 8.945277 0.000000 0.000000 0.000000 -16.353130 0.570896 -5.190339 4.526009 -0.270194 10.520874 -5.627124 -15.097737 6.023983 0.000000 0.000000 0.000000 8.160789 -2.174158 24.252761 14.200829 -3.386283 -21.199285 8.715577 2.832454 17.378263 0.855887 0.625227 -22.448018 0.000000 0.000000 0.000000 -33.972971 -4.997003 1.972694 -47.677620 -0.536567 -7.111055 -25.372727 -33.603298 9.645371 0.000000 0.000000 0.000000 18.016391 15.444352 6.143433 29.244772 9.757046 -1.399604 -23.417975 48.581988 -8.976962 0.000000 0.000000 0.000000 
-0.006913 0.922511 -0.023875 3.857686 -8.500907 -1.399889 12.486698 0.217311 1.406959 -7.082111 0.917111 -0.679383 -1.204514 0.726184 8.950512 0.000000 0.000000 0.000000 -16.133553 0.556840 -5.357242 4.382557 -0.252241 10.541731 -5.606886 -14.994236 5.757469 0.000000 0.000000 0.000000 8.263617 -2.231309 24.263317 14.141052 -3.342266 -21.307167 8.819167 2.867397 17.348669 0.710908 0.720120 -22.168758 0.000000 0.000000 0.000000 -33.699711 -5.041657 1.908542 -47.326274 -0.491758 -7.033154 -24.964574 -33.868177 9.560609 0.000000 0.000000 0.000000 18.211149 15.243275 6.107227 29.925738 9.162001 -1.558972 -21.076996 49.011364 -7.968024 0.000000 0.000000 0.000000 
-0.010745 0.922600 -0.023701 3.838452 -8.265151 -1.128726 12.551881 0.202986 1.060091 -6.773463 0.872512 -0.649321 -1.400291 0.467589 9.176481 0.000000 0.000000 0.000000 -15.797499 0.543653 -5.534841 4.324943 -0.243083 10.725747 -5.749093 -15.190734 5.352473 0.000000 0.000000 0.000000 8.480658 -2.284209 24.055455 14.111460 -3.289059 -21.529651 8.971108 2.808711 17.457031 0.529743 0.825397 -22.084902 0.000000 0.000000 0.000000 -33.369051 -4.871726 1.779121 -47.418032 -0.205302 -7.145238 -24.973022 -33.839750 9.555318 0.000000 0.000000 0.000000 18.414080 14.778198 5.888242 30.282213 8.632298 -1.693304 -18.957895 48.820066 -6.968964 0.000000 0.000000 0.000000 
-0.014740 0.922458 -0.023487 3.944404 -7.916758 -0.858125 12.662734 0.185371 0.757592 -6.678087 0.853184 -0.669661 -1.678964 0.103436 9.479354 0.000000 0.000000 0.000000 -15.694917 0.532368 -5.638846 4.425695 -0.267955 10.770210 -5.980023 -15.609113 5.133663 0.000000 0.000000 0.000000 8.721802 -2.343638 23.816359 13.868985 -3.201674 -21.627935 8.956904 2.744025 17.601797 0.446004 0.892579 -22.234622 0.000000 0.000000 0.000000 -32.970691 -4.842249 1.725027 -47.335659 -0.381000 -7.056723 -24.923181 -33.806423 9.519157 0.000000 0.000000 0.000000 18.602881 14.487118 5.778152 30.670471 8.300041 -1.797384 -18.698368 48.152984 -6.712223 0.000000 0.000000 0.000000 
-0.018716 0.922296 -0.023419 4.013944 -7.571492 -0.569500 12.809383 0.169399 0.389733 -6.550093 0.833047 -0.567776 -1.852994 -0.138766 9.584943 0.000000 0.000000 0.000000 -15.589222 0.516314 -5.891218 4.563226 -0.296298 11.016199 -6.166486 -15.950948 4.943261 0.000000 0.000000 0.000000 8.993935 -2.433916 23.863188 13.695704 -3.062635 -22.162317 9.026075 2.739560 17.924359 0.387468 0.953107 -22.361280 0.000000 0.000000 0.000000 -32.702380 -4.943241 1.743633 -47.188763 -0.396908 -7.031101 -24.888838 -33.643587 9.447837 0.000000 0.000000 0.000000 18.667453 14.149747 5.662306 30.878943 8.053509 -1.893802 -17.980058 46.977979 -6.177783 0.000000 0.000000 0.000000 
-0.022427 0.922232 -0.023526 4.288816 -7.357831 -0.375308 12.874221 0.158367 0.196360 -6.629168 0.836484 -0.681082 -2.074160 -0.346677 10.048468 0.000000 0.000000 0.000000 -15.754958 0.509863 -6.052825 4.798993 -0.342053 11.173851 -6.382168 -16.352190 4.726506 0.000000 0.000000 0.000000 9.303771 -2.500527 23.706158 13.446024 -2.978766 -22.254660 8.955797 2.628007 17.889245 0.390504 0.960244 -22.606350 0.000000 0.000000 0.000000 -32.606972 -4.891056 1.715020 -47.073839 -0.322339 -7.035871 -25.384585 -33.604107 9.597122 0.000000 0.000000 0.000000 18.905804 14.052693 5.618127 31.089681 7.643614 -1.987484 -17.597603 45.619577 -5.801249 0.000000 0.000000 0.000000 
-0.025709 0.922359 -0.023631 4.467443 -7.327826 -0.245379 12.885062 0.154505 0.074405 -6.692170 0.844414 -0.657844 -2.020395 -0.140073 10.366958 0.000000 0.000000 0.000000 -15.793559 0.509739 -6.181448 5.082438 -0.393692 11.263323 -6.606396 -16.785855 4.573133 0.000000 0.000000 0.000000 9.399824 -2.520198 23.652338 13.363801 -2.955178 -22.244625 8.880492 2.690450 17.951049 -0.016317 1.210914 -22.585292 0.000000 0.000000 0.000000 -32.501736 -5.079407 1.826147 -47.184080 -0.332203 -7.041636 -25.347901 -33.661178 9.604456 0.000000 0.000000 0.000000 18.934215 13.986346 5.609659 31.300547 7.253384 -2.092229 -16.795382 44.949408 -5.359409 0.000000 0.000000 0.000000 
-0.028657 0.922841 -0.023739 4.643134 -7.273972 -0.099042 12.899481 0.148225 0.016219 -6.775684 0.853316 -0.673689 -1.888167 0.155090 10.547408 0.000000 0.000000 0.000000 -15.732952 0.510007 -6.252855 5.166083 -0.411903 11.143870 -6.609744 -16.725233 4.155684 0.000000 0.000000 0.000000 9.638189 -2.565890 23.542288 12.961708 -2.848758 -22.263904 9.060817 2.434661 18.086721 0.008230 1.172382 -22.877509 0.000000 0.000000 0.000000 -32.339431 -5.154765 2.003388 -47.130444 -0.157212 -7.138206 -26.123387 -33.509013 9.833488 0.000000 0.000000 0.000000 18.521122 13.898179 5.484069 31.499564 6.886462 -2.176054 -15.655624 44.699218 -4.897921 0.000000 0.000000 0.000000 
-0.031347 0.922975 -0.023876 4.721433 -7.134165 -0.037603 12.865481 0.142500 -0.167033 -6.892523 0.869054 -0.561261 -1.668240 0.609765 10.729619 0.000000 0.000000 0.000000 -15.628127 0.511385 -6.084216 5.305991 -0.443808 10.863906 -6.511284 -16.456013 3.783070 0.000000 0.000000 0.000000 9.770160 -2.603931 23.553522 13.014113 -2.873623 -22.166441 8.806271 2.333475 18.129213 -0.362262 1.403740 -23.202459 0.000000 0.000000 0.000000 -32.089498 -4.979962 1.888785 -47.296776 -0.261677 -7.124011 -26.945873 -33.538255 10.125042 0.000000 0.000000 0.000000 18.695689 13.749476 5.413891 31.216079 6.241091 -2.301816 -15.343285 44.905621 -4.804587 0.000000 0.000000 0.000000 
-0.033817 0.922989 -0.024289 4.680476 -6.965088 -0.086896 13.075854 0.140615 -0.101172 -6.995366 0.882901 -0.429988 -1.582198 0.763543 10.687031 0.000000 0.000000 0.000000 -15.399789 0.511379 -5.734054 5.328184 -0.455275 10.511246 -6.482980 -16.323597 3.391469 0.000000 0.000000 0.000000 9.970077 -2.645785 23.475215 12.678333 -2.800123 -22.105784 8.810834 2.002185 18.434030 -0.401815 1.409752 -23.660889 0.000000 0.000000 0.000000 -32.026747 -4.969867 2.003610 -47.704177 -0.290510 -7.231541 -27.408079 -33.692905 10.370251 0.000000 0.000000 0.000000 18.414282 13.374238 5.153329 31.378142 5.800647 -2.418157 -15.753434 45.292689 -5.045090 0.000000 0.000000 0.000000 
-0.035953 0.923146 -0.025095 4.547684 -6.813183 0.075232 13.352000 0.137823 -0.301064 -6.982159 0.881232 -0.312437 -1.591297 0.867515 10.997257 0.000000 0.000000 0.000000 -15.083213 0.507552 -5.723080 5.456336 -0.484112 10.200598 -6.558584 -16.507707 3.525583 0.000000 0.000000 0.000000 10.063041 -2.679812 23.445115 12.699915 -2.848019 -21.796437 8.523529 2.001774 18.335920 -0.313649 1.383404 -23.869289 0.000000 0.000000 0.000000 -32.159883 -5.034999 1.995858 -48.014827 -0.279791 -7.254429 -28.155369 -34.039829 10.735979 0.000000 0.000000 0.000000 18.483093 13.172326 5.076162 30.790009 5.572545 -2.426069 -17.394257 45.350991 -5.717435 0.000000 0.000000 0.000000 
-0.037586 0.923244 -0.026210 4.380293 -6.602796 0.116116 13.575207 0.131816 -0.285526 -6.933593 0.869548 -0.358685 -1.623810 0.792206 10.866921 0.000000 0.000000 0.000000 -14.707543 0.501153 -5.523653 5.564571 -0.510400 9.840900 -6.716431 -16.851569 3.605198 0.000000 0.000000 0.000000 10.149425 -2.695554 23.263718 12.558548 -2.871451 -21.388195 8.471558 1.813774 18.353701 -0.514789 1.492081 -23.986426 0.000000 0.000000 0.000000 -32.201800 -5.167287 2.122328 -48.780724 -0.536333 -7.276710 -28.760846 -34.189765 11.021468 0.000000 0.000000 0.000000 18.236722 13.218415 5.077729 30.202729 5.742902 -2.345969 -19.767782 44.515134 -6.559037 0.000000 0.000000 0.000000 
-0.038670 0.923620 -0.027492 4.246664 -6.645957 0.172717 13.575281 0.125678 -0.023878 -6.734057 0.836576 -0.642606 -1.545520 0.935342 10.909298 0.000000 0.000000 0.000000 -14.379388 0.503911 -5.461833 5.481107 -0.496176 9.578794 -6.807716 -17.047160 3.647208 0.000000 0.000000 0.000000 10.105342 -2.705677 23.437468 12.676873 -2.946562 -21.084361 8.218370 1.995040 18.205952 -0.484128 1.519226 -24.315841 0.000000 0.000000 0.000000 -32.661614 -5.510304 2.272163 -49.303244 -0.410988 -7.362329 -29.060897 -34.349594 11.170824 0.000000 0.000000 0.000000 17.971952 13.395362 5.207683 29.363947 6.226206 -2.192281 -21.733152 43.166209 -7.077685 0.000000 0.000000 0.000000 
-0.039412 0.923912 -0.028728 4.061570 -6.623577 0.240270 13.593503 0.121150 0.030815 -6.541914 0.806797 -0.839166 -1.541438 0.969356 10.983371 0.000000 0.000000 0.000000 -14.064056 0.499889 -5.565063 5.375932 -0.479844 9.395904 -6.726407 -16.909366 3.839976 0.000000 0.000000 0.000000 10.002602 -2.706553 23.589606 12.528271 -2.911061 -21.054595 8.094608 1.903991 18.193958 -0.096262 1.302366 -24.615173 0.000000 0.000000 0.000000 -33.044049 -5.409740 2.229743 -49.756347 -0.670451 -7.337948 -29.201106 -33.697073 11.011055 0.000000 0.000000 0.000000 17.811033 13.591457 5.291034 28.484670 6.790885 -2.021909 -22.901943 41.900516 -7.294417 0.000000 0.000000 0.000000 
-0.040189 0.924509 -0.029756 3.897622 -6.787100 0.302232 13.568490 0.120520 0.264429 -6.274882 0.770413 -1.093494 -1.481940 1.088939 11.093728 0.000000 0.000000 0.000000 -13.899567 0.504741 -5.708208 5.450491 -0.488477 9.382780 -6.536315 -16.503934 3.774139 0.000000 0.000000 0.000000 9.934450 -2.703874 23.756832 12.493272 -2.910098 -21.004847 7.769543 1.906638 18.141172 0.260809 1.084743 -24.454863 0.000000 0.000000 0.000000 -33.564764 -5.533984 2.338118 -49.616102 -0.758234 -7.294743 -28.434616 -33.797149 10.786500 0.000000 0.000000 0.000000 17.494885 13.994337 5.479509 27.715778 6.961121 -1.939980 -23.545748 41.475952 -7.469148 0.000000 0.000000 0.000000 
-0.041292 0.924750 -0.030512 3.685077 -7.023281 0.496325 13.535230 0.121594 0.348620 -6.016221 0.737599 -1.323237 -1.138719 1.625841 11.023514 0.000000 0.000000 0.000000 -13.543399 0.514407 -5.902738 5.335919 -0.464348 9.275048 -6.376676 -16.157237 3.687489 0.000000 0.000000 0.000000 9.778060 -2.667749 23.760941 12.618336 -2.956469 -20.891995 7.461859 1.924234 18.011641 0.578470 0.870671 -24.022249 0.000000 0.000000 0.000000 -33.945083 -5.336530 2.228003 -49.651507 -0.880736 -7.254681 -27.504598 -33.614189 10.421955 0.000000 0.000000 0.000000 17.310650 14.407728 5.667056 27.112430 7.066142 -1.872539 -23.120130 41.824806 -7.403723 0.000000 0.000000 0.000000 
-0.042803 0.925077 -0.030972 3.559324 -7.192169 0.708633 13.606680 0.116112 0.643254 -5.773862 0.703618 -1.703201 -1.211364 1.537323 11.200959 0.000000 0.000000 0.000000 -13.267943 0.525113 -5.990789 5.323079 -0.459765 9.033934 -6.280541 -15.918357 3.486874 0.000000 0.000000 0.000000 9.761259 -2.657979 23.691831 12.497689 -2.904602 -21.012027 7.117096 1.820453 18.041601 1.280755 0.397950 -23.378490 0.000000 0.000000 0.000000 -34.539874 -5.195559 2.208620 -49.194289 -0.834009 -7.250987 -26.871978 -33.551795 10.201894 0.000000 0.000000 0.000000 17.483784 14.840235 5.865093 26.413853 7.076514 -1.823112 -21.743399 42.426648 -7.033545 0.000000 0.000000 0.000000 
-0.044390 0.925337 -0.031299 3.434941 -7.501305 0.720390 13.806372 0.128451 0.815790 -5.590867 0.685976 -1.714698 -1.160967 1.683351 11.497593 0.000000 0.000000 0.000000 -13.040326 0.533292 -6.190415 5.409182 -0.466112 9.114568 -6.234324 -15.800066 3.374527 0.000000 0.000000 0.000000 9.652884 -2.644204 23.968601 12.661558 -2.927619 -21.151647 6.968382 1.982025 18.093805 1.728400 0.134074 -23.247972 0.000000 0.000000 0.000000 -34.864447 -4.955855 2.019222 -48.672381 -0.729653 -7.225691 -26.723431 -33.682812 10.187586 0.000000 0.000000 0.000000 17.210891 15.144201 6.017675 26.155069 7.307204 -1.773183 -20.225253 43.200316 -6.600906 0.000000 0.000000 0.000000 
-0.045802 0.925355 -0.031667 3.471107 -7.526482 0.898882 13.916561 0.127021 0.712150 -5.702551 0.701154 -1.585464 -1.094033 1.829809 11.621856 0.000000 0.000000 0.000000 -12.983886 0.536532 -6.513176 5.245003 -0.437100 9.256471 -6.175737 -15.652883 3.226433 0.000000 0.000000 0.000000 9.820894 -2.675965 23.872435 12.535827 -2.909154 -21.032699 6.777572 2.080412 17.912062 2.231368 -0.157817 -23.056210 0.000000 0.000000 0.000000 -34.900817 -4.871672 1.899939 -48.351361 -0.687976 -7.160056 -26.836069 -34.016121 10.313751 0.000000 0.000000 0.000000 16.954288 15.395990 6.153765 25.887044 7.667696 -1.691741 -18.737009 43.513861 -6.072883 0.000000 0.000000 0.000000 
-0.046940 0.925234 -0.032201 3.603521 -7.559824 1.062894 14.070210 0.132621 0.392921 -5.870232 0.726639 -1.292561 -1.110351 1.849809 11.796578 0.000000 0.000000 0.000000 -13.132802 0.539089 -6.918371 5.389289 -0.456749 9.682390 -6.115042 -15.454183 2.845166 0.000000 0.000000 0.000000 9.978541 -2.709553 23.845420 12.285892 -2.788731 -21.383845 6.723559 2.159730 18.108812 2.739423 -0.506931 -22.386912 0.000000 0.000000 0.000000 -35.167641 -4.902962 1.906314 -47.910899 -0.858435 -7.048882 -26.480987 -34.051255 10.198671 0.000000 0.000000 0.000000 16.675635 15.714954 6.323679 25.662012 7.951487 -1.646069 -17.491043 43.222767 -5.542776 0.000000 0.000000 0.000000 
-0.047888 0.925501 -0.032911 3.633445 -7.633024 1.273350 14.233314 0.141841 0.007425 -6.154542 0.765160 -1.136346 -0.811466 2.476080 12.252468 0.000000 0.000000 0.000000 -13.038118 0.545405 -7.254061 5.500444 -0.470569 10.040300 -6.126198 -15.452473 2.689687 0.000000 0.000000 0.000000 10.068204 -2.696220 23.476040 12.437991 -2.857735 -21.143150 6.655610 2.356858 17.974826 3.238170 -0.877324 -21.273690 0.000000 0.000000 0.000000 -35.376475 -4.902977 1.813136 -47.505850 -0.793832 -6.971727 -27.004758 -34.480928 10.484893 0.000000 0.000000 0.000000 16.488736 16.071057 6.527468 25.214904 8.583443 -1.518877 -16.931157 42.373275 -5.193827 0.000000 0.000000 0.000000 
-0.048942 0.926208 -0.033818 3.871796 -7.419798 1.379432 14.115057 0.133594 -0.290384 -6.421142 0.801471 -0.859687 -0.818100 2.494793 12.279970 0.000000 0.000000 0.000000 -13.232750 0.538885 -7.381808 5.620128 -0.495058 10.261921 -6.262630 -15.712679 2.486969 0.000000 0.000000 0.000000 10.057844 -2.682169 23.206182 12.456142 -2.874939 -21.020591 6.643044 2.344976 17.850358 3.332378 -0.958714 -20.852853 0.000000 0.000000 0.000000 -35.217663 -5.124023 1.938140 -47.545295 -0.904180 -6.909076 -27.076944 -34.772867 10.597048 0.000000 0.000000 0.000000 16.322775 16.486627 6.745487 24.708269 9.135359 -1.402954 -17.503969 41.289698 -5.244584 0.000000 0.000000 0.000000 
-0.050377 0.926750 -0.034847 3.916058 -7.045858 1.504865 14.230479 0.120605 -0.508063 -6.829653 0.851315 -0.677753 -0.735415 2.725063 12.448551 0.000000 0.000000 0.000000 -13.130134 0.527527 -7.454099 5.571146 -0.494979 10.462063 -6.137567 -15.422730 2.353632 0.000000 0.000000 0.000000 10.160634 -2.718933 23.091615 12.481208 -2.822547 -21.378844 6.807007 2.442951 18.046243 3.641882 -1.151812 -20.492251 0.000000 0.000000 0.000000 -35.599640 -5.260089 1.906684 -46.907776 -1.163958 -6.706553 -27.476929 -34.520818 10.615358 0.000000 0.000000 0.000000 16.197651 16.577529 6.856910 24.023127 9.791080 -1.304092 -18.544295 39.465673 -5.316823 0.000000 0.000000 0.000000 
-0.052153 0.927228 -0.035904 3.944914 -6.685484 1.477992 14.118653 0.107305 -0.664741 -6.917959 0.863269 -0.444630 -0.868938 2.504485 12.310698 0.000000 0.000000 0.000000 -13.060786 0.515482 -7.188703 5.761033 -0.539166 10.249695 -6.092748 -15.306178 2.248651 0.000000 0.000000 0.000000 10.268987 -2.758931 23.070744 12.751047 -2.908912 -21.247602 6.700084 2.719888 17.895589 4.053784 -1.350476 -20.345395 0.000000 0.000000 0.000000 -35.457079 -5.595706 1.916117 -46.863605 -1.138097 -6.624289 -27.852086 -34.297576 10.618870 0.000000 0.000000 0.000000 15.627410 16.736261 6.999900 23.632942 10.398546 -1.218098 -20.051874 37.939059 -5.543753 0.000000 0.000000 0.000000 
-0.054183 0.927370 -0.036879 3.959141 -6.209622 1.430052 14.204549 0.097943 -0.961055 -7.127539 0.894329 -0.031357 -0.887660 2.573729 12.456424 0.000000 0.000000 0.000000 -12.948165 0.496014 -7.169039 5.893113 -0.574933 10.501413 -6.166527 -15.463718 2.187062 0.000000 0.000000 0.000000 10.624769 -2.876745 23.235276 12.637526 -2.822719 -21.627432 6.732468 2.785041 18.113652 4.746600 -1.752535 -20.253395 0.000000 0.000000 0.000000 -35.595771 -5.934502 2.018749 -46.522275 -1.540634 -6.409355 -27.961561 -34.137872 10.571959 0.000000 0.000000 0.000000 15.083003 16.578700 6.954699 23.279420 10.966594 -1.156226 -21.238658 36.214054 -5.604469 0.000000 0.000000 0.000000 
-0.056118 0.927283 -0.037852 4.017069 -5.896201 1.437380 14.137463 0.084614 -1.040701 -7.150132 0.888299 -0.136342 -1.021483 2.410576 12.529561 0.000000 0.000000 0.000000 -12.942667 0.483227 -7.225123 6.160647 -0.632247 10.803415 -6.143226 -15.374829 1.952675 0.000000 0.000000 0.000000 10.823871 -2.941026 23.267575 12.898315 -2.884206 -21.648292 6.722240 2.756672 18.074691 5.174309 -2.033845 -19.970087 0.000000 0.000000 0.000000 -35.556415 -6.138091 2.092758 -46.484940 -1.896826 -6.251051 -27.910528 -33.990748 10.485245 0.000000 0.000000 0.000000 14.723001 16.615939 6.974431 22.765952 11.105985 -1.132088 -22.337791 35.092630 -5.737230 0.000000 0.000000 0.000000 
-0.057929 0.926881 -0.038932 4.009342 -5.411698 1.291786 13.962550 0.071771 -1.277940 -7.183141 0.897922 0.292805 -0.906356 2.527682 12.105210 0.000000 0.000000 0.000000 -12.851878 0.459964 -7.298640 6.269456 -0.668016 11.361230 -6.128864 -15.267686 1.500223 0.000000 0.000000 0.000000 11.284657 -3.079436 23.433143 12.972004 -2.940656 -21.401838 6.767669 2.785337 17.736889 5.200180 -2.040063 -19.693686 0.000000 0.000000 0.000000 -35.602157 -6.583284 2.274671 -46.645042 -2.333940 -6.047894 -27.383738 -33.455948 10.107995 0.000000 0.000000 0.000000 14.586264 16.705443 7.056452 22.321252 10.557491 -1.191680 -23.071409 34.512821 -5.836435 0.000000 0.000000 0.000000 
-0.059744 0.926126 -0.040201 4.032709 -5.322353 1.206828 13.908136 0.070482 -1.298245 -7.276118 0.911957 0.395087 -0.788897 2.722041 12.065682 0.000000 0.000000 0.000000 -12.721182 0.451327 -7.845856 6.485876 -0.715450 12.341469 -6.159032 -15.275310 1.131728 0.000000 0.000000 0.000000 11.605051 -3.198032 23.840519 12.896547 -2.888853 -21.636646 6.932121 2.857154 17.802514 5.095732 -2.002115 -19.372034 0.000000 0.000000 0.000000 -35.581491 -7.274839 2.732337 -46.652497 -3.233494 -5.711905 -26.885104 -32.668246 9.673758 0.000000 0.000000 0.000000 14.676523 16.379569 6.930469 21.980111 10.029470 -1.266393 -22.985845 34.984134 -5.902908 0.000000 0.000000 0.000000 
-0.061897 0.925261 -0.041624 4.033758 -4.897072 1.307424 13.945761 0.060199 -1.684871 -7.379799 0.932191 0.837484 -0.658717 2.855580 11.642205 0.000000 0.000000 0.000000 -12.630843 0.435823 -8.381041 6.721897 -0.782412 13.161312 -6.132367 -15.162363 0.745879 0.000000 0.000000 0.000000 11.814677 -3.239662 23.551345 13.315349 -2.998555 -21.586472 6.773251 2.598396 18.027812 4.633183 -1.812144 -18.594993 0.000000 0.000000 0.000000 -35.160521 -7.700349 3.081186 -47.158378 -4.196301 -5.444694 -25.965800 -31.913681 9.161879 0.000000 0.000000 0.000000 14.610742 16.314341 6.899955 22.561553 8.492546 -1.510266 -22.615173 37.024101 -6.186150 0.000000 0.000000 0.000000 
-0.064410 0.924056 -0.043043 3.966617 -4.800921 1.308166 14.043602 0.062287 -1.825079 -7.434074 0.943557 1.012659 -0.563434 3.039818 11.685647 0.000000 0.000000 0.000000 -12.358200 0.437314 -8.810991 6.719698 -0.789425 13.840375 -6.030378 -14.880756 0.458134 0.000000 0.000000 0.000000 11.950858 -3.290988 23.667465 13.423870 -3.091177 -21.168821 6.740152 2.291029 17.772496 4.336253 -1.711530 -18.053391 0.000000 0.000000 0.000000 -34.987947 -8.518160 3.800834 -47.348329 -5.231357 -5.092066 -24.919308 -30.959919 8.558574 0.000000 0.000000 0.000000 14.504782 16.256814 6.803944 24.046701 7.043042 -1.773839 -21.438132 39.725300 -6.304534 0.000000 0.000000 0.000000 
-0.067087 0.922984 -0.044432 3.952946 -4.907705 1.146846 14.026924 0.072971 -1.838642 -7.134030 0.921650 1.512879 -0.438528 3.182847 11.501799 0.000000 0.000000 0.000000 -12.183156 0.441108 -9.041529 6.824623 -0.810542 14.416043 -6.139994 -15.101236 0.297806 0.000000 0.000000 0.000000 11.565261 -3.226242 23.929215 13.887571 -3.220379 -21.147012 6.591835 1.666192 18.123234 3.823623 -1.528895 -17.543531 0.000000 0.000000 0.000000 -34.708209 -8.615422 4.203793 -47.813482 -6.580633 -4.763431 -23.656498 -30.111176 7.994249 0.000000 0.000000 0.000000 14.872495 15.890302 6.523076 25.090773 5.728988 -2.037016 -19.248072 43.286058 -6.183315 0.000000 0.000000 0.000000 
-0.069561 0.922131 -0.045732 3.787522 -4.783770 1.068929 14.114860 0.080015 -2.082733 -7.132435 0.929274 1.822759 -0.399026 3.150088 11.125689 0.000000 0.000000 0.000000 -11.820656 0.446083 -9.184689 6.634548 -0.775406 14.816930 -6.160618 -15.097048 -0.000829 0.000000 0.000000 0.000000 11.476270 -3.236829 24.115855 14.267396 -3.369771 -20.853562 6.467955 1.161438 18.078841 3.598035 -1.457142 -17.378426 0.000000 0.000000 0.000000 -34.628859 -8.866645 4.580623 -47.817117 -7.749208 -4.377956 -22.861623 -29.219293 7.531106 0.000000 0.000000 0.000000 14.859765 15.588477 6.285331 26.485947 3.914212 -2.433454 -16.692042 46.948928 -5.758462 0.000000 0.000000 0.000000 
-0.071506 0.921650 -0.047080 3.927101 -5.022157 0.983096 13.997862 0.085740 -1.915675 -6.935987 0.907895 1.878201 -0.206345 3.542916 11.441770 0.000000 0.000000 0.000000 -11.838017 0.452849 -9.565353 6.592276 -0.756553 15.390337 -6.014539 -14.659503 -0.434856 0.000000 0.000000 0.000000 10.941815 -3.114220 24.244375 14.630170 -3.493329 -20.699183 6.254532 0.633015 18.494496 3.343363 -1.397768 -17.206341 0.000000 0.000000 0.000000 -34.003252 -8.962342 4.948294 -48.449206 -9.066245 -4.040111 -22.382834 -28.920295 7.366983 0.000000 0.000000 0.000000 14.950157 15.329435 6.040866 27.185720 2.036565 -2.826637 -13.783444 50.766843 -5.064489 0.000000 0.000000 0.000000 
-0.072923 0.921058 -0.048368 3.895669 -5.327026 0.933413 13.943080 0.105169 -2.117712 -7.020156 0.934812 2.147382 0.089693 3.931897 11.173937 0.000000 0.000000 0.000000 -11.763775 0.466333 -9.889710 6.509505 -0.724320 15.925639 -5.833358 -14.162107 -0.699275 0.000000 0.000000 0.000000 10.732741 -3.066511 24.408591 14.635383 -3.557479 -20.347526 6.086228 0.290149 18.486933 3.023356 -1.251900 -17.162779 0.000000 0.000000 0.000000 -33.753619 -8.976943 5.168169 -48.647510 -9.996321 -3.750728 -22.223158 -29.326693 7.464538 0.000000 0.000000 0.000000 14.808824 15.046869 5.793040 27.299474 0.601089 -3.077616 -10.784639 53.191909 -3.978359 0.000000 0.000000 0.000000 
-0.074028 0.920509 -0.049513 4.051057 -5.792398 1.026341 13.860012 0.119266 -2.108863 -6.947420 0.926702 1.954235 0.392117 4.468254 11.465640 0.000000 0.000000 0.000000 -11.904974 0.483620 -10.610928 6.557204 -0.712516 16.726004 -5.617759 -13.551722 -1.044568 0.000000 0.000000 0.000000 10.269866 -2.953192 24.558103 14.988765 -3.652595 -20.329531 5.753244 0.065305 18.805649 3.210200 -1.432069 -17.201086 0.000000 0.000000 0.000000 -33.791095 -8.825990 5.270310 -48.516734 -10.344445 -3.700406 -22.583549 -30.720391 7.989924 0.000000 0.000000 0.000000 14.797928 15.104132 5.739340 26.620123 -0.476437 -3.182406 -8.517322 54.100199 -3.028939 0.000000 0.000000 0.000000 
-0.074873 0.919576 -0.050488 4.126232 -6.144667 0.927486 13.842675 0.135619 -2.032171 -6.891548 0.929259 2.069388 0.693305 4.895722 11.308741 0.000000 0.000000 0.000000 -12.094720 0.487896 -11.048234 6.589723 -0.699718 17.644071 -5.433969 -13.044742 -1.238494 0.000000 0.000000 0.000000 10.136976 -2.952886 25.109542 15.075881 -3.686443 -20.292314 5.513979 -0.129726 18.878165 3.376616 -1.543256 -17.698741 0.000000 0.000000 0.000000 -33.870108 -8.514080 5.212451 -48.746093 -10.890206 -3.558906 -23.151059 -32.240892 8.647125 0.000000 0.000000 0.000000 14.659312 15.451016 5.832591 25.808776 -1.024454 -3.158366 -6.985788 53.735425 -2.319147 0.000000 0.000000 0.000000 
-0.075560 0.918545 -0.051353 4.248102 -6.492953 0.717729 13.801706 0.152278 -1.853527 -6.949635 0.946424 2.097484 0.885052 5.156488 11.195953 0.000000 0.000000 0.000000 -12.284571 0.488608 -11.458895 6.519460 -0.658990 18.422387 -5.282941 -12.552576 -1.623467 0.000000 0.000000 0.000000 9.942347 -2.966823 26.030852 15.093441 -3.673736 -20.439309 5.614132 -0.074265 18.791140 3.959730 -1.878341 -18.302086 0.000000 0.000000 0.000000 -34.005936 -8.165970 5.003589 -49.073664 -11.029099 -3.527797 -23.660428 -34.112738 9.398648 0.000000 0.000000 0.000000 14.524632 15.715420 5.929075 25.390094 -0.695078 -3.041541 -6.564211 52.269950 -2.053705 0.000000 0.000000 0.000000 
-0.075990 0.917547 -0.052251 4.516620 -6.731482 0.733133 13.771086 0.157394 -1.723801 -7.198464 0.989917 2.133084 1.389835 5.910579 10.889109 0.000000 0.000000 0.000000 -12.492706 0.490272 -11.887728 6.422836 -0.616430 18.994357 -5.177553 -12.160798 -2.036710 0.000000 0.000000 0.000000 9.928826 -2.968249 26.287586 14.999329 -3.585533 -20.802392 5.711000 -0.089264 19.082751 4.595622 -2.263025 -18.817428 0.000000 0.000000 0.000000 -33.891254 -7.697204 4.736875 -49.248150 -10.925808 -3.623361 -24.067050 -35.760240 10.083740 0.000000 0.000000 0.000000 14.717767 16.056692 6.079949 24.601898 -0.041958 -2.841067 -8.061115 50.472986 -2.670052 0.000000 0.000000 0.000000 
-0.076218 0.916589 -0.053325 4.964921 -6.773512 0.909144 13.638184 0.156505 -2.050912 -7.622252 1.060434 2.261483 1.783162 6.635594 11.206005 0.000000 0.000000 0.000000 -12.914066 0.476496 -12.728396 6.537109 -0.637227 19.721907 -5.094509 -11.896995 -2.267993 0.000000 0.000000 0.000000 10.244803 -3.060099 26.490637 14.691636 -3.505599 -20.752350 5.758876 -0.422688 18.929244 5.361550 -2.719815 -19.518590 0.000000 0.000000 0.000000 -33.527233 -7.619281 4.837530 -49.753158 -10.991522 -3.640825 -24.680560 -37.626324 10.960108 0.000000 0.000000 0.000000 14.812677 16.500955 6.214144 23.998443 1.158038 -2.547878 -10.259110 48.353322 -3.523914 0.000000 0.000000 0.000000 
-0.076089 0.915732 -0.054855 5.578427 -7.107732 1.180452 13.104004 0.147120 -2.353266 -7.753897 1.094142 2.403317 2.210961 7.307397 11.184505 0.000000 0.000000 0.000000 -13.634286 0.455784 -13.839565 6.705889 -0.654811 20.657959 -4.940661 -11.435812 -2.512082 0.000000 0.000000 0.000000 10.520133 -3.137557 26.837471 14.317763 -3.325097 -21.198419 5.989452 -0.393856 19.153480 5.925885 -2.987455 -20.417321 0.000000 0.000000 0.000000 -33.044705 -7.736905 4.989718 -50.391715 -10.803611 -3.763777 -24.907746 -38.772968 11.466038 0.000000 0.000000 0.000000 14.979029 16.879042 6.374093 23.193424 2.814742 -2.212315 -13.669427 46.325407 -4.777674 0.000000 0.000000 0.000000 
-0.075571 0.914534 -0.056869 6.126533 -7.636269 1.403678 12.763981 0.150188 -2.610361 -8.365946 1.201658 2.374981 2.869408 8.359125 11.203406 0.000000 0.000000 0.000000 -14.249209 0.444276 -15.003659 6.703250 -0.612008 21.585362 -4.790604 -11.069148 -2.464079 0.000000 0.000000 0.000000 11.009581 -3.284175 27.510731 13.908824 -3.200527 -21.287886 6.310753 -0.505007 19.190538 6.423053 -3.239249 -21.218181 0.000000 0.000000 0.000000 -32.981761 -7.616427 5.073501 -50.490339 -10.619569 -3.882053 -25.555028 -40.327655 12.290268 0.000000 0.000000 0.000000 14.835508 17.582335 6.622325 21.960359 5.180689 -1.753407 -17.381097 43.254451 -5.876035 0.000000 0.000000 0.000000 
-0.074603 0.913486 -0.059460 6.771038 -8.123478 1.728951 12.092202 0.132574 -2.988482 -8.591637 1.241414 2.201277 3.242064 8.969155 11.477412 0.000000 0.000000 0.000000 -15.038888 0.414721 -16.406544 6.916133 -0.625157 22.854029 -4.603439 -10.485489 -2.787389 0.000000 0.000000 0.000000 11.613023 -3.451587 28.032405 13.873847 -3.219080 -21.060485 6.178887 -0.013022 19.202615 7.207173 -3.538631 -22.095116 0.000000 0.000000 0.000000 -32.686829 -8.283943 5.416326 -50.922672 -10.620375 -3.843164 -25.222436 -40.422093 12.162911 0.000000 0.000000 0.000000 14.767630 18.233064 6.998193 20.139905 7.766273 -1.329998 -20.923757 39.929152 -6.590030 0.000000 0.000000 0.000000 
-0.073337 0.912774 -0.062460 7.183402 -8.897716 2.170442 11.740835 0.132843 -3.497399 -8.995397 1.314294 1.985329 3.886616 10.029098 12.016975 0.000000 0.000000 0.000000 -15.372891 0.436000 -18.021567 6.845892 -0.534474 23.990723 -4.312268 -9.751285 -2.746421 0.000000 0.000000 0.000000 12.390251 -3.673310 28.774952 13.519976 -3.154184 -20.855157 6.206240 0.109845 19.090521 7.329570 -3.584636 -22.391985 0.000000 0.000000 0.000000 -32.930342 -8.811638 5.922934 -50.832618 -10.518601 -3.900223 -25.188881 -40.828099 12.298336 0.000000 0.000000 0.000000 14.448611 19.230858 7.411734 18.179538 10.589384 -0.942149 -23.993715 35.669641 -6.779028 0.000000 0.000000 0.000000 
-0.071948 0.912459 -0.065757 7.783038 -9.684797 2.670128 11.015452 0.105675 -3.927427 -9.342507 1.367690 1.571307 4.608129 11.167038 12.401558 0.000000 0.000000 0.000000 -15.870897 0.450218 -19.652162 6.557265 -0.366178 25.211746 -4.086272 -9.166955 -2.760253 0.000000 0.000000 0.000000 12.988678 -3.845663 29.473133 13.038058 -3.044767 -20.715418 6.110018 0.177344 19.242693 7.960512 -3.982141 -22.412979 0.000000 0.000000 0.000000 -32.763095 -9.566420 6.614441 -51.273378 -10.681356 -3.892877 -24.661710 -40.239799 11.924558 0.000000 0.000000 0.000000 14.180800 19.884870 7.654451 15.689904 12.790877 -0.722667 -26.308283 31.878136 -6.656692 0.000000 0.000000 0.000000 
-0.070713 0.912630 -0.069024 8.211265 -10.267177 3.433466 10.444145 0.068151 -4.738363 -9.733411 1.414730 1.064360 5.518706 12.635828 13.176337 0.000000 0.000000 0.000000 -16.136179 0.480570 -21.314196 6.359907 -0.254932 25.793477 -3.979897 -9.024225 -2.522910 0.000000 0.000000 0.000000 13.784379 -4.093121 30.004229 12.789930 -2.975797 -20.640784 5.608318 0.309921 18.981579 7.663976 -3.858653 -21.989416 0.000000 0.000000 0.000000 -33.572925 -10.543389 7.459327 -50.601170 -10.486601 -3.958003 -24.319924 -40.554233 11.858241 0.000000 0.000000 0.000000 14.576799 20.275490 7.861016 13.348750 15.153278 -0.598547 -28.476535 28.084759 -6.314823 0.000000 0.000000 0.000000 
-0.069767 0.913056 -0.072088 8.634919 -10.944812 3.982306 9.595691 0.016985 -5.308493 -9.600244 1.370337 0.356941 6.155783 13.615850 14.123810 0.000000 0.000000 0.000000 -16.307618 0.530795 -22.605863 6.048936 -0.087003 26.472417 -3.814351 -8.718454 -2.276599 0.000000 0.000000 0.000000 14.206812 -4.253908 30.858563 12.729248 -2.968437 -20.521426 5.272219 0.403089 18.849731 7.938273 -4.035909 -21.921082 0.000000 0.000000 0.000000 -33.871989 -11.280115 8.125969 -50.467415 -10.698558 -3.880054 -23.829107 -40.571607 11.660484 0.000000 0.000000 0.000000 14.437123 20.870516 8.109270 10.928032 16.495580 -0.619257 -29.565040 25.039376 -5.814257 0.000000 0.000000 0.000000 
-0.069177 0.913796 -0.074665 8.981300 -11.131752 4.524987 9.208456 -0.021059 -5.622569 -9.600806 1.331108 -0.388325 6.386888 13.981397 14.911973 0.000000 0.000000 0.000000 -16.506729 0.537039 -23.516834 5.710719 0.029225 26.602338 -3.627166 -8.520788 -1.696604 0.000000 0.000000 0.000000 14.629115 -4.428665 31.310859 12.534806 -2.884953 -20.665549 4.896923 0.254726 18.911827 7.752691 -4.114215 -20.777074 0.000000 0.000000 0.000000 -34.526192 -11.818524 8.733275 -50.092357 -10.925490 -3.836007 -23.618061 -40.862926 11.680839 0.000000 0.000000 0.000000 14.442758 21.149715 8.220520 9.629438 17.183033 -0.668255 -31.339989 22.843034 -5.630789 0.000000 0.000000 0.000000 
-0.068700 0.914519 -0.076551 9.060875 -11.606391 5.168794 8.985663 -0.043872 -6.024040 -9.556996 1.302525 -0.974540 6.601285 14.274791 15.607831 0.000000 0.000000 0.000000 -16.464896 0.602799 -24.519167 5.586733 0.103668 26.782430 -3.546335 -8.489726 -1.361697 0.000000 0.000000 0.000000 14.966395 -4.554164 31.717491 12.213681 -2.785723 -20.718992 4.771159 0.187194 18.898224 7.842193 -4.302945 -20.029751 0.000000 0.000000 0.000000 -35.449471 -12.319039 9.398196 -49.459874 -11.625134 -3.603745 -22.691267 -41.018646 11.359523 0.000000 0.000000 0.000000 14.627361 21.353226 8.284735 8.211016 17.790556 -0.736566 -31.503359 20.750849 -5.103834 0.000000 0.000000 0.000000 
-0.068439 0.915419 -0.077722 9.307908 -11.920587 5.456891 8.606597 -0.074096 -6.452622 -9.527291 1.293108 -1.210284 6.889653 14.681421 16.096415 0.000000 0.000000 0.000000 -16.680303 0.616631 -25.283056 5.479796 0.173311 27.138142 -3.319200 -7.871376 -1.471530 0.000000 0.000000 0.000000 15.116066 -4.638504 32.310205 11.906328 -2.736334 -20.507388 4.319524 -0.042154 18.945439 7.549379 -4.230528 -19.565585 0.000000 0.000000 0.000000 -35.858854 -12.732691 9.943200 -49.131637 -12.394911 -3.352345 -21.423383 -41.406047 10.979440 0.000000 0.000000 0.000000 15.042339 21.565159 8.356820 7.546972 17.530229 -0.768152 -31.600108 19.851917 -4.891050 0.000000 0.000000 0.000000 
-0.068575 0.915623 -0.078392 9.363453 -11.664163 5.671951 8.663981 -0.084273 -6.904405 -9.535480 1.293255 -1.074839 6.860454 14.667280 16.509806 0.000000 0.000000 0.000000 -16.925146 0.566266 -25.501884 5.647583 0.092718 27.146121 -3.315340 -7.709054 -1.823402 0.000000 0.000000 0.000000 15.064362 -4.692930 32.555814 11.418583 -2.619274 -20.444182 4.212418 -0.514614 19.292948 6.854988 -3.845412 -19.706578 0.000000 0.000000 0.000000 -36.489390 -12.489512 10.057724 -48.660980 -13.251313 -3.115910 -20.585622 -41.691004 10.763225 0.000000 0.000000 0.000000 14.899431 21.551061 8.269286 8.163027 17.128492 -0.740665 -30.356179 19.661412 -4.633781 0.000000 0.000000 0.000000 
-0.069403 0.915851 -0.078776 9.646002 -11.757808 5.784883 8.668377 -0.086514 -7.114356 -10.009519 1.374663 -0.893598 6.788764 14.546671 16.386337 0.000000 0.000000 0.000000 -17.166042 0.546075 -26.079262 5.855092 0.044817 27.521907 -3.270008 -7.394850 -2.256593 0.000000 0.000000 0.000000 14.454621 -4.536044 32.825642 11.364741 -2.575331 -20.637984 3.875426 -0.887062 20.010059 6.734510 -3.928134 -19.244145 0.000000 0.000000 0.000000 -37.363744 -12.311308 10.307851 -48.031053 -14.435950 -2.824868 -19.331109 -42.092790 10.420051 0.000000 0.000000 0.000000 15.374963 21.806361 8.362689 8.558238 15.672303 -0.733851 -29.239199 20.272285 -4.610260 0.000000 0.000000 0.000000 
-0.070991 0.915323 -0.078888 9.806423 -11.424417 6.038590 8.855864 -0.088686 -7.622623 -10.127623 1.399388 -0.580687 6.651561 14.381645 16.650717 0.000000 0.000000 0.000000 -17.274753 0.500274 -26.549705 6.116632 -0.053402 28.104709 -3.435495 -7.794355 -2.409174 0.000000 0.000000 0.000000 13.834298 -4.416780 32.897962 11.390267 -2.619730 -20.283284 3.609962 -1.379720 20.210123 6.373894 -3.813955 -18.697227 0.000000 0.000000 0.000000 -37.775431 -11.788524 10.139951 -47.504192 -14.950440 -2.709332 -19.066442 -42.921434 10.582084 0.000000 0.000000 0.000000 14.983186 21.778932 8.261760 10.630954 14.486996 -0.689352 -27.603340 20.768920 -4.439498 0.000000 0.000000 0.000000 
-0.073336 0.914851 -0.078823 9.829287 -11.375721 6.283618 8.917185 -0.089964 -7.669755 -10.034637 1.387622 -0.510119 6.324121 13.884247 16.391820 0.000000 0.000000 0.000000 -17.094810 0.525612 -27.047675 6.014912 0.003456 28.846611 -3.523212 -8.010041 -2.492701 0.000000 0.000000 0.000000 13.157843 -4.274368 33.337292 11.247642 -2.551239 -20.482378 3.250004 -1.518843 20.853858 6.446124 -3.932263 -18.530499 0.000000 0.000000 0.000000 -38.420467 -11.706628 10.259787 -46.469793 -16.033467 -2.414107 -18.110162 -43.106513 10.232951 0.000000 0.000000 0.000000 14.956264 21.815508 8.288683 11.987360 13.518856 -0.716005 -26.090226 21.053581 -4.221285 0.000000 0.000000 0.000000 
-0.075820 0.914625 -0.078534 9.799897 -10.974844 6.567869 9.263812 -0.080099 -7.912027 -10.404819 1.424460 -0.587951 6.293742 13.893398 16.502486 0.000000 0.000000 0.000000 -16.975518 0.505736 -27.347693 6.295141 -0.129401 28.987941 -3.736672 -8.589769 -2.541842 0.000000 0.000000 0.000000 12.820382 -4.248666 33.444489 11.149200 -2.517432 -20.470635 2.901857 -1.990792 20.845414 6.108810 -3.816405 -17.999673 0.000000 0.000000 0.000000 -38.931536 -11.448051 10.263670 -45.865859 -16.527775 -2.289992 -18.525272 -43.902488 10.636424 0.000000 0.000000 0.000000 14.743540 21.599022 8.119923 13.672958 12.350300 -0.750074 -26.424084 21.847652 -4.479871 0.000000 0.000000 0.000000 
-0.078133 0.914739 -0.078031 9.694758 -11.177630 6.758743 9.585072 -0.050906 -8.120776 -10.444305 1.453671 -0.303879 6.152290 13.659487 16.664261 0.000000 0.000000 0.000000 -16.687047 0.575976 -28.132638 6.640500 -0.198756 29.912243 -3.929868 -8.994773 -2.845561 0.000000 0.000000 0.000000 12.556285 -4.214672 34.162522 10.905340 -2.325374 -21.457313 2.631072 -2.232738 21.905915 6.112343 -3.798533 -18.965321 0.000000 0.000000 0.000000 -38.896993 -11.479547 10.505567 -45.841387 -17.640918 -2.021232 -18.085173 -44.914108 10.795213 0.000000 0.000000 0.000000 14.174136 21.191792 7.844304 13.732367 11.860691 -0.806811 -27.229362 21.900575 -4.697479 0.000000 0.000000 0.000000 
-0.080444 0.914984 -0.077196 9.725232 -11.108265 7.079152 9.691251 -0.051846 -8.266759 -10.550331 1.479098 -0.098901 6.094159 13.599186 17.072187 0.000000 0.000000 0.000000 -16.560474 0.597503 -28.527144 6.955054 -0.317565 30.046095 -4.075871 -9.379151 -2.929627 0.000000 0.000000 0.000000 12.661947 -4.247967 33.843373 10.775584 -2.321993 -21.191629 2.125304 -2.405685 21.736877 5.778762 -3.657706 -18.441805 0.000000 0.000000 0.000000 -39.701354 -11.615683 10.820241 -45.378882 -18.725264 -1.675722 -16.912302 -45.891822 10.556097 0.000000 0.000000 0.000000 14.216636 20.983015 7.721833 12.774134 11.310987 -0.819784 -28.228296 22.370012 -5.035062 0.000000 0.000000 0.000000 
-0.083326 0.914817 -0.075932 9.883189 -11.268974 7.083553 9.879970 -0.034872 -7.834297 -10.504494 1.478247 -0.075935 5.894033 13.296176 17.334527 0.000000 0.000000 0.000000 -16.341973 0.651724 -28.845005 7.305591 -0.407778 30.531996 -4.180334 -9.573285 -3.147401 0.000000 0.000000 0.000000 12.608566 -4.214311 33.913844 10.458999 -2.216906 -21.425458 1.629896 -2.688360 22.083026 6.297146 -4.185382 -17.270026 0.000000 0.000000 0.000000 -40.206087 -11.813178 11.270425 -44.836971 -19.633327 -1.475186 -16.140325 -46.489461 10.385511 0.000000 0.000000 0.000000 14.602024 21.282141 7.818523 11.528225 10.753582 -0.822476 -29.375189 22.170743 -5.256524 0.000000 0.000000 0.000000 
-0.086873 0.913626 -0.074258 9.941617 -11.463585 6.756331 10.184463 -0.001607 -7.135718 -10.543675 1.510305 0.203870 5.932224 13.333505 17.301290 0.000000 0.000000 0.000000 -15.959873 0.726325 -28.846485 7.543471 -0.450069 30.895436 -4.423378 -10.123054 -3.375491 0.000000 0.000000 0.000000 12.733651 -4.229836 34.155441 10.041292 -2.119738 -21.487082 1.367122 -3.193095 22.162834 5.973224 -4.034908 -17.458196 0.000000 0.000000 0.000000 -40.760319 -11.895547 11.764583 -44.234745 -19.937054 -1.527013 -15.970352 -47.451433 10.591378 0.000000 0.000000 0.000000 14.388104 21.487249 7.765183 10.551640 10.986480 -0.786627 -29.742758 21.976064 -5.333997 0.000000 0.000000 0.000000 
-0.090791 0.913212 -0.072717 10.158540 -11.966724 6.611197 10.068428 0.003916 -6.704708 -10.452510 1.543885 0.662813 6.009464 13.380625 17.100238 0.000000 0.000000 0.000000 -15.743540 0.815029 -28.880729 7.444540 -0.347221 31.096814 -4.382320 -9.873924 -3.646685 0.000000 0.000000 0.000000 12.862901 -4.201664 34.220575 9.450490 -2.022185 -21.217385 0.943109 -3.448560 21.875543 5.944893 -4.111906 -17.060713 0.000000 0.000000 0.000000 -41.089009 -12.302802 12.384635 -42.794708 -20.144409 -1.557851 -15.547836 -48.238491 10.519418 0.000000 0.000000 0.000000 15.124177 22.236228 8.041086 9.359175 11.277805 -0.744982 -29.449933 21.825891 -5.242041 0.000000 0.000000 0.000000 
-0.094316 0.912565 -0.071837 10.402283 -12.804880 6.562332 10.253371 0.039364 -6.200126 -10.634748 1.631113 1.089541 6.140650 13.474376 16.950073 0.000000 0.000000 0.000000 -15.361744 0.983024 -29.544468 7.295824 -0.169500 31.847385 -4.480265 -10.034828 -3.865160 0.000000 0.000000 0.000000 12.655042 -4.054576 34.637939 9.017258 -1.858805 -21.810782 0.883278 -3.444644 22.472586 6.363651 -4.396963 -17.685421 0.000000 0.000000 0.000000 -40.601714 -12.916156 13.058441 -42.264266 -20.222539 -1.637057 -14.689450 -48.503006 10.172335 0.000000 0.000000 0.000000 14.784466 22.473858 8.047658 8.967248 12.306630 -0.740945 -28.421474 22.176969 -5.147756 0.000000 0.000000 0.000000 
-0.097086 0.913032 -0.071841 10.615215 -13.158661 6.612344 9.999385 0.030723 -6.220664 -10.533410 1.674643 1.759593 6.220450 13.530114 16.331902 0.000000 0.000000 0.000000 -14.938127 1.108533 -29.992586 6.883749 0.033132 32.021643 -4.584938 -10.463568 -3.539189 0.000000 0.000000 0.000000 12.638301 -3.986747 34.453893 8.855634 -1.877741 -21.360485 0.793526 -3.644327 22.184610 6.100205 -4.214625 -18.060337 0.000000 0.000000 0.000000 -41.035754 -12.967686 13.391730 -41.129753 -20.320817 -1.686551 -14.953738 -49.053262 10.375427 0.000000 0.000000 0.000000 14.055395 22.785623 8.057231 9.050183 13.201338 -0.718196 -27.539437 22.993461 -5.187329 0.000000 0.000000 0.000000 
-0.099280 0.913560 -0.072432 10.926898 -13.055631 6.853051 9.642501 -0.003502 -6.837532 -10.209255 1.682754 2.732747 6.082184 13.328371 16.556889 0.000000 0.000000 0.000000 -15.048731 1.104874 -30.603780 6.666073 0.110158 32.354320 -4.166308 -9.703264 -2.746997 0.000000 0.000000 0.000000 12.447644 -3.938238 34.320437 8.824977 -1.863620 -21.364187 0.663372 -3.764152 22.634616 5.886069 -4.018259 -19.029629 0.000000 0.000000 0.000000 -40.727389 -13.700378 14.027305 -40.911207 -20.550754 -1.651961 -13.349408 -49.263249 9.655959 0.000000 0.000000 0.000000 13.915196 23.135254 8.211558 8.820672 13.589841 -0.735506 -26.850704 24.261134 -5.349137 0.000000 0.000000 0.000000 
-0.101237 0.913967 -0.073227 11.116265 -12.816458 6.887623 9.328492 -0.036987 -7.248176 -9.604374 1.623195 3.610724 5.822477 12.930776 15.928490 0.000000 0.000000 0.000000 -14.997751 1.081254 -30.537544 6.933849 -0.029195 32.103670 -4.467412 -10.545949 -2.695981 0.000000 0.000000 0.000000 12.437591 -3.948918 34.060559 8.736697 -1.878462 -21.015049 0.572364 -3.723111 22.407229 5.669995 -3.836351 -19.112217 0.000000 0.000000 0.000000 -41.298805 -14.032428 14.307525 -39.909149 -20.529566 -1.661907 -13.412417 -48.905445 9.487564 0.000000 0.000000 0.000000 13.659621 23.184008 8.266498 9.516608 13.633710 -0.726656 -26.133516 25.751785 -5.526992 0.000000 0.000000 0.000000 
-0.103133 0.914462 -0.074078 11.061745 -12.154528 6.991787 9.399667 -0.048227 -8.140282 -9.295163 1.634795 4.960083 5.439474 12.413635 15.900495 0.000000 0.000000 0.000000 -14.788980 1.034812 -30.219923 6.881712 -0.103005 31.569224 -4.654028 -11.128364 -2.497235 0.000000 0.000000 0.000000 12.362779 -3.996656 33.868133 8.956418 -1.943835 -20.816679 0.304523 -3.215126 22.654171 5.163271 -3.320340 -20.124214 0.000000 0.000000 0.000000 -40.752170 -14.449181 14.056465 -39.888355 -20.360510 -1.562209 -12.955244 -49.069903 9.253545 0.000000 0.000000 0.000000 13.590636 23.246221 8.499076 10.216758 13.269641 -0.755343 -25.710188 26.461963 -5.539286 0.000000 0.000000 0.000000 
-0.104687 0.914455 -0.074750 10.943350 -11.030458 7.010389 9.331865 -0.080876 -9.088947 -8.559969 1.616613 7.483974 4.928956 11.711870 15.175833 0.000000 0.000000 0.000000 -14.644661 0.917394 -29.646976 7.369794 -0.413897 31.139524 -5.131447 -12.326855 -2.692120 0.000000 0.000000 0.000000 12.361831 -4.099685 33.468093 8.685648 -1.843029 -21.009191 0.623698 -2.762460 23.148811 4.624523 -2.729772 -21.612755 0.000000 0.000000 0.000000 -40.676882 -14.882984 13.921349 -39.535608 -20.232701 -1.516992 -13.131377 -48.588528 9.163282 0.000000 0.000000 0.000000 13.127465 22.705805 8.440991 11.492649 12.939742 -0.804718 -25.247050 27.707639 -5.664508 0.000000 0.000000 0.000000 
-0.105562 0.915005 -0.074709 10.859228 -10.024638 6.487207 9.797223 -0.047598 -9.825251 -8.621126 1.734165 9.507623 4.152231 10.545499 14.354038 0.000000 0.000000 0.000000 -14.388022 0.814299 -28.318753 7.344011 -0.517289 30.265925 -5.350837 -12.822228 -2.803061 0.000000 0.000000 0.000000 11.790422 -4.004158 33.374976 8.803374 -1.900242 -20.711490 0.269316 -1.985599 23.247344 4.203382 -2.267036 -21.867335 0.000000 0.000000 0.000000 -39.984757 -14.742426 12.931066 -39.721289 -19.524428 -1.516570 -15.179604 -47.894388 9.875883 0.000000 0.000000 0.000000 13.770961 22.222991 8.547009 12.568243 12.078104 -0.877284 -24.293749 29.119591 -5.638983 0.000000 0.000000 0.000000 
-0.105215 0.915908 -0.073667 10.866099 -9.298973 6.427693 10.266506 -0.004843 -11.315310 -9.103013 2.007660 12.037041 3.883770 10.113765 13.483249 0.000000 0.000000 0.000000 -14.491568 0.715646 -28.259152 7.812817 -0.764977 30.121193 -5.960053 -14.614757 -2.073757 0.000000 0.000000 0.000000 10.739168 -3.721030 32.942312 8.947610 -1.893304 -20.978106 0.769579 -0.912638 23.915858 1.261142 -0.194695 -23.155327 0.000000 0.000000 0.000000 -39.995644 -13.611390 11.312939 -40.248753 -18.841450 -1.604046 -17.667790 -47.241344 10.867979 0.000000 0.000000 0.000000 13.690396 21.430988 8.495187 13.608341 11.938948 -0.982170 -22.894385 30.080324 -5.375276 0.000000 0.000000 0.000000 
-0.103052 0.917416 -0.071539 11.137745 -8.616851 6.262682 10.625550 0.038066 -12.612912 -10.000679 2.285814 13.014034 3.934173 10.317995 13.846248 0.000000 0.000000 0.000000 -14.810373 0.584667 -27.965091 7.524995 -0.728797 30.382271 -6.181795 -15.357304 -1.255675 0.000000 0.000000 0.000000 10.279234 -3.570284 32.026775 7.945895 -1.758849 -19.841141 1.284705 0.266194 22.962545 -1.014748 1.389586 -22.343477 0.000000 0.000000 0.000000 -40.029661 -12.422223 9.464367 -40.223297 -16.965321 -1.895779 -20.998104 -45.299336 11.703116 0.000000 0.000000 0.000000 14.755203 20.485902 8.461004 14.005329 10.765743 -1.082720 -20.736174 32.293942 -5.089944 0.000000 0.000000 0.000000 
-0.098981 0.917121 -0.067959 11.396483 -7.387204 5.771670 10.943644 0.042199 -12.683571 -10.284926 2.306620 13.173189 4.049238 10.514399 12.865818 0.000000 0.000000 0.000000 -15.422697 0.339359 -27.064459 7.742712 -0.933595 30.594139 -6.755896 -16.779180 -1.047606 0.000000 0.000000 0.000000 9.431104 -3.372515 31.491849 8.344938 -1.722089 -21.040111 1.078324 0.854470 24.899292 -3.663333 3.202657 -23.922063 0.000000 0.000000 0.000000 -41.029482 -10.761339 7.664342 -39.751690 -15.994283 -2.236425 -22.736689 -43.580076 11.940910 0.000000 0.000000 0.000000 15.123587 20.221797 8.688259 15.240186 10.695565 -1.250899 -19.604123 33.224468 -4.851449 0.000000 0.000000 0.000000 
-0.093258 0.915845 -0.063702 11.706565 -6.169441 5.369555 11.642899 0.097217 -13.199485 -10.742534 2.364020 13.257496 4.418843 11.459190 14.677102 0.000000 0.000000 0.000000 -15.924574 0.118005 -26.583048 7.913586 -1.127953 31.222909 -6.683985 -16.533234 -1.360115 0.000000 0.000000 0.000000 8.920164 -3.305916 31.306951 7.763506 -1.632005 -20.377863 0.979724 1.581417 23.343838 -4.927985 4.163518 -23.761596 0.000000 0.000000 0.000000 -40.746046 -10.213525 6.227635 -39.934360 -13.824347 -2.492212 -23.099023 -41.051317 11.116138 0.000000 0.000000 0.000000 16.195563 19.652206 8.832186 16.312882 10.233995 -1.339068 -17.296571 32.995196 -4.028914 0.000000 0.000000 0.000000 
-0.085704 0.912694 -0.059032 11.596151 -4.598502 5.170178 12.822474 0.160456 -12.846920 -10.458170 2.116393 12.139163 4.022090 11.037154 14.756264 0.000000 0.000000 0.000000 -16.289549 -0.102873 -25.914265 8.264410 -1.450661 31.910103 -7.462050 -18.400542 -1.732403 0.000000 0.000000 0.000000 8.373914 -3.225546 30.584222 7.498463 -1.532081 -20.450699 1.003240 2.477583 23.733095 -6.621330 5.397186 -24.926818 0.000000 0.000000 0.000000 -41.826659 -9.905347 5.006409 -38.832276 -11.790713 -2.800294 -22.736654 -39.382529 10.320311 0.000000 0.000000 0.000000 16.356831 18.976307 8.923583 17.956220 10.504592 -1.484700 -14.921093 31.749289 -3.102718 0.000000 0.000000 0.000000 
-0.075985 0.907566 -0.053968 11.908873 -3.503919 4.873515 14.439652 0.275224 -12.448021 -10.519056 1.982236 10.885779 4.201992 11.690706 16.589903 0.000000 0.000000 0.000000 -17.736412 -0.490482 -25.995290 9.150559 -1.983927 33.679481 -7.677371 -18.861603 -2.905864 0.000000 0.000000 0.000000 7.272071 -2.981942 30.514504 7.183227 -1.444155 -20.349581 0.781729 2.966584 23.426878 -7.331465 5.925560 -25.966722 0.000000 0.000000 0.000000 -41.213542 -9.088132 3.610436 -38.310602 -10.472869 -2.935736 -23.102007 -38.351380 10.034554 0.000000 0.000000 0.000000 16.903245 18.900951 9.213308 18.843515 10.905982 -1.521037 -12.827453 30.737203 -2.391914 0.000000 0.000000 0.000000 
-0.063535 0.901079 -0.048095 11.314517 -1.851695 5.067989 17.073043 0.433137 -12.373639 -10.402790 1.728449 8.637205 3.467655 11.131554 18.583227 0.000000 0.000000 0.000000 -18.597065 -0.848106 -26.151399 10.201131 -2.715603 34.806663 -8.095309 -19.963083 -3.211252 0.000000 0.000000 0.000000 7.012443 -3.031766 30.068481 7.007865 -1.323391 -20.799901 0.763054 3.840292 23.091107 -8.118278 6.627405 -25.318958 0.000000 0.000000 0.000000 -41.278273 -8.619677 2.125382 -37.113004 -8.394631 -3.104056 -22.764115 -37.133466 9.401285 0.000000 0.000000 0.000000 16.994229 17.770897 9.058543 20.816615 10.760465 -1.687339 -10.488977 29.573469 -1.624125 0.000000 0.000000 0.000000 
-0.047371 0.893629 -0.040852 10.515248 -0.495013 4.540653 19.576355 0.572907 -12.015702 -9.858966 1.484578 7.097004 2.915472 10.599556 18.992345 0.000000 0.000000 0.000000 -19.738245 -1.248057 -26.056940 11.533976 -3.704422 37.809625 -8.173830 -20.155647 -4.114111 0.000000 0.000000 0.000000 6.999526 -3.133297 30.001993 6.468353 -1.181538 -20.619782 1.080673 4.445455 23.213396 -8.475372 6.981625 -25.605987 0.000000 0.000000 0.000000 -40.811166 -7.758066 0.646200 -37.065177 -7.569610 -3.112978 -22.258058 -36.870964 9.057071 0.000000 0.000000 0.000000 16.362633 16.986909 8.827284 22.522572 9.959696 -1.908420 -9.891864 30.214720 -1.447109 0.000000 0.000000 0.000000 
-0.026838 0.885865 -0.032114 9.378206 0.231172 3.774894 21.073023 0.665805 -11.790870 -8.049658 1.093201 5.689760 2.393593 10.053017 19.430771 0.000000 0.000000 0.000000 -20.101944 -1.349365 -24.981290 11.980851 -4.113173 38.936340 -8.199975 -20.203070 -5.297754 0.000000 0.000000 0.000000 7.173300 -3.231865 29.942203 6.126827 -1.076663 -20.783824 1.213329 5.487503 23.893772 -7.800635 6.823905 -26.381698 0.000000 0.000000 0.000000 -41.272859 -7.557482 -0.398889 -36.101725 -7.171676 -2.950687 -20.077475 -37.333655 8.320997 0.000000 0.000000 0.000000 16.680375 17.023979 9.223386 24.517290 8.709233 -2.283579 -9.498874 30.239742 -1.291010 0.000000 0.000000 0.000000 
-0.002302 0.879320 -0.022615 7.954513 1.312242 3.259724 21.693410 0.689582 -12.233525 -6.543399 0.822650 5.439464 2.378162 10.065933 18.782669 0.000000 0.000000 0.000000 -21.037051 -1.580664 -23.772743 12.722486 -4.770856 39.972521 -8.150301 -20.089600 -6.377170 0.000000 0.000000 0.000000 6.840026 -3.184665 29.525686 5.866426 -1.045944 -20.100799 1.959303 6.385505 22.985040 -7.981610 7.174321 -24.241589 0.000000 0.000000 0.000000 -41.796566 -7.702173 -1.264919 -34.785147 -5.933996 -2.853879 -19.332904 -36.531163 7.759375 0.000000 0.000000 0.000000 18.478850 15.949153 9.319716 25.026109 7.344418 -2.599195 -9.354270 30.857228 -1.227820 0.000000 0.000000 0.000000 
0.026583 0.870906 -0.012937 6.575739 2.246230 3.878197 21.705707 0.662801 -13.245304 -7.381016 0.926063 5.396330 2.551023 9.794919 15.663504 0.000000 0.000000 0.000000 -21.800188 -1.877210 -24.271093 13.352706 -5.439664 41.136230 -7.823285 -19.251509 -7.317130 0.000000 0.000000 0.000000 7.110930 -3.259970 28.479006 4.797098 -0.667726 -20.964447 2.388653 6.651452 23.785617 -8.498525 7.606858 -24.271576 0.000000 0.000000 0.000000 -41.978051 -7.236042 -2.097142 -33.859334 -5.236739 -2.908506 -17.578112 -37.491946 7.338117 0.000000 0.000000 0.000000 19.347587 14.228936 8.797777 26.425002 6.911117 -2.929194 -8.645231 32.253866 -1.027790 0.000000 0.000000 0.000000 
0.059000 0.864597 -0.003644 4.998338 2.808339 4.356642 23.092246 0.771420 -14.020338 -7.963336 1.008753 5.700173 2.835913 9.972191 14.221836 0.000000 0.000000 0.000000 -22.415205 -2.002997 -23.872131 13.960419 -5.992150 41.850415 -8.484423 -21.215020 -7.664273 0.000000 0.000000 0.000000 6.636738 -2.907678 25.968498 4.839332 -0.665778 -20.914900 3.232922 7.060956 24.460617 -7.162491 6.974959 -24.192371 0.000000 0.000000 0.000000 -40.081991 -5.230428 -3.769393 -35.302162 -3.758909 -3.478605 -18.895338 -36.306338 7.474692 0.000000 0.000000 0.000000 20.519798 13.805008 8.995372 26.939128 6.499473 -3.165726 -9.739750 30.692008 -1.243977 0.000000 0.000000 0.000000 
0.094462 0.858700 0.005161 6.011167 5.203789 4.348282 20.193422 0.648110 -18.549537 -9.225484 1.355297 11.508995 4.322654 11.417625 8.734633 0.000000 0.000000 0.000000 -25.413876 -2.501396 -20.464431 12.792226 -5.468363 38.701322 -8.808469 -22.043626 -5.311934 0.000000 0.000000 0.000000 5.163699 -2.671092 26.012119 5.157418 -0.540193 -23.202134 2.220360 5.168817 24.350238 -6.099306 6.281279 -24.058829 0.000000 0.000000 0.000000 -40.525974 -4.228889 -4.411439 -34.006347 -3.939296 -3.333211 -18.616685 -37.062546 7.562869 0.000000 0.000000 0.000000 22.627317 11.745957 8.123703 26.976418 6.484447 -3.281850 -8.365135 29.742272 -0.843018 0.000000 0.000000 0.000000 
