HIERARCHY
ROOT Hips
{
	OFFSET -0.001795 -0.223333 0.028219
	CHANNELS 6 Xposition Yposition Zposition Zrotation Yrotation Xrotation 
	JOINT LeftUpLeg
	{
		OFFSET 0.069520 -0.091406 -0.006815
		CHANNELS 3 Zrotation Yrotation Xrotation
		JOINT LeftLeg
		{
			OFFSET 0.034277 -0.375199 -0.004496
			CHANNELS 3 Zrotation Yrotation Xrotation
			JOINT LeftFoot
			{
				OFFSET -0.013596 -0.397961 -0.043693
				CHANNELS 3 Zrotation Yrotation Xrotation
				JOINT LeftToe
				{
					OFFSET 0.026358 -0.055791 0.119288
					CHANNELS 3 Zrotation Yrotation Xrotation
					End Site
					{
						OFFSET 0.000000 0.000000 0.000000
					}
				}
			}
		}
	}
	JOINT RightUpLeg
	{
		OFFSET -0.067670 -0.090522 -0.004320
		CHANNELS 3 Zrotation Yrotation Xrotation
		JOINT RightLeg
		{
			OFFSET -0.038290 -0.382569 -0.008850
			CHANNELS 3 Zrotation Yrotation Xrotation
			JOINT RightFoot
			{
				OFFSET 0.015774 -0.398415 -0.042312
				CHANNELS 3 Zrotation Yrotation Xrotation
				JOINT RightToe
				{
					OFFSET -0.025372 -0.048144 0.123348
					CHANNELS 3 Zrotation Yrotation Xrotation
					End Site
					{
						OFFSET 0.000000 0.000000 0.000000
					}
				}
			}
		}
	}
	JOINT Spine
	{
		OFFSET -0.002533 0.108963 -0.026696
		CHANNELS 3 Zrotation Yrotation Xrotation
		JOINT Spine1
		{
			OFFSET 0.005487 0.135180 0.001092
			CHANNELS 3 Zrotation Yrotation Xrotation
			JOINT Spine2
			{
				OFFSET 0.001457 0.052922 0.025425
				CHANNELS 3 Zrotation Yrotation Xrotation
				JOINT Neck
				{
					OFFSET -0.002778 0.213870 -0.042857
					CHANNELS 3 Zrotation Yrotation Xrotation
					JOINT Head
					{
						OFFSET 0.005152 0.064970 0.051349
						CHANNELS 3 Zrotation Yrotation Xrotation
						End Site
						{
							OFFSET 0.000000 0.000000 0.000000
						}
					}
				}
				JOINT LeftShoulder
				{
					OFFSET 0.078845 0.121749 -0.034090
					CHANNELS 3 Zrotation Yrotation Xrotation
					JOINT LeftArm
					{
						OFFSET 0.090977 0.030469 -0.008868
						CHANNELS 3 Zrotation Yrotation Xrotation
						JOINT LeftForeArm
						{
							OFFSET 0.259612 -0.012772 -0.027456
							CHANNELS 3 Zrotation Yrotation Xrotation
							JOINT LeftHand
							{
								OFFSET 0.249234 0.008986 -0.001171
								CHANNELS 3 Zrotation Yrotation Xrotation
								End Site
								{
									OFFSET 0.000000 0.000000 0.000000
								}
							}
						}
					}
				}
				JOINT RightShoulder
				{
					OFFSET -0.081759 0.118833 -0.038615
					CHANNELS 3 Zrotation Yrotation Xrotation
					JOINT RightArm
					{
						OFFSET -0.096012 0.032551 -0.009143
						CHANNELS 3 Zrotation Yrotation Xrotation
						JOINT RightForeArm
						{
							OFFSET -0.253742 -0.013329 -0.021401
							CHANNELS 3 Zrotation Yrotation Xrotation
							JOINT RightHand
							{
								OFFSET -0.255298 0.007772 -0.005559
								CHANNELS 3 Zrotation Yrotation Xrotation
								End Site
								{
									OFFSET 0.000000 0.000000 0.000000
								}
							}
						}
					}
				}
			}
		}
	}
}
MOTION
Frames: 88
Frame Time: 0.050000
0.000000 0.945418 0.000000 -1.271764 8.201209 1.647224 6.337944 -0.114638 4.612202 -5.300898 0.364819 -6.424213 2.783632 7.880089 5.583793 0.000000 0.000000 0.000000 -1.907939 -0.162144 2.017046 2.764890 -0.327246 1.737242 -1.187747 -4.041985 3.209091 0.000000 0.000000 0.000000 -2.206059 -0.054262 3.414714 4.545151 -0.505613 -21.237510 -2.360495 -3.809187 28.432803 0.692729 1.742480 -32.261723 0.000000 0.000000 0.000000 -37.444300 1.159557 -4.593846 -41.477490 -1.399734 -6.103995 -11.419542 -32.619496 4.932502 0.000000 0.000000 0.000000 29.254711 1.923316 0.146741 47.069316 1.936617 -6.294612 2.874343 33.213065 2.539442 0.000000 0.000000 0.000000 
0.000895 0.944610 0.001844 -1.105335 8.339235 2.574773 6.381815 -0.140633 4.258649 -5.560316 0.340376 -7.568486 3.048951 8.577938 6.257883 0.000000 0.000000 0.000000 -2.948574 -0.034284 0.870562 3.658185 -0.455378 1.773627 -1.166888 -3.795586 2.552409 0.000000 0.000000 0.000000 -2.563269 -0.000773 1.834499 4.643634 -0.563010 -20.575648 -2.723414 -3.840441 29.086730 0.579553 1.883877 -33.647433 0.000000 0.000000 0.000000 -37.367607 2.484529 -5.622930 -41.630162 -1.158796 -6.233235 -12.869467 -32.153577 5.300105 0.000000 0.000000 0.000000 29.031786 1.492991 -0.061226 47.824639 2.113493 -6.388880 2.342314 33.551816 2.470472 0.000000 0.000000 0.000000 
0.002898 0.943913 0.003894 -0.761470 8.728327 2.801731 6.297451 -0.146502 4.097932 -6.324653 0.346658 -7.502562 3.106015 8.770822 6.510145 0.000000 0.000000 0.000000 -3.210606 -0.071864 1.376928 3.426180 -0.427373 1.010699 -1.237442 -3.946948 2.511991 0.000000 0.000000 0.000000 -2.290970 0.000707 1.478084 3.913315 -0.365580 -20.266337 -2.716039 -3.897872 29.836714 0.068516 2.162113 -33.888653 0.000000 0.000000 0.000000 -36.157442 2.207738 -5.256113 -41.891484 -1.312775 -6.280264 -11.839930 -31.477560 4.876686 0.000000 0.000000 0.000000 29.086926 2.231730 0.529597 48.024524 2.690039 -6.278462 0.740604 31.412509 1.857138 0.000000 0.000000 0.000000 
0.006160 0.943190 0.006518 -0.723101 8.994238 2.935031 5.908378 -0.118858 4.239892 -5.954008 0.345736 -7.125169 3.528451 9.201208 5.567850 0.000000 0.000000 0.000000 -3.552961 -0.057907 1.263366 3.892204 -0.494978 1.036116 -1.141896 -3.657248 2.335529 0.000000 0.000000 0.000000 -2.326535 0.001481 1.509721 4.198616 -0.412007 -20.819126 -2.988474 -3.726164 30.631691 0.378453 2.124664 -35.038609 0.000000 0.000000 0.000000 -37.227873 2.765737 -6.058356 -40.583876 -0.748315 -6.222215 -11.862960 -32.151259 4.969136 0.000000 0.000000 0.000000 29.296235 2.353865 0.838995 47.769219 2.728848 -6.379136 0.331532 31.343484 1.794831 0.000000 0.000000 0.000000 
0.011086 0.942472 0.009966 -0.804185 9.194363 2.693140 5.507054 -0.085136 4.306286 -5.832217 0.347778 -6.837407 3.432031 8.843932 4.988854 0.000000 0.000000 0.000000 -3.704692 -0.111035 1.929422 3.624307 -0.460191 0.784147 -1.105793 -3.427211 1.838422 0.000000 0.000000 0.000000 -2.150357 -0.017973 2.094637 4.319207 -0.468172 -20.340552 -3.016850 -3.631187 29.996692 0.575431 2.055910 -34.767649 0.000000 0.000000 0.000000 -36.740097 2.559773 -5.937113 -40.188650 -0.253005 -6.238806 -12.115874 -31.266096 4.857360 0.000000 0.000000 0.000000 29.431801 2.574531 1.036335 46.906441 2.220516 -6.416823 0.590657 30.849487 1.794276 0.000000 0.000000 0.000000 
0.017922 0.941880 0.014578 -1.008776 9.652878 2.710773 5.089726 -0.051641 4.569970 -5.494738 0.336574 -6.670319 3.280503 8.400093 4.472064 0.000000 0.000000 0.000000 -4.128864 -0.131677 2.260182 3.853007 -0.496106 0.712295 -1.337802 -4.020976 1.936105 0.000000 0.000000 0.000000 -2.140136 -0.023750 2.305764 4.064396 -0.365760 -20.764779 -2.770427 -3.950756 30.559618 0.277806 2.223415 -35.400606 0.000000 0.000000 0.000000 -36.291900 2.728938 -5.957853 -40.523638 -0.169336 -6.368627 -11.601624 -30.537315 4.603469 0.000000 0.000000 0.000000 29.576840 2.502282 1.025779 46.670139 1.798224 -6.601948 0.809326 31.030373 1.871983 0.000000 0.000000 0.000000 
0.026356 0.941594 0.020662 -1.023561 9.499454 2.783833 4.451966 0.006924 4.642391 -5.455826 0.349237 -6.206967 3.472905 8.595187 4.063722 0.000000 0.000000 0.000000 -4.467054 -0.136476 2.465416 3.692639 -0.472012 0.938347 -1.088538 -3.383988 1.855506 0.000000 0.000000 0.000000 -2.028572 -0.033387 2.567027 4.119755 -0.389011 -20.671212 -2.884204 -4.304648 30.585802 0.086792 2.244556 -35.456850 0.000000 0.000000 0.000000 -35.966084 2.687129 -5.610361 -41.004758 -0.217129 -6.515859 -10.943788 -30.017248 4.381600 0.000000 0.000000 0.000000 29.011153 2.945194 1.140388 46.702493 0.939843 -6.836507 1.876837 32.549848 2.241717 0.000000 0.000000 0.000000 
0.036093 0.940906 0.028478 -0.959867 9.634007 3.013523 3.585677 0.077899 4.672203 -4.965653 0.348390 -5.452599 3.488998 8.360412 3.334086 0.000000 0.000000 0.000000 -4.909744 -0.124498 2.456642 3.567244 -0.454701 1.708780 -1.228863 -3.603725 1.391059 0.000000 0.000000 0.000000 -2.099310 -0.038568 2.907674 4.058593 -0.356592 -20.937760 -2.802427 -4.451994 30.653690 -0.226064 2.385969 -35.511396 0.000000 0.000000 0.000000 -34.919309 2.576329 -5.302800 -41.776900 0.666024 -6.944217 -11.484147 -30.450216 4.608711 0.000000 0.000000 0.000000 28.366374 2.857492 1.070876 46.650818 -0.437557 -7.292637 4.702733 35.719484 3.375372 0.000000 0.000000 0.000000 
0.046792 0.940178 0.038248 -0.852401 9.662486 3.257270 2.380272 0.198903 5.099525 -4.472933 0.337632 -5.021109 3.479647 7.902715 2.179352 0.000000 0.000000 0.000000 -5.075016 -0.105717 2.275515 3.104134 -0.383946 2.718248 -1.348329 -3.727061 0.734861 0.000000 0.000000 0.000000 -2.264753 -0.039388 3.255295 4.131621 -0.377584 -20.883623 -2.831616 -4.718818 30.385538 -0.305501 2.366095 -35.115726 0.000000 0.000000 0.000000 -34.178506 2.860034 -5.262962 -42.592268 0.668712 -7.106967 -12.394850 -30.737130 4.938000 0.000000 0.000000 0.000000 27.055564 2.659933 0.861138 47.526940 -1.830735 -7.843482 7.330695 38.718741 4.619252 0.000000 0.000000 0.000000 
0.058199 0.938156 0.049882 -0.618947 9.788287 3.605373 1.251175 0.309125 5.351833 -3.850307 0.320759 -3.826907 3.601908 7.537221 0.682762 0.000000 0.000000 0.000000 -5.659259 -0.059414 1.776916 2.817085 -0.335841 4.815191 -1.621035 -4.071518 -0.614465 0.000000 0.000000 0.000000 -2.244666 -0.045183 3.537685 3.911750 -0.288988 -21.409197 -3.028443 -4.836451 30.712763 -0.679406 2.541940 -35.347254 0.000000 0.000000 0.000000 -32.993632 2.741650 -4.934145 -43.264517 1.128351 -7.419118 -13.352252 -31.858163 5.424693 0.000000 0.000000 0.000000 26.260908 2.542756 0.791697 47.513240 -3.436788 -8.414235 12.432267 42.945348 7.211801 0.000000 0.000000 0.000000 
0.070333 0.934666 0.063321 -0.392566 10.053025 4.085426 0.471024 0.397953 5.703984 -3.560493 0.305942 -2.863122 3.419606 6.587445 -0.682755 0.000000 0.000000 0.000000 -5.611501 0.010230 0.661407 1.818908 -0.152469 7.461340 -2.123795 -5.066528 -2.042486 0.000000 0.000000 0.000000 -2.228518 -0.045293 3.627436 3.680753 -0.229410 -21.193863 -3.302586 -5.171952 30.591206 -1.292679 2.789805 -34.980163 0.000000 0.000000 0.000000 -32.421553 2.982223 -4.941927 -43.269391 1.065065 -7.408041 -15.207640 -34.271285 6.471061 0.000000 0.000000 0.000000 25.167603 2.520170 0.727369 48.467908 -4.996894 -9.082943 18.066764 47.519669 10.655449 0.000000 0.000000 0.000000 
0.083219 0.930626 0.078736 0.142348 11.327771 4.767027 -0.297304 0.462781 5.768818 -3.323148 0.274361 -0.719222 2.873342 4.485966 -2.590910 0.000000 0.000000 0.000000 -5.585871 0.137453 -1.729332 1.146882 -0.053973 13.749471 -3.222644 -7.910006 -3.372472 0.000000 0.000000 0.000000 -2.352074 -0.049574 4.123760 3.462439 -0.117869 -21.828501 -3.452118 -6.303507 31.119074 -1.150513 2.700273 -36.164838 0.000000 0.000000 0.000000 -32.127976 3.082858 -4.828138 -43.194158 1.041571 -7.458855 -19.087154 -38.915243 8.890462 0.000000 0.000000 0.000000 24.636735 1.972396 0.311057 47.911709 -6.622883 -9.568590 26.480781 53.022325 16.455184 0.000000 0.000000 0.000000 
0.096236 0.925060 0.097669 0.644345 11.922730 4.832442 -1.357660 0.623392 6.641140 -3.202739 0.242704 1.279824 2.981962 3.862383 -4.086177 0.000000 0.000000 0.000000 -4.923381 0.309382 -4.804327 -0.491783 0.289402 21.231625 -3.999757 -9.967889 -4.461008 0.000000 0.000000 0.000000 -2.663567 -0.062403 5.220747 4.118620 -0.269240 -22.028127 -4.208936 -6.141092 31.546918 -0.554912 2.519777 -36.586901 0.000000 0.000000 0.000000 -32.353347 3.935322 -5.712815 -41.562188 0.970510 -7.101099 -26.915668 -46.095121 14.129117 0.000000 0.000000 0.000000 23.606301 1.620043 0.320511 48.560567 -7.673768 -10.134440 38.192843 58.118724 25.593023 0.000000 0.000000 0.000000 
0.108520 0.919720 0.121472 0.556631 13.473878 4.489548 -1.412713 0.666573 7.393753 -3.334503 0.204277 3.837594 2.833155 1.915311 -6.538658 0.000000 0.000000 0.000000 -4.019222 0.506492 -8.146785 -1.298526 0.147132 31.755712 -4.310035 -10.864050 -3.412853 0.000000 0.000000 0.000000 -2.439126 -0.122989 6.458097 4.409596 -0.331812 -21.817026 -4.049658 -6.859014 31.649311 -0.870618 2.691713 -36.567168 0.000000 0.000000 0.000000 -32.676122 2.519102 -4.873603 -40.397952 0.199038 -6.635117 -37.015519 -53.784380 22.278153 0.000000 0.000000 0.000000 22.002692 -0.163658 -0.638064 48.263003 -9.683845 -10.763297 56.661587 60.677124 39.463833 0.000000 0.000000 0.000000 
0.119459 0.913210 0.150999 0.426362 14.546530 4.351861 -1.305775 0.760567 9.257222 -2.576018 0.072124 5.372322 2.711640 0.501158 -8.011257 0.000000 0.000000 0.000000 -4.393238 0.657160 -13.831234 -0.220442 -1.185126 42.160942 -4.884090 -12.264171 -2.183560 0.000000 0.000000 0.000000 -2.546451 -0.153864 7.389551 5.305586 -0.531940 -22.126428 -5.510524 -9.620981 32.161884 0.402625 1.743971 -36.532771 0.000000 0.000000 0.000000 -33.769532 4.444454 -5.401265 -38.784735 -1.066734 -6.333097 -53.235392 -61.762717 37.714593 0.000000 0.000000 0.000000 21.335038 -0.170367 -1.246841 48.090849 -12.726725 -11.716884 75.489210 62.228144 54.323059 0.000000 0.000000 0.000000 
0.129123 0.902682 0.185386 -0.031118 15.368401 4.729297 -0.536861 0.722793 10.760949 -2.530275 -0.009459 7.376087 2.567791 -1.356812 -9.906267 0.000000 0.000000 0.000000 -3.261392 0.937692 -20.517916 0.178012 -2.234457 49.352290 -5.023637 -12.193305 -6.061625 0.000000 0.000000 0.000000 -2.330584 -0.214790 8.375912 6.045070 -0.709565 -22.225631 -5.944640 -11.880557 32.239379 -0.291308 1.822894 -37.435764 0.000000 0.000000 0.000000 -33.684385 2.792307 -3.277090 -38.666345 -4.750525 -5.568110 -74.157295 -67.972467 60.093524 0.000000 0.000000 0.000000 19.924350 -1.524591 -2.438957 48.514475 -15.418714 -12.683076 89.078600 61.382047 64.262283 0.000000 0.000000 0.000000 
0.137821 0.888909 0.225242 -0.666410 16.109552 4.680842 1.172442 0.520781 13.529507 -3.045374 0.067356 7.066120 2.916474 -1.331075 -10.902094 0.000000 0.000000 0.000000 -2.269422 1.139283 -27.106664 0.922964 -3.190454 53.095153 -5.676971 -13.568091 -12.126964 0.000000 0.000000 0.000000 -1.850439 -0.313659 9.379136 7.564851 -1.224805 -20.594137 -7.164018 -15.522950 31.214231 -0.786966 1.624117 -38.852865 0.000000 0.000000 0.000000 -35.135977 0.843743 -0.325871 -37.005211 -9.148673 -4.652486 -104.040097 -71.692029 94.103273 0.000000 0.000000 0.000000 19.504865 -1.168835 -3.187082 47.435718 -16.987821 -12.686491 99.252368 61.804165 72.245188 0.000000 0.000000 0.000000 
0.146859 0.880039 0.272549 -1.603191 17.796422 5.479634 2.774962 0.148402 15.817816 -2.018357 -0.006454 5.229627 2.137752 -1.602632 -8.525264 0.000000 0.000000 0.000000 -1.208342 1.147082 -35.075000 0.882317 -3.408072 53.589365 -5.143967 -11.484617 -13.190709 0.000000 0.000000 0.000000 -0.513104 -0.564156 10.830939 8.900325 -1.498661 -21.447073 -8.288543 -20.098852 31.121642 -0.941945 1.333216 -41.147648 0.000000 0.000000 0.000000 -33.794665 -0.198451 2.287005 -37.736656 -15.010939 -3.630060 -133.112284 -67.323283 126.552024 0.000000 0.000000 0.000000 18.932822 -2.077919 -4.680356 43.590329 -18.651989 -11.783029 115.392077 62.135969 86.952354 0.000000 0.000000 0.000000 
0.157980 0.881956 0.332656 -2.666046 18.690246 6.910141 3.361164 -0.101195 18.691950 0.140788 -0.096219 1.963908 1.178087 1.046405 -1.737018 0.000000 0.000000 0.000000 -1.503065 0.765330 -39.957281 3.131618 -4.217877 49.139931 -4.813998 -10.631925 -11.672276 0.000000 0.000000 0.000000 0.791843 -0.571731 8.763620 9.662400 -1.760960 -20.812898 -9.299783 -25.060136 31.380673 -1.806712 1.352965 -44.289247 0.000000 0.000000 0.000000 -30.638840 0.109319 3.902957 -40.726602 -19.037490 -2.897513 -145.734712 -59.159846 141.919869 0.000000 0.000000 0.000000 16.312271 -2.396895 -5.467045 42.437151 -20.147191 -11.745141 128.716508 59.975275 97.157451 0.000000 0.000000 0.000000 
0.171629 0.898305 0.407271 -3.147751 19.682069 9.365729 4.245027 -0.511473 21.156791 1.018612 -0.018580 -1.566239 -3.157034 -0.451338 8.567151 0.000000 0.000000 0.000000 -1.163864 0.725572 -40.524285 4.521470 -3.839084 39.952578 -3.543777 -7.539911 -7.894314 0.000000 0.000000 0.000000 1.736718 -0.445575 5.638492 10.144093 -1.662031 -23.191926 -11.410330 -28.157080 33.268651 -2.731654 1.436707 -45.119151 0.000000 0.000000 0.000000 -28.903847 1.715350 3.785933 -42.860378 -19.960616 -2.930617 -147.913239 -50.428340 141.770081 0.000000 0.000000 0.000000 14.797838 -3.084713 -6.006975 39.973485 -21.946722 -11.511858 134.281135 56.413149 98.210902 0.000000 0.000000 0.000000 
0.186039 0.917996 0.490677 -2.464456 19.658321 10.982328 4.209310 -0.497838 21.004855 2.278100 -0.250598 1.206987 -7.283820 -1.570594 17.877157 0.000000 0.000000 0.000000 0.407641 1.430067 -36.928712 4.828697 -2.882746 31.121944 -3.994354 -9.410512 -5.577695 0.000000 0.000000 0.000000 2.474691 -0.283519 2.338216 9.381559 -1.404209 -23.838954 -12.184171 -27.568875 34.476541 -3.634468 1.852607 -45.370752 0.000000 0.000000 0.000000 -27.900975 0.818726 4.081310 -44.860154 -17.186907 -3.686358 -146.793650 -43.971397 133.159394 0.000000 0.000000 0.000000 14.399132 -3.930762 -6.206355 42.200493 -22.065038 -12.432589 138.005358 56.150333 103.594753 0.000000 0.000000 0.000000 
0.198535 0.926391 0.573906 -1.519839 19.199741 10.564733 3.894161 -0.211594 16.636266 3.290165 -1.450476 13.216171 -6.368016 -0.394012 17.664596 0.000000 0.000000 0.000000 2.795307 2.182384 -30.959381 2.574297 -1.657638 28.130685 -3.425327 -8.250315 -2.512700 0.000000 0.000000 0.000000 2.439991 -0.253277 2.047257 8.823589 -1.369485 -22.269496 -9.652752 -24.457453 31.431533 -4.719193 2.460317 -41.419012 0.000000 0.000000 0.000000 -28.477269 0.786028 2.889151 -44.972952 -14.467969 -4.207172 -144.109758 -40.506702 120.480482 0.000000 0.000000 0.000000 13.641125 -4.118654 -5.305170 44.978351 -21.187123 -13.181372 143.399227 54.572829 112.106267 0.000000 0.000000 0.000000 
0.208084 0.915431 0.651001 -1.285648 17.639230 8.769859 3.499884 -0.011169 7.607585 0.814810 -3.253335 31.504014 0.188885 4.128105 6.951371 0.000000 0.000000 0.000000 4.944870 2.576763 -25.469948 0.335226 -0.963505 31.994895 -2.910934 -6.371042 -7.133936 0.000000 0.000000 0.000000 3.053130 -0.482817 4.817216 8.366105 -1.328906 -21.355407 -8.024299 -18.654725 30.448884 -3.886138 2.814015 -42.386475 0.000000 0.000000 0.000000 -29.116699 1.629169 0.286742 -45.170935 -10.036334 -5.092301 -140.239094 -40.335520 108.224545 0.000000 0.000000 0.000000 18.094754 -1.838167 -4.016318 44.771980 -15.461986 -11.069072 149.835323 55.811256 127.877632 0.000000 0.000000 0.000000 
0.215913 0.897010 0.722501 -0.996318 15.218593 6.926166 4.186505 -0.456167 -4.282708 -5.426926 -2.432561 47.938537 7.060142 13.171616 -3.417217 0.000000 0.000000 0.000000 5.866511 2.394742 -19.587879 -0.113223 -0.663956 34.292926 -2.987546 -5.347790 -12.467932 0.000000 0.000000 0.000000 2.427963 -0.722950 8.707915 7.629240 -1.120659 -22.020170 -4.481565 -13.002644 30.475550 -4.841447 3.707774 -42.172886 0.000000 0.000000 0.000000 -33.894588 1.597461 -1.718435 -42.153799 -2.642199 -6.787857 -135.280286 -40.272437 95.167424 0.000000 0.000000 0.000000 21.139462 1.490355 -1.362567 43.883033 -5.001902 -7.720008 153.726900 60.926008 142.425017 0.000000 0.000000 0.000000 
0.225354 0.889898 0.795333 -0.515635 11.334444 6.490547 5.706607 -1.192726 -17.070260 -10.187046 0.965574 53.571145 9.459666 18.423805 -8.114354 0.000000 0.000000 0.000000 6.311597 1.676704 -12.436999 -0.770894 0.240333 31.551176 -2.473457 -2.002874 -14.457668 0.000000 0.000000 0.000000 0.918568 -0.628332 10.175261 6.524427 -0.925050 -21.518278 -1.094475 -5.233164 30.516361 -3.447491 3.895708 -40.989666 0.000000 0.000000 0.000000 -34.658351 2.458394 -5.161291 -39.692415 4.395446 -7.694165 -129.292039 -42.706081 85.803630 0.000000 0.000000 0.000000 22.214521 3.501119 1.544458 43.157423 5.004813 -4.993817 158.171699 63.610048 155.896440 0.000000 0.000000 0.000000 
0.238100 0.896080 0.874983 1.178175 9.034605 6.579029 5.288523 -1.874764 -25.956998 -10.001713 1.721944 46.167097 9.479715 19.036698 -6.187261 0.000000 0.000000 0.000000 4.065866 0.268356 -2.661123 -2.415658 1.134064 24.618473 -0.461748 4.115538 -11.080693 0.000000 0.000000 0.000000 -2.064255 -0.256229 10.201218 6.186837 -0.901990 -21.264901 0.049793 -0.550431 30.291920 -3.053516 4.216803 -38.020572 0.000000 0.000000 0.000000 -35.174218 4.058895 -8.248961 -35.144236 10.867888 -7.822118 -128.935367 -47.461782 89.497801 0.000000 0.000000 0.000000 19.663486 6.552223 4.214128 46.054128 11.216933 -3.186360 162.585799 63.636358 166.550703 0.000000 0.000000 0.000000 
0.255113 0.914162 0.963071 2.151779 5.709579 7.257823 4.891996 -2.070319 -29.991607 -7.752011 1.289186 29.596812 7.554989 15.604667 -1.856603 0.000000 0.000000 0.000000 1.064614 -0.650171 5.303550 -2.607300 1.210536 18.299534 2.196066 7.545434 -2.876178 0.000000 0.000000 0.000000 -4.496917 0.092608 7.911339 4.205888 -0.363607 -22.452997 2.744740 3.993606 31.658208 -2.778589 4.515720 -36.837401 0.000000 0.000000 0.000000 -32.281421 5.625402 -9.884935 -33.936964 15.741275 -8.521550 -128.871820 -45.576057 85.181539 0.000000 0.000000 0.000000 18.592428 4.798953 3.865997 46.079278 13.628178 -2.533117 160.833916 60.294953 164.909646 0.000000 0.000000 0.000000 
0.275596 0.932857 1.057419 3.308817 3.697235 7.670688 3.917925 -2.103322 -29.504480 -7.224217 1.006091 12.157490 5.695372 13.250007 5.585081 0.000000 0.000000 0.000000 -1.393381 -0.973727 10.754058 -2.986200 1.220745 15.122810 4.016786 6.450563 6.163567 0.000000 0.000000 0.000000 -6.526826 0.267700 4.375050 3.268158 -0.263641 -20.340341 3.811006 6.870616 31.220650 -2.242002 4.517885 -37.608509 0.000000 0.000000 0.000000 -27.896677 8.078829 -10.933620 -35.467530 17.540500 -9.346070 -127.104895 -42.152536 76.606253 0.000000 0.000000 0.000000 14.943720 4.018093 3.371833 50.204372 13.585375 -2.121449 155.419130 57.514290 156.428904 0.000000 0.000000 0.000000 
0.297770 0.939708 1.154928 4.196230 3.147467 6.399473 0.613313 -2.496245 -26.415000 -6.176868 0.736497 7.004365 3.862550 10.761143 9.438060 0.000000 0.000000 0.000000 -2.980305 -0.942949 12.897634 -4.145696 1.939536 21.436792 5.080920 4.650633 13.449732 0.000000 0.000000 0.000000 -9.079335 0.435042 5.284555 2.595504 -0.066040 -21.016979 4.535086 5.447701 30.410219 -1.760828 4.034134 -36.174816 0.000000 0.000000 0.000000 -28.572988 8.144209 -10.424350 -33.848912 18.480744 -9.205766 -126.558422 -42.581051 77.373781 0.000000 0.000000 0.000000 14.403291 3.364673 2.581220 52.240466 8.782191 -3.961976 150.980461 53.005678 143.435893 0.000000 0.000000 0.000000 
0.319448 0.926342 1.251090 4.853964 3.242054 4.864023 -1.798123 -2.718001 -24.085640 -5.824771 0.757391 14.702754 3.478320 8.510999 3.525767 0.000000 0.000000 0.000000 -4.407079 -0.526866 9.784635 -3.542369 2.669114 37.133262 3.014846 1.073981 12.362239 0.000000 0.000000 0.000000 -10.523798 0.513818 5.984615 4.601104 -0.639377 -20.489726 1.305075 2.305820 30.580480 -0.983254 3.259670 -38.541901 0.000000 0.000000 0.000000 -30.272487 9.124679 -10.166458 -33.305000 14.382026 -8.376007 -122.906475 -45.330142 78.475945 0.000000 0.000000 0.000000 16.496604 1.694069 1.159665 51.974608 4.635440 -5.818229 140.692945 52.159585 121.457690 0.000000 0.000000 0.000000 
0.338371 0.908768 1.342726 5.099175 2.051053 2.988412 -3.347826 -2.226735 -18.360791 -5.075794 0.650784 18.701289 5.514291 10.621249 -3.815517 0.000000 0.000000 0.000000 -4.969468 -0.048630 3.086870 -3.691122 3.874393 49.926812 0.855555 -1.745559 8.232163 0.000000 0.000000 0.000000 -10.782080 0.544530 7.019992 6.358243 -1.217238 -19.768921 -2.687446 -1.551482 31.569211 0.254314 2.129579 -41.426589 0.000000 0.000000 0.000000 -34.619418 6.157288 -6.702283 -32.626697 7.694911 -7.320538 -124.809541 -52.136361 92.622208 0.000000 0.000000 0.000000 20.502586 1.717796 -0.168249 48.709971 -0.545625 -7.420013 136.853354 54.665590 113.169177 0.000000 0.000000 0.000000 
0.353435 0.908658 1.433171 4.659649 2.476962 1.432189 -4.564780 -1.052725 -8.491233 -3.472560 0.237769 14.993470 6.067945 11.086365 -6.401271 0.000000 0.000000 0.000000 -3.524361 0.347357 -3.994870 -2.211347 3.217133 55.283561 -1.146053 -4.402712 3.716719 0.000000 0.000000 0.000000 -8.867030 0.396763 8.326335 6.661144 -1.395219 -18.817636 -5.849937 -7.091350 30.813730 -0.314430 1.559507 -40.843188 0.000000 0.000000 0.000000 -35.161594 4.446880 -2.798228 -33.022786 -1.851801 -6.005133 -127.447760 -59.056425 107.272557 0.000000 0.000000 0.000000 22.678799 -0.288545 -3.354011 45.230553 -7.263728 -8.624110 128.349177 53.196951 94.129787 0.000000 0.000000 0.000000 
0.365173 0.926642 1.524618 3.191809 3.301208 1.475596 -3.949192 0.138324 0.492343 -1.888714 -0.017677 9.517604 5.525490 10.973978 -1.677970 0.000000 0.000000 0.000000 -1.954848 0.952308 -11.378224 0.071120 1.298958 50.532995 -2.719088 -7.098314 0.682634 0.000000 0.000000 0.000000 -6.022016 0.142916 7.078447 7.259299 -1.446725 -20.013491 -9.864779 -13.738157 33.586748 -0.881714 0.877921 -41.379469 0.000000 0.000000 0.000000 -33.925292 4.240512 0.567121 -33.647657 -12.351699 -4.773568 -135.269708 -66.279829 129.097107 0.000000 0.000000 0.000000 21.677107 0.110354 -4.984476 43.467555 -12.792533 -9.756625 127.945534 52.726065 88.581900 0.000000 0.000000 0.000000 
0.375640 0.945892 1.618150 1.241067 4.156730 2.084922 -2.503262 0.881513 7.666248 -0.251504 -0.111782 3.907029 4.640180 11.328558 6.900192 0.000000 0.000000 0.000000 0.484851 1.475904 -14.806579 2.526861 -0.260652 36.443394 -2.954726 -7.254075 -0.809393 0.000000 0.000000 0.000000 -3.448766 -0.028671 6.177473 7.839221 -1.484998 -21.181683 -11.438798 -17.998233 34.096869 -2.576467 0.997901 -40.657913 0.000000 0.000000 0.000000 -31.922986 3.831556 2.587397 -34.700296 -18.692753 -3.830274 -144.682634 -69.217293 147.669031 0.000000 0.000000 0.000000 19.174797 -3.146365 -7.293735 42.114981 -17.390241 -10.743420 127.052555 49.735611 80.320587 0.000000 0.000000 0.000000 
0.386639 0.961257 1.714844 0.520424 5.760902 2.776016 -1.543431 1.309208 13.654362 1.449943 -0.099144 -0.930604 2.648233 9.820975 13.645089 0.000000 0.000000 0.000000 1.637364 1.790184 -16.889736 3.677529 -0.620576 21.716101 -2.078017 -5.545490 0.879020 0.000000 0.000000 0.000000 -2.321614 -0.072875 4.923048 6.988949 -1.077441 -22.990542 -12.520318 -22.446213 36.735678 -2.987266 0.720789 -42.361273 0.000000 0.000000 0.000000 -29.450592 3.511997 4.040671 -36.866523 -23.188849 -2.955437 -155.805732 -71.392416 167.509172 0.000000 0.000000 0.000000 16.358859 -5.038760 -8.327944 42.264848 -20.509404 -12.011832 126.040559 48.353343 74.505790 0.000000 0.000000 0.000000 
0.398871 0.964876 1.814327 0.232897 7.088150 3.934722 -0.121109 1.391115 18.839794 2.084343 -0.032495 -3.300337 1.260976 8.964290 17.813987 0.000000 0.000000 0.000000 2.230248 2.046058 -19.028007 2.984125 -0.333443 10.195459 -1.796554 -5.563674 3.628541 0.000000 0.000000 0.000000 -2.044766 -0.048518 3.611345 8.606907 -1.281287 -25.054096 -13.948781 -23.808608 37.611814 -3.341347 0.860007 -43.317455 0.000000 0.000000 0.000000 -29.696108 3.054475 4.852572 -37.441090 -23.736208 -3.080409 -159.533028 -71.091296 173.836017 0.000000 0.000000 0.000000 15.590708 -6.987015 -9.194405 40.762382 -22.822936 -12.342023 126.804685 48.921912 75.887707 0.000000 0.000000 0.000000 
0.410987 0.960453 1.914680 -0.232149 8.024434 4.424686 2.133964 0.981983 21.967150 1.604042 -0.027796 -2.650075 -0.137221 8.157424 21.676539 0.000000 0.000000 0.000000 2.360619 2.176473 -20.475780 3.981388 -0.524632 6.841489 -2.428662 -7.112696 4.319815 0.000000 0.000000 0.000000 -1.323680 -0.049850 2.559672 8.599450 -1.315831 -24.588438 -13.154302 -24.559542 36.149918 -3.870177 1.181585 -43.699792 0.000000 0.000000 0.000000 -31.086892 4.585030 4.101643 -39.260398 -21.691456 -3.771380 -154.054383 -67.753479 165.945347 0.000000 0.000000 0.000000 14.737988 -8.386778 -9.604143 42.796602 -23.556032 -13.277168 123.090547 49.761737 72.429327 0.000000 0.000000 0.000000 
0.421671 0.951535 2.013785 -0.206040 8.150916 4.567195 4.158967 0.486365 21.584897 1.807116 -0.360280 3.473821 0.726692 8.952067 20.444917 0.000000 0.000000 0.000000 2.997215 2.361356 -21.395345 2.866387 -0.321549 8.552874 -1.964356 -5.929497 3.802202 0.000000 0.000000 0.000000 -0.970746 -0.059436 2.421621 9.058230 -1.348674 -25.406640 -13.051626 -23.275777 36.321002 -2.689590 1.035972 -44.913919 0.000000 0.000000 0.000000 -32.790533 4.961668 3.603679 -39.396627 -18.255245 -4.885289 -148.911224 -65.852797 156.478336 0.000000 0.000000 0.000000 17.907019 -6.505849 -9.673141 41.646468 -23.611008 -12.573028 124.509609 52.241822 78.806456 0.000000 0.000000 0.000000 
0.430168 0.942357 2.110582 -0.819583 6.132685 3.901896 4.812135 0.442327 18.953631 1.692021 -0.940180 13.204852 3.497981 11.069050 13.945794 0.000000 0.000000 0.000000 4.874718 2.759971 -21.546956 1.967386 -0.077682 13.475419 -1.981153 -5.437907 1.395404 0.000000 0.000000 0.000000 -0.133937 -0.120296 3.026566 8.976774 -1.531665 -23.434514 -11.168791 -20.512235 34.186051 -3.346739 1.453121 -44.046146 0.000000 0.000000 0.000000 -33.909251 6.923215 1.181578 -39.564018 -12.207954 -6.191602 -143.649360 -61.476861 143.270508 0.000000 0.000000 0.000000 21.273672 -3.909128 -9.045196 40.937652 -20.446889 -10.962444 126.057687 55.525318 86.479397 0.000000 0.000000 0.000000 
0.437123 0.929658 2.204320 -1.172163 4.648063 2.983182 5.650774 0.219692 12.276950 -0.314439 -1.179695 26.511206 6.237439 13.809192 5.971739 0.000000 0.000000 0.000000 6.152895 2.661037 -18.906461 1.422065 0.145496 18.266960 -2.150590 -5.070172 -1.250699 0.000000 0.000000 0.000000 0.503915 -0.215255 4.407292 9.481756 -1.844480 -21.890187 -9.128605 -16.111720 31.916773 -4.159237 2.282291 -44.073385 0.000000 0.000000 0.000000 -36.941864 7.403375 -1.205307 -36.937154 -5.916202 -6.913343 -139.419255 -58.294427 129.034808 0.000000 0.000000 0.000000 22.502213 -1.723720 -6.851918 42.940902 -14.642151 -9.824769 130.248218 59.264347 99.036473 0.000000 0.000000 0.000000 
0.442834 0.917623 2.295507 -0.886381 4.008121 2.044751 5.994099 -0.029013 3.892685 -2.852455 -0.771437 39.659716 8.270894 16.840414 0.751815 0.000000 0.000000 0.000000 6.945477 2.159388 -14.681944 0.212835 0.624838 23.871737 -2.145453 -2.999285 -6.537883 0.000000 0.000000 0.000000 0.616954 -0.302641 6.102406 8.578246 -1.583959 -22.276687 -7.215703 -12.206895 32.015217 -4.546694 2.851372 -43.313046 0.000000 0.000000 0.000000 -36.969444 9.206174 -4.595988 -35.903147 0.057928 -7.600773 -133.281127 -57.274717 115.953690 0.000000 0.000000 0.000000 21.777132 -0.516623 -4.694760 45.416356 -7.374782 -8.395858 137.666004 60.641754 113.241150 0.000000 0.000000 0.000000 
0.448361 0.913666 2.386081 -0.451538 3.326344 1.277247 5.305989 -0.309965 -4.318571 -4.654035 0.079179 45.300952 10.072103 20.230970 -3.810385 0.000000 0.000000 0.000000 6.115591 1.180195 -8.581448 0.503660 0.576068 23.883811 -1.776302 -0.440837 -9.128986 0.000000 0.000000 0.000000 -1.000869 -0.222558 6.943510 8.117892 -1.398269 -23.131570 -4.371057 -7.821388 32.701725 -4.914950 3.520319 -43.151133 0.000000 0.000000 0.000000 -36.947091 10.151439 -7.455097 -33.582232 6.931977 -8.108178 -128.877644 -55.067944 104.071075 0.000000 0.000000 0.000000 21.414771 0.001976 -2.946983 46.836010 -0.763443 -6.849054 145.942836 61.575621 129.693176 0.000000 0.000000 0.000000 
0.455371 0.924115 2.478912 0.236730 2.817995 1.331595 4.493008 -0.677266 -10.923269 -6.007643 0.941512 41.602501 10.452713 21.115580 -4.182263 0.000000 0.000000 0.000000 5.430818 -0.214415 0.588536 -1.081801 0.879834 17.276444 -0.631596 1.932190 -6.829603 0.000000 0.000000 0.000000 -2.336111 -0.113098 6.519755 7.239509 -1.072398 -24.423199 -1.837366 -2.415520 33.267962 -4.697382 4.128980 -41.713682 0.000000 0.000000 0.000000 -34.210601 11.968600 -10.836449 -31.719889 11.452579 -7.954347 -125.194081 -50.706022 90.966153 0.000000 0.000000 0.000000 21.001177 -1.014714 -1.802037 47.372620 4.219842 -5.669178 154.165555 59.892135 146.006611 0.000000 0.000000 0.000000 
0.464734 0.947876 2.575776 1.654950 2.888344 2.051063 2.744345 -1.076328 -14.485731 -6.243990 1.001027 28.429201 8.591100 17.706630 1.257173 0.000000 0.000000 0.000000 2.452808 -1.127420 8.442786 -1.292945 0.707213 11.986469 2.025676 4.524133 1.223220 0.000000 0.000000 0.000000 -4.899612 0.070904 3.418957 7.351659 -1.083177 -24.534584 -0.395663 0.565665 34.234183 -4.196790 4.362338 -40.709704 0.000000 0.000000 0.000000 -32.218342 14.099920 -13.233663 -29.826623 14.106290 -7.682551 -125.097688 -47.560662 84.923731 0.000000 0.000000 0.000000 18.232590 -0.382728 -0.357134 47.842589 6.830358 -5.064947 159.619176 59.111386 158.028328 0.000000 0.000000 0.000000 
0.476426 0.976422 2.674486 1.574026 2.968779 2.975804 1.750578 -1.210256 -14.808759 -4.893380 0.544387 9.461483 5.149798 12.986131 10.561952 0.000000 0.000000 0.000000 1.333391 -1.497935 12.343957 -1.543501 0.774129 12.307724 5.543704 5.318433 13.836906 0.000000 0.000000 0.000000 -5.844794 0.093534 0.338370 6.518479 -0.947266 -23.650020 2.224735 3.108998 33.578637 -4.025313 4.697198 -38.515944 0.000000 0.000000 0.000000 -29.359029 16.070589 -14.868123 -30.188754 16.100118 -7.904485 -120.897631 -43.677515 72.943264 0.000000 0.000000 0.000000 16.437611 -2.447459 -0.814036 48.172676 7.148159 -4.962034 157.816509 57.617626 156.575841 0.000000 0.000000 0.000000 
0.489440 0.991683 2.770434 1.719425 5.567285 1.965612 0.182239 -1.199919 -12.763660 -6.153763 0.515328 -3.244500 1.181760 8.904163 17.879450 0.000000 0.000000 0.000000 0.637804 -1.545813 13.010192 -1.750549 1.030599 19.108985 6.748425 5.159675 19.458947 0.000000 0.000000 0.000000 -6.824211 0.060304 -0.022419 6.047260 -0.898060 -22.378572 1.925026 2.017187 32.532692 -4.476393 4.967741 -37.713747 0.000000 0.000000 0.000000 -26.855310 16.384507 -14.326094 -32.404722 16.702057 -8.674706 -119.880402 -43.297304 71.051146 0.000000 0.000000 0.000000 15.333921 -1.485805 -0.226687 49.612850 5.968622 -5.322584 155.390381 57.114325 152.477357 0.000000 0.000000 0.000000 
0.502315 0.983023 2.860387 1.944027 7.777812 -0.584676 -2.111505 -1.038700 -9.605214 -5.498881 0.461850 -2.482128 -0.865542 6.010303 17.014955 0.000000 0.000000 0.000000 -0.037551 -1.198666 10.530938 -1.798959 1.171049 31.598919 3.372268 1.692557 13.955167 0.000000 0.000000 0.000000 -8.643766 0.077353 2.943033 6.201903 -0.840043 -23.578583 2.087723 -1.288410 33.950420 -4.748664 4.807050 -38.709127 0.000000 0.000000 0.000000 -30.345181 15.037477 -13.805244 -30.966044 15.092418 -8.128863 -119.699962 -46.991481 77.062198 0.000000 0.000000 0.000000 15.775514 -1.432158 -0.539709 49.101326 4.252040 -6.114836 152.491551 56.118149 145.032454 0.000000 0.000000 0.000000 
0.514491 0.957603 2.944973 2.072734 9.737407 -3.319565 -2.803996 -0.679976 -6.243855 -5.667419 0.527091 5.297573 -0.154379 4.829011 10.281488 0.000000 0.000000 0.000000 -1.467074 -0.314889 3.134041 -1.088133 0.269784 48.226831 0.659932 -1.035315 6.511909 0.000000 0.000000 0.000000 -9.234015 0.072437 5.489319 7.500983 -1.274064 -22.299193 -0.310033 -3.760024 33.724802 -4.621653 4.527314 -40.072199 0.000000 0.000000 0.000000 -34.043635 11.120417 -11.360737 -30.571525 10.662560 -7.298116 -116.685982 -54.239199 84.013830 0.000000 0.000000 0.000000 18.758882 -0.364100 -0.391460 46.933781 1.596634 -6.893737 148.051948 61.224280 139.714547 0.000000 0.000000 0.000000 
0.525430 0.936142 3.024145 1.638582 11.745137 -5.660798 -2.649295 -0.166087 -1.806016 -4.464524 0.239220 11.148879 1.496917 3.827359 1.423560 0.000000 0.000000 0.000000 -1.932247 0.303739 -4.122759 -2.220381 0.202810 52.895264 -1.286534 -3.343314 0.088866 0.000000 0.000000 0.000000 -8.389365 0.029545 8.538179 8.733095 -1.574081 -22.707585 -3.552576 -6.934276 34.139138 -4.149255 4.013633 -40.605609 0.000000 0.000000 0.000000 -38.361041 6.619593 -7.788027 -29.397026 2.771562 -5.771859 -111.447681 -65.091829 91.757472 0.000000 0.000000 0.000000 22.212737 0.222713 -0.849972 45.033977 -1.979905 -7.758541 139.346249 66.376491 129.118828 0.000000 0.000000 0.000000 
0.535285 0.939407 3.101701 1.601384 13.549200 -6.819918 -2.532979 0.368936 3.564091 -2.874841 -0.164531 13.003142 1.721958 3.560879 0.124631 0.000000 0.000000 0.000000 -3.309790 0.586249 -10.983858 -0.685991 -0.935747 47.869530 -1.964979 -4.445256 -2.027491 0.000000 0.000000 0.000000 -7.326523 -0.061498 10.312272 8.509372 -1.481903 -22.836962 -4.971073 -10.635105 33.309035 -5.431434 4.170530 -39.294389 0.000000 0.000000 0.000000 -37.171001 5.720254 -5.454977 -32.489204 -3.386833 -5.381720 -103.409660 -69.044882 88.899877 0.000000 0.000000 0.000000 23.855300 -0.735903 -2.501097 42.924245 -7.334078 -8.753659 121.514350 67.578897 105.067617 0.000000 0.000000 0.000000 
0.544577 0.954190 3.179495 0.926311 15.126138 -7.045252 -1.839873 0.696818 8.449951 -1.001603 -0.509335 12.287942 -0.205211 2.367691 4.620562 0.000000 0.000000 0.000000 -2.820224 0.744238 -13.787550 0.198076 -0.693943 33.492867 -1.648464 -4.556540 1.641712 0.000000 0.000000 0.000000 -5.705441 -0.165562 9.661902 7.922214 -1.229809 -23.646837 -6.019366 -13.627340 34.408188 -5.424235 3.854005 -39.213900 0.000000 0.000000 0.000000 -35.551703 5.821413 -4.298434 -34.705431 -7.610475 -5.036098 -102.440468 -68.493744 88.613051 0.000000 0.000000 0.000000 22.874011 -2.381750 -3.973241 41.628195 -11.502156 -9.641456 111.134671 67.057521 91.179586 0.000000 0.000000 0.000000 
0.552685 0.969276 3.257002 0.531093 15.659375 -6.294247 -0.843416 0.695023 10.225185 -0.648937 -0.670957 13.496869 -2.391401 0.911856 8.920728 0.000000 0.000000 0.000000 -2.604779 0.801580 -14.544712 -0.114020 0.139062 15.134685 0.811556 -0.610590 8.845965 0.000000 0.000000 0.000000 -4.283861 -0.167196 7.166624 8.286931 -1.222634 -24.847019 -7.599040 -14.605085 34.290955 -6.659433 4.347992 -35.906600 0.000000 0.000000 0.000000 -33.162317 6.529535 -4.334748 -36.147827 -8.005671 -5.130626 -97.917842 -66.946702 82.846880 0.000000 0.000000 0.000000 19.329347 -4.088007 -4.490142 42.651046 -14.879559 -10.980179 103.735817 64.132839 79.513726 0.000000 0.000000 0.000000 
0.558571 0.969139 3.331373 0.668180 16.092322 -6.128617 1.058793 0.411150 8.521641 -2.740248 -0.856060 21.692762 -1.511947 1.207866 6.779179 0.000000 0.000000 0.000000 -2.064108 0.868704 -14.320619 0.880899 -0.049039 5.739799 2.638881 1.625735 13.985264 0.000000 0.000000 0.000000 -3.071846 -0.179950 6.296416 6.940427 -0.817220 -25.252044 -7.565970 -13.943375 34.494401 -5.437074 3.892510 -34.437890 0.000000 0.000000 0.000000 -33.372975 6.937332 -5.178961 -36.476090 -8.423404 -4.867356 -98.278655 -63.534246 79.062050 0.000000 0.000000 0.000000 19.064764 -4.685992 -4.494164 42.632019 -16.527305 -11.560947 96.069946 63.264435 71.416512 0.000000 0.000000 0.000000 
0.562539 0.951282 3.400085 1.149178 17.170633 -7.202231 2.796085 0.108325 4.659317 -4.488056 -1.349116 31.538463 2.503684 5.540369 1.047329 0.000000 0.000000 0.000000 -1.206388 0.952595 -13.953680 1.086692 -0.116280 8.837330 3.837302 3.375848 15.630316 0.000000 0.000000 0.000000 -2.627696 -0.222022 6.849828 5.411679 -0.452332 -24.065400 -5.389143 -12.503137 32.574391 -5.344669 4.222778 -31.650085 0.000000 0.000000 0.000000 -34.292517 5.059660 -5.066356 -36.303662 -7.800861 -4.552338 -92.986241 -63.109070 72.236502 0.000000 0.000000 0.000000 19.101955 -5.162524 -4.197120 42.660682 -17.254119 -11.790469 90.955342 65.323260 69.838213 0.000000 0.000000 0.000000 
0.564591 0.929362 3.457519 0.605838 19.282180 -9.536185 4.659237 -0.129570 1.216621 -4.636606 -2.440650 38.107455 5.433453 9.112644 -3.561463 0.000000 0.000000 0.000000 0.324644 1.054197 -12.500356 0.447299 -0.253799 17.325773 0.615058 -0.497006 7.964354 0.000000 0.000000 0.000000 -1.875269 -0.443120 10.348319 4.890560 -0.249567 -24.513517 -4.890148 -10.913309 31.922744 -3.713455 3.877425 -32.986388 0.000000 0.000000 0.000000 -36.224806 2.444622 -4.939077 -35.163069 -6.496256 -4.308066 -78.706801 -65.679837 60.499172 0.000000 0.000000 0.000000 23.750841 -3.962187 -3.127677 41.169225 -12.761640 -10.280913 66.620687 69.777625 54.103381 0.000000 0.000000 0.000000 
0.566162 0.928597 3.503558 0.765045 18.098305 -9.515800 4.400567 -0.216397 -1.853919 -5.153501 -1.708254 35.266317 6.279448 10.940299 -3.520199 0.000000 0.000000 0.000000 1.975181 1.200877 -11.230490 -0.691813 0.065772 19.597534 0.455207 -0.287105 5.146233 0.000000 0.000000 0.000000 -1.530945 -0.508153 11.203791 4.794240 -0.256359 -24.541855 -4.481479 -8.205818 31.396815 -3.144013 3.919944 -32.933134 0.000000 0.000000 0.000000 -37.005203 1.573996 -5.459276 -36.426235 -4.645711 -4.572560 -54.246213 -63.606911 38.813735 0.000000 0.000000 0.000000 24.620760 -1.787333 -1.219516 43.687324 -8.278587 -9.679833 42.082753 68.113763 34.445299 0.000000 0.000000 0.000000 
0.568405 0.942372 3.542318 1.142241 17.054343 -8.247302 3.537904 -0.281437 -3.310905 -4.172202 -0.892585 25.371395 5.061977 9.194869 -1.811342 0.000000 0.000000 0.000000 2.502102 1.005476 -8.438534 -0.227142 0.072403 16.426539 0.206176 -1.161448 6.436321 0.000000 0.000000 0.000000 -1.681148 -0.428294 10.268305 4.514849 -0.190728 -25.067029 -4.416443 -6.617185 31.515516 -2.429978 3.720823 -32.782300 0.000000 0.000000 0.000000 -36.126378 3.085197 -6.947112 -38.895014 -1.809389 -5.529761 -38.832934 -57.758473 24.901183 0.000000 0.000000 0.000000 25.245955 -1.350399 -0.636276 45.721721 -4.650964 -8.990999 30.678502 63.918265 24.645615 0.000000 0.000000 0.000000 
0.571755 0.957430 3.576550 1.966441 16.027215 -6.476573 2.397915 -0.195989 -2.007380 -4.508311 0.066832 13.021938 2.383876 6.145175 2.596720 0.000000 0.000000 0.000000 2.094211 0.652133 -5.411098 -0.055036 0.146564 10.992651 0.870979 -0.110848 7.857332 0.000000 0.000000 0.000000 -2.683383 -0.267417 8.449484 3.533658 0.022889 -24.439329 -3.225706 -5.447954 30.977614 -1.776183 3.486757 -32.931720 0.000000 0.000000 0.000000 -34.363281 3.511897 -7.191991 -40.779919 1.086313 -6.586537 -31.340118 -53.406940 18.541532 0.000000 0.000000 0.000000 24.917531 -1.751390 -0.740266 47.319608 -2.480160 -8.462134 27.251650 61.579260 21.591170 0.000000 0.000000 0.000000 
0.575795 0.967217 3.606533 2.046935 15.050622 -5.257568 1.911591 -0.140289 -1.252127 -5.253659 0.390106 5.079904 -0.189047 3.864372 7.310913 0.000000 0.000000 0.000000 1.829806 0.290578 -2.341389 0.440603 0.053012 7.068119 1.335437 0.500610 8.985294 0.000000 0.000000 0.000000 -3.347612 -0.174278 7.011824 3.246690 0.074777 -24.223700 -2.671554 -5.023422 30.999438 -0.966108 3.041902 -32.561183 0.000000 0.000000 0.000000 -34.193072 4.111048 -7.523114 -41.308503 2.843576 -7.240600 -24.526444 -49.076978 13.581319 0.000000 0.000000 0.000000 25.292665 -1.344382 -0.562037 46.970292 -1.428242 -8.013079 23.928394 60.514790 18.976896 0.000000 0.000000 0.000000 
0.580802 0.971963 3.632364 1.620778 14.147240 -4.221625 1.750431 -0.025974 0.459516 -5.633760 0.416537 -0.414374 -1.040906 4.373835 11.516588 0.000000 0.000000 0.000000 1.451065 0.000502 0.015587 1.271563 -0.122116 3.526056 1.707961 0.977457 9.734645 0.000000 0.000000 0.000000 -3.302757 -0.123909 5.465335 3.409520 -0.009508 -23.459146 -2.618569 -4.269324 30.335632 -1.096621 3.145800 -32.261983 0.000000 0.000000 0.000000 -33.019332 4.184730 -7.456434 -41.997088 4.315345 -7.766755 -18.972364 -45.073662 9.891082 0.000000 0.000000 0.000000 24.987018 -1.730751 -0.736213 47.630651 -1.198481 -7.976191 20.469576 58.800746 16.367851 0.000000 0.000000 0.000000 
0.586148 0.972025 3.654157 1.037094 13.281442 -2.883274 2.344928 0.019111 1.666605 -5.858473 0.383115 -3.304086 -0.399574 5.554215 12.142134 0.000000 0.000000 0.000000 1.582368 -0.093845 0.767815 1.854254 -0.224229 2.361532 1.457899 0.643103 8.860132 0.000000 0.000000 0.000000 -3.199929 -0.078996 3.946188 3.661397 -0.074811 -23.865933 -2.650937 -4.629353 30.797433 -0.327881 2.619975 -32.234258 0.000000 0.000000 0.000000 -32.478121 4.371261 -7.074422 -41.866434 5.096430 -8.133728 -15.033677 -42.417397 7.795233 0.000000 0.000000 0.000000 25.452735 -1.136483 -0.635570 46.721766 -1.122573 -7.781683 18.178761 57.775594 14.452573 0.000000 0.000000 0.000000 
0.591754 0.969746 3.672768 0.594185 12.830856 -1.874892 2.384493 0.087418 3.047548 -6.106588 0.319311 -5.951543 0.256944 6.869209 13.089902 0.000000 0.000000 0.000000 1.664818 -0.218566 1.735421 1.914031 -0.248998 0.778467 1.684172 1.174215 8.596768 0.000000 0.000000 0.000000 -3.081986 -0.054831 3.063550 4.022079 -0.178792 -23.759039 -3.242610 -4.818220 30.395664 -0.072418 2.465456 -33.113611 0.000000 0.000000 0.000000 -31.756139 5.171734 -7.313585 -41.319529 5.290786 -8.091137 -11.683850 -38.213116 5.781156 0.000000 0.000000 0.000000 25.792751 -1.863106 -1.293178 46.298380 -1.393706 -7.715665 14.897024 55.440884 11.822051 0.000000 0.000000 0.000000 
0.597209 0.968352 3.689163 0.461867 12.868963 -1.238783 2.221484 0.162976 4.417198 -5.774724 0.242663 -8.055734 0.214423 6.806336 13.128825 0.000000 0.000000 0.000000 1.607430 -0.320570 2.528281 1.671021 -0.228349 -0.057498 1.996988 1.949568 8.327250 0.000000 0.000000 0.000000 -3.354442 -0.035635 2.512997 4.215558 -0.231847 -23.568374 -3.513248 -5.435847 30.233225 0.389454 2.149146 -33.286955 0.000000 0.000000 0.000000 -32.175525 5.321209 -7.261376 -39.762282 5.416859 -7.849078 -8.614784 -34.625487 4.250569 0.000000 0.000000 0.000000 26.037489 -2.229977 -1.758494 45.900007 -2.430681 -7.930648 13.174567 52.083074 9.907041 0.000000 0.000000 0.000000 
0.602616 0.966884 3.704563 0.136183 12.740095 -0.593323 2.400479 0.217265 5.995212 -5.860645 0.153750 -10.342366 0.210171 7.226040 14.415135 0.000000 0.000000 0.000000 1.769372 -0.449276 3.459780 1.371648 -0.213591 -1.225109 2.070078 2.152965 8.193726 0.000000 0.000000 0.000000 -3.274846 -0.018228 1.605675 4.394471 -0.291956 -23.307689 -4.087205 -5.765812 30.091595 0.314120 2.131711 -33.314078 0.000000 0.000000 0.000000 -32.098888 6.148209 -7.676548 -39.655830 6.942564 -8.284060 -5.366189 -31.060326 2.899360 0.000000 0.000000 0.000000 26.318114 -2.759864 -2.277576 46.533345 -3.927328 -8.468856 10.370596 47.061592 7.434047 0.000000 0.000000 0.000000 
0.607704 0.965766 3.718391 0.065438 12.569829 -0.112476 2.076890 0.292257 7.013121 -5.361049 0.125047 -11.440604 -0.121884 6.510040 13.892675 0.000000 0.000000 0.000000 1.601472 -0.461490 3.587904 1.034775 -0.180188 -1.543840 2.287261 2.619485 8.165422 0.000000 0.000000 0.000000 -3.334666 -0.006890 1.084442 4.061834 -0.201546 -23.441492 -4.041625 -6.132417 30.241392 0.583328 1.906437 -33.062591 0.000000 0.000000 0.000000 -32.698952 6.796619 -8.057947 -39.158927 8.700530 -8.730319 -3.005504 -27.545088 2.002470 0.000000 0.000000 0.000000 26.335560 -3.289009 -2.797176 46.927777 -5.346668 -8.981396 8.387819 41.424233 5.532238 0.000000 0.000000 0.000000 
0.612263 0.964380 3.730265 -0.044922 12.482885 0.436217 2.120168 0.331211 8.088654 -5.551642 0.066082 -12.723321 -0.125608 6.457279 13.855631 0.000000 0.000000 0.000000 1.484118 -0.497544 3.885491 0.927020 -0.185936 -2.172078 2.221625 2.494643 8.110870 0.000000 0.000000 0.000000 -3.259178 0.003053 0.607525 4.149185 -0.230097 -23.308171 -4.445757 -6.347017 30.049800 0.687438 1.784359 -32.505272 0.000000 0.000000 0.000000 -32.945814 7.725408 -8.691094 -39.322693 10.873569 -9.380821 -0.995576 -24.435854 1.345025 0.000000 0.000000 0.000000 26.711287 -3.432700 -3.052866 47.738957 -6.555074 -9.487072 4.020911 35.985299 3.249595 0.000000 0.000000 0.000000 
0.615962 0.962477 3.739947 0.048354 12.200648 0.903741 1.789556 0.378210 8.228794 -5.328815 0.092875 -12.487124 -0.310784 5.703317 12.696732 0.000000 0.000000 0.000000 1.072497 -0.423720 3.434762 1.123920 -0.198769 -1.859713 1.868483 2.040400 7.137190 0.000000 0.000000 0.000000 -3.276433 0.013922 -0.077990 4.191426 -0.250017 -23.179264 -4.654911 -6.090632 30.216434 0.917368 1.678423 -32.469853 0.000000 0.000000 0.000000 -32.858228 8.290051 -9.103171 -39.929641 13.142948 -10.199260 -0.084925 -22.329215 1.051978 0.000000 0.000000 0.000000 27.131574 -3.994799 -3.444482 47.777473 -7.966059 -10.000681 0.601763 31.562834 1.853789 0.000000 0.000000 0.000000 
0.618715 0.960220 3.747720 0.181376 12.178509 1.252966 1.799133 0.393383 8.606303 -5.559806 0.082149 -12.576774 -0.410396 5.395183 12.336407 0.000000 0.000000 0.000000 0.663800 -0.403230 3.386665 1.322499 -0.219138 -1.759443 1.451035 1.338656 6.473037 0.000000 0.000000 0.000000 -3.271960 0.019778 -0.438206 4.056156 -0.217410 -23.096894 -4.616835 -6.240001 30.268733 0.962409 1.622446 -32.385608 0.000000 0.000000 0.000000 -33.213119 8.053021 -8.944890 -40.768908 14.367844 -10.816210 0.948832 -20.892413 0.809157 0.000000 0.000000 0.000000 27.115610 -3.593162 -3.232824 48.446232 -9.401460 -10.646005 -2.118674 27.917238 0.958878 0.000000 0.000000 0.000000 
0.620516 0.957826 3.753998 0.199428 12.388169 1.334929 1.642449 0.405673 8.582916 -5.375397 0.117964 -11.713994 -0.566403 4.675306 11.126880 0.000000 0.000000 0.000000 0.731162 -0.419373 3.493792 1.256508 -0.211172 -1.733112 1.067318 0.665385 5.948761 0.000000 0.000000 0.000000 -3.389295 0.021343 -0.678867 4.177148 -0.252809 -22.934914 -4.721626 -6.200822 30.193323 0.739353 1.749078 -32.085702 0.000000 0.000000 0.000000 -33.161831 8.447439 -9.309131 -40.457805 15.029091 -10.886959 0.788189 -20.771480 0.824821 0.000000 0.000000 0.000000 26.767337 -3.793966 -3.263442 48.580921 -11.014541 -11.255294 -3.206356 26.193854 0.658561 0.000000 0.000000 0.000000 
0.621631 0.955573 3.758868 0.208157 12.308024 1.512673 1.403386 0.438869 8.677773 -5.088259 0.144268 -11.296931 -0.727280 4.083334 10.369540 0.000000 0.000000 0.000000 0.506041 -0.421302 3.578001 1.567770 -0.241668 -1.468153 0.937207 0.572679 5.290534 0.000000 0.000000 0.000000 -3.337851 0.024415 -0.874788 3.801635 -0.149112 -23.054237 -4.445622 -5.847303 30.482803 0.821391 1.737661 -31.792975 0.000000 0.000000 0.000000 -33.345838 7.846575 -9.057931 -40.514136 15.068526 -10.904572 0.719261 -21.100984 0.840450 0.000000 0.000000 0.000000 27.549146 -3.988712 -3.328606 47.779342 -11.592681 -11.336998 -3.193813 24.758856 0.621009 0.000000 0.000000 0.000000 
0.622367 0.953943 3.762090 0.245789 12.504498 1.545326 1.453767 0.429853 8.693909 -5.312590 0.143630 -11.036639 -1.117553 3.282865 9.979103 0.000000 0.000000 0.000000 0.608191 -0.492021 4.112078 1.556588 -0.248423 -1.780303 0.677752 0.154876 4.746768 0.000000 0.000000 0.000000 -3.406449 0.025337 -1.260107 3.740790 -0.155391 -22.391573 -4.360163 -5.556999 30.142932 0.473564 1.981013 -31.626991 0.000000 0.000000 0.000000 -33.367391 7.529416 -9.046748 -40.480664 13.501233 -10.349314 0.273635 -21.796164 0.932833 0.000000 0.000000 0.000000 27.728444 -3.416973 -2.799081 48.113827 -11.553186 -11.424673 -3.357352 23.762176 0.570765 0.000000 0.000000 0.000000 
0.622935 0.952662 3.763392 0.330482 12.669842 1.633721 1.467389 0.411976 8.393397 -5.627915 0.150239 -10.564027 -1.429287 2.501580 9.394336 0.000000 0.000000 0.000000 0.408336 -0.494428 4.194830 1.807697 -0.272751 -1.491556 0.222427 -0.697594 4.034535 0.000000 0.000000 0.000000 -3.495128 0.024978 -1.404353 3.458631 -0.095593 -21.876329 -4.095294 -5.106768 29.860951 0.541470 2.029996 -31.432473 0.000000 0.000000 0.000000 -33.514425 6.599598 -8.693081 -40.478556 10.843023 -9.464814 0.391367 -22.765893 0.926295 0.000000 0.000000 0.000000 27.801980 -2.922245 -2.252181 48.186198 -10.494910 -11.107211 -3.121984 23.566303 0.626428 0.000000 0.000000 0.000000 
0.623553 0.952118 3.762933 0.287250 12.617965 1.605270 1.514258 0.406196 8.364013 -5.581570 0.156156 -10.477293 -1.815030 1.720248 9.137112 0.000000 0.000000 0.000000 0.239317 -0.503830 4.329532 2.270697 -0.331835 -1.614568 0.046283 -1.042087 3.750553 0.000000 0.000000 0.000000 -3.423382 0.025500 -1.338064 3.272902 -0.039790 -22.097950 -3.946289 -4.673060 29.994774 0.517105 2.144678 -32.021700 0.000000 0.000000 0.000000 -33.260576 5.766333 -8.222950 -41.334742 8.036782 -8.789453 -0.064785 -24.601127 1.092363 0.000000 0.000000 0.000000 27.903961 -2.138160 -1.541050 48.376467 -8.166364 -10.397509 -3.772983 23.883928 0.546212 0.000000 0.000000 0.000000 
0.624114 0.951548 3.761366 0.318380 12.374265 1.699651 1.410781 0.407131 8.026987 -5.586248 0.167046 -10.341590 -1.927784 1.408648 8.941390 0.000000 0.000000 0.000000 0.030442 -0.485476 4.260506 2.464276 -0.353014 -1.532064 -0.196830 -1.585431 3.557590 0.000000 0.000000 0.000000 -3.767595 0.023252 -1.567482 3.417086 -0.103406 -21.575904 -3.798713 -4.049628 29.631128 0.626363 2.167158 -31.962711 0.000000 0.000000 0.000000 -32.969882 4.703088 -7.624648 -41.988773 5.187718 -7.964317 -0.531973 -26.280791 1.254888 0.000000 0.000000 0.000000 27.860949 -0.741148 -0.428867 48.525387 -5.582913 -9.525945 -4.219391 24.595664 0.498921 0.000000 0.000000 0.000000 
0.624583 0.951800 3.759178 0.345984 12.465103 1.653461 1.434002 0.405145 8.072497 -5.772627 0.149417 -10.631100 -2.012539 1.456946 9.305145 0.000000 0.000000 0.000000 -0.130982 -0.507556 4.497530 2.595655 -0.374473 -1.851018 -0.432529 -2.265581 4.004033 0.000000 0.000000 0.000000 -4.090522 0.018110 -1.523039 3.442748 -0.106944 -21.613774 -3.523807 -3.859531 29.515866 0.526485 2.274836 -32.228487 0.000000 0.000000 0.000000 -32.869628 3.585322 -6.933295 -42.458942 2.596349 -7.194957 -1.586917 -27.515431 1.559190 0.000000 0.000000 0.000000 27.860444 0.156431 0.291619 48.488308 -2.705730 -8.524787 -3.799122 25.438304 0.625532 0.000000 0.000000 0.000000 
0.624824 0.951877 3.756693 0.286091 12.387815 1.696670 1.350597 0.399993 7.745493 -5.584124 0.168644 -10.279682 -2.143172 1.102296 9.052923 0.000000 0.000000 0.000000 -0.105116 -0.503558 4.458477 2.633119 -0.381081 -2.011311 -0.672782 -2.892997 4.213037 0.000000 0.000000 0.000000 -4.218135 0.016512 -1.671108 3.506514 -0.147816 -21.028320 -3.388323 -3.611141 29.148068 0.491464 2.329490 -32.319838 0.000000 0.000000 0.000000 -33.045432 2.584424 -6.366413 -42.489112 0.232616 -6.385370 -2.968519 -28.621639 1.955326 0.000000 0.000000 0.000000 27.929379 1.719587 1.391405 48.274319 0.094843 -7.476731 -3.834224 26.494286 0.650205 0.000000 0.000000 0.000000 
0.624750 0.952299 3.753682 0.244715 12.120401 1.403223 1.505027 0.387255 7.716738 -5.733621 0.180141 -10.112225 -1.960394 1.526472 9.319681 0.000000 0.000000 0.000000 -0.256597 -0.523418 4.687459 2.702813 -0.391002 -2.196000 -0.729271 -3.159775 4.689945 0.000000 0.000000 0.000000 -4.411439 0.013540 -1.161401 3.755955 -0.228354 -20.896651 -3.124089 -3.040209 28.946215 0.365929 2.456762 -32.316043 0.000000 0.000000 0.000000 -32.996746 1.124352 -5.507713 -42.451094 -1.343895 -5.813968 -3.756460 -29.335135 2.180867 0.000000 0.000000 0.000000 28.181794 2.861261 2.297907 47.909472 2.796599 -6.493795 -3.802256 27.213434 0.687638 0.000000 0.000000 0.000000 
0.624546 0.952260 3.750232 0.037431 11.692345 1.392359 1.698314 0.348467 7.191669 -5.685896 0.217172 -9.396951 -1.699825 1.627266 8.709117 0.000000 0.000000 0.000000 -0.291496 -0.471143 4.273335 2.883802 -0.407911 -2.059382 -0.944048 -3.755252 4.981286 0.000000 0.000000 0.000000 -4.354249 0.016856 -0.961810 3.810472 -0.270176 -20.499689 -2.977246 -2.909957 28.593573 0.404416 2.430590 -32.686010 0.000000 0.000000 0.000000 -33.174443 0.264466 -4.860138 -42.543309 -2.825154 -5.345307 -4.512277 -29.440944 2.392990 0.000000 0.000000 0.000000 28.033552 4.442900 3.245438 47.939264 4.973569 -5.635557 -3.988531 27.790574 0.638671 0.000000 0.000000 0.000000 
0.624246 0.952563 3.746656 -0.024372 11.309101 1.442486 1.817064 0.315735 6.648118 -5.882597 0.237026 -9.027502 -1.511280 1.880892 8.632889 0.000000 0.000000 0.000000 -0.376712 -0.418287 3.861387 2.845432 -0.399602 -1.960092 -0.981312 -3.878191 5.049845 0.000000 0.000000 0.000000 -4.414754 0.019416 -0.653513 3.883822 -0.294332 -20.585892 -2.782428 -2.368150 28.511241 0.650989 2.367020 -32.882784 0.000000 0.000000 0.000000 -33.128810 -0.774263 -4.257922 -42.465096 -3.286404 -5.142555 -5.106435 -29.714543 2.549663 0.000000 0.000000 0.000000 28.751068 5.255764 3.933165 47.378268 6.442329 -5.102141 -4.100889 28.225033 0.624706 0.000000 0.000000 0.000000 
0.624020 0.952968 3.743483 -0.059178 11.429291 1.576863 1.939343 0.271770 6.040103 -5.803267 0.255060 -8.428542 -1.467667 1.859395 8.410096 0.000000 0.000000 0.000000 -0.140800 -0.364382 3.314008 2.532901 -0.360121 -1.763022 -1.153405 -4.373118 5.550369 0.000000 0.000000 0.000000 -4.612367 0.021144 -0.382820 3.965648 -0.307308 -20.740813 -2.609296 -2.490394 28.542284 0.553865 2.413664 -33.044158 0.000000 0.000000 0.000000 -33.506195 -1.225028 -3.978478 -42.358242 -4.022946 -4.895581 -5.493753 -29.260017 2.613044 0.000000 0.000000 0.000000 28.811866 6.255604 4.590872 47.250384 7.422081 -4.735965 -3.962852 28.614421 0.651781 0.000000 0.000000 0.000000 
0.623818 0.953230 3.741021 -0.101279 11.320778 1.583950 2.029209 0.247375 5.685458 -5.896721 0.273492 -7.956932 -1.063597 2.513284 8.338572 0.000000 0.000000 0.000000 -0.130217 -0.329631 3.010699 2.504338 -0.352628 -1.549224 -1.228311 -4.610835 5.836684 0.000000 0.000000 0.000000 -4.619720 0.022513 -0.186300 4.006846 -0.319431 -20.757818 -2.430512 -2.224891 28.479900 0.666992 2.386387 -33.018270 0.000000 0.000000 0.000000 -33.922481 -1.625147 -3.857710 -42.054616 -4.058718 -4.809049 -6.192154 -28.556279 2.708515 0.000000 0.000000 0.000000 29.308839 6.570854 4.902906 46.807098 8.131692 -4.481194 -3.862444 28.579961 0.665406 0.000000 0.000000 0.000000 
0.623597 0.953252 3.739224 -0.242768 11.108101 1.580836 1.851327 0.261853 5.613412 -5.669756 0.283315 -7.750720 -0.743828 3.079533 8.405449 0.000000 0.000000 0.000000 0.012361 -0.325822 2.942189 2.380622 -0.339054 -1.695240 -1.090149 -4.409856 6.279702 0.000000 0.000000 0.000000 -4.460163 0.023941 -0.114820 4.078548 -0.336707 -20.907150 -2.342976 -2.006557 28.480722 0.785745 2.332500 -32.832445 0.000000 0.000000 0.000000 -34.548624 -1.992345 -3.744533 -41.299792 -4.033549 -4.699628 -6.521836 -27.799634 2.703324 0.000000 0.000000 0.000000 29.723081 7.032129 5.280647 46.784779 8.335766 -4.425642 -4.288857 28.439404 0.559552 0.000000 0.000000 0.000000 
0.623192 0.953227 3.737925 -0.289955 10.920031 1.532895 1.753644 0.258131 5.338941 -5.480282 0.297248 -7.347041 -0.446835 3.489752 8.216835 0.000000 0.000000 0.000000 -0.043344 -0.308519 2.809888 2.518996 -0.348298 -1.298975 -1.252506 -4.791640 6.293195 0.000000 0.000000 0.000000 -4.294439 0.023927 -0.173132 4.056831 -0.331878 -20.932194 -2.181300 -2.020276 28.408956 0.764033 2.305606 -32.543388 0.000000 0.000000 0.000000 -34.886230 -2.415947 -3.421168 -40.987601 -3.877101 -4.720968 -6.794348 -26.853769 2.673193 0.000000 0.000000 0.000000 29.877109 7.179844 5.316539 46.392725 8.178375 -4.435268 -3.750634 28.177869 0.646397 0.000000 0.000000 0.000000 
0.622581 0.952781 3.736833 -0.414267 10.753866 1.476218 1.821275 0.248558 5.239614 -5.723540 0.302624 -7.343498 0.096705 4.458286 8.337477 0.000000 0.000000 0.000000 0.204761 -0.315415 2.803879 2.466982 -0.342503 -1.379333 -1.061665 -4.376373 6.296849 0.000000 0.000000 0.000000 -4.211218 0.023975 0.061678 4.458645 -0.447291 -20.933756 -2.462197 -1.993795 28.164536 0.973525 2.170326 -32.140991 0.000000 0.000000 0.000000 -35.215182 -2.342180 -3.503804 -40.202312 -3.185610 -4.815435 -7.444316 -26.811915 2.816359 0.000000 0.000000 0.000000 30.328483 7.174694 5.307281 46.057498 7.633942 -4.589362 -3.095002 28.512875 0.795581 0.000000 0.000000 0.000000 
0.621745 0.952655 3.735706 -0.423327 10.672260 1.524575 1.791082 0.235934 4.946854 -5.466122 0.309473 -7.038633 -0.071850 3.920448 7.777376 0.000000 0.000000 0.000000 0.161168 -0.288138 2.581371 2.818513 -0.382054 -1.178021 -1.149092 -4.589771 6.348709 0.000000 0.000000 0.000000 -4.237062 0.024853 0.042880 4.150043 -0.346488 -21.261802 -2.247011 -2.662840 28.447702 0.544599 2.279118 -32.391286 0.000000 0.000000 0.000000 -36.027055 -2.161369 -3.376572 -39.100768 -3.021094 -4.850031 -8.098896 -25.803868 2.879625 0.000000 0.000000 0.000000 30.133194 7.366749 5.119323 46.229526 6.865852 -4.806987 -2.066361 28.030747 0.971579 0.000000 0.000000 0.000000 
0.620793 0.952442 3.734322 -0.439094 10.123939 1.273599 1.966028 0.228541 4.943047 -5.331757 0.328312 -6.616856 0.361963 4.539926 7.572000 0.000000 0.000000 0.000000 0.179072 -0.311303 2.785310 2.835129 -0.377747 -0.917121 -1.093360 -4.384602 5.805380 0.000000 0.000000 0.000000 -3.896443 0.020391 0.562012 3.822702 -0.270172 -21.224398 -1.950540 -2.787743 28.265989 0.407586 2.206393 -31.172699 0.000000 0.000000 0.000000 -36.302812 -2.067097 -3.223433 -38.685944 -2.568513 -4.994241 -8.523687 -25.420789 2.946843 0.000000 0.000000 0.000000 30.342756 6.940842 4.602448 45.858165 6.676919 -4.776792 -1.394626 27.834645 1.088846 0.000000 0.000000 0.000000 
0.619819 0.952912 3.732505 -0.571157 9.195043 1.493783 1.950291 0.206877 4.372128 -4.846467 0.340795 -6.225094 1.124555 5.681942 7.286507 0.000000 0.000000 0.000000 0.131791 -0.223929 2.043459 3.290760 -0.425044 -0.664159 -0.975760 -4.194896 5.850837 0.000000 0.000000 0.000000 -4.280788 0.028251 0.519961 4.452812 -0.479398 -20.868942 -1.655590 -2.020418 27.796314 0.257027 2.300693 -30.941373 0.000000 0.000000 0.000000 -36.397920 -1.388309 -3.833213 -39.183935 -2.350113 -5.074057 -9.376458 -25.072729 3.090086 0.000000 0.000000 0.000000 30.300682 6.358158 4.208013 45.747947 6.568319 -4.770533 -0.840838 26.789638 1.145404 0.000000 0.000000 0.000000 
0.618948 0.953236 3.730415 -0.768160 9.466782 1.006967 2.367300 0.202425 4.894022 -5.163606 0.331492 -6.872544 1.256303 6.346830 8.374925 0.000000 0.000000 0.000000 0.865626 -0.300629 2.512378 2.754306 -0.369276 -1.340438 -0.623550 -3.573204 6.574725 0.000000 0.000000 0.000000 -3.825043 0.011324 1.645971 4.184392 -0.398087 -20.933816 -1.802743 -2.467089 27.426612 0.928379 1.818947 -29.456877 0.000000 0.000000 0.000000 -36.233366 -1.682492 -3.458368 -39.492264 -2.026688 -5.223561 -7.332671 -24.554851 2.590954 0.000000 0.000000 0.000000 31.053648 6.568688 4.275274 45.101962 6.561499 -4.697324 -1.524230 26.187142 0.953700 0.000000 0.000000 0.000000 
