HIERARCHY
ROOT Hips
{
	OFFSET -0.001795 -0.223333 0.028219
	CHANNELS 6 Xposition Yposition Zposition Zrotation Yrotation Xrotation 
	JOINT LeftUpLeg
	{
		OFFSET 0.069520 -0.091406 -0.006815
		CHANNELS 3 Zrotation Yrotation Xrotation
		JOINT LeftLeg
		{
			OFFSET 0.034277 -0.375199 -0.004496
			CHANNELS 3 Zrotation Yrotation Xrotation
			JOINT LeftFoot
			{
				OFFSET -0.013596 -0.397961 -0.043693
				CHANNELS 3 Zrotation Yrotation Xrotation
				JOINT LeftToe
				{
					OFFSET 0.026358 -0.055791 0.119288
					CHANNELS 3 Zrotation Yrotation Xrotation
					End Site
					{
						OFFSET 0.000000 0.000000 0.000000
					}
				}
			}
		}
	}
	JOINT RightUpLeg
	{
		OFFSET -0.067670 -0.090522 -0.004320
		CHANNELS 3 Zrotation Yrotation Xrotation
		JOINT RightLeg
		{
			OFFSET -0.038290 -0.382569 -0.008850
			CHANNELS 3 Zrotation Yrotation Xrotation
			JOINT RightFoot
			{
				OFFSET 0.015774 -0.398415 -0.042312
				CHANNELS 3 Zrotation Yrotation Xrotation
				JOINT RightToe
				{
					OFFSET -0.025372 -0.048144 0.123348
					CHANNELS 3 Zrotation Yrotation Xrotation
					End Site
					{
						OFFSET 0.000000 0.000000 0.000000
					}
				}
			}
		}
	}
	JOINT Spine
	{
		OFFSET -0.002533 0.108963 -0.026696
		CHANNELS 3 Zrotation Yrotation Xrotation
		JOINT Spine1
		{
			OFFSET 0.005487 0.135180 0.001092
			CHANNELS 3 Zrotation Yrotation Xrotation
			JOINT Spine2
			{
				OFFSET 0.001457 0.052922 0.025425
				CHANNELS 3 Zrotation Yrotation Xrotation
				JOINT Neck
				{
					OFFSET -0.002778 0.213870 -0.042857
					CHANNELS 3 Zrotation Yrotation Xrotation
					JOINT Head
					{
						OFFSET 0.005152 0.064970 0.051349
						CHANNELS 3 Zrotation Yrotation Xrotation
						End Site
						{
							OFFSET 0.000000 0.000000 0.000000
						}
					}
				}
				JOINT LeftShoulder
				{
					OFFSET 0.078845 0.121749 -0.034090
					CHANNELS 3 Zrotation Yrotation Xrotation
					JOINT LeftArm
					{
						OFFSET 0.090977 0.030469 -0.008868
						CHANNELS 3 Zrotation Yrotation Xrotation
						JOINT LeftForeArm
						{
							OFFSET 0.259612 -0.012772 -0.027456
							CHANNELS 3 Zrotation Yrotation Xrotation
							JOINT LeftHand
							{
								OFFSET 0.249234 0.008986 -0.001171
								CHANNELS 3 Zrotation Yrotation Xrotation
								End Site
								{
									OFFSET 0.000000 0.000000 0.000000
								}
							}
						}
					}
				}
				JOINT RightShoulder
				{
					OFFSET -0.081759 0.118833 -0.038615
					CHANNELS 3 Zrotation Yrotation Xrotation
					JOINT RightArm
					{
						OFFSET -0.096012 0.032551 -0.009143
						CHANNELS 3 Zrotation Yrotation Xrotation
						JOINT RightForeArm
						{
							OFFSET -0.253742 -0.013329 -0.021401
							CHANNELS 3 Zrotation Yrotation Xrotation
							JOINT RightHand
							{
								OFFSET -0.255298 0.007772 -0.005559
								CHANNELS 3 Zrotation Yrotation Xrotation
								End Site
								{
									OFFSET 0.000000 0.000000 0.000000
								}
							}
						}
					}
				}
			}
		}
	}
}
MOTION
Frames: 108
Frame Time: 0.050000
0.000000 0.945076 0.000000 -1.800538 0.316381 1.384237 -0.356950 0.133745 1.363488 0.833752 -0.084459 -0.142156 -2.272148 -3.631310 2.225012 0.000000 0.000000 0.000000 -0.926892 0.210059 -2.006965 -0.013198 0.383980 9.664085 -1.398627 -2.805735 -1.721856 0.000000 0.000000 0.000000 -1.345311 -0.103653 4.108105 0.663892 -0.207228 -3.116291 0.090128 1.048976 8.797206 2.833894 -0.009128 -21.046706 0.000000 0.000000 0.000000 -25.005015 -3.241156 -0.790349 -44.359669 -6.726700 -3.109623 -8.869619 -22.352666 2.569598 0.000000 0.000000 0.000000 22.059004 5.746361 1.770392 50.598850 5.998435 -2.961944 2.557564 22.029751 1.259380 0.000000 0.000000 0.000000 
0.003492 0.943617 0.005725 -1.727875 0.186054 1.272880 -0.441537 0.216344 2.211651 0.739512 -0.048601 -0.781168 -2.710647 -4.959959 1.496473 0.000000 0.000000 0.000000 -1.110686 0.513263 -5.339489 0.230439 0.610124 16.809224 -2.116452 -3.996595 -3.368359 0.000000 0.000000 0.000000 -1.497928 -0.119549 4.923422 0.267904 -0.040806 -2.832717 0.164055 1.378175 8.438802 2.591589 0.321772 -22.780669 0.000000 0.000000 0.000000 -25.122375 -3.252253 -0.895340 -44.640679 -6.628004 -3.104925 -7.845323 -22.450085 2.367572 0.000000 0.000000 0.000000 21.334161 6.034125 2.008244 51.933596 5.887525 -3.043526 2.137532 23.184050 1.268342 0.000000 0.000000 0.000000 
0.006324 0.942238 0.012041 -1.449297 0.083576 0.711054 -0.739288 0.299489 2.965758 0.649961 -0.085802 0.372141 -3.183293 -7.121985 -0.365752 0.000000 0.000000 0.000000 -1.419340 0.959678 -10.522908 0.910143 0.798036 27.607431 -2.656275 -5.534266 -3.202602 0.000000 0.000000 0.000000 -1.511976 -0.150184 5.958994 0.131155 0.043005 -3.654208 -0.122285 0.649771 9.622785 1.918484 0.486223 -21.703745 0.000000 0.000000 0.000000 -24.297113 -3.806287 -0.185580 -44.683544 -8.013706 -2.812093 -8.145085 -21.077410 2.305281 0.000000 0.000000 0.000000 22.324265 7.297796 2.529791 50.617882 6.669492 -2.724565 1.859184 22.714861 1.158623 0.000000 0.000000 0.000000 
0.008139 0.941386 0.020219 -1.602765 0.482921 -0.212224 -0.109711 0.404818 4.416532 -0.236346 -0.015906 1.285960 -3.604402 -8.821880 -1.487191 0.000000 0.000000 0.000000 -1.633446 1.227619 -13.909480 1.132012 0.891685 34.637072 -2.567027 -5.639228 -2.347912 0.000000 0.000000 0.000000 -1.967086 -0.175792 7.836374 0.099910 0.064032 -3.763200 0.789420 0.168080 10.234142 0.973449 1.151472 -24.541279 0.000000 0.000000 0.000000 -25.605019 -4.072274 0.056276 -42.609520 -9.150922 -2.424530 -8.556242 -20.790116 2.359177 0.000000 0.000000 0.000000 21.981749 7.705601 2.649338 50.294700 7.025586 -2.597053 2.287823 23.792520 1.289259 0.000000 0.000000 0.000000 
0.008794 0.941424 0.031332 -1.493519 1.197358 -0.816239 -0.299947 0.544112 5.877504 -0.436615 0.006144 1.319460 -3.383130 -8.472910 -1.697212 0.000000 0.000000 0.000000 -2.249553 1.470279 -18.000569 2.442675 0.283772 39.625753 -2.616180 -6.326632 -0.829447 0.000000 0.000000 0.000000 -2.308000 -0.181916 8.855180 0.939293 -0.300349 -3.729453 0.263931 -1.050237 10.531422 0.296575 1.390487 -24.338096 0.000000 0.000000 0.000000 -25.645074 -4.381578 0.536206 -42.089589 -9.692945 -2.342796 -8.262322 -20.698083 2.320265 0.000000 0.000000 0.000000 21.471149 7.970680 2.561639 50.304091 6.679113 -2.696631 3.297095 24.627757 1.504597 0.000000 0.000000 0.000000 
0.008458 0.940667 0.046110 -1.697461 2.017398 -1.204299 -0.015013 0.633756 7.207239 -0.326004 -0.025774 1.862227 -3.261224 -8.914521 -2.679165 0.000000 0.000000 0.000000 -2.794457 1.597742 -21.267487 3.564643 -0.403348 38.903546 -2.909889 -7.085274 -0.780904 0.000000 0.000000 0.000000 -2.465728 -0.200591 9.773830 1.392968 -0.474707 -4.129534 0.907967 -2.290487 11.301212 -1.304034 2.186596 -26.056571 0.000000 0.000000 0.000000 -25.950468 -4.168046 0.755237 -41.760581 -10.030403 -2.399031 -8.229964 -20.962808 2.380472 0.000000 0.000000 0.000000 19.518704 7.882160 2.306030 51.689406 6.392920 -2.903655 3.483861 25.245477 1.553904 0.000000 0.000000 0.000000 
0.006903 0.938461 0.064460 -2.014516 2.000033 -1.601352 -0.177812 0.792730 8.892553 0.590464 -0.143550 1.986809 -2.508409 -7.833474 -3.623313 0.000000 0.000000 0.000000 -2.317461 1.762242 -22.392987 3.101196 -0.172937 33.625862 -2.665096 -6.465787 -0.762517 0.000000 0.000000 0.000000 -2.189977 -0.249645 10.580131 1.864426 -0.666442 -4.459853 0.928646 -2.318057 11.790056 -1.282006 2.194194 -26.623705 0.000000 0.000000 0.000000 -26.246040 -3.609284 0.425365 -41.343860 -10.766240 -2.198367 -8.259827 -21.070431 2.403934 0.000000 0.000000 0.000000 18.437988 7.497814 2.138027 52.677238 6.589700 -2.933937 3.781464 25.996719 1.677301 0.000000 0.000000 0.000000 
0.004075 0.935831 0.086189 -2.062409 2.537435 -1.757578 -0.271169 0.936886 10.571971 1.406678 -0.227617 1.640465 -1.943646 -7.786222 -5.380860 0.000000 0.000000 0.000000 -2.568878 1.725665 -22.884508 2.709111 -0.086626 25.545249 -2.044284 -4.832796 -0.916474 0.000000 0.000000 0.000000 -2.132470 -0.281593 11.257284 2.289991 -0.782984 -5.611691 0.818275 -2.692112 12.450140 -2.072292 2.601255 -26.990948 0.000000 0.000000 0.000000 -25.439301 -2.993174 0.129388 -41.662228 -11.373612 -2.072430 -8.725326 -21.340364 2.535022 0.000000 0.000000 0.000000 18.291721 6.838340 1.801147 53.184430 5.845413 -3.354687 3.737161 26.682568 1.727956 0.000000 0.000000 0.000000 
-0.000049 0.931194 0.111239 -2.101571 2.885817 -0.819487 -0.133853 0.978463 11.316909 2.014702 -0.274786 1.181355 -1.787130 -7.960730 -6.104418 0.000000 0.000000 0.000000 -2.545620 1.759688 -23.467335 2.257633 -0.024712 16.445675 -2.294128 -5.645249 -0.446651 0.000000 0.000000 0.000000 -1.533339 -0.300405 10.091047 2.163048 -0.748970 -5.087781 0.711210 -2.997542 11.558425 -2.046888 2.562433 -26.683259 0.000000 0.000000 0.000000 -24.716957 -2.378936 -0.216751 -42.003399 -11.300192 -2.021740 -8.975665 -22.154892 2.688585 0.000000 0.000000 0.000000 19.364137 6.175946 1.346531 52.680458 4.612428 -3.742608 3.898034 26.652117 1.743682 0.000000 0.000000 0.000000 
-0.005557 0.925390 0.139124 -1.687721 3.515768 -0.455391 -0.433430 1.115173 12.676469 2.726083 -0.357178 1.212435 -1.554789 -7.656516 -6.418844 0.000000 0.000000 0.000000 -2.400610 1.723958 -22.944334 0.927198 0.168605 10.271693 -1.989467 -4.784710 -0.726277 0.000000 0.000000 0.000000 -1.598752 -0.298386 10.144098 2.553688 -0.898117 -5.235184 0.339985 -3.142206 11.144293 -2.299476 2.722088 -26.761912 0.000000 0.000000 0.000000 -24.686318 -2.344536 -0.335646 -41.569845 -11.639509 -1.835939 -8.868769 -22.037424 2.637757 0.000000 0.000000 0.000000 20.200012 5.724642 1.112380 52.483844 3.643134 -4.108061 2.847210 26.319101 1.502236 0.000000 0.000000 0.000000 
-0.012958 0.919123 0.170188 -1.647648 4.475430 -0.429105 0.222342 1.124279 14.326998 2.949405 -0.399912 1.542859 -1.493461 -8.145333 -7.153063 0.000000 0.000000 0.000000 -1.595412 1.843232 -23.108771 0.069854 0.328797 10.252994 -1.394578 -3.487230 -0.129248 0.000000 0.000000 0.000000 -0.946148 -0.369206 10.177735 2.350593 -0.810708 -5.007706 -0.092846 -3.526187 10.706191 -1.330378 2.250608 -26.565278 0.000000 0.000000 0.000000 -23.724073 -2.328666 -0.379292 -41.732260 -12.487457 -1.485040 -8.937214 -21.762844 2.602752 0.000000 0.000000 0.000000 21.741635 5.377769 0.880817 52.069714 3.237516 -4.202744 1.851521 25.887550 1.272376 0.000000 0.000000 0.000000 
-0.022371 0.915877 0.204815 -1.724077 5.324438 -0.261491 1.410036 0.981958 15.408685 2.949750 -0.497015 3.104738 -1.460991 -8.710503 -7.863061 0.000000 0.000000 0.000000 -0.730198 1.983604 -23.272985 0.266357 0.332420 12.710979 -1.492646 -4.505165 2.232666 0.000000 0.000000 0.000000 -0.726779 -0.391587 10.043527 2.426833 -0.822078 -5.166283 0.186901 -4.420548 10.676582 -1.252968 2.168119 -27.082169 0.000000 0.000000 0.000000 -23.861728 -1.583760 -0.680619 -41.747406 -12.122284 -1.650204 -8.662076 -23.126038 2.746436 0.000000 0.000000 0.000000 22.140466 4.762889 0.356353 51.682037 2.691010 -4.355746 1.823561 25.740212 1.235014 0.000000 0.000000 0.000000 
-0.033495 0.917546 0.243178 -2.244549 5.984818 0.027869 3.090949 0.679133 15.398818 3.261210 -0.770432 6.429912 -2.580417 -10.098151 -6.098442 0.000000 0.000000 0.000000 0.241520 2.098872 -22.721816 0.890304 0.202208 15.124251 -1.482766 -4.981965 4.004872 0.000000 0.000000 0.000000 -0.009066 -0.446182 9.662471 2.685752 -0.898323 -5.533679 0.121232 -4.679815 10.514689 -0.328014 1.717971 -26.999278 0.000000 0.000000 0.000000 -23.961034 -1.611454 -0.723726 -42.020536 -11.640687 -1.786821 -8.380762 -23.926613 2.785497 0.000000 0.000000 0.000000 22.694363 3.950060 -0.110345 51.597349 1.868763 -4.681012 0.947707 25.449346 1.048127 0.000000 0.000000 0.000000 
-0.045715 0.923480 0.284486 -2.636283 5.987152 0.377613 4.347752 0.413995 13.559971 3.610877 -1.268453 11.927249 -3.364376 -9.905230 -3.590866 0.000000 0.000000 0.000000 1.032710 2.091540 -20.939172 1.277164 0.105710 15.730066 -0.887236 -4.161723 5.745132 0.000000 0.000000 0.000000 0.204683 -0.424725 8.867542 3.397349 -1.215128 -5.340957 0.050964 -5.458117 10.092488 0.075486 1.319643 -25.302418 0.000000 0.000000 0.000000 -24.277497 -0.578661 -1.137294 -42.016186 -10.062565 -2.341775 -8.614507 -25.080469 3.019017 0.000000 0.000000 0.000000 22.529140 4.903469 0.191680 51.240434 1.989434 -4.487611 -0.262531 24.455061 0.721466 0.000000 0.000000 0.000000 
-0.057813 0.930911 0.326404 -3.157763 5.305085 1.024160 5.846765 0.110784 9.191285 3.095032 -1.976622 21.674612 -3.706512 -7.245648 0.977526 0.000000 0.000000 0.000000 2.524535 2.115312 -18.582744 1.303834 0.115529 15.060183 -0.609074 -3.520722 5.486212 0.000000 0.000000 0.000000 0.863611 -0.370082 6.915901 3.289696 -1.176988 -5.313671 0.186328 -4.282462 10.200860 -0.240795 1.538526 -24.320294 0.000000 0.000000 0.000000 -24.232385 -0.616419 -1.368900 -42.254373 -8.297578 -2.858296 -9.835061 -26.166898 3.408200 0.000000 0.000000 0.000000 21.211181 3.430942 -0.287364 51.758369 1.911569 -4.652863 0.934358 23.848905 0.971632 0.000000 0.000000 0.000000 
-0.067699 0.936831 0.365286 -3.559148 4.951108 0.396702 7.445757 -0.133454 3.266599 1.434006 -2.517609 34.277246 -3.399378 -3.438977 6.188008 0.000000 0.000000 0.000000 3.948778 1.761623 -13.895920 1.697615 0.000167 12.229681 -0.456471 -2.946007 4.720442 0.000000 0.000000 0.000000 1.311832 -0.403009 6.977411 2.961111 -1.053148 -5.169530 0.677069 -3.415145 10.107724 -0.484094 1.740969 -24.134609 0.000000 0.000000 0.000000 -25.171953 -0.526422 -1.714584 -42.093363 -7.041182 -3.195908 -10.735615 -27.197019 3.733561 0.000000 0.000000 0.000000 19.852201 3.996624 0.299872 51.716868 1.834049 -4.728908 2.690709 24.742969 1.385052 0.000000 0.000000 0.000000 
-0.074434 0.940239 0.400044 -3.553748 4.286194 -0.730722 7.828517 -0.251736 -3.894295 -0.595659 -2.377439 44.900924 -0.895578 0.559844 4.830090 0.000000 0.000000 0.000000 4.670266 1.215880 -9.151802 1.454216 0.034401 9.889112 -0.289933 -2.305604 3.883130 0.000000 0.000000 0.000000 1.334999 -0.461483 8.075108 2.370504 -0.767862 -5.900050 1.179985 -1.470953 11.017603 0.821973 1.263390 -24.397279 0.000000 0.000000 0.000000 -25.534424 -0.862542 -2.038363 -42.324851 -6.871637 -3.191090 -11.681064 -27.821854 3.978939 0.000000 0.000000 0.000000 19.568721 3.888852 0.709323 50.544960 2.700966 -4.466979 3.114618 25.340781 1.589799 0.000000 0.000000 0.000000 
-0.078210 0.943338 0.432366 -3.089701 2.839471 -1.384256 7.367778 -0.391262 -9.951114 -2.883997 -0.979422 48.353462 1.098779 2.589620 0.587133 0.000000 0.000000 0.000000 4.751677 0.681218 -5.279747 0.977362 0.113192 8.131527 0.319945 -0.682020 3.222148 0.000000 0.000000 0.000000 0.965749 -0.460687 8.789690 1.253265 -0.320179 -5.900389 1.882227 0.256262 11.262020 1.869189 0.770490 -23.822712 0.000000 0.000000 0.000000 -26.068858 -1.240156 -2.146377 -42.359520 -5.949643 -3.429158 -11.741578 -28.920811 4.110843 0.000000 0.000000 0.000000 19.454509 4.321919 1.181777 50.035292 4.153043 -3.935341 2.442219 25.317837 1.489575 0.000000 0.000000 0.000000 
-0.079781 0.945735 0.463281 -2.414805 1.650622 -1.860154 6.223862 -0.632030 -14.649423 -3.801108 -0.047064 43.855217 1.681396 2.927083 -1.515744 0.000000 0.000000 0.000000 4.695967 0.193840 -1.877114 0.148532 0.237854 6.936322 0.786604 1.022427 1.898750 0.000000 0.000000 0.000000 0.445974 -0.455091 9.745811 0.416158 0.008829 -5.808828 2.292548 2.255980 10.721021 2.226486 0.789625 -24.179898 0.000000 0.000000 0.000000 -25.467803 -1.665499 -2.278781 -43.585744 -5.130428 -3.628378 -12.619202 -28.347518 4.158052 0.000000 0.000000 0.000000 19.061128 4.374290 1.527240 49.158886 5.437578 -3.399224 2.395533 26.267810 1.598381 0.000000 0.000000 0.000000 
-0.079348 0.945479 0.493979 -2.229539 0.068413 -2.223106 5.878183 -0.741373 -17.433931 -3.516211 0.217568 33.717633 1.236466 2.370632 -0.598515 0.000000 0.000000 0.000000 4.419127 -0.227902 1.101739 0.082222 0.229590 6.117898 1.419419 3.251301 0.671725 0.000000 0.000000 0.000000 0.339565 -0.461332 10.408547 -0.229819 0.253898 -5.679838 2.484181 3.823201 10.689610 1.772752 1.168411 -24.662158 0.000000 0.000000 0.000000 -25.583412 -1.128968 -2.857616 -44.090347 -3.926918 -4.009936 -13.126076 -28.381081 4.245420 0.000000 0.000000 0.000000 18.244211 4.582713 1.802534 49.367631 7.102290 -2.762525 2.033326 27.588717 1.650498 0.000000 0.000000 0.000000 
-0.077155 0.943300 0.525567 -2.208717 -1.629770 -2.066930 6.114602 -0.683644 -18.412998 -2.458479 0.086493 19.871308 -0.147946 1.315319 3.762642 0.000000 0.000000 0.000000 4.324865 -0.564783 3.513266 0.082407 0.215911 5.550984 1.233764 3.689667 -0.806124 0.000000 0.000000 0.000000 0.032848 -0.423479 10.555280 -0.461092 0.327884 -5.881065 2.670427 4.868944 11.003859 1.353128 1.502565 -25.889671 0.000000 0.000000 0.000000 -25.134190 -0.147608 -3.408518 -44.898304 -2.948694 -4.449979 -13.374533 -26.951798 4.077877 0.000000 0.000000 0.000000 18.247879 4.936156 2.025888 48.533962 8.847590 -2.081206 1.801168 28.335711 1.656265 0.000000 0.000000 0.000000 
-0.073363 0.937801 0.558969 -2.498532 -2.319032 -2.473114 5.950649 -0.658473 -17.793803 -0.295485 -0.160886 6.565468 -2.109288 -1.029844 7.147330 0.000000 0.000000 0.000000 4.618776 -0.972483 6.400202 -0.362706 0.241884 4.578468 1.290244 5.011645 -2.484850 0.000000 0.000000 0.000000 0.118537 -0.436248 10.852357 -0.869367 0.486486 -5.616616 2.931377 5.136793 10.882094 1.373459 1.475284 -25.844902 0.000000 0.000000 0.000000 -24.870935 -0.310918 -3.233364 -45.451348 -2.426974 -4.703318 -12.526097 -25.819456 3.712285 0.000000 0.000000 0.000000 18.473224 4.454613 1.724131 48.953130 9.589400 -1.775362 1.319776 29.376372 1.614662 0.000000 0.000000 0.000000 
-0.067554 0.931678 0.594135 -2.710520 -3.459349 -3.033114 6.235651 -0.539584 -16.947251 0.186028 -0.026117 0.125710 -3.173543 -2.045721 9.449359 0.000000 0.000000 0.000000 4.445912 -1.252318 8.704159 -0.690466 0.346847 5.674892 1.121833 5.663620 -3.922603 0.000000 0.000000 0.000000 -0.728050 -0.352276 11.082762 -0.626542 0.367577 -5.786334 3.335829 5.723339 11.333304 1.881523 1.203399 -25.852078 0.000000 0.000000 0.000000 -25.435541 -0.525551 -3.143315 -45.156504 -1.843602 -4.919550 -11.783042 -24.484740 3.364397 0.000000 0.000000 0.000000 20.085618 4.181787 1.562239 47.448478 9.854940 -1.738930 1.070116 30.639560 1.628749 0.000000 0.000000 0.000000 
-0.059354 0.925499 0.630944 -3.115712 -3.972524 -3.058103 6.070752 -0.554783 -17.215052 0.303997 -0.089669 1.549213 -3.403994 -2.096084 10.376454 0.000000 0.000000 0.000000 4.213277 -1.376679 9.882594 -0.614109 0.452294 7.893487 0.640276 6.048973 -6.113789 0.000000 0.000000 0.000000 -0.885005 -0.319614 10.551811 -0.709477 0.385921 -5.020333 3.501956 5.402506 10.636956 2.308955 0.814652 -24.782148 0.000000 0.000000 0.000000 -25.118848 -0.543908 -2.904141 -45.420370 -1.692734 -5.010116 -11.627419 -22.590650 3.084590 0.000000 0.000000 0.000000 21.354025 3.953367 1.227503 47.536180 9.345032 -1.852960 -0.387840 30.201622 1.194807 0.000000 0.000000 0.000000 
-0.048813 0.922242 0.668805 -3.177972 -4.574538 -2.774050 5.673214 -0.601175 -17.252460 0.077686 -0.158259 4.782206 -3.064743 -0.704216 12.572240 0.000000 0.000000 0.000000 3.626875 -1.397717 10.619979 -1.383717 0.791838 11.150389 0.554155 6.633117 -7.041098 0.000000 0.000000 0.000000 -1.515688 -0.231301 9.353546 -0.671894 0.359394 -4.922141 4.015930 5.117466 11.132975 2.677854 0.482317 -24.336978 0.000000 0.000000 0.000000 -26.367230 -0.039194 -3.132518 -43.881497 -1.531122 -4.968740 -11.552389 -22.627228 3.108511 0.000000 0.000000 0.000000 22.264110 3.225563 0.595679 47.133179 7.889579 -2.391076 0.189707 30.738957 1.329745 0.000000 0.000000 0.000000 
-0.036026 0.924596 0.706130 -2.949588 -4.634290 -3.129076 5.276992 -0.634534 -16.535517 -0.811270 -0.061860 7.111170 -3.154387 -0.660316 13.068944 0.000000 0.000000 0.000000 2.657436 -1.285426 10.654845 -1.796304 1.219573 15.978013 1.119332 6.386524 -4.766411 0.000000 0.000000 0.000000 -2.589857 -0.138616 8.811594 -0.097610 0.119059 -5.527119 4.194926 4.272587 12.487152 2.889908 0.227724 -24.319798 0.000000 0.000000 0.000000 -27.364532 0.117825 -2.977993 -43.226565 -3.034546 -4.592733 -10.994380 -21.957274 2.955682 0.000000 0.000000 0.000000 22.525854 3.568066 0.557770 47.893280 6.520446 -2.996260 -0.268846 30.499452 1.166423 0.000000 0.000000 0.000000 
-0.022424 0.930869 0.740427 -2.474311 -4.012812 -3.362892 3.700398 -0.760208 -13.929735 -0.622314 -0.086604 6.438561 -3.355198 -0.954578 13.002127 0.000000 0.000000 0.000000 1.404541 -0.824513 7.482446 -1.641519 1.889893 25.491329 1.516397 5.023363 -1.622936 0.000000 0.000000 0.000000 -3.723453 -0.056668 8.475393 0.599092 -0.176092 -5.231949 3.772963 3.120126 12.373452 3.374112 -0.162390 -24.164336 0.000000 0.000000 0.000000 -27.076431 0.588366 -2.937906 -42.835799 -4.497789 -4.160181 -10.723412 -23.303495 3.129570 0.000000 0.000000 0.000000 22.358993 2.683989 -0.201799 48.237551 5.152936 -3.461836 1.751510 29.683321 1.569818 0.000000 0.000000 0.000000 
-0.010124 0.937677 0.770214 -2.524068 -4.364669 -3.442915 3.312883 -0.691060 -11.884959 -1.128989 0.019016 5.720297 -3.387404 -0.934790 13.310460 0.000000 0.000000 0.000000 0.214114 -0.179283 1.805251 -0.167249 2.251456 36.478437 1.550947 2.670343 1.988515 0.000000 0.000000 0.000000 -4.385411 -0.006281 8.433194 0.976711 -0.343205 -5.268716 3.917397 2.261340 13.060595 3.310530 -0.251411 -24.509240 0.000000 0.000000 0.000000 -27.129848 -0.741680 -1.676066 -42.016539 -5.662565 -3.891370 -11.141376 -25.434688 3.585329 0.000000 0.000000 0.000000 21.461682 3.444255 -0.014114 49.260763 4.396316 -3.789512 2.659408 28.632108 1.659285 0.000000 0.000000 0.000000 
-0.000530 0.942336 0.795643 -2.882593 -3.615075 -3.707589 2.727722 -0.620852 -9.595616 -0.935769 -0.002783 4.911297 -3.864355 -2.074104 12.214719 0.000000 0.000000 0.000000 -0.015478 0.269828 -2.717989 1.342776 1.842790 42.496965 -0.041092 -1.195036 2.030853 0.000000 0.000000 0.000000 -4.249492 -0.026450 9.099366 1.620154 -0.618963 -4.975578 3.297552 0.407275 12.357790 3.176379 -0.406011 -24.018928 0.000000 0.000000 0.000000 -26.464426 -1.128156 -0.911951 -41.234192 -6.978197 -3.512678 -11.565172 -28.215473 4.181345 0.000000 0.000000 0.000000 20.717496 3.967718 -0.093119 50.331451 3.842252 -3.933962 2.802695 29.313815 1.637037 0.000000 0.000000 0.000000 
0.006797 0.946149 0.818294 -3.307668 -3.019615 -3.964885 2.188560 -0.524994 -7.472181 -0.675263 -0.050000 4.956997 -3.736317 -2.470515 10.630157 0.000000 0.000000 0.000000 0.335917 0.624943 -6.098237 1.678030 1.570316 42.965106 -1.543039 -3.842693 -0.132908 0.000000 0.000000 0.000000 -4.118089 -0.048052 9.747941 1.878106 -0.729872 -4.809297 3.403670 -1.046741 12.171457 2.818499 -0.364380 -24.078485 0.000000 0.000000 0.000000 -26.341945 -1.517817 -0.252990 -40.483294 -8.568379 -3.098814 -11.021468 -31.351561 4.614735 0.000000 0.000000 0.000000 21.453959 4.570410 -0.159214 49.543517 3.341215 -3.964937 3.042966 29.254650 1.608475 0.000000 0.000000 0.000000 
0.012395 0.948775 0.838893 -3.932409 -1.968262 -4.174868 1.858658 -0.441662 -5.981354 0.165348 -0.209333 5.519900 -3.409996 -2.318099 9.430829 0.000000 0.000000 0.000000 0.783696 0.804573 -7.562488 1.847955 1.054481 38.461717 -2.131740 -5.121740 -0.634755 0.000000 0.000000 0.000000 -4.022178 -0.073673 10.200896 2.352929 -0.923560 -4.785336 3.367210 -1.899808 11.897130 2.418035 -0.142217 -24.551752 0.000000 0.000000 0.000000 -25.645426 -2.034135 0.176834 -40.655330 -10.204147 -2.597076 -9.854101 -33.662871 4.661908 0.000000 0.000000 0.000000 21.532744 4.846780 -0.098932 50.433867 3.213958 -4.050475 2.823849 29.127672 1.530605 0.000000 0.000000 0.000000 
0.016484 0.951186 0.856814 -4.312922 -1.063336 -4.154048 1.874287 -0.374108 -5.040124 0.052017 -0.208173 5.882282 -3.265882 -2.738505 7.792504 0.000000 0.000000 0.000000 1.180480 0.989067 -9.004262 1.514304 0.876884 33.740745 -1.788010 -4.089146 -1.030171 0.000000 0.000000 0.000000 -4.020837 -0.087284 10.670843 2.740235 -1.058136 -5.207853 3.533923 -2.790425 11.147032 2.479929 -0.287142 -23.757498 0.000000 0.000000 0.000000 -25.355479 -1.501556 -0.024790 -40.637927 -11.526428 -2.162743 -9.866586 -35.400241 4.976299 0.000000 0.000000 0.000000 21.549091 5.434504 0.070093 50.610973 2.611307 -4.207604 2.972892 29.281231 1.534610 0.000000 0.000000 0.000000 
0.019517 0.951757 0.872274 -4.631557 -0.377115 -3.746081 2.325797 -0.267396 -3.742306 -0.395310 -0.096718 4.545128 -3.350972 -3.114270 7.227246 0.000000 0.000000 0.000000 1.942574 1.171258 -10.117627 1.433104 0.659643 28.775767 -1.661918 -3.968532 -0.585618 0.000000 0.000000 0.000000 -3.349206 -0.149082 10.545264 3.068135 -1.196640 -5.053439 2.524413 -2.323079 10.626585 2.699740 -0.323333 -23.002287 0.000000 0.000000 0.000000 -24.091535 -2.147048 0.050131 -41.422657 -12.642029 -1.637001 -9.296299 -37.395118 5.010293 0.000000 0.000000 0.000000 22.861256 4.899013 -0.046754 50.508214 2.662550 -4.182413 2.688739 28.975946 1.514492 0.000000 0.000000 0.000000 
0.021599 0.951513 0.885403 -4.482407 0.175821 -3.677861 1.905380 -0.207524 -2.728286 -0.106860 -0.132311 4.244991 -3.393230 -3.558601 6.434794 0.000000 0.000000 0.000000 2.973680 1.275802 -10.327223 0.219138 0.905458 24.752856 -1.097360 -2.664385 -0.286321 0.000000 0.000000 0.000000 -3.219137 -0.161871 10.366763 2.966173 -1.140126 -5.131755 1.946907 -2.350323 9.581878 3.306852 -0.671659 -22.142464 0.000000 0.000000 0.000000 -24.701000 -2.915080 0.330141 -40.584961 -12.453140 -1.573297 -9.432693 -38.859685 5.207687 0.000000 0.000000 0.000000 23.135426 4.851038 -0.020487 50.954430 1.432267 -4.658532 2.618110 29.821453 1.555699 0.000000 0.000000 0.000000 
0.022708 0.952039 0.896071 -4.114548 0.918524 -3.160169 0.883033 -0.197758 -2.331724 0.727840 -0.214534 3.247422 -3.729593 -4.006554 6.689955 0.000000 0.000000 0.000000 3.702689 1.245255 -9.708267 -0.482130 0.924864 20.755683 -0.429958 -1.207174 0.227040 0.000000 0.000000 0.000000 -3.315615 -0.148972 10.041198 2.234968 -0.805288 -5.243193 2.144293 -3.055001 8.450224 3.892024 -1.059096 -21.756294 0.000000 0.000000 0.000000 -25.082015 -2.388766 0.065836 -41.252921 -12.319286 -1.559801 -9.164430 -39.457765 5.224538 0.000000 0.000000 0.000000 23.649174 4.685186 -0.328886 50.695093 1.345972 -4.515675 2.684899 29.294442 1.499546 0.000000 0.000000 0.000000 
0.022864 0.952345 0.905205 -4.012511 1.007178 -2.602445 0.633022 -0.131348 -1.495356 0.861213 -0.190030 2.263836 -3.684546 -4.209937 6.156166 0.000000 0.000000 0.000000 4.324100 1.051985 -8.024962 -1.266219 0.924022 15.953473 0.239711 0.038288 1.132884 0.000000 0.000000 0.000000 -3.119646 -0.139019 8.783586 1.851141 -0.685660 -4.231526 2.218345 -2.016495 7.596317 3.383933 -0.637688 -21.566756 0.000000 0.000000 0.000000 -25.525326 -2.211261 -0.465973 -41.303461 -11.611071 -1.601140 -10.323765 -38.354984 5.338855 0.000000 0.000000 0.000000 24.234564 4.207596 -0.333402 50.604901 1.357743 -4.502605 3.099384 29.360208 1.665127 0.000000 0.000000 0.000000 
0.021904 0.952890 0.913226 -3.759766 1.584213 -2.399643 0.261868 -0.056777 -0.617329 1.146601 -0.175173 1.150265 -3.583366 -3.935539 6.226377 0.000000 0.000000 0.000000 4.409072 0.698754 -5.445541 -1.826978 0.805811 11.244823 0.616575 0.166384 2.800403 0.000000 0.000000 0.000000 -3.034569 -0.137088 8.233135 1.863853 -0.691603 -4.076052 1.611149 -2.134036 6.899806 3.643522 -0.860038 -20.260819 0.000000 0.000000 0.000000 -25.673233 -2.178276 -0.626246 -41.116604 -10.761237 -1.777414 -11.688507 -35.442693 5.282895 0.000000 0.000000 0.000000 24.477347 4.177096 -0.300490 51.239900 1.418315 -4.492503 2.804940 29.489676 1.612548 0.000000 0.000000 0.000000 
0.020448 0.952402 0.919454 -3.630099 1.533227 -1.799413 0.739032 -0.021833 -0.163563 0.545380 -0.058573 0.003234 -3.473198 -3.863542 5.991835 0.000000 0.000000 0.000000 3.955980 0.448062 -3.753654 -1.605383 0.578811 7.685967 1.511273 1.596030 4.194105 0.000000 0.000000 0.000000 -3.104801 -0.104061 6.994108 1.747142 -0.682990 -3.187691 1.384747 -1.540862 6.052762 3.382790 -0.679265 -19.672098 0.000000 0.000000 0.000000 -25.795684 -1.824175 -1.094546 -41.311378 -9.890715 -1.922560 -12.459425 -32.292172 4.937625 0.000000 0.000000 0.000000 24.934050 4.418695 -0.014110 50.153638 1.031685 -4.507142 4.421055 30.670185 2.122376 0.000000 0.000000 0.000000 
0.018722 0.951857 0.923688 -3.554656 1.161843 -1.705986 0.718246 0.035163 0.513560 0.924029 -0.086450 -0.311733 -3.283252 -3.978744 5.166119 0.000000 0.000000 0.000000 4.057662 0.259789 -2.387895 -1.524180 0.446930 5.357574 1.376892 1.097430 4.518271 0.000000 0.000000 0.000000 -3.163021 -0.089992 6.526040 1.632456 -0.638171 -3.105398 1.596468 -0.891349 6.343833 3.367373 -0.653025 -19.408807 0.000000 0.000000 0.000000 -26.183370 -1.676558 -1.350259 -41.268958 -8.901848 -2.219872 -12.464595 -30.045166 4.543494 0.000000 0.000000 0.000000 25.143983 4.518083 0.191323 49.831390 1.326465 -4.425018 4.404397 30.970242 2.175411 0.000000 0.000000 0.000000 
0.017392 0.951590 0.926415 -3.433903 0.898360 -1.337313 0.702788 0.042511 0.600104 1.063201 -0.096390 -0.428061 -3.290680 -4.163969 4.893755 0.000000 0.000000 0.000000 3.873117 0.117856 -1.385291 -1.508749 0.334569 3.239916 1.877529 2.014220 4.947599 0.000000 0.000000 0.000000 -2.893474 -0.091303 5.989622 1.419814 -0.564735 -2.648811 1.532600 -0.839082 6.326476 2.572524 -0.194126 -19.508763 0.000000 0.000000 0.000000 -26.258082 -1.173048 -1.645142 -41.589367 -8.217413 -2.455096 -12.373815 -28.406466 4.260984 0.000000 0.000000 0.000000 24.690256 4.941451 0.451526 50.113244 1.874678 -4.216682 5.233782 31.678910 2.447648 0.000000 0.000000 0.000000 
0.016562 0.951145 0.928469 -3.238878 0.781164 -1.240305 0.606821 0.068705 0.890453 0.972171 -0.074688 -0.717130 -3.392539 -4.532134 4.608422 0.000000 0.000000 0.000000 3.973413 0.019028 -0.678985 -1.889045 0.332708 2.274408 1.866515 2.134096 4.651288 0.000000 0.000000 0.000000 -2.925210 -0.086686 5.921635 1.246552 -0.493936 -2.480383 1.683147 -0.421836 6.349623 2.499278 -0.123705 -19.411825 0.000000 0.000000 0.000000 -26.475093 -1.305912 -1.696076 -41.637111 -7.149528 -2.769146 -12.124953 -26.830706 3.930187 0.000000 0.000000 0.000000 24.807257 4.946020 0.561090 49.902532 2.043320 -4.161886 5.562885 32.278944 2.614268 0.000000 0.000000 0.000000 
0.016206 0.950722 0.930021 -3.048230 0.827162 -1.111178 0.607420 0.104882 1.321642 0.952588 -0.055584 -1.116248 -3.528403 -4.792040 4.620506 0.000000 0.000000 0.000000 3.736584 -0.100555 0.225137 -1.829981 0.263272 1.156907 2.055448 2.655240 4.500050 0.000000 0.000000 0.000000 -2.949238 -0.080295 5.707792 1.272675 -0.515396 -2.247987 1.629804 -0.423971 6.470425 1.772752 0.310527 -19.603978 0.000000 0.000000 0.000000 -26.943814 -0.992178 -1.943164 -41.564479 -6.710196 -2.911837 -11.833160 -25.665386 3.682148 0.000000 0.000000 0.000000 24.790407 5.312235 0.799356 49.943717 2.314188 -4.068896 5.670029 32.434276 2.661896 0.000000 0.000000 0.000000 
0.016183 0.950465 0.931030 -2.890169 0.743790 -1.092965 0.440474 0.123173 1.487766 0.997888 -0.061165 -1.094592 -3.428703 -4.865206 4.154701 0.000000 0.000000 0.000000 3.748255 -0.133259 0.461314 -1.920207 0.260788 0.928800 2.153725 3.122604 4.054708 0.000000 0.000000 0.000000 -2.917769 -0.079251 5.600706 1.277860 -0.525994 -2.065071 1.705262 -0.229741 6.416869 1.701665 0.369012 -19.635796 0.000000 0.000000 0.000000 -27.009755 -0.636824 -2.219278 -41.644552 -5.938879 -3.148877 -12.127196 -25.346121 3.694815 0.000000 0.000000 0.000000 24.914900 5.326283 0.843825 49.695698 2.612351 -3.937045 5.836564 32.214176 2.693354 0.000000 0.000000 0.000000 
0.016236 0.950257 0.931655 -2.731339 0.569221 -1.160086 0.202027 0.161645 1.853731 1.362887 -0.094577 -1.166311 -3.422838 -5.090328 3.760146 0.000000 0.000000 0.000000 3.576214 -0.185339 0.882577 -1.890763 0.243372 0.688371 2.262545 3.430427 3.941312 0.000000 0.000000 0.000000 -2.978957 -0.075665 5.587733 1.454701 -0.597848 -2.312129 1.750428 -0.150048 6.793127 1.312312 0.576414 -19.519746 0.000000 0.000000 0.000000 -27.581566 -0.121393 -2.584759 -41.495556 -5.729117 -3.237787 -12.759466 -25.219872 3.822383 0.000000 0.000000 0.000000 24.699862 5.520734 0.978915 49.799851 2.822431 -3.895140 5.747762 31.716161 2.626748 0.000000 0.000000 0.000000 
0.016354 0.950265 0.931890 -2.608208 0.634384 -1.218674 0.007557 0.175967 1.956261 1.520385 -0.111723 -1.130637 -3.473249 -5.161355 3.807028 0.000000 0.000000 0.000000 3.402859 -0.204071 1.067042 -1.786898 0.231070 0.676655 2.372945 3.750713 3.843869 0.000000 0.000000 0.000000 -2.982867 -0.077305 5.663141 1.514982 -0.630980 -2.184612 1.773289 -0.107206 6.639866 1.268592 0.605025 -19.446080 0.000000 0.000000 0.000000 -27.869584 -0.036968 -2.702092 -41.611701 -5.541039 -3.286797 -13.302693 -25.460472 3.980068 0.000000 0.000000 0.000000 24.768076 5.613104 1.048721 49.662518 3.083384 -3.773671 5.490075 31.170287 2.509558 0.000000 0.000000 0.000000 
0.016384 0.950329 0.931912 -2.486704 0.553138 -1.374413 -0.239241 0.204810 2.194736 1.811115 -0.145135 -1.047913 -3.528442 -5.401339 3.592746 0.000000 0.000000 0.000000 3.361003 -0.232815 1.304819 -1.927304 0.247980 0.693958 2.466451 3.958268 3.857884 0.000000 0.000000 0.000000 -2.922838 -0.082602 5.724800 1.408867 -0.592362 -1.974386 1.778968 -0.112042 6.483702 1.154867 0.676859 -19.597327 0.000000 0.000000 0.000000 -27.908391 0.139734 -2.805190 -41.750854 -5.413618 -3.332718 -14.051719 -26.122927 4.266937 0.000000 0.000000 0.000000 24.910251 5.682527 1.056817 49.485918 3.180127 -3.703033 5.721140 30.762892 2.523613 0.000000 0.000000 0.000000 
0.016393 0.950632 0.931827 -2.449496 0.262606 -1.314665 -0.339919 0.208490 2.196496 1.866666 -0.151500 -1.050110 -3.477926 -5.255021 3.696960 0.000000 0.000000 0.000000 3.288018 -0.234104 1.320345 -1.866666 0.230386 0.521075 2.473325 3.864799 4.012600 0.000000 0.000000 0.000000 -2.963184 -0.073921 5.420700 1.359549 -0.577027 -1.838614 1.889336 -0.128147 6.594596 1.030409 0.733684 -19.713886 0.000000 0.000000 0.000000 -27.977048 0.244829 -2.804936 -41.963697 -5.581639 -3.323067 -14.355156 -26.775370 4.467187 0.000000 0.000000 0.000000 24.811516 5.893812 1.125838 49.662556 3.163977 -3.711053 5.642528 30.333771 2.452445 0.000000 0.000000 0.000000 
0.016368 0.950809 0.931669 -2.339555 0.129487 -1.160522 -0.511848 0.214579 2.203767 1.854296 -0.138953 -1.281281 -3.399158 -4.999351 3.882789 0.000000 0.000000 0.000000 3.289404 -0.201564 1.055469 -1.987025 0.251612 0.665707 2.339914 3.486491 4.106602 0.000000 0.000000 0.000000 -3.056983 -0.062428 5.118683 1.261925 -0.529502 -1.905532 1.957875 -0.163876 6.734315 0.973243 0.786853 -20.221436 0.000000 0.000000 0.000000 -27.709834 0.277357 -2.743566 -42.237952 -5.814413 -3.290291 -14.669395 -27.216257 4.633770 0.000000 0.000000 0.000000 24.786333 5.759898 1.007807 49.538039 3.133718 -3.711479 6.133321 29.991742 2.537290 0.000000 0.000000 0.000000 
0.016333 0.950899 0.931420 -2.279273 -0.065287 -1.076871 -0.606130 0.212992 2.154067 1.914710 -0.137750 -1.433757 -3.253712 -4.718722 3.884325 0.000000 0.000000 0.000000 3.333835 -0.184331 0.901725 -2.091395 0.262835 0.668705 2.345252 3.430242 4.202179 0.000000 0.000000 0.000000 -3.063082 -0.058842 4.994521 1.215854 -0.509483 -1.903859 1.921013 -0.223351 6.694772 0.962664 0.786943 -20.384207 0.000000 0.000000 0.000000 -27.663066 0.249791 -2.666571 -42.330892 -6.016644 -3.241173 -14.675120 -27.546027 4.704032 0.000000 0.000000 0.000000 24.867038 5.737828 0.932906 49.480349 2.803867 -3.814033 6.310362 30.053816 2.576519 0.000000 0.000000 0.000000 
0.016313 0.950971 0.931093 -2.258353 -0.378494 -0.870841 -0.618042 0.192038 1.926146 1.985447 -0.137753 -1.586357 -3.218713 -4.532147 4.130150 0.000000 0.000000 0.000000 3.402824 -0.161567 0.687293 -2.126767 0.264127 0.646653 2.301585 3.277545 4.250740 0.000000 0.000000 0.000000 -3.075533 -0.050038 4.653874 1.161067 -0.482949 -1.969093 2.060058 -0.332552 6.894365 0.852149 0.837309 -20.760123 0.000000 0.000000 0.000000 -27.493760 0.227877 -2.513471 -42.780285 -6.223416 -3.253445 -14.693646 -27.579350 4.740218 0.000000 0.000000 0.000000 24.601305 5.825538 0.901727 49.681685 2.749072 -3.839291 6.543680 30.013725 2.614359 0.000000 0.000000 0.000000 
0.016366 0.950979 0.930771 -2.296612 -0.548843 -0.779621 -0.565948 0.182405 1.837546 2.001358 -0.135305 -1.674606 -3.270019 -4.567662 4.271288 0.000000 0.000000 0.000000 3.452243 -0.147641 0.558284 -2.097234 0.264978 0.730212 2.315312 3.222890 4.381193 0.000000 0.000000 0.000000 -2.886022 -0.053238 4.384734 0.966435 -0.397616 -1.875192 1.979860 -0.316179 6.924782 0.943150 0.775044 -20.684824 0.000000 0.000000 0.000000 -27.333154 -0.156216 -2.233584 -42.832009 -6.307211 -3.234687 -14.295719 -27.312021 4.594424 0.000000 0.000000 0.000000 24.935313 5.740738 0.815155 49.468448 2.690191 -3.839200 6.522522 29.901880 2.595224 0.000000 0.000000 0.000000 
0.016447 0.950872 0.930518 -2.331129 -0.708533 -0.620596 -0.582562 0.168348 1.683916 2.058224 -0.136938 -1.757342 -3.347925 -4.639316 4.442941 0.000000 0.000000 0.000000 3.498612 -0.123904 0.350674 -2.046963 0.262766 0.800301 2.402770 3.374856 4.451681 0.000000 0.000000 0.000000 -2.725137 -0.055620 4.220265 0.760586 -0.304126 -1.850306 1.960900 -0.366851 6.872665 0.942207 0.753868 -20.584857 0.000000 0.000000 0.000000 -27.168316 -0.359176 -2.042441 -43.004717 -6.368545 -3.233928 -13.939214 -27.143334 4.485090 0.000000 0.000000 0.000000 25.104846 5.695383 0.728910 49.260573 2.574217 -3.845294 6.719080 29.872149 2.631269 0.000000 0.000000 0.000000 
0.016594 0.950691 0.930413 -2.397900 -0.828498 -0.589110 -0.556424 0.162153 1.625211 2.093663 -0.140621 -1.759600 -3.342188 -4.567850 4.567587 0.000000 0.000000 0.000000 3.518755 -0.121555 0.321995 -2.100936 0.270396 0.835397 2.411223 3.412011 4.407015 0.000000 0.000000 0.000000 -2.509896 -0.064467 4.221367 0.591364 -0.226038 -1.870169 1.945720 -0.457928 6.899583 0.933228 0.759923 -20.860748 0.000000 0.000000 0.000000 -27.215685 -0.396457 -1.968469 -43.127712 -6.322695 -3.275455 -13.709548 -26.886314 4.392979 0.000000 0.000000 0.000000 25.185882 5.763578 0.712764 49.187160 2.674314 -3.785689 6.795291 29.807503 2.633938 0.000000 0.000000 0.000000 
0.016770 0.950587 0.930379 -2.344157 -0.863685 -0.614538 -0.619068 0.164931 1.638580 2.185731 -0.150828 -1.735940 -3.375632 -4.618430 4.600330 0.000000 0.000000 0.000000 3.454609 -0.119895 0.322440 -2.194359 0.297583 1.116378 2.355277 3.402700 4.194429 0.000000 0.000000 0.000000 -2.389539 -0.070916 4.278575 0.428457 -0.154466 -1.757138 1.854540 -0.487455 6.657826 1.116379 0.653324 -20.813676 0.000000 0.000000 0.000000 -27.177305 -0.519989 -1.883345 -43.155984 -6.114125 -3.332289 -13.531608 -26.724142 4.320801 0.000000 0.000000 0.000000 25.307965 5.487630 0.513564 48.952563 2.458602 -3.824301 7.378611 30.117326 2.803945 0.000000 0.000000 0.000000 
0.016952 0.950350 0.930321 -2.348911 -0.711712 -0.594356 -0.706321 0.161881 1.586569 2.287341 -0.166706 -1.611501 -3.458864 -4.772590 4.601352 0.000000 0.000000 0.000000 3.439008 -0.121201 0.339073 -2.189962 0.308593 1.301692 2.240783 3.374218 3.800743 0.000000 0.000000 0.000000 -2.325757 -0.076905 4.427398 0.437602 -0.152369 -1.939002 1.745849 -0.562036 6.627546 1.218790 0.614516 -21.018011 0.000000 0.000000 0.000000 -27.198729 -0.427610 -1.954391 -43.179713 -6.096176 -3.334853 -13.546910 -26.647559 4.310056 0.000000 0.000000 0.000000 25.418030 5.425762 0.477056 48.767516 2.399516 -3.830900 7.601938 30.264248 2.876518 0.000000 0.000000 0.000000 
0.017144 0.950293 0.930159 -2.312392 -0.621045 -0.491954 -0.710313 0.150396 1.466601 2.438795 -0.192082 -1.408684 -3.454017 -4.879136 4.379652 0.000000 0.000000 0.000000 3.412705 -0.133380 0.433313 -2.167195 0.310607 1.376213 2.180484 3.382238 3.553253 0.000000 0.000000 0.000000 -2.330450 -0.075920 4.424038 0.463198 -0.161170 -2.015588 1.688612 -0.501463 6.661789 1.557497 0.446680 -21.098247 0.000000 0.000000 0.000000 -27.270484 -0.525914 -1.940752 -43.180482 -5.960175 -3.369401 -13.442776 -26.493471 4.251934 0.000000 0.000000 0.000000 25.399932 5.487703 0.562168 48.788252 2.321132 -3.877746 7.450256 30.511749 2.873836 0.000000 0.000000 0.000000 
0.017306 0.950275 0.929927 -2.253030 -0.401421 -0.451200 -0.663747 0.144884 1.420839 2.425730 -0.203660 -1.159030 -3.520051 -5.089794 4.212874 0.000000 0.000000 0.000000 3.381212 -0.132601 0.437857 -2.143467 0.321210 1.592930 2.084127 3.360246 3.220593 0.000000 0.000000 0.000000 -2.351937 -0.079156 4.625671 0.488526 -0.165781 -2.195419 1.592412 -0.525563 6.636365 1.772796 0.336375 -21.046287 0.000000 0.000000 0.000000 -27.340929 -0.781912 -1.824061 -43.018906 -5.908909 -3.363518 -13.266045 -26.501915 4.204382 0.000000 0.000000 0.000000 25.431451 5.302528 0.486144 48.700515 2.198118 -3.927540 7.554028 30.413020 2.897236 0.000000 0.000000 0.000000 
0.017435 0.950235 0.929685 -2.251097 -0.125216 -0.438200 -0.566545 0.140366 1.398023 2.342950 -0.202910 -0.999763 -3.570497 -5.214443 4.140133 0.000000 0.000000 0.000000 3.431317 -0.150060 0.569367 -2.153337 0.317762 1.500165 2.222788 3.812051 3.046560 0.000000 0.000000 0.000000 -2.311244 -0.087388 4.906506 0.465798 -0.155024 -2.142636 1.636888 -0.558966 6.350136 1.849555 0.323657 -21.231263 0.000000 0.000000 0.000000 -27.711423 -0.769783 -1.914131 -42.758354 -6.094927 -3.251897 -12.932742 -26.263948 4.076647 0.000000 0.000000 0.000000 25.541634 5.331669 0.522423 48.603640 2.209568 -3.899889 6.995818 29.957828 2.711546 0.000000 0.000000 0.000000 
0.017461 0.949971 0.929404 -2.173540 0.013676 -0.491986 -0.508319 0.142990 1.441447 2.252009 -0.207374 -0.739171 -3.414810 -5.068424 3.834764 0.000000 0.000000 0.000000 3.454987 -0.179059 0.794006 -2.232935 0.327535 1.495601 2.206574 3.904628 2.837801 0.000000 0.000000 0.000000 -2.352785 -0.092144 5.194882 0.519880 -0.178999 -2.145315 1.649463 -0.611144 6.187153 1.713197 0.393491 -21.109811 0.000000 0.000000 0.000000 -27.937938 -0.641052 -2.032068 -42.708495 -6.268450 -3.174930 -12.482647 -26.098820 3.940763 0.000000 0.000000 0.000000 25.261084 5.252046 0.489479 48.860059 2.313076 -3.869611 6.569964 29.609131 2.570908 0.000000 0.000000 0.000000 
0.017376 0.949818 0.929122 -2.148219 0.226158 -0.568097 -0.337158 0.144141 1.499592 1.921576 -0.186948 -0.457344 -3.280404 -4.855596 3.712167 0.000000 0.000000 0.000000 3.490921 -0.218819 1.099942 -2.191427 0.307857 1.235497 2.225819 4.042314 2.703593 0.000000 0.000000 0.000000 -2.374850 -0.096648 5.416569 0.539376 -0.190405 -2.025709 1.692881 -0.681186 5.927443 1.534362 0.500789 -21.154992 0.000000 0.000000 0.000000 -28.241792 -0.666645 -2.063190 -42.534678 -6.428766 -3.091380 -12.037376 -25.860872 3.795739 0.000000 0.000000 0.000000 25.117716 5.259002 0.500047 49.099305 2.536324 -3.783642 5.778945 29.027343 2.321389 0.000000 0.000000 0.000000 
0.017068 0.949707 0.928785 -2.161288 0.289817 -0.501740 -0.248341 0.134011 1.413973 1.879924 -0.188934 -0.326422 -3.140434 -4.654583 3.563230 0.000000 0.000000 0.000000 3.459733 -0.246126 1.311691 -2.035976 0.270897 0.910453 2.213308 3.987930 2.749044 0.000000 0.000000 0.000000 -2.382484 -0.095884 5.416493 0.640241 -0.237435 -1.993970 1.580573 -0.706750 5.895013 1.501854 0.513364 -21.030034 0.000000 0.000000 0.000000 -28.282503 -0.648396 -2.092130 -42.603340 -6.557433 -3.046181 -11.516385 -25.439377 3.610135 0.000000 0.000000 0.000000 25.118399 5.349706 0.565842 49.314000 2.716958 -3.729170 5.054532 28.653953 2.119103 0.000000 0.000000 0.000000 
0.016630 0.949670 0.928457 -2.267190 0.313194 -0.274873 -0.066587 0.108916 1.186550 1.734862 -0.177482 -0.238783 -3.089302 -4.580436 3.509730 0.000000 0.000000 0.000000 3.532744 -0.256489 1.354907 -1.893852 0.226170 0.409674 2.182570 3.711388 3.093258 0.000000 0.000000 0.000000 -2.331543 -0.091909 5.179315 0.741125 -0.282793 -2.011399 1.529408 -0.741262 6.010323 1.430215 0.535494 -20.826449 0.000000 0.000000 0.000000 -28.173809 -0.661444 -2.065526 -42.799777 -6.767164 -2.995952 -11.205915 -25.042245 3.483680 0.000000 0.000000 0.000000 24.916481 5.329494 0.569221 49.710785 3.066176 -3.629444 4.320879 28.164645 1.911725 0.000000 0.000000 0.000000 
0.016077 0.949700 0.928134 -2.326423 0.339491 -0.169553 0.027486 0.095081 1.057400 1.657587 -0.166350 -0.293671 -3.094080 -4.603570 3.483613 0.000000 0.000000 0.000000 3.597665 -0.289833 1.581742 -1.807440 0.184657 -0.166514 2.165563 3.497933 3.392921 0.000000 0.000000 0.000000 -2.388292 -0.084364 4.993936 0.803163 -0.307243 -2.113052 1.576571 -0.722960 6.226017 1.573096 0.461531 -20.889495 0.000000 0.000000 0.000000 -28.337098 -0.942951 -1.900052 -42.659552 -6.784764 -2.997033 -10.875542 -24.910928 3.391275 0.000000 0.000000 0.000000 24.949501 5.463572 0.668552 49.721275 2.964774 -3.692202 4.024237 28.141347 1.846346 0.000000 0.000000 0.000000 
0.015536 0.949827 0.927802 -2.498844 0.404075 -0.033696 0.301494 0.078236 0.936500 1.561954 -0.150559 -0.403858 -3.162371 -4.554982 3.808578 0.000000 0.000000 0.000000 3.716612 -0.276214 1.438660 -1.798396 0.176484 -0.298744 2.078908 3.124784 3.692795 0.000000 0.000000 0.000000 -2.308177 -0.086348 4.931452 0.922534 -0.354501 -2.290084 1.473383 -0.703949 6.435720 1.606212 0.450271 -20.888486 0.000000 0.000000 0.000000 -28.359636 -1.162741 -1.782784 -42.794462 -6.821476 -2.999517 -10.518713 -25.156842 3.345914 0.000000 0.000000 0.000000 25.235273 5.418142 0.664389 49.676008 2.914660 -3.733835 3.839153 28.160320 1.813650 0.000000 0.000000 0.000000 
0.015111 0.949875 0.927385 -2.617953 0.327611 0.093920 0.404287 0.053651 0.679351 1.577645 -0.157077 -0.304952 -3.180705 -4.667481 3.681290 0.000000 0.000000 0.000000 3.868429 -0.259438 1.261807 -1.837851 0.174024 -0.409326 1.986898 2.732657 3.997138 0.000000 0.000000 0.000000 -2.323833 -0.080736 4.752880 0.947308 -0.360464 -2.441702 1.528391 -0.775115 6.728956 1.541533 0.494236 -21.211835 0.000000 0.000000 0.000000 -28.248889 -1.265510 -1.650360 -42.882172 -7.037112 -2.968599 -10.349813 -25.382405 3.348355 0.000000 0.000000 0.000000 25.168587 5.670251 0.795287 49.915424 2.843518 -3.795507 3.495546 28.326791 1.744493 0.000000 0.000000 0.000000 
0.014870 0.950141 0.926892 -2.620507 0.244170 0.265552 0.406782 0.042252 0.549536 1.570031 -0.148780 -0.464437 -3.159005 -4.479543 3.950213 0.000000 0.000000 0.000000 4.024224 -0.243052 1.085862 -1.819347 0.184651 -0.175615 1.634909 1.915483 3.968240 0.000000 0.000000 0.000000 -2.521224 -0.065443 4.561158 1.044763 -0.399989 -2.573676 1.457722 -0.756468 6.946716 1.624750 0.404790 -20.694620 0.000000 0.000000 0.000000 -28.277423 -1.695238 -1.360807 -42.962272 -7.083688 -2.976437 -9.985792 -25.634719 3.304195 0.000000 0.000000 0.000000 25.283369 5.791106 0.870351 50.004012 2.851863 -3.815313 3.352331 28.374113 1.717842 0.000000 0.000000 0.000000 
0.014864 0.950585 0.926315 -2.607898 0.174830 0.277630 0.427891 0.031472 0.429032 1.515533 -0.143551 -0.457969 -3.271158 -4.627672 4.093965 0.000000 0.000000 0.000000 4.043845 -0.212353 0.853770 -1.715529 0.197645 0.264541 1.491606 1.623175 3.876396 0.000000 0.000000 0.000000 -2.653287 -0.057331 4.486360 1.054760 -0.408375 -2.487844 1.421817 -0.986874 6.949530 1.448559 0.460546 -20.545054 0.000000 0.000000 0.000000 -28.132068 -1.764917 -1.201755 -43.022561 -7.373648 -2.913861 -9.785072 -25.961976 3.317166 0.000000 0.000000 0.000000 25.277596 6.007821 0.906783 50.140437 2.676989 -3.867471 3.210525 28.614408 1.684124 0.000000 0.000000 0.000000 
0.015011 0.951298 0.925608 -2.598028 0.223054 0.257867 0.443218 0.024448 0.351348 1.460856 -0.140060 -0.407578 -3.224433 -4.455129 4.232172 0.000000 0.000000 0.000000 4.143331 -0.153827 0.409018 -1.763687 0.239938 0.934142 1.141180 0.827804 3.828904 0.000000 0.000000 0.000000 -2.685072 -0.053838 4.358886 1.148577 -0.441128 -2.725772 1.258791 -1.280844 7.459644 1.650964 0.261767 -19.901295 0.000000 0.000000 0.000000 -28.214727 -2.126448 -0.857992 -43.002930 -7.526895 -2.935738 -9.508219 -26.419143 3.332913 0.000000 0.000000 0.000000 25.394847 6.422305 1.089211 50.082022 2.586967 -3.920334 3.360157 29.358181 1.760877 0.000000 0.000000 0.000000 
0.015324 0.951841 0.924771 -2.574306 0.040267 0.172077 0.493677 0.016930 0.270141 1.316799 -0.130594 -0.293109 -3.270691 -4.385605 4.545500 0.000000 0.000000 0.000000 3.979848 -0.105069 0.083862 -1.529813 0.245218 1.546223 1.167721 0.858762 3.868063 0.000000 0.000000 0.000000 -2.601220 -0.059112 4.413300 1.052997 -0.411437 -2.416729 1.092669 -1.418784 7.221322 1.457814 0.332082 -19.653978 0.000000 0.000000 0.000000 -28.180163 -2.408766 -0.600635 -42.965268 -7.826071 -2.840242 -9.396393 -26.751416 3.359373 0.000000 0.000000 0.000000 25.234987 6.601975 1.119657 50.341075 2.624634 -3.882945 3.833408 29.920979 1.897371 0.000000 0.000000 0.000000 
0.015693 0.952296 0.923866 -2.501128 -0.225689 0.066325 0.500420 0.002931 0.104341 1.072866 -0.116084 -0.040746 -3.199059 -4.174733 4.704703 0.000000 0.000000 0.000000 3.837355 -0.069370 -0.156849 -1.422492 0.273048 2.328724 1.091499 0.833216 3.538567 0.000000 0.000000 0.000000 -2.618949 -0.059215 4.451186 0.921114 -0.357047 -2.320134 1.192192 -1.550208 7.220389 1.545427 0.211952 -19.188733 0.000000 0.000000 0.000000 -28.116908 -2.672672 -0.307857 -42.813666 -7.877112 -2.853908 -9.306891 -27.326271 3.431498 0.000000 0.000000 0.000000 25.146685 6.897353 1.193412 50.296403 2.891175 -3.740863 4.190430 30.678655 2.018954 0.000000 0.000000 0.000000 
0.016040 0.952321 0.922881 -2.411702 -0.308501 0.002050 0.405707 0.001807 0.075553 0.925270 -0.109296 0.176972 -3.139224 -4.159563 4.523857 0.000000 0.000000 0.000000 3.513669 -0.016305 -0.504072 -1.182939 0.278329 3.035228 1.021106 0.812795 3.247791 0.000000 0.000000 0.000000 -2.616895 -0.058938 4.414938 0.854804 -0.331061 -2.219432 1.061101 -1.629442 7.306542 1.463421 0.232770 -19.007814 0.000000 0.000000 0.000000 -27.869590 -3.102535 0.028905 -43.022945 -8.082491 -2.815310 -9.262420 -27.727917 3.482203 0.000000 0.000000 0.000000 24.669320 6.962319 1.223991 51.017884 3.249978 -3.654438 4.469061 31.523285 2.147295 0.000000 0.000000 0.000000 
0.016334 0.952350 0.921698 -2.267499 -0.471674 -0.208792 0.256667 -0.030207 -0.308369 0.936005 -0.146697 1.024286 -2.964578 -3.979709 4.232858 0.000000 0.000000 0.000000 3.374512 0.023153 -0.778902 -0.984367 0.290845 3.828632 0.785702 0.410680 2.925002 0.000000 0.000000 0.000000 -2.530759 -0.066704 4.537552 0.704019 -0.272377 -1.959118 1.043321 -1.665529 7.352120 1.529206 0.130772 -18.359024 0.000000 0.000000 0.000000 -27.727038 -3.562560 0.385960 -43.200271 -8.251986 -2.790071 -8.583481 -27.938944 3.350251 0.000000 0.000000 0.000000 24.531457 6.946590 1.177318 51.026075 3.505365 -3.545131 4.925247 32.335851 2.321860 0.000000 0.000000 0.000000 
0.016375 0.952103 0.920162 -2.177906 -0.397836 -0.266976 0.274365 -0.072850 -0.787668 0.924494 -0.183358 1.927425 -2.871564 -4.134813 3.590224 0.000000 0.000000 0.000000 3.088902 0.071862 -1.117256 -0.466798 0.263620 4.842462 0.641397 0.343647 2.389242 0.000000 0.000000 0.000000 -2.315789 -0.078648 4.593804 0.723843 -0.280698 -1.974126 0.943138 -1.587834 7.662691 1.753044 -0.027849 -17.871980 0.000000 0.000000 0.000000 -27.525238 -3.813209 0.517141 -43.206179 -8.104986 -2.848663 -8.703127 -28.423581 3.439308 0.000000 0.000000 0.000000 24.285760 6.679520 1.091823 50.870925 3.782163 -3.467970 5.521173 33.319283 2.583852 0.000000 0.000000 0.000000 
0.016345 0.951769 0.918371 -2.324842 -0.297822 -0.108852 0.392364 -0.192711 -2.149636 0.810496 -0.260065 4.135044 -2.852351 -4.531219 2.788580 0.000000 0.000000 0.000000 3.123764 0.129058 -1.573894 -0.155895 0.239833 5.390174 0.406515 -0.206026 2.361059 0.000000 0.000000 0.000000 -1.760290 -0.111941 4.888428 0.543671 -0.182905 -2.408764 0.878897 -1.728548 7.928708 1.455282 0.122225 -17.662819 0.000000 0.000000 0.000000 -27.278095 -3.983801 0.677974 -43.419216 -7.901972 -2.957119 -8.350789 -28.985543 3.432127 0.000000 0.000000 0.000000 23.725456 6.556679 1.036943 51.404707 4.198156 -3.358060 5.534456 33.618718 2.613584 0.000000 0.000000 0.000000 
0.016319 0.951025 0.916958 -2.327555 -0.420358 -0.110739 0.346016 -0.329591 -3.701941 0.579505 -0.335499 6.922663 -2.465158 -4.615400 1.212904 0.000000 0.000000 0.000000 3.391613 0.130472 -1.608802 -0.337897 0.298551 6.083497 0.317745 -0.140029 1.796803 0.000000 0.000000 0.000000 -1.325026 -0.149964 5.436038 0.554934 -0.180620 -2.675048 0.860780 -1.561329 8.088458 1.566472 0.054850 -17.508647 0.000000 0.000000 0.000000 -27.415000 -4.352577 0.874286 -43.271115 -7.636217 -3.041304 -7.966428 -29.140689 3.343908 0.000000 0.000000 0.000000 23.501638 6.708335 1.185986 51.119983 4.717156 -3.155105 5.660404 33.589220 2.660350 0.000000 0.000000 0.000000 
0.016655 0.950590 0.916690 -2.425351 -0.916229 -0.337658 0.294660 -0.494155 -5.553787 0.376401 -0.435473 10.696339 -2.013694 -4.308097 0.055028 0.000000 0.000000 0.000000 3.662533 0.139030 -1.696900 -0.131840 0.290809 6.612509 0.425715 0.292993 1.451679 0.000000 0.000000 0.000000 -0.833589 -0.194682 5.975388 0.205430 -0.023335 -2.796999 1.170302 -1.295205 7.979720 1.534241 0.068110 -17.485627 0.000000 0.000000 0.000000 -27.103038 -3.930457 0.627515 -43.595244 -7.373239 -3.141826 -8.035073 -28.924549 3.339110 0.000000 0.000000 0.000000 22.997654 6.674042 1.168862 51.568942 5.383349 -2.896734 4.784520 32.414522 2.311591 0.000000 0.000000 0.000000 
0.017694 0.949688 0.917508 -2.417012 -0.904988 -0.540726 0.088048 -0.711648 -7.883920 0.261723 -0.580940 15.433307 -1.777428 -4.563199 -1.302203 0.000000 0.000000 0.000000 3.996012 0.084728 -1.298735 0.002779 0.271468 6.680243 0.010288 -0.411790 0.827473 0.000000 0.000000 0.000000 -0.528701 -0.222541 6.234884 0.200649 -0.020449 -2.829954 0.923679 -0.898005 8.348686 1.600488 0.047529 -17.111323 0.000000 0.000000 0.000000 -26.752425 -4.009032 0.534236 -43.915420 -7.107965 -3.229274 -7.943193 -28.560082 3.246997 0.000000 0.000000 0.000000 22.752288 6.677888 1.351879 51.634797 6.538529 -2.501487 4.335450 31.440741 2.160773 0.000000 0.000000 0.000000 
0.019791 0.948925 0.918877 -2.440588 -0.579290 -0.738675 0.720996 -0.910875 -10.683148 -0.771810 -0.478666 20.717577 -2.193054 -5.337838 -1.038906 0.000000 0.000000 0.000000 3.691907 0.044776 -0.943458 0.628222 0.182827 7.157329 -0.803315 -2.088948 0.083748 0.000000 0.000000 0.000000 -0.297489 -0.262371 6.877646 0.239996 -0.033674 -2.891448 0.773421 -0.756224 8.562092 1.684526 0.050044 -17.332782 0.000000 0.000000 0.000000 -26.507102 -3.316049 -0.009340 -44.230017 -7.007433 -3.264294 -8.140953 -28.062243 3.222367 0.000000 0.000000 0.000000 22.209876 6.662318 1.489775 51.953743 7.337245 -2.236826 3.307334 30.245731 1.840625 0.000000 0.000000 0.000000 
0.022895 0.947680 0.921577 -2.637068 -1.393038 -0.089270 1.814144 -1.166107 -15.494667 -2.314987 -0.021827 26.996780 -1.909815 -4.890523 -1.374731 0.000000 0.000000 0.000000 3.197679 0.194506 -2.136680 1.592183 0.072230 8.667238 -1.016749 -2.347197 -0.496619 0.000000 0.000000 0.000000 0.210833 -0.291377 6.812975 -0.176442 0.160269 -3.521422 1.075245 0.119103 8.802660 1.492016 0.214966 -17.344652 0.000000 0.000000 0.000000 -27.442977 -2.774378 -0.547103 -43.677384 -5.519910 -3.708172 -9.321134 -28.091400 3.501117 0.000000 0.000000 0.000000 21.179839 6.868150 1.783700 52.063243 7.343472 -2.289500 4.163596 30.220753 2.086241 0.000000 0.000000 0.000000 
0.027199 0.948350 0.927575 -2.798750 -1.935987 -0.417670 3.040488 -1.122911 -17.595085 -3.164607 0.342882 29.704524 -1.742688 -4.514467 -1.395853 0.000000 0.000000 0.000000 3.017182 0.261066 -2.654226 2.109454 0.053447 11.250359 -1.252061 -2.928105 -0.526032 0.000000 0.000000 0.000000 -0.006701 -0.272290 6.745980 0.220932 -0.027467 -3.282074 0.911424 1.237217 8.710209 1.709275 0.251871 -18.133131 0.000000 0.000000 0.000000 -27.334981 -1.634801 -1.604581 -43.794193 -4.466558 -3.961697 -10.234088 -27.388445 3.577202 0.000000 0.000000 0.000000 21.698265 6.770899 1.975669 51.032165 7.532008 -2.233863 4.967076 29.252127 2.254275 0.000000 0.000000 0.000000 
0.033298 0.949305 0.938796 -2.170999 -2.525176 -1.458487 3.147619 -1.034358 -16.702817 -2.627978 0.194077 29.380546 -1.288201 -3.979470 -2.300854 0.000000 0.000000 0.000000 2.187426 0.031328 -0.684695 1.773168 0.146262 11.675429 -0.932760 -2.400045 0.069532 0.000000 0.000000 0.000000 -1.362452 -0.184176 6.771770 -0.030231 0.087660 -3.759420 1.928756 1.729228 9.477711 1.307364 0.489354 -18.213468 0.000000 0.000000 0.000000 -27.166763 -1.310728 -1.747563 -43.887892 -3.530244 -4.369142 -11.060532 -25.976739 3.580512 0.000000 0.000000 0.000000 21.323414 7.098613 2.178297 50.650305 6.633250 -2.668798 6.609850 29.842626 2.714503 0.000000 0.000000 0.000000 
0.041840 0.948373 0.955574 -2.122592 -2.679549 -2.560022 2.923987 -0.911533 -14.291748 -1.469627 -0.244674 29.336616 -2.256990 -4.921163 -0.143122 0.000000 0.000000 0.000000 1.943242 -0.157412 1.035089 1.572929 0.207996 12.204128 -0.904447 -2.594277 0.608882 0.000000 0.000000 0.000000 -2.137559 -0.108483 5.040980 0.526314 -0.204511 -2.110082 1.773526 1.991335 9.192273 1.420125 0.261247 -15.864634 0.000000 0.000000 0.000000 -27.142910 -0.879329 -2.105014 -44.569975 -2.816799 -4.649622 -9.862435 -24.075864 3.036429 0.000000 0.000000 0.000000 21.947959 8.139174 2.817693 50.548779 5.985516 -2.931306 5.540961 29.170106 2.387869 0.000000 0.000000 0.000000 
0.053302 0.944295 0.974372 -2.690506 -1.591703 -3.477754 2.726998 -0.647446 -9.674258 -0.153140 -0.794108 26.427755 -3.730329 -8.075178 -0.028870 0.000000 0.000000 0.000000 0.949379 -0.139152 1.159027 2.294552 0.113535 15.636872 -0.914602 -2.418690 0.193431 0.000000 0.000000 0.000000 -1.926958 -0.071449 2.658031 0.539912 -0.200396 -2.216127 1.698900 1.318884 10.308077 1.644342 -0.029382 -14.352524 0.000000 0.000000 0.000000 -26.017719 -1.925269 -1.272017 -45.242817 -2.169669 -5.069291 -9.283487 -22.762834 2.757493 0.000000 0.000000 0.000000 22.995751 6.954749 2.144792 49.928544 4.634761 -3.565432 6.202499 28.217950 2.465694 0.000000 0.000000 0.000000 
0.066967 0.937980 0.988037 -3.146000 -1.103476 -4.051491 1.220336 -0.401169 -4.993054 1.123296 -1.166974 23.565641 -3.202102 -10.212028 -4.793172 0.000000 0.000000 0.000000 0.636253 -0.009916 0.017150 2.521358 0.155499 20.878528 -1.635291 -3.009993 -2.500896 0.000000 0.000000 0.000000 -1.520275 -0.045685 1.308415 0.242191 -0.081627 -1.374797 1.893245 0.228837 9.703747 1.584188 -0.069857 -14.450898 0.000000 0.000000 0.000000 -26.772286 -1.979315 -1.029531 -44.972974 -1.604325 -5.277119 -9.390524 -22.386098 2.756110 0.000000 0.000000 0.000000 23.056360 6.066982 1.320879 50.427495 3.894603 -3.769940 6.610818 27.603934 2.447092 0.000000 0.000000 0.000000 
0.080396 0.932085 0.989648 -2.922133 -0.770949 -4.564472 0.202087 -0.112083 -1.258601 1.200594 -1.047191 20.019245 -2.511289 -10.937736 -7.895727 0.000000 0.000000 0.000000 -0.596335 0.368371 -3.799057 2.799569 0.212668 28.730863 -1.877029 -3.670369 -2.502523 0.000000 0.000000 0.000000 -1.842531 -0.057297 1.712460 0.255421 -0.096744 -1.001913 1.682832 -0.183697 8.899498 1.463146 -0.029025 -14.188939 0.000000 0.000000 0.000000 -27.297604 -1.814392 -1.126478 -44.427595 -3.044445 -4.681873 -8.408740 -22.306658 2.554397 0.000000 0.000000 0.000000 23.780786 6.039511 1.164454 50.181458 3.345372 -3.880770 5.294060 27.958174 2.154715 0.000000 0.000000 0.000000 
0.090606 0.932172 0.976594 -2.803875 0.075265 -5.316724 0.237826 0.002153 0.022524 0.904445 -0.946164 18.817754 -2.309905 -11.215460 -8.731708 0.000000 0.000000 0.000000 -1.087721 0.773836 -8.414077 2.678192 0.324306 37.474231 -2.052417 -4.792313 -1.005610 0.000000 0.000000 0.000000 -2.707724 -0.107234 4.472963 0.673696 -0.257222 -2.035258 1.647086 -0.431896 9.948478 2.334130 -0.364392 -16.695882 0.000000 0.000000 0.000000 -26.946499 -3.008590 -0.379117 -43.051511 -6.204203 -3.551789 -8.819786 -23.829628 2.818256 0.000000 0.000000 0.000000 23.852398 6.104294 1.304858 50.037357 4.757048 -3.427078 3.862163 29.455027 1.964723 0.000000 0.000000 0.000000 
0.096536 0.936770 0.954179 -3.556893 0.465514 -4.829661 0.652404 -0.068138 -0.793993 0.769326 -0.886508 17.990583 -2.503729 -10.390877 -7.067325 0.000000 0.000000 0.000000 -1.143761 1.370077 -15.070445 3.918396 -0.333472 42.805931 -2.927488 -7.512814 0.487818 0.000000 0.000000 0.000000 -2.956276 -0.136004 6.874829 0.745968 -0.288201 -2.005423 2.060435 -0.787410 9.838021 2.485196 -0.287828 -18.799365 0.000000 0.000000 0.000000 -25.373794 -4.709252 0.825531 -44.088007 -8.927263 -2.688278 -6.977238 -26.216935 2.708867 0.000000 0.000000 0.000000 22.856233 7.807729 2.279420 51.105438 6.702275 -2.659837 2.709681 30.433074 1.736747 0.000000 0.000000 0.000000 
0.099956 0.942225 0.930750 -3.954619 0.706846 -3.973799 1.354840 -0.168401 -2.081782 0.079704 -0.658897 16.867996 -3.425940 -10.976459 -4.886232 0.000000 0.000000 0.000000 -2.003778 1.676078 -20.116331 6.397391 -1.720543 43.942641 -3.365859 -8.647732 0.737798 0.000000 0.000000 0.000000 -3.581893 -0.114759 8.498257 1.843135 -0.772102 -2.511851 1.961840 -1.109136 10.733375 1.566802 0.320033 -19.976467 0.000000 0.000000 0.000000 -24.924233 -5.598175 1.486800 -42.979309 -10.717014 -2.119408 -6.869399 -28.963451 3.008372 0.000000 0.000000 0.000000 20.759368 9.968179 3.520928 52.671208 8.769176 -1.898802 1.023375 31.108822 1.348865 0.000000 0.000000 0.000000 
0.102078 0.947017 0.912751 -4.189496 -0.137018 -3.260311 1.586570 -0.162322 -2.035598 -0.181646 -0.465194 14.286353 -3.807203 -10.569541 -3.249229 0.000000 0.000000 0.000000 -1.816255 1.969219 -22.786059 6.407300 -1.554287 44.395295 -3.488313 -9.194642 1.603505 0.000000 0.000000 0.000000 -3.402412 -0.118036 8.934020 1.616963 -0.709187 -1.703859 1.997192 -0.382734 10.777400 1.137786 0.623979 -20.170865 0.000000 0.000000 0.000000 -25.110454 -6.322498 1.821255 -42.119991 -10.858226 -2.008603 -6.106491 -30.410980 2.939854 0.000000 0.000000 0.000000 20.660326 11.073921 4.240204 52.690847 10.572124 -1.131172 -0.324438 31.303146 1.032249 0.000000 0.000000 0.000000 
0.103342 0.950371 0.900410 -4.624418 0.262093 -2.733743 1.897926 -0.111388 -1.352031 -0.161269 -0.376273 11.438092 -4.165625 -11.263691 -3.022627 0.000000 0.000000 0.000000 -1.843947 1.986676 -23.221323 6.789594 -1.844616 43.874317 -3.942961 -10.667282 3.343206 0.000000 0.000000 0.000000 -3.387104 -0.118156 8.965967 1.769012 -0.767408 -1.896160 1.841776 -0.569549 11.603671 0.857246 0.819501 -20.639576 0.000000 0.000000 0.000000 -25.359137 -6.378260 1.863425 -41.810275 -11.636485 -1.807401 -4.918563 -31.379124 2.721522 0.000000 0.000000 0.000000 20.504718 11.406577 4.484963 53.008250 10.988794 -1.032015 -0.646787 31.515445 0.979826 0.000000 0.000000 0.000000 
0.103507 0.953019 0.891930 -4.716543 0.535149 -2.237166 1.711179 -0.051747 -0.502434 0.123624 -0.329319 8.575879 -4.799089 -11.401939 -1.295164 0.000000 0.000000 0.000000 -1.727076 1.858990 -21.556928 6.141542 -1.523644 42.488336 -3.788598 -10.383851 3.620669 0.000000 0.000000 0.000000 -3.481912 -0.097486 8.176957 1.918028 -0.838716 -1.793458 1.847892 -0.743759 11.621727 1.182603 0.565874 -19.826979 0.000000 0.000000 0.000000 -25.919135 -6.212258 1.765386 -41.597268 -10.934601 -2.040015 -5.154138 -31.439002 2.797937 0.000000 0.000000 0.000000 20.812579 11.293032 4.426798 52.701390 10.530566 -1.226719 -0.622580 31.530007 0.985007 0.000000 0.000000 0.000000 
0.102688 0.954316 0.885557 -4.801850 0.725337 -1.562344 1.867895 -0.036186 -0.229320 -0.337716 -0.180787 6.679093 -4.925673 -11.459439 -0.990438 0.000000 0.000000 0.000000 -1.579726 1.714170 -19.597801 5.238471 -1.067185 40.895858 -3.523770 -9.811549 3.699102 0.000000 0.000000 0.000000 -3.584075 -0.071505 7.198936 1.661538 -0.730699 -1.488083 1.709928 -1.025459 11.414350 1.577320 0.306826 -19.764377 0.000000 0.000000 0.000000 -26.078247 -6.098717 1.742015 -41.181057 -10.628593 -2.121003 -4.775861 -31.581353 2.709228 0.000000 0.000000 0.000000 21.370542 10.961299 4.194827 52.783684 9.815617 -1.499933 -0.074244 31.140412 1.098456 0.000000 0.000000 0.000000 
0.100856 0.955120 0.879982 -4.667356 1.004860 -1.077526 1.615796 -0.015238 0.058604 -0.444329 -0.117043 5.225439 -4.949597 -11.061964 -0.396506 0.000000 0.000000 0.000000 -1.539677 1.559545 -17.774366 5.021471 -0.987835 39.483790 -3.579420 -9.715747 2.779100 0.000000 0.000000 0.000000 -3.757419 -0.048349 6.542590 1.492948 -0.612616 -2.280014 1.521411 -1.683680 11.853060 1.564991 0.229810 -19.568832 0.000000 0.000000 0.000000 -26.416088 -5.607336 1.631472 -41.256585 -10.075532 -2.397280 -5.318884 -31.186766 2.864058 0.000000 0.000000 0.000000 21.283484 9.860886 3.437160 53.820585 8.725732 -2.009391 -0.381043 30.268604 0.972400 0.000000 0.000000 0.000000 
0.098114 0.955166 0.874552 -4.400737 0.945178 -0.171422 1.645646 -0.035940 -0.166717 -0.759831 -0.034379 4.080186 -4.675083 -10.268879 -0.149735 0.000000 0.000000 0.000000 -1.116087 1.491054 -16.290831 3.524149 -0.241811 38.125251 -3.355787 -8.939941 1.724627 0.000000 0.000000 0.000000 -3.707285 -0.024094 5.147078 1.210612 -0.493142 -2.027546 1.090713 -1.948811 11.039968 1.734220 0.009736 -18.265946 0.000000 0.000000 0.000000 -26.439196 -5.185731 1.418134 -41.331736 -8.966606 -2.700108 -6.304095 -30.519595 3.064251 0.000000 0.000000 0.000000 22.473003 9.972886 3.388249 53.250921 7.317831 -2.487052 -1.386346 29.586087 0.671745 0.000000 0.000000 0.000000 
0.094452 0.955888 0.869143 -4.075949 0.874358 0.291755 1.547418 -0.098436 -0.983911 -0.902239 -0.011310 3.997537 -4.863006 -10.170196 0.559373 0.000000 0.000000 0.000000 -0.753508 1.362734 -14.398344 2.656969 0.159076 35.705860 -3.204512 -8.257325 0.553762 0.000000 0.000000 0.000000 -4.003745 0.001604 4.715516 1.003544 -0.410139 -1.733515 0.459901 -1.628877 10.129283 2.052541 -0.169760 -17.684607 0.000000 0.000000 0.000000 -26.424719 -5.245075 1.274870 -41.467027 -8.377961 -2.770635 -6.235306 -29.716864 2.923221 0.000000 0.000000 0.000000 23.301653 9.212919 3.032640 53.427375 6.520235 -2.779521 -2.184874 28.487652 0.473747 0.000000 0.000000 0.000000 
0.089639 0.956448 0.863954 -3.730822 0.561059 0.783385 1.314433 -0.154467 -1.702375 -0.835021 -0.006756 3.544539 -5.034066 -9.313660 2.317381 0.000000 0.000000 0.000000 -0.415666 1.143123 -11.703968 2.050508 0.375363 30.159617 -2.604095 -6.244037 -1.027425 0.000000 0.000000 0.000000 -4.119985 0.017947 4.455518 0.487944 -0.170105 -1.827249 0.009967 -1.077498 9.235780 2.600877 -0.575628 -16.128645 0.000000 0.000000 0.000000 -26.817653 -5.327049 1.103659 -40.718160 -7.417177 -2.903461 -6.865742 -29.460084 3.017897 0.000000 0.000000 0.000000 24.454744 9.159380 3.119345 53.381527 5.950727 -2.968078 -3.248024 27.506000 0.233765 0.000000 0.000000 0.000000 
0.083807 0.956825 0.859386 -3.626645 0.645454 1.079804 1.464421 -0.177564 -1.983154 -0.901154 0.018059 2.953801 -5.091634 -8.981006 2.986928 0.000000 0.000000 0.000000 -0.222087 0.904813 -9.114375 2.488417 0.115603 24.388718 -2.529112 -6.002755 -1.177575 0.000000 0.000000 0.000000 -4.285124 0.032839 3.915178 0.217229 -0.044770 -1.839897 -0.317805 -0.928683 9.347572 2.621743 -0.622541 -15.486886 0.000000 0.000000 0.000000 -26.396426 -4.859350 0.735077 -41.037587 -7.189049 -2.967300 -7.043834 -28.823560 2.981641 0.000000 0.000000 0.000000 24.735830 9.234143 3.262721 53.654351 5.528022 -3.196005 -3.038861 27.104228 0.292986 0.000000 0.000000 0.000000 
0.077350 0.956691 0.855579 -3.507861 -0.092220 1.540801 1.602079 -0.210829 -2.413361 -1.067000 0.057851 2.364880 -4.506270 -7.453081 3.553427 0.000000 0.000000 0.000000 -0.039132 0.631708 -6.278874 2.287788 0.102619 17.532724 -1.901807 -4.675033 -0.405507 0.000000 0.000000 0.000000 -4.639298 0.060023 3.304886 0.182183 -0.019006 -2.309028 -0.497892 -0.037908 9.734261 2.032691 -0.261189 -14.726170 0.000000 0.000000 0.000000 -26.544551 -4.254199 0.167880 -41.074888 -7.313865 -2.898760 -6.998088 -27.505972 2.802864 0.000000 0.000000 0.000000 25.230156 8.996622 3.337506 53.292417 5.778101 -3.156807 -2.654229 26.388173 0.401599 0.000000 0.000000 0.000000 
0.070833 0.956255 0.852547 -3.537937 -0.564534 1.732038 1.707944 -0.214184 -2.465823 -0.906164 0.048557 1.974850 -4.086219 -6.674703 3.467511 0.000000 0.000000 0.000000 0.667483 0.418457 -4.108116 1.584689 0.163334 12.343941 -1.928663 -5.041377 0.357309 0.000000 0.000000 0.000000 -4.722597 0.068420 2.514948 0.005333 0.056177 -2.238306 -0.233542 0.495834 10.134401 1.863314 -0.123141 -14.790288 0.000000 0.000000 0.000000 -26.778971 -4.040510 -0.052159 -41.421555 -7.017577 -3.017882 -6.348282 -25.936394 2.479084 0.000000 0.000000 0.000000 25.041596 9.232245 3.587721 53.180727 6.246897 -3.005376 -2.871706 26.278218 0.370078 0.000000 0.000000 0.000000 
0.064582 0.955970 0.849551 -3.610508 -1.211346 1.718348 1.829158 -0.209872 -2.439800 -0.566096 0.014224 1.713967 -3.954249 -6.050612 4.140750 0.000000 0.000000 0.000000 1.561733 0.261857 -2.702732 0.883496 0.210120 8.992572 -1.753058 -4.887756 1.063156 0.000000 0.000000 0.000000 -4.724437 0.070325 2.109936 -0.059394 0.081344 -2.241524 -0.030194 0.926511 10.186717 1.353361 0.182823 -14.443834 0.000000 0.000000 0.000000 -26.948282 -3.923895 -0.152875 -41.867443 -6.740277 -3.135283 -5.544708 -24.343527 2.146516 0.000000 0.000000 0.000000 25.029838 9.238184 3.611376 52.998195 6.661351 -2.829514 -2.449943 25.867997 0.453032 0.000000 0.000000 0.000000 
0.058965 0.955756 0.846351 -3.724428 -1.665844 1.650729 2.076238 -0.202654 -2.387951 -0.494971 0.011837 1.515907 -3.716380 -5.560969 4.211430 0.000000 0.000000 0.000000 1.965066 0.194081 -2.159771 0.799818 0.180108 7.579284 -1.658609 -4.871603 1.579662 0.000000 0.000000 0.000000 -4.581733 0.065686 2.002727 -0.210162 0.148144 -2.307634 0.180433 1.060462 10.245885 1.209260 0.250029 -14.305548 0.000000 0.000000 0.000000 -27.342921 -4.071283 -0.028928 -41.743094 -6.761908 -3.139150 -4.593239 -22.713747 1.810625 0.000000 0.000000 0.000000 25.129121 9.650845 3.812945 52.541809 7.366539 -2.495721 -2.744263 25.713735 0.379901 0.000000 0.000000 0.000000 
0.053966 0.955754 0.842916 -3.840018 -1.788069 1.514578 2.134877 -0.190821 -2.246248 -0.281772 -0.001514 1.082227 -3.633612 -5.056465 4.849021 0.000000 0.000000 0.000000 2.530387 0.146707 -1.818522 0.556706 0.187918 6.675873 -1.575534 -4.842957 1.995071 0.000000 0.000000 0.000000 -4.443255 0.059939 1.718582 -0.254708 0.161632 -2.008441 0.301800 0.853466 10.098961 0.802059 0.424044 -13.502645 0.000000 0.000000 0.000000 -27.153894 -4.511417 0.368111 -42.286677 -6.640778 -3.237139 -3.703846 -21.531848 1.553243 0.000000 0.000000 0.000000 24.602890 10.373808 4.131163 52.803037 8.022292 -2.171744 -3.292894 25.648143 0.247618 0.000000 0.000000 0.000000 
0.049333 0.955200 0.839780 -3.719162 -2.027840 1.594376 2.030347 -0.211566 -2.523013 -0.124758 -0.026151 1.262846 -3.689763 -5.248870 4.726908 0.000000 0.000000 0.000000 2.486988 0.141792 -1.789155 0.709184 0.169516 6.791461 -1.534218 -4.697639 1.872221 0.000000 0.000000 0.000000 -4.448870 0.063073 1.397447 -0.370387 0.215093 -2.134338 0.541243 0.757777 10.048353 0.689099 0.456259 -13.302211 0.000000 0.000000 0.000000 -26.728385 -4.478411 0.472041 -42.620963 -6.767172 -3.245640 -3.326873 -20.908467 1.446076 0.000000 0.000000 0.000000 24.458610 10.358418 4.014840 52.521656 8.321339 -2.002596 -2.956976 25.797666 0.303065 0.000000 0.000000 0.000000 
0.044842 0.954508 0.837077 -3.653948 -2.462123 1.629386 1.986889 -0.210758 -2.520409 0.046884 -0.033702 0.856905 -3.535188 -4.965617 4.739513 0.000000 0.000000 0.000000 2.705465 0.124876 -1.697241 0.561701 0.174007 6.202109 -1.417738 -4.445071 1.913943 0.000000 0.000000 0.000000 -4.291032 0.061218 1.159713 -0.478138 0.265779 -2.428590 0.687082 0.861349 10.475002 0.911522 0.306458 -13.519516 0.000000 0.000000 0.000000 -26.669788 -4.410201 0.515741 -42.727785 -6.617817 -3.360771 -3.187375 -20.983837 1.435747 0.000000 0.000000 0.000000 24.522366 10.371410 3.979246 52.043432 8.409798 -1.979112 -2.321570 26.716123 0.446948 0.000000 0.000000 0.000000 
0.040446 0.953703 0.834758 -3.475512 -2.294103 1.848800 2.006935 -0.215952 -2.570292 0.024714 -0.024296 0.651346 -4.033954 -5.960543 4.702720 0.000000 0.000000 0.000000 2.879896 0.133046 -1.792104 0.485906 0.178116 6.035190 -1.502288 -4.705461 2.060739 0.000000 0.000000 0.000000 -4.418046 0.069329 0.657088 -0.341373 0.204666 -2.397177 0.735237 0.645252 10.361833 0.851987 0.341544 -13.660690 0.000000 0.000000 0.000000 -25.604163 -3.813302 0.241629 -43.316071 -6.983448 -3.277895 -4.111570 -21.307760 1.635818 0.000000 0.000000 0.000000 23.887075 9.989772 3.687634 52.421148 8.037562 -2.124413 -1.508774 26.633685 0.612216 0.000000 0.000000 0.000000 
0.036107 0.953218 0.832932 -3.095595 -2.970972 1.490250 1.774450 -0.178087 -2.080610 -0.081159 -0.017514 0.845442 -3.283947 -4.972923 3.834233 0.000000 0.000000 0.000000 2.454608 0.084073 -1.343601 0.896593 0.123677 6.145061 -1.346015 -4.254969 1.852035 0.000000 0.000000 0.000000 -4.259978 0.061075 0.866480 -0.216562 0.154995 -3.089732 0.878567 0.768550 11.109666 0.573152 0.467145 -13.312765 0.000000 0.000000 0.000000 -26.630176 -3.229179 -0.044683 -42.808737 -6.799466 -3.407357 -3.798899 -22.306774 1.675332 0.000000 0.000000 0.000000 23.871781 9.800438 3.496795 51.978846 8.297396 -2.054143 -1.756831 27.015010 0.561699 0.000000 0.000000 0.000000 
0.031895 0.952599 0.831527 -3.043164 -3.225654 1.517839 2.033217 -0.188209 -2.254651 -0.365399 0.009451 1.124396 -3.387793 -4.992323 4.220539 0.000000 0.000000 0.000000 2.765888 0.112223 -1.631343 0.581632 0.174382 6.156543 -1.052172 -3.547329 1.830294 0.000000 0.000000 0.000000 -4.928529 0.078173 0.189885 -0.466777 0.245114 -1.675191 1.789101 0.589076 9.865201 0.308537 0.613402 -13.445591 0.000000 0.000000 0.000000 -25.268655 -1.879609 -0.704746 -44.198791 -6.692042 -3.454052 -5.831829 -22.975137 2.150149 0.000000 0.000000 0.000000 22.171913 9.231709 2.968916 53.585841 8.040756 -2.055669 -1.501185 26.494603 0.568115 0.000000 0.000000 0.000000 
0.027995 0.953317 0.830559 -2.607951 -3.613172 1.187115 1.511165 -0.192172 -2.263293 -0.062858 -0.026443 1.071444 -2.547414 -3.354997 4.203683 0.000000 0.000000 0.000000 2.730353 0.056623 -1.171784 0.221531 0.211932 5.696166 -0.399072 -2.421932 2.702336 0.000000 0.000000 0.000000 -4.457132 0.064010 0.542385 -1.294431 0.626293 -2.393965 1.746457 0.424135 10.236469 -0.087764 0.852877 -13.834919 0.000000 0.000000 0.000000 -24.205334 -1.970604 -0.432945 -45.114268 -6.599629 -3.607123 -4.353547 -22.445304 1.828062 0.000000 0.000000 0.000000 22.944195 9.201208 2.813671 53.517218 8.561699 -1.823220 -2.257399 24.311536 0.359185 0.000000 0.000000 0.000000 
