HIERARCHY
ROOT Hips
{
	OFFSET -0.001795 -0.223333 0.028219
	CHANNELS 6 Xposition Yposition Zposition Zrotation Yrotation Xrotation 
	JOINT LeftUpLeg
	{
		OFFSET 0.069520 -0.091406 -0.006815
		CHANNELS 3 Zrotation Yrotation Xrotation
		JOINT LeftLeg
		{
			OFFSET 0.034277 -0.375199 -0.004496
			CHANNELS 3 Zrotation Yrotation Xrotation
			JOINT LeftFoot
			{
				OFFSET -0.013596 -0.397961 -0.043693
				CHANNELS 3 Zrotation Yrotation Xrotation
				JOINT LeftToe
				{
					OFFSET 0.026358 -0.055791 0.119288
					CHANNELS 3 Zrotation Yrotation Xrotation
					End Site
					{
						OFFSET 0.000000 0.000000 0.000000
					}
				}
			}
		}
	}
	JOINT RightUpLeg
	{
		OFFSET -0.067670 -0.090522 -0.004320
		CHANNELS 3 Zrotation Yrotation Xrotation
		JOINT RightLeg
		{
			OFFSET -0.038290 -0.382569 -0.008850
			CHANNELS 3 Zrotation Yrotation Xrotation
			JOINT RightFoot
			{
				OFFSET 0.015774 -0.398415 -0.042312
				CHANNELS 3 Zrotation Yrotation Xrotation
				JOINT RightToe
				{
					OFFSET -0.025372 -0.048144 0.123348
					CHANNELS 3 Zrotation Yrotation Xrotation
					End Site
					{
						OFFSET 0.000000 0.000000 0.000000
					}
				}
			}
		}
	}
	JOINT Spine
	{
		OFFSET -0.002533 0.108963 -0.026696
		CHANNELS 3 Zrotation Yrotation Xrotation
		JOINT Spine1
		{
			OFFSET 0.005487 0.135180 0.001092
			CHANNELS 3 Zrotation Yrotation Xrotation
			JOINT Spine2
			{
				OFFSET 0.001457 0.052922 0.025425
				CHANNELS 3 Zrotation Yrotation Xrotation
				JOINT Neck
				{
					OFFSET -0.002778 0.213870 -0.042857
					CHANNELS 3 Zrotation Yrotation Xrotation
					JOINT Head
					{
						OFFSET 0.005152 0.064970 0.051349
						CHANNELS 3 Zrotation Yrotation Xrotation
						End Site
						{
							OFFSET 0.000000 0.000000 0.000000
						}
					}
				}
				JOINT LeftShoulder
				{
					OFFSET 0.078845 0.121749 -0.034090
					CHANNELS 3 Zrotation Yrotation Xrotation
					JOINT LeftArm
					{
						OFFSET 0.090977 0.030469 -0.008868
						CHANNELS 3 Zrotation Yrotation Xrotation
						JOINT LeftForeArm
						{
							OFFSET 0.259612 -0.012772 -0.027456
							CHANNELS 3 Zrotation Yrotation Xrotation
							JOINT LeftHand
							{
								OFFSET 0.249234 0.008986 -0.001171
								CHANNELS 3 Zrotation Yrotation Xrotation
								End Site
								{
									OFFSET 0.000000 0.000000 0.000000
								}
							}
						}
					}
				}
				JOINT RightShoulder
				{
					OFFSET -0.081759 0.118833 -0.038615
					CHANNELS 3 Zrotation Yrotation Xrotation
					JOINT RightArm
					{
						OFFSET -0.096012 0.032551 -0.009143
						CHANNELS 3 Zrotation Yrotation Xrotation
						JOINT RightForeArm
						{
							OFFSET -0.253742 -0.013329 -0.021401
							CHANNELS 3 Zrotation Yrotation Xrotation
							JOINT RightHand
							{
								OFFSET -0.255298 0.007772 -0.005559
								CHANNELS 3 Zrotation Yrotation Xrotation
								End Site
								{
									OFFSET 0.000000 0.000000 0.000000
								}
							}
						}
					}
				}
			}
		}
	}
}
MOTION
Frames: 124
Frame Time: 0.050000
0.000000 0.943410 0.000000 -1.152609 -11.663683 1.337248 3.831092 0.140096 1.511171 0.047002 0.090365 -2.959521 1.556303 5.212972 8.714208 0.000000 0.000000 0.000000 -5.150861 0.274860 0.046791 3.429863 -0.274034 -0.955961 -1.741336 -10.590172 14.946722 0.000000 0.000000 0.000000 7.883583 -0.516594 4.377846 -5.571789 1.813324 -19.191532 -0.847040 10.674589 23.713309 8.469879 -2.224285 -28.468920 0.000000 0.000000 0.000000 -32.595591 -5.046958 -0.345638 -38.716843 -5.533699 -4.055452 2.180705 -16.281020 0.348851 0.000000 0.000000 0.000000 35.806837 -4.586259 -4.751863 41.836735 1.729630 -5.527205 -0.438968 22.815424 0.981199 0.000000 0.000000 0.000000 
-0.000098 0.941362 0.000924 -1.543254 -13.074732 1.638738 4.741720 0.199037 2.182529 -1.074419 0.240426 -4.007420 2.183384 6.173565 8.362396 0.000000 0.000000 0.000000 -4.628231 0.285749 -0.460653 3.006510 -0.231835 -0.735999 -1.221587 -9.631338 14.104080 0.000000 0.000000 0.000000 8.721057 -0.516201 4.139050 -6.295916 1.992349 -19.238649 -0.970753 12.690429 23.581911 9.424395 -2.364088 -29.683783 0.000000 0.000000 0.000000 -32.331602 -4.622431 -1.143858 -39.441575 -5.572176 -3.962355 4.111603 -16.151682 0.068362 0.000000 0.000000 0.000000 36.702020 -5.884839 -5.262373 42.391264 1.406730 -5.895842 -0.698157 24.525090 1.102725 0.000000 0.000000 0.000000 
-0.000254 0.940612 0.001346 -1.502784 -11.809752 1.872290 4.550037 0.125112 1.306955 -0.584955 0.166292 -3.256223 1.751847 5.381024 7.792439 0.000000 0.000000 0.000000 -4.558261 0.298500 -0.984756 3.018893 -0.229500 0.132815 -1.948125 -10.645892 13.870415 0.000000 0.000000 0.000000 9.022819 -0.494184 3.733684 -6.821428 2.155342 -20.140116 -0.302690 11.326955 25.005480 9.201031 -2.324695 -30.190268 0.000000 0.000000 0.000000 -31.161471 -4.883157 -0.464692 -40.483332 -6.200079 -4.098417 5.778814 -15.362052 -0.124542 0.000000 0.000000 0.000000 35.113141 -4.945942 -4.596866 43.604756 1.699536 -5.947789 -1.697544 24.244883 0.891196 0.000000 0.000000 0.000000 
-0.000399 0.939458 0.001566 -1.695730 -12.619443 1.977825 5.087885 0.151595 1.547210 -1.301131 0.249436 -3.507891 2.118707 5.950900 7.524140 0.000000 0.000000 0.000000 -4.779386 0.324789 -1.097668 3.659655 -0.270064 0.022431 -1.609520 -10.040460 13.513083 0.000000 0.000000 0.000000 9.203347 -0.522874 3.967525 -7.072833 2.187618 -20.982340 0.204287 12.238940 25.566837 9.474085 -2.228506 -31.463754 0.000000 0.000000 0.000000 -31.384406 -4.836962 -0.659360 -39.991163 -6.087753 -4.063568 6.615840 -15.755907 -0.244846 0.000000 0.000000 0.000000 35.654696 -5.421402 -4.802266 42.875040 1.409472 -6.072928 -1.764896 25.743901 0.977583 0.000000 0.000000 0.000000 
-0.000633 0.939278 0.001612 -1.637020 -12.719239 1.741599 5.036560 0.163940 1.680383 -1.309167 0.244677 -3.262074 2.168598 6.020508 7.411362 0.000000 0.000000 0.000000 -4.835768 0.301596 -0.589497 3.655704 -0.273576 -0.457873 -1.541560 -9.914482 13.472004 0.000000 0.000000 0.000000 8.834835 -0.539898 4.279862 -6.535163 2.038687 -20.753024 0.061195 12.356489 25.015762 9.641150 -2.311263 -31.286564 0.000000 0.000000 0.000000 -31.443503 -4.511732 -0.960052 -39.640626 -5.384181 -4.175349 7.479028 -16.919949 -0.396130 0.000000 0.000000 0.000000 35.401741 -4.958836 -4.416465 42.609392 1.245001 -6.042406 -2.390132 25.956828 0.844292 0.000000 0.000000 0.000000 
-0.000777 0.939146 0.001522 -1.717921 -13.082072 1.702458 5.210560 0.184912 1.932120 -1.508147 0.272241 -3.486696 2.304997 6.257421 7.449091 0.000000 0.000000 0.000000 -5.050089 0.320538 -0.652137 4.153196 -0.301571 -0.342690 -1.364477 -9.632692 13.440817 0.000000 0.000000 0.000000 8.435112 -0.565398 4.665458 -6.156324 1.919123 -21.068296 0.290604 12.968213 24.833863 9.839471 -2.299662 -31.570447 0.000000 0.000000 0.000000 -31.263963 -3.780735 -1.638144 -40.133075 -5.056664 -4.252501 8.051723 -17.869137 -0.517910 0.000000 0.000000 0.000000 35.659810 -5.349369 -4.574318 42.157087 0.952013 -6.110824 -3.036662 27.226285 0.772663 0.000000 0.000000 0.000000 
-0.000918 0.938818 0.001372 -1.776250 -13.217686 1.808323 5.346474 0.183376 1.883896 -1.644458 0.288654 -3.547619 2.374314 6.365610 7.375256 0.000000 0.000000 0.000000 -4.959324 0.318763 -0.678085 4.101076 -0.297585 -0.524984 -1.315487 -9.534451 13.357655 0.000000 0.000000 0.000000 8.185297 -0.568406 4.753977 -5.958944 1.861402 -20.776094 0.052320 12.901776 24.042777 10.386796 -2.616680 -31.308884 0.000000 0.000000 0.000000 -30.537503 -2.885798 -2.138725 -40.527925 -4.631632 -4.393500 7.861772 -19.383957 -0.536592 0.000000 0.000000 0.000000 35.672161 -5.572225 -4.851984 42.269070 0.888207 -6.049937 -3.512145 27.738125 0.675162 0.000000 0.000000 0.000000 
-0.001047 0.938204 0.001380 -1.700665 -13.463448 2.145392 5.340851 0.182432 1.889540 -1.819228 0.321535 -4.166111 2.474495 6.540572 7.436281 0.000000 0.000000 0.000000 -5.093797 0.354614 -1.139893 4.172569 -0.298346 -0.451953 -1.278919 -9.417486 13.114311 0.000000 0.000000 0.000000 7.757904 -0.488057 4.036014 -5.344821 1.681479 -20.548322 -0.449328 13.030066 23.693573 11.285431 -3.227273 -30.445005 0.000000 0.000000 0.000000 -29.962434 -2.630602 -2.224984 -40.439923 -3.887008 -4.615910 8.897772 -21.881739 -0.809476 0.000000 0.000000 0.000000 35.761147 -5.648179 -4.952082 41.628378 0.332459 -6.114330 -3.981194 30.692306 0.645391 0.000000 0.000000 0.000000 
-0.001070 0.938141 0.001508 -1.944682 -13.654777 2.386477 5.483959 0.188944 1.994503 -1.649287 0.316093 -4.633727 2.567039 6.707404 7.502833 0.000000 0.000000 0.000000 -4.868968 0.361633 -1.471826 4.204753 -0.297601 -0.260514 -1.187228 -9.291548 13.132213 0.000000 0.000000 0.000000 7.861546 -0.446255 3.553641 -5.373096 1.686049 -20.125583 -0.560746 12.600395 22.911047 10.801762 -3.131113 -29.783907 0.000000 0.000000 0.000000 -28.915423 -0.808311 -3.095044 -40.332233 -3.767768 -4.669266 8.524684 -27.645355 -0.931976 0.000000 0.000000 0.000000 34.052405 -6.882338 -5.927875 40.919381 0.561306 -5.794787 -3.502204 34.864624 0.870175 0.000000 0.000000 0.000000 
-0.001134 0.938327 0.001421 -1.853965 -13.797931 2.304067 5.380464 0.190336 1.965938 -1.654425 0.311804 -4.428999 2.626922 6.813208 7.550795 0.000000 0.000000 0.000000 -4.807407 0.348797 -1.278182 3.908460 -0.279303 -0.529508 -1.104380 -9.174084 13.149298 0.000000 0.000000 0.000000 7.675325 -0.329168 2.512952 -4.775174 1.520481 -19.257059 -1.385864 12.887430 22.595490 11.416336 -3.689477 -28.237722 0.000000 0.000000 0.000000 -28.168512 -1.554094 -2.604820 -36.904388 -5.515190 -3.772945 14.768769 -37.704732 -3.512764 0.000000 0.000000 0.000000 32.773856 -6.929127 -5.651875 39.021483 2.023162 -5.170467 -6.812283 41.680384 -0.046423 0.000000 0.000000 0.000000 
-0.001312 0.938987 0.001021 -1.771513 -14.289352 2.128811 5.130260 0.220422 2.336326 -1.425988 0.296841 -4.679803 2.797617 7.142051 7.922787 0.000000 0.000000 0.000000 -5.311547 0.386143 -1.388466 4.606675 -0.315651 -0.214218 -0.829074 -8.808989 13.320358 0.000000 0.000000 0.000000 8.124168 -0.221705 1.536582 -4.913178 1.553169 -18.899441 -2.162159 13.041249 22.331260 11.409646 -3.917406 -27.022899 0.000000 0.000000 0.000000 -25.043558 -2.494348 -1.559795 -32.850990 -9.431058 -2.512134 27.763301 -50.238282 -11.178071 0.000000 0.000000 0.000000 29.805408 -7.170933 -5.446192 36.344415 5.881289 -3.834268 -12.844825 52.000977 -2.831920 0.000000 0.000000 0.000000 
-0.001647 0.939991 0.000255 -1.915136 -15.068426 2.283913 4.796255 0.262382 2.859256 -0.653440 0.258816 -5.690723 3.095137 7.708106 8.646832 0.000000 0.000000 0.000000 -4.508804 0.371458 -1.834003 3.388250 -0.229759 0.066918 -0.437233 -8.280298 13.394575 0.000000 0.000000 0.000000 8.430873 -0.042694 0.011738 -5.064275 1.581476 -18.667900 -2.322586 13.417243 21.868950 11.694676 -4.483283 -24.876594 0.000000 0.000000 0.000000 -21.042610 -4.338685 -0.031483 -25.244384 -15.246339 -1.111964 55.170912 -56.660135 -29.250932 0.000000 0.000000 0.000000 25.451526 -5.985607 -4.218246 31.493567 10.606394 -2.295839 -28.730947 62.991672 -13.438607 0.000000 0.000000 0.000000 
-0.002366 0.940883 -0.000420 -1.606054 -15.199834 1.983591 4.642134 0.272094 2.927041 -0.882342 0.269522 -5.408361 3.084673 7.718567 8.995407 0.000000 0.000000 0.000000 -4.319543 0.329477 -1.272065 2.547569 -0.186884 -0.590265 -0.313861 -8.149579 13.547552 0.000000 0.000000 0.000000 8.379895 0.052898 -0.716763 -4.806682 1.495689 -19.788949 -2.631305 13.799969 22.247710 10.913996 -4.305249 -23.190407 0.000000 0.000000 0.000000 -14.571146 -6.991261 1.774176 -16.404021 -21.687031 -0.569427 79.484612 -49.819326 -40.607082 0.000000 0.000000 0.000000 19.276098 -4.543680 -2.719006 23.918282 18.367839 -0.771532 -64.323409 67.671091 -40.291224 0.000000 0.000000 0.000000 
-0.003190 0.942094 -0.000909 -1.894737 -15.888036 2.430936 5.019958 0.287313 3.086657 -1.042459 0.314841 -6.239523 3.307699 8.132647 9.740936 0.000000 0.000000 0.000000 -3.615164 0.340915 -2.020856 1.845739 -0.130284 -0.204113 0.073921 -7.701015 13.818061 0.000000 0.000000 0.000000 8.229305 0.069917 -0.921070 -4.536397 1.396834 -20.742645 -2.467922 13.726449 21.917281 11.035913 -4.575365 -22.539890 0.000000 0.000000 0.000000 -6.794911 -8.620289 2.854195 -6.826622 -28.640118 -1.252684 89.836017 -39.071493 -38.027602 0.000000 0.000000 0.000000 11.408471 -1.915606 -1.047704 14.756981 25.297138 -0.394976 -89.822692 59.382358 -53.694620 0.000000 0.000000 0.000000 
-0.003962 0.944157 -0.000951 -1.856512 -15.849259 2.139555 5.222439 0.274896 2.841531 -1.366913 0.311876 -5.266108 3.226197 8.032055 10.141367 0.000000 0.000000 0.000000 -3.252599 0.305704 -1.784720 1.228116 -0.085525 -0.059042 0.193605 -7.713427 14.345730 0.000000 0.000000 0.000000 7.396471 -0.008265 -0.307928 -3.777454 1.203442 -22.385126 -2.101773 14.505199 22.127273 12.116100 -5.233501 -22.098859 0.000000 0.000000 0.000000 1.635034 -10.180602 3.429301 5.151145 -34.322162 -3.711153 86.223509 -29.664198 -28.259856 0.000000 0.000000 0.000000 4.553568 0.212966 0.062714 5.636848 29.338542 -1.215108 -96.236358 49.849221 -49.279667 0.000000 0.000000 0.000000 
-0.004320 0.946310 -0.000837 -1.878770 -15.548089 1.968892 5.297409 0.293278 3.156997 -1.356741 0.319908 -5.575724 2.956823 7.665990 10.865128 0.000000 0.000000 0.000000 -3.155012 0.272464 -1.385586 1.183904 -0.092572 -0.348354 0.245030 -7.891608 15.106245 0.000000 0.000000 0.000000 7.302274 -0.006678 -0.299850 -3.888098 1.241923 -22.600974 -1.936437 13.906322 21.584488 11.965838 -4.928483 -23.319136 0.000000 0.000000 0.000000 9.782328 -11.039066 3.533106 12.745462 -36.988115 -5.842708 83.273334 -24.605032 -22.684073 0.000000 0.000000 0.000000 -4.220231 2.094776 0.631568 -1.897431 31.189161 -2.269990 -94.476320 42.629276 -40.854331 0.000000 0.000000 0.000000 
-0.004419 0.947579 -0.000194 -1.912605 -15.493327 1.802630 5.156854 0.273962 2.839118 -1.038420 0.259049 -4.627298 2.960469 7.683874 10.962002 0.000000 0.000000 0.000000 -2.427636 0.231787 -1.357308 -0.044376 0.007861 0.029288 0.274634 -7.952792 15.356819 0.000000 0.000000 0.000000 6.889441 -0.108625 0.655653 -3.506695 1.183408 -24.626075 -1.329403 14.404793 22.202931 13.380865 -5.764364 -23.266665 0.000000 0.000000 0.000000 16.769371 -10.766788 3.314480 19.816675 -38.414567 -8.109487 78.208120 -21.738458 -18.882548 0.000000 0.000000 0.000000 -11.755505 1.530002 0.264455 -9.053930 32.377613 -3.447905 -87.611149 37.408156 -31.650683 0.000000 0.000000 0.000000 
-0.004406 0.949218 0.001023 -2.022827 -15.484525 1.947948 5.248221 0.247355 2.439754 -1.034351 0.240243 -4.029334 2.943862 7.684304 11.283505 0.000000 0.000000 0.000000 -2.412303 0.213517 -1.102911 0.101930 -0.025727 -0.537310 0.447247 -7.923571 16.030534 0.000000 0.000000 0.000000 7.072824 -0.100050 0.556041 -3.837817 1.275583 -24.922733 -1.203598 14.032204 22.237971 13.433235 -5.738197 -23.757079 0.000000 0.000000 0.000000 22.157337 -9.905561 2.939266 25.068589 -38.912707 -9.647452 73.261641 -17.188071 -13.996738 0.000000 0.000000 0.000000 -17.884770 1.361523 0.173895 -13.539521 31.505071 -4.014046 -80.805729 33.300028 -24.945522 0.000000 0.000000 0.000000 
-0.004560 0.949881 0.003160 -1.913066 -15.652968 1.874354 4.989559 0.266929 2.714798 -0.865268 0.226331 -4.142106 2.989179 7.774229 11.525424 0.000000 0.000000 0.000000 -2.291614 0.201691 -1.018250 -0.321111 0.015563 -0.266055 0.436100 -7.872173 15.783833 0.000000 0.000000 0.000000 6.870324 -0.130718 0.868879 -4.021151 1.325456 -25.297367 -0.670388 14.082196 22.213388 13.250027 -5.840840 -22.775543 0.000000 0.000000 0.000000 25.904765 -8.212125 2.632555 29.225148 -39.593394 -11.116587 66.545608 -11.783079 -8.921780 0.000000 0.000000 0.000000 -22.566200 0.970979 0.075870 -16.397405 29.514653 -4.007208 -74.679906 29.195669 -19.300718 0.000000 0.000000 0.000000 
-0.004809 0.950751 0.006051 -1.940409 -15.540796 1.757989 5.061001 0.278070 2.881518 -0.972272 0.230486 -3.908986 2.898135 7.650403 11.648712 0.000000 0.000000 0.000000 -2.377402 0.180376 -0.654377 -0.173124 0.015537 -0.013934 0.500088 -7.571048 15.367136 0.000000 0.000000 0.000000 6.798352 -0.122649 0.818118 -4.032330 1.330870 -25.285152 -0.396783 14.115459 22.445912 13.110941 -5.664635 -23.160022 0.000000 0.000000 0.000000 29.680375 -7.104540 2.465540 32.844544 -38.927546 -11.920277 59.484597 -5.155978 -4.200844 0.000000 0.000000 0.000000 -26.116654 0.072174 -0.093411 -18.656447 28.359283 -4.013317 -68.115696 24.728593 -14.067017 0.000000 0.000000 0.000000 
-0.005109 0.950862 0.009553 -1.991080 -15.541455 1.410220 4.905838 0.322492 3.472494 -0.663252 0.195971 -3.850338 2.895750 7.648368 11.550023 0.000000 0.000000 0.000000 -2.293075 0.136574 -0.097705 -0.540477 0.062952 0.406406 0.901015 -6.619599 14.726599 0.000000 0.000000 0.000000 6.639341 -0.114171 0.815470 -4.249439 1.372657 -24.759219 0.013495 14.014748 22.190687 12.630097 -5.614727 -21.993865 0.000000 0.000000 0.000000 32.780151 -6.965393 2.396460 36.503523 -38.234541 -12.651746 51.741180 1.230368 -0.601961 0.000000 0.000000 0.000000 -28.953036 -0.114446 -0.067834 -21.404475 26.476335 -3.886361 -60.128749 19.628128 -9.169343 0.000000 0.000000 0.000000 
-0.005313 0.950892 0.013302 -2.062739 -15.532872 1.064128 4.843893 0.371941 4.111236 -0.491389 0.177746 -3.845027 2.878307 7.622238 11.431090 0.000000 0.000000 0.000000 -2.161651 0.056468 0.979570 -1.057184 0.103506 0.382386 1.431052 -5.035892 13.299608 0.000000 0.000000 0.000000 6.608632 -0.100024 0.751973 -4.328939 1.384154 -24.026480 0.248840 13.851018 21.770616 11.553474 -5.042489 -21.462182 0.000000 0.000000 0.000000 35.815130 -6.258953 2.323827 39.315870 -37.327833 -12.981635 43.879495 5.460023 1.149400 0.000000 0.000000 0.000000 -31.435654 -0.293250 -0.003893 -23.366636 25.120540 -3.750743 -54.326524 16.709547 -6.659117 0.000000 0.000000 0.000000 
-0.005335 0.950373 0.017116 -2.182456 -15.299727 0.768280 4.589904 0.404608 4.525550 0.134150 0.101837 -3.580245 2.844747 7.548866 11.032179 0.000000 0.000000 0.000000 -2.173344 0.015846 1.592392 -1.413813 0.161685 0.884611 2.049806 -3.400963 12.341764 0.000000 0.000000 0.000000 6.580118 -0.088295 0.699554 -4.543321 1.440744 -23.886647 0.442734 13.529441 21.597323 11.024269 -4.765193 -21.274589 0.000000 0.000000 0.000000 37.923897 -6.413947 2.249019 41.741779 -37.267913 -13.612551 38.504752 8.222789 1.919771 0.000000 0.000000 0.000000 -32.612964 -0.379377 0.062865 -25.536642 24.836553 -3.931245 -48.467042 14.821019 -5.049598 0.000000 0.000000 0.000000 
-0.005131 0.949624 0.020658 -2.036986 -15.186448 0.014394 4.208468 0.478410 5.310841 0.467137 0.052086 -3.216072 2.815480 7.482513 10.611492 0.000000 0.000000 0.000000 -2.301047 -0.039744 2.623216 -1.676134 0.204083 1.191694 2.017639 -2.957603 11.441585 0.000000 0.000000 0.000000 6.456705 -0.085069 0.816556 -4.528492 1.438527 -23.486944 0.622653 13.371419 21.919440 10.548924 -4.735427 -19.995395 0.000000 0.000000 0.000000 38.522377 -6.447709 2.166223 41.986702 -36.704455 -13.327168 36.708283 9.137071 2.085510 0.000000 0.000000 0.000000 -33.264813 -0.668589 0.018731 -26.957823 24.324805 -3.906668 -45.803657 12.758977 -3.951400 0.000000 0.000000 0.000000 
-0.004843 0.948746 0.023712 -2.199441 -14.775986 -0.313674 4.222810 0.508262 5.724647 0.744379 0.014168 -3.007745 2.684326 7.239080 10.078914 0.000000 0.000000 0.000000 -2.333718 -0.099395 3.624757 -1.244095 0.157811 1.054828 1.603822 -3.121524 10.419062 0.000000 0.000000 0.000000 6.492424 -0.036072 0.396522 -4.596208 1.462685 -22.905203 0.573630 13.633625 21.790922 10.497708 -4.670453 -19.726065 0.000000 0.000000 0.000000 38.494305 -6.777785 2.368796 41.109223 -36.349754 -13.102515 35.778035 9.451421 2.074334 0.000000 0.000000 0.000000 -32.943593 -1.235119 -0.166468 -25.937292 24.177671 -3.660763 -42.426236 10.079611 -2.507187 0.000000 0.000000 0.000000 
-0.004458 0.948310 0.026133 -2.290021 -15.001889 -0.480132 3.917760 0.536243 5.914845 1.291397 -0.062612 -2.637392 2.870024 7.521511 9.817609 0.000000 0.000000 0.000000 -2.432607 -0.121293 4.220103 -1.056171 0.147370 1.175408 1.588169 -2.513897 9.239277 0.000000 0.000000 0.000000 6.715848 -0.003779 0.149407 -4.425308 1.409075 -22.352727 0.397559 13.442892 21.825400 10.718353 -5.116029 -18.462846 0.000000 0.000000 0.000000 36.000266 -5.267371 2.306598 38.511515 -35.281826 -11.696566 35.975041 8.040018 1.693680 0.000000 0.000000 0.000000 -31.913728 -2.224205 -0.164933 -24.929567 23.283462 -3.362742 -39.983754 7.269292 -1.434850 0.000000 0.000000 0.000000 
-0.004086 0.948123 0.027859 -2.253448 -15.127778 -0.599391 3.919917 0.547282 6.009115 1.102233 -0.053907 -2.363741 2.931436 7.610951 9.680889 0.000000 0.000000 0.000000 -2.975779 -0.095453 4.774248 -0.230508 0.035147 0.345578 1.663075 -2.651570 9.747114 0.000000 0.000000 0.000000 6.474216 -0.006812 0.173684 -3.989662 1.296205 -22.727602 0.256996 14.068559 22.676906 11.195633 -5.428360 -18.330036 0.000000 0.000000 0.000000 33.635305 -3.955549 2.339971 35.120087 -33.212806 -9.938809 33.554750 6.909173 1.214718 0.000000 0.000000 0.000000 -29.799271 -4.162008 -0.583799 -23.825997 22.538122 -2.972589 -35.531584 4.352938 -0.345818 0.000000 0.000000 0.000000 
-0.003712 0.948369 0.029179 -2.559424 -15.882470 -0.332640 4.155103 0.526152 5.706521 0.975435 -0.063798 -1.809407 3.324398 8.241282 9.678045 0.000000 0.000000 0.000000 -2.597572 -0.118365 4.709462 -0.242607 0.038421 0.396264 1.505153 -2.706745 9.148899 0.000000 0.000000 0.000000 6.587302 -0.033848 0.414998 -3.692023 1.202648 -23.024462 0.029262 14.790909 22.724853 11.749116 -5.993295 -17.338746 0.000000 0.000000 0.000000 30.899761 -2.361710 2.278044 31.061981 -30.542834 -7.876829 30.882601 6.406203 0.979335 0.000000 0.000000 0.000000 -26.768746 -6.045046 -0.941723 -21.745084 21.343295 -2.500849 -30.581188 1.106352 0.533892 0.000000 0.000000 0.000000 
-0.003327 0.949295 0.030497 -2.632323 -16.389520 -0.185638 4.315728 0.512391 5.490920 0.604606 -0.034648 -1.391467 3.529611 8.583646 9.953173 0.000000 0.000000 0.000000 -2.888147 -0.086555 4.832243 0.288568 -0.011298 0.179086 1.698317 -2.324621 9.062866 0.000000 0.000000 0.000000 6.441104 -0.061847 0.658202 -3.505464 1.135576 -22.473237 -0.248812 14.533258 21.914386 11.725798 -6.225443 -16.414186 0.000000 0.000000 0.000000 28.125480 -1.460497 2.049810 27.547853 -27.434382 -5.874105 24.207634 7.654922 1.047365 0.000000 0.000000 0.000000 -23.604244 -7.515759 -1.117680 -19.608639 19.811456 -2.086691 -25.000669 0.174033 0.589359 0.000000 0.000000 0.000000 
-0.002897 0.949495 0.031983 -2.744089 -17.305431 0.321789 4.310470 0.497810 5.200678 0.455288 -0.017715 -1.361093 3.981725 9.304518 10.166134 0.000000 0.000000 0.000000 -2.730869 -0.064707 4.334804 0.212334 0.001842 0.330483 1.630888 -2.257159 8.549460 0.000000 0.000000 0.000000 6.471390 -0.060638 0.564248 -3.731347 1.187092 -23.383086 0.018531 14.859008 22.394596 11.441826 -6.068324 -16.464753 0.000000 0.000000 0.000000 25.802338 -0.822587 1.779787 23.767759 -24.579144 -4.263611 18.388736 8.005460 0.842243 0.000000 0.000000 0.000000 -20.945039 -8.818529 -1.424687 -16.198813 18.539214 -1.696458 -20.496081 -0.777339 0.621221 0.000000 0.000000 0.000000 
-0.002369 0.949353 0.033652 -2.721145 -17.997987 0.642360 4.082296 0.567928 5.900392 0.509485 0.028702 -2.850914 4.237439 9.722122 10.549734 0.000000 0.000000 0.000000 -2.776464 -0.030084 3.904460 0.506386 -0.025538 0.137792 1.244626 -3.309964 8.925246 0.000000 0.000000 0.000000 6.693249 -0.087776 0.789689 -4.285651 1.328836 -23.962147 0.254718 14.583184 22.639218 10.997847 -5.750385 -16.977522 0.000000 0.000000 0.000000 23.659277 0.561045 1.327083 19.649424 -22.936419 -3.213101 13.950791 9.223862 0.727747 0.000000 0.000000 0.000000 -18.755546 -10.031555 -1.670438 -12.544882 17.713941 -1.464317 -17.354480 -1.304809 0.570357 0.000000 0.000000 0.000000 
-0.001674 0.948091 0.035109 -2.499471 -18.510603 0.562802 3.669441 0.632501 6.419385 0.565587 0.045437 -3.441382 4.471915 10.101443 10.396071 0.000000 0.000000 0.000000 -3.158734 0.015796 3.902763 0.717580 -0.043928 -0.002647 1.097115 -3.572559 8.807582 0.000000 0.000000 0.000000 6.728504 -0.120501 1.135224 -4.048475 1.273630 -24.476441 0.002296 14.516592 22.450756 11.000066 -5.675821 -17.562282 0.000000 0.000000 0.000000 20.779367 0.896454 1.063357 17.043842 -21.322897 -2.538043 10.011750 9.326754 0.460386 0.000000 0.000000 0.000000 -16.447420 -10.587775 -1.921641 -10.356709 17.811220 -1.443232 -15.004039 -1.193934 0.472049 0.000000 0.000000 0.000000 
-0.000461 0.946511 0.035938 -2.343217 -18.874649 0.289788 3.238828 0.767940 7.572927 0.805135 0.085458 -4.875947 4.578962 10.288829 10.273473 0.000000 0.000000 0.000000 -3.269501 0.021783 4.146956 0.891710 -0.069096 -0.444658 0.467395 -4.914616 8.989225 0.000000 0.000000 0.000000 7.237660 -0.107056 1.099073 -4.194603 1.299448 -24.309566 -0.164334 14.771423 21.947431 10.838169 -5.587755 -17.284932 0.000000 0.000000 0.000000 19.488182 0.781096 1.057432 14.476739 -22.555213 -2.635028 10.194226 10.269405 0.521827 0.000000 0.000000 0.000000 -15.619877 -10.290894 -1.943576 -8.706204 18.760619 -1.520195 -16.708303 -1.185955 0.534905 0.000000 0.000000 0.000000 
0.001175 0.944666 0.035509 -1.976428 -19.263199 -0.102577 2.767922 0.842064 8.007331 0.708546 0.104874 -5.089457 4.758255 10.593764 9.826347 0.000000 0.000000 0.000000 -3.556716 0.070482 3.726718 0.443883 -0.029953 -0.148733 0.467789 -5.310060 9.638417 0.000000 0.000000 0.000000 7.412796 -0.055309 0.736061 -3.713012 1.154507 -23.574785 -0.952271 15.890706 21.084471 11.508883 -5.663110 -18.359401 0.000000 0.000000 0.000000 18.729527 0.128404 1.344417 14.204402 -24.935193 -3.234375 14.069684 9.056564 0.716915 0.000000 0.000000 0.000000 -15.784962 -9.415152 -1.893204 -9.158320 20.485160 -1.738668 -20.515810 0.026609 0.525452 0.000000 0.000000 0.000000 
0.003243 0.944033 0.033818 -1.521880 -19.228555 -0.225252 1.977550 0.853727 7.846446 1.099350 0.069376 -5.135117 4.789139 10.641691 9.725629 0.000000 0.000000 0.000000 -4.481218 0.184086 3.130797 1.045262 -0.061862 0.053901 0.463675 -5.726415 10.421139 0.000000 0.000000 0.000000 7.611783 0.026333 0.041430 -3.351776 1.062622 -23.385612 -1.333930 16.915550 20.763105 11.429680 -5.410026 -18.553947 0.000000 0.000000 0.000000 19.559697 -0.801924 1.768191 14.796089 -27.420571 -4.003971 20.925358 5.638029 0.620648 0.000000 0.000000 0.000000 -18.144027 -8.289780 -1.658314 -10.173570 22.517433 -2.030987 -26.618586 1.603955 0.447113 0.000000 0.000000 0.000000 
0.005462 0.943836 0.030908 -1.262955 -18.474512 -0.397091 1.900869 0.865721 8.006129 0.819759 0.134246 -5.839094 4.363484 9.933114 9.696927 0.000000 0.000000 0.000000 -4.470433 0.177204 2.901570 0.648230 -0.037192 0.064501 -0.039197 -6.925004 11.130143 0.000000 0.000000 0.000000 8.119632 0.122252 -0.659093 -3.887037 1.208273 -23.060516 -1.434862 17.311253 20.673935 12.156004 -5.582145 -19.434657 0.000000 0.000000 0.000000 22.225359 -2.118556 2.307814 16.349052 -32.395527 -5.690985 28.007964 5.257946 0.665670 0.000000 0.000000 0.000000 -21.112369 -6.865706 -1.411818 -12.136936 23.804491 -2.293339 -34.191319 3.662868 0.126730 0.000000 0.000000 0.000000 
0.007455 0.944601 0.027745 -0.839651 -18.085017 -0.704754 1.559045 0.846932 7.754655 0.624640 0.139060 -5.584525 4.145030 9.571231 9.890706 0.000000 0.000000 0.000000 -5.001557 0.216957 3.033076 0.783879 -0.054483 -0.138060 -0.154238 -7.229055 11.428612 0.000000 0.000000 0.000000 8.189132 0.158658 -0.901454 -4.185759 1.308828 -23.715509 -1.537192 17.376499 21.309200 12.896567 -5.737482 -20.861576 0.000000 0.000000 0.000000 25.481046 -3.921853 2.683061 18.048042 -36.272917 -7.272503 37.258815 4.808583 0.634027 0.000000 0.000000 0.000000 -24.344296 -5.167579 -1.112781 -13.633613 26.460352 -2.830535 -41.593390 5.620124 -0.464722 0.000000 0.000000 0.000000 
0.008803 0.945010 0.025190 -0.934929 -17.218126 -1.014821 2.049676 0.858659 8.130171 0.100225 0.213136 -6.122236 3.631050 8.733178 9.930966 0.000000 0.000000 0.000000 -5.182654 0.207362 3.360282 1.038832 -0.075723 -0.188702 0.066329 -6.985072 11.968040 0.000000 0.000000 0.000000 8.281042 0.259558 -1.652001 -4.418249 1.378306 -23.165148 -1.285584 16.976334 21.424858 13.246978 -5.623517 -22.265664 0.000000 0.000000 0.000000 29.011130 -6.294834 3.004058 21.045696 -41.386355 -9.877482 45.697578 4.519700 0.604940 0.000000 0.000000 0.000000 -27.738048 -2.672055 -0.774708 -14.503005 29.124227 -3.344955 -49.901625 9.503493 -2.144203 0.000000 0.000000 0.000000 
0.009379 0.945771 0.023604 -0.997060 -17.177221 -1.120211 2.040152 0.822037 7.801900 0.226548 0.173185 -5.516325 3.647441 8.760699 9.988172 0.000000 0.000000 0.000000 -4.739320 0.167471 3.194910 0.273723 -0.018239 -0.056339 0.220443 -7.013430 12.601428 0.000000 0.000000 0.000000 8.434707 0.377272 -2.495189 -4.967635 1.519877 -22.968157 -0.772821 16.666417 21.090289 12.323727 -5.080096 -22.155260 0.000000 0.000000 0.000000 31.314489 -9.044305 3.105318 25.778739 -45.795704 -13.158260 50.753167 2.124202 -0.251215 0.000000 0.000000 0.000000 -30.349561 0.959869 -0.323650 -16.508059 32.409966 -4.301716 -57.731539 14.448223 -5.215498 0.000000 0.000000 0.000000 
0.009662 0.945721 0.022559 -0.881669 -17.193965 -1.405051 1.868338 0.874754 8.178503 0.333749 0.177747 -5.819655 3.618253 8.717329 10.088292 0.000000 0.000000 0.000000 -4.802769 0.159314 3.648294 0.298993 -0.042907 -0.669344 0.044801 -7.477706 12.953580 0.000000 0.000000 0.000000 8.443334 0.447135 -2.968726 -5.358609 1.627133 -23.183614 -0.615283 16.441151 21.857866 12.151433 -4.936571 -22.614927 0.000000 0.000000 0.000000 34.107484 -11.134921 2.939197 28.497158 -48.405943 -15.289272 54.868297 0.485837 -0.976762 0.000000 0.000000 0.000000 -32.616805 2.605484 -0.233944 -18.027828 35.366254 -5.217507 -63.057815 17.989040 -8.027605 0.000000 0.000000 0.000000 
0.009710 0.945120 0.021874 -1.022993 -17.384200 -1.396120 1.679277 0.893462 8.242418 0.905891 0.130943 -5.899469 3.775169 8.968477 9.929375 0.000000 0.000000 0.000000 -4.158131 0.112283 3.259862 -0.605352 0.046291 -0.037674 0.032079 -7.392689 12.609760 0.000000 0.000000 0.000000 8.341185 0.506351 -3.438803 -5.832243 1.745887 -23.048826 -0.041495 15.784082 21.923545 12.403207 -5.220678 -22.592001 0.000000 0.000000 0.000000 34.581025 -12.562991 2.704178 31.817079 -48.721420 -16.492148 56.725311 -1.421910 -1.833346 0.000000 0.000000 0.000000 -33.748654 4.231127 0.056967 -20.234268 36.406377 -6.113944 -66.518533 19.360285 -9.831936 0.000000 0.000000 0.000000 
0.009733 0.945099 0.021329 -0.937223 -17.992092 -1.318878 1.415460 0.907014 8.185707 1.082786 0.115561 -5.920916 4.070306 9.453283 10.096765 0.000000 0.000000 0.000000 -4.255579 0.129409 3.309212 -0.683718 0.026668 -0.583048 0.337611 -6.936158 12.619364 0.000000 0.000000 0.000000 8.340581 0.538675 -3.661352 -6.271433 1.852383 -23.084368 0.162708 16.009932 21.920981 12.583202 -5.621024 -21.295098 0.000000 0.000000 0.000000 36.438677 -13.067472 2.533173 31.951812 -49.032168 -16.616842 57.609412 -2.423652 -2.332550 0.000000 0.000000 0.000000 -34.877891 4.543917 0.101826 -20.511584 36.651916 -6.263454 -69.539864 20.404621 -11.155427 0.000000 0.000000 0.000000 
0.009703 0.944990 0.020890 -0.919748 -18.121131 -1.461623 1.319238 0.941668 8.410733 1.221802 0.111712 -6.070575 4.119856 9.537911 10.139628 0.000000 0.000000 0.000000 -4.340769 0.130339 3.582554 -0.571750 0.005643 -0.889729 0.415583 -6.812746 12.622862 0.000000 0.000000 0.000000 8.200433 0.500793 -3.404164 -6.192972 1.828271 -23.538605 0.370460 16.003483 22.546744 13.084032 -5.932535 -21.512373 0.000000 0.000000 0.000000 37.644049 -12.772952 2.356137 32.100958 -48.369620 -16.279722 57.376516 -1.950599 -2.084523 0.000000 0.000000 0.000000 -35.941414 3.981466 0.051484 -20.650542 35.724065 -6.066622 -70.889726 19.573735 -10.911536 0.000000 0.000000 0.000000 
0.009697 0.945415 0.020658 -0.893392 -18.129489 -0.985334 1.277006 0.892750 8.019076 1.222431 0.128249 -6.353113 4.118899 9.533279 10.406370 0.000000 0.000000 0.000000 -4.349566 0.143695 3.304880 -0.586761 -0.013883 -1.378921 0.469213 -6.839531 12.876129 0.000000 0.000000 0.000000 8.264313 0.533712 -3.715295 -6.163414 1.818510 -23.634675 0.258828 15.954677 22.709605 13.656792 -6.558439 -20.459050 0.000000 0.000000 0.000000 38.572640 -12.194554 2.249217 32.264550 -47.520729 -15.877507 56.343662 -1.073343 -1.607909 0.000000 0.000000 0.000000 -36.608937 3.217674 0.022019 -21.426625 34.302467 -5.861717 -69.600390 18.186504 -9.758101 0.000000 0.000000 0.000000 
0.009783 0.946086 0.020559 -1.048088 -17.892133 -0.790958 1.392566 0.844247 7.696892 1.338624 0.106844 -6.146181 4.032520 9.393956 10.489047 0.000000 0.000000 0.000000 -4.162322 0.117222 3.469036 -0.592530 -0.034869 -1.911176 0.465524 -7.002453 13.289258 0.000000 0.000000 0.000000 8.114229 0.457525 -3.244885 -5.704394 1.702665 -24.036726 0.076314 16.501285 22.844764 14.076348 -6.828317 -20.098619 0.000000 0.000000 0.000000 40.686945 -10.355513 2.360965 31.766137 -46.678363 -15.527540 54.211994 0.951066 -0.694069 0.000000 0.000000 0.000000 -37.881991 1.197706 -0.220086 -20.668862 32.135539 -5.010199 -65.583301 16.535385 -7.653409 0.000000 0.000000 0.000000 
0.010013 0.946687 0.020543 -1.212592 -18.086752 -0.553619 1.232158 0.819517 7.429002 1.842182 0.056114 -6.010138 4.171610 9.626813 10.673504 0.000000 0.000000 0.000000 -4.038987 0.104423 3.588899 -0.559790 -0.061560 -2.574907 0.667715 -6.847103 13.683463 0.000000 0.000000 0.000000 8.204401 0.368906 -2.566505 -5.318765 1.604072 -24.286126 -0.006999 15.928904 22.619498 13.887153 -7.104617 -18.788366 0.000000 0.000000 0.000000 40.655610 -8.356300 2.231508 30.664356 -44.532174 -13.824250 50.673515 3.099788 0.389533 0.000000 0.000000 0.000000 -39.135519 0.648394 0.000706 -20.577216 29.551073 -4.472905 -59.876887 14.118097 -5.649446 0.000000 0.000000 0.000000 
0.010315 0.947398 0.020699 -1.363581 -18.027357 -0.343605 1.477068 0.813879 7.482752 1.659098 0.098605 -6.437746 4.082048 9.494191 10.953356 0.000000 0.000000 0.000000 -4.029607 0.096988 3.764906 -0.317167 -0.094215 -3.197869 0.760037 -6.871191 14.142847 0.000000 0.000000 0.000000 8.077453 0.260675 -1.800653 -4.581673 1.426581 -24.673160 -0.303170 15.923323 22.707233 14.094488 -7.264507 -18.723691 0.000000 0.000000 0.000000 40.277951 -5.834184 2.302888 29.630302 -41.267955 -12.011718 45.535376 5.363575 1.180925 0.000000 0.000000 0.000000 -39.109007 -1.974227 -0.050063 -20.425671 27.854353 -4.015851 -52.820366 10.667003 -3.195830 0.000000 0.000000 0.000000 
0.010652 0.948280 0.021093 -1.549052 -18.642697 0.262514 1.604018 0.750954 6.952094 1.548369 0.103510 -6.388011 4.377559 9.966059 11.318608 0.000000 0.000000 0.000000 -3.943722 0.109952 3.470985 -0.392440 -0.098949 -3.478655 1.349353 -5.747398 13.737114 0.000000 0.000000 0.000000 7.871898 0.138530 -0.952629 -3.558973 1.182663 -25.187474 -0.398725 15.571388 22.290592 13.262201 -6.789258 -18.705845 0.000000 0.000000 0.000000 38.350971 -2.621985 2.162256 27.443102 -37.649147 -9.645018 41.173024 6.799435 1.639610 0.000000 0.000000 0.000000 -38.224929 -4.001902 0.186910 -20.759240 26.123489 -3.783027 -44.577637 6.325442 -1.127526 0.000000 0.000000 0.000000 
0.010607 0.949657 0.021568 -1.817700 -19.353744 1.070919 1.920969 0.719707 6.745245 1.268049 0.175827 -7.203799 4.629927 10.351310 12.102428 0.000000 0.000000 0.000000 -4.004146 0.151312 2.884773 0.104950 -0.123314 -3.746794 1.802790 -5.074121 13.788245 0.000000 0.000000 0.000000 7.891309 0.120183 -0.938613 -2.837115 0.994343 -25.043406 -0.498203 16.356669 22.074663 13.432613 -6.922586 -18.377891 0.000000 0.000000 0.000000 35.559006 -0.578358 2.188886 27.046260 -33.253090 -7.931061 34.497565 8.312674 1.725562 0.000000 0.000000 0.000000 -36.096604 -7.007115 -0.066645 -21.020357 25.143887 -3.551601 -36.942902 1.778682 0.509901 0.000000 0.000000 0.000000 
0.010125 0.950378 0.022251 -2.095501 -19.915569 1.629078 2.422943 0.667446 6.378538 0.755451 0.215831 -7.217747 4.878795 10.717881 12.394705 0.000000 0.000000 0.000000 -3.775012 0.142829 2.791824 0.041481 -0.126626 -4.049501 2.283186 -4.008792 13.214427 0.000000 0.000000 0.000000 7.913553 0.038510 -0.342867 -2.450508 0.913474 -25.503967 -0.625899 16.547102 22.227587 13.032002 -6.779031 -18.011989 0.000000 0.000000 0.000000 32.460377 2.212139 1.843290 26.514713 -30.363526 -6.700624 28.961554 9.721026 1.760118 0.000000 0.000000 0.000000 -33.253231 -8.770652 -0.320537 -20.554579 22.772072 -2.959635 -28.571608 -2.754338 1.363917 0.000000 0.000000 0.000000 
0.009220 0.951288 0.022890 -2.214796 -20.047801 2.387624 2.798915 0.605982 5.930793 0.319587 0.276974 -7.686510 4.893823 10.713079 12.879042 0.000000 0.000000 0.000000 -4.061223 0.196943 2.293335 0.466852 -0.143859 -4.340236 2.960323 -2.944024 13.439062 0.000000 0.000000 0.000000 8.237462 0.006880 -0.185975 -2.646204 0.963762 -25.683699 -0.852446 16.743937 22.320555 13.252379 -6.800132 -18.575587 0.000000 0.000000 0.000000 30.381993 2.841470 1.678280 24.006020 -26.341938 -4.886276 23.039134 10.348862 1.465384 0.000000 0.000000 0.000000 -30.803427 -10.624456 -0.691492 -18.481262 20.428500 -2.250584 -20.862357 -5.028839 1.323528 0.000000 0.000000 0.000000 
0.008263 0.950957 0.023584 -2.651293 -20.339910 2.364333 3.336868 0.618626 6.118592 0.178136 0.275954 -7.470736 5.061306 10.972677 12.652219 0.000000 0.000000 0.000000 -3.755285 0.169621 2.301631 0.599598 -0.143002 -4.190927 3.336067 -2.503192 13.762433 0.000000 0.000000 0.000000 8.416154 -0.109202 0.834762 -2.498573 0.932405 -25.833406 -0.712497 16.710468 22.079066 12.317080 -6.210440 -18.436456 0.000000 0.000000 0.000000 27.247876 3.675662 1.357909 21.644138 -23.940629 -3.801198 17.672797 10.249906 1.074227 0.000000 0.000000 0.000000 -27.899805 -11.445023 -1.007151 -15.704128 17.992918 -1.603061 -14.347998 -6.206791 0.966919 0.000000 0.000000 0.000000 
0.007180 0.950738 0.024226 -2.414044 -19.870892 2.373910 3.186919 0.636283 6.334177 0.225466 0.305097 -8.049379 4.785172 10.553732 12.747852 0.000000 0.000000 0.000000 -3.914463 0.183035 2.264752 0.834462 -0.142482 -3.698676 2.688015 -3.038707 12.792571 0.000000 0.000000 0.000000 8.336193 -0.145903 1.098299 -3.321786 1.076210 -24.349711 -0.793590 14.951489 20.895418 10.858513 -5.304291 -18.804704 0.000000 0.000000 0.000000 24.696839 4.529120 0.827213 18.963687 -22.185022 -2.896081 11.306198 11.530945 0.691205 0.000000 0.000000 0.000000 -25.543719 -12.575472 -0.978706 -11.973494 15.195363 -1.092897 -8.239265 -4.801701 0.401192 0.000000 0.000000 0.000000 
0.006106 0.950447 0.024636 -2.325645 -19.207454 1.996490 3.422776 0.658298 6.676171 -0.058016 0.326286 -8.069111 4.420960 10.005614 12.529780 0.000000 0.000000 0.000000 -3.841194 0.139244 2.999775 0.744851 -0.141574 -3.634252 2.357999 -3.051393 11.914240 0.000000 0.000000 0.000000 8.220612 -0.220457 1.795361 -3.097983 1.004601 -23.484964 -1.359125 13.990200 19.676326 9.961364 -4.615584 -19.467121 0.000000 0.000000 0.000000 21.394645 4.937903 0.476861 17.031471 -20.922559 -2.405803 6.290191 12.493507 0.221269 0.000000 0.000000 0.000000 -22.686020 -13.250458 -1.275830 -9.096327 13.186025 -0.790020 -4.237534 -4.580535 0.134393 0.000000 0.000000 0.000000 
0.004861 0.949423 0.024766 -2.205404 -18.988460 1.779394 2.992708 0.703347 7.007722 0.681332 0.288269 -8.309106 4.364412 9.931141 12.318069 0.000000 0.000000 0.000000 -4.187005 0.172536 2.936580 1.094577 -0.139620 -2.848271 2.379894 -2.496474 11.091948 0.000000 0.000000 0.000000 8.058355 -0.271863 2.301888 -2.852575 0.949034 -23.424811 -1.386565 13.955566 19.430745 9.933532 -4.570816 -19.460249 0.000000 0.000000 0.000000 19.556050 5.025314 0.346724 14.381032 -20.943658 -2.249890 4.279513 14.576449 -0.012824 0.000000 0.000000 0.000000 -20.867859 -13.811388 -1.641144 -6.464857 11.950813 -0.643355 -1.807410 -6.491015 -0.048930 0.000000 0.000000 0.000000 
0.003455 0.949118 0.024673 -2.073107 -18.229257 1.272996 2.992512 0.772507 7.739262 0.821158 0.314614 -8.871547 3.924821 9.271992 12.296806 0.000000 0.000000 0.000000 -4.296429 0.152930 3.441289 1.141446 -0.138808 -2.534156 2.287204 -2.420673 10.828711 0.000000 0.000000 0.000000 7.966991 -0.328383 2.915629 -2.884749 0.966549 -23.323928 -1.660774 13.399121 19.161921 9.775380 -4.558154 -19.012604 0.000000 0.000000 0.000000 18.647882 4.854541 0.301704 12.335449 -20.286089 -1.985177 2.689539 14.643851 -0.219190 0.000000 0.000000 0.000000 -18.833362 -14.434459 -2.046920 -5.048395 10.889679 -0.550714 -0.975192 -7.930155 -0.149867 0.000000 0.000000 0.000000 
0.002098 0.949122 0.024466 -2.025194 -17.373657 1.145285 3.150311 0.751594 7.732652 0.831834 0.312323 -8.858315 3.511018 8.646894 12.185401 0.000000 0.000000 0.000000 -4.253473 0.135504 3.406465 1.235836 -0.135392 -2.018230 1.985035 -2.839537 10.746340 0.000000 0.000000 0.000000 7.625103 -0.350223 3.157908 -2.659758 0.932758 -23.479591 -1.740443 12.647522 19.266660 9.419250 -4.432191 -18.627795 0.000000 0.000000 0.000000 18.294048 5.402748 0.128995 10.385861 -20.126607 -1.835208 2.314590 14.772155 -0.266637 0.000000 0.000000 0.000000 -17.503212 -14.902678 -2.312165 -4.298636 10.257656 -0.509444 0.302618 -9.716898 -0.332511 0.000000 0.000000 0.000000 
0.000953 0.948734 0.024147 -1.868348 -16.473929 1.162038 2.938516 0.712275 7.409878 1.268414 0.273870 -8.668387 3.151557 8.091823 11.954696 0.000000 0.000000 0.000000 -4.373587 0.127481 3.625389 1.093594 -0.131934 -2.034928 2.073499 -2.322333 10.319072 0.000000 0.000000 0.000000 7.246416 -0.324833 2.911228 -2.361615 0.865431 -23.195733 -1.782801 12.329986 19.030169 9.297983 -4.356094 -18.423031 0.000000 0.000000 0.000000 17.979160 5.685471 0.108189 8.571149 -20.447717 -1.802823 2.073284 14.802939 -0.300921 0.000000 0.000000 0.000000 -16.651784 -15.816591 -2.672825 -3.611389 9.892538 -0.495367 0.011521 -10.542352 -0.325388 0.000000 0.000000 0.000000 
0.000186 0.948128 0.023803 -1.872131 -16.075376 1.090694 2.732765 0.688394 7.149855 1.835705 0.208347 -8.195493 3.071888 7.951890 11.590962 0.000000 0.000000 0.000000 -4.158244 0.096722 3.694455 0.569418 -0.103051 -1.957735 2.287217 -1.825775 10.242946 0.000000 0.000000 0.000000 7.266879 -0.349329 3.155778 -2.424013 0.896549 -23.455290 -1.781570 12.251401 19.331576 8.990575 -4.153150 -18.365595 0.000000 0.000000 0.000000 17.916946 6.215707 0.019724 6.467055 -20.055388 -1.638316 2.528572 14.372159 -0.231690 0.000000 0.000000 0.000000 -15.841060 -16.564267 -3.009387 -3.154920 9.209364 -0.448587 0.101558 -10.722743 -0.341760 0.000000 0.000000 0.000000 
-0.000124 0.947885 0.023417 -1.775243 -15.782632 1.093341 2.625751 0.657808 6.848079 1.956053 0.176486 -7.836128 2.984846 7.804928 11.402208 0.000000 0.000000 0.000000 -3.990067 0.082542 3.531110 0.175653 -0.079343 -1.891704 2.168251 -2.166436 10.482980 0.000000 0.000000 0.000000 7.327448 -0.359231 3.224753 -2.402416 0.903590 -23.707989 -1.850899 12.381434 19.863239 8.935990 -4.159219 -17.999734 0.000000 0.000000 0.000000 17.244864 6.888262 -0.161877 4.330260 -19.682831 -1.501179 3.418914 14.443854 -0.121502 0.000000 0.000000 0.000000 -15.265390 -17.537083 -3.398709 -2.760038 8.914030 -0.438397 -0.285976 -11.091746 -0.305478 0.000000 0.000000 0.000000 
-0.000045 0.947397 0.023142 -1.841373 -15.444396 1.250280 2.779723 0.627475 6.667038 1.880265 0.186934 -7.910542 2.852074 7.585932 11.204356 0.000000 0.000000 0.000000 -4.063085 0.088468 3.467049 0.530478 -0.107909 -2.149667 2.005693 -2.583975 10.756886 0.000000 0.000000 0.000000 7.426391 -0.330328 2.866773 -2.257509 0.856059 -23.084186 -2.087300 12.171363 19.576764 8.778049 -4.053972 -17.922922 0.000000 0.000000 0.000000 16.645086 7.928803 -0.414612 2.469946 -19.148710 -1.364115 3.376161 15.279211 -0.139284 0.000000 0.000000 0.000000 -14.970073 -18.193856 -3.595215 -2.856003 8.780239 -0.424439 0.262561 -11.885761 -0.398955 0.000000 0.000000 0.000000 
0.000349 0.947363 0.022864 -1.646984 -15.050719 1.271198 2.734728 0.629188 6.725599 1.646246 0.228686 -8.314034 2.610770 7.219915 11.304782 0.000000 0.000000 0.000000 -3.996897 0.079506 3.422032 0.791728 -0.124957 -2.220607 0.854185 -4.691337 10.713827 0.000000 0.000000 0.000000 7.585035 -0.338748 2.893159 -2.305109 0.883420 -23.389330 -2.231383 11.944887 20.106703 8.836217 -4.207061 -17.379279 0.000000 0.000000 0.000000 16.056104 8.977374 -0.735268 0.264077 -17.978106 -1.194098 3.524827 15.637192 -0.122843 0.000000 0.000000 0.000000 -14.532709 -18.902743 -3.864998 -2.771895 8.600087 -0.414035 0.356190 -12.369084 -0.429409 0.000000 0.000000 0.000000 
0.000931 0.947325 0.022563 -1.421694 -14.923199 1.346899 2.579194 0.640701 6.801453 1.462524 0.271578 -8.799629 2.488602 7.046736 11.490956 0.000000 0.000000 0.000000 -4.008960 0.081705 3.388578 1.231021 -0.156671 -2.574871 -0.413171 -7.063091 10.801778 0.000000 0.000000 0.000000 7.632412 -0.314299 2.620173 -2.396198 0.896817 -22.925131 -2.471462 12.092973 20.019093 8.901521 -4.216432 -17.369066 0.000000 0.000000 0.000000 15.372963 10.222718 -1.053050 -1.215067 -17.638987 -1.138545 3.465486 16.520540 -0.148413 0.000000 0.000000 0.000000 -14.321178 -19.414600 -4.064949 -2.424961 8.100463 -0.388055 0.220907 -12.512269 -0.413736 0.000000 0.000000 0.000000 
0.001416 0.947141 0.021873 -1.144617 -15.135010 1.391527 2.408784 0.652179 6.814380 1.152819 0.307110 -9.083259 2.537607 7.123428 11.640242 0.000000 0.000000 0.000000 -3.941792 0.082829 3.321789 1.090433 -0.158635 -3.012820 -1.169156 -8.525791 10.947847 0.000000 0.000000 0.000000 7.762680 -0.309825 2.549207 -2.658488 0.939982 -22.252608 -2.812261 12.627718 19.560014 9.400952 -4.463997 -17.440747 0.000000 0.000000 0.000000 14.606192 10.608124 -1.166063 -1.426577 -16.017430 -1.030165 2.811917 16.901130 -0.264036 0.000000 0.000000 0.000000 -13.804248 -20.065773 -4.373262 -2.578033 8.092837 -0.379171 0.432496 -12.116350 -0.424991 0.000000 0.000000 0.000000 
0.001930 0.947329 0.020353 -0.909385 -15.280460 1.222161 2.456220 0.655491 6.829825 0.582269 0.336000 -9.047862 2.539241 7.131170 11.766715 0.000000 0.000000 0.000000 -3.988745 0.085881 3.389373 1.116539 -0.169409 -3.490687 -1.735712 -9.780349 11.545190 0.000000 0.000000 0.000000 7.716498 -0.294500 2.454890 -3.178427 1.060294 -21.338503 -3.043428 13.042219 19.058852 9.679066 -4.480019 -17.977959 0.000000 0.000000 0.000000 14.379660 11.104932 -1.229013 -1.608976 -15.503755 -0.992762 3.572406 16.795044 -0.156613 0.000000 0.000000 0.000000 -13.439045 -19.742627 -4.411445 -2.161368 7.702796 -0.366589 -0.185643 -11.287611 -0.316167 0.000000 0.000000 0.000000 
0.002289 0.947449 0.017810 -0.924925 -16.049231 1.221842 2.561897 0.643525 6.648822 0.288835 0.340440 -8.812867 2.898688 7.677479 11.869461 0.000000 0.000000 0.000000 -3.838215 0.117231 2.535364 0.760233 -0.126680 -2.472061 -1.467175 -9.273079 11.219890 0.000000 0.000000 0.000000 7.508013 -0.332940 2.887024 -3.139734 1.033227 -21.403384 -3.201302 14.263075 19.091744 10.519126 -4.768616 -18.801276 0.000000 0.000000 0.000000 14.040474 10.652146 -1.079875 -0.367457 -14.624816 -0.942706 4.650591 17.489721 -0.024495 0.000000 0.000000 0.000000 -12.760395 -19.474533 -4.601873 -2.271192 8.111364 -0.389796 -1.284289 -10.112749 -0.152541 0.000000 0.000000 0.000000 
0.002454 0.947619 0.014392 -0.919360 -16.269405 1.474928 2.605798 0.607192 6.296201 0.225795 0.356531 -9.018831 2.990711 7.828259 12.113344 0.000000 0.000000 0.000000 -3.399112 0.092665 2.310784 0.017875 -0.106226 -3.023783 -1.331907 -9.132125 11.380900 0.000000 0.000000 0.000000 7.419513 -0.315787 2.680785 -3.815964 1.205341 -20.625668 -3.294916 14.406934 18.336465 10.110237 -4.405355 -19.081621 0.000000 0.000000 0.000000 14.108504 10.697090 -1.030858 1.328632 -14.501021 -0.928899 6.238150 16.800257 0.210181 0.000000 0.000000 0.000000 -13.065737 -18.052788 -4.184133 -2.259909 8.827929 -0.444783 -2.312510 -9.300689 -0.024083 0.000000 0.000000 0.000000 
0.002251 0.947538 0.010766 -0.910608 -16.701920 1.714466 2.677625 0.524483 5.446821 0.115939 0.321865 -8.272832 3.283030 8.254857 12.021109 0.000000 0.000000 0.000000 -3.047951 0.105624 1.556562 -0.562012 -0.065772 -2.671102 -1.187305 -8.869528 11.207465 0.000000 0.000000 0.000000 7.132567 -0.266758 2.195656 -4.294945 1.326046 -20.177401 -3.199610 15.429891 18.393361 10.837032 -4.743199 -19.232300 0.000000 0.000000 0.000000 14.850059 10.147749 -0.668779 3.285936 -16.117746 -1.122730 9.117906 17.360799 0.612530 0.000000 0.000000 0.000000 -13.148417 -17.490906 -4.158112 -2.402822 10.364680 -0.556182 -4.327043 -6.612885 0.176985 0.000000 0.000000 0.000000 
0.001757 0.947312 0.007268 -0.967762 -17.427608 1.578696 2.767003 0.537566 5.499273 0.089776 0.323072 -8.248676 3.628513 8.774989 12.124903 0.000000 0.000000 0.000000 -2.835017 0.097593 1.477278 -0.796419 -0.058896 -2.806651 -0.854753 -8.300041 11.070820 0.000000 0.000000 0.000000 6.980422 -0.260701 2.223654 -4.684027 1.421204 -19.709928 -3.010410 16.017633 17.892478 10.760393 -4.904691 -17.977210 0.000000 0.000000 0.000000 15.382914 8.969313 -0.275287 5.494503 -16.402768 -1.213273 12.327487 15.407808 0.950457 0.000000 0.000000 0.000000 -13.821155 -16.100536 -3.738569 -2.791298 13.343505 -0.780009 -7.607711 -4.772215 0.399694 0.000000 0.000000 0.000000 
0.000986 0.946200 0.004040 -0.845407 -17.231602 1.184071 3.106643 0.513892 5.312136 -0.491472 0.330546 -7.588440 3.562583 8.659312 11.622700 0.000000 0.000000 0.000000 -2.530426 0.052872 1.766646 -1.346284 -0.034459 -2.882940 -1.038297 -8.442146 10.692335 0.000000 0.000000 0.000000 6.540911 -0.173956 1.472082 -5.106108 1.574094 -17.589947 -3.171349 16.331235 16.471181 11.787381 -5.511519 -17.756036 0.000000 0.000000 0.000000 16.180933 7.856576 0.270653 8.662759 -19.583985 -1.856346 17.637581 12.270565 1.222074 0.000000 0.000000 0.000000 -14.446436 -14.683764 -3.388919 -4.818481 16.310762 -1.033129 -10.725347 -2.505118 0.496658 0.000000 0.000000 0.000000 
0.000192 0.945054 0.000621 -0.561974 -17.385202 0.390328 2.891052 0.520636 5.232247 -0.437484 0.270686 -6.367790 3.724947 8.885415 11.044740 0.000000 0.000000 0.000000 -3.111485 0.090785 1.909856 -0.661334 -0.039172 -2.119707 -1.130227 -8.308011 9.987569 0.000000 0.000000 0.000000 6.160874 -0.127926 1.187048 -5.416866 1.706229 -15.859537 -3.618554 16.870643 14.526266 12.009119 -5.753973 -16.732329 0.000000 0.000000 0.000000 16.735219 5.244073 1.076157 11.638850 -22.658688 -2.716615 26.663954 7.677236 1.041972 0.000000 0.000000 0.000000 -15.672761 -11.762585 -2.672595 -6.016449 19.975357 -1.393961 -17.298418 1.117273 0.469519 0.000000 0.000000 0.000000 
-0.000431 0.943640 -0.002822 -0.349141 -17.351520 -0.490639 3.068104 0.609023 6.092288 -0.914902 0.324552 -6.650711 3.624739 8.726328 10.759132 0.000000 0.000000 0.000000 -3.280709 0.070188 2.530155 -0.575774 -0.037308 -1.953680 -1.270552 -8.286803 9.395409 0.000000 0.000000 0.000000 5.925684 -0.085849 0.931519 -6.160976 1.996087 -14.932949 -3.673576 18.125759 13.584287 12.928612 -6.492416 -15.489325 0.000000 0.000000 0.000000 19.566239 1.594871 2.415188 12.866248 -27.178177 -3.987785 35.091174 3.661786 0.040432 0.000000 0.000000 0.000000 -17.570687 -8.706403 -2.124505 -7.643625 21.879347 -1.590799 -23.579522 8.353014 -0.485265 0.000000 0.000000 0.000000 
-0.000959 0.942909 -0.006134 0.002799 -17.093681 -1.265974 2.773535 0.610880 5.997315 -0.809276 0.273297 -5.584374 3.568808 8.619074 10.331508 0.000000 0.000000 0.000000 -3.672775 0.075230 3.051444 -0.330536 -0.046542 -1.829256 -1.463301 -8.455607 9.030770 0.000000 0.000000 0.000000 6.294114 -0.030041 0.541064 -6.917395 2.289142 -14.575105 -4.114630 18.382167 13.192338 14.111201 -7.326613 -15.237294 0.000000 0.000000 0.000000 21.300036 -0.473852 3.054609 14.836478 -32.826086 -5.867126 43.661200 -3.928011 -2.921404 0.000000 0.000000 0.000000 -21.154483 -5.066987 -1.379521 -8.434187 24.088766 -1.811791 -34.318913 19.333749 -3.564556 0.000000 0.000000 0.000000 
-0.001404 0.943061 -0.009051 -0.226522 -16.123781 -1.677408 3.617911 0.666459 6.889401 -1.536035 0.380829 -6.789797 2.919535 7.608104 10.578399 0.000000 0.000000 0.000000 -3.595949 0.011854 4.061098 0.251166 -0.109477 -2.738786 -1.753403 -9.094563 9.476804 0.000000 0.000000 0.000000 6.725701 0.034937 0.036616 -8.102169 2.810688 -13.357980 -4.277282 18.383631 12.051931 15.366593 -8.094544 -15.233223 0.000000 0.000000 0.000000 25.408637 -4.712591 4.189191 16.837756 -37.769316 -8.024682 51.277615 -10.524260 -6.747464 0.000000 0.000000 0.000000 -25.976805 -1.700769 -0.912381 -8.589186 26.755210 -1.967397 -44.515103 28.474206 -7.901537 0.000000 0.000000 0.000000 
-0.001884 0.943021 -0.011294 -0.423283 -16.074054 -1.912884 3.846949 0.661097 6.880918 -1.424872 0.359717 -6.459529 2.917192 7.599712 10.453091 0.000000 0.000000 0.000000 -3.158831 -0.044222 4.349805 -0.030774 -0.101057 -2.911439 -1.744695 -9.100769 9.542336 0.000000 0.000000 0.000000 6.772513 0.009735 0.339049 -8.707890 2.984997 -14.200874 -3.725343 18.665783 11.637558 15.951712 -8.587265 -14.822093 0.000000 0.000000 0.000000 27.286518 -8.109151 4.686411 22.086384 -42.604699 -11.527260 54.696410 -15.512882 -9.627563 0.000000 0.000000 0.000000 -31.411722 1.635555 -0.612981 -11.661585 30.420616 -2.652658 -53.419636 30.342780 -10.660588 0.000000 0.000000 0.000000 
-0.002482 0.943503 -0.012736 -0.406028 -15.976172 -1.439568 3.866641 0.613127 6.438544 -1.393184 0.367849 -6.788438 2.860524 7.533124 10.802824 0.000000 0.000000 0.000000 -3.643729 0.003892 4.355581 0.952886 -0.170932 -3.994293 -1.657230 -9.129706 10.043344 0.000000 0.000000 0.000000 6.816631 0.023046 0.109015 -9.529310 3.188692 -15.583798 -3.472479 18.894264 11.767211 15.676503 -8.623195 -13.955157 0.000000 0.000000 0.000000 31.973779 -10.047937 5.005668 25.075757 -46.477454 -14.498446 56.800037 -14.605945 -9.508089 0.000000 0.000000 0.000000 -36.398853 3.072456 -0.603011 -15.260742 32.645031 -3.429161 -57.204557 27.886740 -10.300089 0.000000 0.000000 0.000000 
-0.003043 0.944410 -0.013488 -0.653564 -16.126981 -1.265551 3.876636 0.567484 5.924502 -0.890856 0.299659 -6.120787 3.006039 7.765050 10.886087 0.000000 0.000000 0.000000 -3.063896 -0.028310 3.866892 0.452425 -0.138149 -3.443819 -1.564220 -9.044524 10.178893 0.000000 0.000000 0.000000 6.765470 -0.046873 0.740777 -9.818013 3.103212 -18.334276 -3.324055 19.475310 13.604954 16.490061 -9.496087 -13.304748 0.000000 0.000000 0.000000 33.666845 -10.027485 4.946201 29.033630 -48.553782 -17.355073 58.141710 -11.164794 -7.910536 0.000000 0.000000 0.000000 -38.614923 3.202032 -0.867647 -20.415966 32.613056 -4.194904 -57.752511 20.280405 -6.632674 0.000000 0.000000 0.000000 
-0.003545 0.945452 -0.013666 -0.917249 -16.729864 -0.531858 3.892586 0.510524 5.264391 -0.492373 0.262982 -6.081985 3.337129 8.297945 11.303510 0.000000 0.000000 0.000000 -3.229481 0.025137 3.245649 1.240180 -0.173899 -3.810037 -1.162724 -8.574723 10.655106 0.000000 0.000000 0.000000 7.287982 -0.001232 0.229814 -10.904896 3.338037 -19.926895 -2.893909 19.795415 14.785927 15.710567 -9.754858 -10.872258 0.000000 0.000000 0.000000 34.289064 -8.950253 4.788133 29.903614 -50.508140 -18.731837 57.447647 -4.650184 -4.314190 0.000000 0.000000 0.000000 -40.394546 2.312667 -0.884133 -22.662232 31.425751 -4.321668 -57.830184 14.225816 -3.616063 0.000000 0.000000 0.000000 
-0.004089 0.946147 -0.013313 -1.018105 -16.428758 -0.342871 3.840053 0.503638 5.259304 -0.117554 0.245276 -6.425986 3.180863 8.075917 11.574571 0.000000 0.000000 0.000000 -3.721742 0.057127 3.503545 2.410931 -0.218885 -4.463204 -1.163822 -8.744290 11.166402 0.000000 0.000000 0.000000 7.369554 0.011720 0.066502 -11.619008 3.504733 -20.811992 -3.025798 20.202678 15.498735 15.371426 -9.603959 -10.482445 0.000000 0.000000 0.000000 33.174789 -7.546414 4.833094 30.064191 -50.549769 -19.050102 57.218557 1.546640 -1.289026 0.000000 0.000000 0.000000 -39.989537 0.455413 -1.120200 -24.974301 30.007526 -4.200289 -55.095535 9.686253 -1.188499 0.000000 0.000000 0.000000 
-0.004592 0.946975 -0.012461 -0.878150 -16.627763 0.055981 3.225697 0.485123 4.972093 0.682891 0.189153 -6.619530 3.306402 8.288868 12.017291 0.000000 0.000000 0.000000 -4.073984 0.096048 3.546648 2.783716 -0.225565 -5.351788 -0.961349 -8.597905 11.653040 0.000000 0.000000 0.000000 7.233903 0.006184 0.007162 -11.375441 3.278789 -23.159901 -2.949097 20.950643 17.089062 15.427957 -9.911636 -9.796825 0.000000 0.000000 0.000000 30.720978 -5.880515 4.633971 26.907618 -50.244135 -17.521504 58.840598 3.821677 -0.369829 0.000000 0.000000 0.000000 -39.159549 -0.615697 -1.437831 -25.885999 28.623806 -3.845661 -55.559544 6.368031 0.420878 0.000000 0.000000 0.000000 
-0.005293 0.947391 -0.011404 -0.869400 -16.373841 0.135423 3.170681 0.485649 5.015115 0.848817 0.185875 -6.792565 3.168252 8.090520 12.165874 0.000000 0.000000 0.000000 -4.057625 0.081744 3.836035 2.820210 -0.226937 -5.825395 -1.015678 -8.766870 11.911750 0.000000 0.000000 0.000000 7.069310 0.012655 -0.106910 -11.300760 3.240124 -23.507172 -3.089368 21.584620 16.963573 15.580616 -10.464437 -8.416240 0.000000 0.000000 0.000000 28.626508 -4.759601 4.658028 24.435923 -49.658183 -16.336032 60.940044 5.280198 0.108132 0.000000 0.000000 0.000000 -37.625383 -1.599944 -1.705814 -27.504721 27.143792 -3.477018 -54.340993 3.735967 1.718093 0.000000 0.000000 0.000000 
-0.006039 0.947524 -0.010504 -0.788393 -16.755431 -0.069452 2.660490 0.537309 5.398366 1.599975 0.134228 -6.890925 3.362427 8.397369 12.336604 0.000000 0.000000 0.000000 -4.183721 0.090856 4.085715 2.886765 -0.223378 -5.885264 -0.836071 -8.462633 11.863124 0.000000 0.000000 0.000000 6.749332 -0.071700 0.710278 -10.841249 3.008047 -25.781410 -2.738116 22.173293 18.674066 15.414331 -10.340917 -8.522548 0.000000 0.000000 0.000000 27.018841 -3.279722 4.336820 22.997055 -47.873665 -14.904183 63.834908 7.045114 0.863820 0.000000 0.000000 0.000000 -36.311291 -2.071028 -1.969217 -28.864209 26.274351 -3.274551 -54.536271 0.219585 3.243347 0.000000 0.000000 0.000000 
-0.006460 0.948173 -0.010058 -0.641675 -16.821571 -0.002281 2.562806 0.543454 5.437274 1.514040 0.153586 -7.097714 3.341021 8.380379 12.661347 0.000000 0.000000 0.000000 -4.400783 0.108966 4.310262 3.023753 -0.219671 -6.459881 -0.729263 -8.410944 12.193210 0.000000 0.000000 0.000000 6.661223 -0.088353 0.854004 -10.717958 2.966938 -26.012042 -2.558434 21.950483 18.574810 15.124202 -10.317266 -7.972589 0.000000 0.000000 0.000000 26.813457 -1.695317 4.105627 23.368276 -45.522198 -13.865737 62.271526 9.893521 2.373176 0.000000 0.000000 0.000000 -35.656903 -2.752934 -1.936217 -29.951023 25.817242 -3.264084 -54.031268 -2.348715 4.258257 0.000000 0.000000 0.000000 
-0.006350 0.948573 -0.010261 -0.756518 -16.110579 0.038818 2.952835 0.529090 5.468721 1.153030 0.199253 -7.398074 2.938949 7.797166 12.710094 0.000000 0.000000 0.000000 -4.134279 0.064081 4.432395 2.306973 -0.222807 -5.869544 -0.209893 -7.004089 11.226840 0.000000 0.000000 0.000000 6.374731 -0.118883 1.133352 -9.879706 2.785430 -25.356073 -2.619224 21.708162 17.722616 14.943564 -9.766186 -8.946429 0.000000 0.000000 0.000000 28.250046 -0.515933 4.297926 26.670541 -43.443252 -14.288673 59.511586 13.369149 3.961806 0.000000 0.000000 0.000000 -36.015735 -3.203189 -1.958026 -30.469211 25.559697 -3.157071 -51.877814 -4.011836 4.864437 0.000000 0.000000 0.000000 
-0.005820 0.949128 -0.011273 -0.692234 -15.865903 0.217216 2.835536 0.517266 5.364356 1.241976 0.218596 -7.803709 2.775613 7.584059 13.020103 0.000000 0.000000 0.000000 -3.996664 0.056221 4.167140 1.911883 -0.219015 -5.886625 -0.238711 -7.151438 11.482178 0.000000 0.000000 0.000000 6.423473 -0.129847 1.204171 -9.449497 2.691903 -24.923687 -2.379167 21.130797 17.696334 14.079113 -9.315175 -8.261308 0.000000 0.000000 0.000000 31.065536 0.754119 4.388467 30.097498 -40.239848 -13.921109 53.689520 15.812036 4.692117 0.000000 0.000000 0.000000 -36.852564 -3.882847 -1.831960 -31.307994 25.359717 -3.218047 -50.068622 -5.843243 5.335597 0.000000 0.000000 0.000000 
-0.005000 0.949447 -0.013060 -0.909125 -15.545089 0.175683 3.218435 0.473997 5.016252 0.986866 0.206340 -7.309388 2.642894 7.383981 12.861795 0.000000 0.000000 0.000000 -3.811905 0.025094 4.326565 1.991280 -0.224188 -5.958200 -0.277412 -7.177051 11.470358 0.000000 0.000000 0.000000 6.409752 -0.188091 1.811812 -8.685171 2.498947 -24.939805 -1.754065 20.836896 17.726083 13.461021 -9.113492 -7.339043 0.000000 0.000000 0.000000 34.564697 1.234461 4.695358 32.706165 -37.461796 -13.463465 48.010345 17.413783 4.779285 0.000000 0.000000 0.000000 -37.803640 -4.685992 -1.774002 -32.134746 25.431634 -3.305916 -46.523762 -5.748181 4.792407 0.000000 0.000000 0.000000 
-0.004265 0.949432 -0.015456 -1.181996 -15.170350 0.133569 3.397816 0.456982 4.907146 1.235236 0.188464 -7.298178 2.486830 7.154694 12.764687 0.000000 0.000000 0.000000 -3.400660 -0.012559 4.080531 1.751872 -0.220225 -5.513688 -0.355840 -7.303460 11.509993 0.000000 0.000000 0.000000 6.679163 -0.225352 2.184983 -7.949783 2.335107 -24.076735 -1.573208 19.994653 17.305901 12.803177 -8.502026 -7.622232 0.000000 0.000000 0.000000 37.651216 1.831702 4.852175 35.195916 -35.287599 -13.027555 41.820679 17.511724 4.255156 0.000000 0.000000 0.000000 -38.842864 -4.895130 -1.504704 -33.724616 25.348922 -3.521029 -42.383751 -5.841787 4.179173 0.000000 0.000000 0.000000 
-0.003961 0.949338 -0.017994 -1.630921 -14.536292 0.334025 4.023175 0.400889 4.469218 1.111397 0.190539 -7.177363 2.217192 6.746819 12.557889 0.000000 0.000000 0.000000 -2.422411 -0.070152 3.288896 1.073038 -0.193797 -4.631962 -0.821541 -8.186393 11.740432 0.000000 0.000000 0.000000 6.552336 -0.228982 2.184742 -7.286670 2.202316 -22.283420 -1.000909 18.863849 15.823998 12.291659 -8.588331 -6.014501 0.000000 0.000000 0.000000 40.052421 1.629165 5.046104 36.149444 -33.726635 -12.356789 36.213086 16.381508 3.453787 0.000000 0.000000 0.000000 -39.474896 -4.710210 -1.089520 -35.109029 25.285226 -3.803610 -39.175301 -5.390248 3.557046 0.000000 0.000000 0.000000 
-0.004272 0.949129 -0.020383 -1.920558 -14.398322 0.690796 4.604088 0.323762 3.584413 0.746954 0.177983 -6.463119 2.227245 6.734012 12.289647 0.000000 0.000000 0.000000 -1.724013 -0.051354 2.058671 0.390840 -0.133451 -3.191434 -0.846067 -8.080046 11.346719 0.000000 0.000000 0.000000 6.810356 -0.189980 1.686369 -6.955634 2.155011 -20.395172 -0.668084 18.278951 14.435549 11.163583 -7.604567 -6.061901 0.000000 0.000000 0.000000 41.552075 1.663916 5.218985 37.249017 -33.331184 -12.372485 31.876078 14.714921 2.700480 0.000000 0.000000 0.000000 -40.461051 -4.828325 -0.713922 -36.160659 25.854790 -4.260858 -36.086496 -4.985725 3.070271 0.000000 0.000000 0.000000 
-0.005080 0.948799 -0.022306 -2.194528 -13.788205 0.799906 5.078108 0.283032 3.148363 0.665103 0.169718 -6.170488 1.979422 6.344240 12.043744 0.000000 0.000000 0.000000 -1.152494 -0.086755 1.932096 -0.037516 -0.092790 -2.565324 -0.875281 -7.656721 10.331293 0.000000 0.000000 0.000000 6.879995 -0.142373 1.175920 -6.456905 2.046991 -19.231650 -0.354962 17.854813 13.821491 10.533487 -7.469724 -4.684741 0.000000 0.000000 0.000000 42.166292 0.683910 5.308482 38.006672 -33.632736 -12.775057 28.602227 12.954425 2.077268 0.000000 0.000000 0.000000 -40.586898 -3.988988 -0.627292 -36.467023 26.024123 -4.380181 -34.881986 -3.878387 2.627133 0.000000 0.000000 0.000000 
-0.006134 0.948048 -0.023818 -2.325232 -13.237908 0.765721 5.362421 0.237281 2.524394 0.655187 0.126747 -5.267311 1.816637 6.043164 11.530225 0.000000 0.000000 0.000000 -0.764693 -0.070503 1.345211 -0.420734 -0.026291 -1.423410 -1.008834 -7.702940 9.951488 0.000000 0.000000 0.000000 6.863212 -0.112533 0.877305 -6.287104 2.018937 -18.793425 -0.014462 17.138209 13.652087 10.046098 -7.070027 -4.726298 0.000000 0.000000 0.000000 42.672880 -0.468166 5.190164 38.767980 -34.979927 -13.606150 27.996946 11.396437 1.773779 0.000000 0.000000 0.000000 -40.895333 -3.308097 -0.461344 -36.478948 27.322198 -5.000855 -33.495725 -3.372127 2.322419 0.000000 0.000000 0.000000 
-0.006935 0.947725 -0.024957 -2.379629 -12.832146 0.210877 5.261333 0.251999 2.743992 1.132516 0.063067 -4.806384 1.657392 5.773487 11.251890 0.000000 0.000000 0.000000 -0.765447 -0.101879 1.729889 -0.346582 -0.003885 -0.765169 -0.940146 -7.269266 9.337483 0.000000 0.000000 0.000000 6.943499 -0.130012 1.157491 -6.260708 2.025269 -18.745150 0.302177 16.826293 14.044636 9.533916 -6.601785 -4.937042 0.000000 0.000000 0.000000 41.852760 -1.976019 5.002201 39.264542 -36.174354 -14.389285 27.591640 9.299394 1.355706 0.000000 0.000000 0.000000 -39.986240 -2.488983 -0.547903 -36.133097 28.111216 -5.275945 -34.582966 -2.419193 2.117648 0.000000 0.000000 0.000000 
-0.007441 0.947550 -0.025909 -2.346491 -12.033239 -0.011270 5.493704 0.232900 2.574534 0.851278 0.073615 -4.470586 1.275011 5.173085 11.055107 0.000000 0.000000 0.000000 -0.665791 -0.106597 1.673879 -0.520729 0.046472 0.046750 -1.147803 -7.383372 8.837017 0.000000 0.000000 0.000000 6.840697 -0.128432 1.165385 -6.008500 1.974410 -18.512693 0.037258 16.047564 13.947922 9.020832 -5.998237 -5.693213 0.000000 0.000000 0.000000 40.446506 -3.688695 4.795269 40.248536 -38.088925 -15.705184 28.841752 8.322339 1.257081 0.000000 0.000000 0.000000 -38.566734 -1.268744 -0.523838 -35.438778 29.284270 -5.726794 -37.333909 -1.622899 2.043322 0.000000 0.000000 0.000000 
-0.007596 0.947219 -0.026860 -2.106870 -11.612420 -0.190450 5.033536 0.218362 2.394982 1.300295 0.018197 -4.156946 1.120449 4.919353 10.920987 0.000000 0.000000 0.000000 -0.873555 -0.074518 1.407260 -0.533371 0.084265 0.814752 -1.371785 -7.641753 8.495350 0.000000 0.000000 0.000000 6.847149 -0.082766 0.744109 -5.917676 1.979537 -17.620935 -0.103175 14.579821 13.387193 9.181679 -5.910523 -6.883548 0.000000 0.000000 0.000000 38.497711 -5.985343 4.356670 39.060557 -39.296609 -15.493144 28.685576 6.243014 0.901349 0.000000 0.000000 0.000000 -37.754600 -0.199243 -0.153594 -35.019987 31.316734 -6.769813 -40.545754 -1.534780 2.076898 0.000000 0.000000 0.000000 
-0.007618 0.946674 -0.027813 -2.067929 -11.703594 -0.419872 4.741706 0.235848 2.611684 1.764041 -0.023142 -4.185436 1.194512 5.012327 10.797521 0.000000 0.000000 0.000000 -1.062467 -0.090185 1.752925 -0.134500 0.026386 0.326579 -1.512383 -7.998563 8.693734 0.000000 0.000000 0.000000 6.925329 -0.086203 0.831015 -5.394178 1.787029 -18.994243 -0.139611 14.284017 15.395881 9.409139 -5.720005 -8.758390 0.000000 0.000000 0.000000 36.718254 -7.733233 3.967904 38.756488 -40.783732 -15.998414 28.880570 4.817980 0.622000 0.000000 0.000000 0.000000 -36.397385 0.830458 -0.230175 -33.736659 32.911494 -7.248755 -46.181513 -0.248566 1.808589 0.000000 0.000000 0.000000 
-0.007505 0.945515 -0.028978 -1.720673 -11.438019 -0.765297 4.175235 0.247646 2.761874 2.155300 -0.060458 -4.140115 1.118817 4.848418 10.513685 0.000000 0.000000 0.000000 -1.504121 -0.070945 1.837266 0.173267 0.008649 0.543041 -1.921189 -8.652797 8.411343 0.000000 0.000000 0.000000 7.026563 -0.067587 0.712929 -5.325237 1.769165 -19.263122 -0.591347 13.408259 16.178418 10.061028 -5.975429 -10.233096 0.000000 0.000000 0.000000 34.261671 -9.915987 3.691933 38.747510 -42.890177 -16.858500 28.759172 3.072613 0.296378 0.000000 0.000000 0.000000 -34.753803 2.043220 -0.080443 -33.277142 35.210762 -8.244273 -50.790676 0.520331 1.493496 0.000000 0.000000 0.000000 
-0.007457 0.944796 -0.030296 -1.495391 -11.100991 -0.888467 4.206899 0.263794 3.039935 1.734145 0.011597 -4.746040 0.909394 4.524628 10.521072 0.000000 0.000000 0.000000 -1.655707 -0.065895 1.869634 0.498768 -0.045740 -0.134021 -2.748245 -10.570581 9.450758 0.000000 0.000000 0.000000 7.076300 -0.038720 0.452820 -4.860234 1.635706 -19.460843 -1.032801 12.825866 16.736329 9.991984 -5.602577 -11.879498 0.000000 0.000000 0.000000 31.904458 -13.324088 3.689767 37.558525 -45.738815 -17.796274 29.334306 1.365156 -0.040220 0.000000 0.000000 0.000000 -33.229876 4.274596 0.079403 -30.869366 38.492176 -9.010313 -57.900168 2.765945 0.508244 0.000000 0.000000 0.000000 
-0.007367 0.943920 -0.031680 -1.468653 -10.318829 -1.132558 4.548758 0.294930 3.668763 1.191646 0.114832 -5.822675 0.450387 3.822625 10.532237 0.000000 0.000000 0.000000 -1.728775 -0.050541 1.648039 0.774013 -0.066783 -0.051336 -3.454132 -12.193212 10.721032 0.000000 0.000000 0.000000 7.484409 0.033043 -0.154631 -4.717845 1.620081 -18.655269 -1.654426 11.920674 16.750854 10.800057 -6.003184 -12.988724 0.000000 0.000000 0.000000 27.892549 -16.541017 3.975052 36.463118 -50.020261 -19.538003 30.951509 -3.537827 -1.173977 0.000000 0.000000 0.000000 -30.915322 7.110454 0.413046 -28.720583 42.576884 -10.024540 -67.377939 7.244192 -2.308498 0.000000 0.000000 0.000000 
-0.007335 0.942591 -0.033088 -1.512090 -10.394223 -1.353208 4.973406 0.308893 3.912860 0.552065 0.169162 -5.939271 0.491409 3.811926 10.182943 0.000000 0.000000 0.000000 -1.917440 -0.061917 1.957361 1.327705 -0.139254 -0.976561 -3.811452 -13.085163 11.687203 0.000000 0.000000 0.000000 8.001129 0.135479 -0.929227 -4.848497 1.678662 -17.432040 -2.154542 11.758181 16.187381 10.701217 -5.886476 -13.164658 0.000000 0.000000 0.000000 23.714441 -21.178354 4.731111 33.384904 -54.192460 -20.257626 31.565959 -11.848058 -3.230698 0.000000 0.000000 0.000000 -26.961994 11.066035 1.105717 -24.388644 47.197403 -10.283478 -79.169314 16.255063 -9.917174 0.000000 0.000000 0.000000 
-0.007160 0.941295 -0.034205 -1.893350 -11.279982 -1.201840 5.544561 0.333959 4.229021 0.194137 0.220429 -6.474169 0.924866 4.426998 9.946070 0.000000 0.000000 0.000000 -1.779334 -0.009599 1.183518 1.722887 -0.141341 -0.057793 -3.512712 -12.486814 11.093819 0.000000 0.000000 0.000000 8.926208 0.232031 -1.513188 -5.095570 1.752728 -16.288809 -2.215094 12.367793 15.916123 11.816204 -6.608941 -13.439062 0.000000 0.000000 0.000000 18.191939 -24.326370 5.798969 27.504477 -58.198537 -19.249907 31.333815 -24.715648 -6.477841 0.000000 0.000000 0.000000 -21.600370 14.312593 2.086673 -20.063957 50.851121 -9.868250 -93.541559 30.831697 -27.500407 0.000000 0.000000 0.000000 
-0.006717 0.939448 -0.034713 -2.159895 -11.518515 -1.137446 6.012948 0.317899 3.975406 -0.181629 0.229334 -6.014285 1.158293 4.652218 9.157943 0.000000 0.000000 0.000000 -1.714014 -0.016772 1.248521 2.052118 -0.171752 -0.301077 -3.473444 -12.300516 10.630582 0.000000 0.000000 0.000000 9.414545 0.321941 -2.074399 -5.545013 1.936047 -14.840743 -2.018151 11.769371 15.086740 11.194906 -6.033235 -14.191401 0.000000 0.000000 0.000000 11.280711 -27.690757 7.393843 17.337486 -59.807722 -14.193180 27.366957 -39.464782 -8.919133 0.000000 0.000000 0.000000 -15.140782 17.670091 3.757460 -12.630876 53.710661 -7.893782 -111.071372 47.464243 -58.420666 0.000000 0.000000 0.000000 
-0.005723 0.937509 -0.034629 -2.270808 -12.452518 -1.420466 6.390893 0.370501 4.549885 -0.841353 0.287356 -6.095764 1.617428 5.282580 8.544418 0.000000 0.000000 0.000000 -1.582536 -0.031183 1.406299 1.792726 -0.144658 -0.159078 -3.171406 -11.599781 9.870212 0.000000 0.000000 0.000000 9.672791 0.321851 -1.881833 -5.403721 1.921833 -12.966152 -2.316017 11.999804 13.875228 11.642465 -5.940433 -15.841810 0.000000 0.000000 0.000000 6.057404 -29.420300 8.726915 1.496885 -59.292746 -5.835722 20.592867 -54.269783 -9.114311 0.000000 0.000000 0.000000 -8.500258 19.535864 5.352342 -3.311710 55.877879 -4.340064 -134.778596 62.041175 -102.754230 0.000000 0.000000 0.000000 
-0.004330 0.935631 -0.033952 -2.450471 -13.460294 -1.043191 6.522348 0.399544 4.794281 -1.036002 0.330050 -6.770386 2.135153 6.073746 8.141362 0.000000 0.000000 0.000000 -1.754179 0.028837 0.779270 2.152272 -0.158444 0.154095 -2.851133 -10.868192 9.202957 0.000000 0.000000 0.000000 9.476373 0.304629 -1.822929 -5.231257 1.843775 -12.609345 -1.710955 11.872754 14.280554 11.623419 -5.737986 -17.188058 0.000000 0.000000 0.000000 0.339875 -30.107033 10.027960 -10.900291 -54.484056 0.339708 -0.927377 -68.287331 2.703682 0.000000 0.000000 0.000000 -3.136794 20.665404 6.644142 6.877782 55.052357 -0.095843 -168.299720 66.452030 -154.316469 0.000000 0.000000 0.000000 
-0.002839 0.933835 -0.033050 -2.435620 -14.033549 -0.920936 6.379778 0.406165 4.697272 -1.082428 0.327589 -6.557692 2.507356 6.611478 7.445875 0.000000 0.000000 0.000000 -1.978900 0.051306 0.685610 2.259330 -0.165704 0.036109 -2.711063 -10.437104 8.624305 0.000000 0.000000 0.000000 9.123377 0.280636 -1.731812 -4.899826 1.751718 -11.268375 -1.356120 11.589157 13.706401 11.687540 -5.593168 -18.251078 0.000000 0.000000 0.000000 -5.551405 -29.321498 10.931486 -18.887805 -46.987042 2.950906 -44.057003 -72.667669 35.633552 0.000000 0.000000 0.000000 2.943937 20.306681 7.579488 16.291803 52.232927 3.464403 164.570519 67.622212 164.296563 0.000000 0.000000 0.000000 
-0.001482 0.932497 -0.032095 -2.755608 -14.281057 -0.608004 6.440431 0.413996 4.821050 -0.799485 0.325432 -7.073206 2.694728 6.888130 7.027524 0.000000 0.000000 0.000000 -1.856381 0.057139 0.521353 2.437066 -0.179505 -0.106900 -2.651138 -10.244309 8.367817 0.000000 0.000000 0.000000 8.931753 0.273595 -1.766106 -4.266859 1.573787 -9.252137 -1.438377 11.285880 12.571338 11.138598 -5.227691 -18.253269 0.000000 0.000000 0.000000 -10.702246 -27.499483 11.119522 -24.650836 -39.461334 3.602905 -64.957241 -68.964958 49.853037 0.000000 0.000000 0.000000 8.120667 18.705293 7.751773 25.187427 45.868474 5.610818 145.889839 66.342514 136.349980 0.000000 0.000000 0.000000 
-0.000559 0.932095 -0.031141 -2.780401 -13.555011 -0.675707 6.309678 0.390919 4.655244 -0.554634 0.294619 -6.813026 2.437242 6.397264 6.633343 0.000000 0.000000 0.000000 -1.715349 0.046754 0.506556 2.184241 -0.156829 0.304282 -3.025570 -10.863528 8.265634 0.000000 0.000000 0.000000 8.337667 0.215267 -1.485654 -3.889712 1.502819 -7.529545 -1.095591 10.261496 11.966302 10.972681 -5.172984 -18.184283 0.000000 0.000000 0.000000 -16.319368 -24.964926 10.888346 -27.006951 -31.077322 2.553254 -68.734719 -64.195614 49.058391 0.000000 0.000000 0.000000 13.336691 16.318908 7.298111 31.387117 36.143053 4.979837 127.271684 65.285149 110.182938 0.000000 0.000000 0.000000 
-0.000096 0.932381 -0.029758 -2.905146 -13.591792 -0.361317 6.388242 0.365552 4.291457 -0.563071 0.284794 -6.557668 2.493467 6.486935 6.561760 0.000000 0.000000 0.000000 -1.678581 0.051202 0.426047 2.259953 -0.168584 0.015677 -2.956727 -10.813893 8.484121 0.000000 0.000000 0.000000 8.193831 0.206772 -1.512541 -3.555620 1.427478 -5.867696 -1.345184 10.506357 11.462896 10.391981 -4.704791 -18.363055 0.000000 0.000000 0.000000 -21.300945 -21.490164 9.498944 -28.632370 -24.107435 1.421952 -58.610856 -58.789069 37.265533 0.000000 0.000000 0.000000 19.396891 12.652666 6.142401 36.297367 25.601171 2.847893 100.412834 65.619395 80.289983 0.000000 0.000000 0.000000 
0.000080 0.932395 -0.027761 -2.619926 -12.603801 -0.343944 6.271793 0.347052 4.335481 -0.857694 0.320411 -6.932909 2.017632 5.664223 6.619766 0.000000 0.000000 0.000000 -1.832420 0.067379 0.261957 2.045076 -0.143979 0.586550 -3.468926 -11.682507 8.395655 0.000000 0.000000 0.000000 7.791173 0.116132 -0.902850 -3.785422 1.562664 -5.381530 -1.160741 9.727780 11.357102 9.326454 -3.927412 -19.102987 0.000000 0.000000 0.000000 -25.624519 -17.496080 7.530020 -30.624076 -17.903176 0.229149 -47.617627 -50.572644 25.357490 0.000000 0.000000 0.000000 25.351478 8.603042 4.105015 38.055514 17.542255 0.545143 68.617965 62.486413 48.513114 0.000000 0.000000 0.000000 
0.000445 0.932284 -0.025087 -2.507835 -12.201924 0.000491 6.025325 0.339362 4.406460 -0.706175 0.336045 -7.629359 1.832509 5.362370 6.750099 0.000000 0.000000 0.000000 -2.061041 0.103966 -0.090801 2.187070 -0.149723 0.880923 -3.690707 -12.062649 8.346379 0.000000 0.000000 0.000000 7.755862 0.113536 -0.988691 -4.366585 1.835660 -5.068458 -0.835932 9.652787 11.879195 8.067849 -3.178872 -18.958216 0.000000 0.000000 0.000000 -28.572479 -14.979902 6.039916 -33.257975 -13.817721 -0.680550 -31.727252 -39.583599 13.019207 0.000000 0.000000 0.000000 30.279883 6.343954 2.835596 39.737288 10.598875 -1.627688 36.492647 52.627015 20.918867 0.000000 0.000000 0.000000 
0.001292 0.932124 -0.021987 -2.502969 -11.814354 0.440446 5.919614 0.325352 4.399625 -0.667140 0.359394 -8.281138 1.663285 5.078122 6.806775 0.000000 0.000000 0.000000 -2.223928 0.117628 -0.170196 2.348830 -0.172052 0.572034 -3.852052 -12.375554 8.454926 0.000000 0.000000 0.000000 7.465285 0.076530 -0.822827 -4.291005 1.787612 -5.471746 -0.688668 9.738224 12.700313 7.969363 -2.870076 -20.435952 0.000000 0.000000 0.000000 -30.646817 -11.865922 3.911269 -36.149672 -9.420395 -1.887406 -19.789755 -28.061597 5.921278 0.000000 0.000000 0.000000 33.526916 3.291350 0.807219 41.833600 5.683635 -3.362245 18.168149 38.547520 7.942880 0.000000 0.000000 0.000000 
0.002568 0.931666 -0.018930 -2.548442 -11.801000 1.008757 5.788367 0.315152 4.349320 -0.586145 0.384658 -8.967023 1.681065 5.106505 6.799841 0.000000 0.000000 0.000000 -2.332736 0.164407 -0.722712 2.411284 -0.171381 0.790360 -3.906629 -12.455012 8.360030 0.000000 0.000000 0.000000 7.552489 0.075968 -0.927556 -4.698029 1.921757 -6.308739 -0.495136 10.115728 13.871065 9.038068 -3.313018 -21.565150 0.000000 0.000000 0.000000 -30.820781 -9.394357 2.160690 -38.601173 -6.809015 -2.813262 -12.109077 -18.847262 2.640117 0.000000 0.000000 0.000000 35.146685 0.619170 -1.046246 43.499823 2.327085 -4.724648 9.083100 26.455834 3.126578 0.000000 0.000000 0.000000 
0.004018 0.931425 -0.016588 -2.373436 -11.594939 1.110311 5.719500 0.311708 4.371656 -1.010863 0.412400 -9.103450 1.578614 4.909271 6.699572 0.000000 0.000000 0.000000 -2.846022 0.168407 -0.428826 2.795030 -0.213686 0.273900 -3.971951 -12.582193 8.442831 0.000000 0.000000 0.000000 7.318576 -0.045338 0.106123 -4.764567 1.879465 -7.937137 -0.147362 10.164311 14.877225 8.812440 -3.070785 -22.366503 0.000000 0.000000 0.000000 -30.772669 -7.908527 1.191656 -40.006377 -3.988645 -3.845153 -8.789423 -13.963240 1.542976 0.000000 0.000000 0.000000 35.201728 -1.187501 -2.354339 45.046485 -0.748491 -5.994501 4.005147 19.059998 1.381757 0.000000 0.000000 0.000000 
0.005485 0.932010 -0.015452 -2.272997 -10.975432 1.882986 5.732934 0.240308 3.533988 -1.367569 0.434223 -9.280847 1.298041 4.473979 6.976785 0.000000 0.000000 0.000000 -3.043955 0.233282 -1.240535 2.860358 -0.219688 0.390776 -4.234063 -13.161816 8.839972 0.000000 0.000000 0.000000 7.390768 -0.062541 0.068921 -5.029039 1.942061 -9.202195 -0.444548 9.713022 15.945626 8.702974 -2.898643 -23.373656 0.000000 0.000000 0.000000 -29.771749 -5.953170 0.087829 -40.886934 -1.178089 -4.935136 -7.307951 -11.173045 1.090776 0.000000 0.000000 0.000000 34.534330 -2.928321 -3.613990 46.254266 -4.233475 -7.414457 2.390078 16.299410 0.964373 0.000000 0.000000 0.000000 
0.006760 0.933055 -0.015778 -2.135933 -10.645900 1.866321 5.719702 0.228575 3.426922 -1.712814 0.450076 -9.290199 1.071665 4.161374 7.348001 0.000000 0.000000 0.000000 -3.332975 0.265081 -1.560291 3.025663 -0.226004 0.943700 -4.346534 -13.450873 9.198875 0.000000 0.000000 0.000000 7.113019 -0.154212 0.912394 -5.082691 1.935552 -10.025267 -0.473495 9.552398 16.423886 8.126911 -2.569980 -23.480269 0.000000 0.000000 0.000000 -29.090295 -5.650946 -0.026387 -40.923503 0.577719 -5.539583 -7.196940 -10.221013 0.984862 0.000000 0.000000 0.000000 34.789607 -4.057497 -4.484129 45.686217 -6.237492 -8.036367 1.706881 16.306452 0.884585 0.000000 0.000000 0.000000 
0.007859 0.933546 -0.017243 -2.251667 -10.665181 2.153037 5.911911 0.197462 2.966824 -1.938848 0.458091 -9.181891 1.078357 4.202250 7.499406 0.000000 0.000000 0.000000 -3.313131 0.299310 -2.056832 3.115496 -0.230427 1.095632 -4.303020 -13.455892 9.484768 0.000000 0.000000 0.000000 6.961624 -0.224082 1.540535 -4.858710 1.816719 -10.898557 -0.655703 9.585412 17.149526 8.116591 -2.506565 -24.010150 0.000000 0.000000 0.000000 -28.537185 -5.088156 -0.295826 -40.655778 1.714311 -5.922368 -7.982744 -10.118426 1.041603 0.000000 0.000000 0.000000 34.359435 -4.274525 -4.576428 45.314172 -7.053785 -8.292890 2.530559 17.086801 1.041768 0.000000 0.000000 0.000000 
0.008722 0.933698 -0.019210 -2.352648 -10.774368 2.174082 5.950143 0.188499 2.776010 -1.884263 0.451701 -9.061214 1.141394 4.310947 7.518759 0.000000 0.000000 0.000000 -3.670880 0.339358 -2.458822 3.878316 -0.289705 1.521101 -4.235689 -13.377962 9.617081 0.000000 0.000000 0.000000 6.765147 -0.295683 2.285062 -4.971182 1.823092 -11.849606 -0.672222 9.826908 17.796571 8.079113 -2.382524 -24.684127 0.000000 0.000000 0.000000 -28.279099 -5.483412 -0.033874 -40.768672 1.989366 -6.071482 -7.762859 -10.531717 1.066366 0.000000 0.000000 0.000000 34.499684 -4.322236 -4.542781 45.156368 -6.654270 -8.205911 3.004006 17.745593 1.159983 0.000000 0.000000 0.000000 
0.009375 0.933951 -0.021089 -2.207696 -10.951446 1.925986 5.851624 0.206864 2.979532 -2.048367 0.465584 -9.171025 1.159330 4.380721 7.736875 0.000000 0.000000 0.000000 -4.275328 0.358745 -2.441426 4.618229 -0.351958 1.635911 -4.124397 -13.211698 9.726017 0.000000 0.000000 0.000000 6.560573 -0.379954 3.270553 -4.985142 1.795246 -12.763848 -0.581026 9.749883 18.124327 8.054074 -2.413277 -24.683088 0.000000 0.000000 0.000000 -29.064733 -5.530378 0.040688 -40.110893 1.318471 -5.811464 -8.224069 -11.290615 1.192640 0.000000 0.000000 0.000000 35.073780 -3.914708 -4.410526 44.192817 -6.043884 -7.836327 3.137488 19.229259 1.285385 0.000000 0.000000 0.000000 
0.009792 0.934108 -0.022493 -2.294880 -11.064732 1.758747 5.964319 0.218669 3.135746 -2.110639 0.471580 -9.226156 1.183888 4.436712 7.814526 0.000000 0.000000 0.000000 -4.537331 0.358298 -2.278243 5.220243 -0.402581 1.491346 -4.014910 -13.061472 9.903690 0.000000 0.000000 0.000000 6.442263 -0.430361 3.891555 -5.018853 1.773314 -13.836314 -0.533952 9.807448 19.046360 8.177992 -2.424908 -25.319535 0.000000 0.000000 0.000000 -29.639791 -6.039257 0.410475 -40.117005 -0.005151 -5.498109 -7.304265 -12.289349 1.211576 0.000000 0.000000 0.000000 35.759860 -3.058502 -3.833795 43.966168 -4.823359 -7.486579 2.869147 20.269743 1.326814 0.000000 0.000000 0.000000 
0.009943 0.934204 -0.023376 -2.190309 -11.228675 1.405589 5.804489 0.262638 3.758311 -2.044303 0.486427 -9.740391 1.174139 4.469844 8.081203 0.000000 0.000000 0.000000 -4.825280 0.338414 -1.737040 5.511564 -0.423748 1.030644 -3.887892 -12.850711 9.975794 0.000000 0.000000 0.000000 6.517953 -0.450710 4.170511 -5.229579 1.845362 -13.798864 -0.509966 9.804551 19.064525 8.163471 -2.436725 -25.275262 0.000000 0.000000 0.000000 -30.040558 -6.755272 0.898440 -40.013331 -1.449998 -5.057529 -6.441082 -13.531641 1.241691 0.000000 0.000000 0.000000 36.061005 -2.460198 -3.450620 44.211181 -3.376526 -7.055552 2.942853 21.317956 1.420660 0.000000 0.000000 0.000000 
0.010065 0.934101 -0.023928 -1.959366 -11.150569 1.195120 5.633410 0.268376 3.780898 -2.175764 0.486619 -9.547890 1.127691 4.384691 8.043461 0.000000 0.000000 0.000000 -4.892449 0.321038 -1.393430 5.195999 -0.399349 0.704780 -3.930796 -12.897887 9.896943 0.000000 0.000000 0.000000 6.315060 -0.443805 4.222389 -5.141890 1.843889 -12.963000 -0.883469 9.690504 18.258086 8.470280 -2.658156 -24.798499 0.000000 0.000000 0.000000 -29.853283 -7.113334 1.102249 -40.333480 -2.623440 -4.677654 -6.352185 -14.881494 1.358614 0.000000 0.000000 0.000000 36.353197 -1.719357 -2.932037 44.640600 -1.854878 -6.560597 3.073423 21.936409 1.489445 0.000000 0.000000 0.000000 
0.010162 0.934003 -0.024508 -1.718882 -10.907126 1.178152 5.231230 0.291105 4.122261 -1.900166 0.499302 -10.371720 0.942630 4.153566 8.420962 0.000000 0.000000 0.000000 -5.130947 0.322773 -1.258364 5.194319 -0.401915 0.399965 -4.048186 -13.091227 9.899597 0.000000 0.000000 0.000000 6.277529 -0.410326 3.861732 -5.523418 2.004260 -12.509190 -0.847915 9.064188 17.681838 7.967138 -2.411882 -24.870056 0.000000 0.000000 0.000000 -29.749008 -7.383086 1.453388 -40.345998 -3.149393 -4.527246 -6.042768 -16.604389 1.484547 0.000000 0.000000 0.000000 35.867788 -1.310453 -2.826649 45.426438 -0.708309 -6.155355 3.418770 22.657511 1.594867 0.000000 0.000000 0.000000 
0.010409 0.934379 -0.025307 -1.589799 -10.299806 0.832710 5.134261 0.284596 4.074088 -1.909526 0.479845 -9.943783 0.660932 3.687378 8.372580 0.000000 0.000000 0.000000 -5.290177 0.286501 -0.553394 5.299844 -0.416655 -0.174717 -4.244287 -13.469805 10.192768 0.000000 0.000000 0.000000 6.177690 -0.439397 4.278047 -5.438569 1.961687 -13.364493 -1.011421 8.939013 18.212006 7.768245 -2.349432 -24.432354 0.000000 0.000000 0.000000 -29.753910 -7.660524 1.569279 -40.272574 -3.852056 -4.325067 -5.896592 -17.645114 1.557994 0.000000 0.000000 0.000000 36.371436 -0.900134 -2.430689 44.923262 0.577739 -5.739822 3.887282 23.541796 1.765054 0.000000 0.000000 0.000000 
0.010845 0.934563 -0.026315 -1.607747 -9.997161 1.021786 4.833202 0.270649 3.885364 -1.336977 0.461582 -10.204850 0.532149 3.521230 8.538298 0.000000 0.000000 0.000000 -5.455044 0.308912 -0.906105 5.641615 -0.447349 0.030642 -4.376264 -13.727917 10.370044 0.000000 0.000000 0.000000 6.074893 -0.376431 3.552944 -5.294374 1.983538 -11.353743 -1.362437 8.941287 16.346724 8.263614 -2.725725 -23.168672 0.000000 0.000000 0.000000 -29.531850 -7.867590 1.464159 -40.424392 -3.053903 -4.392779 -6.613270 -20.480498 1.928492 0.000000 0.000000 0.000000 36.325736 -0.665432 -2.132713 45.008054 2.252040 -5.084318 3.708188 23.675008 1.741210 0.000000 0.000000 0.000000 
0.011497 0.935175 -0.027552 -1.252819 -8.806979 0.750064 4.659624 0.236913 3.517177 -1.646517 0.445581 -9.650040 -0.039356 2.615788 8.608928 0.000000 0.000000 0.000000 -5.595546 0.268318 -0.247872 5.312636 -0.437032 -0.571667 -4.855362 -14.591492 10.782433 0.000000 0.000000 0.000000 5.399062 -0.380502 3.890704 -4.879621 1.834086 -12.233296 -1.345650 8.346103 17.355309 8.242253 -2.883254 -22.297000 0.000000 0.000000 0.000000 -30.469539 -7.857579 1.430403 -39.560054 -3.892150 -4.104242 -5.937784 -20.182912 1.785366 0.000000 0.000000 0.000000 36.539444 0.419414 -1.231257 44.410449 4.207031 -4.474618 2.470501 24.071990 1.543473 0.000000 0.000000 0.000000 
