HIERARCHY
ROOT Hips
{
	OFFSET -0.001795 -0.223333 0.028219
	CHANNELS 6 Xposition Yposition Zposition Zrotation Yrotation Xrotation 
	JOINT LeftUpLeg
	{
		OFFSET 0.069520 -0.091406 -0.006815
		CHANNELS 3 Zrotation Yrotation Xrotation
		JOINT LeftLeg
		{
			OFFSET 0.034277 -0.375199 -0.004496
			CHANNELS 3 Zrotation Yrotation Xrotation
			JOINT LeftFoot
			{
				OFFSET -0.013596 -0.397961 -0.043693
				CHANNELS 3 Zrotation Yrotation Xrotation
				JOINT LeftToe
				{
					OFFSET 0.026358 -0.055791 0.119288
					CHANNELS 3 Zrotation Yrotation Xrotation
					End Site
					{
						OFFSET 0.000000 0.000000 0.000000
					}
				}
			}
		}
	}
	JOINT RightUpLeg
	{
		OFFSET -0.067670 -0.090522 -0.004320
		CHANNELS 3 Zrotation Yrotation Xrotation
		JOINT RightLeg
		{
			OFFSET -0.038290 -0.382569 -0.008850
			CHANNELS 3 Zrotation Yrotation Xrotation
			JOINT RightFoot
			{
				OFFSET 0.015774 -0.398415 -0.042312
				CHANNELS 3 Zrotation Yrotation Xrotation
				JOINT RightToe
				{
					OFFSET -0.025372 -0.048144 0.123348
					CHANNELS 3 Zrotation Yrotation Xrotation
					End Site
					{
						OFFSET 0.000000 0.000000 0.000000
					}
				}
			}
		}
	}
	JOINT Spine
	{
		OFFSET -0.002533 0.108963 -0.026696
		CHANNELS 3 Zrotation Yrotation Xrotation
		JOINT Spine1
		{
			OFFSET 0.005487 0.135180 0.001092
			CHANNELS 3 Zrotation Yrotation Xrotation
			JOINT Spine2
			{
				OFFSET 0.001457 0.052922 0.025425
				CHANNELS 3 Zrotation Yrotation Xrotation
				JOINT Neck
				{
					OFFSET -0.002778 0.213870 -0.042857
					CHANNELS 3 Zrotation Yrotation Xrotation
					JOINT Head
					{
						OFFSET 0.005152 0.064970 0.051349
						CHANNELS 3 Zrotation Yrotation Xrotation
						End Site
						{
							OFFSET 0.000000 0.000000 0.000000
						}
					}
				}
				JOINT LeftShoulder
				{
					OFFSET 0.078845 0.121749 -0.034090
					CHANNELS 3 Zrotation Yrotation Xrotation
					JOINT LeftArm
					{
						OFFSET 0.090977 0.030469 -0.008868
						CHANNELS 3 Zrotation Yrotation Xrotation
						JOINT LeftForeArm
						{
							OFFSET 0.259612 -0.012772 -0.027456
							CHANNELS 3 Zrotation Yrotation Xrotation
							JOINT LeftHand
							{
								OFFSET 0.249234 0.008986 -0.001171
								CHANNELS 3 Zrotation Yrotation Xrotation
								End Site
								{
									OFFSET 0.000000 0.000000 0.000000
								}
							}
						}
					}
				}
				JOINT RightShoulder
				{
					OFFSET -0.081759 0.118833 -0.038615
					CHANNELS 3 Zrotation Yrotation Xrotation
					JOINT RightArm
					{
						OFFSET -0.096012 0.032551 -0.009143
						CHANNELS 3 Zrotation Yrotation Xrotation
						JOINT RightForeArm
						{
							OFFSET -0.253742 -0.013329 -0.021401
							CHANNELS 3 Zrotation Yrotation Xrotation
							JOINT RightHand
							{
								OFFSET -0.255298 0.007772 -0.005559
								CHANNELS 3 Zrotation Yrotation Xrotation
								End Site
								{
									OFFSET 0.000000 0.000000 0.000000
								}
							}
						}
					}
				}
			}
		}
	}
}
MOTION
Frames: 124
Frame Time: 0.050000
0.000000 0.943410 0.000000 -1.175117 -11.666033 1.720767 3.933111 0.106803 1.082303 -1.493711 0.230877 -1.760354 3.397521 8.219561 6.193344 0.000000 0.000000 0.000000 -5.242482 0.304297 -0.392551 3.749229 -0.292265 -0.735894 -1.887835 -7.807909 6.494245 0.000000 0.000000 0.000000 7.825996 -0.443866 3.598534 -5.299792 1.742761 -19.168100 -0.827155 10.812232 24.427991 8.305525 -1.952646 -29.597595 0.000000 0.000000 0.000000 -31.199123 -4.816349 -0.414232 -40.257052 -6.028091 -4.097535 2.270292 -16.377008 0.344252 0.000000 0.000000 0.000000 34.198474 -4.959816 -4.720753 43.496309 2.110939 -5.640017 -0.404441 22.928577 1.026052 0.000000 0.000000 0.000000 
-0.000098 0.941362 0.000924 -1.569063 -13.071040 2.027181 4.850983 0.167046 1.758592 -2.053110 0.316060 -2.605107 3.923716 9.121240 5.907536 0.000000 0.000000 0.000000 -4.714659 0.316430 -0.904139 3.017076 -0.225389 -0.266994 -1.339775 -6.689833 6.283366 0.000000 0.000000 0.000000 8.656607 -0.438990 3.361488 -5.979981 1.910926 -19.234266 -0.940703 12.849406 24.314881 9.217472 -2.068823 -30.751683 0.000000 0.000000 0.000000 -30.926513 -4.391578 -1.199143 -41.028603 -6.049547 -4.005575 4.222942 -16.248491 0.056553 0.000000 0.000000 0.000000 35.033229 -6.279865 -5.228691 44.106631 1.752200 -6.022884 -0.639689 24.647262 1.162287 0.000000 0.000000 0.000000 
-0.000254 0.940612 0.001346 -1.531217 -11.808269 2.268700 4.662604 0.093456 0.867859 -1.654797 0.240319 -1.166326 3.993627 9.212056 5.011459 0.000000 0.000000 0.000000 -4.641532 0.330785 -1.443170 2.941728 -0.223242 0.119000 -1.826861 -7.720876 6.522118 0.000000 0.000000 0.000000 8.956521 -0.413624 2.944637 -6.483054 2.068784 -20.082845 -0.320116 11.500420 25.660402 9.014591 -2.043035 -31.220874 0.000000 0.000000 0.000000 -29.729738 -4.640564 -0.552161 -42.059464 -6.654985 -4.131049 5.865568 -15.461591 -0.133044 0.000000 0.000000 0.000000 33.448484 -5.342882 -4.570058 45.316941 2.045394 -6.064041 -1.635869 24.365459 0.948550 0.000000 0.000000 0.000000 
-0.000399 0.939458 0.001566 -1.729050 -12.615662 2.375992 5.209312 0.121111 1.110441 -2.112662 0.304323 -1.413446 4.278272 9.751332 5.218273 0.000000 0.000000 0.000000 -4.860344 0.356078 -1.554144 3.453686 -0.255043 0.012178 -1.829754 -7.953190 6.939614 0.000000 0.000000 0.000000 9.145074 -0.441566 3.175752 -6.723622 2.102949 -20.894370 0.176100 12.416975 26.186118 9.278779 -1.950066 -32.436919 0.000000 0.000000 0.000000 -29.943353 -4.597291 -0.747869 -41.579658 -6.524794 -4.099985 6.708957 -15.862182 -0.256572 0.000000 0.000000 0.000000 33.964703 -5.831771 -4.777404 44.619710 1.736350 -6.204729 -1.684004 25.870601 1.046617 0.000000 0.000000 0.000000 
-0.000633 0.939278 0.001612 -1.668975 -12.714833 2.133768 5.156571 0.133526 1.249182 -1.963626 0.283131 -1.175741 4.386396 9.909777 4.582312 0.000000 0.000000 0.000000 -4.917705 0.331826 -1.036058 3.369882 -0.253690 -0.423189 -1.572017 -7.468551 7.010268 0.000000 0.000000 0.000000 8.781147 -0.461730 3.495606 -6.214885 1.961733 -20.675296 0.051810 12.514296 25.650732 9.441192 -2.030476 -32.273045 0.000000 0.000000 0.000000 -30.013363 -4.270598 -1.032411 -41.219914 -5.827395 -4.223741 7.574220 -17.032871 -0.409603 0.000000 0.000000 0.000000 33.716448 -5.351043 -4.399379 44.342052 1.580561 -6.170364 -2.317319 26.088086 0.910619 0.000000 0.000000 0.000000 
-0.000777 0.939146 0.001522 -1.751126 -13.077194 2.095832 5.332425 0.154472 1.501963 -1.836541 0.276490 -1.747860 4.452404 10.062108 5.032913 0.000000 0.000000 0.000000 -5.133669 0.350290 -1.100568 3.622803 -0.264343 -0.109157 -1.570945 -7.284181 6.560946 0.000000 0.000000 0.000000 8.395693 -0.489519 3.869533 -5.863981 1.851045 -20.960134 0.290117 13.111540 25.456792 9.637685 -2.020132 -32.559153 0.000000 0.000000 0.000000 -29.842723 -3.527808 -1.692811 -41.707129 -5.501277 -4.307082 8.140879 -17.983719 -0.532026 0.000000 0.000000 0.000000 33.988754 -5.742972 -4.563285 43.876566 1.283388 -6.243928 -2.947931 27.364319 0.848652 0.000000 0.000000 0.000000 
-0.000918 0.938818 0.001372 -1.809993 -13.212320 2.198646 5.470035 0.153606 1.457993 -1.917420 0.293700 -2.182757 4.473284 10.102187 5.107121 0.000000 0.000000 0.000000 -5.041786 0.348489 -1.121810 3.543250 -0.258140 -0.148294 -1.364655 -6.750947 6.298663 0.000000 0.000000 0.000000 8.153534 -0.494173 3.956921 -5.678360 1.796297 -20.675866 0.058267 13.039498 24.693468 10.173815 -2.321606 -32.328760 0.000000 0.000000 0.000000 -29.122640 -2.627001 -2.177482 -42.097963 -5.078385 -4.454412 7.938731 -19.501407 -0.548998 0.000000 0.000000 0.000000 34.012489 -5.958792 -4.830479 43.978236 1.229410 -6.178983 -3.432536 27.878035 0.749665 0.000000 0.000000 0.000000 
-0.001047 0.938204 0.001380 -1.733184 -13.459053 2.541967 5.463377 0.152053 1.459751 -1.865983 0.298148 -2.758836 4.276114 9.731945 5.409311 0.000000 0.000000 0.000000 -5.179097 0.384960 -1.592553 3.691186 -0.260786 0.299469 -1.513443 -6.753959 5.626945 0.000000 0.000000 0.000000 7.732085 -0.414990 3.232105 -5.096420 1.625007 -20.451999 -0.419570 13.149483 24.359092 11.056504 -2.904451 -31.513222 0.000000 0.000000 0.000000 -28.555754 -2.365171 -2.253328 -42.002486 -4.348522 -4.689106 8.964285 -22.008464 -0.820634 0.000000 0.000000 0.000000 34.098237 -6.038326 -4.937515 43.331563 0.679654 -6.254053 -3.871992 30.842207 0.739465 0.000000 0.000000 0.000000 
-0.001070 0.938141 0.001508 -1.977972 -13.644249 2.784872 5.607027 0.158389 1.563611 -1.770549 0.298213 -3.297076 3.976449 9.162806 5.601102 0.000000 0.000000 0.000000 -4.953108 0.392846 -1.925576 4.021721 -0.276818 0.915012 -1.848605 -7.451945 5.614553 0.000000 0.000000 0.000000 7.839059 -0.372218 2.751732 -5.122557 1.628611 -20.049145 -0.538319 12.716034 23.607200 10.586796 -2.814099 -30.893651 0.000000 0.000000 0.000000 -27.495734 -0.524744 -3.107523 -41.909107 -4.215875 -4.751048 8.554634 -27.783712 -0.932934 0.000000 0.000000 0.000000 32.380854 -7.278186 -5.885408 42.622297 0.903850 -5.934230 -3.354030 35.003073 0.992642 0.000000 0.000000 0.000000 
-0.001134 0.938327 0.001421 -1.878074 -13.783216 2.697038 5.492432 0.159588 1.536456 -1.997915 0.328576 -3.543478 3.457908 8.225105 6.252312 0.000000 0.000000 0.000000 -4.900604 0.380033 -1.724988 4.070798 -0.278884 0.949920 -1.974062 -7.686746 5.555830 0.000000 0.000000 0.000000 7.638107 -0.257599 1.747127 -4.549131 1.468223 -19.258223 -1.320339 12.980176 23.337689 11.185757 -3.345100 -29.385047 0.000000 0.000000 0.000000 -26.757470 -1.278109 -2.609679 -38.466741 -5.991571 -3.834656 14.847895 -37.854690 -3.535606 0.000000 0.000000 0.000000 31.043663 -7.324498 -5.623898 40.756524 2.357705 -5.294597 -6.621948 41.833278 0.125637 0.000000 0.000000 0.000000 
-0.001312 0.938987 0.001021 -1.795772 -14.276410 2.525175 5.239625 0.188066 1.905592 -1.617196 0.299047 -4.001207 3.498993 8.273253 6.190959 0.000000 0.000000 0.000000 -5.409189 0.416428 -1.841806 4.437717 -0.296078 1.619213 -1.793063 -6.897980 4.650191 0.000000 0.000000 0.000000 8.073946 -0.148910 0.795811 -4.675633 1.496321 -18.945648 -2.076260 13.144835 23.091861 11.172518 -3.553694 -28.209902 0.000000 0.000000 0.000000 -23.625910 -2.227472 -1.574821 -34.382932 -9.934077 -2.522506 27.972523 -50.338191 -11.274698 0.000000 0.000000 0.000000 28.011075 -7.569096 -5.416511 38.105065 6.217330 -3.901465 -12.642294 52.144190 -2.591965 0.000000 0.000000 0.000000 
-0.001647 0.939991 0.000255 -1.936040 -15.049461 2.681018 4.897752 0.227399 2.428781 -1.001154 0.257712 -4.719063 2.997573 7.386403 7.222937 0.000000 0.000000 0.000000 -4.603982 0.404222 -2.290810 3.755909 -0.234400 1.667355 -1.282791 -5.759572 4.464252 0.000000 0.000000 0.000000 8.367173 0.030058 -0.702080 -4.811538 1.520269 -18.735023 -2.235173 13.516036 22.636186 11.456208 -4.087404 -26.147171 0.000000 0.000000 0.000000 -19.627016 -4.065150 -0.074134 -26.686376 -15.796325 -1.063445 55.536601 -56.539114 -29.368064 0.000000 0.000000 0.000000 23.664782 -6.359339 -4.207948 33.174259 10.979561 -2.287180 -28.687773 63.087345 -13.224941 0.000000 0.000000 0.000000 
-0.002366 0.940883 -0.000420 -1.622479 -15.185488 2.375794 4.737835 0.237198 2.503005 -0.968057 0.238100 -4.185732 3.074671 7.464964 6.626457 0.000000 0.000000 0.000000 -4.414090 0.361861 -1.722475 2.988654 -0.186405 1.059029 -1.094057 -5.745790 5.176530 0.000000 0.000000 0.000000 8.301903 0.122467 -1.400423 -4.561334 1.440698 -19.821839 -2.532330 13.887959 22.951351 10.691227 -3.911466 -24.493639 0.000000 0.000000 0.000000 -13.173468 -6.699389 1.693498 -17.682143 -22.243781 -0.481409 79.597244 -49.415455 -40.313253 0.000000 0.000000 0.000000 17.479684 -4.901649 -2.755335 25.507665 18.740473 -0.655831 -64.426303 67.556333 -40.013068 0.000000 0.000000 0.000000 
-0.003190 0.942094 -0.000909 -1.902904 -15.861711 2.837135 5.108397 0.250909 2.642171 -0.838852 0.239215 -4.620936 2.750708 6.831300 6.854751 0.000000 0.000000 0.000000 -3.716360 0.377588 -2.493082 2.675757 -0.149509 1.430076 -0.901107 -5.019982 4.521876 0.000000 0.000000 0.000000 8.146497 0.142657 -1.637688 -4.303414 1.349771 -20.717388 -2.379585 13.787469 22.591299 10.815801 -4.170507 -23.890140 0.000000 0.000000 0.000000 -5.405098 -8.275566 2.732840 -7.923136 -29.150038 -1.147185 89.710022 -38.452762 -37.333215 0.000000 0.000000 0.000000 9.658285 -2.267990 -1.130347 16.168409 25.659435 -0.213544 -89.595351 59.010133 -52.881381 0.000000 0.000000 0.000000 
-0.003962 0.944157 -0.000951 -1.868526 -15.828313 2.542713 5.316695 0.240220 2.400715 -0.873369 0.220384 -3.909558 2.797237 6.917449 6.789331 0.000000 0.000000 0.000000 -3.345151 0.342582 -2.254792 2.201322 -0.117983 1.265539 -0.727133 -5.227521 5.554380 0.000000 0.000000 0.000000 7.341698 0.060581 -1.023355 -3.599398 1.173538 -22.289318 -2.005181 14.541403 22.738888 11.893758 -4.800649 -23.453941 0.000000 0.000000 0.000000 2.960851 -9.775091 3.298641 4.296181 -34.704079 -3.625701 86.046798 -28.843526 -27.444177 0.000000 0.000000 0.000000 2.887716 -0.154492 -0.079622 6.861989 29.639198 -1.023218 -95.852857 49.346705 -48.203774 0.000000 0.000000 0.000000 
-0.004320 0.946310 -0.000837 -1.885484 -15.523935 2.372264 5.385531 0.258120 2.714382 -0.623188 0.212858 -4.481855 2.758215 7.045919 8.386754 0.000000 0.000000 0.000000 -3.252281 0.309486 -1.854422 1.506560 -0.089210 0.504989 -0.563134 -5.256410 6.258300 0.000000 0.000000 0.000000 7.241189 0.061609 -1.014668 -3.703707 1.210329 -22.497428 -1.855985 13.942594 22.196251 11.738499 -4.508833 -24.661840 0.000000 0.000000 0.000000 11.044535 -10.553106 3.392699 12.032720 -37.257688 -5.763949 83.060878 -23.686841 -21.833460 0.000000 0.000000 0.000000 -5.785596 1.687924 0.474539 -0.849953 31.401437 -2.094502 -94.043103 42.012767 -39.724323 0.000000 0.000000 0.000000 
-0.004419 0.947579 -0.000194 -1.921244 -15.469576 2.204352 5.246170 0.239104 2.394285 -0.212570 0.142782 -3.695108 3.237932 7.904951 8.199115 0.000000 0.000000 0.000000 -2.515894 0.270382 -1.826112 0.371296 0.004975 0.727754 -1.115270 -6.402102 6.281454 0.000000 0.000000 0.000000 6.841390 -0.041666 -0.077173 -3.340784 1.158474 -24.407860 -1.270170 14.426613 22.719438 13.137219 -5.302662 -24.621392 0.000000 0.000000 0.000000 17.933785 -10.211287 3.198255 19.203171 -38.577171 -8.024628 77.991071 -20.780363 -18.080525 0.000000 0.000000 0.000000 -13.198107 1.098618 0.129295 -8.118514 32.468520 -3.274342 -87.193196 36.746161 -30.623184 0.000000 0.000000 0.000000 
-0.004406 0.949218 0.001023 -2.025385 -15.454171 2.348907 5.331216 0.213052 1.988728 0.320366 0.079203 -3.509008 2.945765 7.439244 8.942486 0.000000 0.000000 0.000000 -2.507776 0.252051 -1.566955 0.479408 -0.024033 0.204181 -1.471014 -7.406051 6.878456 0.000000 0.000000 0.000000 7.012888 -0.032229 -0.177232 -3.653226 1.246138 -24.694954 -1.161707 14.058514 22.742726 13.187730 -5.281606 -25.092197 0.000000 0.000000 0.000000 23.249545 -9.309302 2.849856 24.474429 -38.986160 -9.537234 73.036576 -16.245566 -13.286566 0.000000 0.000000 0.000000 -19.203928 0.908484 0.067595 -12.700042 31.525212 -3.858210 -80.391587 32.641694 -24.052954 0.000000 0.000000 0.000000 
-0.004560 0.949881 0.003160 -1.912924 -15.623162 2.270542 5.067750 0.231674 2.270772 0.633367 0.057755 -3.782733 2.760407 7.072833 8.750382 0.000000 0.000000 0.000000 -2.388300 0.240131 -1.477525 0.084875 0.008761 0.278984 -1.777587 -7.888605 6.592499 0.000000 0.000000 0.000000 6.808513 -0.064314 0.136129 -3.827797 1.294276 -25.049781 -0.645582 14.114652 22.704712 13.021709 -5.380759 -24.149946 0.000000 0.000000 0.000000 26.918711 -7.605188 2.579380 28.652589 -39.585295 -10.975867 66.326044 -10.903116 -8.353600 0.000000 0.000000 0.000000 -23.776218 0.507164 -0.005707 -15.619025 29.496591 -3.873969 -74.257742 28.570710 -18.537398 0.000000 0.000000 0.000000 
-0.004809 0.950751 0.006051 -1.936229 -15.507418 2.152019 5.134834 0.242726 2.437951 0.559203 0.058793 -3.622113 2.701910 6.930765 8.301153 0.000000 0.000000 0.000000 -2.478725 0.218060 -1.106795 0.067048 0.023236 0.591577 -2.093901 -8.315475 6.187122 0.000000 0.000000 0.000000 6.729971 -0.056979 0.088151 -3.832092 1.299097 -25.032302 -0.382339 14.143366 22.927896 12.878928 -5.209158 -24.530770 0.000000 0.000000 0.000000 30.629016 -6.474306 2.438447 32.258465 -38.870020 -11.751496 59.239346 -4.383994 -3.780679 0.000000 0.000000 0.000000 -27.243049 -0.391018 -0.149740 -17.919872 28.307575 -3.891016 -67.701845 24.151556 -13.447705 0.000000 0.000000 0.000000 
-0.005109 0.950862 0.009553 -1.982560 -15.504564 1.796816 4.972204 0.286221 3.037340 0.947184 0.021381 -3.683519 2.398817 6.287145 7.515676 0.000000 0.000000 0.000000 -2.398340 0.173498 -0.539689 -0.439483 0.073749 0.804324 -1.989096 -7.844799 5.649902 0.000000 0.000000 0.000000 6.567723 -0.050949 0.103877 -4.038959 1.338621 -24.538341 0.015293 14.045347 22.697978 12.418930 -5.162190 -23.417547 0.000000 0.000000 0.000000 33.682556 -6.305065 2.385360 35.910304 -38.132476 -12.459599 51.469405 1.874437 -0.321735 0.000000 0.000000 0.000000 -30.007779 -0.584329 -0.111874 -20.692712 26.404096 -3.776662 -59.738502 19.119232 -8.705645 0.000000 0.000000 0.000000 
-0.005313 0.950892 0.013302 -2.055067 -15.494389 1.442933 4.909463 0.335251 3.687957 0.852454 0.020456 -3.442973 2.674046 6.810207 7.464914 0.000000 0.000000 0.000000 -2.263322 0.091649 0.554483 -0.936421 0.105207 0.609462 -2.009548 -7.944655 5.806904 0.000000 0.000000 0.000000 6.540009 -0.039198 0.064619 -4.116885 1.349044 -23.852120 0.247722 13.882098 22.314628 11.366313 -4.619587 -22.909425 0.000000 0.000000 0.000000 36.653378 -5.587207 2.331024 38.721619 -37.183789 -12.767397 43.594298 5.950383 1.310920 0.000000 0.000000 0.000000 -32.425258 -0.769646 -0.037426 -22.683872 25.031000 -3.648684 -53.959023 16.256165 -6.295364 0.000000 0.000000 0.000000 
-0.005335 0.950373 0.017116 -2.171715 -15.255916 1.142668 4.648080 0.366988 4.105775 1.125638 -0.018260 -3.214221 2.661697 6.736777 6.848194 0.000000 0.000000 0.000000 -2.278754 0.050295 1.176220 -1.248447 0.151894 0.973699 -1.964972 -7.679023 5.477305 0.000000 0.000000 0.000000 6.508660 -0.028831 0.026381 -4.320224 1.402770 -23.726267 0.425832 13.562723 22.148712 10.849010 -4.355468 -22.738902 0.000000 0.000000 0.000000 38.722775 -5.719591 2.267853 41.158559 -37.093426 -13.382483 38.216376 8.609630 2.016832 0.000000 0.000000 0.000000 -33.569192 -0.858264 0.033436 -24.858570 24.729077 -3.822055 -48.146636 14.415308 -4.764167 0.000000 0.000000 0.000000 
-0.005131 0.949624 0.020658 -2.027143 -15.145735 0.380086 4.264871 0.439548 4.902024 1.266987 -0.049933 -2.855263 2.796658 6.942670 6.217372 0.000000 0.000000 0.000000 -2.404326 -0.007380 2.220133 -1.513629 0.194016 1.280073 -2.491936 -8.813969 5.675508 0.000000 0.000000 0.000000 6.387039 -0.029111 0.176025 -4.311084 1.400364 -23.369432 0.609480 13.407195 22.482167 10.396775 -4.333805 -21.487268 0.000000 0.000000 0.000000 39.318837 -5.753864 2.190093 41.392714 -36.526753 -13.099693 36.419280 9.476251 2.162199 0.000000 0.000000 0.000000 -34.208757 -1.140906 -0.005070 -26.260133 24.204162 -3.795360 -45.494185 12.398973 -3.706676 0.000000 0.000000 0.000000 
-0.004843 0.948746 0.023712 -2.190442 -14.730719 0.050980 4.278532 0.469090 5.316603 1.642506 -0.083019 -2.979096 2.767375 6.888669 5.986298 0.000000 0.000000 0.000000 -2.435013 -0.068394 3.232793 -1.078494 0.146851 1.129597 -2.864292 -9.246594 5.024097 0.000000 0.000000 0.000000 6.425340 0.018373 -0.223353 -4.378092 1.422854 -22.829143 0.563775 13.667957 22.375946 10.346958 -4.266713 -21.224057 0.000000 0.000000 0.000000 39.276575 -6.087972 2.388868 40.543856 -36.180265 -12.887194 35.476996 9.771632 2.138271 0.000000 0.000000 0.000000 -33.891683 -1.692839 -0.190227 -25.237919 24.058020 -3.555642 -42.112319 9.770655 -2.310600 0.000000 0.000000 0.000000 
-0.004458 0.948310 0.026133 -2.285597 -14.957172 -0.118616 3.976140 0.496024 5.510528 1.554511 -0.074157 -2.985077 2.956874 7.231230 5.854613 0.000000 0.000000 0.000000 -2.528891 -0.091962 3.837159 -0.889549 0.135965 1.246260 -2.860372 -9.542909 5.747041 0.000000 0.000000 0.000000 6.650726 0.050169 -0.455935 -4.208606 1.370031 -22.303096 0.392868 13.472525 22.425682 10.573568 -4.697787 -20.005658 0.000000 0.000000 0.000000 36.821164 -4.618922 2.314005 37.895646 -35.141028 -11.491794 35.683154 8.358770 1.763227 0.000000 0.000000 0.000000 -32.875452 -2.663340 -0.183999 -24.217494 23.177196 -3.267256 -39.656635 6.997340 -1.276957 0.000000 0.000000 0.000000 
-0.004086 0.948123 0.027859 -2.252992 -15.087312 -0.231503 3.982732 0.506346 5.599523 1.574821 -0.097208 -2.566527 2.684545 6.618651 5.198459 0.000000 0.000000 0.000000 -3.072187 -0.067596 4.388141 -0.053407 0.023600 0.406174 -2.707922 -9.292725 5.888290 0.000000 0.000000 0.000000 6.422712 0.046798 -0.434710 -3.805650 1.265770 -22.669355 0.276316 14.084732 23.249426 11.039264 -4.988939 -19.860537 0.000000 0.000000 0.000000 34.492612 -3.359568 2.348347 34.450845 -33.109840 -9.757316 33.271446 7.174206 1.270628 0.000000 0.000000 0.000000 -30.807137 -4.551676 -0.585933 -23.062433 22.420930 -2.885313 -35.205118 4.165756 -0.238564 0.000000 0.000000 0.000000 
-0.003712 0.948369 0.029179 -2.566748 -15.841264 0.034218 4.226168 0.486283 5.300993 1.437739 -0.111341 -1.972269 2.543009 6.327209 5.398300 0.000000 0.000000 0.000000 -2.684747 -0.090832 4.325744 -0.065952 0.027176 0.460118 -2.136545 -8.310064 6.160330 0.000000 0.000000 0.000000 6.553221 0.020875 -0.198377 -3.527289 1.179005 -22.946032 0.062515 14.795565 23.287915 11.588468 -5.523334 -18.904262 0.000000 0.000000 0.000000 31.783837 -1.812514 2.286433 30.351540 -30.487174 -7.730297 30.595768 6.629213 1.021723 0.000000 0.000000 0.000000 -27.834300 -6.397999 -0.931064 -20.936189 21.234478 -2.427133 -30.254798 0.985988 0.596163 0.000000 0.000000 0.000000 
-0.003327 0.949295 0.030497 -2.644031 -16.350884 0.178869 4.393031 0.473429 5.089710 1.142284 -0.082653 -1.854419 2.365045 6.036228 6.076389 0.000000 0.000000 0.000000 -2.974947 -0.060195 4.452713 0.474612 -0.022748 0.242232 -1.677069 -7.350408 6.026413 0.000000 0.000000 0.000000 6.420185 -0.007671 0.044004 -3.355910 1.115834 -22.418906 -0.202866 14.534241 22.519942 11.575632 -5.753534 -18.024775 0.000000 0.000000 0.000000 29.058605 -0.935460 2.048960 26.776844 -27.429509 -5.764421 23.928419 7.788741 1.058247 0.000000 0.000000 0.000000 -24.731451 -7.848250 -1.094608 -18.744362 19.720677 -2.025817 -24.695564 0.096987 0.623226 0.000000 0.000000 0.000000 
-0.002897 0.949495 0.031983 -2.759950 -17.268937 0.685573 4.390857 0.459504 4.806221 0.825491 -0.039981 -2.010508 2.772129 6.790919 6.388638 0.000000 0.000000 0.000000 -2.812982 -0.038543 3.956224 0.396245 -0.009154 0.396115 -1.270324 -6.669520 6.181680 0.000000 0.000000 0.000000 6.457735 -0.005319 -0.057686 -3.569703 1.166990 -23.270410 0.041534 14.866876 22.947788 11.292258 -5.603409 -18.074236 0.000000 0.000000 0.000000 26.765597 -0.316172 1.780212 22.966634 -24.626010 -4.196285 18.114833 8.068175 0.835750 0.000000 0.000000 0.000000 -22.116456 -9.129228 -1.388892 -15.311388 18.475986 -1.651491 -20.187093 -0.821338 0.637313 0.000000 0.000000 0.000000 
-0.002369 0.949353 0.033652 -2.740449 -17.966683 1.007468 4.163278 0.527989 5.517754 0.616863 0.028828 -3.144507 3.194029 7.604874 6.846863 0.000000 0.000000 0.000000 -2.854557 -0.004371 3.524693 0.688673 -0.035781 0.199791 -0.799021 -5.838215 6.310313 0.000000 0.000000 0.000000 6.682595 -0.031010 0.159661 -4.103969 1.303007 -23.825330 0.258979 14.614101 23.171279 10.854153 -5.309021 -18.552217 0.000000 0.000000 0.000000 24.656661 1.029291 1.339624 18.818213 -23.005227 -3.170922 13.668616 9.221713 0.709099 0.000000 0.000000 0.000000 -19.973700 -10.320070 -1.616627 -11.623619 17.663705 -1.425877 -17.040262 -1.322062 0.577343 0.000000 0.000000 0.000000 
-0.001674 0.948091 0.035109 -2.521618 -18.485485 0.929113 3.751152 0.590472 6.041808 0.545192 0.077461 -4.120272 3.417282 8.046439 7.481416 0.000000 0.000000 0.000000 -3.236046 0.040317 3.520815 0.853882 -0.043663 0.263872 -0.228634 -4.546692 6.011289 0.000000 0.000000 0.000000 6.715958 -0.063428 0.495760 -3.872074 1.250234 -24.301576 0.012943 14.546387 22.958387 10.848470 -5.241217 -19.114489 0.000000 0.000000 0.000000 21.798691 1.348042 1.067064 16.195668 -21.425145 -2.514496 9.736786 9.297078 0.439278 0.000000 0.000000 0.000000 -17.697146 -10.872694 -1.857077 -9.425424 17.779613 -1.405590 -14.691878 -1.207837 0.474636 0.000000 0.000000 0.000000 
-0.000461 0.946511 0.035938 -2.365630 -18.852779 0.652292 3.315709 0.723745 7.210499 0.627255 0.129661 -5.404570 3.796107 8.784750 7.948952 0.000000 0.000000 0.000000 -3.346271 0.045225 3.769034 1.077987 -0.055932 0.329263 -0.519183 -5.028953 5.799908 0.000000 0.000000 0.000000 7.211496 -0.049419 0.476208 -4.007172 1.272732 -24.157762 -0.139593 14.808978 22.473400 10.689049 -5.156999 -18.831665 0.000000 0.000000 0.000000 20.520088 1.222997 1.060310 13.639912 -22.670409 -2.604487 9.895783 10.238021 0.496444 0.000000 0.000000 0.000000 -16.894786 -10.576824 -1.881841 -7.768078 18.731120 -1.473355 -16.378884 -1.210712 0.540806 0.000000 0.000000 0.000000 
0.001175 0.944666 0.035509 -1.987139 -19.242821 0.250610 2.828941 0.797107 7.653352 0.479721 0.150058 -5.542436 4.116312 9.355140 7.048654 0.000000 0.000000 0.000000 -3.647801 0.094547 3.348880 0.605205 0.003658 1.024623 -0.654832 -4.642449 4.635335 0.000000 0.000000 0.000000 7.354490 0.000644 0.138165 -3.533784 1.130177 -23.470058 -0.874864 15.914568 21.654700 11.324576 -5.207475 -19.886783 0.000000 0.000000 0.000000 19.757896 0.575260 1.341241 13.383111 -25.060498 -3.184388 13.765680 9.084894 0.699284 0.000000 0.000000 0.000000 -17.072287 -9.715090 -1.848645 -8.231910 20.449548 -1.677573 -20.178196 -0.037097 0.545269 0.000000 0.000000 0.000000 
0.003243 0.944033 0.033818 -1.530487 -19.214743 0.126864 2.030216 0.808005 7.494977 0.798468 0.126495 -5.662756 4.294633 9.688874 6.921438 0.000000 0.000000 0.000000 -4.580891 0.207475 2.746821 0.977782 -0.008394 1.439058 -0.871768 -5.108031 4.653769 0.000000 0.000000 0.000000 7.537115 0.081432 -0.536065 -3.184732 1.040333 -23.312446 -1.213406 16.931572 21.350204 11.230535 -4.948098 -20.065057 0.000000 0.000000 0.000000 20.547677 -0.350591 1.764386 14.039683 -27.536305 -3.938569 20.634693 5.771934 0.631562 0.000000 0.000000 0.000000 -19.390874 -8.596150 -1.630686 -9.309858 22.454894 -1.952779 -26.266524 1.482927 0.495048 0.000000 0.000000 0.000000 
0.005462 0.943836 0.030908 -1.261007 -18.458217 -0.042512 1.942915 0.819519 7.647235 1.017759 0.127850 -6.025126 3.680240 8.539778 6.693766 0.000000 0.000000 0.000000 -4.580490 0.202335 2.508503 0.600306 0.014016 1.309987 -1.429582 -6.503838 5.132073 0.000000 0.000000 0.000000 8.007411 0.177726 -1.231704 -3.673162 1.173635 -23.001727 -1.318592 17.345647 21.267364 11.931615 -5.095458 -20.927080 0.000000 0.000000 0.000000 23.160959 -1.633154 2.302898 15.707148 -32.491545 -5.609041 27.701359 5.500278 0.705971 0.000000 0.000000 0.000000 -22.308735 -7.196391 -1.409570 -11.330095 23.728303 -2.206738 -33.817542 3.470996 0.223810 0.000000 0.000000 0.000000 
0.007455 0.944601 0.027745 -0.834870 -18.073183 -0.351899 1.598103 0.800612 7.393816 1.526148 0.087902 -6.074926 2.804706 6.863258 6.657393 0.000000 0.000000 0.000000 -5.116177 0.241102 2.639894 0.500990 0.003054 0.872689 -1.747879 -7.287570 5.420216 0.000000 0.000000 0.000000 8.061654 0.212558 -1.462280 -3.950196 1.268632 -23.635122 -1.429823 17.423770 21.858689 12.643282 -5.236653 -22.296371 0.000000 0.000000 0.000000 26.371995 -3.399476 2.677258 17.513254 -36.343088 -7.189437 36.921009 5.183057 0.731982 0.000000 0.000000 0.000000 -25.481584 -5.525192 -1.125544 -12.903441 26.366620 -2.724456 -41.203111 5.348234 -0.301863 0.000000 0.000000 0.000000 
0.008803 0.945010 0.025190 -0.925367 -17.200309 -0.656737 2.086650 0.812537 7.760054 1.289643 0.146139 -6.693263 2.382468 6.165500 7.118477 0.000000 0.000000 0.000000 -5.305983 0.232249 2.959483 0.817910 -0.050615 0.109876 -1.918362 -7.809078 5.852093 0.000000 0.000000 0.000000 8.143917 0.311822 -2.199114 -4.170390 1.333004 -23.124534 -1.190046 17.027270 21.985792 12.981013 -5.131819 -23.649165 0.000000 0.000000 0.000000 29.878554 -5.716882 2.992557 20.638704 -41.412982 -9.796333 45.341123 5.036897 0.781936 0.000000 0.000000 0.000000 -28.808921 -3.072604 -0.806333 -13.862483 29.021760 -3.225667 -49.495777 9.127351 -1.880726 0.000000 0.000000 0.000000 
0.009379 0.945771 0.023604 -0.985774 -17.156931 -0.760141 2.075225 0.775708 7.423534 1.385333 0.118924 -6.370666 2.030878 5.546347 7.525151 0.000000 0.000000 0.000000 -4.861251 0.193545 2.788557 0.010128 0.017389 0.347753 -2.184843 -8.451884 6.079929 0.000000 0.000000 0.000000 8.288735 0.427597 -3.026850 -4.686406 1.466250 -22.942208 -0.710473 16.732648 21.653116 12.080980 -4.620901 -23.539917 0.000000 0.000000 0.000000 32.173806 -8.397948 3.083570 25.500501 -45.775314 -13.093975 50.435851 2.781730 0.011705 0.000000 0.000000 0.000000 -31.367994 0.492859 -0.384487 -15.962165 32.305965 -4.164267 -57.345336 13.939893 -4.814966 0.000000 0.000000 0.000000 
0.009662 0.945721 0.022559 -0.866787 -17.175748 -1.048462 1.897522 0.828165 7.804905 1.289686 0.155271 -6.852749 1.830377 5.179303 7.584472 0.000000 0.000000 0.000000 -4.927553 0.184757 3.247998 -0.448156 0.011911 -0.557593 -1.835367 -7.917848 6.396877 0.000000 0.000000 0.000000 8.291178 0.494536 -3.476314 -5.064491 1.568505 -23.170889 -0.564637 16.518749 22.396690 11.908346 -4.486712 -23.965292 0.000000 0.000000 0.000000 34.959096 -10.433672 2.923111 28.299856 -48.357353 -15.246734 54.577613 1.225482 -0.643774 0.000000 0.000000 0.000000 -33.601743 2.104283 -0.299636 -17.536549 35.245676 -5.063321 -62.685250 17.407365 -7.518519 0.000000 0.000000 0.000000 
0.009710 0.945120 0.021874 -1.010406 -17.362491 -1.041957 1.710043 0.846082 7.870296 1.806429 0.130880 -7.091371 1.935658 5.414039 8.018242 0.000000 0.000000 0.000000 -4.275408 0.138701 2.859618 -1.486918 0.117390 0.047904 -1.826382 -7.736147 6.017710 0.000000 0.000000 0.000000 8.196385 0.551910 -3.930380 -5.520841 1.682105 -23.050003 -0.025024 15.871814 22.462545 12.169963 -4.771301 -23.945315 0.000000 0.000000 0.000000 35.447935 -11.828105 2.680122 31.631872 -48.642637 -16.444393 56.475661 -0.624641 -1.454168 0.000000 0.000000 0.000000 -34.695275 3.699534 -0.018493 -19.786238 36.285915 -5.953000 -66.158613 18.717647 -9.247219 0.000000 0.000000 0.000000 
0.009733 0.945099 0.021329 -0.922922 -17.971613 -0.962284 1.442225 0.858363 7.810533 2.055495 0.090448 -6.788153 1.973827 5.425691 7.948243 0.000000 0.000000 0.000000 -4.374644 0.155551 2.906466 -1.172018 0.090634 0.016262 -1.674333 -7.286147 5.681404 0.000000 0.000000 0.000000 8.193368 0.584357 -4.152966 -5.945465 1.783128 -23.091588 0.173129 16.108320 22.464648 12.359309 -5.157983 -22.668545 0.000000 0.000000 0.000000 37.276204 -12.306893 2.524044 31.805639 -48.948402 -16.590639 57.369233 -1.619359 -1.940589 0.000000 0.000000 0.000000 -35.796854 4.003300 0.026796 -20.094198 36.532707 -6.104603 -69.166968 19.735099 -10.508317 0.000000 0.000000 0.000000 
0.009703 0.944990 0.020890 -0.906461 -18.101394 -1.104917 1.345945 0.892444 8.036887 1.889759 0.122442 -7.084443 2.134394 5.739265 8.094869 0.000000 0.000000 0.000000 -4.458198 0.155562 3.182947 -0.899715 0.063253 -0.124850 -1.672100 -7.257241 5.634706 0.000000 0.000000 0.000000 8.055986 0.546750 -3.900026 -5.866914 1.762286 -23.516338 0.368646 16.098881 23.054359 12.852392 -5.459793 -22.871096 0.000000 0.000000 0.000000 38.452250 -12.008797 2.359216 31.946992 -48.289524 -16.250841 57.125811 -1.164516 -1.704296 0.000000 0.000000 0.000000 -36.830937 3.454536 -0.008288 -20.236821 35.595573 -5.913780 -70.490045 18.915444 -10.255421 0.000000 0.000000 0.000000 
0.009697 0.945415 0.020658 -0.879864 -18.109296 -0.621094 1.303925 0.842952 7.636609 1.899893 0.106832 -6.858770 2.564546 6.523920 7.988707 0.000000 0.000000 0.000000 -4.467060 0.169644 2.898391 -0.626664 0.041744 -0.163433 -2.035114 -7.823366 5.321813 0.000000 0.000000 0.000000 8.119250 0.581734 -4.226425 -5.843459 1.753130 -23.607935 0.264991 16.047079 23.217279 13.427892 -6.061082 -21.841964 0.000000 0.000000 0.000000 39.366270 -11.432469 2.265538 32.079022 -47.436258 -15.836504 56.084601 -0.321332 -1.252117 0.000000 0.000000 0.000000 -37.483123 2.697561 -0.027820 -20.996273 34.174137 -5.714162 -69.192598 17.562910 -9.141275 0.000000 0.000000 0.000000 
0.009783 0.946086 0.020559 -1.030824 -17.866933 -0.426032 1.415974 0.794977 7.309002 1.537252 0.128812 -6.758792 2.983486 7.326361 8.025978 0.000000 0.000000 0.000000 -4.284300 0.144290 3.063048 -0.382649 0.015079 -0.379119 -2.388304 -8.532836 5.362539 0.000000 0.000000 0.000000 7.967372 0.507328 -3.776233 -5.398794 1.644336 -23.973763 0.091706 16.574535 23.334813 13.836207 -6.309796 -21.494786 0.000000 0.000000 0.000000 41.407876 -9.609476 2.402031 31.575505 -46.585870 -15.472263 53.924365 1.628180 -0.395912 0.000000 0.000000 0.000000 -38.720988 0.713363 -0.240793 -20.241371 31.992924 -4.882572 -65.171546 15.980492 -7.135129 0.000000 0.000000 0.000000 
0.010013 0.946687 0.020543 -1.198534 -18.059821 -0.190335 1.255926 0.770636 7.044528 1.900713 0.092213 -6.630079 3.211176 7.721171 7.794047 0.000000 0.000000 0.000000 -4.156834 0.131126 3.189467 -0.382414 -0.012026 -1.027829 -2.013467 -8.168269 6.129873 0.000000 0.000000 0.000000 8.065121 0.421109 -3.113669 -5.031953 1.551624 -24.199397 0.012204 15.988890 23.108410 13.666980 -6.584709 -20.232449 0.000000 0.000000 0.000000 41.358083 -7.645880 2.277783 30.406566 -44.436345 -13.742546 50.362351 3.684318 0.622261 0.000000 0.000000 0.000000 -39.932025 0.165886 -0.005013 -20.168223 29.426495 -4.369398 -59.477990 13.623017 -5.238078 0.000000 0.000000 0.000000 
0.010315 0.947398 0.020699 -1.348488 -17.998115 0.024265 1.500797 0.764978 7.093711 1.953714 0.129333 -7.232671 3.111523 7.591429 8.428316 0.000000 0.000000 0.000000 -4.150484 0.124372 3.361703 -0.312237 -0.039598 -1.623406 -1.803780 -8.006766 6.657913 0.000000 0.000000 0.000000 7.943449 0.315974 -2.378487 -4.329449 1.383826 -24.550354 -0.264128 15.959139 23.184227 13.870799 -6.739035 -20.167012 0.000000 0.000000 0.000000 40.964633 -5.178206 2.353208 29.279444 -41.167523 -11.897808 45.199793 5.819878 1.334390 0.000000 0.000000 0.000000 -39.899614 -2.410776 -0.029446 -19.986909 27.713963 -3.920002 -52.445370 10.260650 -2.904871 0.000000 0.000000 0.000000 
0.010652 0.948280 0.021093 -1.534776 -18.609830 0.635976 1.631302 0.701448 6.553621 1.690092 0.119103 -6.798345 3.254219 7.764906 7.835407 0.000000 0.000000 0.000000 -4.063866 0.137839 3.064683 -0.597980 -0.037880 -2.002579 -1.405815 -7.568102 7.263182 0.000000 0.000000 0.000000 7.749701 0.197726 -1.572175 -3.360422 1.153266 -25.016181 -0.338137 15.569767 22.761964 13.049381 -6.289079 -20.176814 0.000000 0.000000 0.000000 39.047154 -2.038951 2.206925 26.993692 -37.546690 -9.510503 40.824934 7.149779 1.741145 0.000000 0.000000 0.000000 -39.006340 -4.403387 0.227290 -20.303081 25.976856 -3.693883 -44.233315 6.001599 -0.946583 0.000000 0.000000 0.000000 
0.010607 0.949657 0.021568 -1.810564 -19.319891 1.457932 1.957951 0.669347 6.337563 1.965971 0.148695 -7.549231 3.190392 7.659453 9.006258 0.000000 0.000000 0.000000 -4.118911 0.179665 2.466134 0.168586 -0.102591 -2.881709 -0.854893 -7.064036 8.262218 0.000000 0.000000 0.000000 7.786854 0.183913 -1.594570 -2.678107 0.974380 -24.861252 -0.407963 16.329488 22.566723 13.217849 -6.415737 -19.857964 0.000000 0.000000 0.000000 36.295030 -0.045635 2.224007 26.479270 -33.170815 -7.791514 34.158432 8.552608 1.774786 0.000000 0.000000 0.000000 -36.912595 -7.353708 -0.006171 -20.506383 24.968402 -3.457713 -36.613525 1.555081 0.606397 0.000000 0.000000 0.000000 
0.010125 0.950378 0.022251 -2.094333 -19.879501 2.016309 2.469258 0.618872 5.974858 1.601333 0.190701 -7.794464 3.355675 7.929238 9.371723 0.000000 0.000000 0.000000 -3.882531 0.170897 2.379017 0.141745 -0.116604 -3.515529 -0.573185 -7.058674 9.210221 0.000000 0.000000 0.000000 7.825570 0.104600 -1.021210 -2.315278 0.898325 -25.283005 -0.528147 16.506134 22.704295 12.821852 -6.273235 -19.524376 0.000000 0.000000 0.000000 33.234180 2.680887 1.883684 25.852038 -30.282087 -6.560835 28.638248 9.872042 1.775955 0.000000 0.000000 0.000000 -34.121907 -9.083927 -0.248645 -19.974510 22.606090 -2.877174 -28.258549 -2.875075 1.397378 0.000000 0.000000 0.000000 
0.009220 0.951288 0.022890 -2.216444 -20.010906 2.781300 2.852075 0.558370 5.522843 1.595703 0.176829 -7.584295 3.113331 7.470670 9.638073 0.000000 0.000000 0.000000 -4.169151 0.225367 1.876748 0.603151 -0.144156 -4.181615 -0.151517 -6.188621 9.022411 0.000000 0.000000 0.000000 8.150340 0.077431 -0.894538 -2.499358 0.945362 -25.436936 -0.753806 16.708956 22.796939 13.025170 -6.281321 -20.086562 0.000000 0.000000 0.000000 31.183196 3.292828 1.718869 23.292805 -26.312303 -4.789571 22.740607 10.430594 1.460623 0.000000 0.000000 0.000000 -31.726787 -10.903928 -0.607689 -17.852133 20.272068 -2.184930 -20.569605 -5.066053 1.323567 0.000000 0.000000 0.000000 
0.008263 0.950957 0.023584 -2.663469 -20.301120 2.747078 3.403812 0.573361 5.728266 1.467514 0.206029 -7.884470 3.617183 8.380495 10.019107 0.000000 0.000000 0.000000 -3.851041 0.196541 1.902765 0.787487 -0.147094 -4.167661 0.462216 -5.518339 9.860389 0.000000 0.000000 0.000000 8.353035 -0.039459 0.131670 -2.367514 0.917046 -25.573819 -0.616759 16.672609 22.556653 12.107103 -5.722345 -19.957521 0.000000 0.000000 0.000000 28.098635 4.105057 1.396212 20.880465 -23.943752 -3.728750 17.397993 10.284209 1.060522 0.000000 0.000000 0.000000 -28.892437 -11.711655 -0.916580 -15.011041 17.865381 -1.560025 -14.074383 -6.193317 0.952879 0.000000 0.000000 0.000000 
0.007180 0.950738 0.024226 -2.427652 -19.839841 2.752422 3.254742 0.591534 5.955154 1.270930 0.235769 -8.108913 3.433521 8.086706 9.847313 0.000000 0.000000 0.000000 -4.010061 0.209906 1.867832 1.026245 -0.147141 -3.666335 0.664131 -4.804853 9.340381 0.000000 0.000000 0.000000 8.274639 -0.077399 0.399997 -3.157375 1.053728 -24.167035 -0.711903 14.948124 21.462023 10.672181 -4.870675 -20.336561 0.000000 0.000000 0.000000 25.592635 4.938291 0.862830 18.161793 -22.202820 -2.845679 11.049117 11.501746 0.667711 0.000000 0.000000 0.000000 -26.569482 -12.823168 -0.881948 -11.251122 15.097455 -1.068179 -7.990761 -4.768032 0.387772 0.000000 0.000000 0.000000 
0.006106 0.950447 0.024636 -2.348449 -19.183317 2.365336 3.502774 0.615477 6.315140 1.357909 0.269810 -8.681437 3.452550 8.207029 10.257805 0.000000 0.000000 0.000000 -3.924640 0.163948 2.619322 0.932493 -0.146589 -3.604954 0.307599 -5.443301 9.399862 0.000000 0.000000 0.000000 8.175283 -0.154676 1.110830 -2.948282 0.985343 -23.341967 -1.262629 13.987638 20.297508 9.779148 -4.218498 -20.982540 0.000000 0.000000 0.000000 22.334908 5.335850 0.501960 16.186327 -20.961965 -2.365653 6.043075 12.424460 0.195954 0.000000 0.000000 0.000000 -23.746339 -13.490504 -1.168579 -8.353542 13.118797 -0.782840 -3.998037 -4.540877 0.120692 0.000000 0.000000 0.000000 
0.004861 0.949423 0.024766 -2.228855 -18.969669 2.146642 3.069058 0.659707 6.651988 1.611037 0.254911 -8.686296 3.931042 9.080983 10.004297 0.000000 0.000000 0.000000 -4.272541 0.196874 2.554587 1.287132 -0.145739 -2.809390 0.346525 -5.121517 8.985519 0.000000 0.000000 0.000000 8.015896 -0.207241 1.611089 -2.715601 0.932069 -23.271039 -1.282320 13.952543 20.052785 9.756104 -4.178588 -20.977950 0.000000 0.000000 0.000000 20.509907 5.418318 0.368348 13.545970 -21.009161 -2.214110 4.007599 14.489004 -0.044958 0.000000 0.000000 0.000000 -21.947227 -14.047565 -1.529091 -5.713877 11.907470 -0.648789 -1.554387 -6.437329 -0.067507 0.000000 0.000000 0.000000 
0.003455 0.949118 0.024673 -2.102680 -18.217137 1.636686 3.074832 0.729000 7.394982 1.632688 0.267836 -8.877854 4.101991 9.465377 9.884184 0.000000 0.000000 0.000000 -4.374761 0.175939 3.063884 1.332498 -0.145628 -2.491966 0.038843 -5.527031 8.777077 0.000000 0.000000 0.000000 7.934361 -0.265372 2.229707 -2.748571 0.949105 -23.173433 -1.556969 13.407174 19.792314 9.605310 -4.166625 -20.555049 0.000000 0.000000 0.000000 19.608162 5.247802 0.320058 11.505038 -20.373729 -1.958956 2.415612 14.548312 -0.250915 0.000000 0.000000 0.000000 -19.939848 -14.666294 -1.927485 -4.269713 10.861080 -0.565879 -0.716130 -7.872631 -0.171650 0.000000 0.000000 0.000000 
0.002098 0.949122 0.024466 -2.052849 -17.363137 1.509583 3.232229 0.708778 7.385990 1.460985 0.271964 -8.793882 3.990734 9.330755 9.720310 0.000000 0.000000 0.000000 -4.333168 0.159402 3.025495 1.427498 -0.143240 -1.969797 -0.169533 -5.700509 8.481478 0.000000 0.000000 0.000000 7.597399 -0.288339 2.462695 -2.539008 0.917496 -23.308649 -1.641120 12.651760 19.881631 9.264650 -4.054516 -20.185011 0.000000 0.000000 0.000000 19.258712 5.790406 0.149102 9.562550 -20.224646 -1.812012 2.032743 14.677885 -0.299690 0.000000 0.000000 0.000000 -18.618306 -15.134376 -2.186713 -3.504203 10.242815 -0.530758 0.565129 -9.652448 -0.357765 0.000000 0.000000 0.000000 
0.000953 0.948734 0.024147 -1.893237 -16.465437 1.522174 3.018444 0.670151 7.063305 1.640399 0.236449 -8.426973 4.111120 9.586493 9.327486 0.000000 0.000000 0.000000 -4.456070 0.151518 3.250610 1.284064 -0.140198 -1.989707 -0.258745 -5.785646 8.455817 0.000000 0.000000 0.000000 7.219037 -0.264887 2.227689 -2.255102 0.853609 -23.052142 -1.676717 12.327834 19.664932 9.150107 -3.982297 -19.992506 0.000000 0.000000 0.000000 18.946633 6.064290 0.132516 7.759249 -20.548381 -1.776194 1.785175 14.706537 -0.334435 0.000000 0.000000 0.000000 -17.775214 -16.033892 -2.533918 -2.802334 9.868124 -0.519202 0.278467 -10.476609 -0.352934 0.000000 0.000000 0.000000 
0.000186 0.948128 0.023803 -1.896496 -16.067445 1.451892 2.810434 0.646208 6.798514 1.954365 0.191389 -8.043950 4.154525 9.680208 9.158808 0.000000 0.000000 0.000000 -4.239339 0.121358 3.317720 0.754010 -0.111452 -1.910661 -0.409362 -6.126860 8.614901 0.000000 0.000000 0.000000 7.238899 -0.288975 2.465847 -2.314827 0.883332 -23.296184 -1.679631 12.253345 19.949771 8.848818 -3.787556 -19.930712 0.000000 0.000000 0.000000 18.887297 6.585568 0.052465 5.654389 -20.166256 -1.615591 2.239244 14.284986 -0.264868 0.000000 0.000000 0.000000 -16.977438 -16.771792 -2.861242 -2.331411 9.181336 -0.478362 0.368510 -10.658780 -0.369650 0.000000 0.000000 0.000000 
-0.000124 0.947885 0.023417 -1.801542 -15.778154 1.456116 2.705710 0.615777 6.493750 1.982091 0.156604 -7.558779 4.349003 10.031097 8.807466 0.000000 0.000000 0.000000 -4.066819 0.107626 3.150410 0.353889 -0.087621 -1.841020 -0.557775 -6.313825 8.446062 0.000000 0.000000 0.000000 7.299303 -0.298226 2.530269 -2.292387 0.889734 -23.534516 -1.746144 12.386794 20.461885 8.796783 -3.791775 -19.561056 0.000000 0.000000 0.000000 18.224799 7.246221 -0.119354 3.506500 -19.804788 -1.481405 3.121871 14.366381 -0.156293 0.000000 0.000000 0.000000 -16.416317 -17.732195 -3.238279 -1.927054 8.874913 -0.471049 -0.015166 -11.028385 -0.334680 0.000000 0.000000 0.000000 
-0.000045 0.947397 0.023142 -1.866591 -15.437998 1.613507 2.861182 0.585718 6.309072 1.771689 0.180121 -7.699158 4.267371 9.896814 8.699668 0.000000 0.000000 0.000000 -4.141419 0.113657 3.088719 0.477705 -0.101374 -2.039625 -0.671489 -6.377972 8.186723 0.000000 0.000000 0.000000 7.395558 -0.268692 2.175815 -2.153080 0.843588 -22.943121 -1.971803 12.171159 20.205972 8.638961 -3.690513 -19.491356 0.000000 0.000000 0.000000 17.626383 8.273546 -0.364293 1.640034 -19.271412 -1.346757 3.069596 15.201146 -0.177227 0.000000 0.000000 0.000000 -16.129136 -18.381678 -3.424603 -2.012775 8.732796 -0.457718 0.531039 -11.817840 -0.429248 0.000000 0.000000 0.000000 
0.000349 0.947363 0.022864 -1.672575 -15.049154 1.634129 2.817087 0.587701 6.370767 1.284615 0.237472 -8.110316 4.123799 9.686273 9.007611 0.000000 0.000000 0.000000 -4.072944 0.104978 3.042670 0.224990 -0.083497 -1.910929 -0.804656 -6.310696 7.565109 0.000000 0.000000 0.000000 7.547134 -0.276064 2.199834 -2.193286 0.868539 -23.231562 -2.115631 11.951701 20.712956 8.700859 -3.839201 -18.948175 0.000000 0.000000 0.000000 17.048008 9.307223 -0.672227 -0.582754 -18.104962 -1.184690 3.213960 15.561758 -0.162349 0.000000 0.000000 0.000000 -15.708480 -19.082034 -3.682467 -1.915709 8.543936 -0.449311 0.625334 -12.298329 -0.460468 0.000000 0.000000 0.000000 
0.000931 0.947325 0.022563 -1.444839 -14.924855 1.712076 2.658517 0.598776 6.445960 0.957122 0.279991 -8.479046 3.961426 9.400611 8.948505 0.000000 0.000000 0.000000 -4.086564 0.107619 3.005609 0.266265 -0.086526 -1.929167 -1.005236 -6.518511 7.197257 0.000000 0.000000 0.000000 7.584454 -0.250946 1.925907 -2.275949 0.879724 -22.790079 -2.344562 12.106110 20.645413 8.759735 -3.842491 -18.935674 0.000000 0.000000 0.000000 16.368286 10.537201 -0.975986 -2.073742 -17.760099 -1.130418 3.145777 16.442516 -0.191327 0.000000 0.000000 0.000000 -15.513343 -19.586051 -3.875046 -1.559304 8.037436 -0.427689 0.491484 -12.442891 -0.445369 0.000000 0.000000 0.000000 
0.001416 0.947141 0.021873 -1.169380 -15.142917 1.750659 2.488571 0.611112 6.471540 0.908025 0.320122 -9.073772 3.714545 9.008839 9.854160 0.000000 0.000000 0.000000 -4.016041 0.108395 2.943131 -0.120882 -0.060902 -1.856079 -0.812720 -5.955159 6.794578 0.000000 0.000000 0.000000 7.707892 -0.246614 1.864603 -2.521014 0.918843 -22.148345 -2.670163 12.656673 20.222789 9.242586 -4.068226 -19.005633 0.000000 0.000000 0.000000 15.598541 10.920351 -1.083367 -2.303901 -16.148974 -1.034814 2.496516 16.822404 -0.307138 0.000000 0.000000 0.000000 -15.018961 -20.231089 -4.175988 -1.700602 8.017354 -0.418924 0.702788 -12.048165 -0.455804 0.000000 0.000000 0.000000 
0.001930 0.947329 0.020353 -0.932940 -15.291511 1.576251 2.536832 0.615073 6.492819 0.631882 0.338789 -9.130155 3.333337 8.310470 9.765696 0.000000 0.000000 0.000000 -4.062925 0.110906 3.015164 -0.094003 -0.052726 -1.592339 -1.093620 -6.371737 6.483863 0.000000 0.000000 0.000000 7.655709 -0.232776 1.784834 -3.016857 1.031925 -21.283088 -2.895826 13.093582 19.764338 9.506029 -4.073848 -19.525889 0.000000 0.000000 0.000000 15.371469 11.410225 -1.136988 -2.495541 -15.633350 -1.001120 3.248849 16.720167 -0.201293 0.000000 0.000000 0.000000 -14.675114 -19.909375 -4.221456 -1.270496 7.629899 -0.410897 0.085208 -11.226099 -0.345768 0.000000 0.000000 0.000000 
0.002289 0.947449 0.017810 -0.947938 -16.061694 1.575989 2.642595 0.603182 6.310530 0.438949 0.336950 -8.895592 3.297828 8.153996 9.483121 0.000000 0.000000 0.000000 -3.912609 0.143104 2.152324 -0.308406 -0.010723 -0.873914 -0.792782 -5.631968 6.116740 0.000000 0.000000 0.000000 7.451612 -0.271860 2.207302 -2.983012 1.007009 -21.337761 -3.035800 14.314910 19.799696 10.319044 -4.336006 -20.320853 0.000000 0.000000 0.000000 15.036353 10.961773 -0.986437 -1.277793 -14.766382 -0.958422 4.324015 17.418338 -0.071631 0.000000 0.000000 0.000000 -14.026107 -19.646388 -4.417849 -1.361676 8.036302 -0.433736 -1.013492 -10.057099 -0.180223 0.000000 0.000000 0.000000 
0.002454 0.947619 0.014392 -0.942140 -16.280177 1.825533 2.687596 0.567640 5.960736 0.561084 0.360183 -9.384065 3.028504 7.656615 9.647588 0.000000 0.000000 0.000000 -3.469529 0.119049 1.932722 -0.510346 -0.015159 -1.301044 -0.735210 -5.579610 6.207633 0.000000 0.000000 0.000000 7.364379 -0.255453 2.006150 -3.631399 1.170261 -20.596768 -3.138028 14.480412 19.088812 9.907402 -3.983177 -20.592218 0.000000 0.000000 0.000000 15.097841 11.007864 -0.935734 0.410516 -14.635125 -0.944226 5.911838 16.741254 0.163943 0.000000 0.000000 0.000000 -14.334568 -18.238021 -4.023759 -1.351281 8.765193 -0.482871 -2.035796 -9.248885 -0.050897 0.000000 0.000000 0.000000 
0.002251 0.947538 0.010766 -0.926026 -16.709305 2.068105 2.753403 0.485281 5.098057 0.452840 0.329941 -8.776602 2.860357 7.254857 9.198290 0.000000 0.000000 0.000000 -3.124012 0.134153 1.168543 -1.104904 0.032908 -1.072153 -0.288079 -4.595279 6.006082 0.000000 0.000000 0.000000 7.071143 -0.206678 1.517170 -4.089638 1.284517 -20.168570 -3.042335 15.515579 19.165250 10.617788 -4.293863 -20.736996 0.000000 0.000000 0.000000 15.832767 10.464306 -0.572370 2.370541 -16.246598 -1.123917 8.776280 17.313431 0.561711 0.000000 0.000000 0.000000 -14.433303 -17.681704 -4.013442 -1.488360 10.294345 -0.582515 -4.050246 -6.573425 0.155756 0.000000 0.000000 0.000000 
0.001757 0.947312 0.007268 -0.982083 -17.430034 1.923650 2.841167 0.499292 5.160067 0.787929 0.320275 -8.931754 2.880312 7.282643 9.816882 0.000000 0.000000 0.000000 -2.910460 0.125598 1.098815 -0.962939 0.002499 -1.528191 0.015333 -4.568195 6.949365 0.000000 0.000000 0.000000 6.921169 -0.202699 1.558873 -4.463276 1.374257 -19.717473 -2.859229 16.110588 18.689218 10.552835 -4.446774 -19.522962 0.000000 0.000000 0.000000 16.364158 9.309615 -0.191297 4.575545 -16.541797 -1.211926 11.984683 15.393988 0.905736 0.000000 0.000000 0.000000 -15.107703 -16.312654 -3.619615 -1.883622 13.276396 -0.780539 -7.316502 -4.748676 0.382515 0.000000 0.000000 0.000000 
0.000986 0.946200 0.004040 -0.841743 -17.224969 1.524139 3.165692 0.476311 4.963901 0.558141 0.290871 -8.226900 2.253412 6.097482 9.055465 0.000000 0.000000 0.000000 -2.622292 0.082378 1.389942 -1.286973 0.019640 -1.593179 -0.339450 -4.794357 6.111326 0.000000 0.000000 0.000000 6.458420 -0.119062 0.834210 -4.864738 1.512873 -17.718973 -3.002438 16.437814 17.379674 11.569027 -5.024819 -19.303382 0.000000 0.000000 0.000000 17.136634 8.208209 0.344634 7.780376 -19.699007 -1.825394 17.299415 12.318902 1.193156 0.000000 0.000000 0.000000 -15.720768 -14.906851 -3.298533 -3.925199 16.226646 -1.005391 -10.435383 -2.499763 0.487761 0.000000 0.000000 0.000000 
0.000192 0.945054 0.000621 -0.553078 -17.376718 0.709321 2.945023 0.484645 4.899328 0.775171 0.224139 -7.353685 1.896864 5.380931 8.654217 0.000000 0.000000 0.000000 -3.212753 0.118064 1.552395 -0.623224 -0.016785 -1.509059 -0.762472 -5.761069 6.293504 0.000000 0.000000 0.000000 6.070829 -0.078879 0.604243 -5.159496 1.630552 -16.098306 -3.423918 17.000391 15.547645 11.791098 -5.241663 -18.346412 0.000000 0.000000 0.000000 17.650693 5.633985 1.122561 10.822747 -22.776270 -2.665419 26.350323 7.867451 1.054336 0.000000 0.000000 0.000000 -16.944183 -12.028627 -2.632965 -5.144693 19.899869 -1.333895 -17.013062 1.054971 0.483052 0.000000 0.000000 0.000000 
-0.000431 0.943640 -0.002822 -0.329573 -17.340734 -0.184138 3.112169 0.573538 5.770285 0.390574 0.290604 -8.029216 1.839994 5.363387 9.098724 0.000000 0.000000 0.000000 -3.393975 0.096759 2.183025 -0.101457 -0.068630 -2.102707 -1.011509 -6.467997 6.706691 0.000000 0.000000 0.000000 5.818305 -0.041204 0.390439 -5.870709 1.899665 -15.235219 -3.463984 18.284972 14.658631 12.708475 -5.925547 -17.150535 0.000000 0.000000 0.000000 20.439299 2.042833 2.439117 12.172242 -27.309042 -3.928421 34.796300 3.996767 0.107934 0.000000 0.000000 0.000000 -18.828133 -9.014996 -2.144071 -6.804954 21.814907 -1.515316 -23.321123 8.195561 -0.424362 0.000000 0.000000 0.000000 
-0.000959 0.942909 -0.006134 0.025903 -17.081626 -0.976295 2.814386 0.576585 5.686677 0.830007 0.219446 -7.346712 1.051957 3.860336 8.555404 0.000000 0.000000 0.000000 -3.790497 0.099851 2.722901 0.256012 -0.096910 -2.389378 -1.669921 -8.215665 7.696696 0.000000 0.000000 0.000000 6.162376 0.011058 0.049182 -6.580377 2.168984 -14.910755 -3.909296 18.573681 14.273751 13.871726 -6.710027 -16.915417 0.000000 0.000000 0.000000 22.150500 0.014938 3.066802 14.243725 -32.944639 -5.802298 43.436080 -3.423834 -2.764459 0.000000 0.000000 0.000000 -22.365459 -5.435041 -1.452209 -7.686772 24.046150 -1.722244 -34.081042 19.010676 -3.395471 0.000000 0.000000 0.000000 
-0.001404 0.943061 -0.009051 -0.199410 -16.102347 -1.386194 3.659525 0.632939 6.577130 0.252145 0.319351 -8.399132 0.523536 3.181421 9.508185 0.000000 0.000000 0.000000 -3.718834 0.036710 3.738022 0.951099 -0.158533 -3.436647 -2.068500 -9.366119 8.797700 0.000000 0.000000 0.000000 6.581329 0.075138 -0.434419 -7.715209 2.653795 -13.771836 -4.079432 18.615981 13.207345 15.103257 -7.424012 -16.928914 0.000000 0.000000 0.000000 26.235318 -4.129883 4.181353 16.403510 -37.885034 -7.993155 51.111889 -9.867370 -6.495882 0.000000 0.000000 0.000000 -27.114188 -2.131023 -1.029664 -7.971221 26.710239 -1.865429 -44.277029 28.021121 -7.595770 0.000000 0.000000 0.000000 
-0.001884 0.943021 -0.011294 -0.403850 -16.050315 -1.619081 3.898368 0.627584 6.564576 0.801128 0.287402 -8.458131 0.233492 2.798768 10.153425 0.000000 0.000000 0.000000 -3.269704 -0.019742 4.026380 0.581427 -0.143929 -3.452593 -2.296700 -10.209066 9.886284 0.000000 0.000000 0.000000 6.643545 0.050459 -0.133015 -8.298296 2.823608 -14.573849 -3.561784 18.902063 12.769938 15.688966 -7.885392 -16.551869 0.000000 0.000000 0.000000 28.126946 -7.446539 4.665923 21.795445 -42.675446 -11.529870 54.621108 -14.725153 -9.308645 0.000000 0.000000 0.000000 -32.451324 1.125438 -0.751191 -11.185163 30.348860 -2.536457 -53.150914 29.792918 -10.228881 0.000000 0.000000 0.000000 
-0.002482 0.943503 -0.012736 -0.385599 -15.954040 -1.128687 3.917282 0.578336 6.101952 0.774831 0.309294 -8.791151 0.137718 2.749292 10.733234 0.000000 0.000000 0.000000 -3.760104 0.029011 4.015800 1.778823 -0.202061 -4.209721 -3.000469 -11.396154 9.745018 0.000000 0.000000 0.000000 6.685467 0.067101 -0.397626 -9.079345 3.021468 -15.884599 -3.348803 19.149326 12.847736 15.430385 -7.919735 -15.685740 0.000000 0.000000 0.000000 32.773092 -9.307755 4.995527 24.937213 -46.502931 -14.552689 56.725204 -13.779300 -9.158692 0.000000 0.000000 0.000000 -37.328383 2.518730 -0.733629 -14.895564 32.524999 -3.303495 -56.924727 27.325270 -9.830297 0.000000 0.000000 0.000000 
-0.003043 0.944410 -0.013488 -0.641660 -16.104916 -0.938837 3.935793 0.531486 5.567552 1.015029 0.269655 -8.391986 0.475800 3.307253 10.699403 0.000000 0.000000 0.000000 -3.167077 -0.001887 3.506051 1.031592 -0.162091 -3.460937 -3.135019 -11.416872 9.060918 0.000000 0.000000 0.000000 6.655029 0.001335 0.192575 -9.349247 2.953945 -18.491634 -3.246962 19.726818 14.554469 16.245653 -8.742936 -15.053890 0.000000 0.000000 0.000000 34.443831 -9.267817 4.957206 28.940509 -48.520084 -17.411896 58.036345 -10.318558 -7.541915 0.000000 0.000000 0.000000 -39.504455 2.632473 -0.980397 -20.039649 32.460099 -4.053362 -57.429864 19.745759 -6.183576 0.000000 0.000000 0.000000 
-0.003545 0.945452 -0.013666 -0.912789 -16.707138 -0.189117 3.959380 0.473512 4.890177 1.514759 0.212257 -7.998647 0.583785 3.387904 10.564496 0.000000 0.000000 0.000000 -3.327588 0.051955 2.868486 1.708491 -0.186248 -3.571089 -2.776187 -11.225942 10.182672 0.000000 0.000000 0.000000 7.185019 0.051461 -0.342480 -10.391378 3.184369 -20.010012 -2.864489 20.070349 15.652756 15.516429 -9.008689 -12.635907 0.000000 0.000000 0.000000 35.046677 -8.217413 4.827024 29.840437 -50.434672 -18.802887 57.259920 -3.846519 -3.975989 0.000000 0.000000 0.000000 -41.227400 1.771435 -0.979568 -22.289855 31.246580 -4.173687 -57.460456 13.745543 -3.200042 0.000000 0.000000 0.000000 
-0.004089 0.946147 -0.013313 -1.019878 -16.407690 0.009579 3.912600 0.465813 4.877668 1.925309 0.205988 -8.277168 0.438133 3.240096 11.001403 0.000000 0.000000 0.000000 -3.816737 0.082771 3.122656 2.559534 -0.220703 -4.082934 -2.801516 -11.444605 10.772907 0.000000 0.000000 0.000000 7.277121 0.066421 -0.520151 -11.071078 3.346123 -20.850403 -3.024231 20.502266 16.321007 15.180296 -8.846823 -12.251528 0.000000 0.000000 0.000000 33.931509 -6.846789 4.888620 29.967472 -50.463218 -19.109135 56.947470 2.317448 -0.988363 0.000000 0.000000 0.000000 -40.831940 -0.044964 -1.208719 -24.540565 29.802511 -4.039685 -54.699932 9.272746 -0.833986 0.000000 0.000000 0.000000 
-0.004592 0.946975 -0.012461 -0.884120 -16.613757 0.425397 3.298052 0.444583 4.574940 2.753869 0.144824 -8.121700 0.500709 3.202830 10.440374 0.000000 0.000000 0.000000 -4.166432 0.121541 3.149120 2.926648 -0.228618 -4.391878 -3.080309 -12.136786 11.372569 0.000000 0.000000 0.000000 7.149482 0.064231 -0.615475 -10.833530 3.143196 -23.076606 -2.968641 21.241677 17.785744 15.252082 -9.134789 -11.576930 0.000000 0.000000 0.000000 31.489158 -5.245600 4.701815 26.775309 -50.180573 -17.572626 58.521059 4.592532 -0.064929 0.000000 0.000000 0.000000 -40.027460 -1.088656 -1.511240 -25.398640 28.411940 -3.690344 -55.122086 5.990316 0.760941 0.000000 0.000000 0.000000 
-0.005293 0.947391 -0.011404 -0.880478 -16.363706 0.511995 3.248166 0.444483 4.613520 2.951019 0.174568 -8.628406 0.395486 3.128587 10.900054 0.000000 0.000000 0.000000 -4.144039 0.106994 3.433557 2.902415 -0.229799 -4.779436 -3.385196 -12.562196 11.160819 0.000000 0.000000 0.000000 6.997530 0.071275 -0.738501 -10.766234 3.109439 -23.406000 -3.103741 21.876103 17.651078 15.431133 -9.653916 -10.253477 0.000000 0.000000 0.000000 29.415254 -4.154899 4.730437 24.263318 -49.629298 -16.383749 60.594641 6.073596 0.429167 0.000000 0.000000 0.000000 -38.533618 -2.052469 -1.781031 -26.950492 26.926640 -3.324326 -53.884601 3.396092 2.025431 0.000000 0.000000 0.000000 
-0.006039 0.947524 -0.010504 -0.799817 -16.748584 0.305155 2.733152 0.494423 5.002177 3.143090 0.197766 -9.039176 0.749319 3.819587 11.537087 0.000000 0.000000 0.000000 -4.270633 0.115244 3.685291 2.807383 -0.224141 -4.738604 -3.115473 -11.990113 10.776560 0.000000 0.000000 0.000000 6.682997 -0.013789 0.064527 -10.320892 2.898893 -25.557115 -2.782139 22.446029 19.227196 15.263501 -9.513209 -10.385020 0.000000 0.000000 0.000000 27.821216 -2.714250 4.419997 22.732784 -47.862380 -14.909869 63.455519 7.846989 1.200284 0.000000 0.000000 0.000000 -37.256525 -2.504721 -2.035332 -28.248637 26.059095 -3.126841 -54.045636 -0.090137 3.532203 0.000000 0.000000 0.000000 
-0.006460 0.948173 -0.010058 -0.650016 -16.816540 0.371318 2.631950 0.500408 5.043139 2.781176 0.247843 -9.426668 1.046789 4.357867 11.721364 0.000000 0.000000 0.000000 -4.492333 0.133010 3.912850 2.606595 -0.219148 -5.026197 -2.991594 -11.656722 10.441439 0.000000 0.000000 0.000000 6.588990 -0.030487 0.202553 -10.198584 2.859649 -25.773386 -2.607550 22.224136 19.122743 14.992402 -9.492621 -9.880875 0.000000 0.000000 0.000000 27.606593 -1.151938 4.196456 23.026116 -45.495843 -13.829569 61.857192 10.648565 2.655190 0.000000 0.000000 0.000000 -36.614915 -3.178006 -2.000096 -29.297594 25.593945 -3.110615 -53.528669 -2.638108 4.523531 0.000000 0.000000 0.000000 
-0.006350 0.948573 -0.010261 -0.763457 -16.100002 0.407142 3.023817 0.487714 5.079264 2.606311 0.268774 -9.572309 1.069064 4.547746 12.078624 0.000000 0.000000 0.000000 -4.226111 0.088997 4.042044 2.139274 -0.217032 -5.206219 -2.704622 -10.897390 9.867800 0.000000 0.000000 0.000000 6.309222 -0.062779 0.483572 -9.405745 2.686211 -25.146510 -2.639442 21.951521 18.317379 14.795920 -8.951164 -10.861044 0.000000 0.000000 0.000000 29.022221 0.026080 4.389606 26.257361 -43.369763 -14.191228 59.055643 14.075719 4.180858 0.000000 0.000000 0.000000 -36.960345 -3.630144 -2.011894 -29.815795 25.324801 -3.007848 -51.377741 -4.281386 5.086963 0.000000 0.000000 0.000000 
-0.005820 0.949128 -0.011273 -0.694409 -15.854473 0.583358 2.901938 0.475777 4.974643 2.474095 0.291633 -9.778189 1.318371 4.998887 12.055318 0.000000 0.000000 0.000000 -4.092156 0.082199 3.777585 2.033051 -0.217438 -5.299458 -2.762664 -10.936597 9.717540 0.000000 0.000000 0.000000 6.347919 -0.073387 0.550122 -8.992258 2.594691 -24.731856 -2.388080 21.361565 18.313223 13.957073 -8.529854 -10.218680 0.000000 0.000000 0.000000 31.790105 1.291838 4.483097 29.612866 -40.121809 -13.771543 53.204474 16.399621 4.812378 0.000000 0.000000 0.000000 -37.765353 -4.304869 -1.873137 -30.659842 25.117358 -3.066568 -49.567244 -6.092371 5.521324 0.000000 0.000000 0.000000 
-0.005000 0.949447 -0.013060 -0.911478 -15.530720 0.541828 3.287817 0.433857 4.621280 2.010171 0.284903 -9.414345 1.472120 5.229962 11.587266 0.000000 0.000000 0.000000 -3.906700 0.051497 3.938542 2.131188 -0.223515 -5.407272 -2.574437 -10.225907 8.794513 0.000000 0.000000 0.000000 6.340336 -0.131255 1.146137 -8.267263 2.412140 -24.739195 -1.754731 21.039403 18.347464 13.371634 -8.354816 -9.327284 0.000000 0.000000 0.000000 35.240116 1.788059 4.789008 32.189172 -37.318421 -13.283930 47.516820 17.887716 4.827908 0.000000 0.000000 0.000000 -38.676082 -5.101005 -1.797503 -31.499832 25.172042 -3.151777 -46.057880 -5.972080 4.944068 0.000000 0.000000 0.000000 
-0.004265 0.949432 -0.015456 -1.183601 -15.150514 0.494236 3.466581 0.417963 4.514622 1.974500 0.258062 -9.024519 1.147366 4.628408 11.070393 0.000000 0.000000 0.000000 -3.493217 0.014491 3.698873 1.836631 -0.220271 -5.335840 -2.496783 -10.017523 8.663047 0.000000 0.000000 0.000000 6.608695 -0.168014 1.522716 -7.567285 2.253426 -23.915840 -1.553115 20.169809 17.971275 12.718591 -7.789699 -9.597992 0.000000 0.000000 0.000000 38.272386 2.388807 4.937547 34.659065 -35.115140 -12.820973 41.358606 17.867004 4.256357 0.000000 0.000000 0.000000 -39.672838 -5.314612 -1.518107 -33.102738 25.078845 -3.360051 -41.966343 -6.038698 4.294488 0.000000 0.000000 0.000000 
-0.003961 0.949338 -0.017994 -1.626109 -14.504841 0.683821 4.088290 0.364868 4.080620 1.602690 0.234426 -8.383938 1.217160 4.615513 9.914328 0.000000 0.000000 0.000000 -2.517357 -0.040303 2.914671 1.243312 -0.199226 -4.639556 -2.107117 -8.971054 7.933533 0.000000 0.000000 0.000000 6.483563 -0.173067 1.534228 -6.939457 2.122880 -22.206802 -0.966592 19.004596 16.598042 12.248876 -7.907219 -8.050216 0.000000 0.000000 0.000000 40.643527 2.225180 5.110915 35.615204 -33.548025 -12.140986 35.803050 16.645439 3.434539 0.000000 0.000000 0.000000 -40.268343 -5.150683 -1.104613 -34.499511 25.005579 -3.632391 -38.804280 -5.586837 3.651313 0.000000 0.000000 0.000000 
-0.004272 0.949129 -0.020383 -1.915990 -14.360847 1.035876 4.674461 0.290467 3.193520 1.469006 0.168264 -7.207622 0.757883 3.620461 8.958338 0.000000 0.000000 0.000000 -1.814771 -0.019575 1.684129 0.544929 -0.139683 -3.157613 -1.837171 -8.034600 6.936932 0.000000 0.000000 0.000000 6.741992 -0.133900 1.049210 -6.626891 2.072622 -20.413369 -0.613210 18.402079 15.313240 11.127704 -6.986427 -8.072881 0.000000 0.000000 0.000000 42.109388 2.268848 5.265624 36.729948 -33.134447 -12.142347 31.519358 14.912130 2.674901 0.000000 0.000000 0.000000 -41.210196 -5.272890 -0.730421 -35.574007 25.554369 -4.071864 -35.753691 -5.162601 3.142087 0.000000 0.000000 0.000000 
-0.005080 0.948799 -0.022306 -2.186750 -13.742212 1.139465 5.148000 0.251784 2.756460 1.540612 0.133591 -6.702000 0.558098 3.113644 8.016016 0.000000 0.000000 0.000000 -1.243689 -0.053839 1.564700 0.125270 -0.100314 -2.524298 -2.351284 -8.771079 6.355673 0.000000 0.000000 0.000000 6.809450 -0.087145 0.555898 -6.150291 1.966348 -19.313835 -0.287237 17.952668 14.761222 10.529598 -6.877724 -6.722135 0.000000 0.000000 0.000000 42.727478 1.321447 5.339708 37.499850 -33.439369 -12.536877 28.295890 13.119229 2.055392 0.000000 0.000000 0.000000 -41.327747 -4.457775 -0.649041 -35.888173 25.725266 -4.192442 -34.577755 -4.059589 2.697178 0.000000 0.000000 0.000000 
-0.006134 0.948048 -0.023818 -2.317973 -13.187854 1.103024 5.436225 0.207504 2.125233 1.479196 0.073783 -5.566385 0.861616 3.632079 7.627436 0.000000 0.000000 0.000000 -0.853531 -0.036273 0.975351 -0.262392 -0.034634 -1.367090 -2.532551 -8.817246 5.635105 0.000000 0.000000 0.000000 6.795956 -0.058269 0.269041 -5.990955 1.939258 -18.901664 0.043339 17.224042 14.606082 10.048786 -6.508322 -6.755934 0.000000 0.000000 0.000000 43.237854 0.194925 5.216383 38.291334 -34.773596 -13.362228 27.714027 11.558691 1.758656 0.000000 0.000000 0.000000 -41.620850 -3.789992 -0.486685 -35.919397 27.015560 -4.799718 -33.208954 -3.545466 2.385897 0.000000 0.000000 0.000000 
-0.006935 0.947725 -0.024957 -2.373564 -12.780758 0.539163 5.334626 0.222614 2.352431 1.738393 0.030993 -5.170226 1.269721 4.404453 7.532513 0.000000 0.000000 0.000000 -0.853452 -0.068620 1.369996 -0.185842 -0.013165 -0.703418 -2.873677 -9.369571 5.348571 0.000000 0.000000 0.000000 6.876961 -0.077540 0.571358 -5.964985 1.944699 -18.865617 0.349641 16.908395 14.991340 9.538441 -6.062885 -6.952582 0.000000 0.000000 0.000000 42.456180 -1.282959 5.026197 38.802136 -35.975062 -14.150489 27.343326 9.482588 1.352679 0.000000 0.000000 0.000000 -40.739729 -2.980765 -0.581835 -35.557147 27.808755 -5.069060 -34.298865 -2.609726 2.193684 0.000000 0.000000 0.000000 
-0.007441 0.947550 -0.025909 -2.338854 -11.981286 0.313028 5.567488 0.204816 2.183724 1.288325 0.036964 -4.516825 1.560121 5.030992 7.658905 0.000000 0.000000 0.000000 -0.755754 -0.072749 1.314400 -0.359117 0.036318 0.121671 -2.902497 -9.301552 5.092117 0.000000 0.000000 0.000000 6.772984 -0.077337 0.590225 -5.727127 1.896786 -18.646684 0.087220 16.122623 14.893486 9.016166 -5.490369 -7.665821 0.000000 0.000000 0.000000 41.094360 -2.975415 4.809559 39.804716 -37.885188 -15.460874 28.600186 8.554593 1.268294 0.000000 0.000000 0.000000 -39.359519 -1.774759 -0.569232 -34.855802 28.989590 -5.514153 -37.033277 -1.857657 2.142072 0.000000 0.000000 0.000000 
-0.007596 0.947219 -0.026860 -2.093855 -11.561263 0.124631 5.098497 0.190161 2.011500 1.732806 -0.004768 -4.454180 1.696103 5.358749 7.921201 0.000000 0.000000 0.000000 -0.970917 -0.041137 1.054078 -0.369122 0.073151 0.898877 -2.700304 -8.727771 4.735890 0.000000 0.000000 0.000000 6.763942 -0.034015 0.195414 -5.635473 1.897008 -17.809715 -0.057986 14.653998 14.369966 9.160426 -5.420812 -8.839194 0.000000 0.000000 0.000000 39.215496 -5.234920 4.351056 38.645693 -39.116822 -15.279248 28.469933 6.511493 0.927924 0.000000 0.000000 0.000000 -38.570589 -0.723285 -0.210919 -34.445117 31.021457 -6.534803 -40.225022 -1.829335 2.200841 0.000000 0.000000 0.000000 
-0.007618 0.946674 -0.027813 -2.055160 -11.653875 -0.098855 4.803932 0.206242 2.221577 1.583107 -0.003275 -4.239800 2.194083 6.286127 8.048031 0.000000 0.000000 0.000000 -1.160340 -0.056850 1.393641 -0.034739 0.030223 0.615058 -2.724732 -8.977953 5.221915 0.000000 0.000000 0.000000 6.839811 -0.036581 0.275799 -5.134571 1.718795 -19.116447 -0.097042 14.338966 16.273107 9.360441 -5.239295 -10.643839 0.000000 0.000000 0.000000 37.500500 -6.978635 3.953917 38.347758 -40.620712 -15.794867 28.678255 5.108478 0.661237 0.000000 0.000000 0.000000 -37.261787 0.305161 -0.286333 -33.154952 32.630327 -7.013731 -45.823185 -0.619708 1.992849 0.000000 0.000000 0.000000 
-0.007505 0.945515 -0.028978 -1.708789 -11.395519 -0.443619 4.235533 0.216759 2.372726 1.591619 -0.003319 -4.244599 2.106951 6.215182 8.432831 0.000000 0.000000 0.000000 -1.601922 -0.038554 1.475753 0.100727 0.056073 1.493193 -2.879949 -9.236133 5.093349 0.000000 0.000000 0.000000 6.932533 -0.018472 0.166812 -5.064501 1.701119 -19.378486 -0.549767 13.472290 17.018737 9.989901 -5.489718 -12.079279 0.000000 0.000000 0.000000 35.115596 -9.155847 3.656185 38.373734 -42.741068 -16.677191 28.584477 3.404575 0.350679 0.000000 0.000000 0.000000 -35.668667 1.506897 -0.150656 -32.691218 34.942107 -7.989868 -50.414522 0.064558 1.741501 0.000000 0.000000 0.000000 
-0.007457 0.944796 -0.030296 -1.480003 -11.060282 -0.569345 4.264882 0.233129 2.655909 0.949171 0.076797 -4.686633 2.055090 6.270313 9.083801 0.000000 0.000000 0.000000 -1.757221 -0.033729 1.509874 0.456798 0.026374 1.612737 -3.290641 -10.219010 5.494085 0.000000 0.000000 0.000000 6.969719 0.009441 -0.082440 -4.614641 1.573455 -19.573305 -0.978589 12.881851 17.550621 9.903356 -5.137272 -13.667226 0.000000 0.000000 0.000000 32.843246 -12.538616 3.614855 37.283835 -45.625914 -17.670381 29.183467 1.762119 0.035434 0.000000 0.000000 0.000000 -34.207491 3.702091 -0.013169 -30.321710 38.255476 -8.758295 -57.504429 2.169282 0.878700 0.000000 0.000000 0.000000 
-0.007367 0.943920 -0.031680 -1.451905 -10.277082 -0.817421 4.607948 0.265264 3.293355 0.168426 0.168130 -5.217937 1.790227 5.900066 9.198147 0.000000 0.000000 0.000000 -1.833272 -0.018297 1.289072 0.566385 0.036711 2.161946 -3.387408 -10.443359 5.628105 0.000000 0.000000 0.000000 7.362291 0.079878 -0.667542 -4.466402 1.553374 -18.809082 -1.593207 11.979421 17.581887 10.689141 -5.523644 -14.754030 0.000000 0.000000 0.000000 28.948122 -15.746569 3.840713 36.331910 -49.953513 -19.498152 30.900854 -3.015888 -1.059778 0.000000 0.000000 0.000000 -31.985658 6.494887 0.275635 -28.218972 42.387078 -9.771306 -67.002610 6.445719 -1.724405 0.000000 0.000000 0.000000 
-0.007335 0.942591 -0.033088 -1.496911 -10.352015 -1.038065 5.037701 0.280018 3.537825 -0.528810 0.214291 -4.863544 2.087734 6.433919 9.222810 0.000000 0.000000 0.000000 -2.021585 -0.030356 1.599971 1.535667 -0.070536 1.915175 -3.321996 -10.396886 5.875264 0.000000 0.000000 0.000000 7.871207 0.180612 -1.414910 -4.592985 1.604504 -17.668845 -2.073684 11.832369 17.075096 10.591745 -5.420604 -14.897825 0.000000 0.000000 0.000000 24.919100 -20.385698 4.518386 33.491966 -54.200566 -20.392238 31.713771 -11.211944 -3.101335 0.000000 0.000000 0.000000 -28.165919 10.411496 0.888984 -23.971512 47.099391 -10.057076 -78.853285 15.232732 -8.983616 0.000000 0.000000 0.000000 
-0.007160 0.941295 -0.034205 -1.884940 -11.234543 -0.886489 5.617242 0.306303 3.861419 -1.294255 0.276413 -4.574094 2.365624 6.740690 8.542713 0.000000 0.000000 0.000000 -1.879113 0.022422 0.819139 2.284861 -0.129802 2.241314 -3.142846 -9.988710 5.630424 0.000000 0.000000 0.000000 8.792408 0.278135 -1.986927 -4.821020 1.667722 -16.585774 -2.121302 12.455218 16.856335 11.691700 -6.115173 -15.153240 0.000000 0.000000 0.000000 19.542091 -23.577495 5.510375 27.877508 -58.329914 -19.609960 31.814285 -24.002162 -6.417928 0.000000 0.000000 0.000000 -22.988919 13.649121 1.773337 -19.666318 50.874813 -9.654461 -93.216639 29.645423 -26.061257 0.000000 0.000000 0.000000 
-0.006717 0.939448 -0.034713 -2.154334 -11.469633 -0.822688 6.091476 0.291541 3.605497 -2.184784 0.345758 -3.719844 2.910122 7.643755 8.125548 0.000000 0.000000 0.000000 -1.811745 0.015034 0.887221 2.677645 -0.168751 2.142235 -2.793710 -9.170052 5.337772 0.000000 0.000000 0.000000 9.277285 0.367183 -2.536045 -5.245670 1.833807 -15.204839 -1.942130 11.875306 16.091282 11.073411 -5.575411 -15.888890 0.000000 0.000000 0.000000 12.813018 -27.017470 6.998298 17.836249 -60.147082 -14.684970 28.343901 -38.789623 -9.132944 0.000000 0.000000 0.000000 -16.695027 17.038393 3.350694 -12.305345 53.899531 -7.723820 -110.403610 46.268999 -56.257336 0.000000 0.000000 0.000000 
-0.005723 0.937509 -0.034629 -2.272318 -12.407878 -1.119694 6.481998 0.344990 4.198874 -2.727590 0.407679 -3.688265 3.259485 8.156738 7.649227 0.000000 0.000000 0.000000 -1.671915 -0.000906 1.058825 2.589040 -0.152807 2.192952 -2.021193 -7.336782 4.721599 0.000000 0.000000 0.000000 9.546091 0.364826 -2.310768 -5.122427 1.814936 -13.432448 -2.203449 12.116853 14.975216 11.497668 -5.489717 -17.489005 0.000000 0.000000 0.000000 7.694244 -28.837834 8.278680 1.820815 -59.912953 -6.201904 22.301188 -53.757712 -9.905352 0.000000 0.000000 0.000000 -10.220889 18.961881 4.873797 -2.948532 56.255191 -4.147280 -133.007316 61.102750 -99.300399 0.000000 0.000000 0.000000 
-0.004330 0.935631 -0.033952 -2.451728 -13.412711 -0.737766 6.613081 0.373177 4.441874 -3.164293 0.464670 -4.004302 3.789805 9.033211 7.275080 0.000000 0.000000 0.000000 -1.847052 0.059259 0.425915 2.623027 -0.147525 2.216728 -1.417189 -5.953516 4.419474 0.000000 0.000000 0.000000 9.359943 0.349464 -2.265221 -4.970216 1.743438 -13.088308 -1.600476 11.971051 15.389158 11.472491 -5.308504 -18.793402 0.000000 0.000000 0.000000 2.082101 -29.624479 9.533518 -11.087945 -55.307581 0.342704 2.189230 -68.269828 0.598010 0.000000 0.000000 0.000000 -4.947716 20.156857 6.142558 7.398749 55.605222 0.196430 -165.459376 66.162569 -149.737935 0.000000 0.000000 0.000000 
-0.002839 0.933835 -0.033050 -2.435953 -13.987430 -0.618696 6.467313 0.379972 4.350978 -3.223983 0.474266 -3.896170 4.067335 9.385840 5.701482 0.000000 0.000000 0.000000 -2.073930 0.080773 0.337961 2.886260 -0.165986 2.255297 -0.755255 -4.012244 3.459136 0.000000 0.000000 0.000000 9.013667 0.324934 -2.173559 -4.659677 1.653093 -11.805564 -1.236354 11.676793 14.878440 11.533020 -5.185125 -19.824028 0.000000 0.000000 0.000000 -3.760204 -28.941085 10.445835 -19.509928 -47.918997 3.188675 -41.392042 -73.423987 33.998253 0.000000 0.000000 0.000000 1.077304 19.891439 7.098689 17.071252 52.926902 3.902089 167.382127 67.906259 168.760093 0.000000 0.000000 0.000000 
-0.001482 0.932497 -0.032095 -2.750473 -14.224435 -0.311176 6.520151 0.387604 4.479164 -3.632252 0.525038 -4.405567 4.201062 9.654801 5.933839 0.000000 0.000000 0.000000 -1.959427 0.086761 0.182436 2.815356 -0.159379 2.177860 -0.605416 -3.397958 2.973638 0.000000 0.000000 0.000000 8.822992 0.317359 -2.207120 -4.057526 1.478698 -9.880018 -1.291363 11.352986 13.846482 10.993283 -4.847195 -19.827428 0.000000 0.000000 0.000000 -8.924527 -27.204514 10.696268 -25.545733 -40.446134 3.922836 -63.866638 -69.845848 49.732809 0.000000 0.000000 0.000000 6.265878 18.373788 7.331252 26.222211 46.646575 6.137438 147.867215 66.891861 139.789508 0.000000 0.000000 0.000000 
-0.000559 0.932095 -0.031141 -2.773861 -13.497134 -0.387369 6.388114 0.364996 4.318636 -3.714265 0.526459 -4.052247 4.175563 9.574455 5.150519 0.000000 0.000000 0.000000 -1.820020 0.076363 0.175326 2.392548 -0.111182 2.745127 -0.687924 -3.971529 3.675843 0.000000 0.000000 0.000000 8.237010 0.257196 -1.924257 -3.693181 1.405415 -8.219123 -0.964204 10.315373 13.312731 10.838001 -4.811635 -19.775285 0.000000 0.000000 0.000000 -14.590381 -24.738144 10.543426 -28.076682 -32.061625 2.838989 -68.154822 -64.960261 49.316711 0.000000 0.000000 0.000000 11.536401 16.071044 6.973086 32.616049 36.951335 5.462327 128.392885 65.903324 112.475458 0.000000 0.000000 0.000000 
-0.000096 0.932381 -0.029758 -2.897798 -13.532076 -0.072594 6.466068 0.340042 3.952510 -3.926802 0.549643 -3.981699 3.748165 8.754987 5.300843 0.000000 0.000000 0.000000 -1.785546 0.081177 0.094655 2.739581 -0.149795 2.514154 -0.572777 -3.609757 3.491804 0.000000 0.000000 0.000000 8.098317 0.249224 -1.958383 -3.379083 1.329889 -6.628364 -1.182367 10.561998 12.885682 10.264486 -4.366488 -19.925115 0.000000 0.000000 0.000000 -19.664094 -21.322794 9.281164 -29.822462 -25.059005 1.638449 -58.064747 -59.392846 37.384549 0.000000 0.000000 0.000000 17.634280 12.460885 5.909976 37.712801 26.386634 3.223684 100.716804 66.146205 81.416379 0.000000 0.000000 0.000000 
0.000080 0.932395 -0.027761 -2.612189 -12.551403 -0.059095 6.349670 0.322297 4.007490 -4.400435 0.593348 -4.072988 3.695865 8.638765 4.765354 0.000000 0.000000 0.000000 -1.939355 0.097043 -0.066999 2.790302 -0.161387 2.548860 -1.056766 -5.055285 4.252506 0.000000 0.000000 0.000000 7.702287 0.158672 -1.355968 -3.609502 1.461139 -6.167426 -1.017290 9.798461 12.812446 9.220077 -3.624823 -20.646601 0.000000 0.000000 0.000000 -24.073063 -17.371644 7.412663 -31.911497 -18.792242 0.378903 -47.213884 -51.024542 25.434076 0.000000 0.000000 0.000000 23.651295 8.432507 3.988439 39.575127 18.294007 0.780797 68.447708 62.834832 48.894815 0.000000 0.000000 0.000000 
0.000445 0.932284 -0.025087 -2.502619 -12.155361 0.291553 6.103639 0.314108 4.080394 -4.232682 0.571864 -4.666394 3.544393 8.339146 4.623801 0.000000 0.000000 0.000000 -2.166788 0.133923 -0.427883 3.049751 -0.201378 1.930054 -1.061193 -5.346084 4.825994 0.000000 0.000000 0.000000 7.673444 0.157487 -1.453850 -4.178603 1.722167 -5.865326 -0.709256 9.744706 13.335347 7.988793 -2.909248 -20.470988 0.000000 0.000000 0.000000 -27.053163 -14.874453 5.972487 -34.636681 -14.657549 -0.572402 -31.421361 -39.878119 13.030659 0.000000 0.000000 0.000000 28.606101 6.169630 2.781040 41.341869 11.318754 -1.515539 36.306372 52.790791 21.049593 0.000000 0.000000 0.000000 
0.001292 0.932124 -0.021987 -2.498355 -11.768799 0.737104 5.997677 0.299558 4.071930 -4.037257 0.550759 -5.376844 3.437607 8.190121 4.998413 0.000000 0.000000 0.000000 -2.329425 0.147527 -0.508212 3.250636 -0.233819 1.245035 -1.382729 -6.404028 5.639935 0.000000 0.000000 0.000000 7.391678 0.122251 -1.311858 -4.108592 1.681124 -6.237717 -0.567480 9.823454 14.130502 7.886903 -2.610411 -21.906754 0.000000 0.000000 0.000000 -29.167260 -11.746107 3.894566 -37.601425 -10.205268 -1.837248 -19.587870 -28.233369 5.921196 0.000000 0.000000 0.000000 31.890480 3.092582 0.800746 43.487618 6.338897 -3.343135 18.078064 38.630022 8.016143 0.000000 0.000000 0.000000 
0.002568 0.931666 -0.018930 -2.545426 -11.754485 1.316800 5.866974 0.288122 4.013008 -3.622869 0.513108 -5.626747 3.333113 7.891754 4.327690 0.000000 0.000000 0.000000 -2.438553 0.195291 -1.073785 3.661806 -0.272654 0.789241 -1.935558 -7.428820 5.353215 0.000000 0.000000 0.000000 7.481349 0.124906 -1.445738 -4.497653 1.810623 -7.020897 -0.387780 10.205128 15.246696 8.933555 -3.033992 -22.976790 0.000000 0.000000 0.000000 -29.362306 -9.242877 2.160784 -40.096945 -7.532442 -2.804800 -11.972542 -18.952176 2.639112 0.000000 0.000000 0.000000 33.525079 0.382715 -1.021885 45.182925 2.912567 -4.776815 9.032721 26.515210 3.166799 0.000000 0.000000 0.000000 
0.004018 0.931425 -0.016588 -2.374272 -11.553947 1.425587 5.802964 0.284170 4.031305 -3.484652 0.499978 -5.746682 3.556006 8.290584 3.975459 0.000000 0.000000 0.000000 -2.950324 0.198566 -0.784683 3.941916 -0.301010 0.254775 -2.120118 -7.772539 5.294076 0.000000 0.000000 0.000000 7.255901 0.006655 -0.452629 -4.555554 1.776247 -8.543965 -0.064000 10.247760 16.174142 8.706244 -2.796447 -23.767726 0.000000 0.000000 0.000000 -29.320880 -7.729987 1.193860 -41.521129 -4.673530 -3.881051 -8.688332 -14.046190 1.544483 0.000000 0.000000 0.000000 33.590122 -1.445832 -2.312456 46.738238 -0.216660 -6.102447 3.960017 19.126398 1.402970 0.000000 0.000000 0.000000 
0.005485 0.932010 -0.015452 -2.274821 -10.937452 2.218018 5.819345 0.212323 3.170740 -3.624804 0.504044 -5.521096 3.590395 8.317342 3.629566 0.000000 0.000000 0.000000 -3.149403 0.265220 -1.620899 3.690240 -0.286877 0.168417 -2.220169 -7.750936 4.797619 0.000000 0.000000 0.000000 7.327674 -0.005423 -0.540273 -4.805692 1.840269 -9.732552 -0.380186 9.807037 17.180563 8.586964 -2.625585 -24.740817 0.000000 0.000000 0.000000 -28.326455 -5.744827 0.089490 -42.417324 -1.801094 -5.024436 -7.244654 -11.249055 1.095510 0.000000 0.000000 0.000000 32.900616 -3.223560 -3.556645 47.963509 -3.756652 -7.592072 2.372849 16.375253 0.984504 0.000000 0.000000 0.000000 
0.006760 0.933055 -0.015778 -2.142045 -10.614513 2.206077 5.812546 0.200392 3.058673 -3.572072 0.497596 -5.641865 3.444753 8.015363 3.504146 0.000000 0.000000 0.000000 -3.435866 0.296936 -1.950330 3.470276 -0.270386 0.376827 -1.966521 -7.259216 4.924732 0.000000 0.000000 0.000000 7.061737 -0.095818 0.275330 -4.858093 1.838433 -10.503643 -0.420891 9.653431 17.630110 8.018959 -2.305449 -24.860325 0.000000 0.000000 0.000000 -27.661133 -5.438931 -0.028683 -42.431113 -0.026055 -5.654733 -7.152891 -10.301089 0.991535 0.000000 0.000000 0.000000 33.187151 -4.365975 -4.414825 47.366776 -5.788894 -8.253365 1.705310 16.398462 0.907246 0.000000 0.000000 0.000000 
0.007859 0.933546 -0.017243 -2.259183 -10.633322 2.499237 6.007798 0.169720 2.589007 -3.794401 0.516081 -5.545125 3.428720 7.956832 3.360365 0.000000 0.000000 0.000000 -3.415987 0.332016 -2.456503 3.393801 -0.259165 0.718409 -1.839392 -6.851713 4.606924 0.000000 0.000000 0.000000 6.920399 -0.163844 0.872436 -4.647099 1.731267 -11.315974 -0.601465 9.676297 18.306667 8.001834 -2.243084 -25.367115 0.000000 0.000000 0.000000 -27.111865 -4.863730 -0.298109 -42.160949 1.135434 -6.060136 -7.958478 -10.199721 1.050779 0.000000 0.000000 0.000000 32.752036 -4.590157 -4.515319 46.985706 -6.630356 -8.526299 2.552391 17.181179 1.069171 0.000000 0.000000 0.000000 
0.008722 0.933698 -0.019210 -2.364768 -10.743363 2.526690 6.050190 0.160893 2.391992 -3.822707 0.519212 -5.521768 3.508502 8.204793 4.025279 0.000000 0.000000 0.000000 -3.773355 0.371895 -2.868986 3.730854 -0.284020 0.869601 -1.529575 -6.321971 4.881909 0.000000 0.000000 0.000000 6.740503 -0.234747 1.593154 -4.761494 1.743034 -12.220808 -0.623609 9.919207 18.919158 7.958844 -2.120792 -26.007251 0.000000 0.000000 0.000000 -26.859546 -5.265909 -0.043452 -42.264468 1.419972 -6.210305 -7.741062 -10.620537 1.075880 0.000000 0.000000 0.000000 32.897269 -4.641243 -4.487238 46.817215 -6.241521 -8.431892 3.034687 17.842732 1.190937 0.000000 0.000000 0.000000 
0.009375 0.933951 -0.021089 -2.220628 -10.923941 2.277595 5.952285 0.178987 2.597991 -4.093660 0.546125 -5.616837 3.567274 8.360803 4.337986 0.000000 0.000000 0.000000 -4.382035 0.389985 -2.854681 4.252759 -0.324956 0.916345 -1.547005 -6.480120 5.128473 0.000000 0.000000 0.000000 6.538973 -0.319516 2.562858 -4.772597 1.719177 -13.080740 -0.543396 9.843528 19.208261 7.935459 -2.150465 -26.012995 0.000000 0.000000 0.000000 -27.652480 -5.319449 0.025754 -41.602911 0.753660 -5.939618 -8.196474 -11.382648 1.202630 0.000000 0.000000 0.000000 33.481503 -4.226194 -4.352758 45.851668 -5.620014 -8.053499 3.160460 19.331588 1.318173 0.000000 0.000000 0.000000 
0.009792 0.934108 -0.022493 -2.311170 -11.037288 2.113538 6.069128 0.190679 2.750938 -4.252710 0.561115 -5.437028 3.502845 8.261823 4.549482 0.000000 0.000000 0.000000 -4.643185 0.388955 -2.694570 4.407494 -0.338006 0.626958 -1.583066 -6.723075 5.483961 0.000000 0.000000 0.000000 6.431177 -0.370143 3.169293 -4.805691 1.702315 -14.096649 -0.508641 9.899467 20.074194 8.053249 -2.161409 -26.618307 0.000000 0.000000 0.000000 -28.219452 -5.831628 0.382486 -41.618068 -0.570028 -5.606161 -7.265319 -12.382438 1.220121 0.000000 0.000000 0.000000 34.160068 -3.368096 -3.788818 45.634280 -4.389193 -7.684328 2.883915 20.375531 1.360822 0.000000 0.000000 0.000000 
0.009943 0.934204 -0.023376 -2.207079 -11.203496 1.757302 5.908171 0.233781 3.381002 -4.214934 0.560921 -5.696257 3.479860 8.224415 4.588807 0.000000 0.000000 0.000000 -4.931744 0.367829 -2.148044 4.566743 -0.350282 0.236952 -1.629846 -7.053802 5.996830 0.000000 0.000000 0.000000 6.503164 -0.390904 3.455355 -5.005085 1.769496 -14.061811 -0.488969 9.906266 20.090081 8.039187 -2.173064 -26.569404 0.000000 0.000000 0.000000 -28.618700 -6.558373 0.860290 -41.512730 -2.026991 -5.140428 -6.386162 -13.626364 1.248022 0.000000 0.000000 0.000000 34.455571 -2.765260 -3.406771 45.889077 -2.922945 -7.227202 2.945791 21.420491 1.455418 0.000000 0.000000 0.000000 
0.010065 0.934101 -0.023928 -1.972339 -11.128669 1.538072 5.732799 0.239919 3.412875 -4.129691 0.551655 -5.374911 3.351045 7.960830 4.477491 0.000000 0.000000 0.000000 -5.001969 0.349686 -1.794211 4.429453 -0.342016 -0.106667 -1.571677 -6.875461 5.883721 0.000000 0.000000 0.000000 6.292937 -0.386194 3.524173 -4.920894 1.765199 -13.271301 -0.847618 9.798863 19.329871 8.340682 -2.384429 -26.115846 0.000000 0.000000 0.000000 -28.429985 -6.922825 1.068362 -41.835732 -3.225880 -4.738705 -6.283265 -14.974294 1.363148 0.000000 0.000000 0.000000 34.736727 -2.011704 -2.890854 46.330342 -1.370696 -6.699623 3.055368 22.031229 1.521810 0.000000 0.000000 0.000000 
0.010162 0.934003 -0.024508 -1.729099 -10.889268 1.520318 5.324567 0.261551 3.759498 -3.978169 0.538065 -5.812605 3.327944 7.939517 4.559631 0.000000 0.000000 0.000000 -5.243965 0.350973 -1.658399 4.524995 -0.351926 -0.247317 -1.789503 -7.453367 6.213966 0.000000 0.000000 0.000000 6.247085 -0.352956 3.168723 -5.288155 1.915385 -12.832007 -0.826675 9.189640 18.772032 7.849010 -2.150527 -26.202166 0.000000 0.000000 0.000000 -28.316231 -7.197947 1.407562 -41.848259 -3.764365 -4.576329 -5.967440 -16.697294 1.488165 0.000000 0.000000 0.000000 34.253449 -1.601667 -2.773456 47.116397 -0.189518 -6.267029 3.391280 22.740706 1.626902 0.000000 0.000000 0.000000 
0.010409 0.934379 -0.025307 -1.601450 -10.285868 1.171575 5.230381 0.255239 3.711483 -4.101192 0.539525 -4.924650 3.218522 7.730463 4.447004 0.000000 0.000000 0.000000 -5.400180 0.313571 -0.944544 4.457359 -0.355489 -0.538628 -1.963101 -8.020764 6.829910 0.000000 0.000000 0.000000 6.149434 -0.383030 3.589079 -5.206970 1.878171 -13.650094 -0.991698 9.065300 19.258534 7.653930 -2.088241 -25.765895 0.000000 0.000000 0.000000 -28.318411 -7.476690 1.519693 -41.777559 -4.468815 -4.362103 -5.814272 -17.740541 1.560046 0.000000 0.000000 0.000000 34.756906 -1.187442 -2.388089 46.613448 1.101488 -5.828624 3.850813 23.626116 1.798213 0.000000 0.000000 0.000000 
0.010845 0.934563 -0.026315 -1.619355 -9.982199 1.364965 4.927448 0.240113 3.515130 -3.660342 0.498077 -5.381804 3.463927 8.273768 4.817191 0.000000 0.000000 0.000000 -5.567233 0.335974 -1.301653 5.225821 -0.414145 -0.365152 -2.532201 -8.626463 5.458191 0.000000 0.000000 0.000000 6.048132 -0.320227 2.865756 -5.070519 1.893407 -11.734571 -1.322719 9.072670 17.511208 8.146088 -2.445321 -24.571089 0.000000 0.000000 0.000000 -28.123640 -7.694249 1.436594 -41.900411 -3.703546 -4.436458 -6.521531 -20.584856 1.929602 0.000000 0.000000 0.000000 34.728746 -0.930590 -2.085135 46.676843 2.810761 -5.134233 3.644950 23.752084 1.769463 0.000000 0.000000 0.000000 
0.011497 0.935175 -0.027552 -1.262717 -8.799582 1.091449 4.752436 0.207323 3.147273 -3.684036 0.487530 -4.912592 3.624629 8.666727 5.094424 0.000000 0.000000 0.000000 -5.706604 0.294912 -0.639658 5.063200 -0.416169 -1.020751 -2.858974 -9.394276 5.851311 0.000000 0.000000 0.000000 5.377886 -0.327649 3.204013 -4.679423 1.757749 -12.576919 -1.310533 8.466287 18.467369 8.135330 -2.596988 -23.737634 0.000000 0.000000 0.000000 -29.046641 -7.682800 1.401135 -41.052615 -4.533396 -4.141275 -5.834703 -20.286790 1.783614 0.000000 0.000000 0.000000 34.919828 0.157533 -1.209670 46.106171 4.777910 -4.490859 2.386170 24.146162 1.567291 0.000000 0.000000 0.000000 
