HIERARCHY
ROOT Hips
{
	OFFSET -0.001795 -0.223333 0.028219
	CHANNELS 6 Xposition Yposition Zposition Zrotation Yrotation Xrotation 
	JOINT LeftUpLeg
	{
		OFFSET 0.069520 -0.091406 -0.006815
		CHANNELS 3 Zrotation Yrotation Xrotation
		JOINT LeftLeg
		{
			OFFSET 0.034277 -0.375199 -0.004496
			CHANNELS 3 Zrotation Yrotation Xrotation
			JOINT LeftFoot
			{
				OFFSET -0.013596 -0.397961 -0.043693
				CHANNELS 3 Zrotation Yrotation Xrotation
				JOINT LeftToe
				{
					OFFSET 0.026358 -0.055791 0.119288
					CHANNELS 3 Zrotation Yrotation Xrotation
					End Site
					{
						OFFSET 0.000000 0.000000 0.000000
					}
				}
			}
		}
	}
	JOINT RightUpLeg
	{
		OFFSET -0.067670 -0.090522 -0.004320
		CHANNELS 3 Zrotation Yrotation Xrotation
		JOINT RightLeg
		{
			OFFSET -0.038290 -0.382569 -0.008850
			CHANNELS 3 Zrotation Yrotation Xrotation
			JOINT RightFoot
			{
				OFFSET 0.015774 -0.398415 -0.042312
				CHANNELS 3 Zrotation Yrotation Xrotation
				JOINT RightToe
				{
					OFFSET -0.025372 -0.048144 0.123348
					CHANNELS 3 Zrotation Yrotation Xrotation
					End Site
					{
						OFFSET 0.000000 0.000000 0.000000
					}
				}
			}
		}
	}
	JOINT Spine
	{
		OFFSET -0.002533 0.108963 -0.026696
		CHANNELS 3 Zrotation Yrotation Xrotation
		JOINT Spine1
		{
			OFFSET 0.005487 0.135180 0.001092
			CHANNELS 3 Zrotation Yrotation Xrotation
			JOINT Spine2
			{
				OFFSET 0.001457 0.052922 0.025425
				CHANNELS 3 Zrotation Yrotation Xrotation
				JOINT Neck
				{
					OFFSET -0.002778 0.213870 -0.042857
					CHANNELS 3 Zrotation Yrotation Xrotation
					JOINT Head
					{
						OFFSET 0.005152 0.064970 0.051349
						CHANNELS 3 Zrotation Yrotation Xrotation
						End Site
						{
							OFFSET 0.000000 0.000000 0.000000
						}
					}
				}
				JOINT LeftShoulder
				{
					OFFSET 0.078845 0.121749 -0.034090
					CHANNELS 3 Zrotation Yrotation Xrotation
					JOINT LeftArm
					{
						OFFSET 0.090977 0.030469 -0.008868
						CHANNELS 3 Zrotation Yrotation Xrotation
						JOINT LeftForeArm
						{
							OFFSET 0.259612 -0.012772 -0.027456
							CHANNELS 3 Zrotation Yrotation Xrotation
							JOINT LeftHand
							{
								OFFSET 0.249234 0.008986 -0.001171
								CHANNELS 3 Zrotation Yrotation Xrotation
								End Site
								{
									OFFSET 0.000000 0.000000 0.000000
								}
							}
						}
					}
				}
				JOINT RightShoulder
				{
					OFFSET -0.081759 0.118833 -0.038615
					CHANNELS 3 Zrotation Yrotation Xrotation
					JOINT RightArm
					{
						OFFSET -0.096012 0.032551 -0.009143
						CHANNELS 3 Zrotation Yrotation Xrotation
						JOINT RightForeArm
						{
							OFFSET -0.253742 -0.013329 -0.021401
							CHANNELS 3 Zrotation Yrotation Xrotation
							JOINT RightHand
							{
								OFFSET -0.255298 0.007772 -0.005559
								CHANNELS 3 Zrotation Yrotation Xrotation
								End Site
								{
									OFFSET 0.000000 0.000000 0.000000
								}
							}
						}
					}
				}
			}
		}
	}
}
MOTION
Frames: 116
Frame Time: 0.050000
0.000000 0.949271 0.000000 -1.359475 -6.398275 1.983328 2.521381 0.242236 3.365757 -1.467553 0.286384 -4.959435 2.312737 7.326102 10.047080 0.000000 0.000000 0.000000 -1.700305 0.023355 0.555180 1.037556 -0.212691 -4.043170 0.641511 -4.781403 12.356408 0.000000 0.000000 0.000000 6.237688 -0.270625 2.026561 -5.159010 1.755609 -23.600602 -0.894399 8.089180 28.583678 10.019579 -4.228441 -22.418901 0.000000 0.000000 0.000000 -8.332516 -1.882317 0.024025 -51.920270 -0.559472 -8.317878 -9.522118 -32.875642 4.257070 0.000000 0.000000 0.000000 16.209563 -9.383518 -5.018870 56.825053 -0.691356 -8.268930 12.500480 33.274633 5.743458 0.000000 0.000000 0.000000 
-0.000082 0.948589 0.000607 -1.572494 -7.228187 2.400831 2.703789 0.292834 4.039813 -1.567907 0.340231 -6.641264 2.614941 7.836755 10.383951 0.000000 0.000000 0.000000 -1.763429 0.056701 0.225467 1.447906 -0.237535 -4.328504 1.026666 -4.150318 12.309365 0.000000 0.000000 0.000000 6.364359 -0.291417 2.140998 -5.450496 1.803702 -24.173130 -0.727894 8.335447 28.152901 10.478491 -4.558247 -22.329285 0.000000 0.000000 0.000000 -7.743704 -1.427658 -0.096492 -52.841068 -0.733700 -8.350402 -9.014242 -32.752113 4.132049 0.000000 0.000000 0.000000 15.767095 -9.538723 -5.120545 58.122438 -3.114401 -9.473875 13.496454 34.828592 6.349467 0.000000 0.000000 0.000000 
-0.000123 0.948068 0.000951 -1.160330 -6.998049 2.419633 2.660452 0.271506 3.772154 -2.237687 0.377091 -6.312494 2.485098 7.609564 10.248539 0.000000 0.000000 0.000000 -1.902187 0.043920 0.469994 0.926565 -0.224189 -4.803866 0.863158 -4.349440 12.121606 0.000000 0.000000 0.000000 6.366803 -0.259205 1.791099 -5.657894 1.850179 -24.798936 -0.641726 8.251930 28.856096 9.791035 -4.073522 -22.624035 0.000000 0.000000 0.000000 -7.904219 -1.857036 0.080487 -52.637394 -0.192608 -8.603000 -9.671186 -33.239851 4.398558 0.000000 0.000000 0.000000 15.645960 -9.836573 -5.244762 58.461131 -3.331874 -9.677969 13.502865 34.006823 6.199037 0.000000 0.000000 0.000000 
-0.000261 0.947728 0.001249 -1.268362 -7.075599 2.372998 2.900672 0.298733 4.223194 -2.459021 0.404818 -6.930889 2.471636 7.593336 10.302913 0.000000 0.000000 0.000000 -1.907224 0.017152 0.822205 1.147163 -0.245807 -5.296222 0.943777 -4.239648 12.202706 0.000000 0.000000 0.000000 6.283261 -0.253129 1.763897 -5.620161 1.836620 -25.241236 -0.550433 8.331000 29.304664 9.625015 -4.064062 -22.097507 0.000000 0.000000 0.000000 -7.549305 -1.583223 -0.005414 -53.104454 -0.163502 -8.730299 -9.452914 -33.993224 4.460802 0.000000 0.000000 0.000000 15.501650 -10.036502 -5.318096 58.614489 -3.966974 -10.034570 13.936365 33.473092 6.229466 0.000000 0.000000 0.000000 
-0.000451 0.947429 0.001548 -1.213831 -7.030272 2.178547 2.673619 0.310306 4.244578 -2.130564 0.375739 -6.574628 2.507060 7.616138 10.079286 0.000000 0.000000 0.000000 -1.887556 0.000819 1.010581 1.028606 -0.238955 -5.211608 0.888403 -4.264437 12.026034 0.000000 0.000000 0.000000 6.005872 -0.250272 1.844661 -5.111792 1.721468 -25.027925 -0.589712 8.473127 28.860855 9.068479 -3.762008 -21.463237 0.000000 0.000000 0.000000 -7.268342 -1.599109 -0.002525 -53.304302 -0.264832 -8.687845 -9.790704 -34.505747 4.619368 0.000000 0.000000 0.000000 14.773812 -10.140357 -5.260566 59.016687 -4.330197 -10.181073 13.930640 33.101126 6.154228 0.000000 0.000000 0.000000 
-0.000641 0.947386 0.001873 -1.303947 -6.892219 2.211606 2.765525 0.311225 4.324926 -2.072106 0.374753 -6.748963 2.442205 7.515608 10.069768 0.000000 0.000000 0.000000 -1.813779 -0.014639 1.151730 1.110844 -0.248603 -5.438129 0.854936 -4.343806 12.114954 0.000000 0.000000 0.000000 5.808204 -0.242279 1.800242 -4.973240 1.689010 -25.213044 -0.378276 8.250016 29.135748 8.752277 -3.586129 -21.447372 0.000000 0.000000 0.000000 -7.084926 -1.216588 -0.131885 -53.043580 -0.579252 -8.529052 -9.480910 -34.996952 4.611628 0.000000 0.000000 0.000000 14.298046 -10.070676 -5.186635 59.022524 -4.675664 -10.352637 13.668726 32.806111 5.992990 0.000000 0.000000 0.000000 
-0.000868 0.947346 0.002244 -1.308812 -6.929717 2.118514 2.681669 0.315808 4.327434 -1.898086 0.358101 -6.516290 2.489752 7.576432 9.976684 0.000000 0.000000 0.000000 -1.744217 -0.034230 1.354070 1.010610 -0.247605 -5.576979 0.881375 -4.299131 12.115003 0.000000 0.000000 0.000000 5.593220 -0.241925 1.875992 -4.818067 1.654042 -25.013444 -0.386390 8.346220 28.889106 8.924426 -3.663375 -21.527027 0.000000 0.000000 0.000000 -6.981224 -1.101030 -0.183453 -52.797603 -0.748853 -8.397694 -9.071619 -35.961560 4.603900 0.000000 0.000000 0.000000 14.189417 -10.083026 -5.172132 59.041429 -4.987920 -10.465826 13.474658 32.607971 5.889771 0.000000 0.000000 0.000000 
-0.001128 0.947324 0.002714 -1.263974 -6.826632 2.053415 2.663857 0.327539 4.473989 -1.903826 0.360532 -6.624307 2.424054 7.477646 9.997428 0.000000 0.000000 0.000000 -1.704764 -0.052662 1.554991 0.890795 -0.247181 -5.737181 0.838993 -4.365553 12.116683 0.000000 0.000000 0.000000 5.398076 -0.238469 1.904996 -4.687882 1.623735 -25.119377 -0.385548 8.393481 29.115180 9.081825 -3.760339 -21.497442 0.000000 0.000000 0.000000 -7.057394 -0.988286 -0.245677 -52.124175 -0.891694 -8.252975 -8.662656 -37.261171 4.630604 0.000000 0.000000 0.000000 14.330460 -10.213661 -5.234039 58.743066 -5.174541 -10.527980 13.389139 32.580777 5.870621 0.000000 0.000000 0.000000 
-0.001392 0.947245 0.003258 -1.296026 -6.952851 2.066135 2.679787 0.333866 4.547244 -1.874191 0.360428 -6.674365 2.485857 7.572670 9.994010 0.000000 0.000000 0.000000 -1.722246 -0.056772 1.629121 0.989020 -0.253083 -5.846993 0.906726 -4.255586 12.120418 0.000000 0.000000 0.000000 5.301557 -0.226924 1.800774 -4.719934 1.630267 -24.982564 -0.307843 8.424678 29.015814 9.075558 -3.770265 -21.431165 0.000000 0.000000 0.000000 -7.000676 -0.770680 -0.328880 -51.672919 -0.988870 -8.127812 -8.203135 -38.339427 4.617166 0.000000 0.000000 0.000000 14.195093 -10.251251 -5.249329 58.499554 -5.590041 -10.664815 13.539725 32.629825 5.907128 0.000000 0.000000 0.000000 
-0.001699 0.947186 0.003841 -1.263855 -7.217154 2.058597 2.727249 0.344118 4.664730 -2.049951 0.375108 -6.741200 2.586966 7.735193 10.050552 0.000000 0.000000 0.000000 -1.780330 -0.058192 1.710021 1.017514 -0.255605 -5.968385 1.030958 -4.049065 12.100113 0.000000 0.000000 0.000000 5.225724 -0.213207 1.669540 -4.692954 1.620241 -24.945615 -0.309953 8.591294 29.099871 9.081828 -3.774732 -21.431221 0.000000 0.000000 0.000000 -6.970583 -0.597747 -0.397098 -51.134918 -1.039160 -8.025956 -7.606492 -39.381691 4.536529 0.000000 0.000000 0.000000 14.225964 -10.333670 -5.295886 58.143354 -5.802634 -10.716512 13.602659 32.593309 5.911639 0.000000 0.000000 0.000000 
-0.002009 0.947077 0.004435 -1.252557 -7.351448 1.971346 2.776134 0.365406 4.931549 -2.156911 0.387469 -6.939217 2.620090 7.791531 10.095462 0.000000 0.000000 0.000000 -1.843870 -0.064756 1.853013 1.115181 -0.259336 -6.008514 1.091059 -3.930499 12.047877 0.000000 0.000000 0.000000 5.143472 -0.209564 1.669178 -4.675299 1.614904 -24.928738 -0.290012 8.633473 29.121860 9.188889 -3.846792 -21.456755 0.000000 0.000000 0.000000 -6.843227 -0.488464 -0.426756 -50.627056 -1.028325 -7.951113 -7.247300 -40.119648 4.495625 0.000000 0.000000 0.000000 14.169219 -10.479434 -5.371189 57.926556 -6.041704 -10.792685 13.789571 32.548153 5.948968 0.000000 0.000000 0.000000 
-0.002282 0.946997 0.005031 -1.262334 -7.575914 1.928270 2.809006 0.378033 5.072160 -2.221302 0.393882 -6.975382 2.715623 7.940658 10.108956 0.000000 0.000000 0.000000 -1.836260 -0.069673 1.927270 1.108473 -0.258305 -6.028162 1.189784 -3.752573 11.998122 0.000000 0.000000 0.000000 5.182503 -0.201125 1.570769 -4.653789 1.608302 -24.783650 -0.347219 8.677958 29.058368 9.228921 -3.879698 -21.488467 0.000000 0.000000 0.000000 -6.876851 -0.497846 -0.416389 -50.323480 -0.822324 -7.976686 -6.873223 -40.498467 4.411111 0.000000 0.000000 0.000000 14.184648 -10.398107 -5.347530 57.869525 -6.129041 -10.827551 13.578779 32.559608 5.877986 0.000000 0.000000 0.000000 
-0.002496 0.946867 0.005531 -1.292531 -7.692540 1.890538 2.842957 0.390905 5.231227 -2.230497 0.397687 -7.085056 2.763575 8.013920 10.104386 0.000000 0.000000 0.000000 -1.870471 -0.077339 2.065693 1.227406 -0.264455 -6.156170 1.254192 -3.644088 11.995930 0.000000 0.000000 0.000000 5.236720 -0.200377 1.557942 -4.650104 1.605988 -24.689508 -0.376135 8.597286 29.012537 9.284744 -3.945582 -21.455926 0.000000 0.000000 0.000000 -6.949141 -0.569901 -0.377823 -50.031903 -0.521268 -8.038212 -6.568866 -40.479396 4.305974 0.000000 0.000000 0.000000 14.188327 -10.325619 -5.335909 57.809986 -6.241316 -10.874068 13.476398 32.637263 5.846376 0.000000 0.000000 0.000000 
-0.002660 0.946748 0.005897 -1.310469 -7.749651 1.888408 2.928621 0.392607 5.291839 -2.346419 0.406388 -7.122333 2.783935 8.041551 10.084934 0.000000 0.000000 0.000000 -1.926414 -0.075386 2.091645 1.367180 -0.268827 -6.159261 1.278065 -3.590713 11.962767 0.000000 0.000000 0.000000 5.297757 -0.200043 1.540913 -4.693386 1.615947 -24.622871 -0.451856 8.514710 28.955101 9.344149 -3.963063 -21.678764 0.000000 0.000000 0.000000 -6.971310 -0.576931 -0.365615 -50.014863 -0.411372 -8.070500 -6.224573 -40.426173 4.186761 0.000000 0.000000 0.000000 14.245713 -10.203437 -5.300100 57.733328 -6.258341 -10.872537 13.190145 32.767808 5.775234 0.000000 0.000000 0.000000 
-0.002774 0.946746 0.006132 -1.329195 -7.835748 1.930711 2.882684 0.396271 5.303160 -2.240519 0.401176 -7.172140 2.830234 8.116780 10.105707 0.000000 0.000000 0.000000 -2.018261 -0.067655 2.074903 1.564946 -0.275439 -6.196728 1.328538 -3.518234 11.991911 0.000000 0.000000 0.000000 5.359973 -0.193638 1.446638 -4.722754 1.621648 -24.619837 -0.392362 8.562604 29.053468 9.412022 -3.992668 -21.784710 0.000000 0.000000 0.000000 -7.085882 -0.655157 -0.340229 -50.086248 -0.317197 -8.124979 -5.976674 -40.100789 4.062177 0.000000 0.000000 0.000000 14.312229 -10.132782 -5.272269 57.813007 -6.191322 -10.867897 13.208039 32.816909 5.792493 0.000000 0.000000 0.000000 
-0.002864 0.946657 0.006293 -1.357090 -7.956610 2.016971 2.924552 0.382495 5.144766 -2.283941 0.400965 -7.003451 2.910298 8.232189 10.044358 0.000000 0.000000 0.000000 -2.015502 -0.060768 1.992359 1.604646 -0.276145 -6.217036 1.380767 -3.430554 11.980641 0.000000 0.000000 0.000000 5.507850 -0.181157 1.259052 -4.895942 1.662340 -24.432446 -0.348592 8.601278 29.026029 9.522829 -4.047537 -21.909669 0.000000 0.000000 0.000000 -7.304299 -0.779376 -0.302470 -50.399171 -0.208934 -8.213662 -5.756573 -39.906291 3.972097 0.000000 0.000000 0.000000 14.322834 -9.872090 -5.145752 58.136781 -6.216484 -10.936840 13.249540 33.099422 5.861551 0.000000 0.000000 0.000000 
-0.002948 0.946690 0.006434 -1.361796 -8.007612 2.100307 2.882594 0.379677 5.087525 -2.207659 0.396922 -7.035604 2.939716 8.282442 10.076301 0.000000 0.000000 0.000000 -1.995186 -0.059581 1.967259 1.577947 -0.276722 -6.329130 1.414269 -3.395664 12.028398 0.000000 0.000000 0.000000 5.623557 -0.176496 1.169594 -4.960649 1.675617 -24.460766 -0.356574 8.706308 29.079624 9.501363 -3.992949 -22.079339 0.000000 0.000000 0.000000 -7.552526 -0.904885 -0.276729 -50.926996 -0.288776 -8.270971 -5.593050 -39.417136 3.863395 0.000000 0.000000 0.000000 14.522572 -9.797739 -5.117951 58.533829 -5.992131 -10.910001 13.255188 33.223597 5.907593 0.000000 0.000000 0.000000 
-0.003031 0.946639 0.006547 -1.446582 -8.240895 2.160221 2.887500 0.375143 5.007355 -2.101798 0.388476 -6.918413 3.078678 8.494280 10.034630 0.000000 0.000000 0.000000 -1.981569 -0.051176 1.861303 1.690954 -0.277526 -6.269642 1.523157 -3.218534 12.023662 0.000000 0.000000 0.000000 5.816295 -0.167488 1.028520 -5.051576 1.695061 -24.339293 -0.335290 8.931615 29.041409 9.579768 -4.016552 -22.132486 0.000000 0.000000 0.000000 -7.715044 -1.073468 -0.227916 -51.517054 -0.263557 -8.372485 -5.601426 -38.988439 3.820436 0.000000 0.000000 0.000000 14.488901 -9.522072 -4.958392 58.984868 -5.763478 -10.870926 13.494190 33.397862 6.027474 0.000000 0.000000 0.000000 
-0.003136 0.946575 0.006640 -1.420757 -8.436895 2.218033 2.808120 0.375476 4.948512 -2.048623 0.384989 -6.877373 3.180710 8.654616 10.046126 0.000000 0.000000 0.000000 -2.022626 -0.048808 1.884004 1.695397 -0.279228 -6.461348 1.623760 -3.071521 12.060852 0.000000 0.000000 0.000000 5.908101 -0.167593 1.005555 -5.151869 1.716522 -24.348796 -0.362634 9.050806 29.018471 9.499191 -3.965755 -22.125228 0.000000 0.000000 0.000000 -7.931842 -1.279167 -0.156901 -52.157482 -0.299114 -8.460321 -6.017902 -38.679331 3.948184 0.000000 0.000000 0.000000 14.508899 -9.187392 -4.788485 59.315055 -5.548696 -10.827255 13.932300 33.672961 6.221256 0.000000 0.000000 0.000000 
-0.003244 0.946557 0.006697 -1.426446 -8.688000 2.246566 2.672725 0.387816 4.999331 -1.846738 0.374701 -6.957202 3.306333 8.857948 10.101425 0.000000 0.000000 0.000000 -2.115262 -0.035433 1.803551 1.845936 -0.280843 -6.416714 1.737548 -2.885016 12.050137 0.000000 0.000000 0.000000 5.975986 -0.167039 0.988417 -5.148645 1.712164 -24.295554 -0.385425 9.275241 28.946356 9.673451 -4.012883 -22.406365 0.000000 0.000000 0.000000 -7.992547 -1.468509 -0.089398 -52.775593 -0.253138 -8.572828 -6.478116 -38.711142 4.116774 0.000000 0.000000 0.000000 14.518993 -9.004010 -4.684691 59.431825 -5.268162 -10.705335 14.944548 34.130062 6.643956 0.000000 0.000000 0.000000 
-0.003341 0.946637 0.006717 -1.445389 -8.820959 2.179774 2.589267 0.400713 5.089148 -1.680449 0.363939 -6.947791 3.373549 8.968307 10.132358 0.000000 0.000000 0.000000 -2.026940 -0.047863 1.904638 1.714518 -0.277228 -6.485610 1.810576 -2.779685 12.079190 0.000000 0.000000 0.000000 5.997434 -0.176656 1.104012 -5.183201 1.718431 -24.354206 -0.321414 9.347983 28.966603 9.636635 -3.972819 -22.507435 0.000000 0.000000 0.000000 -8.128354 -1.611408 -0.037068 -53.076349 -0.398719 -8.562514 -7.405095 -38.729793 4.454627 0.000000 0.000000 0.000000 14.337567 -8.835020 -4.576887 59.602452 -5.109678 -10.658306 16.054995 34.631805 7.116459 0.000000 0.000000 0.000000 
-0.003407 0.946661 0.006690 -1.468068 -9.027532 2.199214 2.429185 0.411374 5.112340 -1.395762 0.346343 -6.976881 3.489884 9.154898 10.172220 0.000000 0.000000 0.000000 -1.976039 -0.046343 1.855355 1.644253 -0.273572 -6.475522 1.905411 -2.630077 12.079812 0.000000 0.000000 0.000000 6.128212 -0.178243 1.098432 -5.237740 1.730075 -24.265378 -0.306861 9.524935 28.878965 9.725566 -4.013541 -22.527416 0.000000 0.000000 0.000000 -8.218564 -1.927775 0.085769 -53.464371 -0.349634 -8.639527 -7.879146 -38.875345 4.642996 0.000000 0.000000 0.000000 14.179163 -8.608844 -4.434877 59.784833 -4.987318 -10.619895 17.310214 35.321999 7.706584 0.000000 0.000000 0.000000 
-0.003426 0.946668 0.006573 -1.531762 -9.080593 2.196540 2.425949 0.418261 5.184863 -1.275871 0.341858 -7.081562 3.517725 9.201914 10.193529 0.000000 0.000000 0.000000 -1.833179 -0.056953 1.876005 1.508315 -0.270170 -6.513355 1.937703 -2.587971 12.101064 0.000000 0.000000 0.000000 6.168470 -0.183474 1.149329 -5.221992 1.724579 -24.368955 -0.262974 9.465080 28.913455 9.707932 -4.015889 -22.542535 0.000000 0.000000 0.000000 -8.351250 -2.160966 0.188499 -53.508178 -0.398573 -8.624048 -8.624393 -39.218326 4.969859 0.000000 0.000000 0.000000 14.006764 -8.533588 -4.391838 59.727010 -4.662535 -10.460325 18.639786 36.143386 8.363680 0.000000 0.000000 0.000000 
-0.003396 0.946559 0.006311 -1.612917 -9.202577 2.239978 2.435458 0.418858 5.185461 -1.166941 0.337152 -7.143125 3.590954 9.314772 10.175962 0.000000 0.000000 0.000000 -1.789102 -0.045584 1.691519 1.570181 -0.267710 -6.299857 1.975241 -2.501937 12.032465 0.000000 0.000000 0.000000 6.190890 -0.193873 1.249804 -5.098652 1.692042 -24.422052 -0.302360 9.425356 28.920148 9.659932 -3.991037 -22.610505 0.000000 0.000000 0.000000 -8.421020 -2.313908 0.264123 -53.542747 -0.688417 -8.499819 -9.266198 -39.386889 5.241767 0.000000 0.000000 0.000000 13.867804 -8.422413 -4.340215 59.385763 -4.641929 -10.401259 21.042291 37.743764 9.643883 0.000000 0.000000 0.000000 
-0.003253 0.946570 0.005903 -1.668612 -9.270006 2.264648 2.317274 0.423093 5.171140 -0.877463 0.319952 -7.184681 3.644825 9.402159 10.186858 0.000000 0.000000 0.000000 -1.683799 -0.050441 1.671415 1.470979 -0.265465 -6.360724 2.018009 -2.453897 12.078829 0.000000 0.000000 0.000000 6.245671 -0.204956 1.352083 -5.001715 1.666629 -24.559265 -0.302139 9.354181 29.053555 9.733592 -4.027799 -22.807934 0.000000 0.000000 0.000000 -8.615195 -2.595462 0.390448 -53.384224 -0.898633 -8.393084 -10.320654 -39.571083 5.666590 0.000000 0.000000 0.000000 13.940980 -8.551542 -4.432037 58.935837 -4.301863 -10.192710 23.206630 39.905933 11.122163 0.000000 0.000000 0.000000 
-0.002988 0.946548 0.005338 -1.711796 -9.320684 2.298621 2.233334 0.428933 5.193936 -0.680357 0.313158 -7.337255 3.675370 9.454553 10.222515 0.000000 0.000000 0.000000 -1.667846 -0.044307 1.579360 1.499027 -0.265482 -6.331224 2.044806 -2.421678 12.101489 0.000000 0.000000 0.000000 6.308487 -0.217841 1.468938 -4.863173 1.631795 -24.666601 -0.323671 9.290899 29.141734 9.580014 -3.930655 -22.909888 0.000000 0.000000 0.000000 -8.772548 -2.682874 0.432503 -53.219994 -1.191108 -8.246600 -11.292913 -39.456079 6.010942 0.000000 0.000000 0.000000 14.070552 -8.489994 -4.429553 58.244439 -4.182572 -10.053175 26.265290 42.939353 13.397864 0.000000 0.000000 0.000000 
-0.002599 0.946751 0.004757 -1.676562 -9.410076 2.354861 2.075545 0.429906 5.123087 -0.526528 0.305863 -7.391548 3.714206 9.526773 10.333850 0.000000 0.000000 0.000000 -1.730738 -0.029611 1.444080 1.496457 -0.264366 -6.306594 2.095245 -2.374828 12.175842 0.000000 0.000000 0.000000 6.327078 -0.236623 1.648515 -4.790488 1.612503 -24.778290 -0.425655 9.169634 29.083758 9.591203 -3.957363 -22.955834 0.000000 0.000000 0.000000 -8.795040 -2.769022 0.490122 -52.944108 -1.163492 -8.204423 -12.154873 -39.558971 6.354010 0.000000 0.000000 0.000000 14.221621 -8.703945 -4.590009 57.455092 -3.953921 -9.831072 30.200834 46.150358 16.361068 0.000000 0.000000 0.000000 
-0.002190 0.946694 0.004269 -1.604019 -9.657166 2.367871 2.050989 0.430035 5.086332 -0.721014 0.318446 -7.381572 3.815710 9.686286 10.374561 0.000000 0.000000 0.000000 -1.952417 -0.011099 1.399118 1.678982 -0.268716 -6.391373 2.213762 -2.199692 12.210698 0.000000 0.000000 0.000000 6.385951 -0.248294 1.760263 -4.783624 1.607381 -24.797328 -0.380090 9.129543 29.086943 9.295160 -3.803758 -22.932557 0.000000 0.000000 0.000000 -9.014702 -2.663586 0.456493 -52.717199 -1.469446 -8.034443 -13.079745 -39.131529 6.631160 0.000000 0.000000 0.000000 14.198746 -8.720998 -4.631380 56.647715 -3.765540 -9.629984 36.772552 49.757811 21.198686 0.000000 0.000000 0.000000 
-0.001832 0.946937 0.003950 -1.555425 -9.953584 2.364070 1.861375 0.458088 5.273016 -0.582843 0.323393 -7.703389 3.917009 9.864966 10.615745 0.000000 0.000000 0.000000 -2.155053 0.000471 1.441969 1.869904 -0.273418 -6.585999 2.392788 -1.985661 12.381390 0.000000 0.000000 0.000000 6.463527 -0.269578 1.972594 -4.656972 1.572987 -24.847498 -0.564114 9.286834 29.001380 9.355321 -3.866473 -22.801587 0.000000 0.000000 0.000000 -9.067869 -2.779444 0.507717 -52.536595 -1.498823 -7.986067 -13.759588 -38.904195 6.827143 0.000000 0.000000 0.000000 14.359080 -9.134599 -4.874914 55.632141 -3.400980 -9.306785 45.665289 53.179357 28.000498 0.000000 0.000000 0.000000 
-0.001639 0.946735 0.003842 -1.548313 -10.130979 2.351066 1.875624 0.471640 5.406214 -0.684331 0.337567 -7.889591 3.982906 9.967768 10.637010 0.000000 0.000000 0.000000 -2.344484 0.014777 1.426498 2.149814 -0.278343 -6.588208 2.470495 -1.849532 12.360234 0.000000 0.000000 0.000000 6.689263 -0.291645 2.155406 -4.931486 1.636508 -24.880504 -0.463181 9.042444 28.997864 8.990692 -3.673443 -22.912750 0.000000 0.000000 0.000000 -9.281674 -2.780503 0.543598 -52.325757 -1.616948 -7.898520 -14.307098 -38.399208 6.960419 0.000000 0.000000 0.000000 14.351822 -9.034555 -4.884815 54.745132 -3.192145 -9.088805 57.432162 55.900023 37.088973 0.000000 0.000000 0.000000 
-0.001736 0.946803 0.003949 -1.472434 -10.341112 2.288925 1.821946 0.500307 5.659014 -0.772254 0.355232 -8.182522 4.031947 10.056601 10.809184 0.000000 0.000000 0.000000 -2.433605 0.015898 1.515030 2.141666 -0.276941 -6.681608 2.573480 -1.694701 12.380631 0.000000 0.000000 0.000000 6.711277 -0.309354 2.349493 -4.865883 1.617467 -24.928620 -0.620159 8.979716 28.922152 8.756153 -3.606489 -22.613153 0.000000 0.000000 0.000000 -9.682377 -2.925121 0.614430 -51.912379 -1.230873 -7.993792 -14.518656 -38.233941 7.011554 0.000000 0.000000 0.000000 14.874731 -8.948786 -4.945490 53.640521 -2.782795 -8.762102 71.552102 57.184603 48.076405 0.000000 0.000000 0.000000 
-0.002053 0.946856 0.004166 -1.519687 -10.604676 2.213727 1.982769 0.504815 5.751328 -0.993237 0.365615 -8.089235 4.143360 10.229448 10.828459 0.000000 0.000000 0.000000 -2.461550 0.008488 1.675220 2.277753 -0.278382 -6.829023 2.726708 -1.482224 12.461578 0.000000 0.000000 0.000000 6.855474 -0.334977 2.600142 -5.040024 1.655027 -24.985335 -0.493463 9.172444 28.846166 8.633788 -3.510876 -22.656255 0.000000 0.000000 0.000000 -9.883829 -3.027032 0.644934 -51.834106 -1.381279 -7.916366 -14.887181 -37.692714 7.021280 0.000000 0.000000 0.000000 15.330245 -8.881373 -4.968648 53.053805 -2.080223 -8.382474 83.887157 56.760626 57.516283 0.000000 0.000000 0.000000 
-0.002587 0.947010 0.004437 -1.501332 -10.696867 2.191537 2.073061 0.507468 5.811576 -1.151725 0.375746 -8.096178 4.162180 10.264213 10.912881 0.000000 0.000000 0.000000 -2.459632 -0.006698 1.914369 2.282560 -0.279769 -7.197723 2.815949 -1.403035 12.612438 0.000000 0.000000 0.000000 6.891280 -0.337841 2.626102 -5.059421 1.658365 -25.045423 -0.400794 9.514371 29.049679 8.674278 -3.526732 -22.477224 0.000000 0.000000 0.000000 -10.107159 -3.426391 0.779202 -51.831382 -1.347680 -7.958723 -14.947063 -37.646221 7.002210 0.000000 0.000000 0.000000 15.970296 -8.817007 -4.962015 52.612524 -1.492173 -8.116617 95.486825 55.317456 66.421642 0.000000 0.000000 0.000000 
-0.003118 0.947077 0.004693 -1.535150 -10.730209 2.146090 2.288233 0.513883 5.980402 -1.416663 0.396978 -8.242089 4.138494 10.231942 10.982823 0.000000 0.000000 0.000000 -2.364126 -0.019622 2.008280 2.227986 -0.278894 -7.229885 2.840530 -1.366037 12.619525 0.000000 0.000000 0.000000 6.919485 -0.338133 2.632631 -5.128391 1.673578 -24.840337 -0.347561 9.806223 28.994856 8.811483 -3.562204 -22.508046 0.000000 0.000000 0.000000 -10.116694 -3.537634 0.789465 -52.089512 -1.433474 -7.968105 -15.333794 -37.621574 7.108783 0.000000 0.000000 0.000000 16.378093 -8.703793 -4.898119 52.691081 -0.525385 -7.741551 103.441724 53.038024 71.736783 0.000000 0.000000 0.000000 
-0.003522 0.947282 0.004915 -1.489517 -10.841600 2.103294 2.350931 0.522025 6.082948 -1.596054 0.410214 -8.298334 4.153626 10.263688 11.107837 0.000000 0.000000 0.000000 -2.427261 -0.043275 2.455687 2.280187 -0.281800 -7.953406 2.982076 -1.270603 12.925795 0.000000 0.000000 0.000000 6.881684 -0.328080 2.550934 -5.294896 1.712573 -24.918169 -0.182492 10.113157 29.216364 8.896241 -3.594265 -22.437790 0.000000 0.000000 0.000000 -9.952407 -3.770028 0.874125 -52.494036 -1.114669 -8.191361 -15.876994 -37.790440 7.321720 0.000000 0.000000 0.000000 16.757407 -8.503192 -4.784949 52.755361 0.334749 -7.429216 108.799835 50.893168 74.891810 0.000000 0.000000 0.000000 
-0.003646 0.947592 0.005005 -1.613808 -10.812988 2.167911 2.474702 0.507173 5.992792 -1.558868 0.404918 -8.214934 4.150769 10.261845 11.144113 0.000000 0.000000 0.000000 -2.354457 -0.046149 2.412479 2.405979 -0.283214 -7.940389 3.009756 -1.288929 13.068101 0.000000 0.000000 0.000000 6.987254 -0.339362 2.625549 -5.424105 1.742227 -25.151227 0.000512 10.489152 29.445078 9.292059 -3.791821 -22.423785 0.000000 0.000000 0.000000 -10.091408 -3.962865 0.901919 -52.688789 -1.043102 -8.274687 -16.402895 -38.207032 7.563406 0.000000 0.000000 0.000000 16.749174 -8.391222 -4.635868 53.104445 1.222049 -7.130922 113.048579 48.829732 77.329505 0.000000 0.000000 0.000000 
-0.003444 0.947762 0.004884 -1.618177 -10.780374 2.104267 2.436191 0.507356 5.975331 -1.492208 0.396352 -8.086614 4.142210 10.249799 11.140824 0.000000 0.000000 0.000000 -2.456698 -0.059693 2.734511 2.581287 -0.285735 -8.400966 3.069107 -1.301165 13.325608 0.000000 0.000000 0.000000 6.921144 -0.346982 2.732578 -5.479786 1.755563 -25.307709 0.215628 10.855662 29.676101 9.553954 -3.885354 -22.520163 0.000000 0.000000 0.000000 -9.852341 -4.302881 1.015834 -53.264390 -1.297151 -8.292308 -17.188988 -38.447977 7.873009 0.000000 0.000000 0.000000 16.546630 -8.081901 -4.357439 53.321555 2.515057 -6.639177 115.374830 47.518367 78.708778 0.000000 0.000000 0.000000 
-0.003026 0.947983 0.004498 -1.671124 -10.880813 1.970840 2.546868 0.519230 6.138105 -1.644858 0.407565 -8.124901 4.160429 10.281665 11.206308 0.000000 0.000000 0.000000 -2.525936 -0.054120 2.731656 2.750851 -0.285717 -8.189127 3.130408 -1.223503 13.364956 0.000000 0.000000 0.000000 6.946986 -0.369676 2.992049 -5.514454 1.761727 -25.386254 0.383565 11.389320 29.800750 10.050119 -4.105164 -22.669518 0.000000 0.000000 0.000000 -9.712750 -4.541708 1.066267 -53.830140 -1.464691 -8.338232 -17.969215 -38.643480 8.162101 0.000000 0.000000 0.000000 16.416983 -7.930206 -4.160720 53.342322 3.964681 -6.051165 117.043150 46.959007 80.400853 0.000000 0.000000 0.000000 
-0.002420 0.948206 0.003950 -1.730624 -10.792262 2.030156 2.505937 0.518877 6.130486 -1.498674 0.404285 -8.305230 4.113356 10.216480 11.291809 0.000000 0.000000 0.000000 -2.523144 -0.060137 2.813680 2.815689 -0.286803 -8.490643 3.152224 -1.295644 13.612199 0.000000 0.000000 0.000000 6.938781 -0.375388 3.037393 -5.663490 1.797744 -25.483430 0.396588 11.543592 29.852248 10.183888 -4.088823 -23.036619 0.000000 0.000000 0.000000 -9.373250 -4.546272 1.058968 -54.467309 -1.884104 -8.266624 -17.926051 -38.662809 8.144116 0.000000 0.000000 0.000000 16.034243 -7.525537 -3.866443 53.572359 5.466243 -5.414151 117.434158 47.166438 81.427767 0.000000 0.000000 0.000000 
-0.001808 0.948280 0.003379 -1.688753 -10.621333 2.039850 2.486755 0.531468 6.282900 -1.564399 0.421609 -8.727099 3.983621 10.027091 11.421996 0.000000 0.000000 0.000000 -2.492816 -0.060433 2.760199 2.646790 -0.288250 -8.474357 3.068393 -1.434745 13.624483 0.000000 0.000000 0.000000 6.775376 -0.386043 3.187667 -5.745450 1.816952 -25.782485 0.524481 11.634093 30.126370 10.141237 -4.070464 -22.868398 0.000000 0.000000 0.000000 -9.108589 -5.013601 1.259474 -55.119880 -2.535090 -8.120201 -17.708871 -38.653155 8.068393 0.000000 0.000000 0.000000 15.645458 -7.186728 -3.608525 53.596557 6.820502 -4.852896 117.662078 47.620677 82.593917 0.000000 0.000000 0.000000 
-0.001178 0.948331 0.003008 -1.699839 -10.567977 1.984889 2.383948 0.559596 6.538002 -1.412452 0.427791 -9.137263 3.925242 9.948658 11.539926 0.000000 0.000000 0.000000 -2.419728 -0.071508 2.834399 2.479488 -0.288310 -8.541299 3.056311 -1.476541 13.672741 0.000000 0.000000 0.000000 6.679472 -0.403191 3.409504 -5.748719 1.818492 -25.824338 0.400880 11.846305 30.025027 10.094185 -4.006028 -22.804718 0.000000 0.000000 0.000000 -8.727123 -5.263565 1.353855 -55.724870 -3.240059 -7.896735 -17.321877 -38.262430 7.821036 0.000000 0.000000 0.000000 15.374589 -6.861924 -3.372521 53.756856 8.005318 -4.321297 117.147144 48.248731 83.064390 0.000000 0.000000 0.000000 
-0.000658 0.948325 0.002797 -1.692710 -10.569585 1.894863 2.218045 0.579207 6.649777 -1.185180 0.418715 -9.199988 3.931613 9.959893 11.541427 0.000000 0.000000 0.000000 -2.327449 -0.073869 2.755373 2.243294 -0.286360 -8.262187 3.022876 -1.480969 13.547451 0.000000 0.000000 0.000000 6.626297 -0.425978 3.689516 -5.980568 1.870184 -26.151200 0.582670 12.018393 30.317822 9.962839 -3.912040 -22.745487 0.000000 0.000000 0.000000 -8.384327 -5.721938 1.554268 -56.176569 -3.717516 -7.790670 -16.869440 -38.200268 7.646253 0.000000 0.000000 0.000000 15.110602 -6.635355 -3.198236 53.781644 8.383143 -4.175930 116.975622 48.101394 82.864236 0.000000 0.000000 0.000000 
-0.000276 0.948249 0.002699 -1.709890 -10.553993 1.879675 2.122874 0.598385 6.800937 -1.022306 0.420826 -9.455525 3.914537 9.938117 11.584504 0.000000 0.000000 0.000000 -2.255400 -0.072992 2.655312 2.106889 -0.284542 -8.063732 2.988666 -1.497160 13.451846 0.000000 0.000000 0.000000 6.544954 -0.433609 3.804335 -6.024953 1.880704 -26.097400 0.511354 12.102578 30.202247 9.692079 -3.710552 -22.774043 0.000000 0.000000 0.000000 -8.174077 -5.954482 1.649053 -56.624565 -4.331820 -7.562601 -16.295155 -37.582609 7.303385 0.000000 0.000000 0.000000 15.066822 -6.405125 -3.060178 54.056589 8.391300 -4.161955 116.765357 47.856185 82.391092 0.000000 0.000000 0.000000 
-0.000076 0.948236 0.002731 -1.734900 -10.439429 1.939201 2.017386 0.600919 6.787302 -0.787040 0.413889 -9.568073 3.873063 9.877066 11.591098 0.000000 0.000000 0.000000 -2.315615 -0.065553 2.599700 2.255181 -0.287048 -8.048512 2.940388 -1.581297 13.477993 0.000000 0.000000 0.000000 6.413001 -0.442422 3.934438 -5.990162 1.870881 -26.451151 0.577023 12.175411 30.326310 9.496613 -3.556714 -22.811727 0.000000 0.000000 0.000000 -7.754033 -6.212845 1.764345 -57.158506 -4.530927 -7.567332 -15.908037 -37.340143 7.115243 0.000000 0.000000 0.000000 15.022975 -6.354877 -3.001983 54.481177 7.959363 -4.371604 116.751254 47.156942 81.649059 0.000000 0.000000 0.000000 
-0.000086 0.948176 0.002899 -1.682832 -10.274287 1.973585 1.908048 0.611342 6.856551 -0.658365 0.417191 -9.795643 3.781530 9.743454 11.639337 0.000000 0.000000 0.000000 -2.333845 -0.058970 2.503784 2.207755 -0.287676 -7.907596 2.833292 -1.707653 13.381753 0.000000 0.000000 0.000000 6.304590 -0.444089 3.983464 -6.096222 1.895227 -26.544161 0.648144 12.246979 30.214729 9.279529 -3.395244 -22.736323 0.000000 0.000000 0.000000 -7.490686 -6.445845 1.850359 -57.492491 -4.550073 -7.601594 -15.430320 -37.156944 6.892100 0.000000 0.000000 0.000000 15.133957 -6.310125 -2.954233 54.991465 7.474293 -4.588079 117.652902 46.156281 81.583095 0.000000 0.000000 0.000000 
-0.000193 0.948014 0.003095 -1.706059 -10.208192 1.987424 1.864290 0.620348 6.934747 -0.513076 0.417271 -9.943019 3.754798 9.703136 11.623614 0.000000 0.000000 0.000000 -2.280956 -0.058446 2.428620 2.175357 -0.287292 -7.752443 2.774103 -1.752339 13.269574 0.000000 0.000000 0.000000 6.138261 -0.445424 4.064769 -5.961240 1.863688 -26.684412 0.740425 12.613491 30.185964 9.506011 -3.496091 -22.573168 0.000000 0.000000 0.000000 -7.154193 -6.719523 1.931127 -57.795892 -4.637845 -7.623169 -14.885193 -36.895733 6.606850 0.000000 0.000000 0.000000 15.178459 -6.097663 -2.772337 55.499849 7.708554 -4.478687 119.001744 45.975897 83.374747 0.000000 0.000000 0.000000 
-0.000375 0.947971 0.003158 -1.683413 -10.163659 1.987182 1.835667 0.624653 6.967843 -0.475411 0.418497 -10.008367 3.729376 9.665991 11.636815 0.000000 0.000000 0.000000 -2.316352 -0.053476 2.387264 2.221015 -0.287895 -7.664481 2.738360 -1.784478 13.213805 0.000000 0.000000 0.000000 6.150805 -0.449045 4.097982 -6.064024 1.886505 -26.723536 0.915699 12.936778 30.232665 9.600523 -3.488870 -22.623210 0.000000 0.000000 0.000000 -7.091230 -6.992394 2.006549 -58.065667 -4.573504 -7.714574 -14.385533 -37.136339 6.449471 0.000000 0.000000 0.000000 15.443955 -5.609643 -2.455210 56.087280 8.797474 -4.007134 120.229946 46.793183 86.466175 0.000000 0.000000 0.000000 
-0.000486 0.947896 0.003022 -1.765959 -10.196519 2.175030 1.752631 0.618416 6.862700 -0.170163 0.414268 -10.168958 3.770294 9.731215 11.676003 0.000000 0.000000 0.000000 -2.189120 -0.041412 2.085654 2.165367 -0.285529 -7.488119 2.732093 -1.777005 13.157865 0.000000 0.000000 0.000000 6.022544 -0.443833 4.057826 -6.050441 1.881150 -26.803850 1.147818 13.479699 30.187098 10.024588 -3.685394 -22.534567 0.000000 0.000000 0.000000 -6.977144 -7.555460 2.180200 -58.305187 -4.458407 -7.812924 -13.664455 -37.729797 6.249146 0.000000 0.000000 0.000000 15.419101 -4.708988 -1.882118 56.724068 10.619315 -3.127282 122.124206 48.399967 91.622109 0.000000 0.000000 0.000000 
-0.000587 0.947776 0.002689 -1.747331 -10.161168 2.159634 1.667207 0.617648 6.809546 -0.027722 0.404955 -10.096822 3.774395 9.733972 11.620735 0.000000 0.000000 0.000000 -2.261265 -0.034097 2.046914 2.282316 -0.287330 -7.422929 2.701936 -1.801144 13.107775 0.000000 0.000000 0.000000 5.945258 -0.438773 4.037806 -6.249016 1.927160 -26.662732 1.452482 13.816026 30.120312 10.228135 -3.692307 -22.852002 0.000000 0.000000 0.000000 -6.723790 -8.034738 2.344000 -58.619607 -4.327196 -7.936944 -13.014899 -38.628543 6.138624 0.000000 0.000000 0.000000 15.443238 -3.541463 -1.197447 57.021095 13.475302 -1.730434 123.914722 51.043554 97.841531 0.000000 0.000000 0.000000 
-0.000722 0.947886 0.002159 -1.707146 -10.385952 2.263330 1.624290 0.626279 6.849542 -0.060261 0.422457 -10.392635 3.843796 9.852967 11.831936 0.000000 0.000000 0.000000 -2.443264 -0.009265 1.896507 2.527381 -0.288248 -7.478385 2.820496 -1.656151 13.195336 0.000000 0.000000 0.000000 5.743465 -0.438382 4.114413 -6.124109 1.894642 -26.978307 1.732523 14.703211 30.348551 10.889476 -3.985368 -22.888851 0.000000 0.000000 0.000000 -6.392195 -8.597656 2.507941 -58.846489 -4.404985 -7.994243 -12.431281 -39.038894 5.914623 0.000000 0.000000 0.000000 15.336909 -2.491968 -0.503665 57.462275 16.686758 -0.098830 124.965489 53.952240 103.629159 0.000000 0.000000 0.000000 
-0.000963 0.948005 0.001380 -1.754344 -10.463957 2.373288 1.634990 0.594367 6.530389 0.032331 0.404021 -10.094434 3.924546 9.971111 11.792427 0.000000 0.000000 0.000000 -2.558499 0.019910 1.586888 2.858498 -0.291467 -7.227355 2.853311 -1.614733 13.217014 0.000000 0.000000 0.000000 5.615675 -0.429784 4.055297 -6.234314 1.919165 -26.885903 2.049817 15.421575 30.400065 11.560481 -4.215734 -23.323305 0.000000 0.000000 0.000000 -5.788353 -9.191329 2.705101 -58.976751 -4.585882 -7.987398 -12.288294 -39.374885 5.828204 0.000000 0.000000 0.000000 15.087328 -1.272984 0.250578 57.894278 20.136754 1.759402 125.974188 56.953091 109.142493 0.000000 0.000000 0.000000 
-0.001446 0.948273 0.000301 -1.755716 -10.531866 2.555647 1.553744 0.572737 6.268963 0.234405 0.396358 -10.091065 3.968889 10.048360 11.937784 0.000000 0.000000 0.000000 -2.583904 0.043902 1.268377 2.977644 -0.292140 -7.148240 2.894614 -1.595745 13.310041 0.000000 0.000000 0.000000 5.551522 -0.429981 4.052904 -6.483816 1.973767 -26.845945 2.337337 16.024450 30.536442 12.130557 -4.438924 -23.546947 0.000000 0.000000 0.000000 -5.258603 -9.944240 2.971155 -59.222099 -5.000375 -7.875878 -12.052698 -39.654405 5.717290 0.000000 0.000000 0.000000 14.439506 0.353550 1.154762 58.517954 23.766251 3.871052 126.350231 60.529989 114.079494 0.000000 0.000000 0.000000 
-0.002089 0.948666 -0.001201 -1.874645 -10.463763 2.685009 1.789154 0.518178 5.843294 0.161942 0.379631 -9.723519 3.972097 10.052306 11.932867 0.000000 0.000000 0.000000 -2.440879 0.062446 0.857460 3.067028 -0.294287 -6.776303 2.866877 -1.668502 13.366228 0.000000 0.000000 0.000000 5.292794 -0.433282 4.202406 -6.419464 1.961138 -26.805448 2.450575 16.591025 30.529238 12.739091 -4.601831 -24.111288 0.000000 0.000000 0.000000 -4.293144 -10.821762 3.299853 -59.633888 -5.570093 -7.733932 -11.760787 -39.801449 5.554160 0.000000 0.000000 0.000000 13.937289 2.005572 2.054331 58.762649 27.332569 5.993553 126.944523 64.437219 119.219986 0.000000 0.000000 0.000000 
-0.002952 0.949263 -0.002970 -1.915840 -10.596916 2.852305 1.834803 0.472572 5.380855 0.261564 0.357730 -9.376532 4.063174 10.198782 12.083813 0.000000 0.000000 0.000000 -2.498451 0.098425 0.403707 3.368422 -0.298302 -6.498391 2.953811 -1.611316 13.534329 0.000000 0.000000 0.000000 5.297424 -0.465423 4.563094 -6.468611 1.965552 -26.963142 2.391530 17.276846 30.580694 13.465290 -4.892426 -24.430599 0.000000 0.000000 0.000000 -3.676365 -11.819726 3.650904 -59.680136 -5.984315 -7.609093 -10.999710 -40.165047 5.250058 0.000000 0.000000 0.000000 13.367428 3.632277 2.908439 59.094517 31.357309 8.490535 125.883175 68.771226 122.265189 0.000000 0.000000 0.000000 
-0.004015 0.949624 -0.005152 -1.947498 -10.627504 2.996357 1.959855 0.433873 5.028194 0.257455 0.351228 -9.245448 4.085413 10.241349 12.225328 0.000000 0.000000 0.000000 -2.432667 0.126411 -0.040758 3.477616 -0.300403 -6.216075 2.967471 -1.625464 13.600777 0.000000 0.000000 0.000000 5.048112 -0.490483 5.011745 -6.544036 1.981731 -26.916046 2.365481 17.668251 30.520583 13.890549 -5.072433 -24.527147 0.000000 0.000000 0.000000 -2.765636 -12.631948 3.958035 -60.207593 -7.023593 -7.238457 -10.365992 -40.305724 4.998297 0.000000 0.000000 0.000000 12.788725 5.323431 3.726830 59.375573 35.434431 11.122455 121.282036 74.340753 121.715712 0.000000 0.000000 0.000000 
-0.005398 0.950145 -0.007655 -1.978342 -10.796887 3.073749 2.072619 0.394240 4.630216 0.290429 0.332381 -8.901759 4.184198 10.398969 12.385984 0.000000 0.000000 0.000000 -2.182822 0.143273 -0.446472 3.284756 -0.294371 -5.928492 3.049336 -1.539234 13.666354 0.000000 0.000000 0.000000 4.922893 -0.522142 5.513005 -6.352776 1.940096 -26.848290 2.084870 18.044985 30.424889 14.682359 -5.412410 -25.032236 0.000000 0.000000 0.000000 -2.258267 -13.117962 4.134380 -60.247257 -7.786411 -6.906530 -9.809861 -40.266558 4.754538 0.000000 0.000000 0.000000 11.933124 7.150852 4.519978 59.588324 40.075054 14.216599 102.846643 80.806648 107.064040 0.000000 0.000000 0.000000 
-0.007014 0.950390 -0.010471 -2.126043 -10.927076 3.293326 2.250845 0.348196 4.186249 0.470606 0.315524 -8.746133 4.283922 10.553856 12.515560 0.000000 0.000000 0.000000 -1.969736 0.168820 -0.913347 3.421513 -0.295684 -5.790888 3.131455 -1.478581 13.800431 0.000000 0.000000 0.000000 4.723606 -0.545236 5.947161 -6.243192 1.911496 -26.729109 1.972658 18.472541 30.164692 15.355098 -5.725860 -25.226807 0.000000 0.000000 0.000000 -1.512392 -13.792346 4.375091 -60.859862 -8.695228 -6.578187 -8.920760 -39.854797 4.350113 0.000000 0.000000 0.000000 11.321262 8.443419 5.082741 59.518695 44.420543 17.125481 33.579529 83.655352 41.804020 0.000000 0.000000 0.000000 
-0.008722 0.950762 -0.013121 -2.415878 -10.892627 3.546503 2.480200 0.305967 3.803616 0.877449 0.294202 -8.731830 4.307854 10.602878 12.673944 0.000000 0.000000 0.000000 -1.317530 0.174943 -1.353532 3.075262 -0.287442 -5.662804 3.149703 -1.524808 13.949019 0.000000 0.000000 0.000000 4.825321 -0.590001 6.417289 -6.345640 1.933913 -26.569144 1.823078 18.437913 29.844978 15.391103 -5.721204 -25.299639 0.000000 0.000000 0.000000 -1.313350 -14.139420 4.498766 -60.560698 -8.669443 -6.530353 -8.955511 -40.262357 4.391065 0.000000 0.000000 0.000000 10.753661 9.973064 5.687183 57.482454 48.096581 18.682446 -11.110890 77.340182 0.754734 0.000000 0.000000 0.000000 
-0.010280 0.950710 -0.015155 -2.328538 -11.005892 3.675982 2.439674 0.283054 3.517691 0.979332 0.286597 -8.681205 4.370777 10.700919 12.797145 0.000000 0.000000 0.000000 -1.246009 0.180556 -1.451901 2.994945 -0.284184 -5.993063 3.216029 -1.461040 14.020683 0.000000 0.000000 0.000000 4.712339 -0.588726 6.486193 -6.295633 1.919719 -26.482710 1.857460 19.133989 29.742877 15.744813 -5.829149 -25.326156 0.000000 0.000000 0.000000 -0.589155 -14.468828 4.603889 -60.951037 -8.691964 -6.674238 -8.979104 -40.587599 4.357028 0.000000 0.000000 0.000000 10.172663 10.296888 5.808731 55.654195 51.120428 19.900488 -22.646319 68.507202 -7.380586 0.000000 0.000000 0.000000 
-0.011382 0.950789 -0.016224 -2.285939 -11.071574 3.562522 2.591813 0.294317 3.681763 0.766667 0.306694 -8.846533 4.358313 10.689804 12.930409 0.000000 0.000000 0.000000 -0.954452 0.162495 -1.384189 2.540382 -0.273213 -6.014892 3.239157 -1.406101 13.959870 0.000000 0.000000 0.000000 4.631818 -0.605221 6.834047 -6.216248 1.900597 -26.487650 1.962425 19.274677 29.497376 15.308288 -5.453792 -25.603091 0.000000 0.000000 0.000000 -0.644762 -14.035018 4.449320 -60.811899 -8.018141 -6.982546 -9.835950 -40.878277 4.666694 0.000000 0.000000 0.000000 9.464517 10.819113 5.907602 52.771647 53.322848 19.939097 -27.306707 60.454000 -9.322809 0.000000 0.000000 0.000000 
-0.011974 0.950610 -0.016210 -2.129786 -11.067461 3.428349 2.334436 0.300441 3.659876 0.995794 0.280802 -8.593928 4.379528 10.717337 12.854394 0.000000 0.000000 0.000000 -1.096137 0.161817 -1.306817 2.562878 -0.273120 -5.929952 3.195568 -1.402031 13.798588 0.000000 0.000000 0.000000 4.820681 -0.616939 6.841127 -6.422520 1.947605 -26.616501 2.204622 19.614228 29.707096 15.312654 -5.278444 -26.122789 0.000000 0.000000 0.000000 -0.314628 -13.949866 4.422781 -60.925776 -7.205914 -7.492965 -10.762454 -41.446499 5.033462 0.000000 0.000000 0.000000 8.571423 10.892499 5.787039 50.640490 54.763875 19.850986 -30.762461 53.716768 -9.893372 0.000000 0.000000 0.000000 
-0.012121 0.950438 -0.015280 -2.113143 -10.654192 3.312819 2.338851 0.320930 3.929023 1.041929 0.292834 -8.850895 4.157713 10.393375 12.781658 0.000000 0.000000 0.000000 -0.967954 0.127100 -0.968525 2.346047 -0.273272 -6.130209 2.999183 -1.665939 13.729001 0.000000 0.000000 0.000000 4.976164 -0.637294 6.973560 -6.461332 1.960588 -26.894070 2.479993 19.566660 29.707497 14.902266 -4.910834 -26.437822 0.000000 0.000000 0.000000 -0.438402 -13.544742 4.271427 -60.948646 -6.179684 -8.029788 -12.020724 -41.760542 5.502364 0.000000 0.000000 0.000000 8.061311 10.868613 5.687303 47.593424 55.081354 18.523724 -32.554456 48.849361 -9.709525 0.000000 0.000000 0.000000 
-0.012009 0.950145 -0.013533 -2.073914 -10.395041 3.124737 2.135668 0.335184 4.030901 1.337164 0.260088 -8.548718 4.080177 10.264006 12.511252 0.000000 0.000000 0.000000 -1.049926 0.109290 -0.720247 2.395582 -0.276068 -5.971018 2.835068 -1.820423 13.516033 0.000000 0.000000 0.000000 5.395022 -0.655593 6.849588 -6.648080 2.002932 -27.178244 2.678124 19.735210 29.811951 14.966375 -4.909786 -26.407163 0.000000 0.000000 0.000000 -0.586835 -13.150034 4.117542 -60.663678 -5.229227 -8.500563 -13.060578 -41.824285 5.842105 0.000000 0.000000 0.000000 7.762583 10.463883 5.474812 45.909534 55.174857 17.767639 -33.160735 45.843843 -9.251215 0.000000 0.000000 0.000000 
-0.011786 0.949881 -0.011353 -2.006405 -9.806632 2.754869 2.019232 0.356832 4.260873 1.479521 0.229734 -8.167032 3.830669 9.874461 12.137908 0.000000 0.000000 0.000000 -1.026832 0.058534 -0.142591 2.222525 -0.276779 -5.944147 2.525423 -2.192800 13.291433 0.000000 0.000000 0.000000 5.752041 -0.671960 6.795997 -6.753179 2.033108 -27.282886 2.882249 19.814502 29.796724 14.884120 -4.813124 -26.289308 0.000000 0.000000 0.000000 -0.985018 -12.938080 3.993617 -60.514070 -4.311418 -8.947760 -14.386858 -41.781804 6.252129 0.000000 0.000000 0.000000 8.077070 9.660948 5.237897 44.745516 54.141627 16.623068 -33.156900 45.504146 -9.080508 0.000000 0.000000 0.000000 
-0.011500 0.949610 -0.008974 -1.973866 -9.553996 2.588534 1.881053 0.376697 4.440531 1.642800 0.209244 -7.968353 3.740436 9.723319 11.895616 0.000000 0.000000 0.000000 -1.065876 0.025444 0.270994 2.179161 -0.279016 -6.048438 2.391976 -2.336935 13.159894 0.000000 0.000000 0.000000 6.001754 -0.664420 6.526434 -6.703220 2.023760 -27.398100 3.106889 19.912660 29.814752 14.850481 -4.776895 -26.188469 0.000000 0.000000 0.000000 -1.921956 -12.614780 3.791399 -59.579795 -3.553789 -9.080907 -15.608352 -41.205755 6.544769 0.000000 0.000000 0.000000 8.380182 8.709454 4.906062 45.016733 52.219348 15.707951 -33.403417 48.125137 -9.626580 0.000000 0.000000 0.000000 
-0.011096 0.949349 -0.006732 -1.947888 -9.191757 2.524054 1.822757 0.383898 4.526117 1.688901 0.199504 -7.844517 3.591453 9.482468 11.662644 0.000000 0.000000 0.000000 -1.129973 0.004980 0.549001 2.198204 -0.283412 -6.107089 2.204830 -2.573682 13.046257 0.000000 0.000000 0.000000 6.226130 -0.638725 6.056988 -6.515159 1.987958 -27.451345 3.225193 19.677857 29.824744 14.618164 -4.556460 -26.531906 0.000000 0.000000 0.000000 -2.319175 -12.069872 3.567047 -59.455666 -2.829134 -9.373973 -16.358964 -40.461579 6.684222 0.000000 0.000000 0.000000 8.935937 7.726566 4.581799 46.262888 49.701423 14.857630 -31.580752 53.073539 -9.734969 0.000000 0.000000 0.000000 
-0.010554 0.949099 -0.004607 -1.930071 -8.894515 2.441838 1.686787 0.397493 4.640411 1.863310 0.183635 -7.733322 3.478446 9.296133 11.451792 0.000000 0.000000 0.000000 -1.129875 -0.022859 0.878283 2.098864 -0.284809 -6.246699 2.056591 -2.763291 12.961851 0.000000 0.000000 0.000000 6.264532 -0.613492 5.744810 -6.380427 1.962687 -27.400868 3.376263 19.472081 29.809758 14.239085 -4.362849 -26.360922 0.000000 0.000000 0.000000 -3.323097 -11.718557 3.344623 -58.556339 -2.345611 -9.326643 -16.866416 -39.592055 6.690223 0.000000 0.000000 0.000000 9.586780 6.854518 4.313834 47.653986 46.369042 13.594466 -30.651759 60.480658 -10.547936 0.000000 0.000000 0.000000 
-0.009871 0.948913 -0.002630 -1.851030 -8.614679 2.517548 1.481180 0.406803 4.678648 2.022544 0.181484 -7.829532 3.354145 9.101205 11.362283 0.000000 0.000000 0.000000 -1.324044 -0.025059 1.030765 2.214916 -0.292309 -6.421231 1.922268 -2.958588 12.940184 0.000000 0.000000 0.000000 6.346354 -0.569017 5.160389 -6.187133 1.920423 -27.353561 3.418845 19.160411 30.080890 13.877340 -4.207202 -26.205141 0.000000 0.000000 0.000000 -3.926278 -11.503979 3.221069 -58.489527 -1.859945 -9.516704 -17.074906 -38.688281 6.638090 0.000000 0.000000 0.000000 10.878637 5.414555 3.878219 49.150680 42.584628 11.952801 -25.855098 70.089958 -8.937086 0.000000 0.000000 0.000000 
-0.009076 0.948531 -0.000587 -1.847259 -8.287267 2.562518 1.473944 0.400167 4.633328 1.973755 0.176133 -7.694677 3.234267 8.890496 11.091024 0.000000 0.000000 0.000000 -1.309658 -0.044340 1.248170 2.099111 -0.294148 -6.612668 1.757102 -3.182926 12.864855 0.000000 0.000000 0.000000 6.513317 -0.547606 4.808192 -6.149203 1.916372 -27.169764 3.325795 18.703824 30.032966 13.566004 -4.160430 -25.751629 0.000000 0.000000 0.000000 -4.794168 -11.129890 3.017264 -57.609473 -1.302769 -9.506439 -17.491277 -38.136869 6.695281 0.000000 0.000000 0.000000 11.898381 4.041954 3.362919 50.419438 37.761262 9.717500 -8.467103 80.948982 4.290139 0.000000 0.000000 0.000000 
-0.008212 0.948445 0.001294 -1.704195 -8.227117 2.528485 1.263664 0.406576 4.609009 1.953392 0.161790 -7.438692 3.222711 8.857418 10.963597 0.000000 0.000000 0.000000 -1.551077 -0.041617 1.390263 2.126896 -0.295464 -6.621175 1.708641 -3.227519 12.787312 0.000000 0.000000 0.000000 6.460752 -0.497707 4.301272 -6.014821 1.890032 -26.933355 3.315746 18.244595 30.191144 13.032252 -4.019902 -25.217205 0.000000 0.000000 0.000000 -5.204158 -10.646013 2.839906 -57.645987 -0.806307 -9.718225 -17.969708 -37.895379 6.880425 0.000000 0.000000 0.000000 12.552453 2.379224 2.588755 52.050302 32.938292 7.588017 79.656016 83.606182 86.925941 0.000000 0.000000 0.000000 
-0.007429 0.948170 0.002927 -1.710076 -8.165254 2.577665 1.277949 0.422713 4.794682 1.835893 0.183846 -7.697804 3.181251 8.785181 10.898667 0.000000 0.000000 0.000000 -1.600090 -0.045741 1.479243 2.115134 -0.296449 -6.684219 1.666984 -3.266231 12.723512 0.000000 0.000000 0.000000 6.541630 -0.465075 3.901917 -6.005912 1.889610 -26.799978 3.274182 17.381494 30.231711 12.414857 -3.834867 -24.937626 0.000000 0.000000 0.000000 -5.724927 -10.105130 2.670667 -57.378056 -0.158614 -9.895328 -18.900900 -38.090769 7.346760 0.000000 0.000000 0.000000 12.796395 1.220152 1.915688 53.131006 27.970603 5.270439 114.387142 74.939819 114.787420 0.000000 0.000000 0.000000 
-0.006822 0.948169 0.004000 -1.686452 -8.141879 2.709387 1.196751 0.414228 4.674020 1.847914 0.179870 -7.639833 3.182516 8.782376 10.865856 0.000000 0.000000 0.000000 -1.730730 -0.030957 1.392100 2.216983 -0.299180 -6.674661 1.653053 -3.293060 12.735638 0.000000 0.000000 0.000000 6.615687 -0.427033 3.439048 -5.835628 1.851402 -26.828851 3.206452 16.951475 30.500403 12.090517 -3.801402 -24.507279 0.000000 0.000000 0.000000 -5.776009 -9.554333 2.507069 -57.444244 0.007161 -10.006316 -19.416144 -38.427323 7.668336 0.000000 0.000000 0.000000 13.171732 -0.062949 1.253210 54.156463 24.022428 3.424218 121.692520 66.956739 115.798443 0.000000 0.000000 0.000000 
-0.006528 0.948175 0.004604 -1.635671 -7.931466 2.713371 1.202482 0.428357 4.842087 1.745930 0.203739 -7.947209 3.042463 8.577832 10.925940 0.000000 0.000000 0.000000 -1.780411 -0.021320 1.291579 2.193675 -0.297546 -6.408778 1.521301 -3.462049 12.630457 0.000000 0.000000 0.000000 6.669560 -0.414945 3.284193 -5.773814 1.840627 -26.761377 2.973956 16.268707 30.508348 11.802814 -3.797373 -24.120549 0.000000 0.000000 0.000000 -5.853035 -9.002635 2.347695 -57.557146 -0.101150 -9.964941 -19.731992 -39.101536 8.009770 0.000000 0.000000 0.000000 13.448051 -1.111818 0.664487 55.047519 20.783331 1.919239 124.076198 60.604969 112.139317 0.000000 0.000000 0.000000 
-0.006578 0.948011 0.004891 -1.644235 -7.871534 2.663313 1.249592 0.425131 4.833797 1.695477 0.198263 -7.810303 3.031619 8.547284 10.808309 0.000000 0.000000 0.000000 -1.777178 -0.024520 1.324928 2.214448 -0.297761 -6.319733 1.475413 -3.499682 12.543305 0.000000 0.000000 0.000000 6.709852 -0.394431 3.065893 -5.707201 1.826854 -26.738112 2.851233 15.806792 30.645814 11.535690 -3.828945 -23.521146 0.000000 0.000000 0.000000 -6.018219 -8.780523 2.296943 -57.730597 -0.437430 -9.841691 -20.121617 -39.782924 8.383172 0.000000 0.000000 0.000000 13.879343 -1.753290 0.305681 55.664176 18.500937 0.806356 125.008516 56.651535 108.835818 0.000000 0.000000 0.000000 
-0.007004 0.947803 0.005035 -1.686754 -7.918946 2.602332 1.298051 0.448975 5.106162 1.731312 0.214912 -8.124859 3.034595 8.556610 10.844035 0.000000 0.000000 0.000000 -1.732488 -0.035055 1.428188 2.257495 -0.299159 -6.356681 1.493158 -3.446140 12.484823 0.000000 0.000000 0.000000 6.719391 -0.375763 2.885976 -5.505929 1.782892 -26.598782 2.660436 15.416580 30.525896 11.346392 -3.838565 -23.225217 0.000000 0.000000 0.000000 -5.991990 -8.484000 2.229879 -57.956840 -0.765263 -9.712391 -20.014611 -40.319333 8.537179 0.000000 0.000000 0.000000 14.048765 -2.303636 -0.039544 56.188682 16.867613 0.048069 124.692859 54.415023 105.523925 0.000000 0.000000 0.000000 
-0.007571 0.947307 0.005129 -1.798827 -7.889524 2.649667 1.479468 0.445768 5.171553 1.696569 0.225939 -8.282138 3.039242 8.548483 10.715539 0.000000 0.000000 0.000000 -1.712393 -0.034009 1.397942 2.510028 -0.306748 -6.336641 1.461543 -3.445926 12.370359 0.000000 0.000000 0.000000 6.794809 -0.341685 2.500951 -5.396503 1.759606 -26.355624 2.507688 15.109012 30.333452 11.320099 -3.980891 -22.676181 0.000000 0.000000 0.000000 -5.943853 -8.340850 2.208196 -57.939016 -1.154613 -9.502901 -20.222168 -40.601400 8.720832 0.000000 0.000000 0.000000 14.280636 -2.746956 -0.310634 56.280402 15.543304 -0.598541 124.255323 53.263920 103.259174 0.000000 0.000000 0.000000 
-0.008163 0.947044 0.005101 -1.867838 -8.013578 2.635444 1.639501 0.449303 5.282337 1.587147 0.237432 -8.388948 3.097680 8.632707 10.678601 0.000000 0.000000 0.000000 -1.806947 -0.031113 1.440240 2.864185 -0.316131 -6.380319 1.525068 -3.327590 12.344392 0.000000 0.000000 0.000000 6.970169 -0.326387 2.305286 -5.304681 1.738639 -26.302011 2.370454 14.923984 30.301430 11.155424 -3.946593 -22.537063 0.000000 0.000000 0.000000 -6.146394 -7.988239 2.081246 -57.604245 -1.552664 -9.228600 -20.769624 -40.426454 8.919156 0.000000 0.000000 0.000000 14.380662 -3.101551 -0.538542 56.292373 14.658761 -1.038176 123.419972 52.626357 101.096851 0.000000 0.000000 0.000000 
-0.008546 0.946734 0.004913 -1.943290 -8.095470 2.655018 1.805682 0.438002 5.239993 1.465407 0.239248 -8.319427 3.158364 8.710993 10.557792 0.000000 0.000000 0.000000 -1.979309 -0.026897 1.529290 3.355216 -0.329145 -6.585841 1.589685 -3.233792 12.398269 0.000000 0.000000 0.000000 7.079540 -0.308982 2.101190 -5.341741 1.747242 -26.190747 2.383032 14.797813 30.130629 11.065513 -3.987868 -22.162365 0.000000 0.000000 0.000000 -5.953849 -7.758925 2.024690 -57.628675 -1.755305 -9.126708 -20.816647 -40.310306 8.930025 0.000000 0.000000 0.000000 14.261781 -3.616066 -0.847518 56.329445 13.690297 -1.470327 122.398482 52.506506 99.361617 0.000000 0.000000 0.000000 
-0.008745 0.946492 0.004570 -1.954161 -8.088921 2.613818 1.916062 0.419970 5.094267 1.320892 0.228917 -8.010733 3.188590 8.734767 10.375874 0.000000 0.000000 0.000000 -2.037438 -0.010476 1.351509 3.510143 -0.333207 -6.217215 1.539363 -3.244595 12.216577 0.000000 0.000000 0.000000 7.081026 -0.315023 2.168980 -5.188117 1.712787 -26.186156 2.259890 14.572583 29.998043 10.907392 -3.931385 -22.109892 0.000000 0.000000 0.000000 -6.209327 -7.394231 1.880976 -57.200690 -1.695466 -9.044992 -20.865988 -40.028178 8.899105 0.000000 0.000000 0.000000 14.410439 -3.977709 -1.074119 55.746173 12.687918 -1.988515 121.490511 52.422062 97.717775 0.000000 0.000000 0.000000 
-0.008785 0.946503 0.004161 -1.950682 -8.181050 2.601241 1.990342 0.396519 4.855929 1.170784 0.213684 -7.585303 3.262411 8.835044 10.259872 0.000000 0.000000 0.000000 -2.326329 0.006269 1.366753 4.016468 -0.345999 -6.284355 1.611420 -3.160968 12.320846 0.000000 0.000000 0.000000 7.228763 -0.301653 2.006148 -5.296281 1.738737 -25.864212 2.127874 14.429955 29.678063 10.568474 -3.737752 -22.082179 0.000000 0.000000 0.000000 -6.134380 -7.243515 1.844465 -57.085455 -1.671034 -8.999031 -19.932065 -39.338359 8.407122 0.000000 0.000000 0.000000 14.426619 -4.444193 -1.358061 55.300491 11.593396 -2.495230 119.888754 52.657891 95.617422 0.000000 0.000000 0.000000 
-0.008769 0.946486 0.003782 -1.989790 -8.187709 2.621480 2.118414 0.378105 4.708431 1.020230 0.211935 -7.392159 3.280947 8.854082 10.183925 0.000000 0.000000 0.000000 -2.326503 0.008201 1.341258 4.096437 -0.347852 -6.313934 1.624489 -3.153879 12.360541 0.000000 0.000000 0.000000 7.276917 -0.307108 2.042692 -5.256609 1.728890 -26.032151 2.041433 14.363531 29.686028 10.600326 -3.819179 -21.846634 0.000000 0.000000 0.000000 -6.514124 -6.932584 1.694691 -56.438548 -1.439807 -8.968325 -18.821037 -38.874277 7.895892 0.000000 0.000000 0.000000 14.496450 -5.112842 -1.721599 54.656544 10.001792 -3.246184 118.573590 52.468452 93.481713 0.000000 0.000000 0.000000 
-0.008727 0.946567 0.003445 -1.977553 -8.179456 2.633457 2.200024 0.371444 4.673058 0.853399 0.221833 -7.398161 3.262463 8.828772 10.213141 0.000000 0.000000 0.000000 -2.501717 0.011129 1.452935 4.388052 -0.353281 -6.578850 1.664047 -3.146693 12.525710 0.000000 0.000000 0.000000 7.336733 -0.291907 1.878373 -5.228694 1.724633 -25.729962 1.728037 14.100300 29.393779 10.563472 -3.784053 -22.090061 0.000000 0.000000 0.000000 -6.828634 -6.555388 1.538188 -55.946631 -1.425938 -8.832652 -17.827725 -38.338648 7.443447 0.000000 0.000000 0.000000 14.613545 -5.525318 -1.992905 54.085205 8.912105 -3.713918 115.736133 53.074710 90.286427 0.000000 0.000000 0.000000 
-0.008660 0.946366 0.003184 -2.042709 -8.435463 2.553107 2.291422 0.376972 4.747867 0.755703 0.223424 -7.315200 3.394646 9.024504 10.136644 0.000000 0.000000 0.000000 -2.384938 -0.000867 1.537867 4.264134 -0.346529 -6.631485 1.779844 -2.947877 12.484962 0.000000 0.000000 0.000000 7.280683 -0.291986 1.920039 -5.139472 1.701848 -25.647022 1.628464 14.004464 29.239156 10.637907 -3.910607 -21.895503 0.000000 0.000000 0.000000 -7.313945 -6.556336 1.521893 -55.599366 -1.412879 -8.728367 -16.139698 -38.203696 6.851355 0.000000 0.000000 0.000000 14.666028 -5.880061 -2.227555 53.898258 7.412942 -4.367813 112.032605 53.983527 86.676094 0.000000 0.000000 0.000000 
-0.008553 0.946492 0.003019 -1.999519 -8.763871 2.431644 2.186393 0.405131 4.977677 0.776233 0.228484 -7.436512 3.519470 9.234982 10.274247 0.000000 0.000000 0.000000 -2.497590 -0.001438 1.673507 4.321820 -0.342526 -6.728110 1.951221 -2.699608 12.550556 0.000000 0.000000 0.000000 7.209737 -0.293762 1.989151 -5.024861 1.672678 -25.459831 1.321117 13.799623 28.915395 10.557560 -3.907834 -21.936964 0.000000 0.000000 0.000000 -7.728607 -6.397130 1.464353 -55.077377 -1.052346 -8.734694 -15.540236 -37.875383 6.613268 0.000000 0.000000 0.000000 15.133193 -6.259724 -2.517193 53.381666 6.190164 -4.886972 106.895475 54.737061 81.269361 0.000000 0.000000 0.000000 
-0.008434 0.946444 0.002854 -2.115539 -9.019891 2.521164 2.268481 0.412735 5.083353 0.780838 0.242627 -7.716044 3.629010 9.413850 10.362514 0.000000 0.000000 0.000000 -2.411450 -0.002315 1.634816 4.344199 -0.337664 -6.869207 2.094201 -2.510351 12.642111 0.000000 0.000000 0.000000 7.325057 -0.272435 1.751221 -4.913549 1.643361 -25.282998 1.032028 13.411796 28.766228 10.373768 -3.926491 -21.660827 0.000000 0.000000 0.000000 -8.166346 -6.242975 1.430880 -54.859218 -0.825565 -8.745702 -14.659742 -37.923351 6.382496 0.000000 0.000000 0.000000 15.090652 -6.476435 -2.733908 53.365172 4.598475 -5.551330 100.929601 55.116940 74.912340 0.000000 0.000000 0.000000 
-0.008308 0.946546 0.002650 -2.138313 -9.151161 2.552331 2.285849 0.408289 5.027522 0.750689 0.241729 -7.663075 3.692226 9.514901 10.396162 0.000000 0.000000 0.000000 -2.441822 0.004213 1.583727 4.411773 -0.336465 -6.883308 2.169012 -2.419808 12.709358 0.000000 0.000000 0.000000 7.223424 -0.247146 1.526324 -4.743417 1.601950 -24.784467 0.673336 13.061388 28.329421 10.244129 -3.911453 -21.607340 0.000000 0.000000 0.000000 -8.479541 -6.196431 1.433906 -54.601703 -0.250098 -8.886127 -14.180551 -38.092049 6.281772 0.000000 0.000000 0.000000 15.571382 -6.729496 -2.975785 53.068869 2.670612 -6.330044 93.827400 56.035822 68.452345 0.000000 0.000000 0.000000 
-0.008187 0.946524 0.002448 -2.186318 -9.172632 2.572026 2.298486 0.401234 4.950972 0.804342 0.233849 -7.569808 3.721101 9.555083 10.351203 0.000000 0.000000 0.000000 -2.435901 0.006905 1.540379 4.480378 -0.337646 -6.859605 2.184822 -2.404141 12.730678 0.000000 0.000000 0.000000 7.222588 -0.235158 1.410954 -4.613764 1.570170 -24.794704 0.524454 12.665766 28.462048 10.209801 -3.971138 -21.560279 0.000000 0.000000 0.000000 -8.645463 -5.933344 1.368532 -54.512530 -0.110727 -8.930239 -14.164418 -38.292604 6.368701 0.000000 0.000000 0.000000 15.627328 -7.204168 -3.305870 52.973025 0.662718 -7.173710 85.372106 56.472645 60.856069 0.000000 0.000000 0.000000 
-0.008110 0.946520 0.002197 -2.194743 -9.102046 2.563777 2.114513 0.406801 4.933863 1.159828 0.213608 -7.572765 3.709484 9.538979 10.348638 0.000000 0.000000 0.000000 -2.410314 0.004597 1.543059 4.457377 -0.338023 -6.863861 2.153548 -2.456456 12.736495 0.000000 0.000000 0.000000 7.079736 -0.231345 1.399912 -4.442652 1.530488 -24.643761 0.331286 12.357500 28.243890 10.117132 -3.964345 -21.472561 0.000000 0.000000 0.000000 -8.538106 -5.854393 1.373310 -54.501675 0.138650 -9.010458 -14.008831 -37.969169 6.279336 0.000000 0.000000 0.000000 15.604126 -7.559784 -3.545840 53.289261 -1.242517 -7.972221 73.969375 56.908689 51.555170 0.000000 0.000000 0.000000 
-0.008151 0.946252 0.001895 -2.218923 -9.016509 2.530841 2.170936 0.395231 4.835993 1.136233 0.204306 -7.379129 3.701976 9.508083 10.176647 0.000000 0.000000 0.000000 -2.349670 0.009464 1.406546 4.419301 -0.341565 -6.565466 2.066098 -2.523091 12.550811 0.000000 0.000000 0.000000 6.903921 -0.228948 1.413157 -4.375526 1.515837 -24.674899 0.274989 11.844606 28.322669 9.735984 -3.818490 -21.333235 0.000000 0.000000 0.000000 -8.397675 -5.395078 1.251074 -54.878550 0.322635 -9.161467 -13.852151 -37.730862 6.251753 0.000000 0.000000 0.000000 15.370231 -7.785390 -3.732041 53.541873 -2.916037 -8.694783 60.803726 55.650402 40.395152 0.000000 0.000000 0.000000 
-0.008352 0.946285 0.001502 -2.154683 -8.894335 2.544470 2.046550 0.388399 4.712574 1.291561 0.190179 -7.283867 3.655125 9.437042 10.177538 0.000000 0.000000 0.000000 -2.384196 0.007978 1.449757 4.406606 -0.341528 -6.709476 2.017635 -2.615902 12.591078 0.000000 0.000000 0.000000 6.641175 -0.230885 1.475138 -4.200633 1.476369 -24.800731 0.177294 11.629688 28.342731 9.651308 -3.812858 -21.192094 0.000000 0.000000 0.000000 -8.272711 -5.315064 1.243962 -54.862668 0.531053 -9.249033 -13.610213 -37.543309 6.150301 0.000000 0.000000 0.000000 15.243122 -8.069602 -3.895400 54.004718 -4.279614 -9.323147 49.238656 53.659682 31.245252 0.000000 0.000000 0.000000 
-0.008709 0.946213 0.001086 -2.192497 -8.830390 2.485929 2.151268 0.377355 4.636603 1.243753 0.181869 -7.079432 3.644444 9.410069 10.076765 0.000000 0.000000 0.000000 -2.232294 0.001173 1.401622 4.267451 -0.341269 -6.527096 1.963517 -2.662182 12.485445 0.000000 0.000000 0.000000 6.527723 -0.235138 1.552806 -4.179531 1.473590 -24.932850 0.286326 11.578098 28.550216 9.639763 -3.833215 -21.077602 0.000000 0.000000 0.000000 -8.102782 -5.174354 1.202213 -54.974468 0.382132 -9.227718 -13.324829 -37.208030 6.004014 0.000000 0.000000 0.000000 15.005992 -8.089019 -3.884112 54.531619 -5.092935 -9.752354 39.124066 50.695424 23.536219 0.000000 0.000000 0.000000 
-0.009164 0.946307 0.000654 -2.155179 -8.804522 2.434715 2.147286 0.377861 4.639326 1.246829 0.179878 -7.046045 3.623986 9.382927 10.118826 0.000000 0.000000 0.000000 -2.251684 -0.003264 1.476146 4.294898 -0.341675 -6.608164 1.963667 -2.676095 12.524588 0.000000 0.000000 0.000000 6.436437 -0.243819 1.670880 -4.224874 1.485041 -25.101275 0.342056 11.481983 28.677068 9.617874 -3.830848 -21.106258 0.000000 0.000000 0.000000 -8.162659 -5.020434 1.145458 -54.800023 0.516742 -9.265050 -13.100608 -37.161874 5.929799 0.000000 0.000000 0.000000 14.723244 -8.092280 -3.873607 55.141801 -5.276845 -9.929678 31.631388 47.669702 18.127477 0.000000 0.000000 0.000000 
-0.009713 0.946396 0.000315 -2.132263 -8.810206 2.342906 2.119501 0.387699 4.732476 1.323875 0.176386 -7.068946 3.615781 9.377672 10.178719 0.000000 0.000000 0.000000 -2.158433 -0.013566 1.534566 4.153457 -0.338878 -6.569086 1.960342 -2.668634 12.489315 0.000000 0.000000 0.000000 6.341631 -0.245148 1.727569 -4.295997 1.502236 -25.180116 0.480858 11.455977 28.746670 9.497586 -3.813373 -20.791847 0.000000 0.000000 0.000000 -8.071560 -4.820797 1.071982 -54.603858 0.401289 -9.183763 -12.783678 -36.929274 5.782218 0.000000 0.000000 0.000000 14.136548 -7.569448 -3.561372 55.721521 -4.855682 -9.820637 26.494696 43.920073 14.162938 0.000000 0.000000 0.000000 
-0.010292 0.946477 0.000103 -2.021659 -8.763162 2.274593 2.051425 0.395381 4.787903 1.315260 0.178470 -7.096790 3.572491 9.318357 10.253255 0.000000 0.000000 0.000000 -2.138024 -0.022808 1.640615 3.981837 -0.335096 -6.662572 1.932250 -2.704283 12.463956 0.000000 0.000000 0.000000 6.332493 -0.246614 1.757313 -4.457339 1.541058 -25.248514 0.498682 11.388927 28.789147 9.577783 -3.912996 -20.592255 0.000000 0.000000 0.000000 -8.059817 -4.360686 0.883544 -54.341548 0.506860 -9.187164 -12.874204 -37.039366 5.831694 0.000000 0.000000 0.000000 13.851355 -7.432953 -3.475586 56.076524 -4.431203 -9.683325 23.027280 40.430211 11.450768 0.000000 0.000000 0.000000 
-0.010890 0.946547 -0.000060 -1.974286 -8.605749 2.233684 2.083639 0.391923 4.777069 1.276623 0.179075 -7.062949 3.488826 9.190583 10.267512 0.000000 0.000000 0.000000 -2.015086 -0.031296 1.637655 3.766216 -0.332722 -6.571053 1.838273 -2.824922 12.385910 0.000000 0.000000 0.000000 6.288205 -0.246460 1.769612 -4.408370 1.532534 -25.332899 0.570445 11.502041 28.844633 9.667206 -3.951417 -20.530902 0.000000 0.000000 0.000000 -8.071980 -4.161106 0.771706 -54.175188 0.623657 -9.218125 -13.407778 -36.987309 5.973431 0.000000 0.000000 0.000000 13.724382 -7.330256 -3.378221 56.175770 -4.062514 -9.528190 20.785269 37.918180 9.810446 0.000000 0.000000 0.000000 
-0.011443 0.946560 -0.000249 -1.927358 -8.437141 2.075630 2.157339 0.389613 4.791863 1.165808 0.174611 -6.850631 3.408989 9.058991 10.192873 0.000000 0.000000 0.000000 -1.933943 -0.054340 1.862615 3.622218 -0.331584 -6.656686 1.761574 -2.932759 12.356583 0.000000 0.000000 0.000000 6.335451 -0.253281 1.859408 -4.533467 1.564253 -25.164532 0.622491 11.426649 28.729075 9.877460 -4.041981 -20.766169 0.000000 0.000000 0.000000 -8.391966 -3.744125 0.559172 -53.683933 0.813360 -9.192339 -13.803881 -36.644431 6.026385 0.000000 0.000000 0.000000 13.802641 -7.209781 -3.315246 56.051191 -3.702195 -9.348832 18.522031 36.147882 8.479938 0.000000 0.000000 0.000000 
-0.011981 0.946621 -0.000545 -1.792905 -8.330397 1.971511 2.066920 0.382718 4.673117 1.159927 0.158364 -6.530901 3.367333 8.990257 10.152087 0.000000 0.000000 0.000000 -1.998008 -0.058095 1.958179 3.559477 -0.331531 -6.665974 1.699236 -3.012427 12.306872 0.000000 0.000000 0.000000 6.281295 -0.253326 1.890663 -4.621734 1.587109 -25.097104 0.768235 11.400409 28.866274 9.986295 -4.116195 -20.753010 0.000000 0.000000 0.000000 -8.512837 -3.619365 0.491703 -53.604587 1.071814 -9.302124 -13.947974 -36.238836 5.997337 0.000000 0.000000 0.000000 13.966367 -7.213169 -3.315621 55.948081 -3.426351 -9.237366 16.380114 35.080347 7.481296 0.000000 0.000000 0.000000 
-0.012462 0.946789 -0.000899 -1.721618 -8.150090 1.862189 2.000123 0.386607 4.697568 1.246171 0.149437 -6.464813 3.272880 8.849528 10.190572 0.000000 0.000000 0.000000 -2.036925 -0.066454 2.088241 3.578225 -0.334131 -6.702747 1.625540 -3.137934 12.332926 0.000000 0.000000 0.000000 6.313447 -0.254464 1.914611 -4.707761 1.610608 -24.951568 0.780958 11.278736 28.828013 10.040618 -4.124060 -20.920548 0.000000 0.000000 0.000000 -8.639209 -3.516411 0.435710 -53.577524 1.107599 -9.307593 -14.061448 -35.547098 5.908769 0.000000 0.000000 0.000000 13.955978 -7.140839 -3.276069 55.983936 -3.088971 -9.096971 14.722150 34.010004 6.686675 0.000000 0.000000 0.000000 
-0.012869 0.946966 -0.001236 -1.639006 -8.050777 1.835095 1.886848 0.392775 4.723189 1.363380 0.146128 -6.543341 3.207555 8.762784 10.298661 0.000000 0.000000 0.000000 -2.053237 -0.069573 2.137537 3.514661 -0.333684 -6.775495 1.586560 -3.214855 12.371141 0.000000 0.000000 0.000000 6.342944 -0.259448 1.962238 -4.785613 1.631111 -24.805500 0.748737 11.213132 28.721123 10.223379 -4.283767 -20.722858 0.000000 0.000000 0.000000 -8.953435 -3.533856 0.412368 -53.480645 1.401366 -9.398745 -13.882362 -34.523972 5.664821 0.000000 0.000000 0.000000 13.975213 -7.252381 -3.336740 55.835801 -2.993300 -9.027961 14.143339 33.541583 6.392491 0.000000 0.000000 0.000000 
-0.013237 0.946994 -0.001567 -1.489390 -7.700536 1.824537 1.766070 0.392619 4.697135 1.413663 0.148751 -6.643463 3.022658 8.483624 10.341045 0.000000 0.000000 0.000000 -2.102665 -0.071990 2.186165 3.411914 -0.335357 -6.849248 1.411557 -3.482698 12.342652 0.000000 0.000000 0.000000 6.276212 -0.261091 1.987084 -4.853645 1.652549 -24.842624 0.665729 10.930278 28.827032 10.324980 -4.291740 -21.127006 0.000000 0.000000 0.000000 -9.121131 -3.539519 0.409215 -53.420203 1.330010 -9.363484 -13.576382 -33.423581 5.385553 0.000000 0.000000 0.000000 13.921878 -7.376476 -3.402319 56.100446 -2.893723 -9.030161 13.717407 33.174794 6.186687 0.000000 0.000000 0.000000 
-0.013603 0.946838 -0.001864 -1.373609 -7.717296 1.880843 1.684290 0.386450 4.589846 1.375615 0.149829 -6.618293 3.031221 8.495588 10.342949 0.000000 0.000000 0.000000 -2.177712 -0.060334 2.098408 3.368701 -0.333795 -6.864947 1.390391 -3.486922 12.255427 0.000000 0.000000 0.000000 6.257621 -0.259871 1.967217 -4.795219 1.639317 -24.646111 0.415074 10.846411 28.586290 10.352539 -4.302865 -21.200872 0.000000 0.000000 0.000000 -9.217137 -3.556051 0.415901 -53.528410 1.424624 -9.395568 -12.589730 -32.209768 4.894170 0.000000 0.000000 0.000000 13.930575 -7.390540 -3.429645 56.302141 -2.946580 -9.060078 13.482911 32.895436 6.044240 0.000000 0.000000 0.000000 
-0.014029 0.946790 -0.002167 -1.253454 -7.784354 1.809414 1.588287 0.393344 4.610974 1.354673 0.148021 -6.561006 3.054317 8.534130 10.371137 0.000000 0.000000 0.000000 -2.353319 -0.051935 2.144193 3.495025 -0.335959 -6.877610 1.410910 -3.436118 12.209570 0.000000 0.000000 0.000000 6.244302 -0.268999 2.083703 -4.868210 1.656811 -24.625209 0.250974 10.645269 28.647543 10.412652 -4.292694 -21.682008 0.000000 0.000000 0.000000 -9.241416 -3.633186 0.483399 -53.571913 1.314770 -9.360127 -11.737582 -31.083197 4.496656 0.000000 0.000000 0.000000 13.994154 -7.488566 -3.522637 56.658960 -3.018614 -9.154998 13.256469 32.582739 5.894722 0.000000 0.000000 0.000000 
-0.014513 0.946724 -0.002455 -1.212649 -7.956160 1.897274 1.570460 0.386303 4.513933 1.327746 0.149225 -6.554179 3.136772 8.665346 10.417248 0.000000 0.000000 0.000000 -2.370207 -0.037991 1.984237 3.485241 -0.333342 -6.834920 1.470045 -3.324902 12.154699 0.000000 0.000000 0.000000 6.169755 -0.264617 2.042022 -4.825365 1.644024 -24.542140 0.149214 10.499302 28.650528 10.346351 -4.265950 -21.812591 0.000000 0.000000 0.000000 -9.234935 -3.729059 0.562393 -53.667968 1.196465 -9.322171 -10.803524 -30.463641 4.168553 0.000000 0.000000 0.000000 14.190564 -7.432562 -3.550207 57.006945 -3.193589 -9.297954 12.913442 32.195511 5.690982 0.000000 0.000000 0.000000 
-0.015013 0.946884 -0.002713 -1.131153 -7.996388 2.067394 1.501081 0.367876 4.284890 1.341036 0.146503 -6.518095 3.151933 8.701285 10.527301 0.000000 0.000000 0.000000 -2.360725 -0.017191 1.696099 3.368538 -0.329566 -6.708717 1.463577 -3.330381 12.121583 0.000000 0.000000 0.000000 6.118370 -0.257145 1.939265 -4.799065 1.636797 -24.468734 -0.040069 10.353927 28.587133 10.310950 -4.247128 -21.929271 0.000000 0.000000 0.000000 -9.169695 -3.829302 0.634919 -53.724505 1.101355 -9.282103 -10.204622 -30.113898 3.968817 0.000000 0.000000 0.000000 14.366765 -7.449663 -3.603005 57.542927 -3.419959 -9.478110 12.441890 31.687857 5.439149 0.000000 0.000000 0.000000 
-0.015431 0.946962 -0.002923 -1.077489 -8.092247 2.179297 1.544265 0.343239 4.027999 1.187488 0.144574 -6.290298 3.205468 8.783452 10.542144 0.000000 0.000000 0.000000 -2.331997 -0.000859 1.456584 3.252934 -0.325062 -6.553025 1.479555 -3.286993 12.057999 0.000000 0.000000 0.000000 6.076471 -0.256259 1.918846 -4.866532 1.651739 -24.434545 -0.083627 10.129032 28.522513 10.150990 -4.163484 -22.056293 0.000000 0.000000 0.000000 -9.019140 -3.811982 0.676851 -53.851456 0.841704 -9.181373 -9.817971 -30.032042 3.876806 0.000000 0.000000 0.000000 14.317112 -7.426251 -3.637633 58.112694 -3.674880 -9.671721 11.902574 30.993422 5.125626 0.000000 0.000000 0.000000 
-0.015766 0.947008 -0.003106 -0.984131 -8.011851 2.301332 1.511190 0.324082 3.813714 1.121047 0.145157 -6.211690 3.166698 8.726451 10.573432 0.000000 0.000000 0.000000 -2.267695 0.009978 1.253953 3.010739 -0.318906 -6.457249 1.409209 -3.378579 11.982231 0.000000 0.000000 0.000000 5.933347 -0.255033 1.914365 -4.840914 1.645762 -24.454528 -0.176412 9.966405 28.512537 10.040361 -4.113242 -22.050026 0.000000 0.000000 0.000000 -8.879735 -3.801175 0.698297 -53.815742 0.616869 -9.078049 -9.561264 -30.077493 3.822254 0.000000 0.000000 0.000000 14.497211 -7.526970 -3.723045 58.476514 -3.823408 -9.803559 11.337483 30.272015 4.826399 0.000000 0.000000 0.000000 
-0.016006 0.947098 -0.003249 -0.985567 -8.063135 2.438140 1.523708 0.308104 3.643958 1.116924 0.143761 -6.178911 3.195118 8.775587 10.624449 0.000000 0.000000 0.000000 -2.180560 0.025576 0.980757 2.881248 -0.313602 -6.262042 1.408333 -3.367935 11.933422 0.000000 0.000000 0.000000 5.925311 -0.256974 1.910626 -4.777872 1.629462 -24.503696 -0.150818 9.886894 28.559926 9.984771 -4.058182 -22.254559 0.000000 0.000000 0.000000 -8.609437 -3.667460 0.675958 -54.103437 0.182890 -8.944572 -9.437721 -30.270674 3.831373 0.000000 0.000000 0.000000 14.416668 -7.569458 -3.756234 58.969882 -3.737945 -9.835734 10.679718 29.629041 4.530933 0.000000 0.000000 0.000000 
-0.016233 0.947206 -0.003401 -0.905207 -8.117123 2.594274 1.482134 0.286073 3.386998 1.047890 0.142190 -6.053699 3.223130 8.823984 10.681783 0.000000 0.000000 0.000000 -2.156795 0.048331 0.665855 2.704239 -0.306215 -6.054091 1.396170 -3.367106 11.857913 0.000000 0.000000 0.000000 5.910880 -0.245179 1.753259 -4.780479 1.628594 -24.532893 -0.212264 9.732606 28.619241 9.698067 -3.879209 -22.411304 0.000000 0.000000 0.000000 -8.383469 -3.785854 0.769600 -54.389512 -0.041971 -8.901488 -9.394775 -30.294824 3.843742 0.000000 0.000000 0.000000 14.271467 -7.555941 -3.769086 59.472610 -3.670660 -9.883446 10.297524 29.564546 4.414833 0.000000 0.000000 0.000000 
-0.016470 0.947521 -0.003608 -0.848043 -8.066503 2.792964 1.452253 0.262451 3.126072 1.027346 0.142694 -6.032360 3.188206 8.786650 10.815745 0.000000 0.000000 0.000000 -2.057364 0.064433 0.386576 2.452596 -0.297857 -5.974504 1.363544 -3.443324 11.898328 0.000000 0.000000 0.000000 5.877732 -0.246973 1.737346 -4.734757 1.617533 -24.625240 -0.323628 9.493455 28.572000 9.573000 -3.843235 -22.351586 0.000000 0.000000 0.000000 -8.268092 -3.840887 0.826476 -54.483785 -0.383768 -8.758397 -9.328759 -30.285375 3.841545 0.000000 0.000000 0.000000 14.285700 -7.634605 -3.849595 59.691512 -3.639471 -9.900358 10.219583 29.492439 4.368380 0.000000 0.000000 0.000000 
-0.016700 0.947761 -0.003871 -0.870170 -7.951734 3.076095 1.444041 0.246108 2.962128 1.135041 0.151542 -6.346676 3.113266 8.695834 10.997169 0.000000 0.000000 0.000000 -1.850111 0.084491 -0.005692 2.171041 -0.287782 -5.831314 1.296574 -3.571607 11.928410 0.000000 0.000000 0.000000 5.946072 -0.228291 1.454210 -4.685298 1.606537 -24.574399 -0.393406 9.092507 28.591934 9.176128 -3.662655 -22.246146 0.000000 0.000000 0.000000 -7.987203 -3.903757 0.910484 -54.735782 -0.630947 -8.682061 -9.479904 -30.424146 3.928725 0.000000 0.000000 0.000000 14.001476 -7.638268 -3.885217 59.964043 -3.550753 -9.895254 9.992849 29.608081 4.306539 0.000000 0.000000 0.000000 
-0.016930 0.947975 -0.004225 -0.853587 -8.080264 3.245510 1.399440 0.235706 2.832324 1.183375 0.154275 -6.461584 3.160733 8.786368 11.157350 0.000000 0.000000 0.000000 -1.832431 0.105229 -0.269970 2.121543 -0.284035 -5.762414 1.354386 -3.502372 11.977090 0.000000 0.000000 0.000000 5.947905 -0.230145 1.439417 -4.625767 1.589884 -24.641701 -0.455334 8.825323 28.550870 8.939682 -3.596977 -22.065970 0.000000 0.000000 0.000000 -7.707606 -3.921483 0.974209 -54.937155 -1.004267 -8.532573 -9.462540 -30.508289 3.964558 0.000000 0.000000 0.000000 13.675749 -7.506289 -3.849871 59.940296 -3.570945 -9.901056 10.421081 30.296212 4.509276 0.000000 0.000000 0.000000 
-0.017154 0.948180 -0.004576 -0.797149 -8.214996 3.291262 1.415506 0.218030 2.633513 1.047324 0.150856 -6.221463 3.226056 8.888861 11.209281 0.000000 0.000000 0.000000 -1.819482 0.119132 -0.448296 2.001519 -0.276824 -5.614441 1.403513 -3.425211 11.964436 0.000000 0.000000 0.000000 5.752414 -0.236803 1.557450 -4.410518 1.536531 -24.720866 -0.585550 8.722009 28.560810 8.776235 -3.548252 -21.929107 0.000000 0.000000 0.000000 -7.270171 -3.812091 0.972345 -55.154095 -1.109385 -8.514535 -9.883343 -31.293102 4.213091 0.000000 0.000000 0.000000 13.860010 -7.545715 -3.919877 59.404051 -3.160835 -9.650467 10.804012 30.752850 4.677814 0.000000 0.000000 0.000000 
-0.017521 0.948089 -0.005031 -0.705303 -8.260978 3.253604 1.465372 0.227964 2.756504 0.822971 0.176015 -6.426928 3.210941 8.873178 11.284082 0.000000 0.000000 0.000000 -2.094823 0.137456 -0.521823 2.360136 -0.287659 -5.489567 1.405631 -3.393496 11.900849 0.000000 0.000000 0.000000 5.890355 -0.251392 1.683338 -4.877763 1.646811 -24.944057 -0.575122 8.413000 28.740941 9.010240 -3.809693 -21.673428 0.000000 0.000000 0.000000 -6.923012 -3.958474 1.090780 -54.770605 -1.380237 -8.351039 -9.723692 -31.492526 4.221589 0.000000 0.000000 0.000000 13.759664 -7.675088 -4.031213 59.151401 -3.171842 -9.652835 10.912130 31.121216 4.744958 0.000000 0.000000 0.000000 
-0.018016 0.948875 -0.005531 -0.731113 -8.151948 3.213436 1.641111 0.200348 2.496944 0.651236 0.165703 -5.964616 3.151062 8.796700 11.391470 0.000000 0.000000 0.000000 -1.937090 0.160602 -0.919532 2.204444 -0.272870 -4.722999 1.334147 -3.514729 11.885897 0.000000 0.000000 0.000000 6.183148 -0.253083 1.631677 -5.110331 1.704671 -24.256930 -0.718767 8.302048 28.309596 8.805994 -3.671180 -21.708953 0.000000 0.000000 0.000000 -7.610122 -4.088073 1.111658 -54.401307 -1.443212 -8.228867 -9.945754 -32.123732 4.370299 0.000000 0.000000 0.000000 14.689284 -7.797781 -4.207163 58.462482 -2.257448 -9.117618 10.560743 31.911300 4.786495 0.000000 0.000000 0.000000 
-0.018640 0.949211 -0.006007 -0.890367 -8.542674 3.523928 2.041214 0.140121 1.887234 0.242089 0.170410 -5.394555 3.373775 9.131413 11.417172 0.000000 0.000000 0.000000 -1.971812 0.213462 -1.549868 2.601215 -0.281752 -4.291339 1.516390 -3.257245 11.972693 0.000000 0.000000 0.000000 6.110990 -0.249538 1.552864 -5.063658 1.686831 -24.047400 -1.045216 8.205289 27.918109 9.459145 -4.352103 -20.449663 0.000000 0.000000 0.000000 -6.726593 -3.572649 0.963594 -54.990723 -1.618385 -8.188973 -9.725677 -32.616095 4.414485 0.000000 0.000000 0.000000 14.620672 -7.653628 -4.189947 58.683176 -1.937309 -8.970869 8.662840 32.581777 4.342608 0.000000 0.000000 0.000000 
-0.019332 0.950506 -0.006525 -0.788766 -7.701732 2.582982 2.299018 0.171731 2.325649 -0.124745 0.169659 -4.634216 2.891455 8.422697 11.448016 0.000000 0.000000 0.000000 -1.994963 0.125305 -0.484097 2.643723 -0.291173 -4.259402 1.237683 -3.795167 12.258290 0.000000 0.000000 0.000000 5.940729 -0.277376 2.081945 -4.849423 1.656824 -23.347851 -1.253075 7.942227 27.850695 9.695463 -4.469662 -20.529438 0.000000 0.000000 0.000000 -7.290904 -4.315210 1.216728 -54.263439 -2.605160 -7.681684 -7.617817 -32.550721 3.748201 0.000000 0.000000 0.000000 15.444166 -6.858617 -3.795791 57.771301 -0.509073 -8.234323 6.931239 32.353276 3.847209 0.000000 0.000000 0.000000 
