HIERARCHY
ROOT Hips
{
	OFFSET -0.001795 -0.223333 0.028219
	CHANNELS 6 Xposition Yposition Zposition Zrotation Yrotation Xrotation 
	JOINT LeftUpLeg
	{
		OFFSET 0.069520 -0.091406 -0.006815
		CHANNELS 3 Zrotation Yrotation Xrotation
		JOINT LeftLeg
		{
			OFFSET 0.034277 -0.375199 -0.004496
			CHANNELS 3 Zrotation Yrotation Xrotation
			JOINT LeftFoot
			{
				OFFSET -0.013596 -0.397961 -0.043693
				CHANNELS 3 Zrotation Yrotation Xrotation
				JOINT LeftToe
				{
					OFFSET 0.026358 -0.055791 0.119288
					CHANNELS 3 Zrotation Yrotation Xrotation
					End Site
					{
						OFFSET 0.000000 0.000000 0.000000
					}
				}
			}
		}
	}
	JOINT RightUpLeg
	{
		OFFSET -0.067670 -0.090522 -0.004320
		CHANNELS 3 Zrotation Yrotation Xrotation
		JOINT RightLeg
		{
			OFFSET -0.038290 -0.382569 -0.008850
			CHANNELS 3 Zrotation Yrotation Xrotation
			JOINT RightFoot
			{
				OFFSET 0.015774 -0.398415 -0.042312
				CHANNELS 3 Zrotation Yrotation Xrotation
				JOINT RightToe
				{
					OFFSET -0.025372 -0.048144 0.123348
					CHANNELS 3 Zrotation Yrotation Xrotation
					End Site
					{
						OFFSET 0.000000 0.000000 0.000000
					}
				}
			}
		}
	}
	JOINT Spine
	{
		OFFSET -0.002533 0.108963 -0.026696
		CHANNELS 3 Zrotation Yrotation Xrotation
		JOINT Spine1
		{
			OFFSET 0.005487 0.135180 0.001092
			CHANNELS 3 Zrotation Yrotation Xrotation
			JOINT Spine2
			{
				OFFSET 0.001457 0.052922 0.025425
				CHANNELS 3 Zrotation Yrotation Xrotation
				JOINT Neck
				{
					OFFSET -0.002778 0.213870 -0.042857
					CHANNELS 3 Zrotation Yrotation Xrotation
					JOINT Head
					{
						OFFSET 0.005152 0.064970 0.051349
						CHANNELS 3 Zrotation Yrotation Xrotation
						End Site
						{
							OFFSET 0.000000 0.000000 0.000000
						}
					}
				}
				JOINT LeftShoulder
				{
					OFFSET 0.078845 0.121749 -0.034090
					CHANNELS 3 Zrotation Yrotation Xrotation
					JOINT LeftArm
					{
						OFFSET 0.090977 0.030469 -0.008868
						CHANNELS 3 Zrotation Yrotation Xrotation
						JOINT LeftForeArm
						{
							OFFSET 0.259612 -0.012772 -0.027456
							CHANNELS 3 Zrotation Yrotation Xrotation
							JOINT LeftHand
							{
								OFFSET 0.249234 0.008986 -0.001171
								CHANNELS 3 Zrotation Yrotation Xrotation
								End Site
								{
									OFFSET 0.000000 0.000000 0.000000
								}
							}
						}
					}
				}
				JOINT RightShoulder
				{
					OFFSET -0.081759 0.118833 -0.038615
					CHANNELS 3 Zrotation Yrotation Xrotation
					JOINT RightArm
					{
						OFFSET -0.096012 0.032551 -0.009143
						CHANNELS 3 Zrotation Yrotation Xrotation
						JOINT RightForeArm
						{
							OFFSET -0.253742 -0.013329 -0.021401
							CHANNELS 3 Zrotation Yrotation Xrotation
							JOINT RightHand
							{
								OFFSET -0.255298 0.007772 -0.005559
								CHANNELS 3 Zrotation Yrotation Xrotation
								End Site
								{
									OFFSET 0.000000 0.000000 0.000000
								}
							}
						}
					}
				}
			}
		}
	}
}
MOTION
Frames: 116
Frame Time: 0.050000
0.000000 0.949271 0.000000 -1.348476 -6.396834 1.827976 2.485465 0.257757 3.533179 -0.696327 0.256053 -5.896350 3.344170 9.029136 9.648913 0.000000 0.000000 0.000000 -1.681758 0.007989 0.730083 2.546844 -0.308302 -5.116457 0.365442 -4.504270 10.406365 0.000000 0.000000 0.000000 6.239718 -0.295621 2.325338 -5.246404 1.774233 -23.678139 -0.875502 8.042935 28.420969 10.069083 -4.364648 -21.933722 0.000000 0.000000 0.000000 -8.881509 -2.014961 0.044661 -51.418401 -0.425147 -8.284630 -9.381507 -32.841694 4.207874 0.000000 0.000000 0.000000 16.847063 -9.243478 -5.025437 56.247154 -0.721869 -8.245379 12.367325 33.260910 5.686640 0.000000 0.000000 0.000000 
-0.000082 0.948589 0.000607 -1.561560 -7.229200 2.243113 2.669448 0.308476 4.204840 -0.865221 0.312332 -7.184119 3.884158 9.752779 8.638460 0.000000 0.000000 0.000000 -1.743656 0.041251 0.402282 2.527705 -0.300286 -5.118950 0.816719 -3.927635 10.872496 0.000000 0.000000 0.000000 6.365531 -0.317344 2.448984 -5.543075 1.822584 -24.267164 -0.703455 8.287919 27.994513 10.530571 -4.700893 -21.837164 0.000000 0.000000 0.000000 -8.294836 -1.560986 -0.076174 -52.336785 -0.599487 -8.321130 -8.875033 -32.719766 4.084357 0.000000 0.000000 0.000000 16.399756 -9.400278 -5.132370 57.553811 -3.147442 -9.438516 13.350455 34.817467 6.286020 0.000000 0.000000 0.000000 
-0.000123 0.948068 0.000951 -1.149691 -6.994955 2.260029 2.625475 0.287179 3.939097 -1.511510 0.329360 -6.403819 3.645518 9.304977 8.363589 0.000000 0.000000 0.000000 -1.882821 0.028436 0.649234 1.976620 -0.283030 -5.414931 1.108591 -3.187359 10.545377 0.000000 0.000000 0.000000 6.372149 -0.285355 2.099588 -5.756696 1.869968 -24.902691 -0.615624 8.198111 28.713665 9.839446 -4.206902 -22.148039 0.000000 0.000000 0.000000 -8.458359 -1.990375 0.104343 -52.132073 -0.061562 -8.570513 -9.525785 -33.208784 4.348682 0.000000 0.000000 0.000000 16.281501 -9.697256 -5.257607 57.891807 -3.356543 -9.640805 13.355064 33.996761 6.137284 0.000000 0.000000 0.000000 
-0.000261 0.947728 0.001249 -1.256346 -7.072881 2.212738 2.863806 0.314408 4.389235 -1.409601 0.330421 -6.676287 3.655586 9.336301 8.469422 0.000000 0.000000 0.000000 -1.889340 0.001838 1.000882 2.500418 -0.309882 -6.020979 1.006710 -3.610049 11.035030 0.000000 0.000000 0.000000 6.284533 -0.278962 2.071656 -5.716058 1.855349 -25.350493 -0.522911 8.278130 29.172037 9.669927 -4.195293 -21.622194 0.000000 0.000000 0.000000 -8.105005 -1.717078 0.017141 -52.599099 -0.037576 -8.697017 -9.301433 -33.962054 4.408218 0.000000 0.000000 0.000000 16.142267 -9.895796 -5.330916 58.042413 -3.985193 -9.992248 13.784336 33.467137 6.168592 0.000000 0.000000 0.000000 
-0.000451 0.947429 0.001548 -1.202262 -7.027384 2.020817 2.637841 0.325952 4.408294 -0.999225 0.294259 -6.379907 3.509955 8.995800 7.940710 0.000000 0.000000 0.000000 -1.869444 -0.014262 1.186304 2.305145 -0.304678 -6.107797 0.883279 -3.717309 10.746206 0.000000 0.000000 0.000000 6.006213 -0.275033 2.146961 -5.197726 1.738296 -25.130773 -0.568509 8.427164 28.722160 9.109039 -3.887001 -20.981772 0.000000 0.000000 0.000000 -7.826862 -1.734662 0.017576 -52.796750 -0.133121 -8.655498 -9.638787 -34.476099 4.565354 0.000000 0.000000 0.000000 15.414616 -10.002873 -5.272836 58.447845 -4.347420 -10.139063 13.778562 33.095744 6.095287 0.000000 0.000000 0.000000 
-0.000641 0.947386 0.001873 -1.292530 -6.890292 2.053992 2.729889 0.326779 4.488411 -0.898020 0.287718 -6.404100 3.519791 9.018106 7.911544 0.000000 0.000000 0.000000 -1.795640 -0.029741 1.326435 2.321891 -0.308126 -6.240274 0.892856 -3.695878 10.782046 0.000000 0.000000 0.000000 5.806328 -0.266576 2.102356 -5.054967 1.704778 -25.319086 -0.354917 8.206613 29.002429 8.788734 -3.705439 -20.969457 0.000000 0.000000 0.000000 -7.647033 -1.352844 -0.112904 -52.534867 -0.451208 -8.497955 -9.327600 -34.967215 4.556384 0.000000 0.000000 0.000000 14.934640 -9.934184 -5.198707 58.458570 -4.691371 -10.308437 13.514576 32.800641 5.934740 0.000000 0.000000 0.000000 
-0.000868 0.947346 0.002244 -1.297586 -6.927883 1.962123 2.646541 0.331331 4.489854 -0.677210 0.266791 -6.218887 3.527126 9.013724 7.819307 0.000000 0.000000 0.000000 -1.726178 -0.049218 1.526889 2.261531 -0.306200 -6.266752 0.907950 -3.609945 10.643552 0.000000 0.000000 0.000000 5.589873 -0.265528 2.175684 -4.895916 1.669084 -25.114708 -0.364911 8.305281 28.750783 8.962632 -3.784519 -21.047483 0.000000 0.000000 0.000000 -7.544602 -1.238081 -0.166190 -52.287155 -0.618112 -8.367034 -8.917847 -35.931499 4.546817 0.000000 0.000000 0.000000 14.825727 -9.947569 -5.184034 58.478745 -5.004132 -10.420281 13.320306 32.602268 5.832107 0.000000 0.000000 0.000000 
-0.001128 0.947324 0.002714 -1.252628 -6.824207 1.897461 2.628675 0.343043 4.635356 -0.728248 0.269975 -6.216931 3.514511 8.989196 7.758679 0.000000 0.000000 0.000000 -1.687228 -0.067591 1.726941 2.114711 -0.302821 -6.312372 0.896563 -3.596889 10.592271 0.000000 0.000000 0.000000 5.392789 -0.261547 2.203914 -4.761220 1.638047 -25.222568 -0.365915 8.354081 28.980506 9.120959 -3.883251 -21.018568 0.000000 0.000000 0.000000 -7.621006 -1.125794 -0.229523 -51.612933 -0.760941 -8.221857 -8.506898 -37.230017 4.570646 0.000000 0.000000 0.000000 14.968376 -10.077450 -5.245111 58.179367 -5.187576 -10.480409 13.232629 32.575578 5.812585 0.000000 0.000000 0.000000 
-0.001392 0.947245 0.003258 -1.285001 -6.950913 1.910420 2.645040 0.349371 4.708193 -0.651994 0.265041 -6.216061 3.567567 9.086050 7.814684 0.000000 0.000000 0.000000 -1.704210 -0.071624 1.800340 2.159347 -0.305574 -6.494494 1.056530 -3.358736 10.723817 0.000000 0.000000 0.000000 5.295757 -0.249723 2.098402 -4.793029 1.644569 -25.082490 -0.287369 8.385602 28.878358 9.114195 -3.893025 -20.950649 0.000000 0.000000 0.000000 -7.565777 -0.908461 -0.313737 -51.160285 -0.858083 -8.096579 -8.045838 -38.307801 4.554931 0.000000 0.000000 0.000000 14.831189 -10.115504 -5.261434 57.938697 -5.603969 -10.614410 13.380924 32.625349 5.848315 0.000000 0.000000 0.000000 
-0.001699 0.947186 0.003841 -1.252768 -7.214845 1.902929 2.692284 0.359645 4.825005 -0.714856 0.274281 -6.342213 3.705916 9.338225 7.942752 0.000000 0.000000 0.000000 -1.762281 -0.072896 1.880942 2.124755 -0.303600 -6.603099 1.103819 -3.334563 10.799960 0.000000 0.000000 0.000000 5.219512 -0.235785 1.965838 -4.765315 1.634349 -25.044153 -0.290280 8.552474 28.962832 9.120969 -3.897665 -20.951633 0.000000 0.000000 0.000000 -7.534420 -0.735258 -0.382736 -50.623063 -0.909553 -7.994289 -7.447225 -39.348753 4.471874 0.000000 0.000000 0.000000 14.863743 -10.197283 -5.308480 57.582240 -5.815683 -10.663686 13.441772 32.589808 5.852346 0.000000 0.000000 0.000000 
-0.002009 0.947077 0.004435 -1.241595 -7.349060 1.816437 2.741296 0.380903 5.090174 -0.704730 0.278461 -6.473119 3.648354 9.249028 8.073906 0.000000 0.000000 0.000000 -1.825507 -0.079275 2.022815 2.181290 -0.305927 -6.757320 1.258335 -3.164941 11.050769 0.000000 0.000000 0.000000 5.136880 -0.231804 1.963304 -4.746917 1.628845 -25.025837 -0.270398 8.594959 28.984994 9.228646 -3.970683 -20.977717 0.000000 0.000000 0.000000 -7.407503 -0.626056 -0.412722 -50.115344 -0.898984 -7.919097 -7.086446 -40.086591 4.429210 0.000000 0.000000 0.000000 14.807428 -10.342920 -5.385080 57.365971 -6.053963 -10.737501 13.626996 32.545852 5.889431 0.000000 0.000000 0.000000 
-0.002282 0.946997 0.005031 -1.251040 -7.573368 1.773253 2.773800 0.393601 5.230395 -0.664373 0.274765 -6.428373 3.648364 9.244502 8.132628 0.000000 0.000000 0.000000 -1.818311 -0.084117 2.097068 2.206024 -0.304644 -6.756940 1.328771 -3.046647 11.028241 0.000000 0.000000 0.000000 5.175943 -0.223372 1.863481 -4.725882 1.622224 -24.876967 -0.328161 8.639579 28.919083 9.269589 -4.003903 -21.010730 0.000000 0.000000 0.000000 -7.440688 -0.635031 -0.401706 -49.811989 -0.693324 -7.943676 -6.711120 -40.464967 4.343473 0.000000 0.000000 0.000000 14.823653 -10.261772 -5.361933 57.308757 -6.142327 -10.771159 13.415653 32.556596 5.818239 0.000000 0.000000 0.000000 
-0.002496 0.946867 0.005531 -1.281110 -7.690158 1.736079 2.807647 0.406459 5.388338 -0.614912 0.272875 -6.461186 3.697418 9.343693 8.250336 0.000000 0.000000 0.000000 -1.852514 -0.091618 2.234366 2.261808 -0.306994 -6.937859 1.343521 -3.080935 11.134939 0.000000 0.000000 0.000000 5.230176 -0.222630 1.849190 -4.722233 1.619957 -24.780674 -0.357111 8.559137 28.871711 9.325665 -4.070405 -20.977127 0.000000 0.000000 0.000000 -7.512739 -0.706744 -0.361731 -49.521203 -0.392440 -8.004168 -6.406276 -40.445379 4.238065 0.000000 0.000000 0.000000 14.827054 -10.188964 -5.351143 57.249432 -6.256541 -10.816169 13.312457 32.634085 5.786213 0.000000 0.000000 0.000000 
-0.002660 0.946748 0.005897 -1.298863 -7.747396 1.733997 2.892846 0.408119 5.448651 -0.666520 0.275905 -6.443800 3.671063 9.315423 8.397800 0.000000 0.000000 0.000000 -1.907503 -0.089828 2.262022 2.301746 -0.307375 -6.911339 1.370853 -3.031991 11.128055 0.000000 0.000000 0.000000 5.291294 -0.222393 1.831723 -4.766405 1.630143 -24.712492 -0.432714 8.476112 28.812908 9.386179 -4.088053 -21.202516 0.000000 0.000000 0.000000 -7.534073 -0.713191 -0.348796 -49.504759 -0.283224 -8.036288 -6.062293 -40.391481 4.119048 0.000000 0.000000 0.000000 14.884519 -10.066446 -5.315669 57.172649 -6.275655 -10.813983 13.025864 32.763754 5.714547 0.000000 0.000000 0.000000 
-0.002774 0.946746 0.006132 -1.317649 -7.833762 1.776126 2.847209 0.411860 5.460083 -0.656869 0.274604 -6.420297 3.800126 9.534698 8.367487 0.000000 0.000000 0.000000 -1.998890 -0.082019 2.245300 2.367956 -0.308120 -6.901975 1.369554 -3.058963 11.158498 0.000000 0.000000 0.000000 5.354029 -0.216141 1.737220 -4.796513 1.635992 -24.709135 -0.372811 8.523959 28.912033 9.454588 -4.117973 -21.310854 0.000000 0.000000 0.000000 -7.648345 -0.791223 -0.322690 -49.576646 -0.189928 -8.090244 -5.814558 -40.065101 3.995146 0.000000 0.000000 0.000000 14.950725 -9.995556 -5.287356 57.252240 -6.208270 -10.809582 13.043471 32.812510 5.731496 0.000000 0.000000 0.000000 
-0.002864 0.946657 0.006293 -1.345415 -7.954960 1.861619 2.888730 0.398115 5.302963 -0.677016 0.269783 -6.235946 3.897833 9.680363 8.234152 0.000000 0.000000 0.000000 -1.996183 -0.075184 2.163566 2.409186 -0.307472 -6.857313 1.340502 -3.028895 10.939523 0.000000 0.000000 0.000000 5.502806 -0.204054 1.549848 -4.973336 1.677589 -24.518009 -0.327603 8.560744 28.881367 9.566226 -4.173712 -21.437958 0.000000 0.000000 0.000000 -7.866034 -0.914764 -0.283845 -49.889730 -0.082451 -8.178290 -5.594492 -39.869075 3.905463 0.000000 0.000000 0.000000 14.960087 -9.734857 -5.159855 57.577081 -6.234900 -10.878962 13.083924 33.094213 5.799234 0.000000 0.000000 0.000000 
-0.002948 0.946690 0.006434 -1.350014 -8.005982 1.944287 2.846880 0.395387 5.246481 -0.659691 0.268272 -6.225316 3.983063 9.832838 8.268272 0.000000 0.000000 0.000000 -1.976040 -0.074051 2.139049 2.330589 -0.305056 -6.877051 1.285373 -3.089842 10.825958 0.000000 0.000000 0.000000 5.619122 -0.199754 1.461518 -5.039167 1.691196 -24.547434 -0.335999 8.665192 28.935712 9.545624 -4.119104 -21.609465 0.000000 0.000000 0.000000 -8.113294 -1.039987 -0.257638 -50.416779 -0.162500 -8.235943 -5.432845 -39.378626 3.798368 0.000000 0.000000 0.000000 15.162062 -9.659290 -5.130925 57.971042 -6.010265 -10.853725 13.090322 33.218458 5.845045 0.000000 0.000000 0.000000 
-0.003031 0.946639 0.006547 -1.434461 -8.239702 2.003566 2.852689 0.390668 5.165445 -0.684086 0.269063 -6.190417 4.080342 9.969782 8.120113 0.000000 0.000000 0.000000 -1.962553 -0.065683 2.033889 2.407800 -0.304193 -6.823767 1.337205 -2.951865 10.685410 0.000000 0.000000 0.000000 5.812301 -0.191178 1.320335 -5.132084 1.711118 -24.423210 -0.314878 8.889881 28.895213 9.625117 -4.143506 -21.664673 0.000000 0.000000 0.000000 -8.273462 -1.207819 -0.208450 -51.007941 -0.137463 -8.337305 -5.442164 -38.948573 3.756470 0.000000 0.000000 0.000000 15.128146 -9.383867 -4.969290 58.422671 -5.782327 -10.817590 13.329765 33.392116 5.964346 0.000000 0.000000 0.000000 
-0.003136 0.946575 0.006640 -1.408788 -8.435494 2.060791 2.773722 0.391139 5.107258 -0.608180 0.263704 -6.180524 4.072144 9.928323 8.016823 0.000000 0.000000 0.000000 -2.004236 -0.063041 2.055109 2.467644 -0.303743 -6.833069 1.327916 -2.940160 10.573171 0.000000 0.000000 0.000000 5.905399 -0.191592 1.298610 -5.235006 1.733115 -24.433321 -0.342143 9.007553 28.871886 9.544580 -4.092618 -21.656350 0.000000 0.000000 0.000000 -8.488786 -1.412704 -0.136082 -51.648132 -0.173178 -8.425900 -5.859669 -38.639143 3.884962 0.000000 0.000000 0.000000 15.147731 -9.049124 -4.797518 58.753166 -5.569758 -10.776642 13.768290 33.667193 6.157298 0.000000 0.000000 0.000000 
-0.003244 0.946557 0.006697 -1.414448 -8.686600 2.088944 2.638901 0.403695 5.158232 -0.502678 0.260901 -6.296781 4.097253 9.967906 8.099303 0.000000 0.000000 0.000000 -2.096492 -0.049597 1.975257 2.575124 -0.302269 -6.614578 1.339064 -2.860596 10.388216 0.000000 0.000000 0.000000 5.973805 -0.191243 1.282066 -5.232123 1.728815 -24.379376 -0.366250 9.232112 28.798203 9.721337 -4.141428 -21.940098 0.000000 0.000000 0.000000 -8.547171 -1.601448 -0.068127 -52.267561 -0.126688 -8.538663 -6.319076 -38.670650 4.052952 0.000000 0.000000 0.000000 15.158828 -8.865740 -4.692220 58.869123 -5.290517 -10.657424 14.779918 34.126067 6.578511 0.000000 0.000000 0.000000 
-0.003341 0.946637 0.006717 -1.433555 -8.819822 2.022535 2.556046 0.416687 5.247625 -0.384400 0.251946 -6.275050 4.015087 9.804262 8.031817 0.000000 0.000000 0.000000 -2.008315 -0.062012 2.075697 2.474877 -0.298676 -6.625233 1.386996 -2.816579 10.456389 0.000000 0.000000 0.000000 5.995539 -0.200852 1.397460 -5.267417 1.735165 -24.439376 -0.301543 9.304655 28.819581 9.684439 -4.100795 -22.042260 0.000000 0.000000 0.000000 -8.683438 -1.744123 -0.014797 -52.567267 -0.272002 -8.529499 -7.245969 -38.690571 4.390424 0.000000 0.000000 0.000000 14.976869 -8.697152 -4.583402 59.040455 -5.132938 -10.612456 15.888925 34.630029 7.049358 0.000000 0.000000 0.000000 
-0.003407 0.946661 0.006690 -1.456084 -9.026534 2.041362 2.395261 0.427893 5.273140 -0.117157 0.234401 -6.302808 3.924350 9.630024 8.056084 0.000000 0.000000 0.000000 -1.957692 -0.060550 2.027203 2.497975 -0.296432 -6.516459 1.431845 -2.645788 10.233637 0.000000 0.000000 0.000000 6.127210 -0.202796 1.392807 -5.324252 1.747242 -24.349133 -0.287027 9.480885 28.729433 9.774602 -4.142845 -22.062247 0.000000 0.000000 0.000000 -8.773490 -2.060355 0.109509 -52.954793 -0.221021 -8.606826 -7.719478 -38.836693 4.578188 0.000000 0.000000 0.000000 14.819985 -8.471391 -4.439826 59.222049 -5.011968 -10.576191 17.142151 35.322963 7.637106 0.000000 0.000000 0.000000 
-0.003426 0.946668 0.006573 -1.519658 -9.080181 2.038907 2.392082 0.434807 5.345316 -0.004948 0.231586 -6.423434 3.875972 9.557247 8.190687 0.000000 0.000000 0.000000 -1.815375 -0.071223 2.047370 2.381729 -0.292720 -6.470599 1.405573 -2.757430 10.340576 0.000000 0.000000 0.000000 6.167076 -0.208085 1.443690 -5.308107 1.741534 -24.454830 -0.242302 9.421792 28.765913 9.756724 -4.144930 -22.077080 0.000000 0.000000 0.000000 -8.908039 -2.293566 0.214299 -52.996900 -0.269030 -8.592574 -8.463998 -39.180794 4.903775 0.000000 0.000000 0.000000 14.647481 -8.396299 -4.396943 59.163876 -4.688685 -10.418723 18.469972 36.147114 8.291689 0.000000 0.000000 0.000000 
-0.003396 0.946559 0.006311 -1.600809 -9.202929 2.082160 2.401742 0.435451 5.346231 0.109792 0.229246 -6.551555 3.878086 9.558405 8.239904 0.000000 0.000000 0.000000 -1.771170 -0.059959 1.863431 2.403564 -0.289779 -6.177094 1.476427 -2.559825 10.188115 0.000000 0.000000 0.000000 6.188957 -0.218610 1.545596 -5.182291 1.708350 -24.509767 -0.282665 9.384356 28.773355 9.708703 -4.118962 -22.146483 0.000000 0.000000 0.000000 -8.977937 -2.446229 0.291422 -53.030746 -0.558236 -8.471029 -9.107382 -39.350038 5.175322 0.000000 0.000000 0.000000 14.507823 -8.285292 -4.345347 58.824004 -4.669988 -10.359238 20.865219 37.752885 9.565700 0.000000 0.000000 0.000000 
-0.003253 0.946570 0.005903 -1.655776 -9.270524 2.106657 2.283288 0.439838 5.332009 0.295517 0.215974 -6.537204 3.802770 9.424977 8.296641 0.000000 0.000000 0.000000 -1.666990 -0.064851 1.843379 2.306806 -0.286058 -6.123045 1.431424 -2.689747 10.253167 0.000000 0.000000 0.000000 6.242463 -0.229836 1.649032 -5.083398 1.682369 -24.650275 -0.282724 9.314400 28.909836 9.783128 -4.155875 -22.346401 0.000000 0.000000 0.000000 -9.173435 -2.727520 0.420306 -52.870696 -0.767688 -8.366466 -10.162640 -39.535713 5.599435 0.000000 0.000000 0.000000 14.579777 -8.414141 -4.438565 58.374079 -4.330207 -10.151194 23.022012 39.918852 11.035483 0.000000 0.000000 0.000000 
-0.002988 0.946548 0.005338 -1.698869 -9.321477 2.140186 2.199681 0.445819 5.355230 0.365830 0.216208 -6.646600 3.844248 9.506535 8.380097 0.000000 0.000000 0.000000 -1.651071 -0.058792 1.751982 2.340933 -0.285784 -6.026553 1.529407 -2.493197 10.231178 0.000000 0.000000 0.000000 6.305246 -0.242969 1.767866 -4.942517 1.646931 -24.760688 -0.305437 9.252921 29.000287 9.628472 -4.056059 -22.451360 0.000000 0.000000 0.000000 -9.330613 -2.814410 0.463461 -52.706138 -1.060309 -8.222211 -11.136873 -39.421812 5.944018 0.000000 0.000000 0.000000 14.708705 -8.352288 -4.436043 57.682433 -4.212555 -10.010907 26.067717 42.958652 13.297800 0.000000 0.000000 0.000000 
-0.002599 0.946751 0.004757 -1.663131 -9.410249 2.196072 2.041816 0.446959 5.284561 0.423001 0.219258 -6.793400 3.749442 9.367338 8.671467 0.000000 0.000000 0.000000 -1.714364 -0.044075 1.617458 2.277569 -0.283225 -6.034485 1.474944 -2.613711 10.235583 0.000000 0.000000 0.000000 6.323341 -0.261902 1.950062 -4.868699 1.627312 -24.876194 -0.408432 9.131639 28.943363 9.639653 -4.082676 -22.496964 0.000000 0.000000 0.000000 -9.351712 -2.899602 0.522483 -52.431825 -1.032440 -8.181206 -11.999393 -39.525908 6.286626 0.000000 0.000000 0.000000 14.857527 -8.566036 -4.599394 56.894205 -3.986231 -9.788232 29.990786 46.176800 16.245966 0.000000 0.000000 0.000000 
-0.002190 0.946694 0.004269 -1.590937 -9.656910 2.208412 2.017582 0.447209 5.248581 0.331689 0.229418 -6.879288 3.869353 9.579058 8.796921 0.000000 0.000000 0.000000 -1.934996 -0.025424 1.573477 2.452152 -0.285768 -6.005613 1.540226 -2.442808 10.095472 0.000000 0.000000 0.000000 6.383942 -0.273851 2.064041 -4.862651 1.622311 -24.896799 -0.363151 9.091027 28.946840 9.340937 -3.925105 -22.475181 0.000000 0.000000 0.000000 -9.570980 -2.793103 0.489638 -52.204399 -1.340143 -8.013153 -12.927331 -39.099649 6.565153 0.000000 0.000000 0.000000 14.831242 -8.583285 -4.642627 56.089595 -3.800672 -9.586673 36.547209 49.796834 21.065261 0.000000 0.000000 0.000000 
-0.001832 0.946937 0.003950 -1.541908 -9.952744 2.205179 1.828227 0.475470 5.433542 0.298455 0.245380 -7.170252 3.902878 9.672656 9.246207 0.000000 0.000000 0.000000 -2.137523 -0.013508 1.615465 2.484248 -0.284748 -6.131850 1.544189 -2.470536 10.097243 0.000000 0.000000 0.000000 6.461788 -0.295242 2.276986 -4.734318 1.587536 -24.948802 -0.550777 9.249302 28.861091 9.402492 -3.989695 -22.340662 0.000000 0.000000 0.000000 -9.620754 -2.907948 0.541340 -52.025600 -1.368313 -7.965738 -13.609288 -38.873077 6.761868 0.000000 0.000000 0.000000 14.990457 -8.996766 -4.889201 55.075823 -3.436455 -9.263728 45.429580 53.234204 27.851514 0.000000 0.000000 0.000000 
-0.001639 0.946735 0.003842 -1.534726 -10.130073 2.191949 1.842430 0.489113 5.566481 0.074659 0.255717 -7.076747 4.051175 9.923326 9.240156 0.000000 0.000000 0.000000 -2.326330 0.000971 1.600306 2.657946 -0.286942 -6.009850 1.548552 -2.408374 9.955310 0.000000 0.000000 0.000000 6.689370 -0.317856 2.461405 -5.014842 1.652300 -24.983470 -0.446237 9.001005 28.858016 9.034607 -3.791726 -22.455718 0.000000 0.000000 0.000000 -9.835621 -2.907797 0.580048 -51.813827 -1.488866 -7.879617 -14.159110 -38.369010 6.896727 0.000000 0.000000 0.000000 14.977812 -8.896869 -4.901917 54.192901 -3.232842 -9.045219 57.197925 55.974832 36.933758 0.000000 0.000000 0.000000 
-0.001736 0.946803 0.003949 -1.458697 -10.339321 2.130006 1.788867 0.517905 5.817933 -0.077715 0.271259 -7.196038 4.233063 10.251793 9.422929 0.000000 0.000000 0.000000 -2.415489 0.002272 1.688653 2.687518 -0.285817 -6.051588 1.530124 -2.515040 10.046402 0.000000 0.000000 0.000000 6.711948 -0.335604 2.656433 -4.948886 1.633127 -25.033689 -0.604926 8.937951 28.782410 8.798384 -3.723513 -22.150258 0.000000 0.000000 0.000000 -10.235115 -3.051030 0.652959 -51.400290 -1.102338 -7.973612 -14.371943 -38.203872 6.948112 0.000000 0.000000 0.000000 15.498275 -8.810288 -4.963588 53.088549 -2.828673 -8.718918 71.342859 57.279692 47.936753 0.000000 0.000000 0.000000 
-0.002053 0.946856 0.004166 -1.505594 -10.603073 2.054986 1.948885 0.522359 5.909865 -0.373785 0.287482 -7.108238 4.331196 10.410757 9.458829 0.000000 0.000000 0.000000 -2.443686 -0.004946 1.848161 2.807714 -0.286590 -6.112767 1.627854 -2.413868 10.166626 0.000000 0.000000 0.000000 6.856294 -0.361494 2.908111 -5.126439 1.671333 -25.092768 -0.476404 9.128403 28.706631 8.675057 -3.626431 -22.195055 0.000000 0.000000 0.000000 -10.436209 -3.152114 0.683970 -51.321285 -1.251606 -7.896917 -14.744220 -37.663046 6.960228 0.000000 0.000000 0.000000 15.950498 -8.743085 -4.986856 52.501887 -2.129330 -8.343090 83.714255 56.865807 57.399322 0.000000 0.000000 0.000000 
-0.002587 0.947010 0.004437 -1.487159 -10.694725 2.032637 2.038842 0.524974 5.969926 -0.732418 0.308292 -7.015447 4.535689 10.766787 9.464015 0.000000 0.000000 0.000000 -2.442004 -0.020013 2.086825 2.760666 -0.285231 -6.291897 1.774896 -2.272406 10.432437 0.000000 0.000000 0.000000 6.892379 -0.364439 2.934345 -5.146404 1.674775 -25.154139 -0.384392 9.469506 28.912315 8.715553 -3.643575 -22.014758 0.000000 0.000000 0.000000 -10.659062 -3.551245 0.818986 -51.318621 -1.215997 -7.938355 -14.804245 -37.615822 6.941354 0.000000 0.000000 0.000000 16.590372 -8.677953 -4.977335 52.058064 -1.540065 -8.080437 95.351874 55.431774 66.332187 0.000000 0.000000 0.000000 
-0.003118 0.947077 0.004693 -1.520547 -10.728095 1.987086 2.252943 0.531288 6.138269 -1.010992 0.325392 -6.952467 4.670405 11.036660 9.842275 0.000000 0.000000 0.000000 -2.347326 -0.032939 2.180618 2.755019 -0.284562 -6.183932 1.730712 -2.359688 10.426127 0.000000 0.000000 0.000000 6.919010 -0.364847 2.944013 -5.214131 1.690550 -24.956426 -0.331764 9.760746 28.859145 8.853755 -3.681344 -22.037810 0.000000 0.000000 0.000000 -10.667831 -3.667551 0.829667 -51.577648 -1.294591 -7.946974 -15.186181 -37.595591 7.045459 0.000000 0.000000 0.000000 16.997957 -8.560116 -4.908785 52.134334 -0.578307 -7.711660 103.336484 53.156935 71.663514 0.000000 0.000000 0.000000 
-0.003522 0.947282 0.004915 -1.474460 -10.838479 1.943778 2.314965 0.539476 6.240719 -1.175345 0.342608 -7.105919 4.738016 11.178334 10.204555 0.000000 0.000000 0.000000 -2.411054 -0.056304 2.627313 2.857078 -0.286985 -6.739899 2.147197 -1.842336 10.973010 0.000000 0.000000 0.000000 6.881459 -0.354599 2.858535 -5.385981 1.729804 -25.024250 -0.164349 10.064453 29.078128 8.939040 -3.714233 -21.977292 0.000000 0.000000 0.000000 -10.505354 -3.895879 0.913164 -51.980833 -0.981150 -8.168025 -15.728820 -37.762043 7.259544 0.000000 0.000000 0.000000 17.380040 -8.363269 -4.794683 52.192652 0.286880 -7.405377 108.708812 51.005121 74.821502 0.000000 0.000000 0.000000 
-0.003646 0.947592 0.005005 -1.598279 -10.810943 2.008426 2.437928 0.524503 6.150878 -1.213744 0.343759 -7.067950 4.696533 11.136300 10.574703 0.000000 0.000000 0.000000 -2.338773 -0.059205 2.583654 3.002756 -0.289926 -6.713504 2.194308 -1.808894 11.089745 0.000000 0.000000 0.000000 6.985787 -0.366290 2.937694 -5.516891 1.759956 -25.273765 0.021830 10.439574 29.317378 9.337007 -3.916572 -21.958708 0.000000 0.000000 0.000000 -10.642560 -4.093827 0.941710 -52.177878 -0.903788 -8.249526 -16.247202 -38.182748 7.497239 0.000000 0.000000 0.000000 17.373036 -8.247293 -4.639536 52.539723 1.172343 -7.114726 112.971947 48.942407 77.261558 0.000000 0.000000 0.000000 
-0.003444 0.947762 0.004884 -1.602876 -10.778368 1.944562 2.399839 0.524737 6.134080 -1.288843 0.348133 -7.046819 4.680366 11.109686 10.551689 0.000000 0.000000 0.000000 -2.440537 -0.072558 2.904992 3.170132 -0.292686 -7.252277 2.508919 -1.474466 11.625357 0.000000 0.000000 0.000000 6.919135 -0.373786 3.045658 -5.572739 1.773364 -25.433481 0.237865 10.805385 29.551965 9.600377 -4.012727 -22.058404 0.000000 0.000000 0.000000 -10.404496 -4.435006 1.055422 -52.753658 -1.155579 -8.267999 -17.031055 -38.425048 7.806115 0.000000 0.000000 0.000000 17.172867 -7.938370 -4.355478 52.752695 2.466544 -6.634029 115.302754 47.623204 78.630091 0.000000 0.000000 0.000000 
-0.003026 0.947983 0.004498 -1.655331 -10.879078 1.811912 2.509757 0.536535 6.295729 -1.226052 0.346091 -7.102907 4.760561 11.286835 11.119565 0.000000 0.000000 0.000000 -2.510958 -0.066548 2.899610 3.295297 -0.293941 -7.021835 2.734437 -1.123705 11.751394 0.000000 0.000000 0.000000 6.943816 -0.396367 3.304793 -5.607606 1.779488 -25.514211 0.405738 11.338969 29.678466 10.100666 -4.238471 -22.209444 0.000000 0.000000 0.000000 -10.264514 -4.674905 1.104386 -53.319416 -1.320542 -8.313668 -17.809174 -38.622206 8.094669 0.000000 0.000000 0.000000 17.046691 -7.787195 -4.153594 52.768528 3.917881 -6.057928 116.973375 47.054796 80.306872 0.000000 0.000000 0.000000 
-0.002420 0.948206 0.003950 -1.714807 -10.791138 1.871397 2.469040 0.536185 6.287963 -1.173865 0.348649 -7.290970 4.614423 11.054322 11.233780 0.000000 0.000000 0.000000 -2.508168 -0.072516 2.980760 3.285852 -0.293441 -7.462261 2.971790 -0.932135 12.266854 0.000000 0.000000 0.000000 6.934934 -0.402082 3.350722 -5.758887 1.815864 -25.613421 0.420578 11.491906 29.731528 10.236683 -4.222940 -22.582601 0.000000 0.000000 0.000000 -9.924100 -4.680046 1.095767 -53.956949 -1.739697 -8.243879 -17.766055 -38.641604 8.077193 0.000000 0.000000 0.000000 16.665489 -7.383330 -3.855133 52.996319 5.417734 -5.433839 117.360465 47.251097 81.311899 0.000000 0.000000 0.000000 
-0.001808 0.948280 0.003379 -1.673005 -10.619959 1.881191 2.450011 0.548783 6.439603 -1.208249 0.360837 -7.592631 4.457374 10.828990 11.502808 0.000000 0.000000 0.000000 -2.477956 -0.072898 2.927425 3.097850 -0.293037 -7.546478 2.990973 -0.892844 12.300088 0.000000 0.000000 0.000000 6.770205 -0.412432 3.502631 -5.840896 1.834995 -25.919065 0.550375 11.581160 30.011965 10.193026 -4.204749 -22.414437 0.000000 0.000000 0.000000 -9.661873 -5.148513 1.298251 -54.607982 -2.388354 -8.101771 -17.550508 -38.631460 8.002430 0.000000 0.000000 0.000000 16.277207 -7.045024 -3.592797 53.018606 6.771739 -4.884135 117.585129 47.696152 82.460276 0.000000 0.000000 0.000000 
-0.001178 0.948331 0.003008 -1.683917 -10.566558 1.826951 2.347596 0.576992 6.693055 -0.968195 0.363715 -8.082255 4.231145 10.484408 11.806097 0.000000 0.000000 0.000000 -2.405362 -0.083935 3.000688 2.897715 -0.291214 -7.804184 3.240149 -0.642259 12.725220 0.000000 0.000000 0.000000 6.672190 -0.429168 3.724241 -5.840903 1.836348 -25.960831 0.423940 11.793855 29.909537 10.146435 -4.140713 -22.349679 0.000000 0.000000 0.000000 -9.278497 -5.398437 1.391665 -55.213572 -3.089483 -7.882660 -17.169038 -38.239913 7.757923 0.000000 0.000000 0.000000 16.008209 -6.720763 -3.352687 53.176894 7.955120 -4.363610 117.065177 48.314453 82.912538 0.000000 0.000000 0.000000 
-0.000658 0.948325 0.002797 -1.676430 -10.567856 1.737331 2.181936 0.596744 6.804090 -0.844547 0.362280 -8.230521 4.179717 10.393749 11.753244 0.000000 0.000000 0.000000 -2.313818 -0.086354 2.921816 2.643492 -0.288605 -7.725822 3.331640 -0.508116 12.786884 0.000000 0.000000 0.000000 6.618226 -0.451784 4.005556 -6.077658 1.888491 -26.295658 0.610593 11.962166 30.209743 10.014040 -4.045886 -22.292417 0.000000 0.000000 0.000000 -8.936460 -5.857857 1.594344 -55.666021 -3.565500 -7.779830 -16.717176 -38.176610 7.584033 0.000000 0.000000 0.000000 15.742355 -6.494896 -3.175452 53.203907 8.333906 -4.222808 116.891358 48.164141 82.704687 0.000000 0.000000 0.000000 
-0.000276 0.948249 0.002699 -1.692942 -10.552131 1.722325 2.085157 0.616370 6.955943 -0.676500 0.357128 -8.336737 4.004429 10.102493 11.751333 0.000000 0.000000 0.000000 -2.242732 -0.085516 2.821886 2.475696 -0.286531 -7.595683 3.306645 -0.607201 12.881200 0.000000 0.000000 0.000000 6.534681 -0.459121 4.120677 -6.121292 1.898964 -26.241157 0.538835 12.045887 30.092162 9.742435 -3.841819 -22.321143 0.000000 0.000000 0.000000 -8.724421 -6.090241 1.689265 -56.114835 -4.177129 -7.555917 -16.148700 -37.557518 7.244188 0.000000 0.000000 0.000000 15.699638 -6.264849 -3.035389 53.478394 8.341028 -4.210780 116.681049 47.917595 82.230168 0.000000 0.000000 0.000000 
-0.000076 0.948236 0.002731 -1.718046 -10.437950 1.781800 1.980178 0.618964 6.942405 -0.453740 0.349733 -8.465501 3.853502 9.825981 11.480250 0.000000 0.000000 0.000000 -2.302548 -0.078090 2.766254 2.461007 -0.287686 -7.638805 3.170022 -0.932836 13.043171 0.000000 0.000000 0.000000 6.402885 -0.467703 4.249714 -6.089727 1.888261 -26.592540 0.607678 12.118580 30.217421 9.546233 -3.685452 -22.367681 0.000000 0.000000 0.000000 -8.305826 -6.345072 1.803569 -56.648358 -4.379438 -7.563125 -15.766333 -37.310448 7.059435 0.000000 0.000000 0.000000 15.658553 -6.219502 -2.977316 53.900465 7.916220 -4.420367 116.665681 47.215448 81.492320 0.000000 0.000000 0.000000 
-0.000086 0.948176 0.002899 -1.666158 -10.272543 1.816033 1.872722 0.629129 7.009854 -0.405027 0.352800 -8.614437 3.703999 9.593196 11.531567 0.000000 0.000000 0.000000 -2.320595 -0.071604 2.670852 2.321281 -0.287078 -7.519444 3.119976 -1.063873 13.158284 0.000000 0.000000 0.000000 6.294294 -0.469239 4.300234 -6.197670 1.912795 -26.688483 0.680600 12.188367 30.106303 9.327549 -3.522066 -22.290809 0.000000 0.000000 0.000000 -8.042692 -6.578783 1.889464 -56.983821 -4.395463 -7.597895 -15.289029 -37.126620 6.837157 0.000000 0.000000 0.000000 15.770248 -6.175179 -2.928291 54.409721 7.431993 -4.636252 117.571159 46.216453 81.430882 0.000000 0.000000 0.000000 
-0.000193 0.948014 0.003095 -1.689745 -10.206943 1.829633 1.829648 0.638204 7.088281 -0.271322 0.351216 -8.741357 3.518660 9.269643 11.399934 0.000000 0.000000 0.000000 -2.267437 -0.071222 2.596139 2.333962 -0.287278 -7.358577 2.850745 -1.525519 13.096543 0.000000 0.000000 0.000000 6.126856 -0.470253 4.383164 -6.059398 1.880485 -26.832487 0.771907 12.557082 30.079337 9.555150 -3.625557 -22.126429 0.000000 0.000000 0.000000 -7.705545 -6.853729 1.968562 -57.289320 -4.478620 -7.619650 -14.744821 -36.864711 6.552927 0.000000 0.000000 0.000000 15.815193 -5.963931 -2.741588 54.916565 7.668069 -4.532764 118.921172 46.033155 83.218373 0.000000 0.000000 0.000000 
-0.000375 0.947971 0.003158 -1.667295 -10.162309 1.829214 1.801335 0.642542 7.121491 -0.314487 0.355540 -8.791498 3.542420 9.318809 11.433193 0.000000 0.000000 0.000000 -2.302544 -0.066284 2.555186 2.366070 -0.287424 -7.188036 2.815354 -1.559495 13.045243 0.000000 0.000000 0.000000 6.140022 -0.473992 4.417264 -6.164614 1.903692 -26.873088 0.948462 12.878698 30.126518 9.650374 -3.619740 -22.176681 0.000000 0.000000 0.000000 -7.643737 -7.127567 2.043406 -57.558908 -4.411194 -7.709574 -14.243568 -37.104610 6.395201 0.000000 0.000000 0.000000 16.084079 -5.476056 -2.418336 55.495674 8.755958 -4.073494 120.151243 46.843367 86.296585 0.000000 0.000000 0.000000 
-0.000486 0.947896 0.003022 -1.749855 -10.196182 2.016648 1.717330 0.636726 7.018481 -0.081653 0.354707 -9.016143 3.577240 9.389554 11.579389 0.000000 0.000000 0.000000 -2.175455 -0.054470 2.254233 2.380696 -0.286383 -7.045963 2.631602 -1.998082 13.222101 0.000000 0.000000 0.000000 6.009896 -0.468598 4.379188 -6.149487 1.897870 -26.956110 1.181059 13.422930 30.080890 10.077099 -3.821326 -22.086732 0.000000 0.000000 0.000000 -7.530739 -7.691956 2.216507 -57.799258 -4.289302 -7.806651 -13.520912 -37.696539 6.193902 0.000000 0.000000 0.000000 16.063013 -4.576884 -1.835164 56.123514 10.574403 -3.214587 122.042752 48.436196 91.424991 0.000000 0.000000 0.000000 
-0.000587 0.947776 0.002689 -1.731761 -10.160922 2.000760 1.634125 0.635721 6.964779 -0.065075 0.357199 -9.093115 3.686907 9.547463 11.345835 0.000000 0.000000 0.000000 -2.246752 -0.047214 2.216331 2.565902 -0.290249 -7.065816 2.538012 -2.229819 13.356836 0.000000 0.000000 0.000000 5.932852 -0.463440 4.359835 -6.351022 1.944575 -26.812299 1.487861 13.756867 30.010312 10.282049 -3.829622 -22.407117 0.000000 0.000000 0.000000 -7.279609 -8.172623 2.380441 -58.114954 -4.153061 -7.928988 -12.867163 -38.593909 6.081167 0.000000 0.000000 0.000000 16.088351 -3.410895 -1.140665 56.410513 13.421928 -1.845992 123.824344 51.059520 97.599074 0.000000 0.000000 0.000000 
-0.000722 0.947886 0.002159 -1.691763 -10.385546 2.104119 1.590215 0.644790 7.006153 0.113922 0.371515 -9.525616 3.550353 9.352658 11.818054 0.000000 0.000000 0.000000 -2.427047 -0.022516 2.068368 2.690328 -0.289983 -7.151967 2.705742 -2.207532 13.874507 0.000000 0.000000 0.000000 5.730054 -0.462628 4.438681 -6.223475 1.911209 -27.134880 1.766768 14.645496 30.244201 10.948598 -4.130245 -22.446387 0.000000 0.000000 0.000000 -6.949091 -8.737957 2.542742 -58.342398 -4.224038 -7.984926 -12.281213 -39.003926 5.856535 0.000000 0.000000 0.000000 15.987113 -2.363326 -0.433167 56.838184 16.631399 -0.249621 124.858030 53.944916 103.337256 0.000000 0.000000 0.000000 
-0.000963 0.948005 0.001380 -1.739515 -10.464233 2.213408 1.601418 0.612856 6.688968 0.108911 0.372104 -9.527800 3.658661 9.501185 11.641781 0.000000 0.000000 0.000000 -2.540927 0.006527 1.760164 2.858424 -0.291352 -6.876354 2.803558 -2.081531 13.959780 0.000000 0.000000 0.000000 5.601676 -0.453844 4.381086 -6.334639 1.935882 -27.041006 2.084690 15.363498 30.293182 11.625248 -4.366570 -22.887363 0.000000 0.000000 0.000000 -6.345419 -9.334171 2.738436 -58.476357 -4.397633 -7.977001 -12.134875 -39.339866 5.768973 0.000000 0.000000 0.000000 15.740323 -1.146556 0.334435 57.257876 20.076652 1.569800 125.839495 56.919690 108.787219 0.000000 0.000000 0.000000 
-0.001446 0.948273 0.000301 -1.740294 -10.532054 2.395062 1.519633 0.591300 6.428537 0.190002 0.378992 -9.723170 3.532984 9.321471 12.005058 0.000000 0.000000 0.000000 -2.566812 0.030419 1.442875 3.026041 -0.293233 -6.907045 2.767088 -2.312663 14.276711 0.000000 0.000000 0.000000 5.535933 -0.453985 4.381298 -6.587717 1.991016 -27.001710 2.374147 15.963413 30.428366 12.200028 -4.595505 -23.116201 0.000000 0.000000 0.000000 -5.817660 -10.089801 3.005063 -58.723002 -4.804855 -7.866250 -11.897136 -39.619704 5.657621 0.000000 0.000000 0.000000 15.095758 0.478127 1.253767 57.869526 23.699461 3.637103 126.171873 60.466595 113.645779 0.000000 0.000000 0.000000 
-0.002089 0.948666 -0.001201 -1.859049 -10.464875 2.524266 1.753958 0.536413 6.004482 0.129787 0.376268 -9.627187 3.539700 9.330413 11.985085 0.000000 0.000000 0.000000 -2.423981 0.048629 1.032972 3.091180 -0.295030 -6.595916 2.806644 -2.273646 14.358436 0.000000 0.000000 0.000000 5.275691 -0.456692 4.530669 -6.526377 1.977232 -26.953289 2.489159 16.531019 30.414927 12.815334 -4.762379 -23.695641 0.000000 0.000000 0.000000 -4.851390 -10.966013 3.332077 -59.139794 -5.369928 -7.727409 -11.608390 -39.762153 5.496479 0.000000 0.000000 0.000000 14.596816 2.123068 2.167492 58.103391 27.262802 5.715547 126.694180 64.341502 118.686565 0.000000 0.000000 0.000000 
-0.002952 0.949263 -0.002970 -1.899704 -10.598318 2.690692 1.798641 0.490735 5.544170 0.099495 0.384701 -9.755964 3.427495 9.170441 12.374786 0.000000 0.000000 0.000000 -2.481626 0.084442 0.581108 3.454488 -0.300143 -6.531977 2.582916 -2.661401 14.282788 0.000000 0.000000 0.000000 5.276527 -0.488810 4.900035 -6.568566 1.981786 -27.126417 2.425235 17.217292 30.472225 13.547961 -5.060559 -24.013649 0.000000 0.000000 0.000000 -4.231810 -11.969911 3.685748 -59.192195 -5.770361 -7.604581 -10.844088 -40.128540 5.190071 0.000000 0.000000 0.000000 14.030783 3.753897 3.039888 58.420059 31.276583 8.160766 125.549970 68.643174 121.621177 0.000000 0.000000 0.000000 
-0.004015 0.949624 -0.005152 -1.931135 -10.629012 2.834137 1.922847 0.451857 5.193024 0.048736 0.394175 -9.895683 3.567127 9.395108 12.380445 0.000000 0.000000 0.000000 -2.415965 0.112117 0.138446 3.546216 -0.302468 -6.128004 2.493906 -2.746968 14.109385 0.000000 0.000000 0.000000 5.024190 -0.513147 5.354781 -6.643272 1.997685 -27.082270 2.398442 17.607633 30.409238 13.976503 -5.244751 -24.112017 0.000000 0.000000 0.000000 -3.318111 -12.784297 3.994032 -59.725602 -6.802542 -7.239903 -10.212734 -40.267733 4.938786 0.000000 0.000000 0.000000 13.455120 5.444632 3.872778 58.685447 35.344687 10.739330 120.810283 74.167446 120.913709 0.000000 0.000000 0.000000 
-0.005398 0.950145 -0.007655 -1.962305 -10.798827 2.911506 2.035351 0.412004 4.796495 0.098347 0.384206 -9.728446 3.446300 9.200926 12.620923 0.000000 0.000000 0.000000 -2.165092 0.128476 -0.265616 3.481039 -0.299392 -5.928680 2.273881 -3.074846 13.891874 0.000000 0.000000 0.000000 4.897982 -0.544293 5.861107 -6.447852 1.955395 -27.016910 2.112486 17.987193 30.310721 14.776901 -5.591647 -24.623312 0.000000 0.000000 0.000000 -2.805498 -13.271464 4.170690 -59.769976 -7.560171 -6.912663 -9.660744 -40.227732 4.695952 0.000000 0.000000 0.000000 12.606244 7.272956 4.682075 58.876793 39.975979 13.770352 102.388519 80.556854 106.264236 0.000000 0.000000 0.000000 
-0.007014 0.950390 -0.010471 -2.109104 -10.929815 3.130443 2.211951 0.365703 4.354240 0.230131 0.380831 -9.760837 3.447051 9.186345 12.678460 0.000000 0.000000 0.000000 -1.954364 0.153676 -0.731534 3.751989 -0.304209 -5.708058 2.240454 -3.182780 13.947530 0.000000 0.000000 0.000000 4.693809 -0.566590 6.301914 -6.333351 1.925779 -26.900762 1.997144 18.416935 30.045616 15.455743 -5.912164 -24.817712 0.000000 0.000000 0.000000 -2.055993 -13.947097 4.411705 -60.387699 -8.462302 -6.590186 -8.777722 -39.814248 4.294186 0.000000 0.000000 0.000000 12.000549 8.566099 5.257768 58.781816 44.314415 16.616795 35.714919 83.473883 43.594975 0.000000 0.000000 0.000000 
-0.008722 0.950762 -0.013121 -2.399095 -10.897961 3.383048 2.441005 0.323183 3.973843 0.376199 0.377879 -9.823095 3.376711 9.077896 12.762611 0.000000 0.000000 0.000000 -1.303972 0.159085 -1.172742 3.410077 -0.296090 -5.665710 2.017793 -3.586418 13.935293 0.000000 0.000000 0.000000 4.796844 -0.611860 6.777900 -6.447129 1.947936 -26.738912 1.854236 18.380945 29.717955 15.493103 -5.906943 -24.896706 0.000000 0.000000 0.000000 -1.847376 -14.293348 4.535808 -60.100730 -8.436363 -6.543393 -8.810167 -40.218489 4.332327 0.000000 0.000000 0.000000 11.433733 10.091126 5.869689 56.740130 47.977464 18.137609 -9.639379 77.390602 1.887472 0.000000 0.000000 0.000000 
-0.010280 0.950710 -0.015155 -2.311312 -11.010080 3.512186 2.400898 0.299940 3.686609 0.409094 0.367843 -9.655464 3.592120 9.381090 12.474978 0.000000 0.000000 0.000000 -1.232816 0.164402 -1.268618 3.401698 -0.293641 -5.957123 2.140289 -3.357416 13.878272 0.000000 0.000000 0.000000 4.682984 -0.610285 6.849618 -6.395914 1.933488 -26.654004 1.885113 19.076752 29.613339 15.850744 -6.019590 -24.922762 0.000000 0.000000 0.000000 -1.118433 -14.625697 4.638378 -60.498174 -8.453906 -6.685016 -8.827230 -40.544213 4.295082 0.000000 0.000000 0.000000 10.857240 10.415817 6.000041 54.894265 51.000491 19.318334 -21.798016 68.637951 -6.856984 0.000000 0.000000 0.000000 
-0.011382 0.950789 -0.016224 -2.270206 -11.075902 3.400620 2.554107 0.310937 3.848522 0.341726 0.372174 -9.676164 3.630847 9.468956 12.709583 0.000000 0.000000 0.000000 -0.940743 0.146188 -1.202749 3.081088 -0.285783 -5.907267 2.015245 -3.694808 14.082140 0.000000 0.000000 0.000000 4.601297 -0.625920 7.197361 -6.304621 1.914514 -26.661819 1.982409 19.220146 29.366617 15.410637 -5.638296 -25.193971 0.000000 0.000000 0.000000 -1.175437 -14.189901 4.480651 -60.357810 -7.779490 -6.988475 -9.684195 -40.837495 4.605665 0.000000 0.000000 0.000000 10.147930 10.944413 6.104641 52.008462 53.189890 19.341440 -26.729361 60.622863 -9.050709 0.000000 0.000000 0.000000 
-0.011974 0.950610 -0.016210 -2.113327 -11.069804 3.266434 2.296593 0.317271 3.826422 0.483875 0.338205 -9.170080 3.771313 9.645962 12.212600 0.000000 0.000000 0.000000 -1.083131 0.145690 -1.124816 3.074887 -0.285400 -5.840620 1.922316 -3.750869 13.843087 0.000000 0.000000 0.000000 4.792176 -0.638196 7.203146 -6.516132 1.962437 -26.791867 2.225495 19.555389 29.579333 15.417897 -5.461461 -25.722094 0.000000 0.000000 0.000000 -0.842221 -14.106135 4.451779 -60.476859 -6.969281 -7.491597 -10.598441 -41.407323 4.967479 0.000000 0.000000 0.000000 9.256539 11.019545 5.988119 49.874376 54.631933 19.243221 -30.324478 53.912940 -9.743531 0.000000 0.000000 0.000000 
-0.012121 0.950438 -0.015280 -2.097529 -10.656785 3.152251 2.302077 0.337666 4.093738 0.515202 0.325105 -8.974980 3.565931 9.273246 11.568102 0.000000 0.000000 0.000000 -0.954908 0.111054 -0.788740 2.708001 -0.280958 -5.870110 1.847980 -3.865644 13.929778 0.000000 0.000000 0.000000 4.950461 -0.659060 7.333385 -6.557144 1.975781 -27.072159 2.503408 19.507027 29.583068 15.004930 -5.087743 -26.040236 0.000000 0.000000 0.000000 -0.966698 -13.701162 4.296751 -60.501089 -5.944640 -8.020973 -11.847397 -41.723914 5.432902 0.000000 0.000000 0.000000 8.742902 10.995413 5.888673 46.842931 54.945444 17.934158 -32.201285 49.055766 -9.626171 0.000000 0.000000 0.000000 
-0.012009 0.950145 -0.013533 -2.058297 -10.397306 2.965118 2.098408 0.352281 4.196482 0.717701 0.281565 -8.366010 3.526091 9.180588 11.147463 0.000000 0.000000 0.000000 -1.037328 0.093690 -0.543756 2.812572 -0.286775 -5.958571 1.588771 -4.221181 13.770217 0.000000 0.000000 0.000000 5.373362 -0.678702 7.205344 -6.750552 2.019177 -27.359254 2.704518 19.672592 29.692972 15.070151 -5.089016 -26.008459 0.000000 0.000000 0.000000 -1.114067 -13.307171 4.139288 -60.217310 -4.995201 -8.484265 -12.879562 -41.790832 5.770659 0.000000 0.000000 0.000000 8.443505 10.590239 5.675760 45.164671 55.041236 17.186801 -32.849616 46.053450 -9.198290 0.000000 0.000000 0.000000 
-0.011786 0.949881 -0.011353 -1.990966 -9.808189 2.597029 1.982533 0.373864 4.424725 0.531246 0.269944 -7.966363 3.181570 8.565626 10.491526 0.000000 0.000000 0.000000 -1.014642 0.043230 0.031305 2.631389 -0.287233 -5.780501 1.383131 -4.466082 13.682174 0.000000 0.000000 0.000000 5.734461 -0.696102 7.145133 -6.860685 2.050357 -27.461584 2.910134 19.749863 29.679128 14.987407 -4.993066 -25.887683 0.000000 0.000000 0.000000 -1.514826 -13.096290 4.011572 -60.065675 -4.075057 -8.923766 -14.199039 -41.752253 6.179153 0.000000 0.000000 0.000000 8.756683 9.784492 5.436426 44.007614 54.012548 16.063077 -32.861489 45.706947 -9.036005 0.000000 0.000000 0.000000 
-0.011500 0.949610 -0.008974 -1.958229 -9.555189 2.431838 1.845829 0.393496 4.601101 0.590907 0.244938 -7.546111 3.035411 8.263012 9.988700 0.000000 0.000000 0.000000 -1.054169 0.010461 0.442679 2.607333 -0.290008 -5.898165 1.227334 -4.659080 13.567042 0.000000 0.000000 0.000000 5.986493 -0.689240 6.870062 -6.812092 2.041278 -27.576078 3.135812 19.848199 29.699779 14.953456 -4.958081 -25.782421 0.000000 0.000000 0.000000 -2.455211 -12.772019 3.806477 -59.126026 -3.315652 -9.051776 -15.424043 -41.178875 6.475328 0.000000 0.000000 0.000000 9.057428 8.830761 5.099627 44.288122 52.097179 15.174233 -33.095834 48.318162 -9.570958 0.000000 0.000000 0.000000 
-0.011096 0.949349 -0.006732 -1.932019 -9.192578 2.366673 1.787470 0.400798 4.687359 0.561931 0.227322 -7.157831 2.752866 7.742193 9.598854 0.000000 0.000000 0.000000 -1.117782 -0.010152 0.722803 2.543869 -0.289386 -5.581808 1.166477 -4.539320 13.154373 0.000000 0.000000 0.000000 6.215586 -0.664616 6.395009 -6.631160 2.004912 -27.620246 3.257780 19.614359 29.708192 14.722010 -4.733799 -26.134122 0.000000 0.000000 0.000000 -2.855288 -12.223596 3.577772 -58.997478 -2.597576 -9.340415 -16.176836 -40.433156 6.618086 0.000000 0.000000 0.000000 9.613060 7.840131 4.766925 45.542437 49.591340 14.353125 -31.218056 53.243525 -9.630371 0.000000 0.000000 0.000000 
-0.010554 0.949099 -0.004607 -1.913728 -8.895053 2.284962 1.651447 0.414461 4.800808 0.633822 0.219667 -7.094846 2.331544 7.028196 9.579800 0.000000 0.000000 0.000000 -1.118516 -0.037806 1.050611 2.490146 -0.290765 -5.617650 1.069645 -4.657933 13.124082 0.000000 0.000000 0.000000 6.250965 -0.639117 6.080332 -6.484881 1.979873 -27.571982 3.404423 19.411419 29.696003 14.337140 -4.535749 -25.953814 0.000000 0.000000 0.000000 -3.864827 -11.874252 3.355056 -58.091350 -2.109469 -9.289776 -16.688297 -39.568762 6.626853 0.000000 0.000000 0.000000 10.260761 6.971494 4.494304 46.941613 46.260778 13.124865 -30.210236 60.628271 -10.372742 0.000000 0.000000 0.000000 
-0.009871 0.948913 -0.002630 -1.834750 -8.614646 2.359429 1.446548 0.424030 4.840029 0.728356 0.213943 -7.097752 2.195331 6.819383 9.607564 0.000000 0.000000 0.000000 -1.312251 -0.039916 1.203911 2.488854 -0.292906 -5.595219 1.066728 -4.553900 12.964824 0.000000 0.000000 0.000000 6.332267 -0.595054 5.496687 -6.282266 1.937767 -27.530640 3.443363 19.103031 29.974349 13.971683 -4.376975 -25.789249 0.000000 0.000000 0.000000 -4.472617 -11.664025 3.233265 -58.020066 -1.622408 -9.476455 -16.893170 -38.670571 6.573852 0.000000 0.000000 0.000000 11.552118 5.534652 4.050844 48.438650 42.482805 11.521909 -25.225098 70.195180 -8.581912 0.000000 0.000000 0.000000 
-0.009076 0.948531 -0.000587 -1.831043 -8.287424 2.405002 1.439332 0.417257 4.794118 0.662517 0.213349 -7.004660 1.917918 6.356383 9.575931 0.000000 0.000000 0.000000 -1.298033 -0.059092 1.419632 2.339422 -0.290309 -5.579235 1.122730 -4.343787 12.823594 0.000000 0.000000 0.000000 6.501112 -0.574138 5.141220 -6.245566 1.934048 -27.342145 3.350717 18.647107 29.924493 13.655994 -4.328330 -25.329901 0.000000 0.000000 0.000000 -5.343191 -11.287999 3.029185 -57.134692 -1.067698 -9.463683 -17.314438 -38.119547 6.634010 0.000000 0.000000 0.000000 12.568983 4.161019 3.523838 49.723733 37.668880 9.341397 -7.158325 80.966004 5.316929 0.000000 0.000000 0.000000 
-0.008212 0.948445 0.001294 -1.688433 -8.226278 2.370502 1.230045 0.423866 4.770375 0.613814 0.206622 -6.800723 2.188727 6.820511 9.490857 0.000000 0.000000 0.000000 -1.538486 -0.056184 1.562156 2.364191 -0.288531 -5.298258 1.075801 -4.281541 12.498982 0.000000 0.000000 0.000000 6.452540 -0.524260 4.627922 -6.116074 1.907313 -27.089868 3.341693 18.188793 30.077235 13.117178 -4.182949 -24.799111 0.000000 0.000000 0.000000 -5.757432 -10.799581 2.850872 -57.164481 -0.582475 -9.672589 -17.793521 -37.876104 6.820447 0.000000 0.000000 0.000000 13.222088 2.493478 2.733743 51.368341 32.865558 7.262896 79.738202 83.431227 86.729721 0.000000 0.000000 0.000000 
-0.007429 0.948170 0.002927 -1.694394 -8.164481 2.419754 1.244511 0.439999 4.955127 0.490317 0.226582 -7.061391 2.213441 6.911282 9.697061 0.000000 0.000000 0.000000 -1.587291 -0.060222 1.650525 2.288988 -0.284723 -5.178024 1.164996 -4.072873 12.422187 0.000000 0.000000 0.000000 6.533359 -0.491644 4.224171 -6.103976 1.907090 -26.947911 3.299339 17.326740 30.115293 12.492423 -3.990941 -24.516866 0.000000 0.000000 0.000000 -6.283863 -10.254037 2.683698 -56.889896 0.054926 -9.847893 -18.725695 -38.071840 7.287603 0.000000 0.000000 0.000000 13.459248 1.335881 2.045036 52.470450 27.904914 4.999027 114.072313 74.828660 114.205888 0.000000 0.000000 0.000000 
-0.006822 0.948169 0.004000 -1.670357 -8.140759 2.549851 1.163049 0.431720 4.836223 0.533522 0.217110 -6.915734 2.519605 7.421990 9.564586 0.000000 0.000000 0.000000 -1.718007 -0.045469 1.565188 2.283284 -0.282293 -4.993478 1.272060 -3.678059 11.989045 0.000000 0.000000 0.000000 6.608794 -0.454110 3.762392 -5.934695 1.868467 -26.980278 3.234171 16.897583 30.390105 12.163971 -3.954529 -24.083293 0.000000 0.000000 0.000000 -6.334365 -9.706157 2.521169 -56.957214 0.214586 -9.958076 -19.231110 -38.412060 7.603596 0.000000 0.000000 0.000000 13.831403 0.053922 1.371128 53.508166 23.968500 3.191999 121.479112 66.887819 115.335799 0.000000 0.000000 0.000000 
-0.006528 0.948175 0.004604 -1.620101 -7.930237 2.554067 1.170596 0.445517 5.001780 0.359780 0.242448 -7.238352 2.494648 7.469639 9.944704 0.000000 0.000000 0.000000 -1.766994 -0.035891 1.464826 2.224358 -0.277996 -4.741365 1.254631 -3.644109 11.902508 0.000000 0.000000 0.000000 6.664673 -0.442178 3.606105 -5.873195 1.857815 -26.910642 3.001885 16.215175 30.398218 11.872183 -3.948296 -23.691259 0.000000 0.000000 0.000000 -6.411346 -9.153502 2.362498 -57.069050 0.099355 -9.918059 -19.543231 -39.086509 7.941711 0.000000 0.000000 0.000000 14.105378 -0.993229 0.771271 54.409243 20.736935 1.718364 123.919150 60.562965 111.752505 0.000000 0.000000 0.000000 
-0.006578 0.948011 0.004891 -1.628691 -7.870409 2.503512 1.217562 0.442310 4.994371 0.240648 0.240209 -7.030639 2.767651 7.914461 9.742589 0.000000 0.000000 0.000000 -1.763754 -0.039154 1.498844 2.241694 -0.278689 -4.700220 1.354018 -3.364885 11.720763 0.000000 0.000000 0.000000 6.705271 -0.421727 3.386278 -5.805151 1.843926 -26.885500 2.879161 15.754191 30.537535 11.600367 -3.978177 -23.086316 0.000000 0.000000 0.000000 -6.578195 -8.930545 2.313651 -57.239601 -0.241677 -9.797340 -19.930907 -39.767895 8.312317 0.000000 0.000000 0.000000 14.535147 -1.633229 0.405198 55.031099 18.459671 0.627543 124.879991 56.628585 108.496842 0.000000 0.000000 0.000000 
-0.007004 0.947803 0.005035 -1.671259 -7.918215 2.442755 1.266190 0.466163 5.265801 0.256503 0.255907 -7.402420 2.830562 8.085547 10.107946 0.000000 0.000000 0.000000 -1.719103 -0.049665 1.601594 2.224939 -0.281836 -5.002672 1.494561 -3.234435 12.009207 0.000000 0.000000 0.000000 6.714712 -0.402935 3.203841 -5.600210 1.799477 -26.742200 2.686584 15.366845 30.415798 11.408303 -3.986153 -22.784970 0.000000 0.000000 0.000000 -6.552816 -8.633556 2.247443 -57.464248 -0.572395 -9.671217 -19.823317 -40.303225 8.463873 0.000000 0.000000 0.000000 14.703001 -2.182451 0.052996 55.560666 16.828647 -0.114886 124.576957 54.403230 105.215369 0.000000 0.000000 0.000000 
-0.007571 0.947307 0.005129 -1.782786 -7.889295 2.489177 1.446626 0.462927 5.331950 0.099490 0.268557 -7.484414 3.040083 8.404239 9.816448 0.000000 0.000000 0.000000 -1.699358 -0.048716 1.572265 2.335756 -0.289120 -5.202276 1.586479 -2.921031 11.722394 0.000000 0.000000 0.000000 6.789016 -0.368996 2.817323 -5.488371 1.775944 -26.493403 2.532743 15.061184 30.219136 11.379523 -4.129895 -22.226546 0.000000 0.000000 0.000000 -6.506368 -8.490366 2.226531 -57.444311 -0.961671 -9.465132 -20.032828 -40.584877 8.646826 0.000000 0.000000 0.000000 14.932833 -2.625092 -0.223764 55.657179 15.504878 -0.747651 124.147006 53.261715 102.972403 0.000000 0.000000 0.000000 
-0.008163 0.947044 0.005101 -1.851416 -8.013642 2.474986 1.605863 0.466387 5.442315 0.042928 0.286533 -7.816226 3.051705 8.473169 10.168012 0.000000 0.000000 0.000000 -1.793791 -0.045675 1.614294 2.613216 -0.301024 -5.407249 1.633883 -2.885223 11.812622 0.000000 0.000000 0.000000 6.964495 -0.353919 2.619185 -5.394288 1.754827 -26.436728 2.393369 14.877856 30.186622 11.213497 -4.094248 -22.084658 0.000000 0.000000 0.000000 -6.707531 -8.136325 2.099295 -57.108209 -1.362632 -9.193484 -20.584807 -40.409631 8.846515 0.000000 0.000000 0.000000 15.031921 -2.978820 -0.456152 55.672616 14.621565 -1.177273 123.315596 52.630792 100.826355 0.000000 0.000000 0.000000 
-0.008546 0.946734 0.004913 -1.926178 -8.095591 2.494060 1.770803 0.455025 5.400526 -0.050289 0.290816 -7.792305 3.207475 8.691041 9.884258 0.000000 0.000000 0.000000 -1.966103 -0.041263 1.703453 2.985380 -0.315648 -5.688616 1.729521 -2.652888 11.696655 0.000000 0.000000 0.000000 7.073318 -0.336680 2.413850 -5.432530 1.763572 -26.322168 2.406983 14.751113 30.012954 11.121253 -4.135329 -21.704983 0.000000 0.000000 0.000000 -6.514419 -7.907052 2.042427 -57.133772 -1.566299 -9.093289 -20.632822 -40.293198 8.857689 0.000000 0.000000 0.000000 14.909524 -3.493472 -0.770941 55.716335 13.654612 -1.599657 122.294759 52.515747 99.101653 0.000000 0.000000 0.000000 
-0.008745 0.946492 0.004570 -1.937656 -8.089456 2.453305 1.881348 0.436814 5.255184 -0.114880 0.283958 -7.546371 3.235557 8.719859 9.754898 0.000000 0.000000 0.000000 -2.023119 -0.024893 1.525912 2.957286 -0.313500 -5.484055 1.703043 -2.579790 11.435236 0.000000 0.000000 0.000000 7.075733 -0.342686 2.481259 -5.276358 1.728689 -26.317470 2.282220 14.528182 29.879711 10.961931 -4.077180 -21.649699 0.000000 0.000000 0.000000 -6.767783 -7.541000 1.897945 -56.706286 -1.508793 -9.012054 -20.685746 -40.010111 8.828074 0.000000 0.000000 0.000000 15.055231 -3.855020 -1.002097 55.138834 12.651612 -2.105437 121.390131 52.439293 97.473905 0.000000 0.000000 0.000000 
-0.008785 0.946503 0.004161 -1.933427 -8.180916 2.440404 1.953076 0.413590 5.019490 -0.281369 0.281994 -7.249419 3.373513 8.895742 9.376962 0.000000 0.000000 0.000000 -2.311778 -0.007867 1.541561 3.295220 -0.325008 -5.612306 1.858341 -2.196937 11.248656 0.000000 0.000000 0.000000 7.223601 -0.329524 2.316936 -5.386910 1.755367 -25.988402 2.149339 14.383735 29.552186 10.621550 -3.880817 -21.617887 0.000000 0.000000 0.000000 -6.694253 -7.390338 1.861559 -56.589093 -1.483487 -8.966437 -19.756389 -39.319738 8.339129 0.000000 0.000000 0.000000 15.070906 -4.320975 -1.291575 54.697487 11.556613 -2.600103 119.790727 52.681879 95.386206 0.000000 0.000000 0.000000 
-0.008769 0.946486 0.003782 -1.972397 -8.187765 2.460837 2.080500 0.395004 4.872259 -0.434331 0.282866 -7.031461 3.453577 9.015008 9.244218 0.000000 0.000000 0.000000 -2.311958 -0.005922 1.515802 3.326015 -0.325749 -5.537804 1.791922 -2.197344 10.983867 0.000000 0.000000 0.000000 7.271569 -0.335056 2.353488 -5.346480 1.745251 -26.159320 2.062592 14.318123 29.562894 10.653610 -3.963782 -21.379794 0.000000 0.000000 0.000000 -7.073150 -7.078546 1.710790 -55.940450 -1.253956 -8.934322 -18.649941 -38.853852 7.830586 0.000000 0.000000 0.000000 15.139165 -4.989573 -1.660249 54.060299 9.969127 -3.335056 118.479402 52.504261 93.272349 0.000000 0.000000 0.000000 
-0.008727 0.946567 0.003445 -1.960464 -8.179462 2.472798 2.162096 0.388256 4.837026 -0.653218 0.292841 -6.926331 3.611141 9.275538 9.119984 0.000000 0.000000 0.000000 -2.485399 -0.003062 1.629019 3.440376 -0.330189 -5.803485 1.768829 -2.169339 10.844778 0.000000 0.000000 0.000000 7.332601 -0.319915 2.187779 -5.318374 1.741247 -25.850559 1.746322 14.055805 29.264288 10.618722 -3.928107 -21.624354 0.000000 0.000000 0.000000 -7.385573 -6.699831 1.553436 -55.447063 -1.241833 -8.798765 -17.662522 -38.316178 7.380727 0.000000 0.000000 0.000000 15.254291 -5.401931 -1.937299 53.495337 8.878618 -3.790294 115.640031 53.117655 90.090031 0.000000 0.000000 0.000000 
-0.008660 0.946366 0.003184 -2.025432 -8.435957 2.393178 2.253096 0.393719 4.911035 -0.658128 0.288829 -6.787461 3.734285 9.463828 9.044464 0.000000 0.000000 0.000000 -2.369880 -0.014767 1.710972 3.354809 -0.324565 -5.759373 1.726099 -2.165557 10.598158 0.000000 0.000000 0.000000 7.275216 -0.319652 2.227499 -5.226658 1.717991 -25.765237 1.645684 13.961967 29.107460 10.693639 -4.056652 -21.424578 0.000000 0.000000 0.000000 -7.873334 -6.699981 1.538775 -55.094870 -1.228105 -8.695520 -15.980394 -38.177994 6.790597 0.000000 0.000000 0.000000 15.306562 -5.756211 -2.176546 53.312436 7.380026 -4.430852 111.934820 54.035670 86.498733 0.000000 0.000000 0.000000 
-0.008553 0.946492 0.003019 -1.982091 -8.763626 2.271898 2.148405 0.422084 5.139883 -0.596259 0.282402 -6.701102 3.724676 9.395004 8.818514 0.000000 0.000000 0.000000 -2.482412 -0.015112 1.846428 3.333895 -0.320371 -5.642906 1.888396 -1.740812 10.308650 0.000000 0.000000 0.000000 7.203800 -0.321107 2.295471 -5.109618 1.688459 -25.574103 1.335071 13.758229 28.778836 10.613924 -4.053052 -21.464572 0.000000 0.000000 0.000000 -8.284941 -6.538304 1.482512 -54.573149 -0.869220 -8.701704 -15.385618 -37.847924 6.554118 0.000000 0.000000 0.000000 15.772160 -6.135006 -2.472761 52.799654 6.154485 -4.936509 106.791353 54.796932 81.104837 0.000000 0.000000 0.000000 
-0.008434 0.946444 0.002854 -2.097668 -9.020473 2.361177 2.231258 0.429449 5.243543 -0.501780 0.282328 -6.856147 3.699301 9.355655 9.008296 0.000000 0.000000 0.000000 -2.396750 -0.015997 1.807560 3.376946 -0.318902 -5.740874 1.896934 -1.701843 10.203506 0.000000 0.000000 0.000000 7.318498 -0.299968 2.056092 -4.995854 1.658716 -25.392955 1.044060 13.372984 28.626700 10.428715 -4.069728 -21.186074 0.000000 0.000000 0.000000 -8.723786 -6.382471 1.451554 -54.351162 -0.645521 -8.713192 -14.507782 -37.894271 6.323426 0.000000 0.000000 0.000000 15.729672 -6.350568 -2.695396 52.787566 4.561646 -5.586670 100.814489 55.185144 74.761570 0.000000 0.000000 0.000000 
-0.008308 0.946546 0.002650 -2.120298 -9.151929 2.392615 2.248391 0.424972 5.187471 -0.324350 0.274352 -6.942965 3.609563 9.208875 9.176761 0.000000 0.000000 0.000000 -2.427014 -0.009404 1.756143 3.332516 -0.315791 -5.692691 1.873212 -1.712563 10.101080 0.000000 0.000000 0.000000 7.215666 -0.274310 1.828744 -4.821711 1.616772 -24.883796 0.681624 13.025063 28.179362 10.298493 -4.053295 -21.127244 0.000000 0.000000 0.000000 -9.036590 -6.333943 1.455948 -54.092841 -0.070278 -8.852135 -14.029465 -38.061728 6.221853 0.000000 0.000000 0.000000 16.209806 -6.602378 -2.942966 52.494442 2.631073 -6.348235 93.695924 56.114146 68.310024 0.000000 0.000000 0.000000 
-0.008187 0.946524 0.002448 -2.168321 -9.174063 2.412502 2.260969 0.417880 5.111102 -0.184715 0.258207 -6.772014 3.538073 9.074002 9.140109 0.000000 0.000000 0.000000 -2.420999 -0.006701 1.712455 3.287874 -0.314127 -5.643693 1.794132 -1.794039 9.946006 0.000000 0.000000 0.000000 7.214511 -0.262281 1.712212 -4.689398 1.584407 -24.893640 0.532387 12.631810 28.314168 10.263471 -4.111593 -21.081772 0.000000 0.000000 0.000000 -9.203216 -6.070219 1.392012 -54.002285 0.064124 -8.896211 -14.011501 -38.262310 6.307161 0.000000 0.000000 0.000000 16.265377 -7.075704 -3.278842 52.402656 0.626809 -7.175185 85.216401 56.559748 60.717671 0.000000 0.000000 0.000000 
-0.008110 0.946520 0.002197 -2.177198 -9.103944 2.405014 2.078195 0.423510 5.093471 0.178207 0.236821 -6.834407 3.319375 8.709275 9.260140 0.000000 0.000000 0.000000 -2.394914 -0.009010 1.714214 3.296796 -0.315191 -5.780882 1.721145 -2.032429 10.145376 0.000000 0.000000 0.000000 7.071120 -0.258053 1.699761 -4.514442 1.544015 -24.739115 0.337381 12.326160 28.092389 10.169809 -4.103449 -20.990917 0.000000 0.000000 0.000000 -9.096732 -5.991025 1.397287 -53.991392 0.313376 -8.976322 -13.856452 -37.939329 6.218078 0.000000 0.000000 0.000000 16.243048 -7.430774 -3.523131 52.721296 -1.276327 -7.960227 73.780688 56.995010 51.407615 0.000000 0.000000 0.000000 
-0.008151 0.946252 0.001895 -2.201558 -9.018733 2.372424 2.133354 0.412095 4.997557 0.291840 0.221405 -6.658868 3.334832 8.723328 9.134898 0.000000 0.000000 0.000000 -2.334152 -0.004263 1.577872 3.206380 -0.312760 -5.537819 1.634110 -2.147941 10.048060 0.000000 0.000000 0.000000 6.893854 -0.255220 1.712296 -4.444831 1.528810 -24.770381 0.282685 11.814497 28.172940 9.784995 -3.952412 -20.851175 0.000000 0.000000 0.000000 -8.959511 -5.532243 1.275824 -54.366136 0.491395 -9.126951 -13.696350 -37.702345 6.189429 0.000000 0.000000 0.000000 16.008073 -7.655590 -3.714102 52.977862 -2.948394 -8.670359 60.585412 55.727353 40.240260 0.000000 0.000000 0.000000 
-0.008352 0.946285 0.001502 -2.138665 -8.896945 2.386252 2.011931 0.404996 4.873019 0.614115 0.201013 -6.678752 3.081014 8.257234 8.978217 0.000000 0.000000 0.000000 -2.367158 -0.005796 1.620729 3.170610 -0.313253 -5.724898 1.663430 -2.149086 10.194823 0.000000 0.000000 0.000000 6.631617 -0.256696 1.775261 -4.266485 1.488580 -24.898908 0.184332 11.601940 28.195097 9.698940 -3.945912 -20.706396 0.000000 0.000000 0.000000 -8.837455 -5.452779 1.269003 -54.348557 0.699500 -9.214056 -13.453689 -37.515715 6.088034 0.000000 0.000000 0.000000 15.882506 -7.939158 -3.879685 53.441647 -4.308427 -9.289975 49.005937 53.723442 31.092056 0.000000 0.000000 0.000000 
-0.008709 0.946213 0.001086 -2.176663 -8.833330 2.327890 2.116483 0.393817 4.797492 0.632814 0.188831 -6.449619 3.145233 8.305499 8.531216 0.000000 0.000000 0.000000 -2.215466 -0.012771 1.572750 3.067690 -0.310307 -5.595031 1.676405 -2.030654 10.020867 0.000000 0.000000 0.000000 6.517178 -0.260649 1.852608 -4.244169 1.485459 -25.032805 0.294788 11.551132 28.406290 9.686466 -3.965566 -20.593875 0.000000 0.000000 0.000000 -8.670410 -5.313290 1.227007 -54.458513 0.548675 -9.192886 -13.167564 -37.181108 5.942304 0.000000 0.000000 0.000000 15.646274 -7.958734 -3.868154 53.969787 -5.117875 -9.714859 38.891961 50.742548 23.393771 0.000000 0.000000 0.000000 
-0.009164 0.946307 0.000654 -2.139927 -8.807575 2.277240 2.113079 0.394262 4.799856 0.726548 0.179120 -6.378925 3.140524 8.316020 8.639064 0.000000 0.000000 0.000000 -2.234264 -0.017157 1.646546 3.063907 -0.311261 -5.785888 1.820037 -1.887376 10.306639 0.000000 0.000000 0.000000 6.426323 -0.269116 1.970823 -4.290387 1.497039 -25.204974 0.352455 11.454395 28.536804 9.664036 -3.962814 -20.622937 0.000000 0.000000 0.000000 -8.731725 -5.159635 1.170432 -54.282922 0.681603 -9.229294 -12.942652 -37.135301 5.868247 0.000000 0.000000 0.000000 15.363666 -7.961810 -3.857942 54.580499 -5.300462 -9.892193 31.411664 47.701158 18.000842 0.000000 0.000000 0.000000 
-0.009713 0.946396 0.000315 -2.117282 -8.813251 2.185290 2.085713 0.404174 4.893224 0.940416 0.164724 -6.380812 3.250298 8.474620 8.396629 0.000000 0.000000 0.000000 -2.141120 -0.027557 1.705333 2.972940 -0.308526 -5.805655 1.829621 -1.863695 10.293242 0.000000 0.000000 0.000000 6.330264 -0.270038 2.024034 -4.358523 1.514066 -25.273914 0.489462 11.428619 28.602571 9.541298 -3.943869 -20.313079 0.000000 0.000000 0.000000 -8.644520 -4.955720 1.094645 -54.082453 0.560913 -9.147982 -12.631221 -36.899776 5.724463 0.000000 0.000000 0.000000 14.779269 -7.443157 -3.544317 55.157436 -4.877478 -9.788373 26.301738 43.935667 14.060649 0.000000 0.000000 0.000000 
-0.010292 0.946477 0.000103 -2.007242 -8.765615 2.117529 2.018310 0.411849 4.947936 0.969251 0.162231 -6.368870 3.195087 8.385279 8.430181 0.000000 0.000000 0.000000 -2.120457 -0.036777 1.810807 2.865809 -0.306953 -6.062403 1.838980 -2.017929 10.647419 0.000000 0.000000 0.000000 6.323082 -0.271449 2.052969 -4.524255 1.553712 -25.343420 0.509537 11.358660 28.646365 9.621262 -4.045872 -20.108582 0.000000 0.000000 0.000000 -8.631021 -4.495480 0.904306 -53.821234 0.663144 -9.149763 -12.720100 -37.010455 5.773656 0.000000 0.000000 0.000000 14.494026 -7.306636 -3.457967 55.512590 -4.454058 -9.655307 22.852560 40.438096 11.365274 0.000000 0.000000 0.000000 
-0.010890 0.946547 -0.000060 -1.960206 -8.607930 2.076961 2.050663 0.408287 4.936872 1.009140 0.151708 -6.210208 3.336413 8.629555 8.295857 0.000000 0.000000 0.000000 -1.997694 -0.045407 1.807770 2.770121 -0.305874 -6.092540 1.833085 -1.999184 10.624916 0.000000 0.000000 0.000000 6.280142 -0.271316 2.067922 -4.477195 1.545318 -25.439754 0.583694 11.471542 28.709075 9.711250 -4.086167 -20.039439 0.000000 0.000000 0.000000 -8.640834 -4.301626 0.791688 -53.658035 0.784237 -9.178692 -13.247509 -36.963044 5.912458 0.000000 0.000000 0.000000 14.365125 -7.201050 -3.356121 55.614793 -4.088394 -9.504527 20.617999 37.924687 9.733134 0.000000 0.000000 0.000000 
-0.011443 0.946560 -0.000249 -1.913768 -8.439237 1.919930 2.124496 0.405786 4.951031 1.036063 0.143578 -6.082410 3.279946 8.542699 8.302904 0.000000 0.000000 0.000000 -1.916533 -0.068419 2.031357 2.669821 -0.306107 -6.289867 1.746870 -2.355031 11.050884 0.000000 0.000000 0.000000 6.329041 -0.278080 2.155760 -4.605467 1.577830 -25.267887 0.637050 11.394298 28.590154 9.922848 -4.178687 -20.275556 0.000000 0.000000 0.000000 -8.959058 -3.884049 0.576536 -53.167074 0.972331 -9.150187 -13.644962 -36.620893 5.966695 0.000000 0.000000 0.000000 14.442467 -7.080790 -3.292421 55.489378 -3.730414 -9.327751 18.364620 36.149256 8.409915 0.000000 0.000000 0.000000 
-0.011981 0.946621 -0.000545 -1.779896 -8.331572 1.815725 2.033455 0.399198 4.834763 1.034258 0.129040 -5.782920 3.308691 8.577687 8.141115 0.000000 0.000000 0.000000 -1.979894 -0.072176 2.127286 2.686561 -0.307453 -6.251881 1.753064 -2.284582 10.960314 0.000000 0.000000 0.000000 6.276547 -0.278023 2.186852 -4.696003 1.601263 -25.199089 0.783919 11.365956 28.727264 10.031141 -4.253527 -20.263927 0.000000 0.000000 0.000000 -9.079765 -3.759319 0.508498 -53.088862 1.228472 -9.257441 -13.787549 -36.215607 5.938075 0.000000 0.000000 0.000000 14.604869 -7.083923 -3.292336 55.385421 -3.453979 -9.217453 16.228314 35.077147 7.415398 0.000000 0.000000 0.000000 
-0.012462 0.946789 -0.000899 -1.709048 -8.151036 1.707225 1.967212 0.403033 4.858553 1.085365 0.121741 -5.705829 3.204541 8.389845 8.056529 0.000000 0.000000 0.000000 -2.017736 -0.080694 2.258353 2.645100 -0.308751 -6.342943 1.712028 -2.448918 11.184134 0.000000 0.000000 0.000000 6.310368 -0.279115 2.208946 -4.784465 1.625434 -25.050217 0.797368 11.242863 28.686606 10.085960 -4.261752 -20.432125 0.000000 0.000000 0.000000 -9.205973 -3.656266 0.452000 -53.061693 1.263567 -9.262088 -13.902942 -35.524220 5.851383 0.000000 0.000000 0.000000 14.595311 -7.011400 -3.252354 55.419193 -3.117723 -9.079212 14.576546 34.003606 6.625219 0.000000 0.000000 0.000000 
-0.012869 0.946966 -0.001236 -1.626655 -8.051171 1.679847 1.854433 0.409310 4.884397 1.061570 0.129357 -5.822257 3.158882 8.323279 8.105412 0.000000 0.000000 0.000000 -2.033963 -0.083850 2.308096 2.512401 -0.306636 -6.447745 1.600000 -2.656842 11.192418 0.000000 0.000000 0.000000 6.341179 -0.284242 2.257443 -4.864553 1.646562 -24.901997 0.765037 11.175739 28.576301 10.269233 -4.424319 -20.231392 0.000000 0.000000 0.000000 -9.520082 -3.673325 0.428815 -52.963822 1.557631 -9.351235 -13.727268 -34.501259 5.610355 0.000000 0.000000 0.000000 14.613590 -7.123116 -3.314150 55.271706 -3.022675 -9.010393 14.000332 33.533914 6.332739 0.000000 0.000000 0.000000 
-0.013237 0.946994 -0.001567 -1.477649 -7.699975 1.669339 1.734396 0.409155 4.858271 0.974676 0.133338 -5.768039 3.063748 8.145294 7.917621 0.000000 0.000000 0.000000 -2.083817 -0.086079 2.354970 2.437493 -0.308209 -6.534486 1.379224 -3.013635 11.142351 0.000000 0.000000 0.000000 6.276144 -0.285818 2.282789 -4.934505 1.668500 -24.940026 0.682591 10.891104 28.683779 10.372818 -4.432807 -20.640091 0.000000 0.000000 0.000000 -9.688836 -3.678998 0.426418 -52.901650 1.485229 -9.316045 -13.425240 -33.400853 5.334183 0.000000 0.000000 0.000000 14.561489 -7.246863 -3.380715 55.534829 -2.921352 -9.012923 13.575889 33.166723 6.128459 0.000000 0.000000 0.000000 
-0.013603 0.946838 -0.001864 -1.362744 -7.716238 1.725461 1.653590 0.403021 4.751380 0.910326 0.139468 -5.800015 3.111485 8.228663 7.915076 0.000000 0.000000 0.000000 -2.157831 -0.074462 2.267790 2.357042 -0.304916 -6.475840 1.228659 -3.147597 10.794077 0.000000 0.000000 0.000000 6.259877 -0.284681 2.263768 -4.875959 1.655436 -24.740244 0.428740 10.807655 28.438035 10.401835 -4.444321 -20.713998 0.000000 0.000000 0.000000 -9.783291 -3.694742 0.433265 -53.009481 1.580619 -9.348157 -12.444312 -32.185720 4.846261 0.000000 0.000000 0.000000 14.572426 -7.260605 -3.409147 55.735166 -2.975709 -9.042192 13.342713 32.887301 5.987258 0.000000 0.000000 0.000000 
-0.014029 0.946790 -0.002167 -1.242781 -7.782271 1.654497 1.557876 0.409956 4.771820 0.926643 0.139956 -5.835541 3.090806 8.172752 7.832062 0.000000 0.000000 0.000000 -2.331942 -0.066120 2.315237 2.347476 -0.304359 -6.493085 1.137755 -3.255425 10.626065 0.000000 0.000000 0.000000 6.247758 -0.293730 2.379822 -4.950732 1.673364 -24.718893 0.264253 10.604660 28.499841 10.464206 -4.433650 -21.201842 0.000000 0.000000 0.000000 -9.807574 -3.771031 0.503028 -53.052219 1.468843 -9.314052 -11.596632 -31.058034 4.451688 0.000000 0.000000 0.000000 14.636671 -7.357682 -3.504739 56.091639 -3.047310 -9.135236 13.116462 32.574343 5.838679 0.000000 0.000000 0.000000 
-0.014513 0.946724 -0.002455 -1.202330 -7.953881 1.741788 1.540400 0.402979 4.675478 0.878765 0.143125 -5.833824 3.169623 8.294129 7.785781 0.000000 0.000000 0.000000 -2.348389 -0.052246 2.156311 2.316116 -0.300586 -6.380712 1.099620 -3.221656 10.343538 0.000000 0.000000 0.000000 6.173516 -0.289324 2.339534 -4.906975 1.660400 -24.634854 0.161648 10.459083 28.501549 10.397784 -4.405293 -21.334506 0.000000 0.000000 0.000000 -9.800766 -3.866084 0.584215 -53.148708 1.349153 -9.277991 -10.665640 -30.436499 4.125102 0.000000 0.000000 0.000000 14.833548 -7.300595 -3.533921 56.438438 -3.223454 -9.275548 12.773843 32.186677 5.636114 0.000000 0.000000 0.000000 
-0.015013 0.946884 -0.002713 -1.120839 -7.993336 1.911231 1.470964 0.384607 4.447233 0.837227 0.145200 -5.814932 3.188568 8.330463 7.831865 0.000000 0.000000 0.000000 -2.339025 -0.031588 1.869644 2.167876 -0.295142 -6.347042 1.129548 -3.116229 10.227703 0.000000 0.000000 0.000000 6.122393 -0.281916 2.238556 -4.880316 1.653141 -24.560788 -0.029142 10.313326 28.436323 10.363010 -4.385774 -21.452684 0.000000 0.000000 0.000000 -9.734067 -3.965567 0.658282 -53.206270 1.253748 -9.239643 -10.069130 -30.085437 3.926366 0.000000 0.000000 0.000000 15.011450 -7.316706 -3.588263 56.972748 -3.450076 -9.453494 12.303175 31.678340 5.385899 0.000000 0.000000 0.000000 
-0.015431 0.946962 -0.002923 -1.067474 -8.088864 2.022847 1.514049 0.359896 4.191156 0.743029 0.147829 -5.728087 3.246255 8.420029 7.797946 0.000000 0.000000 0.000000 -2.310016 -0.015379 1.631035 2.032325 -0.288090 -6.187583 1.110447 -3.112290 10.109971 0.000000 0.000000 0.000000 6.081086 -0.281058 2.219428 -4.948975 1.668344 -24.526543 -0.071852 10.087268 28.370581 10.202081 -4.299773 -21.580552 0.000000 0.000000 0.000000 -9.583601 -3.947728 0.702018 -53.333741 0.992629 -9.141720 -9.683716 -30.002780 3.834707 0.000000 0.000000 0.000000 14.961552 -7.292673 -3.625360 57.542582 -3.706478 -9.644865 11.765262 30.983180 5.074545 0.000000 0.000000 0.000000 
-0.015766 0.947008 -0.003106 -0.974308 -8.007717 2.144435 1.480976 0.340720 3.977555 0.716049 0.150282 -5.736792 3.192576 8.337305 7.867717 0.000000 0.000000 0.000000 -2.245962 -0.004724 1.429532 1.851250 -0.282710 -6.181920 0.973203 -3.380997 10.122507 0.000000 0.000000 0.000000 5.937666 -0.279704 2.217153 -4.922319 1.662229 -24.548287 -0.165148 9.924165 28.360568 10.090489 -4.248194 -21.573754 0.000000 0.000000 0.000000 -9.442749 -3.936563 0.724117 -53.299871 0.767431 -9.040565 -9.427887 -30.047352 3.780240 0.000000 0.000000 0.000000 15.142679 -7.392372 -3.712137 57.904464 -3.854752 -9.774992 11.202218 30.261148 4.777590 0.000000 0.000000 0.000000 
-0.016006 0.947098 -0.003249 -0.975838 -8.059112 2.280644 1.493466 0.324746 3.808697 0.642440 0.150247 -5.619773 3.131344 8.198576 7.733470 0.000000 0.000000 0.000000 -2.158923 0.010667 1.157563 1.805238 -0.278962 -6.062945 0.980410 -3.369514 10.110911 0.000000 0.000000 0.000000 5.929798 -0.281793 2.215428 -4.858331 1.645599 -24.599015 -0.139637 9.845478 28.408739 10.034677 -4.191386 -21.781253 0.000000 0.000000 0.000000 -9.173344 -3.803301 0.701792 -53.587370 0.331887 -8.909973 -9.303996 -30.240493 3.788917 0.000000 0.000000 0.000000 15.063377 -7.434468 -3.746257 58.395908 -3.768381 -9.807385 10.546770 29.617376 4.484425 0.000000 0.000000 0.000000 
-0.016233 0.947206 -0.003401 -0.895354 -8.112301 2.435682 1.451572 0.302790 3.553159 0.509480 0.156562 -5.541484 3.123784 8.201561 7.870535 0.000000 0.000000 0.000000 -2.135499 0.033220 0.844768 1.866502 -0.280047 -6.041686 0.944588 -3.484458 10.191120 0.000000 0.000000 0.000000 5.915945 -0.270173 2.059969 -4.861899 1.644787 -24.629291 -0.200797 9.690182 28.468876 9.746480 -4.008586 -21.940923 0.000000 0.000000 0.000000 -8.947050 -3.921453 0.797527 -53.874889 0.105722 -8.869648 -9.260747 -30.264123 3.801000 0.000000 0.000000 0.000000 14.918199 -7.420452 -3.760423 58.898813 -3.701146 -9.855299 10.164603 29.551922 4.368698 0.000000 0.000000 0.000000 
-0.016470 0.947521 -0.003608 -0.837979 -8.061083 2.633342 1.421275 0.279202 3.293497 0.329810 0.166699 -5.464029 3.026943 8.032553 7.899770 0.000000 0.000000 0.000000 -2.036757 0.049064 0.567194 1.873348 -0.278530 -5.910249 0.913790 -3.540977 10.193678 0.000000 0.000000 0.000000 5.882470 -0.272141 2.047408 -4.814786 1.633465 -24.724867 -0.313064 9.451121 28.422398 9.620368 -3.971070 -21.880803 0.000000 0.000000 0.000000 -8.830490 -3.975953 0.855971 -53.970443 -0.236484 -8.730158 -9.196542 -30.254147 3.799095 0.000000 0.000000 0.000000 14.931179 -7.498854 -3.843250 59.118394 -3.671120 -9.871537 10.087336 29.479421 4.322705 0.000000 0.000000 0.000000 
-0.016700 0.947761 -0.003871 -0.859600 -7.946348 2.914936 1.412510 0.262939 3.130915 0.149556 0.185900 -5.600788 3.034974 8.112617 8.247291 0.000000 0.000000 0.000000 -1.830690 0.068691 0.177168 1.749648 -0.274100 -5.852654 0.914144 -3.595628 10.339574 0.000000 0.000000 0.000000 5.950431 -0.253859 1.766683 -4.764324 1.622284 -24.673639 -0.382511 9.050589 28.441776 9.219642 -3.784933 -21.776630 0.000000 0.000000 0.000000 -8.547399 -4.037974 0.942183 -54.226885 -0.486325 -8.657381 -9.347135 -30.391868 3.885449 0.000000 0.000000 0.000000 14.642634 -7.502620 -3.881527 59.395151 -3.583794 -9.865915 9.859878 29.593835 4.260654 0.000000 0.000000 0.000000 
-0.016930 0.947975 -0.004225 -0.842542 -8.074514 3.083527 1.367429 0.252630 3.001751 0.162559 0.193013 -5.794437 3.037361 8.127607 8.378823 0.000000 0.000000 0.000000 -1.813571 0.089300 -0.085739 1.803064 -0.272720 -5.714310 1.073628 -3.309872 10.361948 0.000000 0.000000 0.000000 5.951608 -0.255892 1.754454 -4.703475 1.605277 -24.743379 -0.444637 8.783779 28.401297 8.980826 -3.716347 -21.595086 0.000000 0.000000 0.000000 -8.265986 -4.055068 1.008142 -54.431180 -0.861512 -8.512487 -9.330945 -30.475334 3.921181 0.000000 0.000000 0.000000 14.312634 -7.371083 -3.848348 59.376416 -3.607652 -9.870898 10.285377 30.282089 4.461414 0.000000 0.000000 0.000000 
-0.017154 0.948180 -0.004576 -0.786400 -8.208858 3.129054 1.383527 0.234913 2.803675 0.055910 0.199158 -5.754328 3.257573 8.532110 8.524410 0.000000 0.000000 0.000000 -1.800427 0.103109 -0.263210 1.763277 -0.266253 -5.459252 1.253916 -2.924462 10.255231 0.000000 0.000000 0.000000 5.755362 -0.262231 1.874434 -4.483682 1.550917 -24.825084 -0.577191 8.682622 28.412375 8.815644 -3.665660 -21.455539 0.000000 0.000000 0.000000 -7.823560 -3.944770 1.006310 -54.654766 -0.969233 -8.496903 -9.748624 -31.259332 4.167213 0.000000 0.000000 0.000000 14.496380 -7.409678 -3.919617 58.839200 -3.199759 -9.620686 10.668288 30.739461 4.629037 0.000000 0.000000 0.000000 
-0.017521 0.948089 -0.005031 -0.694526 -8.253883 3.090283 1.433076 0.244950 2.927351 -0.171231 0.231038 -6.140424 3.155730 8.357225 8.570697 0.000000 0.000000 0.000000 -2.075000 0.121546 -0.334776 2.009382 -0.269369 -5.064631 1.457209 -2.457155 10.114499 0.000000 0.000000 0.000000 5.895200 -0.277316 2.003088 -4.960619 1.663039 -25.053594 -0.561123 8.366667 28.597334 9.050210 -3.931447 -21.196347 0.000000 0.000000 0.000000 -7.474902 -4.090651 1.128696 -54.274577 -1.242568 -8.336546 -9.588847 -31.458632 4.175803 0.000000 0.000000 0.000000 14.390181 -7.539143 -4.035217 58.592868 -3.212312 -9.621740 10.775202 31.106764 4.694601 0.000000 0.000000 0.000000 
-0.018016 0.948875 -0.005531 -0.720445 -8.145227 3.051789 1.608067 0.216906 2.667002 -0.630743 0.236115 -5.354663 3.211919 8.403737 8.194476 0.000000 0.000000 0.000000 -1.917509 0.144511 -0.732932 2.050949 -0.261121 -4.361424 1.325737 -2.627917 9.947992 0.000000 0.000000 0.000000 6.190646 -0.279543 1.948537 -5.199177 1.722649 -24.355213 -0.704204 8.252700 28.153331 8.845465 -3.791673 -21.227615 0.000000 0.000000 0.000000 -8.158955 -4.218216 1.149910 -53.904592 -1.302432 -8.213951 -9.814373 -32.088369 4.324069 0.000000 0.000000 0.000000 15.320171 -7.660549 -4.213417 57.898208 -2.303457 -9.089599 10.428522 31.894210 4.734598 0.000000 0.000000 0.000000 
-0.018640 0.949211 -0.006007 -0.880495 -8.538138 3.359887 2.007634 0.156413 2.062025 -0.934103 0.252753 -5.109642 3.127206 8.275342 8.548728 0.000000 0.000000 0.000000 -1.950351 0.196968 -1.359637 2.473606 -0.272259 -3.944826 1.039489 -2.975693 9.403211 0.000000 0.000000 0.000000 6.117828 -0.276337 1.876152 -5.151067 1.704458 -24.145124 -1.031556 8.158131 27.754884 9.499334 -4.482561 -19.948328 0.000000 0.000000 0.000000 -7.269962 -3.702382 1.000048 -54.499554 -1.480160 -8.177407 -9.592639 -32.580710 4.367052 0.000000 0.000000 0.000000 15.253618 -7.515253 -4.198218 58.117064 -1.989577 -8.944267 8.532869 32.561259 4.290441 0.000000 0.000000 0.000000 
-0.019332 0.950506 -0.006525 -0.778109 -7.695790 2.423658 2.263398 0.187393 2.496021 -0.907211 0.226728 -4.361677 2.832157 7.859696 8.754867 0.000000 0.000000 0.000000 -1.975940 0.109714 -0.301752 2.544800 -0.278955 -3.631452 1.102954 -2.767335 9.437442 0.000000 0.000000 0.000000 5.946117 -0.302839 2.396576 -4.933926 1.674629 -23.438555 -1.240982 7.894961 27.683116 9.736265 -4.603339 -20.016370 0.000000 0.000000 0.000000 -7.833397 -4.449247 1.256036 -53.772852 -2.454180 -7.673658 -7.490081 -32.513655 3.701390 0.000000 0.000000 0.000000 16.077975 -6.715310 -3.793528 57.199109 -0.570902 -8.216325 6.806564 32.331988 3.795487 0.000000 0.000000 0.000000 
