HIERARCHY
ROOT Hips
{
	OFFSET -0.001795 -0.223333 0.028219
	CHANNELS 6 Xposition Yposition Zposition Zrotation Yrotation Xrotation 
	JOINT LeftUpLeg
	{
		OFFSET 0.069520 -0.091406 -0.006815
		CHANNELS 3 Zrotation Yrotation Xrotation
		JOINT LeftLeg
		{
			OFFSET 0.034277 -0.375199 -0.004496
			CHANNELS 3 Zrotation Yrotation Xrotation
			JOINT LeftFoot
			{
				OFFSET -0.013596 -0.397961 -0.043693
				CHANNELS 3 Zrotation Yrotation Xrotation
				JOINT LeftToe
				{
					OFFSET 0.026358 -0.055791 0.119288
					CHANNELS 3 Zrotation Yrotation Xrotation
					End Site
					{
						OFFSET 0.000000 0.000000 0.000000
					}
				}
			}
		}
	}
	JOINT RightUpLeg
	{
		OFFSET -0.067670 -0.090522 -0.004320
		CHANNELS 3 Zrotation Yrotation Xrotation
		JOINT RightLeg
		{
			OFFSET -0.038290 -0.382569 -0.008850
			CHANNELS 3 Zrotation Yrotation Xrotation
			JOINT RightFoot
			{
				OFFSET 0.015774 -0.398415 -0.042312
				CHANNELS 3 Zrotation Yrotation Xrotation
				JOINT RightToe
				{
					OFFSET -0.025372 -0.048144 0.123348
					CHANNELS 3 Zrotation Yrotation Xrotation
					End Site
					{
						OFFSET 0.000000 0.000000 0.000000
					}
				}
			}
		}
	}
	JOINT Spine
	{
		OFFSET -0.002533 0.108963 -0.026696
		CHANNELS 3 Zrotation Yrotation Xrotation
		JOINT Spine1
		{
			OFFSET 0.005487 0.135180 0.001092
			CHANNELS 3 Zrotation Yrotation Xrotation
			JOINT Spine2
			{
				OFFSET 0.001457 0.052922 0.025425
				CHANNELS 3 Zrotation Yrotation Xrotation
				JOINT Neck
				{
					OFFSET -0.002778 0.213870 -0.042857
					CHANNELS 3 Zrotation Yrotation Xrotation
					JOINT Head
					{
						OFFSET 0.005152 0.064970 0.051349
						CHANNELS 3 Zrotation Yrotation Xrotation
						End Site
						{
							OFFSET 0.000000 0.000000 0.000000
						}
					}
				}
				JOINT LeftShoulder
				{
					OFFSET 0.078845 0.121749 -0.034090
					CHANNELS 3 Zrotation Yrotation Xrotation
					JOINT LeftArm
					{
						OFFSET 0.090977 0.030469 -0.008868
						CHANNELS 3 Zrotation Yrotation Xrotation
						JOINT LeftForeArm
						{
							OFFSET 0.259612 -0.012772 -0.027456
							CHANNELS 3 Zrotation Yrotation Xrotation
							JOINT LeftHand
							{
								OFFSET 0.249234 0.008986 -0.001171
								CHANNELS 3 Zrotation Yrotation Xrotation
								End Site
								{
									OFFSET 0.000000 0.000000 0.000000
								}
							}
						}
					}
				}
				JOINT RightShoulder
				{
					OFFSET -0.081759 0.118833 -0.038615
					CHANNELS 3 Zrotation Yrotation Xrotation
					JOINT RightArm
					{
						OFFSET -0.096012 0.032551 -0.009143
						CHANNELS 3 Zrotation Yrotation Xrotation
						JOINT RightForeArm
						{
							OFFSET -0.253742 -0.013329 -0.021401
							CHANNELS 3 Zrotation Yrotation Xrotation
							JOINT RightHand
							{
								OFFSET -0.255298 0.007772 -0.005559
								CHANNELS 3 Zrotation Yrotation Xrotation
								End Site
								{
									OFFSET 0.000000 0.000000 0.000000
								}
							}
						}
					}
				}
			}
		}
	}
}
MOTION
Frames: 116
Frame Time: 0.050000
0.000000 0.960242 0.000000 0.072146 -4.126261 -5.031167 2.326989 0.847701 10.527974 -3.117733 0.437737 -7.568009 5.947528 14.287047 15.595718 0.000000 0.000000 0.000000 -3.985382 -0.328239 7.011100 4.266432 -0.424175 -3.177340 -4.092661 -13.146395 12.262650 0.000000 0.000000 0.000000 5.671037 -0.810474 9.951925 -6.303223 2.270562 -19.011538 -2.390808 7.029075 26.237125 10.189646 -3.087555 -28.995677 0.000000 0.000000 0.000000 -22.845071 -15.768456 6.323997 -45.741827 -6.508400 -4.704093 -5.405996 -23.377270 1.978339 0.000000 0.000000 0.000000 30.220213 2.521072 1.611624 51.690795 9.456949 -3.934181 6.134421 26.256409 2.714274 0.000000 0.000000 0.000000 
-0.000160 0.959030 0.000458 0.274134 -4.615602 -5.103099 1.941459 0.942521 11.088790 -2.645531 0.429788 -8.426117 6.370395 14.843624 15.178684 0.000000 0.000000 0.000000 -4.029978 -0.286761 6.517629 3.853370 -0.387929 -2.447251 -4.197042 -13.311809 11.911334 0.000000 0.000000 0.000000 5.946527 -0.842564 10.174609 -7.135228 2.522767 -18.814164 -2.599931 7.339688 25.535328 10.602723 -3.113439 -29.977456 0.000000 0.000000 0.000000 -22.004875 -16.058557 6.425780 -46.599190 -6.682492 -4.681151 -4.986942 -22.856862 1.849395 0.000000 0.000000 0.000000 30.274870 2.375126 1.496890 53.265803 8.322458 -4.396663 5.476934 27.610166 2.766622 0.000000 0.000000 0.000000 
-0.000188 0.958631 0.000639 0.282493 -4.483365 -4.850825 2.136663 0.870525 10.510075 -2.948033 0.429850 -7.433839 6.375190 14.843367 14.998550 0.000000 0.000000 0.000000 -4.006600 -0.283468 6.413787 3.566145 -0.370183 -2.850212 -3.620935 -12.455947 12.824183 0.000000 0.000000 0.000000 5.908161 -0.841924 10.117724 -7.095517 2.476329 -19.625541 -2.353334 7.069935 26.211145 10.033051 -2.863569 -30.069809 0.000000 0.000000 0.000000 -22.269996 -16.287637 6.678553 -46.048870 -6.818824 -4.669919 -5.232580 -22.426327 1.864500 0.000000 0.000000 0.000000 30.542176 2.582968 1.577541 52.034012 8.138413 -4.493310 6.690965 27.368022 2.986006 0.000000 0.000000 0.000000 
-0.000238 0.958911 0.000794 0.543636 -4.527780 -5.735882 1.733234 1.031326 11.851244 -2.660623 0.424035 -8.023543 6.473192 15.016309 15.143657 0.000000 0.000000 0.000000 -4.350067 -0.312266 7.372558 3.871431 -0.393736 -3.168088 -4.102216 -13.478001 13.692090 0.000000 0.000000 0.000000 5.969177 -0.906687 11.066902 -7.330569 2.571514 -19.317952 -2.725484 7.165868 26.131434 10.647123 -3.157144 -30.285632 0.000000 0.000000 0.000000 -22.411491 -17.299533 7.211699 -45.477509 -6.422889 -4.724929 -4.765412 -23.154482 1.822528 0.000000 0.000000 0.000000 31.136753 2.858915 1.815576 51.669569 7.928737 -4.599649 6.651549 27.926515 3.053205 0.000000 0.000000 0.000000 
-0.000260 0.959029 0.000874 0.491926 -4.284001 -5.867300 1.833106 1.018700 11.882912 -2.529277 0.409994 -7.706702 6.039885 14.367792 14.917129 0.000000 0.000000 0.000000 -4.207364 -0.338273 7.496792 3.651833 -0.382122 -3.307704 -3.994502 -13.293838 13.825274 0.000000 0.000000 0.000000 5.775501 -0.906612 11.260240 -6.820656 2.446425 -18.733481 -2.959128 6.866576 25.479430 10.399834 -3.159617 -29.453911 0.000000 0.000000 0.000000 -22.445390 -17.207201 7.166070 -45.608414 -6.639238 -4.606396 -5.110586 -23.696370 1.938807 0.000000 0.000000 0.000000 31.083827 3.068047 1.863362 51.511328 7.820355 -4.540342 6.792074 27.678634 3.023096 0.000000 0.000000 0.000000 
-0.000249 0.959390 0.000994 0.525703 -4.352123 -5.962140 1.647711 1.051360 12.025163 -2.286283 0.396442 -7.658761 5.938002 14.188134 14.699794 0.000000 0.000000 0.000000 -4.154416 -0.354393 7.729193 3.660671 -0.383489 -3.546322 -3.960399 -13.262343 13.935584 0.000000 0.000000 0.000000 5.791489 -0.917406 11.408901 -6.830850 2.438157 -19.023858 -2.961228 6.812139 25.734028 10.331731 -3.087179 -29.808986 0.000000 0.000000 0.000000 -22.366713 -17.532645 7.388459 -45.568986 -6.703399 -4.608850 -5.251059 -24.170784 2.011762 0.000000 0.000000 0.000000 31.056758 3.323372 2.011135 51.382333 7.955710 -4.495752 6.726792 27.047913 2.915273 0.000000 0.000000 0.000000 
-0.000239 0.959297 0.001052 0.505539 -4.158689 -5.903904 1.690606 1.030122 11.894517 -2.315284 0.398612 -7.755963 6.027131 14.376257 15.106963 0.000000 0.000000 0.000000 -4.075117 -0.358944 7.610334 3.443157 -0.370558 -3.503844 -3.961912 -13.218101 13.785987 0.000000 0.000000 0.000000 5.771995 -0.920038 11.413160 -6.672879 2.399320 -18.817987 -3.068899 6.636137 25.573847 10.350478 -3.107596 -29.768641 0.000000 0.000000 0.000000 -22.351030 -17.290733 7.255598 -45.707792 -6.722625 -4.604014 -5.497951 -24.854095 2.127993 0.000000 0.000000 0.000000 30.946007 3.301168 1.968377 51.510093 7.901830 -4.497820 6.975586 27.003072 2.963325 0.000000 0.000000 0.000000 
-0.000233 0.959308 0.001089 0.523437 -3.920327 -5.770706 1.645763 1.000566 11.595166 -2.172787 0.386156 -7.599556 6.026544 14.368323 14.863535 0.000000 0.000000 0.000000 -4.039693 -0.361046 7.518048 3.342239 -0.365477 -3.485108 -4.120553 -13.426259 13.551890 0.000000 0.000000 0.000000 5.787483 -0.930866 11.460650 -6.647035 2.393171 -18.880352 -3.130728 6.641288 25.531311 10.460561 -3.157828 -29.671534 0.000000 0.000000 0.000000 -22.141981 -17.413365 7.262163 -45.745254 -6.756178 -4.579409 -5.836391 -25.362865 2.244200 0.000000 0.000000 0.000000 30.715001 3.085166 1.884315 51.725478 7.939612 -4.499229 7.186574 26.747151 2.986329 0.000000 0.000000 0.000000 
-0.000224 0.959352 0.001086 0.561546 -3.822967 -5.738400 1.558080 1.004556 11.575720 -2.068051 0.383227 -7.767142 6.051717 14.437466 15.133851 0.000000 0.000000 0.000000 -4.114583 -0.358677 7.564983 3.246470 -0.360610 -3.603563 -4.013496 -13.254267 13.684755 0.000000 0.000000 0.000000 5.712410 -0.933951 11.555534 -6.597369 2.376812 -18.965586 -3.093525 6.717834 25.555492 10.439051 -3.120292 -29.706250 0.000000 0.000000 0.000000 -22.258300 -17.340529 7.186361 -45.698859 -6.801597 -4.547379 -6.071685 -25.484923 2.304374 0.000000 0.000000 0.000000 30.684133 3.123240 1.966335 51.612587 7.830085 -4.557653 7.208942 26.759869 2.995923 0.000000 0.000000 0.000000 
-0.000216 0.959527 0.001057 0.552068 -3.796994 -5.718819 1.389615 1.008062 11.452400 -1.862286 0.373147 -7.806283 6.129994 14.563236 15.231440 0.000000 0.000000 0.000000 -4.141175 -0.359373 7.611899 3.221769 -0.360883 -3.794887 -3.904589 -13.077076 13.763138 0.000000 0.000000 0.000000 5.782080 -0.951329 11.680839 -6.650368 2.391570 -19.017998 -3.117068 6.913856 25.454450 10.411977 -3.044485 -29.828287 0.000000 0.000000 0.000000 -22.073218 -17.415681 7.142801 -45.753997 -6.658704 -4.578064 -6.268575 -25.676188 2.358343 0.000000 0.000000 0.000000 30.671445 3.057463 2.009104 51.619536 7.677601 -4.636113 7.206635 26.813823 3.010987 0.000000 0.000000 0.000000 
-0.000167 0.959712 0.001024 0.523487 -3.698455 -5.620459 1.452892 0.995554 11.411459 -1.884557 0.376352 -7.937110 6.123169 14.558115 15.205042 0.000000 0.000000 0.000000 -4.156003 -0.360810 7.633412 3.282093 -0.367214 -3.996537 -3.971051 -13.227693 14.017508 0.000000 0.000000 0.000000 5.830067 -0.961566 11.713108 -6.700781 2.403023 -19.161092 -3.054389 6.965108 25.539740 10.390014 -3.007252 -29.890745 0.000000 0.000000 0.000000 -22.067799 -17.473395 7.143776 -45.691674 -6.772569 -4.528394 -6.337901 -25.599795 2.362530 0.000000 0.000000 0.000000 30.716366 2.993848 2.016728 51.427588 7.652507 -4.660965 7.305487 26.658795 3.013960 0.000000 0.000000 0.000000 
-0.000057 0.959899 0.000983 0.513709 -3.597918 -5.539270 1.492582 0.988144 11.401772 -1.856825 0.378887 -8.151936 6.068769 14.502769 15.411597 0.000000 0.000000 0.000000 -4.173669 -0.358105 7.582193 3.304295 -0.370112 -4.088118 -3.879346 -13.095770 14.220316 0.000000 0.000000 0.000000 5.856283 -0.973990 11.796892 -6.687507 2.396548 -19.271391 -3.055587 7.033621 25.521338 10.305604 -2.914860 -30.031738 0.000000 0.000000 0.000000 -21.986074 -17.594715 7.166162 -45.704570 -6.840006 -4.493796 -6.437288 -25.447826 2.364810 0.000000 0.000000 0.000000 30.693996 2.948541 2.039915 51.372222 7.675060 -4.662558 7.206179 26.580979 2.985154 0.000000 0.000000 0.000000 
0.000139 0.960183 0.000916 0.481065 -3.583090 -5.452687 1.501577 0.990349 11.444851 -1.823233 0.381002 -8.328474 6.107255 14.572739 15.544142 0.000000 0.000000 0.000000 -4.216855 -0.354071 7.583313 3.333798 -0.373388 -4.268052 -3.790125 -12.989760 14.490893 0.000000 0.000000 0.000000 5.871704 -0.982819 11.859356 -6.726677 2.400969 -19.456237 -2.978082 7.061250 25.675829 10.369388 -2.903225 -30.321764 0.000000 0.000000 0.000000 -21.999817 -17.624794 7.182117 -45.673941 -6.848971 -4.499292 -6.388926 -25.518890 2.361408 0.000000 0.000000 0.000000 30.670873 2.832508 1.980302 51.383731 7.608992 -4.709169 7.140599 26.605204 2.979375 0.000000 0.000000 0.000000 
0.000376 0.960440 0.000785 0.472970 -3.564317 -5.374233 1.497561 0.989226 11.436990 -1.743946 0.380576 -8.478256 6.130658 14.620846 15.691815 0.000000 0.000000 0.000000 -4.282747 -0.344365 7.514133 3.387420 -0.377195 -4.336283 -3.698866 -12.847452 14.579815 0.000000 0.000000 0.000000 5.849753 -0.992862 11.979495 -6.668232 2.376021 -19.654318 -2.995137 7.079071 25.674937 10.366746 -2.894947 -30.340683 0.000000 0.000000 0.000000 -22.130579 -17.707925 7.229645 -45.577763 -6.742647 -4.523961 -6.496367 -25.517004 2.383721 0.000000 0.000000 0.000000 30.688731 2.811076 1.975809 51.358494 7.537409 -4.741845 6.931154 26.630715 2.937086 0.000000 0.000000 0.000000 
0.000638 0.960588 0.000565 0.427643 -3.581334 -5.252292 1.516329 0.984557 11.406969 -1.690676 0.382733 -8.670841 6.162367 14.679355 15.855742 0.000000 0.000000 0.000000 -4.333154 -0.337008 7.483220 3.486518 -0.383859 -4.491048 -3.647885 -12.793984 14.758819 0.000000 0.000000 0.000000 5.904308 -1.002431 12.004022 -6.687760 2.375504 -19.785897 -2.967154 7.110903 25.675440 10.447976 -2.911899 -30.476175 0.000000 0.000000 0.000000 -22.147079 -17.683725 7.210852 -45.584911 -6.798498 -4.501247 -6.430570 -25.426276 2.359928 0.000000 0.000000 0.000000 30.664871 2.673426 1.890330 51.342759 7.548726 -4.737136 6.849080 26.607106 2.918667 0.000000 0.000000 0.000000 
0.000874 0.960813 0.000223 0.391718 -3.676380 -5.069003 1.498805 0.973981 11.254296 -1.743981 0.387357 -8.744671 6.432925 15.084114 16.065865 0.000000 0.000000 0.000000 -4.414666 -0.317808 7.324354 3.544983 -0.386996 -4.642218 -3.516727 -12.613366 14.938425 0.000000 0.000000 0.000000 5.871614 -1.003855 12.025904 -6.743584 2.379289 -20.024127 -2.918700 7.153099 25.767731 10.363178 -2.852079 -30.594631 0.000000 0.000000 0.000000 -22.277185 -17.803932 7.300872 -45.384067 -6.710683 -4.520395 -6.374673 -25.576470 2.361659 0.000000 0.000000 0.000000 30.747642 2.660799 1.874059 51.369144 7.531996 -4.752109 6.707189 26.785411 2.912249 0.000000 0.000000 0.000000 
0.001097 0.961000 -0.000124 0.386029 -3.685436 -4.973969 1.471577 0.971994 11.206254 -1.767046 0.390734 -8.847110 6.514625 15.206563 16.127908 0.000000 0.000000 0.000000 -4.406052 -0.315216 7.283682 3.477732 -0.383431 -4.729036 -3.508924 -12.597435 14.923641 0.000000 0.000000 0.000000 5.884685 -1.008118 12.039211 -6.811503 2.397122 -20.046270 -2.970777 7.049347 25.745107 10.359533 -2.851603 -30.689041 0.000000 0.000000 0.000000 -22.299623 -17.874330 7.378703 -45.357280 -6.875962 -4.466318 -6.286859 -25.598661 2.347500 0.000000 0.000000 0.000000 30.896492 2.691303 1.847010 51.309084 7.689871 -4.671405 6.565756 26.937306 2.896045 0.000000 0.000000 0.000000 
0.001280 0.961220 -0.000397 0.410513 -3.765541 -4.899752 1.431999 0.975035 11.180175 -1.862845 0.397532 -8.942165 6.734856 15.527813 16.217338 0.000000 0.000000 0.000000 -4.520346 -0.303965 7.305492 3.407875 -0.379738 -4.903511 -3.492865 -12.640263 15.245597 0.000000 0.000000 0.000000 5.812046 -1.008900 12.127690 -6.826535 2.392288 -20.230586 -2.992061 7.119270 25.849376 10.283369 -2.788094 -30.839228 0.000000 0.000000 0.000000 -22.403058 -18.044741 7.484725 -45.225934 -6.975322 -4.427174 -6.277259 -25.711651 2.355219 0.000000 0.000000 0.000000 31.028899 2.708192 1.869087 51.336438 7.697290 -4.687556 6.405550 27.260034 2.906502 0.000000 0.000000 0.000000 
0.001407 0.961491 -0.000589 0.425374 -3.780825 -4.872730 1.368348 0.984805 11.219488 -1.865705 0.402825 -9.163777 6.918124 15.813822 16.527303 0.000000 0.000000 0.000000 -4.553222 -0.305271 7.399531 3.292569 -0.375475 -5.213388 -3.430222 -12.575559 15.452050 0.000000 0.000000 0.000000 5.751055 -1.010847 12.218444 -6.869633 2.404078 -20.234888 -3.038416 7.113381 25.770998 10.290970 -2.775319 -30.944792 0.000000 0.000000 0.000000 -22.499073 -18.097209 7.521477 -45.107833 -6.966919 -4.410986 -6.253454 -25.923507 2.369251 0.000000 0.000000 0.000000 31.192417 2.664064 1.827141 51.298824 7.739131 -4.661721 6.499917 27.512425 2.960683 0.000000 0.000000 0.000000 
0.001474 0.961713 -0.000759 0.426228 -3.816868 -4.837841 1.359469 0.988106 11.238526 -1.839189 0.404614 -9.273555 7.077319 16.052772 16.708159 0.000000 0.000000 0.000000 -4.619860 -0.298729 7.405045 3.269457 -0.375221 -5.395163 -3.482703 -12.701983 15.634495 0.000000 0.000000 0.000000 5.705449 -1.012186 12.287859 -6.863252 2.400780 -20.248410 -3.149163 7.071808 25.686596 10.472295 -2.839761 -31.200427 0.000000 0.000000 0.000000 -22.682113 -18.042473 7.518156 -44.848585 -6.900061 -4.407043 -6.276868 -26.094059 2.390672 0.000000 0.000000 0.000000 31.450668 2.685947 1.813975 51.237123 7.789916 -4.631630 6.321431 27.648838 2.934297 0.000000 0.000000 0.000000 
0.001509 0.961968 -0.000939 0.367413 -3.862854 -4.762409 1.409012 0.978988 11.182502 -1.912407 0.408280 -9.298451 7.195306 16.232693 16.960619 0.000000 0.000000 0.000000 -4.616838 -0.299873 7.453697 3.287115 -0.377764 -5.705277 -3.471872 -12.750761 15.971739 0.000000 0.000000 0.000000 5.625257 -1.006239 12.296271 -6.776134 2.369760 -20.355503 -3.198462 7.191386 25.655851 10.610509 -2.867053 -31.384765 0.000000 0.000000 0.000000 -22.688298 -18.102141 7.522863 -44.775645 -6.808535 -4.422080 -6.216918 -26.410364 2.403940 0.000000 0.000000 0.000000 31.622010 2.562956 1.769268 51.318252 7.673720 -4.697980 6.257638 27.795963 2.947610 0.000000 0.000000 0.000000 
0.001575 0.962302 -0.001098 0.333790 -3.911026 -4.630764 1.377861 0.965717 11.001421 -1.982144 0.409330 -9.210561 7.306873 16.390708 17.040331 0.000000 0.000000 0.000000 -4.568924 -0.295159 7.322921 3.202191 -0.374249 -5.858619 -3.498558 -12.832958 16.152889 0.000000 0.000000 0.000000 5.673113 -1.004295 12.189163 -6.897240 2.399310 -20.436765 -3.229202 7.196550 25.695851 10.824677 -2.910784 -31.849958 0.000000 0.000000 0.000000 -22.751063 -18.133057 7.557662 -44.616985 -6.807432 -4.413628 -6.170446 -26.512889 2.402956 0.000000 0.000000 0.000000 31.810864 2.606575 1.795940 51.325532 7.799359 -4.657052 6.283582 27.684264 2.939398 0.000000 0.000000 0.000000 
0.001721 0.962634 -0.001221 0.309632 -3.962248 -4.573772 1.449015 0.956361 10.959506 -2.072927 0.416816 -9.375904 7.331559 16.436006 17.329646 0.000000 0.000000 0.000000 -4.543390 -0.296727 7.341100 3.157656 -0.373693 -6.127203 -3.456012 -12.826335 16.469617 0.000000 0.000000 0.000000 5.697521 -1.003957 12.151240 -6.988671 2.423384 -20.457653 -3.234890 7.176599 25.687136 10.937937 -2.951453 -32.013857 0.000000 0.000000 0.000000 -22.728227 -18.132020 7.572912 -44.581516 -6.870301 -4.393618 -5.872801 -26.560233 2.339919 0.000000 0.000000 0.000000 31.838466 2.597778 1.767635 51.375329 7.840685 -4.635821 6.232622 27.584358 2.912896 0.000000 0.000000 0.000000 
0.001933 0.962838 -0.001311 0.305168 -4.050859 -4.623453 1.449234 0.958696 10.961441 -2.139978 0.419424 -9.337917 7.348417 16.457084 17.404818 0.000000 0.000000 0.000000 -4.532007 -0.300552 7.424810 3.098110 -0.371040 -6.219361 -3.509924 -12.948227 16.593423 0.000000 0.000000 0.000000 5.732092 -1.014265 12.269024 -6.997701 2.423240 -20.561969 -3.263198 7.174722 25.727304 10.956597 -2.903767 -32.432470 0.000000 0.000000 0.000000 -22.788645 -17.952207 7.494506 -44.440717 -6.964698 -4.360764 -5.880397 -26.681177 2.355848 0.000000 0.000000 0.000000 32.001665 2.656151 1.785625 51.114049 8.052259 -4.541231 6.296572 27.409920 2.896749 0.000000 0.000000 0.000000 
0.002144 0.963037 -0.001432 0.332524 -4.047443 -4.645388 1.454233 0.963512 11.018021 -2.225812 0.422819 -9.342613 7.323829 16.424506 17.429460 0.000000 0.000000 0.000000 -4.548845 -0.300442 7.447091 3.027623 -0.369563 -6.401163 -3.538966 -13.025495 16.757294 0.000000 0.000000 0.000000 5.770436 -1.022656 12.333036 -7.027975 2.431857 -20.576939 -3.223981 7.131386 25.675981 10.984735 -2.896402 -32.609170 0.000000 0.000000 0.000000 -22.904033 -17.953497 7.513104 -44.203763 -6.990679 -4.327370 -5.880135 -26.648772 2.351505 0.000000 0.000000 0.000000 32.179346 2.770934 1.843821 50.733866 8.286838 -4.423160 6.353942 27.118540 2.858895 0.000000 0.000000 0.000000 
0.002306 0.963139 -0.001651 0.337295 -4.046181 -4.720636 1.556019 0.965282 11.136333 -2.370736 0.429168 -9.381125 7.279775 16.369027 17.518054 0.000000 0.000000 0.000000 -4.702938 -0.291299 7.519352 3.127737 -0.374509 -6.495140 -3.539517 -13.061154 16.947592 0.000000 0.000000 0.000000 5.768750 -1.035744 12.512655 -7.032691 2.431705 -20.644201 -3.186284 7.085508 25.639700 11.008996 -2.845291 -33.035984 0.000000 0.000000 0.000000 -22.809626 -17.811362 7.436727 -44.146143 -7.113130 -4.286251 -6.035551 -26.620474 2.385744 0.000000 0.000000 0.000000 32.284204 2.780945 1.830407 50.389905 8.553569 -4.297149 6.438405 26.873216 2.837000 0.000000 0.000000 0.000000 
0.002410 0.963237 -0.001965 0.364974 -4.089487 -4.780169 1.538242 0.974630 11.206401 -2.432209 0.430998 -9.325726 7.234331 16.298056 17.446700 0.000000 0.000000 0.000000 -4.811306 -0.281830 7.530174 3.219450 -0.378453 -6.560650 -3.470464 -12.974881 17.049670 0.000000 0.000000 0.000000 5.781504 -1.042355 12.601404 -7.034443 2.426717 -20.783962 -3.107063 7.083338 25.752146 10.988033 -2.828289 -33.136925 0.000000 0.000000 0.000000 -22.763665 -17.777057 7.430335 -43.941834 -7.168511 -4.264774 -6.198202 -26.555418 2.416807 0.000000 0.000000 0.000000 32.367170 2.909496 1.910733 50.040726 8.846403 -4.176489 6.478718 26.674738 2.811794 0.000000 0.000000 0.000000 
0.002512 0.963282 -0.002332 0.396242 -4.151170 -4.745989 1.554503 0.962089 11.067417 -2.529568 0.433228 -9.199639 7.219436 16.267968 17.412829 0.000000 0.000000 0.000000 -4.922365 -0.263636 7.397584 3.284813 -0.380260 -6.561354 -3.429208 -12.945830 17.213835 0.000000 0.000000 0.000000 5.777760 -1.047547 12.675094 -7.064855 2.431758 -20.838573 -2.988805 7.039791 25.605624 10.954542 -2.778336 -33.377985 0.000000 0.000000 0.000000 -22.770267 -17.786067 7.457212 -43.734388 -7.215888 -4.223221 -6.362871 -26.363739 2.435275 0.000000 0.000000 0.000000 32.355036 3.085298 1.988870 49.635988 9.032466 -4.059881 6.689919 26.453631 2.813379 0.000000 0.000000 0.000000 
0.002606 0.963257 -0.002679 0.443729 -4.324712 -4.739803 1.557611 0.968036 11.087287 -2.576803 0.437079 -9.207770 7.255429 16.305792 17.439388 0.000000 0.000000 0.000000 -5.094795 -0.240656 7.327958 3.429444 -0.383917 -6.560624 -3.355309 -12.855595 17.253568 0.000000 0.000000 0.000000 5.732897 -1.057136 12.883977 -7.039061 2.413009 -21.050083 -2.925796 7.095576 25.579931 10.924137 -2.740432 -33.559676 0.000000 0.000000 0.000000 -22.745385 -17.802615 7.482616 -43.602968 -7.347952 -4.170265 -6.495964 -26.144595 2.443817 0.000000 0.000000 0.000000 32.444938 3.206470 2.047786 49.280523 9.229667 -3.961842 6.744616 26.393981 2.807683 0.000000 0.000000 0.000000 
0.002691 0.963077 -0.003014 0.440917 -4.495406 -4.693706 1.549611 0.973417 11.094802 -2.485036 0.434187 -9.163922 7.318515 16.383586 17.499461 0.000000 0.000000 0.000000 -5.157753 -0.223062 7.163554 3.522972 -0.385250 -6.482410 -3.373106 -12.913069 17.295483 0.000000 0.000000 0.000000 5.695003 -1.063772 13.038170 -6.936415 2.373606 -21.227024 -2.863137 7.173780 25.449062 11.009713 -2.736523 -33.835272 0.000000 0.000000 0.000000 -22.762374 -17.823227 7.500466 -43.387725 -7.351065 -4.140789 -6.684177 -25.725144 2.441830 0.000000 0.000000 0.000000 32.562141 3.351508 2.131627 48.829560 9.359395 -3.881394 6.733109 26.198139 2.767192 0.000000 0.000000 0.000000 
0.002750 0.963004 -0.003326 0.437123 -4.613749 -4.611563 1.547345 0.962070 10.941991 -2.472841 0.432833 -9.059054 7.441096 16.552411 17.647216 0.000000 0.000000 0.000000 -5.230853 -0.202171 6.920729 3.611102 -0.386786 -6.337162 -3.377861 -12.948620 17.366410 0.000000 0.000000 0.000000 5.736323 -1.069008 13.054052 -6.882892 2.351314 -21.340456 -2.788277 7.282170 25.437754 11.062372 -2.721064 -34.050481 0.000000 0.000000 0.000000 -22.761424 -17.925466 7.550357 -43.404502 -7.393820 -4.123092 -6.717457 -25.448580 2.420361 0.000000 0.000000 0.000000 32.565096 3.521029 2.264645 48.503052 9.599100 -3.779040 6.533635 26.068464 2.700417 0.000000 0.000000 0.000000 
0.002764 0.963183 -0.003622 0.421813 -4.732448 -4.435724 1.471284 0.949038 10.707166 -2.496633 0.433392 -8.980140 7.558704 16.710610 17.791182 0.000000 0.000000 0.000000 -5.222589 -0.187611 6.685565 3.571296 -0.383497 -6.305646 -3.143543 -12.628305 17.591399 0.000000 0.000000 0.000000 5.721896 -1.075311 13.130199 -6.946442 2.353710 -21.655109 -2.603115 7.330866 25.438703 11.014441 -2.684774 -34.146223 0.000000 0.000000 0.000000 -22.769424 -17.875082 7.535698 -43.274209 -7.451880 -4.094244 -6.820874 -24.972383 2.394536 0.000000 0.000000 0.000000 32.637320 3.639703 2.330114 48.045662 9.687587 -3.722130 6.583065 25.901455 2.678023 0.000000 0.000000 0.000000 
0.002782 0.963545 -0.003874 0.411332 -4.822212 -4.276715 1.352019 0.938107 10.468275 -2.411445 0.428281 -8.889038 7.563401 16.700594 17.743653 0.000000 0.000000 0.000000 -5.149839 -0.179702 6.456694 3.471839 -0.378120 -6.245821 -2.980385 -12.393222 17.672591 0.000000 0.000000 0.000000 5.672904 -1.074785 13.165929 -6.886490 2.323987 -21.932771 -2.407766 7.466383 25.572886 11.136683 -2.725608 -34.227655 0.000000 0.000000 0.000000 -22.904910 -17.821320 7.499970 -43.038287 -7.476727 -4.069384 -6.969244 -24.654937 2.391450 0.000000 0.000000 0.000000 32.727117 3.702145 2.406888 47.383356 9.948123 -3.623558 6.628507 25.856729 2.673530 0.000000 0.000000 0.000000 
0.002773 0.963886 -0.004092 0.413307 -4.656450 -4.132949 1.347286 0.912875 10.235373 -2.339173 0.422908 -8.842855 7.527556 16.669561 17.940373 0.000000 0.000000 0.000000 -5.090076 -0.176464 6.231426 3.246225 -0.370249 -6.190086 -2.848154 -12.201570 17.882659 0.000000 0.000000 0.000000 5.588839 -1.078692 13.258066 -6.787874 2.294314 -22.055505 -2.375049 7.447080 25.417862 11.128886 -2.714691 -34.163099 0.000000 0.000000 0.000000 -23.102603 -17.793755 7.462915 -42.562865 -7.403987 -4.023673 -7.133942 -24.238686 2.376650 0.000000 0.000000 0.000000 32.875726 3.742141 2.465149 46.752495 9.918788 -3.610760 6.698775 25.676915 2.655257 0.000000 0.000000 0.000000 
0.002723 0.964410 -0.004271 0.373268 -4.469386 -4.015818 1.362630 0.902805 10.189618 -2.241322 0.420173 -9.009326 7.441815 16.568910 18.071203 0.000000 0.000000 0.000000 -5.017851 -0.187927 6.287681 3.023996 -0.364629 -6.413584 -2.594543 -11.819904 18.135823 0.000000 0.000000 0.000000 5.582545 -1.080952 13.224536 -6.805591 2.298801 -22.138765 -2.231281 7.427226 25.422607 11.177673 -2.714785 -34.223517 0.000000 0.000000 0.000000 -23.160785 -17.687360 7.374316 -42.303453 -7.287573 -4.028616 -6.972877 -23.881107 2.302264 0.000000 0.000000 0.000000 32.935533 3.553936 2.369994 46.190747 9.883168 -3.616121 6.962156 25.873405 2.733482 0.000000 0.000000 0.000000 
0.002620 0.964839 -0.004503 0.352669 -4.217563 -3.897446 1.277102 0.886465 9.998676 -2.139123 0.413724 -9.020559 7.434306 16.581688 18.175261 0.000000 0.000000 0.000000 -4.838342 -0.199838 6.146927 2.800235 -0.357757 -6.392262 -2.505700 -11.666549 18.251730 0.000000 0.000000 0.000000 5.601949 -1.099575 13.346170 -6.767699 2.283743 -22.382036 -2.230585 7.553652 25.447837 11.314570 -2.779029 -34.002418 0.000000 0.000000 0.000000 -23.522467 -17.562198 7.226882 -41.525581 -6.983673 -4.023345 -6.812939 -23.532267 2.221816 0.000000 0.000000 0.000000 33.227097 3.370813 2.367804 45.659941 9.772589 -3.683187 6.961864 26.057336 2.760420 0.000000 0.000000 0.000000 
0.002512 0.965331 -0.004827 0.303863 -3.946829 -3.773196 1.281440 0.858941 9.768407 -2.104481 0.410454 -9.054820 7.443431 16.621691 18.303356 0.000000 0.000000 0.000000 -4.631228 -0.218241 6.099649 2.623186 -0.354709 -6.564220 -2.488222 -11.673904 18.624952 0.000000 0.000000 0.000000 5.544233 -1.108694 13.450204 -6.637487 2.250073 -22.456879 -2.166874 7.390743 25.418745 11.212547 -2.747085 -33.891399 0.000000 0.000000 0.000000 -24.099150 -17.447236 7.186999 -40.690943 -6.885928 -3.961571 -6.414560 -23.064651 2.091861 0.000000 0.000000 0.000000 33.336364 3.268547 2.289064 45.156239 9.650887 -3.702938 7.044326 26.130151 2.778996 0.000000 0.000000 0.000000 
0.002415 0.965688 -0.005228 0.234984 -3.744050 -3.633197 1.349299 0.812630 9.369913 -2.058038 0.404962 -8.977515 7.542128 16.792049 18.719652 0.000000 0.000000 0.000000 -4.473396 -0.219064 5.826756 2.513669 -0.350593 -6.450331 -2.388608 -11.515351 18.772145 0.000000 0.000000 0.000000 5.600736 -1.133364 13.593626 -6.682941 2.258422 -22.640267 -2.153916 7.330268 25.432889 11.368890 -2.823516 -33.877012 0.000000 0.000000 0.000000 -24.339441 -17.486032 7.201511 -40.375665 -6.726729 -3.972715 -6.305862 -22.779548 2.040097 0.000000 0.000000 0.000000 33.435485 3.093025 2.188504 44.862700 9.585565 -3.724981 7.311186 26.200891 2.844078 0.000000 0.000000 0.000000 
0.002410 0.965952 -0.005659 0.159819 -3.517436 -3.558878 1.266934 0.797806 9.187826 -1.971963 0.400075 -9.025639 7.648029 16.965537 18.952780 0.000000 0.000000 0.000000 -4.355432 -0.227848 5.751869 2.472166 -0.351857 -6.524272 -2.552418 -11.791086 19.025866 0.000000 0.000000 0.000000 5.514816 -1.147198 13.807076 -6.672407 2.254827 -22.690444 -2.149682 7.095480 25.342900 11.276481 -2.763778 -34.023145 0.000000 0.000000 0.000000 -24.518593 -17.270488 7.105099 -40.015419 -6.638425 -3.960900 -6.231116 -22.642080 2.011360 0.000000 0.000000 0.000000 33.602998 2.874059 1.987506 44.690141 9.547423 -3.715999 7.379603 26.181523 2.854471 0.000000 0.000000 0.000000 
0.002462 0.966228 -0.006046 0.084709 -3.277743 -3.661371 1.177173 0.791019 9.084202 -1.815265 0.391398 -9.006999 7.990703 17.467449 19.228416 0.000000 0.000000 0.000000 -4.147320 -0.252313 5.807277 2.313376 -0.349184 -6.637298 -2.717906 -12.059111 19.245064 0.000000 0.000000 0.000000 5.526005 -1.182044 14.182596 -6.693704 2.268617 -22.612043 -2.128519 6.839692 25.376134 11.228876 -2.833333 -33.603896 0.000000 0.000000 0.000000 -24.782846 -17.444704 7.257849 -39.776856 -6.589397 -3.962037 -5.954804 -22.758128 1.968402 0.000000 0.000000 0.000000 33.663328 2.949663 1.996240 44.624637 9.463131 -3.735462 7.502292 26.533996 2.923511 0.000000 0.000000 0.000000 
0.002589 0.966275 -0.006370 0.041359 -3.164318 -3.667849 1.052800 0.782334 8.907289 -1.740928 0.383557 -8.836561 8.170464 17.724956 19.370405 0.000000 0.000000 0.000000 -4.036992 -0.260516 5.765724 2.191120 -0.346482 -6.706744 -2.799120 -12.195582 19.375930 0.000000 0.000000 0.000000 5.523995 -1.205640 14.444452 -6.603754 2.248388 -22.565186 -2.166338 6.888333 25.458217 11.314626 -2.847538 -33.714757 0.000000 0.000000 0.000000 -24.762512 -17.615119 7.320896 -39.700963 -6.723874 -3.913426 -6.007510 -22.834861 1.982792 0.000000 0.000000 0.000000 33.884680 2.830667 1.966468 44.358960 9.557057 -3.720977 7.773890 26.628655 2.996866 0.000000 0.000000 0.000000 
0.002703 0.966429 -0.006665 0.007807 -3.220090 -3.714479 0.834728 0.789929 8.802094 -1.611962 0.378344 -8.820182 8.468963 18.129008 19.617132 0.000000 0.000000 0.000000 -4.019471 -0.250241 5.573467 2.234728 -0.345503 -6.554473 -2.872595 -12.329834 19.433926 0.000000 0.000000 0.000000 5.480497 -1.250120 15.079596 -6.601787 2.240222 -22.783600 -2.097419 6.860987 25.637367 11.329934 -2.872655 -33.728724 0.000000 0.000000 0.000000 -24.719697 -17.902922 7.521614 -39.731652 -7.000504 -3.857933 -5.806011 -22.896188 1.949796 0.000000 0.000000 0.000000 33.873754 3.009664 2.075127 44.227320 9.648371 -3.694040 7.969349 26.643489 3.035635 0.000000 0.000000 0.000000 
0.002813 0.966288 -0.006986 -0.006552 -3.382528 -3.718030 0.769867 0.771936 8.530354 -1.643291 0.374204 -8.543686 8.581452 18.262067 19.528429 0.000000 0.000000 0.000000 -3.987329 -0.241320 5.429752 2.231937 -0.342779 -6.482196 -2.864257 -12.332767 19.398958 0.000000 0.000000 0.000000 5.420206 -1.284840 15.660340 -6.476600 2.205656 -22.821110 -2.154169 6.865385 25.634775 11.421492 -2.885251 -34.021008 0.000000 0.000000 0.000000 -24.625025 -18.056233 7.642306 -39.784092 -7.221552 -3.809689 -6.122422 -23.236554 2.046553 0.000000 0.000000 0.000000 33.953418 3.249129 2.207124 44.169078 9.803875 -3.627417 8.236443 26.821739 3.112924 0.000000 0.000000 0.000000 
0.002874 0.966290 -0.007177 -0.017198 -3.534388 -3.785231 0.696292 0.779411 8.527966 -1.552845 0.371570 -8.552023 8.727371 18.446868 19.580907 0.000000 0.000000 0.000000 -3.957436 -0.233466 5.291174 2.268049 -0.342061 -6.409770 -2.934644 -12.463038 19.385788 0.000000 0.000000 0.000000 5.292233 -1.341091 16.661345 -6.464122 2.191438 -23.113171 -2.068858 6.821474 25.610488 11.379102 -2.845202 -34.270352 0.000000 0.000000 0.000000 -24.433020 -18.330969 7.839988 -40.050710 -7.353879 -3.812277 -6.368248 -23.669930 2.140639 0.000000 0.000000 0.000000 33.862980 3.497034 2.322200 44.252568 9.922326 -3.569060 8.570280 26.968258 3.200613 0.000000 0.000000 0.000000 
0.002944 0.966179 -0.007123 -0.025350 -3.875239 -3.840702 0.592346 0.803289 8.644628 -1.436521 0.373334 -8.723367 8.810234 18.529884 19.607788 0.000000 0.000000 0.000000 -3.907537 -0.236046 5.365488 2.244982 -0.342456 -6.673485 -2.888712 -12.454252 19.460599 0.000000 0.000000 0.000000 5.245380 -1.373169 17.291501 -6.419546 2.168247 -23.219010 -2.096920 6.985210 25.638807 11.555000 -2.886121 -34.590966 0.000000 0.000000 0.000000 -24.147403 -18.637948 8.016010 -40.200292 -7.550407 -3.776354 -6.834381 -24.067250 2.275008 0.000000 0.000000 0.000000 34.056208 3.766998 2.511438 44.125415 10.068025 -3.522303 8.832216 26.934095 3.250203 0.000000 0.000000 0.000000 
0.003054 0.966095 -0.006796 -0.069978 -4.201829 -3.878089 0.375733 0.836601 8.773636 -1.206497 0.368342 -8.806252 8.904171 18.631821 19.656097 0.000000 0.000000 0.000000 -3.730452 -0.243281 5.359103 2.205402 -0.340153 -6.795673 -2.885658 -12.490017 19.427604 0.000000 0.000000 0.000000 5.212801 -1.417057 18.074834 -6.328989 2.133217 -23.421410 -2.107567 7.067424 25.695177 11.479822 -2.811953 -34.908826 0.000000 0.000000 0.000000 -23.891365 -19.006695 8.255289 -40.454487 -7.772591 -3.749145 -7.121521 -24.394366 2.371801 0.000000 0.000000 0.000000 34.110891 4.113672 2.719357 44.199160 10.090843 -3.509236 8.989815 26.952528 3.282452 0.000000 0.000000 0.000000 
0.003252 0.966270 -0.006262 -0.090665 -4.414966 -3.755123 0.242364 0.852519 8.804052 -1.019723 0.372591 -9.156522 8.882290 18.582511 19.712012 0.000000 0.000000 0.000000 -3.610795 -0.246098 5.338422 2.178944 -0.342386 -7.141759 -2.899816 -12.571827 19.595177 0.000000 0.000000 0.000000 5.242673 -1.448804 18.506796 -6.297405 2.120464 -23.412895 -2.124194 7.070585 25.730253 11.602599 -2.819410 -35.324950 0.000000 0.000000 0.000000 -23.573246 -19.474718 8.549074 -40.779867 -8.106064 -3.686708 -7.332161 -24.690442 2.451287 0.000000 0.000000 0.000000 34.032609 4.396787 2.875385 44.390930 10.243946 -3.448814 8.753560 26.816814 3.207301 0.000000 0.000000 0.000000 
0.003546 0.966352 -0.005608 -0.114877 -4.367775 -3.467828 0.200814 0.856188 8.818765 -0.864038 0.376939 -9.487750 8.867585 18.565749 19.865007 0.000000 0.000000 0.000000 -3.589274 -0.228098 5.042633 2.117788 -0.341901 -7.240180 -2.933296 -12.668453 19.885277 0.000000 0.000000 0.000000 5.187528 -1.499648 19.231946 -6.217938 2.089862 -23.703206 -2.201767 6.762388 25.853849 11.446887 -2.751246 -35.547624 0.000000 0.000000 0.000000 -23.395707 -19.832009 8.847899 -40.966686 -8.591667 -3.587216 -7.445411 -24.891011 2.506336 0.000000 0.000000 0.000000 33.992153 4.681211 2.965700 44.514571 10.279276 -3.414677 8.800302 26.802021 3.209599 0.000000 0.000000 0.000000 
0.003952 0.966660 -0.004919 -0.160908 -4.456836 -3.172768 0.110909 0.844196 8.624604 -0.583642 0.371104 -9.594970 8.893714 18.587641 19.846468 0.000000 0.000000 0.000000 -3.633411 -0.203774 4.752983 2.217913 -0.346766 -7.423975 -2.917545 -12.704081 20.156065 0.000000 0.000000 0.000000 5.218171 -1.547677 19.804757 -6.066727 2.050455 -23.662221 -2.396642 6.606430 25.871463 11.490550 -2.740677 -35.940905 0.000000 0.000000 0.000000 -23.226775 -20.190650 9.117308 -41.040556 -9.019353 -3.481414 -7.290265 -25.230445 2.514589 0.000000 0.000000 0.000000 34.158800 5.052534 3.153864 44.440525 10.591900 -3.284924 8.225545 26.629516 3.047947 0.000000 0.000000 0.000000 
0.004495 0.967034 -0.004240 -0.191935 -4.483397 -2.824142 0.070219 0.828060 8.435252 -0.475143 0.377821 -9.877659 8.837302 18.507446 20.247301 0.000000 0.000000 0.000000 -3.733844 -0.177918 4.491449 2.336421 -0.352219 -7.601868 -2.740224 -12.500790 20.518431 0.000000 0.000000 0.000000 5.227044 -1.610038 20.576861 -6.088080 2.048754 -23.782682 -2.417775 6.380862 25.823074 11.479181 -2.779041 -35.897316 0.000000 0.000000 0.000000 -23.326644 -20.595312 9.447130 -40.770071 -9.256936 -3.400641 -7.417707 -25.490670 2.573353 0.000000 0.000000 0.000000 34.257677 5.414618 3.311295 44.319384 10.854112 -3.155838 8.006802 26.502020 2.969741 0.000000 0.000000 0.000000 
0.005265 0.967446 -0.003530 -0.241645 -4.386145 -2.389084 0.022904 0.798117 8.123777 -0.411075 0.378374 -9.965526 8.808801 18.471837 20.278661 0.000000 0.000000 0.000000 -3.825361 -0.135132 3.912681 2.600047 -0.359465 -7.496829 -2.744896 -12.506102 20.600116 0.000000 0.000000 0.000000 5.144027 -1.638608 21.016645 -5.882794 1.995100 -23.731212 -2.627907 6.195484 25.878638 11.771128 -2.897062 -36.163157 0.000000 0.000000 0.000000 -23.125814 -20.890484 9.649265 -40.659669 -9.727751 -3.263453 -7.117577 -25.695684 2.529473 0.000000 0.000000 0.000000 34.335440 5.638783 3.427865 44.243986 11.136095 -3.048273 7.306493 26.329792 2.789382 0.000000 0.000000 0.000000 
0.006385 0.967542 -0.002780 -0.233123 -4.067512 -1.815019 -0.025012 0.734780 7.506216 -0.509268 0.381284 -10.018951 9.066696 18.837471 20.667196 0.000000 0.000000 0.000000 -3.961628 -0.077845 3.107076 2.732665 -0.362919 -7.183187 -3.039268 -12.881554 20.464293 0.000000 0.000000 0.000000 5.141964 -1.734282 22.025079 -5.880895 1.982681 -24.206105 -2.772524 6.001224 26.255509 12.111890 -3.082253 -36.177687 0.000000 0.000000 0.000000 -23.251888 -21.614261 10.117038 -40.033369 -10.250307 -3.087862 -6.767761 -25.834442 2.458818 0.000000 0.000000 0.000000 34.300923 5.951227 3.676822 44.018354 11.643549 -2.905173 6.567964 26.324046 2.626685 0.000000 0.000000 0.000000 
0.008000 0.967510 -0.002161 -0.143186 -3.942108 -1.245869 -0.230933 0.681494 6.860501 -0.400031 0.378781 -10.067626 9.275838 19.113371 20.989392 0.000000 0.000000 0.000000 -4.264177 -0.011712 2.328699 2.906607 -0.365818 -6.806857 -3.178242 -13.010332 20.092581 0.000000 0.000000 0.000000 5.094857 -1.807126 22.969971 -5.882564 1.982986 -24.079575 -3.075569 5.998337 26.170865 12.416765 -3.192625 -36.288688 0.000000 0.000000 0.000000 -22.828753 -22.226165 10.400685 -39.610532 -11.346076 -2.720117 -6.226822 -25.463632 2.291793 0.000000 0.000000 0.000000 34.142956 6.345566 4.002005 43.956741 12.232801 -2.703256 5.382796 26.278035 2.362611 0.000000 0.000000 0.000000 
0.010136 0.967340 -0.001979 -0.112849 -3.615456 -0.668045 -0.375873 0.610566 6.103656 -0.399598 0.371786 -9.934476 9.331699 19.207738 21.388596 0.000000 0.000000 0.000000 -4.465906 0.048017 1.492148 2.938305 -0.365084 -6.338779 -3.483902 -13.396866 19.885797 0.000000 0.000000 0.000000 4.992368 -1.929848 24.617459 -5.921571 1.977174 -24.673576 -3.145426 5.845279 26.550514 12.620056 -3.296010 -36.352432 0.000000 0.000000 0.000000 -23.243778 -23.131916 10.995288 -38.622132 -12.205867 -2.430717 -5.387160 -25.182410 2.069974 0.000000 0.000000 0.000000 34.131247 6.847229 4.410735 43.482432 13.230215 -2.398595 4.123116 26.032244 2.060816 0.000000 0.000000 0.000000 
0.012552 0.967397 -0.002452 -0.013075 -3.268870 -0.007858 -0.644061 0.525005 5.138390 -0.366342 0.369280 -9.943837 9.503694 19.454633 21.793561 0.000000 0.000000 0.000000 -4.685137 0.121157 0.412875 3.002443 -0.362914 -5.575443 -3.742365 -13.721568 19.730133 0.000000 0.000000 0.000000 4.899482 -2.041096 26.039894 -5.830635 1.956224 -24.592923 -3.246351 5.589891 26.517374 12.816943 -3.299503 -36.883172 0.000000 0.000000 0.000000 -23.206905 -23.918621 11.481015 -38.097825 -13.544789 -2.018268 -4.174484 -24.224039 1.726979 0.000000 0.000000 0.000000 33.833867 7.494666 4.847702 42.972844 14.137723 -2.067696 2.426396 25.889226 1.676156 0.000000 0.000000 0.000000 
0.014662 0.967709 -0.003186 0.094051 -2.897921 0.819298 -0.837238 0.419481 4.027288 -0.490358 0.371772 -9.983764 9.415201 19.367681 22.184205 0.000000 0.000000 0.000000 -4.938836 0.206154 -0.874840 3.072604 -0.363282 -5.044986 -3.947372 -13.960334 19.571757 0.000000 0.000000 0.000000 4.826683 -2.198705 27.934911 -5.973727 1.966968 -25.275289 -3.071127 5.571294 26.930534 13.206900 -3.496210 -36.837385 0.000000 0.000000 0.000000 -23.707244 -25.311132 12.359938 -36.888194 -14.813155 -1.634423 -2.885227 -23.350041 1.388116 0.000000 0.000000 0.000000 33.629126 7.845649 5.211661 42.393527 15.433635 -1.707360 1.095936 25.646118 1.382035 0.000000 0.000000 0.000000 
0.016201 0.968553 -0.003606 0.168008 -2.619726 1.918060 -1.077134 0.308025 2.842255 -0.348980 0.379289 -10.358776 9.378751 19.339577 22.795399 0.000000 0.000000 0.000000 -5.139584 0.289024 -2.123377 3.090327 -0.365765 -5.098514 -3.983478 -14.016189 19.881790 0.000000 0.000000 0.000000 4.811047 -2.342085 29.413364 -5.874830 1.941971 -25.049243 -3.283297 5.460495 26.683349 13.674724 -3.727332 -36.678233 0.000000 0.000000 0.000000 -23.838938 -25.982401 12.790993 -35.980851 -16.201710 -1.221236 -1.844011 -22.188517 1.112146 0.000000 0.000000 0.000000 33.895176 8.324589 5.601873 41.379234 16.546274 -1.347400 -0.067289 25.624028 1.128384 0.000000 0.000000 0.000000 
0.017201 0.969214 -0.003291 0.296420 -2.219753 3.102599 -1.114601 0.166700 1.443982 -0.502568 0.382669 -10.438441 9.431558 19.442237 23.336643 0.000000 0.000000 0.000000 -5.306681 0.381278 -3.604427 3.069666 -0.364577 -4.926499 -4.308328 -14.479382 20.075719 0.000000 0.000000 0.000000 4.866549 -2.532703 31.018896 -6.096477 1.967442 -25.694832 -3.156096 5.488605 27.149734 13.813935 -3.795992 -36.574766 0.000000 0.000000 0.000000 -24.153613 -27.085650 13.489739 -34.948576 -17.290084 -0.946877 -0.798396 -21.476476 0.874518 0.000000 0.000000 0.000000 33.703006 8.679289 5.988292 40.615222 17.447535 -1.147249 -0.817034 25.922117 0.986338 0.000000 0.000000 0.000000 
0.017707 0.969696 -0.002351 0.362645 -2.125332 4.007259 -1.204587 0.069348 0.459046 -0.307932 0.386922 -10.686962 9.351055 19.351417 23.879916 0.000000 0.000000 0.000000 -5.346759 0.456932 -4.822265 3.087305 -0.363798 -4.791337 -4.149978 -14.227582 20.119767 0.000000 0.000000 0.000000 4.747590 -2.625260 32.400090 -5.925008 1.924346 -25.548162 -3.284964 5.626483 26.977718 14.131564 -3.865703 -36.701889 0.000000 0.000000 0.000000 -23.774968 -27.470601 13.610799 -34.687827 -18.168468 -0.700785 -0.128033 -20.932405 0.730787 0.000000 0.000000 0.000000 33.599901 9.144926 6.415634 39.860872 18.477300 -0.851046 -1.641168 25.965547 0.809650 0.000000 0.000000 0.000000 
0.017841 0.969898 -0.001013 0.177561 -2.417880 4.942076 -1.225877 -0.061503 -0.824228 0.011526 0.375433 -10.477542 9.743232 19.795713 24.354323 0.000000 0.000000 0.000000 -5.185391 0.530420 -5.871454 3.233070 -0.370520 -5.004421 -4.114572 -14.269831 20.508302 0.000000 0.000000 0.000000 4.777450 -2.707672 33.524460 -6.067903 1.934468 -25.768323 -2.995787 5.910612 27.124356 13.852995 -3.706606 -36.707969 0.000000 0.000000 0.000000 -24.346760 -27.836146 13.941361 -33.758981 -18.622934 -0.604768 0.510066 -20.786080 0.609746 0.000000 0.000000 0.000000 33.857276 9.262507 6.599955 38.743414 18.768925 -0.843935 -1.830019 26.352453 0.775057 0.000000 0.000000 0.000000 
0.017419 0.969983 0.000788 0.107794 -2.580333 5.773216 -1.177276 -0.159436 -1.786870 0.137830 0.367823 -10.314905 9.696803 19.717901 24.273377 0.000000 0.000000 0.000000 -5.073698 0.600472 -6.876672 3.166030 -0.363676 -4.904016 -3.982106 -14.086727 20.438530 0.000000 0.000000 0.000000 4.818850 -2.781873 34.379179 -6.127116 1.936361 -25.753761 -3.013659 5.704209 26.781961 13.969689 -3.900898 -36.105482 0.000000 0.000000 0.000000 -24.972061 -27.790523 14.163023 -32.818721 -18.748532 -0.602172 0.796702 -20.413546 0.550385 0.000000 0.000000 0.000000 34.434550 9.799664 6.899811 37.105363 18.664662 -0.876973 -1.447850 27.143170 0.848611 0.000000 0.000000 0.000000 
0.016611 0.969651 0.003145 0.020363 -2.741411 6.452483 -0.950721 -0.233487 -2.518280 0.086599 0.367183 -10.236987 9.877663 19.915611 24.638728 0.000000 0.000000 0.000000 -4.967691 0.656331 -7.633181 3.261942 -0.367182 -4.969963 -3.891939 -14.018942 20.749263 0.000000 0.000000 0.000000 4.941344 -2.873992 35.127733 -6.190794 1.932975 -25.983955 -3.002564 5.567578 26.852012 13.710193 -3.860354 -35.789134 0.000000 0.000000 0.000000 -25.194820 -27.931518 14.408373 -32.163897 -19.166811 -0.549756 1.130988 -20.219034 0.487718 0.000000 0.000000 0.000000 34.564390 9.807079 6.824813 36.458974 18.435762 -0.945967 -1.187808 28.104000 0.937047 0.000000 0.000000 0.000000 
0.015562 0.969341 0.006051 -0.099491 -2.990849 6.760265 -0.693432 -0.271743 -2.902039 -0.148000 0.364770 -9.989947 10.033897 20.076225 24.499579 0.000000 0.000000 0.000000 -4.839611 0.693717 -8.105557 3.318913 -0.364438 -4.606802 -3.759581 -13.817371 20.449410 0.000000 0.000000 0.000000 4.962652 -2.887876 35.524734 -6.140690 1.911435 -26.057910 -2.988976 5.306068 26.627009 13.657129 -3.959206 -35.396602 0.000000 0.000000 0.000000 -25.357289 -27.584713 14.370952 -31.583448 -18.993193 -0.631469 1.038140 -20.321357 0.506545 0.000000 0.000000 0.000000 34.992850 9.864446 6.711262 35.444070 17.978661 -1.043199 -0.329442 28.924365 1.147069 0.000000 0.000000 0.000000 
0.014792 0.968828 0.009212 -0.195484 -3.234386 7.068743 -0.432193 -0.316967 -3.376930 -0.325011 0.350598 -9.437076 10.415180 20.510594 24.584961 0.000000 0.000000 0.000000 -4.606624 0.729672 -8.498731 3.278560 -0.357149 -4.326426 -3.597203 -13.593436 20.325951 0.000000 0.000000 0.000000 4.992189 -2.879152 35.571090 -6.030261 1.885504 -25.755823 -2.907209 5.048996 26.244013 13.330901 -3.850791 -35.316357 0.000000 0.000000 0.000000 -25.125461 -27.344097 14.308712 -31.509619 -18.816588 -0.682952 1.206654 -20.718087 0.489180 0.000000 0.000000 0.000000 35.244596 9.909578 6.568493 34.787476 17.485449 -1.111644 0.517194 29.175080 1.338268 0.000000 0.000000 0.000000 
0.014567 0.968238 0.012440 -0.234489 -3.514778 7.153475 -0.224448 -0.349404 -3.731787 -0.588095 0.341541 -8.894099 10.441425 20.519387 24.128651 0.000000 0.000000 0.000000 -4.635418 0.751547 -8.792445 3.485370 -0.361316 -3.644830 -3.473997 -13.375464 19.849386 0.000000 0.000000 0.000000 5.078992 -2.879004 35.592100 -6.012589 1.876269 -25.749137 -2.727972 4.909906 26.095411 13.307350 -3.904762 -35.187923 0.000000 0.000000 0.000000 -25.004656 -27.243531 14.321916 -31.195055 -18.869429 -0.695890 1.006146 -20.922203 0.529036 0.000000 0.000000 0.000000 35.267274 10.042255 6.521398 34.388622 16.898913 -1.215467 1.033675 29.011358 1.430145 0.000000 0.000000 0.000000 
0.014834 0.967560 0.015543 -0.176016 -3.927308 7.235733 -0.359964 -0.385069 -4.090867 -0.514925 0.317435 -8.224495 10.546088 20.614056 23.628526 0.000000 0.000000 0.000000 -4.881828 0.761937 -8.974576 3.824106 -0.376527 -3.338036 -3.434740 -13.341478 19.620363 0.000000 0.000000 0.000000 4.977898 -2.766927 35.217333 -5.738995 1.818997 -25.416965 -2.613130 5.029957 26.067952 13.077369 -3.742686 -35.494353 0.000000 0.000000 0.000000 -24.655564 -27.057096 14.173238 -31.505724 -18.799499 -0.716499 1.402326 -21.437999 0.473917 0.000000 0.000000 0.000000 35.290492 10.163009 6.567973 33.959457 16.618236 -1.277466 1.456254 28.459543 1.482327 0.000000 0.000000 0.000000 
0.015338 0.966994 0.018517 -0.062194 -4.035289 7.135787 -0.379407 -0.398945 -4.232565 -0.716405 0.304841 -7.569856 10.514257 20.586594 22.783423 0.000000 0.000000 0.000000 -5.168197 0.754477 -8.975868 4.052290 -0.389282 -3.053044 -3.552235 -13.505942 19.417662 0.000000 0.000000 0.000000 5.049173 -2.752914 34.877337 -5.595666 1.786769 -25.460509 -2.480816 5.201315 26.173882 13.043316 -3.705079 -35.526553 0.000000 0.000000 0.000000 -24.343535 -26.977890 14.027578 -31.863819 -18.656362 -0.742947 1.389589 -21.916141 0.489470 0.000000 0.000000 0.000000 35.053564 10.020429 6.500604 34.060381 16.328760 -1.363582 1.773683 27.691149 1.505401 0.000000 0.000000 0.000000 
0.015845 0.966787 0.021247 0.094166 -4.014704 6.924999 -0.288876 -0.393505 -4.184980 -1.041286 0.311083 -7.247945 10.167536 20.157963 22.439601 0.000000 0.000000 0.000000 -5.357672 0.734729 -8.772976 4.159778 -0.396292 -2.759854 -3.489557 -13.386661 19.324928 0.000000 0.000000 0.000000 5.006214 -2.677908 34.020515 -5.159736 1.703882 -24.939386 -2.598054 5.414102 25.942710 13.033092 -3.592196 -35.894178 0.000000 0.000000 0.000000 -24.296397 -26.844454 13.845448 -32.314471 -18.214602 -0.802065 1.362423 -22.596156 0.512629 0.000000 0.000000 0.000000 35.219028 9.988279 6.576141 34.103090 15.613976 -1.540837 1.979924 27.490270 1.535562 0.000000 0.000000 0.000000 
0.016464 0.967277 0.023758 0.102453 -3.859276 6.822587 -0.030496 -0.406231 -4.368198 -1.263536 0.310203 -6.818430 10.072062 20.054834 22.285631 0.000000 0.000000 0.000000 -5.361915 0.712734 -8.448495 4.133541 -0.395977 -2.626711 -3.546226 -13.455582 19.365794 0.000000 0.000000 0.000000 5.072587 -2.677868 33.475969 -5.186189 1.707725 -25.340541 -2.242085 5.435414 26.452055 12.950275 -3.444634 -36.536084 0.000000 0.000000 0.000000 -24.349055 -26.673725 13.736935 -32.705556 -17.833823 -0.910218 1.289182 -23.058169 0.540616 0.000000 0.000000 0.000000 34.791853 9.785211 6.445119 34.770678 15.596171 -1.583024 2.096472 27.042621 1.543853 0.000000 0.000000 0.000000 
0.017429 0.968353 0.026034 0.096787 -3.659186 6.809917 0.147897 -0.415685 -4.509652 -1.408523 0.312327 -6.623961 9.616034 19.494456 22.134572 0.000000 0.000000 0.000000 -5.328306 0.699818 -8.256069 3.968933 -0.386625 -2.623201 -3.443416 -13.287593 19.521446 0.000000 0.000000 0.000000 5.162834 -2.645382 32.279102 -4.962959 1.666678 -25.119108 -2.273085 5.591899 26.503430 12.913202 -3.300552 -37.034113 0.000000 0.000000 0.000000 -24.151372 -26.210805 13.328609 -33.380092 -17.091157 -1.065945 0.928653 -23.892658 0.637939 0.000000 0.000000 0.000000 34.750863 9.437435 6.291610 35.058414 15.307167 -1.682862 2.037658 26.922171 1.532188 0.000000 0.000000 0.000000 
0.019049 0.969812 0.028634 0.153949 -3.442575 6.648269 0.272978 -0.403185 -4.394968 -1.544634 0.315157 -6.457980 9.279338 19.086863 22.131288 0.000000 0.000000 0.000000 -5.335730 0.671101 -7.836724 3.816455 -0.378702 -2.726560 -3.315605 -13.071304 19.641820 0.000000 0.000000 0.000000 5.241281 -2.593847 30.987665 -5.053446 1.696791 -25.042059 -2.131100 5.606670 26.791277 12.685900 -3.188595 -37.078017 0.000000 0.000000 0.000000 -24.379701 -25.657366 12.997471 -34.074611 -16.181351 -1.298950 0.638587 -24.691900 0.728790 0.000000 0.000000 0.000000 34.485079 8.915802 5.933171 35.698796 14.744167 -1.857306 2.557099 27.210159 1.682572 0.000000 0.000000 0.000000 
0.021468 0.971192 0.031863 0.166692 -3.354000 6.239750 0.258403 -0.354240 -3.843162 -1.614218 0.321290 -6.556552 8.854940 18.552107 22.092608 0.000000 0.000000 0.000000 -5.304889 0.628957 -7.188525 3.734284 -0.375202 -2.871813 -3.174408 -12.843811 19.695373 0.000000 0.000000 0.000000 5.373897 -2.491668 29.073418 -5.173618 1.733634 -24.843066 -2.066623 5.678023 27.164062 12.361268 -3.010153 -37.279994 0.000000 0.000000 0.000000 -24.365720 -24.660653 12.350276 -35.212713 -15.071393 -1.618192 -0.338562 -25.410210 0.975410 0.000000 0.000000 0.000000 34.491026 8.367156 5.567563 36.256733 14.006349 -2.094654 3.009406 27.619246 1.830862 0.000000 0.000000 0.000000 
0.024355 0.971931 0.035930 0.162177 -3.022065 5.487516 0.329450 -0.277463 -2.996560 -1.772587 0.323675 -6.307221 8.583740 18.235825 21.623085 0.000000 0.000000 0.000000 -5.245232 0.555918 -6.104138 3.513655 -0.366093 -3.161261 -3.125597 -12.720221 19.732847 0.000000 0.000000 0.000000 5.562285 -2.449955 27.695899 -5.385116 1.789690 -25.121973 -1.989334 5.601322 27.708831 11.970122 -2.869164 -37.133257 0.000000 0.000000 0.000000 -24.389429 -23.763357 11.771537 -36.239735 -13.986011 -1.963184 -0.945476 -26.166659 1.153778 0.000000 0.000000 0.000000 34.116646 7.502653 4.962499 37.405344 13.473549 -2.312592 3.383085 28.015270 1.983866 0.000000 0.000000 0.000000 
0.027362 0.971997 0.040501 0.249824 -2.760518 4.783531 0.252734 -0.182055 -1.936401 -1.974128 0.336594 -6.407967 8.328185 17.928957 21.258350 0.000000 0.000000 0.000000 -5.345599 0.474789 -4.840460 3.353770 -0.359888 -3.351543 -2.967302 -12.371922 19.411076 0.000000 0.000000 0.000000 5.726645 -2.354136 25.911366 -5.730898 1.881908 -24.910962 -1.996725 5.345285 27.729133 11.728419 -2.793203 -37.048940 0.000000 0.000000 0.000000 -24.331292 -22.679553 11.121266 -37.153815 -12.968433 -2.284805 -1.972032 -26.520937 1.417934 0.000000 0.000000 0.000000 34.188916 6.840732 4.416013 38.274583 12.799735 -2.511827 3.950016 28.298651 2.162706 0.000000 0.000000 0.000000 
0.030300 0.971606 0.045088 0.152396 -2.595405 3.840156 0.337443 -0.066427 -0.657701 -2.128045 0.343676 -6.334948 8.480420 18.137712 20.743453 0.000000 0.000000 0.000000 -5.348771 0.391415 -3.536486 3.349297 -0.363866 -3.535288 -3.016237 -12.421201 19.402801 0.000000 0.000000 0.000000 5.849712 -2.269524 24.617008 -6.173236 1.982648 -25.392664 -1.793652 5.191886 28.179919 11.445862 -2.768979 -36.679751 0.000000 0.000000 0.000000 -24.675686 -22.138258 10.856481 -37.445804 -12.007540 -2.608837 -2.835313 -26.597892 1.625210 0.000000 0.000000 0.000000 34.462525 6.324948 4.022099 39.017289 12.392028 -2.691444 4.127689 28.175408 2.212303 0.000000 0.000000 0.000000 
0.033080 0.970960 0.049118 0.083868 -2.695703 2.970895 0.294080 0.057162 0.688165 -2.085735 0.345602 -6.503332 8.403204 18.018568 20.152333 0.000000 0.000000 0.000000 -5.487432 0.317434 -2.271827 3.516747 -0.376732 -3.720202 -2.818804 -12.063717 19.063246 0.000000 0.000000 0.000000 5.742822 -2.087885 22.997600 -5.986054 1.955674 -25.131317 -2.085651 5.278058 28.001401 11.299377 -2.715011 -36.487542 0.000000 0.000000 0.000000 -24.253373 -21.264427 10.230376 -38.162603 -11.335949 -2.823872 -3.685821 -25.996768 1.781841 0.000000 0.000000 0.000000 34.768377 5.798890 3.656677 39.825741 12.029735 -2.827490 4.382931 27.824913 2.263473 0.000000 0.000000 0.000000 
0.035716 0.970436 0.052620 -0.014066 -2.681171 2.152983 0.405888 0.158800 1.824527 -2.239805 0.353873 -6.438289 8.437020 18.063361 19.785463 0.000000 0.000000 0.000000 -5.470441 0.253633 -1.242504 3.698817 -0.390114 -3.747998 -2.931416 -12.206687 18.868412 0.000000 0.000000 0.000000 5.642937 -1.934149 21.572115 -6.068901 1.991591 -24.948820 -2.091305 5.196655 27.730601 11.014253 -2.662324 -35.942496 0.000000 0.000000 0.000000 -23.891019 -20.857131 9.934636 -38.783242 -10.648076 -3.039979 -4.174124 -25.519116 1.858989 0.000000 0.000000 0.000000 34.801281 5.267718 3.218183 40.650082 11.359260 -3.026455 4.814885 27.653924 2.363052 0.000000 0.000000 0.000000 
0.038174 0.970194 0.055767 -0.066895 -2.755732 1.362780 0.301124 0.265026 2.933284 -2.332375 0.362124 -6.547173 8.540796 18.189571 19.162761 0.000000 0.000000 0.000000 -5.368196 0.192283 -0.280513 3.673562 -0.388553 -3.669065 -2.771253 -11.876606 18.387681 0.000000 0.000000 0.000000 5.567743 -1.782425 20.116927 -5.970763 1.984172 -24.646388 -2.311325 5.396924 27.559314 11.105972 -2.678467 -35.871849 0.000000 0.000000 0.000000 -23.047324 -20.477830 9.531712 -39.677341 -10.242709 -3.192784 -4.358840 -25.234501 1.878039 0.000000 0.000000 0.000000 34.720598 4.773787 2.921671 41.571415 10.745417 -3.257184 5.292498 27.769796 2.511159 0.000000 0.000000 0.000000 
0.040379 0.969447 0.058819 -0.112401 -2.748033 0.757150 0.139403 0.364669 3.924065 -2.189027 0.358232 -6.779972 8.611855 18.291357 19.031570 0.000000 0.000000 0.000000 -5.218542 0.144773 0.388216 3.452627 -0.374803 -3.641404 -2.828527 -11.911256 18.067052 0.000000 0.000000 0.000000 5.606266 -1.687881 19.007811 -5.833634 1.964728 -24.369835 -2.499715 5.548006 27.329928 10.857627 -2.601898 -35.327372 0.000000 0.000000 0.000000 -22.670800 -20.263958 9.286774 -39.999025 -10.068455 -3.230828 -4.510206 -24.823758 1.873765 0.000000 0.000000 0.000000 34.430310 4.288397 2.626376 42.472086 10.229096 -3.453942 5.715118 27.548266 2.605321 0.000000 0.000000 0.000000 
0.042106 0.968638 0.061942 -0.163344 -2.968282 0.051363 0.029878 0.468436 4.941094 -1.992856 0.352676 -6.969950 8.608889 18.264498 18.448698 0.000000 0.000000 0.000000 -5.261023 0.079187 1.582711 3.390561 -0.374278 -4.186239 -2.682754 -11.689135 17.963281 0.000000 0.000000 0.000000 5.781840 -1.601832 17.853874 -5.891317 1.993419 -23.929321 -2.649283 5.882940 26.992153 10.842883 -2.594890 -34.955608 0.000000 0.000000 0.000000 -21.589017 -19.877152 8.858717 -40.866458 -9.745650 -3.354061 -4.766271 -24.992971 1.942634 0.000000 0.000000 0.000000 33.870174 3.682642 2.267074 43.512802 9.625962 -3.684486 5.976262 27.490875 2.686970 0.000000 0.000000 0.000000 
0.043177 0.967585 0.064894 -0.237925 -3.182415 -0.640762 -0.047828 0.584347 6.072119 -1.836324 0.351765 -7.268860 8.646373 18.304221 18.336696 0.000000 0.000000 0.000000 -5.202334 0.023336 2.520487 3.520258 -0.382006 -4.315952 -2.566249 -11.490048 17.751888 0.000000 0.000000 0.000000 5.860329 -1.510785 16.847439 -6.038742 2.042837 -23.577997 -2.535866 6.063245 26.873567 10.514489 -2.462882 -34.594767 0.000000 0.000000 0.000000 -20.750796 -19.569722 8.568255 -41.918247 -9.395013 -3.527559 -4.779823 -25.351301 1.981023 0.000000 0.000000 0.000000 32.959918 3.195315 1.930774 44.807177 8.926065 -3.954053 6.454166 27.611092 2.837612 0.000000 0.000000 0.000000 
0.043728 0.966729 0.067596 -0.404981 -3.372600 -1.354176 0.016575 0.693695 7.206916 -1.726187 0.349520 -7.368189 8.584056 18.202362 17.662341 0.000000 0.000000 0.000000 -5.051455 -0.050072 3.680084 3.501740 -0.383868 -4.861403 -2.528950 -11.447442 17.700138 0.000000 0.000000 0.000000 5.991583 -1.423461 15.797558 -5.933416 2.035523 -22.978086 -2.631434 6.480334 26.583345 10.410758 -2.372201 -34.389993 0.000000 0.000000 0.000000 -20.265971 -19.144926 8.169267 -42.286196 -8.910890 -3.662995 -5.022344 -25.426539 2.032883 0.000000 0.000000 0.000000 32.487301 2.707712 1.713654 45.607631 8.592128 -4.111166 6.291475 27.387417 2.799792 0.000000 0.000000 0.000000 
0.043939 0.966015 0.069903 -0.463716 -3.593347 -1.863051 -0.002414 0.759066 7.827085 -1.595337 0.344120 -7.370404 8.452892 18.007650 17.601121 0.000000 0.000000 0.000000 -4.922632 -0.095220 4.357427 3.380839 -0.376500 -4.934212 -2.273633 -11.007244 17.429583 0.000000 0.000000 0.000000 6.153697 -1.385417 15.268889 -6.099993 2.082525 -22.861280 -2.528210 6.853319 26.669416 10.384837 -2.397406 -33.910608 0.000000 0.000000 0.000000 -20.139181 -19.129974 8.075434 -42.427521 -8.517428 -3.794884 -5.159006 -25.701215 2.080180 0.000000 0.000000 0.000000 32.128461 2.548351 1.718152 45.958916 8.241787 -4.293701 6.595432 27.811284 2.943995 0.000000 0.000000 0.000000 
0.044041 0.965492 0.071882 -0.541984 -3.657435 -2.416474 0.156843 0.822027 8.567943 -1.654056 0.347200 -7.334322 8.244744 17.707234 17.038033 0.000000 0.000000 0.000000 -4.790371 -0.148073 5.098404 3.292920 -0.371236 -4.812870 -2.106761 -10.625361 16.896726 0.000000 0.000000 0.000000 6.300385 -1.356060 14.855435 -6.194070 2.120294 -22.554232 -2.518331 6.977909 26.528135 10.326977 -2.369157 -33.755945 0.000000 0.000000 0.000000 -20.064984 -19.080796 7.995870 -42.605074 -8.302561 -3.856543 -5.180440 -25.676281 2.079833 0.000000 0.000000 0.000000 31.976442 2.602269 1.797500 46.309488 8.064015 -4.373305 6.576129 27.512748 2.906906 0.000000 0.000000 0.000000 
0.044073 0.965043 0.073374 -0.641459 -3.684132 -2.780430 0.387679 0.864590 9.179806 -1.654194 0.351895 -7.521118 8.215479 17.673201 17.018225 0.000000 0.000000 0.000000 -4.683520 -0.185725 5.594468 3.201765 -0.367426 -4.902538 -2.065763 -10.538759 16.795635 0.000000 0.000000 0.000000 6.445165 -1.335701 14.506432 -6.227409 2.136255 -22.412169 -2.473663 6.929139 26.463386 10.116646 -2.317061 -33.457403 0.000000 0.000000 0.000000 -20.326896 -19.125860 8.047829 -42.580997 -7.721219 -4.036214 -5.524004 -25.549040 2.145761 0.000000 0.000000 0.000000 31.877314 2.633274 1.797822 46.408372 7.848763 -4.447164 6.597106 27.544364 2.915546 0.000000 0.000000 0.000000 
0.044156 0.964712 0.074456 -0.667316 -3.817552 -3.180771 0.563303 0.896826 9.630900 -1.577542 0.348927 -7.524599 8.042049 17.417149 16.806189 0.000000 0.000000 0.000000 -4.584619 -0.225926 6.181729 3.121985 -0.363157 -4.970367 -1.922332 -10.251993 16.505500 0.000000 0.000000 0.000000 6.583147 -1.309658 14.158119 -6.334956 2.176309 -22.092823 -2.474740 6.798951 26.268857 9.880196 -2.272733 -33.135650 0.000000 0.000000 0.000000 -20.407409 -18.920290 7.988730 -42.716578 -7.337256 -4.175364 -5.723392 -25.483508 2.190945 0.000000 0.000000 0.000000 31.565466 2.691705 1.742391 46.717190 7.647266 -4.489058 6.827308 27.523715 2.959286 0.000000 0.000000 0.000000 
0.044241 0.964618 0.075125 -0.623007 -4.017995 -3.397063 0.551811 0.938304 10.003851 -1.617634 0.354541 -7.613718 7.896225 17.191659 16.633167 0.000000 0.000000 0.000000 -4.659192 -0.236212 6.537035 3.138902 -0.363741 -5.082503 -1.819906 -10.065343 16.319330 0.000000 0.000000 0.000000 6.586480 -1.270989 13.822912 -6.381065 2.188875 -22.027472 -2.469049 6.769557 26.340788 9.997982 -2.404431 -32.866490 0.000000 0.000000 0.000000 -20.585796 -18.905203 8.042083 -42.783601 -7.040794 -4.294904 -5.931989 -25.296361 2.224738 0.000000 0.000000 0.000000 31.762001 2.586396 1.601909 46.701136 7.456488 -4.550037 7.225732 27.476223 3.039916 0.000000 0.000000 0.000000 
0.044336 0.964445 0.075433 -0.595920 -3.949009 -3.561190 0.555090 0.962583 10.264936 -1.597950 0.356579 -7.752299 7.598328 16.762566 16.425027 0.000000 0.000000 0.000000 -4.606328 -0.255657 6.770434 2.975372 -0.356542 -5.144104 -1.831369 -10.038177 16.160077 0.000000 0.000000 0.000000 6.584495 -1.233194 13.431399 -6.292239 2.177465 -21.695563 -2.514462 6.585505 26.252481 10.052107 -2.450162 -32.894901 0.000000 0.000000 0.000000 -20.799385 -18.827931 8.053535 -43.104099 -6.955458 -4.354048 -6.074303 -25.119336 2.247182 0.000000 0.000000 0.000000 32.013714 2.572192 1.520459 46.741823 7.475533 -4.520039 7.234207 27.229163 3.000826 0.000000 0.000000 0.000000 
0.044408 0.964144 0.075452 -0.570116 -3.869016 -3.713209 0.634871 0.975027 10.477813 -1.648874 0.361610 -7.869415 7.551172 16.703809 16.412165 0.000000 0.000000 0.000000 -4.564439 -0.276482 7.044421 2.911175 -0.355314 -5.284362 -1.905482 -10.141176 16.115555 0.000000 0.000000 0.000000 6.603602 -1.215630 13.237534 -6.193574 2.156030 -21.608288 -2.616981 6.513398 26.205055 10.085883 -2.502015 -32.693029 0.000000 0.000000 0.000000 -21.015141 -18.852673 8.085615 -43.477052 -6.882404 -4.406180 -6.371556 -25.003478 2.305022 0.000000 0.000000 0.000000 32.173062 2.372942 1.370871 47.122427 7.393562 -4.571383 7.519768 27.208132 3.072340 0.000000 0.000000 0.000000 
0.044475 0.963949 0.075271 -0.516809 -3.774825 -3.891801 0.658688 0.992178 10.691979 -1.589518 0.363430 -8.084770 7.432254 16.540947 16.378976 0.000000 0.000000 0.000000 -4.555416 -0.295517 7.322886 2.880279 -0.355301 -5.339122 -1.937013 -10.131779 15.902653 0.000000 0.000000 0.000000 6.534677 -1.192571 13.094889 -6.150913 2.155745 -21.339466 -2.621035 6.367476 25.977866 10.180124 -2.579370 -32.564251 0.000000 0.000000 0.000000 -21.110624 -18.819123 8.088128 -44.078376 -6.787352 -4.482335 -6.650558 -24.841810 2.357168 0.000000 0.000000 0.000000 32.255180 2.352465 1.308274 47.550484 7.323293 -4.590760 7.656898 27.034215 3.079702 0.000000 0.000000 0.000000 
0.044543 0.963792 0.074930 -0.464720 -3.581405 -4.005057 0.678120 1.000161 10.832231 -1.571918 0.362561 -8.130814 7.246415 16.281008 16.227385 0.000000 0.000000 0.000000 -4.539901 -0.308726 7.444763 2.833973 -0.355512 -5.416603 -2.034153 -10.257627 15.841500 0.000000 0.000000 0.000000 6.558827 -1.185500 12.978329 -6.123533 2.153151 -21.262674 -2.687426 6.272571 25.906742 10.129026 -2.611227 -32.171617 0.000000 0.000000 0.000000 -21.314658 -18.816126 8.087871 -44.562933 -6.736842 -4.535595 -6.980720 -24.932694 2.441156 0.000000 0.000000 0.000000 32.507451 2.435970 1.376961 47.881910 7.244096 -4.644953 7.811068 27.046190 3.121301 0.000000 0.000000 0.000000 
0.044600 0.963680 0.074464 -0.347351 -3.434633 -3.892504 0.536793 0.988171 10.603695 -1.451517 0.357314 -8.193529 7.045067 15.996494 16.264317 0.000000 0.000000 0.000000 -4.647862 -0.293374 7.300487 2.903374 -0.359740 -5.394237 -2.016106 -10.152642 15.608672 0.000000 0.000000 0.000000 6.453056 -1.151210 12.677116 -6.070810 2.144476 -21.120838 -2.655290 6.379373 25.725280 10.123596 -2.619008 -31.863819 0.000000 0.000000 0.000000 -21.370928 -18.682258 7.952546 -45.087586 -6.777988 -4.538690 -7.137457 -24.702236 2.450769 0.000000 0.000000 0.000000 32.360485 2.495210 1.496538 48.512749 7.407083 -4.619445 7.948840 27.065342 3.169247 0.000000 0.000000 0.000000 
0.044666 0.963629 0.073855 -0.219154 -3.148298 -3.858207 0.455795 0.977323 10.471427 -1.508647 0.357382 -8.159477 6.790621 15.633422 16.050975 0.000000 0.000000 0.000000 -4.730482 -0.286611 7.197967 2.817581 -0.355524 -5.228726 -2.098400 -10.211520 15.412982 0.000000 0.000000 0.000000 6.369641 -1.133705 12.527772 -6.078245 2.149037 -21.226366 -2.577265 6.502908 25.818654 10.114047 -2.621863 -31.549557 0.000000 0.000000 0.000000 -21.338998 -18.567685 7.799708 -45.353663 -6.729388 -4.568254 -7.592892 -24.961076 2.572701 0.000000 0.000000 0.000000 32.422288 2.497840 1.629314 48.708831 7.627591 -4.591378 8.187904 27.081757 3.240470 0.000000 0.000000 0.000000 
0.044753 0.963571 0.073128 -0.186011 -2.778185 -3.783584 0.374665 0.972719 10.424511 -1.458829 0.356956 -8.334500 6.452798 15.184464 16.227759 0.000000 0.000000 0.000000 -4.712643 -0.288827 7.063079 2.823993 -0.358315 -5.176864 -2.148204 -10.239707 15.367894 0.000000 0.000000 0.000000 6.298879 -1.111182 12.286712 -5.972799 2.133636 -21.067932 -2.524069 6.552438 25.770778 10.244368 -2.688758 -31.281776 0.000000 0.000000 0.000000 -21.318935 -18.431824 7.633939 -45.570118 -6.745864 -4.554022 -8.018370 -24.928649 2.656758 0.000000 0.000000 0.000000 32.301278 2.657444 1.857342 48.963214 7.924073 -4.508066 8.025636 27.120563 3.218250 0.000000 0.000000 0.000000 
0.044821 0.963469 0.072357 -0.112903 -2.452009 -3.641433 0.339436 0.950688 10.225184 -1.531432 0.360675 -8.438535 6.284104 14.949776 16.035086 0.000000 0.000000 0.000000 -4.686790 -0.284622 6.840955 2.719937 -0.351672 -4.940567 -2.255706 -10.332983 15.151393 0.000000 0.000000 0.000000 6.228536 -1.098195 12.140345 -5.936326 2.130019 -21.030742 -2.376240 6.678906 25.728847 10.279065 -2.668856 -31.201672 0.000000 0.000000 0.000000 -21.323948 -18.332316 7.477479 -45.665944 -6.565950 -4.597173 -8.466277 -25.166345 2.773093 0.000000 0.000000 0.000000 32.220588 2.817042 2.106028 48.798921 8.320374 -4.377460 8.063124 27.440153 3.279521 0.000000 0.000000 0.000000 
0.044841 0.963293 0.071611 -0.042916 -2.378324 -3.543699 0.258777 0.936536 10.014449 -1.473685 0.359617 -8.515383 6.067782 14.641759 16.080642 0.000000 0.000000 0.000000 -4.738379 -0.269823 6.639367 2.782894 -0.353365 -4.765035 -2.277687 -10.332579 15.023461 0.000000 0.000000 0.000000 6.090991 -1.072976 11.982995 -5.872421 2.112805 -21.025707 -2.291450 6.903735 25.779018 10.403549 -2.722157 -31.029716 0.000000 0.000000 0.000000 -21.264361 -18.049773 7.237490 -45.645839 -6.542331 -4.588880 -8.872087 -25.080926 2.844120 0.000000 0.000000 0.000000 32.078363 2.958894 2.321858 48.586638 8.645088 -4.275959 8.145048 27.577804 3.323832 0.000000 0.000000 0.000000 
0.044760 0.963221 0.070969 -0.011468 -2.310042 -3.572787 0.163592 0.934173 9.915649 -1.455943 0.358911 -8.533869 5.998883 14.528804 15.898216 0.000000 0.000000 0.000000 -4.696252 -0.271400 6.575734 2.763993 -0.350271 -4.579689 -2.299226 -10.316963 14.825803 0.000000 0.000000 0.000000 6.109759 -1.061201 11.828702 -5.965052 2.143738 -20.909021 -2.175333 7.000221 25.841683 10.435052 -2.743509 -30.885751 0.000000 0.000000 0.000000 -21.292230 -18.034303 7.190211 -45.791110 -6.377820 -4.656449 -8.885347 -24.761359 2.806167 0.000000 0.000000 0.000000 32.036039 3.194552 2.548462 48.150465 9.198321 -4.068908 7.899109 27.928746 3.314116 0.000000 0.000000 0.000000 
0.044610 0.963029 0.070481 0.040496 -2.574078 -3.519312 0.161776 0.939325 9.913689 -1.417492 0.359940 -8.561801 5.958098 14.442645 15.881894 0.000000 0.000000 0.000000 -4.796637 -0.245446 6.360754 2.937050 -0.356269 -4.378467 -2.338006 -10.397966 14.737747 0.000000 0.000000 0.000000 6.036494 -1.031985 11.611212 -5.931956 2.129527 -20.861625 -2.161075 7.159300 25.844629 10.492803 -2.782982 -30.834230 0.000000 0.000000 0.000000 -21.389262 -17.916267 7.135250 -45.868479 -6.249802 -4.708766 -8.931264 -24.473560 2.783366 0.000000 0.000000 0.000000 31.978402 3.396377 2.687823 47.929280 9.583976 -3.914353 7.864460 28.266940 3.352419 0.000000 0.000000 0.000000 
0.044364 0.962979 0.070179 0.041171 -2.708226 -3.619497 0.141137 0.944578 9.924906 -1.356083 0.357065 -8.521693 6.001622 14.491719 15.864524 0.000000 0.000000 0.000000 -4.720300 -0.244582 6.267036 2.892691 -0.349510 -4.126933 -2.327122 -10.389984 14.706454 0.000000 0.000000 0.000000 5.957673 -1.014575 11.541885 -5.886961 2.120221 -20.671237 -2.202138 7.040138 25.715860 10.556817 -2.855790 -30.760689 0.000000 0.000000 0.000000 -21.515398 -17.932262 7.207576 -45.970815 -6.099083 -4.772623 -8.706541 -23.813801 2.664038 0.000000 0.000000 0.000000 31.745697 3.706606 2.806570 47.604859 9.677682 -3.822245 7.647124 28.511976 3.317135 0.000000 0.000000 0.000000 
0.044112 0.962920 0.069988 0.050887 -2.929415 -3.704122 0.242005 0.953709 10.064371 -1.465292 0.363657 -8.537503 6.098884 14.613021 15.822553 0.000000 0.000000 0.000000 -4.705269 -0.236294 6.162351 2.967982 -0.350306 -3.932394 -2.382037 -10.510969 14.697329 0.000000 0.000000 0.000000 5.951027 -0.998873 11.421311 -5.914909 2.125918 -20.605268 -2.274072 6.936073 25.736733 10.594715 -2.891679 -30.897740 0.000000 0.000000 0.000000 -21.508647 -17.891865 7.261358 -46.127116 -5.896955 -4.883930 -8.706874 -23.616668 2.649036 0.000000 0.000000 0.000000 31.720159 3.838387 2.796894 47.247510 9.892081 -3.704458 7.554268 28.811316 3.324029 0.000000 0.000000 0.000000 
0.043870 0.962737 0.069856 0.085055 -3.208024 -3.725367 0.340449 0.939129 9.946745 -1.620179 0.368333 -8.368903 6.279912 14.856559 15.843931 0.000000 0.000000 0.000000 -4.742472 -0.216259 5.941689 3.086518 -0.351773 -3.549396 -2.382101 -10.479715 14.410588 0.000000 0.000000 0.000000 5.942676 -0.986368 11.328996 -5.904125 2.117154 -20.517600 -2.531683 6.817941 25.558126 10.671436 -2.966945 -30.919718 0.000000 0.000000 0.000000 -21.564132 -17.869164 7.333326 -46.098600 -5.643288 -4.977939 -8.510798 -23.372161 2.584873 0.000000 0.000000 0.000000 31.633505 3.941345 2.733181 47.006835 9.823227 -3.665985 7.721011 29.093166 3.386066 0.000000 0.000000 0.000000 
0.043703 0.962652 0.069737 0.165197 -3.488987 -3.738893 0.460471 0.929434 9.891777 -1.825182 0.379727 -8.354040 6.452200 15.089008 15.865290 0.000000 0.000000 0.000000 -4.848704 -0.189521 5.692149 3.120706 -0.348548 -3.236728 -2.408502 -10.545390 14.340240 0.000000 0.000000 0.000000 5.886843 -0.967520 11.216769 -6.036952 2.148478 -20.530420 -2.573338 6.591998 25.574306 10.799061 -3.060181 -31.167928 0.000000 0.000000 0.000000 -21.744668 -17.677252 7.368173 -46.052798 -5.704928 -4.985509 -8.368095 -23.042999 2.529083 0.000000 0.000000 0.000000 31.581943 4.014531 2.601517 46.878589 9.758978 -3.630897 7.963277 29.012034 3.411752 0.000000 0.000000 0.000000 
0.043606 0.962618 0.069663 0.168236 -3.704429 -3.810516 0.607334 0.925886 9.939289 -1.982596 0.387681 -8.310183 6.570636 15.252778 15.953097 0.000000 0.000000 0.000000 -4.836223 -0.175564 5.467678 3.135738 -0.345244 -2.969485 -2.493167 -10.709432 14.291901 0.000000 0.000000 0.000000 5.899081 -0.967883 11.255515 -6.042733 2.143790 -20.609620 -2.661482 6.495037 25.583969 10.788153 -3.086229 -31.198387 0.000000 0.000000 0.000000 -21.888231 -17.585326 7.398199 -45.960895 -5.647449 -5.014689 -8.364651 -23.081691 2.538265 0.000000 0.000000 0.000000 31.584273 3.964049 2.465734 46.895932 9.764595 -3.601955 7.866837 28.892724 3.362379 0.000000 0.000000 0.000000 
0.043555 0.962786 0.069634 0.178248 -3.888311 -3.780049 0.638100 0.920032 9.868808 -2.017144 0.386823 -8.124206 6.642839 15.334806 15.847833 0.000000 0.000000 0.000000 -4.811428 -0.160584 5.213971 3.062695 -0.337240 -2.839480 -2.529492 -10.798355 14.297899 0.000000 0.000000 0.000000 5.912541 -0.960096 11.168662 -6.114223 2.162085 -20.528957 -2.710912 6.272831 25.490994 10.851205 -3.146930 -31.343297 0.000000 0.000000 0.000000 -22.140398 -17.478386 7.460604 -45.811653 -5.563048 -5.046857 -8.367902 -23.454309 2.591072 0.000000 0.000000 0.000000 31.615899 4.092137 2.401063 46.965444 9.732988 -3.562272 7.581125 28.748912 3.255468 0.000000 0.000000 0.000000 
0.043528 0.962937 0.069637 0.247625 -4.077328 -3.860466 0.706308 0.914338 9.826488 -2.036583 0.385838 -7.956464 6.767174 15.511113 15.984259 0.000000 0.000000 0.000000 -4.909753 -0.142417 5.049692 3.044758 -0.332221 -2.631643 -2.610779 -10.976920 14.349720 0.000000 0.000000 0.000000 5.856407 -0.953753 11.202971 -6.173137 2.174813 -20.550155 -2.691693 6.270517 25.502175 10.737094 -3.082658 -31.465776 0.000000 0.000000 0.000000 -22.305420 -17.322791 7.422552 -45.835819 -5.797721 -4.973514 -8.196410 -23.636831 2.582228 0.000000 0.000000 0.000000 31.628417 4.072064 2.337518 47.477366 9.873067 -3.516019 7.384144 28.351536 3.159417 0.000000 0.000000 0.000000 
0.043533 0.963207 0.069621 0.276597 -4.108635 -3.891088 0.693990 0.902056 9.681687 -1.910326 0.377855 -7.871070 6.594675 15.254985 16.023010 0.000000 0.000000 0.000000 -4.859658 -0.137654 4.893244 2.900579 -0.318263 -2.388990 -2.730982 -11.182050 14.310238 0.000000 0.000000 0.000000 5.814685 -0.938526 11.077193 -6.131067 2.165472 -20.435011 -2.742310 6.150095 25.541684 10.728049 -3.089929 -31.542406 0.000000 0.000000 0.000000 -22.403072 -17.174761 7.392446 -45.785495 -5.953425 -4.927872 -8.251816 -24.113254 2.654856 0.000000 0.000000 0.000000 31.943226 3.999359 2.226362 47.745238 9.837654 -3.528365 7.225510 27.678290 3.029409 0.000000 0.000000 0.000000 
0.043648 0.963387 0.069539 0.292152 -4.130861 -3.817114 0.705406 0.887924 9.541701 -1.875489 0.372051 -7.684108 6.543756 15.167654 15.906261 0.000000 0.000000 0.000000 -4.947925 -0.120778 4.700150 2.970409 -0.320031 -2.127616 -2.831093 -11.327121 14.170826 0.000000 0.000000 0.000000 5.831403 -0.930930 10.955236 -6.092839 2.149922 -20.554560 -2.676068 6.154961 25.741642 10.647296 -3.032219 -31.669174 0.000000 0.000000 0.000000 -22.318260 -17.197988 7.416148 -46.028299 -6.302738 -4.844768 -8.169513 -24.589502 2.699132 0.000000 0.000000 0.000000 31.837158 3.947946 2.193984 48.593866 9.670033 -3.632397 7.207179 27.177364 2.973188 0.000000 0.000000 0.000000 
0.043901 0.963604 0.069369 0.257988 -4.236088 -3.777552 0.694563 0.876195 9.394731 -1.664113 0.357366 -7.513833 6.627837 15.293176 16.094336 0.000000 0.000000 0.000000 -4.901096 -0.107428 4.414432 2.903604 -0.308579 -1.714200 -2.853019 -11.365632 14.113904 0.000000 0.000000 0.000000 5.917002 -0.928463 10.843819 -6.033276 2.127716 -20.722927 -2.548362 6.126036 25.961980 10.432153 -2.898506 -31.943378 0.000000 0.000000 0.000000 -22.377014 -17.129315 7.428822 -46.285465 -6.577534 -4.802654 -8.366592 -24.839603 2.781608 0.000000 0.000000 0.000000 31.790057 3.910639 2.126438 49.078770 9.606764 -3.675971 7.127168 26.529227 2.870764 0.000000 0.000000 0.000000 
0.044333 0.963813 0.069150 0.240188 -4.305403 -3.752355 0.675304 0.854035 9.140827 -1.640985 0.348220 -7.172333 6.742328 15.453163 16.095911 0.000000 0.000000 0.000000 -4.908638 -0.096963 4.241461 2.988883 -0.310935 -1.397022 -2.878743 -11.374896 13.921130 0.000000 0.000000 0.000000 6.021672 -0.948252 10.972444 -6.013351 2.114517 -20.935409 -2.581955 6.037324 25.993028 10.455390 -2.922294 -32.001016 0.000000 0.000000 0.000000 -22.390050 -17.077620 7.444060 -46.471579 -6.892717 -4.720006 -8.321620 -25.120530 2.812813 0.000000 0.000000 0.000000 31.964852 3.811422 1.999878 49.273235 9.265980 -3.804894 7.048508 26.067289 2.790594 0.000000 0.000000 0.000000 
0.044890 0.964193 0.068914 0.233274 -4.494196 -3.701361 0.664749 0.854398 9.106354 -1.560455 0.345763 -7.231980 6.876439 15.655020 16.499207 0.000000 0.000000 0.000000 -4.862188 -0.090624 4.131918 2.893018 -0.302096 -1.434542 -2.777542 -11.213228 13.891117 0.000000 0.000000 0.000000 6.045810 -0.943101 10.901169 -5.849257 2.060263 -21.071687 -2.520674 5.863603 26.142628 10.252433 -2.874955 -31.947768 0.000000 0.000000 0.000000 -22.534174 -17.041030 7.537917 -46.669761 -7.227517 -4.651234 -8.219003 -25.259898 2.820095 0.000000 0.000000 0.000000 31.996701 3.868453 1.902590 49.425993 9.119634 -3.834649 6.621790 25.631527 2.631451 0.000000 0.000000 0.000000 
0.045495 0.964729 0.068683 0.245973 -4.871879 -3.644196 0.526601 0.853410 8.930800 -1.427597 0.331461 -6.908756 6.846187 15.572088 16.481931 0.000000 0.000000 0.000000 -4.960263 -0.064108 3.864448 3.038001 -0.306860 -1.077181 -2.809579 -11.313929 13.893795 0.000000 0.000000 0.000000 6.142831 -0.946592 10.880930 -5.689419 2.003643 -21.200031 -2.543086 6.108172 26.207911 10.387292 -2.922977 -32.077905 0.000000 0.000000 0.000000 -22.318256 -17.255763 7.649880 -47.007538 -7.702753 -4.513825 -8.195194 -25.043857 2.790997 0.000000 0.000000 0.000000 31.956488 3.756604 1.825438 49.536268 8.973936 -3.901819 6.515468 25.255159 2.563693 0.000000 0.000000 0.000000 
0.046024 0.965010 0.068448 0.276905 -5.012862 -3.534703 0.585505 0.846234 8.879817 -1.644706 0.351052 -7.137290 7.056719 15.871777 16.576208 0.000000 0.000000 0.000000 -4.928482 -0.063001 3.880255 2.909209 -0.296242 -1.181954 -2.617118 -11.009738 13.958566 0.000000 0.000000 0.000000 5.941352 -0.925220 10.827702 -5.332721 1.900048 -21.190560 -2.582640 5.925888 26.290286 10.276038 -2.981653 -31.613743 0.000000 0.000000 0.000000 -21.939168 -17.062188 7.607531 -47.559723 -8.198111 -4.407131 -8.275880 -25.091317 2.830504 0.000000 0.000000 0.000000 31.868324 3.778176 1.719748 49.551907 8.952411 -3.876289 6.147809 25.200585 2.473581 0.000000 0.000000 0.000000 
0.046362 0.965355 0.068219 0.393189 -4.975845 -3.666793 0.672063 0.854016 9.022684 -1.891209 0.361372 -6.950130 6.934982 15.682827 16.281985 0.000000 0.000000 0.000000 -5.150151 -0.057275 4.017317 3.143218 -0.313700 -0.966648 -2.787062 -11.322079 14.043657 0.000000 0.000000 0.000000 6.070244 -0.929324 10.775275 -5.609175 1.978007 -21.249693 -2.559179 5.876246 26.436912 10.323972 -2.950966 -32.040905 0.000000 0.000000 0.000000 -21.631430 -17.659819 7.936501 -47.504502 -8.258347 -4.401777 -8.203539 -24.804524 2.775035 0.000000 0.000000 0.000000 31.623432 3.752768 1.691037 49.893806 8.640498 -4.022020 5.527870 24.753777 2.294951 0.000000 0.000000 0.000000 
0.046538 0.965312 0.067937 0.342508 -5.077598 -2.930909 0.878234 0.757063 8.179968 -2.154483 0.376298 -6.877808 6.883782 15.569120 15.985664 0.000000 0.000000 0.000000 -4.892891 -0.035785 3.445095 2.986348 -0.300654 -1.123357 -2.694405 -11.090292 13.710159 0.000000 0.000000 0.000000 6.024508 -0.882339 10.098075 -5.378250 1.899824 -21.550065 -2.350323 5.578590 26.828688 9.919876 -2.867313 -31.641926 0.000000 0.000000 0.000000 -21.498025 -16.628458 7.500206 -48.371130 -8.599886 -4.413790 -7.898575 -25.201361 2.792791 0.000000 0.000000 0.000000 31.126879 4.097758 1.777487 50.176496 8.713372 -3.971812 5.174385 25.551323 2.305900 0.000000 0.000000 0.000000 
0.046444 0.966323 0.067666 0.237294 -5.465979 -3.247185 0.952513 0.779435 8.398228 -2.201561 0.379604 -6.777264 7.172501 15.992204 16.544454 0.000000 0.000000 0.000000 -4.975847 -0.008656 3.028198 3.543208 -0.337530 -0.326190 -3.018637 -11.601001 13.280852 0.000000 0.000000 0.000000 6.272539 -0.913802 10.358569 -5.107722 1.824260 -21.284205 -2.550245 6.335931 26.351320 10.721643 -3.249933 -31.153726 0.000000 0.000000 0.000000 -20.859998 -17.027342 7.480311 -48.703749 -7.603266 -4.747225 -9.303973 -26.593412 3.272394 0.000000 0.000000 0.000000 30.951594 3.801393 1.793390 50.895134 9.421180 -3.731378 3.669363 23.725467 1.837390 0.000000 0.000000 0.000000 
0.046172 0.968821 0.067363 0.093984 -4.335788 -3.241623 1.957160 0.681838 8.283909 -3.541994 0.454560 -6.642981 6.594771 15.306622 17.277686 0.000000 0.000000 0.000000 -4.921637 -0.064257 3.714543 3.665146 -0.367624 -1.538755 -2.995060 -11.677654 14.379022 0.000000 0.000000 0.000000 6.237152 -0.900107 10.077424 -5.130803 1.867431 -20.481550 -2.130039 5.189964 26.182591 10.564222 -3.367561 -30.413972 0.000000 0.000000 0.000000 -21.500121 -16.813564 7.530622 -48.175040 -8.286561 -4.443589 -9.461536 -25.645696 3.191618 0.000000 0.000000 0.000000 30.929220 3.711021 1.560060 50.239374 10.124217 -3.370409 2.998769 22.960536 1.626681 0.000000 0.000000 0.000000 
