HIERARCHY
ROOT Hips
{
	OFFSET -0.001795 -0.223333 0.028219
	CHANNELS 6 Xposition Yposition Zposition Zrotation Yrotation Xrotation 
	JOINT LeftUpLeg
	{
		OFFSET 0.069520 -0.091406 -0.006815
		CHANNELS 3 Zrotation Yrotation Xrotation
		JOINT LeftLeg
		{
			OFFSET 0.034277 -0.375199 -0.004496
			CHANNELS 3 Zrotation Yrotation Xrotation
			JOINT LeftFoot
			{
				OFFSET -0.013596 -0.397961 -0.043693
				CHANNELS 3 Zrotation Yrotation Xrotation
				JOINT LeftToe
				{
					OFFSET 0.026358 -0.055791 0.119288
					CHANNELS 3 Zrotation Yrotation Xrotation
					End Site
					{
						OFFSET 0.000000 0.000000 0.000000
					}
				}
			}
		}
	}
	JOINT RightUpLeg
	{
		OFFSET -0.067670 -0.090522 -0.004320
		CHANNELS 3 Zrotation Yrotation Xrotation
		JOINT RightLeg
		{
			OFFSET -0.038290 -0.382569 -0.008850
			CHANNELS 3 Zrotation Yrotation Xrotation
			JOINT RightFoot
			{
				OFFSET 0.015774 -0.398415 -0.042312
				CHANNELS 3 Zrotation Yrotation Xrotation
				JOINT RightToe
				{
					OFFSET -0.025372 -0.048144 0.123348
					CHANNELS 3 Zrotation Yrotation Xrotation
					End Site
					{
						OFFSET 0.000000 0.000000 0.000000
					}
				}
			}
		}
	}
	JOINT Spine
	{
		OFFSET -0.002533 0.108963 -0.026696
		CHANNELS 3 Zrotation Yrotation Xrotation
		JOINT Spine1
		{
			OFFSET 0.005487 0.135180 0.001092
			CHANNELS 3 Zrotation Yrotation Xrotation
			JOINT Spine2
			{
				OFFSET 0.001457 0.052922 0.025425
				CHANNELS 3 Zrotation Yrotation Xrotation
				JOINT Neck
				{
					OFFSET -0.002778 0.213870 -0.042857
					CHANNELS 3 Zrotation Yrotation Xrotation
					JOINT Head
					{
						OFFSET 0.005152 0.064970 0.051349
						CHANNELS 3 Zrotation Yrotation Xrotation
						End Site
						{
							OFFSET 0.000000 0.000000 0.000000
						}
					}
				}
				JOINT LeftShoulder
				{
					OFFSET 0.078845 0.121749 -0.034090
					CHANNELS 3 Zrotation Yrotation Xrotation
					JOINT LeftArm
					{
						OFFSET 0.090977 0.030469 -0.008868
						CHANNELS 3 Zrotation Yrotation Xrotation
						JOINT LeftForeArm
						{
							OFFSET 0.259612 -0.012772 -0.027456
							CHANNELS 3 Zrotation Yrotation Xrotation
							JOINT LeftHand
							{
								OFFSET 0.249234 0.008986 -0.001171
								CHANNELS 3 Zrotation Yrotation Xrotation
								End Site
								{
									OFFSET 0.000000 0.000000 0.000000
								}
							}
						}
					}
				}
				JOINT RightShoulder
				{
					OFFSET -0.081759 0.118833 -0.038615
					CHANNELS 3 Zrotation Yrotation Xrotation
					JOINT RightArm
					{
						OFFSET -0.096012 0.032551 -0.009143
						CHANNELS 3 Zrotation Yrotation Xrotation
						JOINT RightForeArm
						{
							OFFSET -0.253742 -0.013329 -0.021401
							CHANNELS 3 Zrotation Yrotation Xrotation
							JOINT RightHand
							{
								OFFSET -0.255298 0.007772 -0.005559
								CHANNELS 3 Zrotation Yrotation Xrotation
								End Site
								{
									OFFSET 0.000000 0.000000 0.000000
								}
							}
						}
					}
				}
			}
		}
	}
}
MOTION
Frames: 116
Frame Time: 0.050000
0.000000 0.960242 0.000000 0.103340 -4.056979 -5.589661 2.192313 0.905278 11.078004 -2.769897 0.423741 -8.007672 7.048191 15.823993 14.098505 0.000000 0.000000 0.000000 -3.875241 -0.377103 7.651422 3.934043 -0.402700 -3.277815 -1.053369 -6.688192 9.442472 0.000000 0.000000 0.000000 5.738564 -0.908678 11.128276 -6.849844 2.442962 -18.971729 -2.312366 6.622419 25.051471 10.522271 -3.700837 -26.943045 0.000000 0.000000 0.000000 -25.466038 -16.070583 6.694879 -43.219631 -5.391199 -4.749149 -5.482282 -23.167305 1.965311 0.000000 0.000000 0.000000 33.132500 3.055867 1.771249 48.753425 8.605912 -4.123590 6.155547 26.127892 2.625762 0.000000 0.000000 0.000000 
-0.000160 0.959030 0.000458 0.301225 -4.540989 -5.658839 1.814330 1.002157 11.628701 -2.527717 0.428687 -8.719526 7.272286 16.138394 14.154955 0.000000 0.000000 0.000000 -3.916071 -0.335244 7.166178 3.526966 -0.365661 -2.569883 -0.951274 -6.422164 9.119096 0.000000 0.000000 0.000000 6.045343 -0.945489 11.352939 -7.786275 2.728894 -18.756309 -2.485535 6.859166 24.302159 10.970529 -3.742065 -27.975926 0.000000 0.000000 0.000000 -24.629111 -16.359350 6.816257 -44.079897 -5.541635 -4.746096 -5.064669 -22.658238 1.839178 0.000000 0.000000 0.000000 33.199236 2.908231 1.618665 50.330272 7.447109 -4.576491 5.498922 27.469902 2.668263 0.000000 0.000000 0.000000 
-0.000188 0.958631 0.000639 0.309106 -4.408278 -5.440403 2.007672 0.932381 11.095160 -2.885075 0.435936 -8.202041 7.266446 16.118014 13.865104 0.000000 0.000000 0.000000 -3.892722 -0.334883 7.101340 3.243764 -0.349445 -2.971438 -0.740708 -6.093950 9.403120 0.000000 0.000000 0.000000 6.002431 -0.949177 11.365703 -7.739046 2.672186 -19.674301 -2.224944 6.597310 25.065237 10.378026 -3.477260 -28.046998 0.000000 0.000000 0.000000 -24.905125 -16.583532 7.090726 -43.531739 -5.698135 -4.737948 -5.308731 -22.225040 1.853066 0.000000 0.000000 0.000000 33.431554 3.119117 1.703152 49.126112 7.262009 -4.646132 6.703226 27.229692 2.885484 0.000000 0.000000 0.000000 
-0.000238 0.958911 0.000794 0.572200 -4.439949 -6.306703 1.606834 1.093298 12.403305 -2.611204 0.434313 -8.838765 7.152235 15.975508 14.161085 0.000000 0.000000 0.000000 -4.238243 -0.360482 8.039954 3.543699 -0.373240 -3.284005 -0.966944 -6.721997 9.887289 0.000000 0.000000 0.000000 6.074936 -1.013543 12.278257 -8.006138 2.781594 -19.316041 -2.604012 6.658287 24.958618 11.031440 -3.805960 -28.284391 0.000000 0.000000 0.000000 -25.029316 -17.575275 7.643423 -42.990013 -5.288025 -4.783658 -4.851436 -22.947654 1.813451 0.000000 0.000000 0.000000 34.054541 3.390766 1.937106 48.744516 7.036258 -4.736824 6.666714 27.782730 2.947183 0.000000 0.000000 0.000000 
-0.000260 0.959029 0.000874 0.520408 -4.202912 -6.427261 1.705947 1.078797 12.424210 -2.644670 0.430444 -8.665979 7.040685 15.816994 14.057658 0.000000 0.000000 0.000000 -4.097075 -0.386310 8.149163 3.328382 -0.362016 -3.417652 -0.989457 -6.912445 10.380032 0.000000 0.000000 0.000000 5.871900 -1.010314 12.457155 -7.441461 2.645033 -18.680433 -2.868642 6.395196 24.240075 10.765622 -3.804064 -27.366906 0.000000 0.000000 0.000000 -25.049629 -17.480066 7.577610 -43.136780 -5.478371 -4.675483 -5.209970 -23.485800 1.930649 0.000000 0.000000 0.000000 33.986741 3.581619 1.985225 48.609601 6.908873 -4.677955 6.820765 27.531536 2.923884 0.000000 0.000000 0.000000 
-0.000249 0.959390 0.000994 0.555675 -4.268592 -6.522204 1.522248 1.112216 12.565120 -2.390895 0.420399 -8.717606 7.063106 15.855223 14.200475 0.000000 0.000000 0.000000 -4.047721 -0.402262 8.379821 3.339191 -0.364179 -3.651155 -1.143307 -7.246405 10.469488 0.000000 0.000000 0.000000 5.887011 -1.021217 12.607206 -7.452543 2.634064 -18.998722 -2.868471 6.339730 24.530855 10.697809 -3.722116 -27.759731 0.000000 0.000000 0.000000 -24.976461 -17.801506 7.813771 -43.101095 -5.546003 -4.682528 -5.348386 -23.956681 2.002239 0.000000 0.000000 0.000000 33.970242 3.838429 2.141888 48.472491 7.042791 -4.636494 6.759047 26.904696 2.821674 0.000000 0.000000 0.000000 
-0.000239 0.959297 0.001052 0.534721 -4.077844 -6.460092 1.566332 1.089691 12.430681 -2.411779 0.417895 -8.625020 6.986925 15.744931 14.095267 0.000000 0.000000 0.000000 -3.966961 -0.407546 8.258414 3.122578 -0.351311 -3.612706 -1.100137 -7.206795 10.657353 0.000000 0.000000 0.000000 5.864545 -1.023220 12.609251 -7.268485 2.590738 -18.780708 -2.992552 6.177292 24.352678 10.716032 -3.742625 -27.701908 0.000000 0.000000 0.000000 -24.954252 -17.559634 7.669701 -43.239342 -5.565393 -4.677803 -5.598852 -24.634857 2.118954 0.000000 0.000000 0.000000 33.859902 3.819713 2.102061 48.601779 6.984987 -4.638444 7.003357 26.864432 2.868754 0.000000 0.000000 0.000000 
-0.000233 0.959308 0.001089 0.551621 -3.839156 -6.330390 1.522377 1.060187 12.138718 -2.351114 0.408992 -8.406426 6.904854 15.625963 13.989985 0.000000 0.000000 0.000000 -3.930998 -0.410530 8.170066 3.023245 -0.346173 -3.594567 -1.172547 -7.296586 10.587104 0.000000 0.000000 0.000000 5.882604 -1.035993 12.670452 -7.240999 2.583499 -18.855844 -3.059986 6.183946 24.312652 10.831195 -3.799876 -27.604136 0.000000 0.000000 0.000000 -24.743502 -17.684064 7.674567 -43.282719 -5.592970 -4.655865 -5.936951 -25.140967 2.235095 0.000000 0.000000 0.000000 33.631749 3.605109 2.020637 48.816367 7.035692 -4.645988 7.210071 26.612369 2.892140 0.000000 0.000000 0.000000 
-0.000224 0.959352 0.001086 0.587514 -3.741011 -6.297665 1.438210 1.063996 12.118733 -2.263513 0.405111 -8.459154 6.857246 15.560314 14.006553 0.000000 0.000000 0.000000 -4.001398 -0.408583 8.217293 2.925270 -0.341652 -3.713732 -1.009669 -6.996962 10.658049 0.000000 0.000000 0.000000 5.809608 -1.039202 12.770065 -7.186461 2.564618 -18.952573 -3.027110 6.264168 24.343907 10.809415 -3.760711 -27.641859 0.000000 0.000000 0.000000 -24.855519 -17.611526 7.592120 -43.236274 -5.638948 -4.623421 -6.174052 -25.261879 2.295551 0.000000 0.000000 0.000000 33.601162 3.640922 2.110218 48.706303 6.930811 -4.701580 7.227816 26.624631 2.900442 0.000000 0.000000 0.000000 
-0.000216 0.959527 0.001057 0.578646 -3.714700 -6.278112 1.271575 1.068057 11.997395 -1.955151 0.387284 -8.299843 6.876862 15.590455 14.018530 0.000000 0.000000 0.000000 -4.028222 -0.409170 8.263147 2.900703 -0.342416 -3.901026 -0.895017 -6.856399 10.904395 0.000000 0.000000 0.000000 5.880707 -1.057993 12.901309 -7.246164 2.580878 -19.014478 -3.053467 6.455661 24.242651 10.787167 -3.684892 -27.768862 0.000000 0.000000 0.000000 -24.662963 -17.687506 7.543690 -43.300493 -5.490926 -4.651341 -6.369759 -25.451977 2.350067 0.000000 0.000000 0.000000 33.590608 3.573151 2.156242 48.716571 6.782047 -4.778527 7.221627 26.677708 2.913498 0.000000 0.000000 0.000000 
-0.000167 0.959712 0.001024 0.549951 -3.617293 -6.182742 1.334378 1.055440 11.959444 -2.008778 0.391782 -8.435202 6.811104 15.500350 14.071718 0.000000 0.000000 0.000000 -4.042317 -0.410915 8.285886 2.959625 -0.349076 -4.097668 -0.874023 -6.847554 11.034188 0.000000 0.000000 0.000000 5.929714 -1.069865 12.944326 -7.302298 2.592461 -19.177705 -2.986445 6.506039 24.342692 10.764583 -3.646069 -27.840058 0.000000 0.000000 0.000000 -24.657206 -17.745544 7.545189 -43.240275 -5.605667 -4.604126 -6.439997 -25.376184 2.354940 0.000000 0.000000 0.000000 33.631989 3.510093 2.165920 48.527050 6.762711 -4.800191 7.317657 26.523452 2.916255 0.000000 0.000000 0.000000 
-0.000057 0.959899 0.000983 0.540328 -3.517162 -6.104800 1.373513 1.048042 11.952630 -2.062688 0.396638 -8.595710 6.739883 15.403378 14.135274 0.000000 0.000000 0.000000 -4.059759 -0.408532 8.238006 2.981199 -0.352105 -4.187782 -0.872921 -6.890936 11.206904 0.000000 0.000000 0.000000 5.956317 -1.083873 13.041031 -7.290055 2.584926 -19.305740 -2.988756 6.575486 24.330883 10.680260 -3.548448 -27.990277 0.000000 0.000000 0.000000 -24.575198 -17.866985 7.566916 -43.257314 -5.666796 -4.572805 -6.541678 -25.225620 2.358200 0.000000 0.000000 0.000000 33.606858 3.462630 2.192059 48.475991 6.788767 -4.804226 7.218308 26.445599 2.887928 0.000000 0.000000 0.000000 
0.000139 0.960183 0.000916 0.507440 -3.503708 -6.021234 1.383522 1.050390 11.997611 -2.040801 0.400602 -8.845570 6.705011 15.360618 14.267293 0.000000 0.000000 0.000000 -4.101475 -0.404613 8.240847 3.009283 -0.355747 -4.363496 -0.733671 -6.686008 11.394068 0.000000 0.000000 0.000000 5.971481 -1.093824 13.115348 -7.333655 2.588450 -19.515163 -2.905248 6.603752 24.505481 10.749250 -3.536596 -28.300813 0.000000 0.000000 0.000000 -24.593829 -17.898562 7.586335 -43.222765 -5.679338 -4.578025 -6.491965 -25.297228 2.354800 0.000000 0.000000 0.000000 33.579644 3.349665 2.132808 48.488930 6.733061 -4.847615 7.147360 26.469471 2.880808 0.000000 0.000000 0.000000 
0.000376 0.960440 0.000785 0.499585 -3.485322 -5.945998 1.379623 1.049550 11.992589 -2.047000 0.403882 -9.002402 6.674844 15.323156 14.370647 0.000000 0.000000 0.000000 -4.166354 -0.394941 8.175331 3.060941 -0.359611 -4.430980 -0.652279 -6.585408 11.562199 0.000000 0.000000 0.000000 5.947860 -1.104731 13.250105 -7.271434 2.559880 -19.740605 -2.923875 6.626346 24.518896 10.747750 -3.528883 -28.319008 0.000000 0.000000 0.000000 -24.722756 -17.978579 7.633787 -43.128606 -5.570063 -4.601642 -6.602683 -25.294445 2.377593 0.000000 0.000000 0.000000 33.592674 3.325743 2.129355 48.469799 6.663653 -4.879789 6.938441 26.493163 2.839087 0.000000 0.000000 0.000000 
0.000638 0.960588 0.000565 0.455044 -3.503914 -5.827538 1.397969 1.045209 11.965616 -2.032475 0.407525 -9.203594 6.669352 15.319116 14.461753 0.000000 0.000000 0.000000 -4.216174 -0.387558 8.146501 3.157478 -0.366533 -4.581862 -0.544384 -6.398168 11.610679 0.000000 0.000000 0.000000 6.001492 -1.115652 13.286733 -7.293225 2.558202 -19.891733 -2.893628 6.659716 24.530116 10.833517 -3.547538 -28.464689 0.000000 0.000000 0.000000 -24.738475 -17.954496 7.614260 -43.135126 -5.626491 -4.581079 -6.538750 -25.205468 2.354671 0.000000 0.000000 0.000000 33.566202 3.189217 2.041467 48.454905 6.680266 -4.875228 6.855802 26.469952 2.820940 0.000000 0.000000 0.000000 
0.000874 0.960813 0.000223 0.420725 -3.599293 -5.650501 1.379407 1.035533 11.819974 -1.984023 0.408713 -9.313057 6.713019 15.383476 14.578356 0.000000 0.000000 0.000000 -4.297555 -0.368297 7.994553 3.214013 -0.370091 -4.731237 -0.316022 -6.044264 11.808452 0.000000 0.000000 0.000000 5.963114 -1.117448 13.328440 -7.352385 2.559790 -20.162783 -2.838189 6.701267 24.643187 10.747538 -3.483394 -28.593401 0.000000 0.000000 0.000000 -24.864406 -18.070473 7.709033 -42.940635 -5.542598 -4.598670 -6.484711 -25.353138 2.356812 0.000000 0.000000 0.000000 33.639943 3.176202 2.023101 48.488383 6.666009 -4.890460 6.714660 26.645660 2.813955 0.000000 0.000000 0.000000 
0.001097 0.961000 -0.000124 0.415614 -3.608206 -5.558848 1.352227 1.033976 11.775205 -1.957555 0.410779 -9.452529 6.704424 15.375255 14.674461 0.000000 0.000000 0.000000 -4.289568 -0.365934 7.957084 3.147901 -0.366880 -4.816590 -0.237820 -5.893491 11.798691 0.000000 0.000000 0.000000 5.975505 -1.122583 13.352544 -7.426694 2.578910 -20.193654 -2.884865 6.592172 24.621792 10.744369 -3.482035 -28.692744 0.000000 0.000000 0.000000 -24.885076 -18.137146 7.792093 -42.917052 -5.708358 -4.550734 -6.400797 -25.376366 2.343489 0.000000 0.000000 0.000000 33.781608 3.206155 1.988556 48.432494 6.815736 -4.813098 6.580642 26.796222 2.798862 0.000000 0.000000 0.000000 
0.001280 0.961220 -0.000397 0.440895 -3.686457 -5.489642 1.312462 1.037761 11.753792 -1.969853 0.414550 -9.571700 6.724529 15.407085 14.795743 0.000000 0.000000 0.000000 -4.403162 -0.354488 7.983899 3.077790 -0.363772 -4.988410 0.076990 -5.331208 11.865846 0.000000 0.000000 0.000000 5.899338 -1.123296 13.457085 -7.442767 2.572067 -20.403381 -2.904810 6.659953 24.743024 10.669076 -3.415047 -28.854419 0.000000 0.000000 0.000000 -24.982796 -18.302595 7.901964 -42.792447 -5.808409 -4.515042 -6.396073 -25.487891 2.352242 0.000000 0.000000 0.000000 33.908043 3.222865 2.011087 48.465123 6.825559 -4.829957 6.420351 27.115664 2.807363 0.000000 0.000000 0.000000 
0.001407 0.961491 -0.000589 0.455831 -3.700904 -5.463358 1.249877 1.047762 11.792718 -1.904484 0.415616 -9.715545 6.710821 15.393854 14.920536 0.000000 0.000000 0.000000 -4.435730 -0.355700 8.077056 2.963836 -0.360460 -5.292069 0.276745 -5.064666 12.163504 0.000000 0.000000 0.000000 5.836255 -1.124907 13.554622 -7.488110 2.584219 -20.413711 -2.949485 6.650304 24.662535 10.679563 -3.402886 -28.961456 0.000000 0.000000 0.000000 -25.070951 -18.350070 7.938366 -42.681686 -5.799887 -4.499218 -6.376952 -25.698212 2.367525 0.000000 0.000000 0.000000 34.063426 3.177474 1.962763 48.433882 6.863308 -4.804714 6.517744 27.366358 2.860277 0.000000 0.000000 0.000000 
0.001474 0.961713 -0.000759 0.457090 -3.736084 -5.430780 1.240902 1.051343 11.813357 -1.903406 0.418503 -9.829662 6.708650 15.395320 15.023679 0.000000 0.000000 0.000000 -4.501594 -0.349050 8.085008 2.939914 -0.360711 -5.471237 0.479343 -4.791178 12.442069 0.000000 0.000000 0.000000 5.787979 -1.126083 13.632809 -7.479930 2.579990 -20.434079 -3.061828 6.607197 24.576114 10.871333 -3.473303 -29.226092 0.000000 0.000000 0.000000 -25.242061 -18.289582 7.931535 -42.429316 -5.735595 -4.492484 -6.404991 -25.866721 2.389736 0.000000 0.000000 0.000000 34.316194 3.197572 1.943971 48.375929 6.906027 -4.775087 6.346518 27.500747 2.834953 0.000000 0.000000 0.000000 
0.001509 0.961968 -0.000939 0.398858 -3.783656 -5.356442 1.289683 1.042256 11.758654 -1.890455 0.419659 -9.884253 6.723376 15.418907 15.109848 0.000000 0.000000 0.000000 -4.498312 -0.350185 8.132336 2.956502 -0.364070 -5.774364 0.651607 -4.584644 12.738493 0.000000 0.000000 0.000000 5.700898 -1.118878 13.646820 -7.381085 2.544074 -20.554168 -3.117046 6.735892 24.552073 11.019795 -3.505061 -29.418621 0.000000 0.000000 0.000000 -25.245810 -18.348487 7.932013 -42.357784 -5.638387 -4.505680 -6.349538 -26.181548 2.404548 0.000000 0.000000 0.000000 34.489466 3.074458 1.901372 48.453469 6.796894 -4.838997 6.280485 27.646251 2.846605 0.000000 0.000000 0.000000 
0.001575 0.962302 -0.001098 0.367140 -3.830778 -5.230605 1.257154 1.029828 11.585061 -1.793855 0.415602 -9.834251 6.753320 15.463315 15.199202 0.000000 0.000000 0.000000 -4.452739 -0.345921 8.008848 2.873468 -0.361165 -5.926990 0.766422 -4.499962 13.066608 0.000000 0.000000 0.000000 5.746024 -1.117886 13.551453 -7.513940 2.575794 -20.648469 -3.139388 6.731730 24.599594 11.248157 -3.554787 -29.907830 0.000000 0.000000 0.000000 -25.303378 -18.375984 7.970224 -42.203337 -5.641634 -4.496853 -6.304468 -26.283426 2.404164 0.000000 0.000000 0.000000 34.679571 3.119267 1.924336 48.456112 6.915465 -4.801819 6.313303 27.535746 2.840262 0.000000 0.000000 0.000000 
0.001721 0.962634 -0.001221 0.343610 -3.882143 -5.174950 1.326762 1.020458 11.544351 -1.895708 0.420332 -9.872844 6.758115 15.472878 15.298432 0.000000 0.000000 0.000000 -4.427980 -0.347553 8.027235 2.829988 -0.361430 -6.190503 0.858093 -4.469376 13.418149 0.000000 0.000000 0.000000 5.769341 -1.117744 13.516296 -7.613317 2.601806 -20.671438 -3.138660 6.705548 24.591234 11.366749 -3.599217 -30.079188 0.000000 0.000000 0.000000 -25.280373 -18.373637 7.988365 -42.168596 -5.706428 -4.478650 -6.009077 -26.331636 2.342415 0.000000 0.000000 0.000000 34.704502 3.111723 1.891328 48.507501 6.953295 -4.782129 6.265397 27.436274 2.815171 0.000000 0.000000 0.000000 
0.001933 0.962838 -0.001311 0.340340 -3.969857 -5.224842 1.325639 1.023074 11.546904 -1.918354 0.419745 -9.777811 6.798573 15.529151 15.336415 0.000000 0.000000 0.000000 -4.418217 -0.351178 8.110768 2.771605 -0.359141 -6.281086 0.937076 -4.372806 13.514114 0.000000 0.000000 0.000000 5.806546 -1.129138 13.636348 -7.635910 2.602130 -20.786027 -3.158658 6.699660 24.641456 11.393395 -3.547444 -30.527028 0.000000 0.000000 0.000000 -25.328611 -18.198196 7.907956 -42.035305 -5.807167 -4.446056 -6.011249 -26.455119 2.355999 0.000000 0.000000 0.000000 34.867072 3.164581 1.905367 48.244583 7.162622 -4.690521 6.339472 27.259288 2.802906 0.000000 0.000000 0.000000 
0.002144 0.963037 -0.001432 0.367872 -3.964988 -5.247008 1.330290 1.027864 11.602711 -1.999514 0.424162 -9.851518 6.772359 15.495882 15.405085 0.000000 0.000000 0.000000 -4.435413 -0.351019 8.133786 2.702352 -0.358214 -6.460661 0.978160 -4.443185 13.899729 0.000000 0.000000 0.000000 5.847309 -1.138388 13.702510 -7.670993 2.612017 -20.804252 -3.116675 6.651984 24.589028 11.423059 -3.540112 -30.705459 0.000000 0.000000 0.000000 -25.443093 -18.196389 7.927682 -41.801647 -5.833737 -4.412392 -6.013982 -26.422398 2.352366 0.000000 0.000000 0.000000 35.034617 3.274987 1.958897 47.872115 7.384010 -4.575608 6.407950 26.968698 2.769291 0.000000 0.000000 0.000000 
0.002306 0.963139 -0.001651 0.373692 -3.962636 -5.320104 1.429317 1.029148 11.717067 -2.195002 0.432477 -9.933401 6.740308 15.453336 15.440535 0.000000 0.000000 0.000000 -4.588511 -0.341080 8.203740 2.799207 -0.363275 -6.552970 1.188751 -4.160462 14.166018 0.000000 0.000000 0.000000 5.843792 -1.151387 13.882436 -7.675560 2.611203 -20.879604 -3.076401 6.604699 24.556419 11.450704 -3.483512 -31.152120 0.000000 0.000000 0.000000 -25.347926 -18.057212 7.849771 -41.746038 -5.957988 -4.373858 -6.166830 -26.395162 2.385717 0.000000 0.000000 0.000000 35.132049 3.283653 1.941505 47.532041 7.642505 -4.453647 6.500338 26.725219 2.750614 0.000000 0.000000 0.000000 
0.002410 0.963237 -0.001965 0.401615 -4.004375 -5.378785 1.411480 1.038533 11.785408 -2.228143 0.434862 -9.972329 6.745856 15.462520 15.493152 0.000000 0.000000 0.000000 -4.696955 -0.330740 8.213097 2.890956 -0.367172 -6.614707 1.263688 -4.126510 14.414905 0.000000 0.000000 0.000000 5.857806 -1.158169 13.970894 -7.679292 2.605398 -21.032622 -2.994233 6.601261 24.684175 11.426791 -3.463113 -31.263059 0.000000 0.000000 0.000000 -25.305771 -18.025126 7.846279 -41.541649 -6.017503 -4.351886 -6.325201 -26.330218 2.415293 0.000000 0.000000 0.000000 35.211300 3.410735 2.023521 47.184101 7.929267 -4.337925 6.547046 26.528189 2.728120 0.000000 0.000000 0.000000 
0.002512 0.963282 -0.002332 0.432734 -4.065077 -5.345229 1.426879 1.026120 11.648586 -2.335676 0.436355 -9.832594 6.782687 15.510582 15.489438 0.000000 0.000000 0.000000 -4.806285 -0.312162 8.083257 2.954094 -0.368989 -6.617327 1.371545 -4.025916 14.636114 0.000000 0.000000 0.000000 5.855683 -1.163799 14.051063 -7.714871 2.611024 -21.097756 -2.869342 6.553848 24.535180 11.389840 -3.407117 -31.507632 0.000000 0.000000 0.000000 -25.315459 -18.032415 7.876088 -41.340097 -6.061694 -4.312671 -6.490905 -26.138947 2.433633 0.000000 0.000000 0.000000 35.188427 3.579243 2.096422 46.790595 8.096963 -4.225359 6.768959 26.308489 2.733564 0.000000 0.000000 0.000000 
0.002606 0.963257 -0.002679 0.480060 -4.236483 -5.339291 1.429850 1.032279 11.667492 -2.461856 0.443727 -9.891581 6.852829 15.604969 15.555119 0.000000 0.000000 0.000000 -4.976227 -0.288388 8.015602 3.094714 -0.372687 -6.618133 1.523797 -3.797120 14.685186 0.000000 0.000000 0.000000 5.814610 -1.173996 14.268265 -7.698578 2.589796 -21.332791 -2.799541 6.608226 24.523915 11.359927 -3.365310 -31.701063 0.000000 0.000000 0.000000 -25.288775 -18.052461 7.904314 -41.215636 -6.190586 -4.264135 -6.620753 -25.924913 2.440259 0.000000 0.000000 0.000000 35.272717 3.690583 2.152723 46.440706 8.289838 -4.131263 6.833746 26.245792 2.731291 0.000000 0.000000 0.000000 
0.002691 0.963077 -0.003014 0.476850 -4.407482 -5.295331 1.422835 1.038107 11.676665 -2.475974 0.448117 -10.000389 6.937388 15.718286 15.589400 0.000000 0.000000 0.000000 -5.038503 -0.270193 7.853905 3.188088 -0.373703 -6.539395 1.597736 -3.693451 14.696217 0.000000 0.000000 0.000000 5.775906 -1.180565 14.435333 -7.587870 2.545650 -21.535420 -2.740495 6.693440 24.401060 11.449582 -3.360005 -31.983525 0.000000 0.000000 0.000000 -25.306941 -18.071949 7.920869 -41.004570 -6.186810 -4.236246 -6.811416 -25.507481 2.438387 0.000000 0.000000 0.000000 35.383373 3.827555 2.236564 45.997649 8.407024 -4.052793 6.832243 26.050722 2.694712 0.000000 0.000000 0.000000 
0.002750 0.963004 -0.003326 0.473345 -4.525773 -5.215570 1.420034 1.027221 11.527799 -2.491002 0.448170 -9.909499 7.014210 15.820186 15.583376 0.000000 0.000000 0.000000 -5.110366 -0.249091 7.616649 3.273748 -0.374884 -6.399326 1.691842 -3.569142 14.765152 0.000000 0.000000 0.000000 5.818357 -1.186517 14.458645 -7.529948 2.520563 -21.662868 -2.669998 6.806247 24.397831 11.505753 -3.342859 -32.210221 0.000000 0.000000 0.000000 -25.312411 -18.173322 7.972021 -41.018351 -6.224468 -4.221202 -6.846832 -25.233190 2.417446 0.000000 0.000000 0.000000 35.385495 3.991714 2.375128 45.674714 8.641215 -3.956370 6.639293 25.921664 2.630811 0.000000 0.000000 0.000000 
0.002764 0.963183 -0.003622 0.457959 -4.644716 -5.043683 1.345252 1.014951 11.298905 -2.357597 0.443612 -9.857253 7.093242 15.927584 15.665035 0.000000 0.000000 0.000000 -5.101589 -0.234771 7.387076 3.234565 -0.371684 -6.369737 1.821187 -3.367060 14.798593 0.000000 0.000000 0.000000 5.803020 -1.193492 14.553018 -7.600852 2.520806 -22.017697 -2.473022 6.851847 24.421779 11.451056 -3.302563 -32.307425 0.000000 0.000000 0.000000 -25.323682 -18.122674 7.960256 -40.890409 -6.285515 -4.195045 -6.948174 -24.759691 2.391113 0.000000 0.000000 0.000000 35.442829 4.104875 2.436923 45.230935 8.720096 -3.899058 6.695807 25.754908 2.611201 0.000000 0.000000 0.000000 
0.002782 0.963545 -0.003874 0.448373 -4.734150 -4.889902 1.225218 1.005565 11.069047 -2.150930 0.435196 -9.771780 7.156191 16.014820 15.781154 0.000000 0.000000 0.000000 -5.030708 -0.227363 7.165648 3.137971 -0.366383 -6.313010 1.853731 -3.341523 14.847728 0.000000 0.000000 0.000000 5.749985 -1.192864 14.605853 -7.532972 2.485408 -22.330527 -2.276863 6.994405 24.582129 11.572924 -3.342960 -32.405127 0.000000 0.000000 0.000000 -25.459454 -18.069680 7.922294 -40.655193 -6.315489 -4.168373 -7.094692 -24.443209 2.387397 0.000000 0.000000 0.000000 35.519790 4.163078 2.518427 44.580331 8.982581 -3.800542 6.742897 25.710150 2.607511 0.000000 0.000000 0.000000 
0.002773 0.963886 -0.004092 0.450183 -4.569406 -4.747091 1.221504 0.979743 10.837985 -2.134838 0.431312 -9.699105 7.076891 15.909594 15.819938 0.000000 0.000000 0.000000 -4.971557 -0.224714 6.942682 2.916587 -0.358415 -6.259256 1.955399 -3.235964 15.102272 0.000000 0.000000 0.000000 5.662884 -1.196977 14.711610 -7.426186 2.451917 -22.476087 -2.244550 6.982484 24.429988 11.563159 -3.333304 -32.321934 0.000000 0.000000 0.000000 -25.654551 -18.039165 7.878779 -40.185531 -6.236898 -4.119057 -7.264541 -24.027836 2.373762 0.000000 0.000000 0.000000 35.658684 4.194630 2.576108 43.961283 8.945036 -3.781504 6.817786 25.529902 2.591084 0.000000 0.000000 0.000000 
0.002723 0.964410 -0.004271 0.410256 -4.383712 -4.634289 1.237074 0.969718 10.796878 -2.061065 0.431109 -9.894204 6.953819 15.750851 15.965930 0.000000 0.000000 0.000000 -4.900069 -0.237005 7.000827 2.698282 -0.353383 -6.476899 2.173849 -2.879744 15.266372 0.000000 0.000000 0.000000 5.654024 -1.200219 14.688510 -7.442116 2.454913 -22.571732 -2.095526 6.965399 24.441261 11.608863 -3.330744 -32.390672 0.000000 0.000000 0.000000 -25.715649 -17.934759 7.786214 -39.925407 -6.124065 -4.117664 -7.101629 -23.673155 2.299935 0.000000 0.000000 0.000000 35.703429 4.006405 2.477510 43.411580 8.915697 -3.776545 7.074521 25.725481 2.666128 0.000000 0.000000 0.000000 
0.002620 0.964839 -0.004503 0.392169 -4.131219 -4.518929 1.149797 0.953739 10.610849 -1.837008 0.420258 -9.865202 6.833743 15.596025 16.024157 0.000000 0.000000 0.000000 -4.725217 -0.250328 6.866162 2.478690 -0.346728 -6.461350 2.035181 -3.156249 15.438450 0.000000 0.000000 0.000000 5.668778 -1.220646 14.826802 -7.402629 2.436740 -22.850091 -2.095281 7.094413 24.487012 11.749236 -3.404162 -32.161253 0.000000 0.000000 0.000000 -26.060033 -17.805950 7.625466 -39.157788 -5.827086 -4.097703 -6.946234 -23.324356 2.221891 0.000000 0.000000 0.000000 35.983104 3.820289 2.476774 42.892327 8.813148 -3.833396 7.069321 25.906421 2.689931 0.000000 0.000000 0.000000 
0.002512 0.965331 -0.004827 0.342141 -3.864414 -4.396868 1.155301 0.926005 10.386593 -1.712004 0.411590 -9.789783 6.702858 15.427573 16.070641 0.000000 0.000000 0.000000 -4.518551 -0.270404 6.820858 2.304800 -0.344280 -6.632553 1.859169 -3.532044 15.713648 0.000000 0.000000 0.000000 5.608383 -1.230770 14.945648 -7.259601 2.398845 -22.943546 -2.031245 6.945355 24.461807 11.639292 -3.367727 -32.038002 0.000000 0.000000 0.000000 -26.634465 -17.685649 7.578556 -38.322962 -5.731993 -4.026588 -6.557544 -22.859538 2.094600 0.000000 0.000000 0.000000 36.072299 3.713307 2.394941 42.406276 8.695091 -3.842670 7.149768 25.977011 2.707917 0.000000 0.000000 0.000000 
0.002415 0.965688 -0.005228 0.276946 -3.663007 -4.263491 1.215740 0.880628 10.002140 -1.664811 0.399962 -9.451541 6.632014 15.336403 16.022743 0.000000 0.000000 0.000000 -4.366832 -0.272364 6.557683 2.199667 -0.339959 -6.523537 1.756279 -3.787864 15.998290 0.000000 0.000000 0.000000 5.654120 -1.256854 15.114153 -7.297390 2.405373 -23.162602 -2.018300 6.886218 24.491823 11.800085 -3.453466 -32.016270 0.000000 0.000000 0.000000 -26.865205 -17.715713 7.590931 -38.015680 -5.580526 -4.033005 -6.454460 -22.571293 2.044852 0.000000 0.000000 0.000000 36.151126 3.541621 2.290002 42.132408 8.630631 -3.858405 7.410137 26.049432 2.770099 0.000000 0.000000 0.000000 
0.002410 0.965952 -0.005659 0.200628 -3.439993 -4.190671 1.134994 0.866262 9.826693 -1.353478 0.384719 -9.372728 6.542937 15.223679 16.022665 0.000000 0.000000 0.000000 -4.248443 -0.282146 6.483627 2.159447 -0.341264 -6.595450 1.667647 -4.007045 16.272647 0.000000 0.000000 0.000000 5.559265 -1.270116 15.343632 -7.268349 2.398520 -23.231720 -2.015627 6.659323 24.404214 11.699281 -3.385114 -32.162018 0.000000 0.000000 0.000000 -27.035835 -17.493789 7.486865 -37.661097 -5.502988 -4.016146 -6.383613 -22.430744 2.017429 0.000000 0.000000 0.000000 36.300866 3.328591 2.080660 41.969158 8.590094 -3.843741 7.477635 26.034355 2.780206 0.000000 0.000000 0.000000 
0.002462 0.966228 -0.006046 0.128290 -3.201218 -4.291711 1.043691 0.859614 9.725306 -1.027138 0.362787 -9.088316 6.455636 15.111887 15.954223 0.000000 0.000000 0.000000 -4.047619 -0.307085 6.535933 2.008435 -0.338710 -6.703149 1.485084 -4.475992 16.805082 0.000000 0.000000 0.000000 5.562161 -1.305858 15.728876 -7.288267 2.412528 -23.158515 -1.985938 6.403036 24.433123 11.639146 -3.456797 -31.720286 0.000000 0.000000 0.000000 -27.300296 -17.661085 7.645635 -37.429234 -5.456487 -4.014968 -6.112029 -22.545110 1.975480 0.000000 0.000000 0.000000 36.343554 3.401494 2.084557 41.918817 8.503501 -3.858717 7.599845 26.384306 2.847358 0.000000 0.000000 0.000000 
0.002589 0.966275 -0.006370 0.087024 -3.088363 -4.299524 0.918990 0.851573 9.553472 -0.731781 0.342724 -8.832769 6.441519 15.093583 15.878969 0.000000 0.000000 0.000000 -3.942336 -0.315505 6.494712 1.892249 -0.336060 -6.768408 1.432371 -4.661009 17.129029 0.000000 0.000000 0.000000 5.554156 -1.330247 16.005002 -7.188654 2.390077 -23.121552 -2.029044 6.457475 24.515488 11.729835 -3.472844 -31.839224 0.000000 0.000000 0.000000 -27.280560 -17.831181 7.707968 -37.356209 -5.585881 -3.968547 -6.168375 -22.623058 1.990892 0.000000 0.000000 0.000000 36.550028 3.282630 2.056337 41.665780 8.605886 -3.841212 7.866607 26.477758 2.918058 0.000000 0.000000 0.000000 
0.002703 0.966429 -0.006665 0.056508 -3.143995 -4.346942 0.701050 0.860458 9.451836 -0.309366 0.317719 -8.592906 6.509238 15.187331 15.890867 0.000000 0.000000 0.000000 -3.928288 -0.305159 6.307255 1.935852 -0.334827 -6.622473 1.403999 -4.867666 17.558953 0.000000 0.000000 0.000000 5.501610 -1.374764 16.666187 -7.181638 2.377801 -23.383484 -1.955954 6.431053 24.720751 11.738858 -3.494165 -31.870780 0.000000 0.000000 0.000000 -27.239532 -18.115032 7.918375 -37.395142 -5.864054 -3.921692 -5.970194 -22.686370 1.958720 0.000000 0.000000 0.000000 36.522057 3.458785 2.168672 41.552369 8.700810 -3.815813 8.060531 26.493057 2.956801 0.000000 0.000000 0.000000 
0.002813 0.966288 -0.006986 0.044036 -3.305735 -4.350887 0.634422 0.843201 9.184852 -0.202788 0.297021 -8.126062 6.650276 15.369788 15.785214 0.000000 0.000000 0.000000 -3.897639 -0.296427 6.168214 1.931705 -0.332322 -6.557846 1.394036 -4.959898 17.697895 0.000000 0.000000 0.000000 5.438251 -1.409973 17.271780 -7.054152 2.339255 -23.447112 -2.012740 6.439642 24.722508 11.836621 -3.503375 -32.189529 0.000000 0.000000 0.000000 -27.139551 -18.270783 8.042803 -37.459049 -6.079070 -3.880370 -6.284940 -23.029577 2.053682 0.000000 0.000000 0.000000 36.594087 3.687024 2.302193 41.504108 8.856511 -3.754809 8.334684 26.667911 3.035559 0.000000 0.000000 0.000000 
0.002874 0.966290 -0.007177 0.034612 -3.457732 -4.416140 0.560642 0.851131 9.181129 -0.076820 0.286613 -7.988856 6.744448 15.495752 15.797883 0.000000 0.000000 0.000000 -3.869311 -0.288339 6.030614 1.967582 -0.331565 -6.489691 1.317780 -5.251079 18.099939 0.000000 0.000000 0.000000 5.305356 -1.466297 18.308575 -7.048033 2.320115 -23.799215 -1.914254 6.395065 24.721466 11.790267 -3.454896 -32.462107 0.000000 0.000000 0.000000 -26.945131 -18.547790 8.252086 -37.742722 -6.205740 -3.892719 -6.527860 -23.465644 2.145938 0.000000 0.000000 0.000000 36.478077 3.920282 2.414068 41.615068 8.975356 -3.705548 8.676685 26.810622 3.125564 0.000000 0.000000 0.000000 
0.002944 0.966179 -0.007123 0.027726 -3.797347 -4.470386 0.457667 0.875808 9.294510 0.072563 0.281588 -8.015331 6.925328 15.736824 15.874707 0.000000 0.000000 0.000000 -3.820631 -0.290739 6.104816 1.943703 -0.333052 -6.753176 1.371182 -5.322559 18.400075 0.000000 0.000000 0.000000 5.250980 -1.495813 18.961382 -6.984300 2.292774 -23.939072 -1.956523 6.561022 24.762301 11.972202 -3.497167 -32.801310 0.000000 0.000000 0.000000 -26.658858 -18.847946 8.433408 -37.901193 -6.399852 -3.865730 -6.998458 -23.858063 2.280965 0.000000 0.000000 0.000000 36.667154 4.190882 2.609991 41.495100 9.110340 -3.662261 8.940956 26.782201 3.175325 0.000000 0.000000 0.000000 
0.003054 0.966095 -0.006796 -0.014787 -4.123858 -4.507599 0.244829 0.910123 9.420116 0.477054 0.265287 -8.067432 7.112819 15.989051 15.972277 0.000000 0.000000 0.000000 -3.648316 -0.298069 6.098486 1.907326 -0.331389 -6.874386 1.186473 -5.759242 18.623466 0.000000 0.000000 0.000000 5.208418 -1.537013 19.774709 -6.868942 2.251851 -24.187405 -1.982216 6.650676 24.839208 11.894315 -3.412036 -33.145248 0.000000 0.000000 0.000000 -26.405776 -19.209704 8.681428 -38.161928 -6.619621 -3.849596 -7.291004 -24.181836 2.378591 0.000000 0.000000 0.000000 36.714451 4.535162 2.825810 41.580418 9.126815 -3.652947 9.100682 26.805851 3.208541 0.000000 0.000000 0.000000 
0.003252 0.966270 -0.006262 -0.035292 -4.337455 -4.386202 0.115794 0.926470 9.448563 0.686174 0.264031 -8.253989 7.217689 16.129020 16.129196 0.000000 0.000000 0.000000 -3.530294 -0.301146 6.077575 1.882941 -0.334638 -7.213794 1.028977 -6.168126 18.977519 0.000000 0.000000 0.000000 5.238579 -1.569188 20.229710 -6.831071 2.236839 -24.194292 -2.006189 6.656334 24.874418 12.024326 -3.414496 -33.598851 0.000000 0.000000 0.000000 -26.093013 -19.675353 8.988844 -38.496405 -6.945589 -3.800770 -7.503785 -24.478804 2.457874 0.000000 0.000000 0.000000 36.637442 4.814318 2.987066 41.773954 9.278433 -3.599901 8.870315 26.673606 3.137168 0.000000 0.000000 0.000000 
0.003546 0.966352 -0.005608 -0.059033 -4.290960 -4.101918 0.075162 0.930242 9.462130 0.759451 0.284048 -8.760439 7.162322 16.056876 16.263822 0.000000 0.000000 0.000000 -3.508730 -0.283685 5.785415 1.822962 -0.334445 -7.311239 1.039241 -6.256865 19.340138 0.000000 0.000000 0.000000 5.178880 -1.621282 21.002222 -6.740887 2.200160 -24.548988 -2.084384 6.354765 25.027460 11.859870 -3.332612 -33.849927 0.000000 0.000000 0.000000 -25.919853 -20.030081 9.304178 -38.691148 -7.429550 -3.718966 -7.620731 -24.683368 2.512688 0.000000 0.000000 0.000000 36.584834 5.093850 3.079752 41.909477 9.314908 -3.569742 8.921966 26.662210 3.142870 0.000000 0.000000 0.000000 
0.003952 0.966660 -0.004919 -0.105170 -4.382499 -3.813169 -0.012652 0.919216 9.274722 0.925739 0.283983 -8.894831 7.210612 16.121997 16.400575 0.000000 0.000000 0.000000 -3.550660 -0.259733 5.502575 1.920283 -0.339747 -7.492611 1.107051 -6.323747 19.858354 0.000000 0.000000 0.000000 5.212006 -1.672682 21.620958 -6.588200 2.157447 -24.538741 -2.283045 6.205866 25.042180 11.911304 -3.316730 -34.273338 0.000000 0.000000 0.000000 -25.737762 -20.389387 9.583178 -38.788865 -7.851172 -3.626340 -7.469050 -25.028662 2.520788 0.000000 0.000000 0.000000 36.745424 5.453079 3.270730 41.844164 9.624663 -3.448595 8.364035 26.489201 2.989114 0.000000 0.000000 0.000000 
0.004495 0.967034 -0.004240 -0.133310 -4.409159 -3.469199 -0.055752 0.903643 9.088132 0.969455 0.294997 -9.152272 7.206475 16.117274 16.560713 0.000000 0.000000 0.000000 -3.652033 -0.233682 5.244800 2.036529 -0.345612 -7.666840 1.229750 -6.214615 20.131400 0.000000 0.000000 0.000000 5.217973 -1.738130 22.448469 -6.622773 2.153189 -24.716877 -2.290175 5.974737 25.002005 11.895282 -3.354869 -34.229081 0.000000 0.000000 0.000000 -25.826742 -20.789329 9.928311 -38.545959 -8.086355 -3.553324 -7.600049 -25.293418 2.579084 0.000000 0.000000 0.000000 36.815398 5.799239 3.420710 41.753998 9.878891 -3.328111 8.162304 26.360448 2.917999 0.000000 0.000000 0.000000 
0.005265 0.967446 -0.003530 -0.182632 -4.314264 -3.043441 -0.102410 0.874472 8.786751 1.045172 0.303559 -9.384550 7.148545 16.042712 16.685736 0.000000 0.000000 0.000000 -3.740914 -0.191746 4.679047 2.294803 -0.352496 -7.566365 1.019560 -6.671646 20.596423 0.000000 0.000000 0.000000 5.127608 -1.767469 22.940789 -6.393179 2.093632 -24.700309 -2.513462 5.805112 25.057627 12.197960 -3.475293 -34.522312 0.000000 0.000000 0.000000 -25.605670 -21.082462 10.131943 -38.464801 -8.557541 -3.426651 -7.306878 -25.502285 2.537192 0.000000 0.000000 0.000000 36.877774 6.017545 3.544904 41.697320 10.166386 -3.226817 7.468544 26.191994 2.742942 0.000000 0.000000 0.000000 
0.006385 0.967542 -0.002780 -0.170976 -3.995485 -2.480389 -0.156398 0.812330 8.184953 0.997615 0.305558 -9.400820 7.009312 15.859998 16.614285 0.000000 0.000000 0.000000 -3.877506 -0.135448 3.890887 2.424594 -0.355053 -7.263047 0.753316 -7.121792 20.902763 0.000000 0.000000 0.000000 5.118464 -1.868739 24.035944 -6.391045 2.075245 -25.288612 -2.655921 5.612730 25.491201 12.548920 -3.672363 -34.568414 0.000000 0.000000 0.000000 -25.702898 -21.795237 10.614580 -37.882597 -9.090948 -3.260396 -6.968379 -25.645777 2.470202 0.000000 0.000000 0.000000 36.808513 6.322662 3.804155 41.511777 10.687703 -3.095765 6.735477 26.189953 2.584616 0.000000 0.000000 0.000000 
0.008000 0.967510 -0.002161 -0.082705 -3.867602 -1.924255 -0.360666 0.760940 7.557880 0.987968 0.303518 -9.352794 6.979701 15.817621 16.558807 0.000000 0.000000 0.000000 -4.172741 -0.069808 3.132857 2.592213 -0.356901 -6.898438 0.651662 -7.229410 20.810480 0.000000 0.000000 0.000000 5.075282 -1.947049 25.063129 -6.390954 2.073802 -25.211789 -2.973109 5.603947 25.396754 12.861918 -3.785055 -34.709309 0.000000 0.000000 0.000000 -25.234961 -22.399584 10.899361 -37.522152 -10.188395 -2.913177 -6.441867 -25.287729 2.309104 0.000000 0.000000 0.000000 36.613936 6.706506 4.137262 41.503108 11.280196 -2.909859 5.560480 26.148563 2.326577 0.000000 0.000000 0.000000 
0.010136 0.967340 -0.001979 -0.051014 -3.540674 -1.358420 -0.507174 0.691250 6.819343 0.955746 0.296866 -9.206220 6.866908 15.665420 16.367057 0.000000 0.000000 0.000000 -4.371619 -0.010853 2.315502 2.621313 -0.354825 -6.443443 0.483760 -7.409252 20.731536 0.000000 0.000000 0.000000 4.964676 -2.075171 26.821280 -6.428718 2.059985 -25.947599 -3.039037 5.452088 25.842838 13.064640 -3.888299 -34.821041 0.000000 0.000000 0.000000 -25.594819 -23.285523 11.503602 -36.607111 -11.069746 -2.634237 -5.619474 -25.019358 2.093573 0.000000 0.000000 0.000000 36.534537 7.192762 4.555373 41.103191 12.293219 -2.626383 4.314947 25.911496 2.033068 0.000000 0.000000 0.000000 
0.012552 0.967397 -0.002452 0.044361 -3.193800 -0.714046 -0.766625 0.607005 5.876897 0.972344 0.282775 -8.939359 6.746056 15.503397 16.230568 0.000000 0.000000 0.000000 -4.582705 0.061462 1.258909 2.684974 -0.350187 -5.691664 0.050692 -7.934074 20.392932 0.000000 0.000000 0.000000 4.872961 -2.193616 28.350241 -6.313712 2.035043 -25.940122 -3.159278 5.205457 25.806463 13.257734 -3.875240 -35.410351 0.000000 0.000000 0.000000 -25.509731 -24.055124 11.991629 -36.154611 -12.421197 -2.243093 -4.424163 -24.080702 1.757349 0.000000 0.000000 0.000000 36.162654 7.824544 5.000274 40.683821 13.204559 -2.311140 2.632312 25.781889 1.656837 0.000000 0.000000 0.000000 
0.014662 0.967709 -0.003186 0.146833 -2.822186 0.094368 -0.955241 0.503380 4.794515 0.890646 0.277466 -8.771664 6.584993 15.295094 16.208785 0.000000 0.000000 0.000000 -4.825227 0.145269 0.001894 2.750992 -0.349003 -5.178739 -0.319381 -8.544479 20.773083 0.000000 0.000000 0.000000 4.801096 -2.361483 30.379039 -6.453685 2.038048 -26.777471 -2.987100 5.187183 26.286339 13.645152 -4.076785 -35.409370 0.000000 0.000000 0.000000 -25.953361 -25.420476 12.885798 -35.034279 -13.715759 -1.871895 -3.153942 -23.227860 1.425396 0.000000 0.000000 0.000000 35.851579 8.164421 5.369792 40.212982 14.526860 -1.970902 1.307594 25.554993 1.367916 0.000000 0.000000 0.000000 
0.016201 0.968553 -0.003606 0.217148 -2.544941 1.169373 -1.193060 0.395042 3.644487 0.730541 0.305588 -9.274417 6.976968 15.945462 17.140438 0.000000 0.000000 0.000000 -5.015208 0.226565 -1.213829 2.765130 -0.351730 -5.241107 -0.477486 -8.910635 21.493356 0.000000 0.000000 0.000000 4.787721 -2.517053 31.991291 -6.339598 2.008257 -26.633074 -3.217281 5.086237 26.022743 14.111693 -4.307729 -35.273898 0.000000 0.000000 0.000000 -25.994427 -26.076830 13.301543 -34.233219 -15.127825 -1.467373 -2.118809 -22.094041 1.151764 0.000000 0.000000 0.000000 36.011428 8.619172 5.754852 39.318281 15.652692 -1.616014 0.159697 25.545291 1.121372 0.000000 0.000000 0.000000 
0.017201 0.969214 -0.003291 0.338855 -2.145750 2.323910 -1.225948 0.255803 2.286181 0.248146 0.331668 -9.579137 7.311212 16.507878 18.123917 0.000000 0.000000 0.000000 -5.168638 0.316813 -2.651986 2.742642 -0.350282 -5.084780 -0.913737 -9.695516 22.359246 0.000000 0.000000 0.000000 4.851683 -2.727284 33.744016 -6.576719 2.025751 -27.428563 -3.087259 5.112832 26.554987 14.235102 -4.360333 -35.247867 0.000000 0.000000 0.000000 -26.210365 -27.164413 13.999473 -33.314743 -16.265195 -1.192213 -1.069796 -21.403462 0.914485 0.000000 0.000000 0.000000 35.691741 8.957273 6.140097 38.687755 16.598830 -1.414933 -0.594791 25.850874 0.980884 0.000000 0.000000 0.000000 
0.017707 0.969696 -0.002351 0.403825 -2.050920 3.212086 -1.316212 0.159946 1.322957 0.112933 0.356810 -10.134349 7.787145 17.241054 19.648656 0.000000 0.000000 0.000000 -5.203963 0.391388 -3.844950 2.760969 -0.349380 -4.958771 -1.410828 -10.617956 23.318146 0.000000 0.000000 0.000000 4.728475 -2.824537 35.227817 -6.375405 1.976718 -27.346930 -3.240199 5.267789 26.378232 14.546844 -4.410174 -35.438030 0.000000 0.000000 0.000000 -25.739611 -27.549079 14.096151 -33.146129 -17.174576 -0.945138 -0.392734 -20.877271 0.770399 0.000000 0.000000 0.000000 35.496711 9.402056 6.571475 38.039799 17.656224 -1.121931 -1.416688 25.905933 0.807725 0.000000 0.000000 0.000000 
0.017841 0.969898 -0.001013 0.219743 -2.352524 4.127444 -1.339969 0.030975 0.071522 0.254062 0.361792 -10.284904 8.885468 18.705038 21.473823 0.000000 0.000000 0.000000 -5.040307 0.462446 -4.872640 2.906101 -0.356871 -5.169910 -1.631988 -11.159957 24.179401 0.000000 0.000000 0.000000 4.744409 -2.903214 36.451435 -6.510886 1.979340 -27.650595 -2.948440 5.553746 26.546257 14.243028 -4.222021 -35.494520 0.000000 0.000000 0.000000 -26.220862 -27.902584 14.408630 -32.304240 -17.674862 -0.835001 0.249405 -20.741594 0.649305 0.000000 0.000000 0.000000 35.649579 9.506120 6.744109 37.028733 17.978900 -1.093438 -1.611581 26.294675 0.773095 0.000000 0.000000 0.000000 
0.017419 0.969983 0.000788 0.152153 -2.518870 4.940489 -1.297398 -0.065753 -0.864454 0.306226 0.364031 -10.329422 9.347217 19.285121 22.384229 0.000000 0.000000 0.000000 -4.928562 0.530507 -5.856941 2.841884 -0.350095 -5.070969 -1.690785 -11.373474 24.712839 0.000000 0.000000 0.000000 4.782817 -2.981992 37.401393 -6.592797 1.975670 -27.729193 -2.943303 5.340422 26.223290 14.341048 -4.413257 -34.893325 0.000000 0.000000 0.000000 -26.761825 -27.853296 14.614266 -31.443358 -17.832563 -0.816981 0.547841 -20.383661 0.586646 0.000000 0.000000 0.000000 36.130935 10.010960 7.019077 35.503838 17.888903 -1.097475 -1.216789 27.077768 0.852088 0.000000 0.000000 0.000000 
0.016611 0.969651 0.003145 0.066388 -2.684794 5.605939 -1.077638 -0.140240 -1.577523 0.258087 0.363443 -10.257426 9.512164 19.472917 22.841988 0.000000 0.000000 0.000000 -4.822131 0.584511 -6.597462 2.937677 -0.353949 -5.137683 -1.918775 -11.837276 25.321632 0.000000 0.000000 0.000000 4.899017 -3.074782 38.213282 -6.650361 1.967383 -28.010501 -2.935431 5.205421 26.309069 14.059426 -4.353141 -34.605201 0.000000 0.000000 0.000000 -26.918243 -27.989492 14.848632 -30.848672 -18.285329 -0.756073 0.890347 -20.195629 0.522160 0.000000 0.000000 0.000000 36.188221 10.011814 6.931421 34.930576 17.686737 -1.145029 -0.963029 28.035520 0.939850 0.000000 0.000000 0.000000 
0.015562 0.969341 0.006051 -0.052785 -2.939387 5.910194 -0.825150 -0.179912 -1.955069 0.029902 0.360761 -10.016542 10.080032 20.150663 23.232402 0.000000 0.000000 0.000000 -4.693413 0.620881 -7.066743 2.993654 -0.350255 -4.776834 -1.864618 -11.829606 25.431988 0.000000 0.000000 0.000000 4.914243 -3.083087 38.644816 -6.592396 1.943313 -28.131469 -2.917432 4.946951 26.098321 13.989723 -4.448772 -34.195989 0.000000 0.000000 0.000000 -27.045493 -27.641422 14.801047 -30.298708 -18.131144 -0.827311 0.803227 -20.296146 0.539645 0.000000 0.000000 0.000000 36.572885 10.061704 6.803652 33.962541 17.234158 -1.220640 -0.102297 28.849980 1.150965 0.000000 0.000000 0.000000 
0.014792 0.968828 0.009212 -0.146839 -3.186279 6.217889 -0.570334 -0.227211 -2.428174 -0.141289 0.345737 -9.470308 10.357062 20.465181 23.276556 0.000000 0.000000 0.000000 -4.463724 0.655077 -7.458631 2.955615 -0.342675 -4.501494 -2.101421 -12.204925 25.377009 0.000000 0.000000 0.000000 4.936217 -3.066120 38.705589 -6.455270 1.917908 -27.826036 -2.845979 4.696319 25.690097 13.645369 -4.327668 -34.088391 0.000000 0.000000 0.000000 -26.803341 -27.399711 14.733782 -30.239684 -17.961631 -0.874270 0.970632 -20.688053 0.523256 0.000000 0.000000 0.000000 36.799831 10.106084 6.651293 33.332872 16.734054 -1.272104 0.743646 29.099997 1.342619 0.000000 0.000000 0.000000 
0.014567 0.968238 0.012440 -0.187576 -3.469182 6.303592 -0.364157 -0.261357 -2.781607 -0.398338 0.335745 -8.934694 10.872662 21.054305 23.844406 0.000000 0.000000 0.000000 -4.488412 0.677012 -7.751320 3.157145 -0.344865 -3.831007 -2.190943 -12.301391 24.877943 0.000000 0.000000 0.000000 5.026720 -3.062135 38.730810 -6.428091 1.910173 -27.827727 -2.672434 4.555145 25.539235 13.611473 -4.382197 -33.935090 0.000000 0.000000 0.000000 -26.683895 -27.295905 14.749185 -29.932849 -18.020866 -0.885660 0.769987 -20.885010 0.563276 0.000000 0.000000 0.000000 36.808804 10.241123 6.598900 32.949581 16.139780 -1.362982 1.256803 28.936029 1.434415 0.000000 0.000000 0.000000 
0.014834 0.967560 0.015543 -0.131006 -3.880841 6.384892 -0.497083 -0.296490 -3.135223 -0.326686 0.311054 -8.279462 11.370598 21.606006 24.197444 0.000000 0.000000 0.000000 -4.728592 0.688124 -7.926863 3.487572 -0.359189 -3.538365 -2.260433 -12.446884 24.704417 0.000000 0.000000 0.000000 4.936544 -2.942108 38.349745 -6.137095 1.856137 -27.469604 -2.571692 4.681079 25.489254 13.378547 -4.208730 -34.242570 0.000000 0.000000 0.000000 -26.353503 -27.117251 14.601646 -30.226623 -17.940688 -0.908136 1.161980 -21.401513 0.509803 0.000000 0.000000 0.000000 36.848041 10.361589 6.651356 32.507947 15.855624 -1.417161 1.673081 28.383107 1.485653 0.000000 0.000000 0.000000 
0.015338 0.966994 0.018517 -0.021527 -3.986377 6.286228 -0.513092 -0.310341 -3.274838 -0.523382 0.297494 -7.636741 11.524742 21.781715 24.235631 0.000000 0.000000 0.000000 -5.006772 0.682550 -7.927668 3.708810 -0.370588 -3.258077 -2.409759 -12.704324 24.874758 0.000000 0.000000 0.000000 5.025212 -2.933636 37.994493 -5.996819 1.827334 -27.503157 -2.447183 4.855528 25.596660 13.348173 -4.172587 -34.270800 0.000000 0.000000 0.000000 -26.070247 -27.046944 14.462274 -30.557260 -17.784719 -0.938444 1.145427 -21.876974 0.526819 0.000000 0.000000 0.000000 36.635048 10.223457 6.591292 32.582485 15.566272 -1.501801 1.980423 27.613907 1.506298 0.000000 0.000000 0.000000 
0.015845 0.966787 0.021247 0.129734 -3.961710 6.079760 -0.420063 -0.305624 -3.230597 -0.840401 0.302785 -7.319192 11.475533 21.698700 24.804603 0.000000 0.000000 0.000000 -5.189763 0.664444 -7.728333 3.811626 -0.376337 -2.969425 -2.735858 -13.137164 24.736604 0.000000 0.000000 0.000000 4.999263 -2.862835 37.099958 -5.543756 1.751086 -26.920917 -2.584607 5.085898 25.321591 13.350942 -4.063665 -34.607507 0.000000 0.000000 0.000000 -26.069738 -26.915971 14.277093 -30.966090 -17.309243 -0.999102 1.101841 -22.552636 0.554482 0.000000 0.000000 0.000000 36.849399 10.192381 6.680381 32.580446 14.838055 -1.672161 2.182275 27.406179 1.534208 0.000000 0.000000 0.000000 
0.016464 0.967277 0.023758 0.140257 -3.804443 5.980123 -0.169763 -0.320224 -3.413272 -1.053564 0.300861 -6.898701 11.224894 21.377543 25.678943 0.000000 0.000000 0.000000 -5.197939 0.642824 -7.410191 3.786254 -0.375566 -2.835068 -2.788671 -13.123380 24.362904 0.000000 0.000000 0.000000 5.064003 -2.865770 36.525114 -5.574100 1.754644 -27.308538 -2.220665 5.109599 25.851438 13.271628 -3.906926 -35.290273 0.000000 0.000000 0.000000 -26.160520 -26.751588 14.178799 -31.313834 -16.925199 -1.107949 1.030171 -23.007594 0.582492 0.000000 0.000000 0.000000 36.452276 9.999022 6.558221 33.204055 14.825025 -1.721645 2.288689 26.957990 1.539448 0.000000 0.000000 0.000000 
0.017429 0.968353 0.026034 0.133259 -3.605734 5.968196 0.006753 -0.330813 -3.552875 -1.193864 0.302505 -6.708974 10.929918 21.019820 26.611001 0.000000 0.000000 0.000000 -5.164066 0.630042 -7.222094 3.624675 -0.366335 -2.828173 -2.812520 -13.163657 24.639717 0.000000 0.000000 0.000000 5.156564 -2.837960 35.286178 -5.341600 1.717026 -27.023019 -2.258234 5.281661 25.870984 13.245062 -3.760846 -35.783455 0.000000 0.000000 0.000000 -26.004740 -26.297534 13.764922 -31.938452 -16.161543 -1.260543 0.664438 -23.829859 0.682141 0.000000 0.000000 0.000000 36.462128 9.661280 6.417485 33.435469 14.529906 -1.821496 2.223087 26.832944 1.524629 0.000000 0.000000 0.000000 
0.019049 0.969812 0.028634 0.191944 -3.386111 5.809310 0.127427 -0.319174 -3.441855 -1.324671 0.304723 -6.544009 10.234522 20.219715 27.363822 0.000000 0.000000 0.000000 -5.175464 0.601941 -6.811155 3.475312 -0.358643 -2.922693 -3.051066 -13.517464 25.033051 0.000000 0.000000 0.000000 5.244671 -2.795000 33.943059 -5.473335 1.749862 -26.891227 -2.088244 5.285718 26.148182 13.024330 -3.653607 -35.814700 0.000000 0.000000 0.000000 -26.285980 -25.759945 13.443201 -32.566132 -15.231365 -1.488724 0.379361 -24.621903 0.771659 0.000000 0.000000 0.000000 36.252859 9.146911 6.058751 34.007359 13.969883 -1.993779 2.734441 27.105034 1.670329 0.000000 0.000000 0.000000 
0.021468 0.971192 0.031863 0.207356 -3.294856 5.406397 0.111587 -0.270090 -2.900198 -1.393305 0.310759 -6.636587 9.914533 19.856217 28.265849 0.000000 0.000000 0.000000 -5.150884 0.560111 -6.172569 3.396010 -0.355631 -3.062664 -3.544442 -14.278828 25.701482 0.000000 0.000000 0.000000 5.382244 -2.694147 31.944283 -5.614408 1.791993 -26.605329 -2.011434 5.345035 26.505126 12.705191 -3.479798 -35.991904 0.000000 0.000000 0.000000 -26.349210 -24.777213 12.801287 -33.600243 -14.103749 -1.803898 -0.588064 -25.316850 1.015138 0.000000 0.000000 0.000000 36.350479 8.622719 5.698177 34.460767 13.215722 -2.223972 3.175305 27.501707 1.810754 0.000000 0.000000 0.000000 
0.024355 0.971931 0.035930 0.204752 -2.960277 4.668199 0.181747 -0.194066 -2.072811 -1.546978 0.312285 -6.385522 9.245644 19.140624 28.452902 0.000000 0.000000 0.000000 -5.097974 0.488266 -5.110649 3.179206 -0.347085 -3.338779 -4.135927 -15.152764 26.782583 0.000000 0.000000 0.000000 5.575383 -2.657143 30.464746 -5.854830 1.852147 -26.812064 -1.915505 5.257040 27.065203 12.315408 -3.344558 -35.824608 0.000000 0.000000 0.000000 -26.447119 -23.897138 12.231761 -34.524214 -13.009472 -2.142287 -1.181206 -26.053209 1.189303 0.000000 0.000000 0.000000 36.065728 7.790144 5.097889 35.498794 12.682984 -2.442740 3.529148 27.888594 1.953335 0.000000 0.000000 0.000000 
0.027362 0.971997 0.040501 0.297650 -2.690576 3.976296 0.101785 -0.098391 -1.033729 -1.743295 0.324923 -6.477664 8.751090 18.618430 28.406921 0.000000 0.000000 0.000000 -5.207879 0.408774 -3.867262 3.021678 -0.341293 -3.519882 -4.416309 -15.451871 26.512940 0.000000 0.000000 0.000000 5.740834 -2.560213 28.574012 -6.217748 1.952773 -26.503831 -1.914980 4.973988 27.066860 12.072338 -3.280515 -35.684111 0.000000 0.000000 0.000000 -26.464016 -22.817780 11.586421 -35.338511 -11.989086 -2.457197 -2.195877 -26.378974 1.449483 0.000000 0.000000 0.000000 36.229369 7.165717 4.541721 36.258766 11.973566 -2.635835 4.087083 28.170448 2.123529 0.000000 0.000000 0.000000 
0.030300 0.971606 0.045088 0.206043 -2.523753 3.050656 0.182438 0.016326 0.218932 -1.891068 0.331441 -6.400106 8.370592 18.203577 28.057192 0.000000 0.000000 0.000000 -5.220576 0.327058 -2.589449 3.016796 -0.345321 -3.693998 -4.833559 -16.035189 27.072334 0.000000 0.000000 0.000000 5.858112 -2.470954 27.167504 -6.707290 2.058156 -26.934839 -1.667967 4.789715 27.556082 11.785864 -3.274180 -35.263942 0.000000 0.000000 0.000000 -26.886163 -22.283788 11.344031 -35.541273 -11.025014 -2.769779 -3.040598 -26.436937 1.649269 0.000000 0.000000 0.000000 36.573666 6.675489 4.136469 36.906845 11.548107 -2.813969 4.261887 28.040804 2.168264 0.000000 0.000000 0.000000 
0.033080 0.970960 0.049118 0.139865 -2.623818 2.197445 0.142765 0.139423 1.535047 -1.851877 0.333205 -6.551255 8.020707 17.783457 27.704334 0.000000 0.000000 0.000000 -5.362332 0.255404 -1.350535 3.179107 -0.358030 -3.867548 -4.991467 -16.253951 26.999423 0.000000 0.000000 0.000000 5.745927 -2.275898 25.427108 -6.506185 2.036116 -26.558309 -1.965645 4.884103 27.349381 11.648450 -3.230870 -35.014146 0.000000 0.000000 0.000000 -26.527416 -21.428892 10.708293 -36.175107 -10.326415 -2.978668 -3.875708 -25.825819 1.799379 0.000000 0.000000 0.000000 36.990082 6.172960 3.777271 37.590698 11.165025 -2.951097 4.514135 27.688644 2.215660 0.000000 0.000000 0.000000 
0.035716 0.970436 0.052620 0.046446 -2.609032 1.397101 0.251663 0.239617 2.644182 -1.877285 0.335586 -6.580798 7.462857 17.139024 27.559105 0.000000 0.000000 0.000000 -5.352639 0.193246 -0.345634 3.358112 -0.370918 -3.889124 -5.695885 -17.201956 27.240939 0.000000 0.000000 0.000000 5.640838 -2.112454 23.883627 -6.617370 2.076587 -26.268131 -1.938612 4.791879 27.051455 11.356547 -3.183954 -34.406038 0.000000 0.000000 0.000000 -26.239163 -21.042958 10.423609 -36.725029 -9.603910 -3.189275 -4.344900 -25.347576 1.869026 0.000000 0.000000 0.000000 37.105805 5.652705 3.327326 38.316698 10.483718 -3.143925 4.945673 27.507789 2.312788 0.000000 0.000000 0.000000 
0.038174 0.970194 0.055767 -0.004835 -2.682471 0.623234 0.151928 0.345211 3.725595 -1.650318 0.330336 -6.907083 7.237266 16.912517 28.314510 0.000000 0.000000 0.000000 -5.255717 0.132984 0.594397 3.334035 -0.369075 -3.807070 -6.319434 -18.031467 27.225412 0.000000 0.000000 0.000000 5.561794 -1.949597 22.308608 -6.505177 2.073151 -25.844084 -2.170390 4.999969 26.850226 11.466174 -3.211502 -34.310037 0.000000 0.000000 0.000000 -25.449872 -20.684093 10.015610 -37.557757 -9.169898 -3.341531 -4.517867 -25.058618 1.885030 0.000000 0.000000 0.000000 37.118270 5.179359 3.039184 39.140939 9.868183 -3.368549 5.406129 27.619787 2.452330 0.000000 0.000000 0.000000 
0.040379 0.969447 0.058819 -0.051199 -2.675219 0.032777 -0.002575 0.444377 4.691880 -1.137344 0.316081 -7.413615 6.648921 16.289752 29.073840 0.000000 0.000000 0.000000 -5.108570 0.086075 1.243922 3.117231 -0.355455 -3.776950 -6.991343 -18.926825 27.747522 0.000000 0.000000 0.000000 5.603508 -1.849797 21.103705 -6.358125 2.057472 -25.471765 -2.371322 5.161769 26.592416 11.217383 -3.136726 -33.717538 0.000000 0.000000 0.000000 -25.107912 -20.481200 9.762952 -37.840981 -8.969443 -3.379245 -4.667262 -24.645731 1.880116 0.000000 0.000000 0.000000 36.897009 4.708811 2.750396 39.971623 9.356215 -3.562472 5.813617 27.396891 2.541025 0.000000 0.000000 0.000000 
0.042106 0.968638 0.061942 -0.101223 -2.895400 -0.659186 -0.107849 0.547868 5.686582 -0.682061 0.304481 -7.741636 6.187012 15.802457 29.936798 0.000000 0.000000 0.000000 -5.153357 0.022414 2.413356 3.055143 -0.356341 -4.303895 -6.928676 -18.879407 27.785104 0.000000 0.000000 0.000000 5.785094 -1.758936 19.847246 -6.423160 2.093785 -24.913910 -2.530988 5.493120 26.211189 11.214911 -3.139512 -33.312375 0.000000 0.000000 0.000000 -24.066188 -20.119458 9.328682 -38.663319 -8.621134 -3.501875 -4.909058 -24.812737 1.946461 0.000000 0.000000 0.000000 36.414953 4.122076 2.392464 40.939148 8.759361 -3.787783 6.055247 27.339222 2.615308 0.000000 0.000000 0.000000 
0.043177 0.967585 0.064894 -0.174623 -3.110261 -1.333864 -0.184605 0.663489 6.791840 -0.207286 0.300579 -8.236733 5.754070 15.346067 30.565987 0.000000 0.000000 0.000000 -5.097131 -0.031998 3.327495 3.180870 -0.364306 -4.429052 -7.377239 -19.479186 27.600317 0.000000 0.000000 0.000000 5.863693 -1.660283 18.734871 -6.577555 2.149779 -24.447543 -2.414646 5.668366 26.059730 10.877633 -2.998934 -32.934066 0.000000 0.000000 0.000000 -23.271892 -19.833960 9.040337 -39.670400 -8.257871 -3.674307 -4.903986 -25.167362 1.980972 0.000000 0.000000 0.000000 35.567489 3.654397 2.057314 42.174235 8.075417 -4.051316 6.505094 27.460096 2.756601 0.000000 0.000000 0.000000 
0.043728 0.966729 0.067596 -0.341520 -3.306047 -2.026273 -0.116737 0.770895 7.894868 -0.078362 0.304278 -8.471206 5.882695 15.459786 30.336747 0.000000 0.000000 0.000000 -4.947786 -0.104010 4.454051 3.160725 -0.367649 -4.958136 -7.444519 -19.597532 27.771780 0.000000 0.000000 0.000000 5.994275 -1.565639 17.571235 -6.458623 2.147392 -23.710517 -2.528396 6.100484 25.712906 10.785172 -2.909553 -32.705672 0.000000 0.000000 0.000000 -22.815983 -19.427900 8.621898 -39.997150 -7.751837 -3.795368 -5.136363 -25.239622 2.031026 0.000000 0.000000 0.000000 35.165897 3.180045 1.850357 42.910219 7.755747 -4.206815 6.326030 27.237153 2.714153 0.000000 0.000000 0.000000 
0.043939 0.966015 0.069903 -0.396393 -3.526436 -2.523990 -0.137893 0.835966 8.498754 0.018910 0.292751 -8.260280 6.053875 15.616728 30.137804 0.000000 0.000000 0.000000 -4.825930 -0.148014 5.114870 3.042993 -0.360710 -5.025905 -7.538318 -19.744190 27.658631 0.000000 0.000000 0.000000 6.155284 -1.524093 16.978506 -6.641007 2.200293 -23.538564 -2.420361 6.463894 25.794870 10.760625 -2.944131 -32.203732 0.000000 0.000000 0.000000 -22.708459 -19.419428 8.528265 -40.115893 -7.352869 -3.916133 -5.265530 -25.509669 2.077124 0.000000 0.000000 0.000000 34.847531 3.030762 1.863371 43.228504 7.414401 -4.382691 6.609303 27.659627 2.848284 0.000000 0.000000 0.000000 
0.044041 0.965492 0.071882 -0.475660 -3.593661 -3.064531 0.023748 0.897066 9.221398 -0.113126 0.297619 -8.229714 6.095182 15.655050 29.958459 0.000000 0.000000 0.000000 -4.694925 -0.200047 5.835994 2.957043 -0.355044 -4.900189 -7.468404 -19.649435 27.089672 0.000000 0.000000 0.000000 6.306967 -1.492360 16.499501 -6.744098 2.244576 -23.157311 -2.410447 6.586733 25.625779 10.706485 -2.919033 -32.033022 0.000000 0.000000 0.000000 -22.652426 -19.374743 8.446844 -40.272435 -7.127138 -3.972358 -5.284844 -25.483888 2.076739 0.000000 0.000000 0.000000 34.730075 3.086282 1.946572 43.550127 7.230770 -4.461869 6.588316 27.362552 2.811355 0.000000 0.000000 0.000000 
0.044073 0.965043 0.073374 -0.573774 -3.623733 -3.419058 0.251681 0.937946 9.816431 -0.316238 0.312621 -8.391792 6.097266 15.655271 29.822032 0.000000 0.000000 0.000000 -4.590914 -0.236990 6.317216 2.867489 -0.351419 -4.983830 -7.424379 -19.601292 27.242422 0.000000 0.000000 0.000000 6.451735 -1.470427 16.104936 -6.784912 2.264888 -22.972461 -2.358252 6.538756 25.546705 10.490683 -2.868142 -31.698558 0.000000 0.000000 0.000000 -22.931123 -19.418359 8.503960 -40.232946 -6.539661 -4.138775 -5.622687 -25.351157 2.140006 0.000000 0.000000 0.000000 34.653309 3.118336 1.945322 43.627277 7.005836 -4.530834 6.609350 27.393476 2.819137 0.000000 0.000000 0.000000 
0.044156 0.964712 0.074456 -0.601976 -3.759407 -3.809473 0.429664 0.968383 10.253632 -0.586431 0.320051 -8.245646 6.165356 15.715668 29.720041 0.000000 0.000000 0.000000 -4.491230 -0.276509 6.888562 2.789142 -0.347353 -5.045306 -7.426706 -19.609979 26.812148 0.000000 0.000000 0.000000 6.599243 -1.442945 15.705842 -6.906466 2.312689 -22.587187 -2.353950 6.402255 25.318835 10.246290 -2.823368 -31.338430 0.000000 0.000000 0.000000 -23.025092 -19.214367 8.447716 -40.350924 -6.155052 -4.268729 -5.813947 -25.282938 2.182078 0.000000 0.000000 0.000000 34.359933 3.178716 1.881798 43.922658 6.790910 -4.570371 6.839427 27.373914 2.862849 0.000000 0.000000 0.000000 
0.044241 0.964618 0.075125 -0.558565 -3.958625 -4.021743 0.419867 1.009773 10.618439 -0.681333 0.329452 -8.368209 6.233533 15.777001 29.784574 0.000000 0.000000 0.000000 -4.565601 -0.285474 7.235043 2.807390 -0.348156 -5.149197 -7.271722 -19.425451 26.509927 0.000000 0.000000 0.000000 6.607191 -1.401862 15.340828 -6.960644 2.328710 -22.494079 -2.344224 6.367789 25.388024 10.367851 -2.968453 -31.044436 0.000000 0.000000 0.000000 -23.209626 -19.197267 8.507769 -40.409028 -5.862642 -4.381789 -6.015274 -25.092152 2.212681 0.000000 0.000000 0.000000 34.563638 3.079520 1.731985 43.894621 6.596343 -4.621177 7.235762 27.326540 2.942152 0.000000 0.000000 0.000000 
0.044336 0.964445 0.075433 -0.533400 -3.890311 -4.183019 0.425467 1.033591 10.874808 -0.728608 0.335033 -8.483502 6.182938 15.729055 29.731493 0.000000 0.000000 0.000000 -4.512050 -0.305011 7.463794 2.646726 -0.341157 -5.208199 -7.318586 -19.479663 26.529596 0.000000 0.000000 0.000000 6.610108 -1.362724 14.921452 -6.866229 2.319939 -22.110999 -2.393288 6.187909 25.270050 10.423829 -3.016852 -31.059069 0.000000 0.000000 0.000000 -23.435484 -19.118378 8.519725 -40.713151 -5.772727 -4.440513 -6.157094 -24.913978 2.233625 0.000000 0.000000 0.000000 34.813816 3.065372 1.642502 43.929498 6.607128 -4.589045 7.252129 27.078837 2.906374 0.000000 0.000000 0.000000 
0.044408 0.964144 0.075452 -0.508121 -3.810076 -4.330336 0.504359 1.045192 11.080862 -0.900477 0.344883 -8.568532 6.131531 15.678803 29.631692 0.000000 0.000000 0.000000 -4.469823 -0.325988 7.731958 2.581603 -0.340377 -5.347546 -7.455314 -19.643717 26.397404 0.000000 0.000000 0.000000 6.632406 -1.344284 14.705243 -6.761851 2.298739 -22.000368 -2.502832 6.121000 25.213992 10.460515 -3.075300 -30.836284 0.000000 0.000000 0.000000 -23.655209 -19.140134 8.550529 -41.075476 -5.693207 -4.494766 -6.456547 -24.795951 2.290617 0.000000 0.000000 0.000000 34.982520 2.870185 1.489227 44.293803 6.528712 -4.640262 7.536835 27.059689 2.977019 0.000000 0.000000 0.000000 
0.044475 0.963949 0.075271 -0.458021 -3.715410 -4.506203 0.531213 1.061649 11.291310 -1.022966 0.351756 -8.636354 6.066542 15.616795 29.562210 0.000000 0.000000 0.000000 -4.458157 -0.345183 8.005869 2.550809 -0.340381 -5.399576 -7.583725 -19.792365 26.105340 0.000000 0.000000 0.000000 6.565361 -1.319145 14.546267 -6.704724 2.300144 -21.699133 -2.515690 5.976759 24.959500 10.551834 -3.158201 -30.676063 0.000000 0.000000 0.000000 -23.762690 -19.099690 8.551161 -41.662483 -5.591856 -4.574740 -6.740338 -24.630497 2.343450 0.000000 0.000000 0.000000 35.059572 2.853398 1.420529 44.720231 6.445154 -4.662508 7.678315 26.890229 2.985790 0.000000 0.000000 0.000000 
0.044543 0.963792 0.074930 -0.407679 -3.520722 -4.616956 0.550158 1.069346 11.429308 -1.119491 0.358002 -8.738711 5.948544 15.506555 29.481109 0.000000 0.000000 0.000000 -4.441723 -0.358695 8.125255 2.505389 -0.340668 -5.475716 -7.889584 -20.173938 26.326093 0.000000 0.000000 0.000000 6.592446 -1.311896 14.417752 -6.667849 2.298683 -21.609743 -2.591588 5.882018 24.880794 10.492581 -3.194407 -30.246230 0.000000 0.000000 0.000000 -23.967645 -19.088063 8.546702 -42.138603 -5.539355 -4.631572 -7.077870 -24.715033 2.428715 0.000000 0.000000 0.000000 35.308915 2.939011 1.490071 45.050084 6.354905 -4.718977 7.834804 26.904310 3.026460 0.000000 0.000000 0.000000 
0.044600 0.963680 0.074464 -0.295157 -3.372525 -4.507296 0.413238 1.057942 11.207985 -1.087179 0.353435 -8.654927 5.894095 15.454427 29.421406 0.000000 0.000000 0.000000 -4.543436 -0.343912 7.985898 2.572185 -0.344653 -5.455043 -8.124665 -20.461253 26.260942 0.000000 0.000000 0.000000 6.495878 -1.277634 14.115040 -6.613153 2.290955 -21.451225 -2.566436 5.989638 24.680602 10.483777 -3.205589 -29.911296 0.000000 0.000000 0.000000 -24.022307 -18.955537 8.399879 -42.657651 -5.572786 -4.638975 -7.237522 -24.485830 2.439344 0.000000 0.000000 0.000000 35.164136 2.992729 1.615818 45.678083 6.516839 -4.711370 7.976873 26.924520 3.074783 0.000000 0.000000 0.000000 
0.044666 0.963629 0.073855 -0.171412 -3.083056 -4.474561 0.336719 1.046682 11.079167 -1.154437 0.353629 -8.621536 5.744046 15.312051 29.341483 0.000000 0.000000 0.000000 -4.622425 -0.337514 7.886244 2.490040 -0.339765 -5.290676 -8.224154 -20.555501 26.157529 0.000000 0.000000 0.000000 6.422012 -1.260979 13.964528 -6.625075 2.296447 -21.563245 -2.490046 6.110345 24.785794 10.469838 -3.211641 -29.586347 0.000000 0.000000 0.000000 -23.986178 -18.846009 8.238076 -42.922874 -5.526549 -4.666343 -7.687725 -24.741795 2.560004 0.000000 0.000000 0.000000 35.223322 2.992773 1.757489 45.873361 6.744780 -4.695157 8.215163 26.941581 3.144257 0.000000 0.000000 0.000000 
0.044753 0.963571 0.073128 -0.141776 -2.714308 -4.400518 0.261986 1.041027 11.032355 -1.036620 0.351987 -8.828557 5.557851 15.136246 29.248472 0.000000 0.000000 0.000000 -4.602137 -0.340365 7.751177 2.498414 -0.341975 -5.235985 -8.590324 -20.990306 26.387630 0.000000 0.000000 0.000000 6.362412 -1.240267 13.716285 -6.533841 2.282343 -21.378584 -2.428303 6.164414 24.719885 10.603851 -3.284560 -29.315792 0.000000 0.000000 0.000000 -23.960117 -18.724903 8.061265 -43.145096 -5.534785 -4.650138 -8.100649 -24.714868 2.639543 0.000000 0.000000 0.000000 35.104721 3.133107 1.994989 46.125493 7.052639 -4.629760 8.063033 26.972427 3.125107 0.000000 0.000000 0.000000 
0.044821 0.963469 0.072357 -0.070272 -2.386130 -4.260087 0.229165 1.018159 10.834784 -1.082954 0.353631 -8.898917 5.394316 14.980970 29.150626 0.000000 0.000000 0.000000 -4.575419 -0.337083 7.533514 2.396622 -0.334682 -5.005631 -8.755481 -21.168287 26.110864 0.000000 0.000000 0.000000 6.294919 -1.227969 13.573872 -6.494803 2.278642 -21.340077 -2.282779 6.292710 24.671752 10.637581 -3.266279 -29.227946 0.000000 0.000000 0.000000 -23.960508 -18.630372 7.893024 -43.245751 -5.352722 -4.686345 -8.543916 -24.948863 2.754882 0.000000 0.000000 0.000000 35.017013 3.283094 2.255409 45.969344 7.446825 -4.515140 8.103986 27.290293 3.184485 0.000000 0.000000 0.000000 
0.044841 0.963293 0.071611 -0.004297 -2.311815 -4.163868 0.153180 1.004028 10.628113 -1.075357 0.350872 -8.824645 5.381952 14.967559 29.086259 0.000000 0.000000 0.000000 -4.620831 -0.323059 7.337689 2.455229 -0.335915 -4.838676 -8.905679 -21.360140 25.831743 0.000000 0.000000 0.000000 6.158409 -1.201035 13.418494 -6.413745 2.259199 -21.336746 -2.212067 6.523738 24.723419 10.763142 -3.326545 -29.043378 0.000000 0.000000 0.000000 -23.891246 -18.350591 7.636375 -43.226373 -5.335922 -4.672259 -8.947497 -24.859486 2.826316 0.000000 0.000000 0.000000 34.881007 3.426718 2.488938 45.755271 7.768829 -4.424601 8.181799 27.432398 3.225866 0.000000 0.000000 0.000000 
0.044760 0.963221 0.070969 0.026927 -2.241800 -4.191800 0.058998 1.001802 10.529844 -0.950332 0.341765 -8.687329 5.374054 14.961722 29.030278 0.000000 0.000000 0.000000 -4.579481 -0.324863 7.274889 2.437597 -0.332399 -4.658092 -9.056049 -21.553086 25.587083 0.000000 0.000000 0.000000 6.179796 -1.189047 13.254262 -6.515657 2.294042 -21.201323 -2.091496 6.612869 24.777124 10.793093 -3.351211 -28.895033 0.000000 0.000000 0.000000 -23.921860 -18.337505 7.588374 -43.368432 -5.173918 -4.733852 -8.955074 -24.540602 2.787696 0.000000 0.000000 0.000000 34.840621 3.658199 2.722403 45.319311 8.310924 -4.230943 7.943355 27.781730 3.215459 0.000000 0.000000 0.000000 
0.044610 0.963029 0.070481 0.076729 -2.505054 -4.138112 0.059268 1.007131 10.526404 -1.071524 0.351461 -8.800214 5.500861 15.076651 29.098769 0.000000 0.000000 0.000000 -4.677032 -0.298018 7.060761 2.609292 -0.337788 -4.458559 -9.067210 -21.598977 25.213955 0.000000 0.000000 0.000000 6.113352 -1.158632 13.028933 -6.492173 2.280269 -21.140115 -2.074823 6.771249 24.773455 10.856645 -3.396366 -28.838412 0.000000 0.000000 0.000000 -24.017181 -18.224357 7.531319 -43.441640 -5.045407 -4.782140 -8.994547 -24.257639 2.762558 0.000000 0.000000 0.000000 34.798289 3.852736 2.866900 45.086232 8.690681 -4.087812 7.917539 28.116874 3.254475 0.000000 0.000000 0.000000 
0.044364 0.962979 0.070179 0.076540 -2.639778 -4.234177 0.038135 1.012706 10.535557 -1.021192 0.345995 -8.644384 5.588003 15.159619 29.102603 0.000000 0.000000 0.000000 -4.600763 -0.297018 6.965146 2.566484 -0.330605 -4.213192 -9.191885 -21.779796 25.170037 0.000000 0.000000 0.000000 6.033033 -1.138634 12.945198 -6.440278 2.270867 -20.923434 -2.117878 6.655465 24.624866 10.921427 -3.471772 -28.754675 0.000000 0.000000 0.000000 -24.154342 -18.237700 7.607917 -43.532446 -4.889732 -4.844485 -8.771554 -23.602027 2.643585 0.000000 0.000000 0.000000 34.576629 4.158388 2.987839 44.761180 8.766705 -3.996546 7.706351 28.361288 3.220872 0.000000 0.000000 0.000000 
0.044112 0.962920 0.069988 0.085970 -2.859139 -4.315907 0.136436 1.021859 10.671017 -1.208471 0.357133 -8.707614 5.673009 15.238289 29.174052 0.000000 0.000000 0.000000 -4.584509 -0.288715 6.862458 2.638737 -0.331138 -4.028672 -9.362103 -22.028000 25.173904 0.000000 0.000000 0.000000 6.027127 -1.121080 12.809471 -6.468399 2.277297 -20.840168 -2.190077 6.547768 24.643267 10.962117 -3.507555 -28.900009 0.000000 0.000000 0.000000 -24.153353 -18.195581 7.668099 -43.680217 -4.693895 -4.952040 -8.765667 -23.405720 2.626377 0.000000 0.000000 0.000000 34.563465 4.293696 2.975725 44.394803 8.969600 -3.878543 7.617519 28.661362 3.227883 0.000000 0.000000 0.000000 
0.043870 0.962737 0.069856 0.120663 -3.135928 -4.335440 0.231824 1.007356 10.552747 -1.457220 0.362398 -8.432346 5.832396 15.384668 29.178403 0.000000 0.000000 0.000000 -4.620668 -0.268407 6.646106 2.752763 -0.331773 -3.659703 -9.412310 -22.131918 24.803884 0.000000 0.000000 0.000000 6.015853 -1.106353 12.709838 -6.444478 2.267570 -20.741455 -2.462259 6.428361 24.453902 11.044774 -3.589529 -28.906558 0.000000 0.000000 0.000000 -24.200319 -18.161056 7.740982 -43.652721 -4.443870 -5.042845 -8.575611 -23.158252 2.563760 0.000000 0.000000 0.000000 34.484274 4.403214 2.907582 44.159552 8.882228 -3.834702 7.783244 28.944962 3.288462 0.000000 0.000000 0.000000 
0.043703 0.962652 0.069737 0.198716 -3.414311 -4.347713 0.352759 0.996994 10.495102 -1.841045 0.378169 -8.279755 5.956619 15.495780 29.247255 0.000000 0.000000 0.000000 -4.723314 -0.241070 6.400374 2.785358 -0.327911 -3.356632 -9.373709 -22.111819 24.745686 0.000000 0.000000 0.000000 5.961667 -1.085222 12.590672 -6.577773 2.301073 -20.752344 -2.501864 6.192329 24.475107 11.174725 -3.686159 -29.159764 0.000000 0.000000 0.000000 -24.382932 -17.959034 7.783427 -43.596784 -4.522244 -5.052703 -8.435944 -22.827321 2.508464 0.000000 0.000000 0.000000 34.429915 4.487478 2.763897 44.035884 8.801134 -3.792767 8.025818 28.867399 3.315215 0.000000 0.000000 0.000000 
0.043606 0.962618 0.069663 0.202011 -3.629826 -4.418555 0.498606 0.992865 10.540303 -2.119496 0.390724 -8.191977 6.051756 15.580290 29.293691 0.000000 0.000000 0.000000 -4.711265 -0.226831 6.179835 2.800565 -0.324126 -3.098119 -9.575776 -22.394054 25.101705 0.000000 0.000000 0.000000 5.974287 -1.084973 12.626540 -6.585544 2.296132 -20.836458 -2.588628 6.093746 24.491807 11.164253 -3.712917 -29.188527 0.000000 0.000000 0.000000 -24.520971 -17.862562 7.816233 -43.504994 -4.472321 -5.081120 -8.432514 -22.864316 2.516637 0.000000 0.000000 0.000000 34.433761 4.441335 2.620322 44.051029 8.802971 -3.762605 7.933236 28.748496 3.268632 0.000000 0.000000 0.000000 
0.043555 0.962786 0.069634 0.212603 -3.814168 -4.388947 0.527827 0.987423 10.471392 -2.214019 0.395070 -8.105572 6.133863 15.656273 29.394523 0.000000 0.000000 0.000000 -4.688258 -0.211459 5.928969 2.731073 -0.316084 -2.970023 -9.696011 -22.559814 25.573942 0.000000 0.000000 0.000000 5.988160 -1.076809 12.539532 -6.665547 2.317222 -20.747520 -2.629224 5.864775 24.387106 11.229002 -3.776226 -29.327953 0.000000 0.000000 0.000000 -24.773639 -17.749345 7.885372 -43.352387 -4.393603 -5.112020 -8.437502 -23.234236 2.568329 0.000000 0.000000 0.000000 34.459702 4.569259 2.542384 44.125931 8.754046 -3.722304 7.659640 28.603338 3.167344 0.000000 0.000000 0.000000 
0.043528 0.962937 0.069637 0.280431 -4.001144 -4.467007 0.595548 0.981517 10.427546 -2.482196 0.405731 -7.856200 6.207832 15.723288 29.482933 0.000000 0.000000 0.000000 -4.785078 -0.192351 5.764758 2.715187 -0.310704 -2.765273 -9.719309 -22.600522 25.961044 0.000000 0.000000 0.000000 5.935418 -1.069235 12.567649 -6.729514 2.331148 -20.767787 -2.608152 5.857773 24.402596 11.113035 -3.705099 -29.462546 0.000000 0.000000 0.000000 -24.934896 -17.591915 7.847378 -43.371625 -4.635259 -5.044372 -8.270524 -23.416430 2.560264 0.000000 0.000000 0.000000 34.482428 4.552695 2.474252 44.620521 8.891881 -3.686088 7.470654 28.210462 3.076146 0.000000 0.000000 0.000000 
0.043533 0.963207 0.069621 0.308522 -4.032006 -4.497323 0.583551 0.969368 10.285302 -2.518780 0.402963 -7.552971 6.226479 15.742084 29.533304 0.000000 0.000000 0.000000 -4.735127 -0.187818 5.611281 2.574262 -0.296535 -2.529507 -9.799327 -22.702300 26.191129 0.000000 0.000000 0.000000 5.894881 -1.053089 12.435536 -6.685031 2.322282 -20.636566 -2.659055 5.737542 24.432897 11.103457 -3.710646 -29.539970 0.000000 0.000000 0.000000 -25.030420 -17.443913 7.816828 -43.319050 -4.795600 -5.001142 -8.326375 -23.890273 2.631750 0.000000 0.000000 0.000000 34.794019 4.483044 2.354745 44.880672 8.854382 -3.696923 7.319469 27.539214 2.951834 0.000000 0.000000 0.000000 
0.043648 0.963387 0.069539 0.323732 -4.054014 -4.424563 0.594535 0.955355 10.147870 -2.362370 0.393804 -7.506386 5.749958 15.211484 29.814206 0.000000 0.000000 0.000000 -4.821521 -0.170735 5.421730 2.641814 -0.297493 -2.274098 -9.628754 -22.491586 26.007144 0.000000 0.000000 0.000000 5.913501 -1.045633 12.312402 -6.642563 2.304419 -20.764213 -2.595266 5.747774 24.651678 11.020924 -3.644932 -29.690835 0.000000 0.000000 0.000000 -24.958580 -17.471956 7.845715 -43.547906 -5.146277 -4.928242 -8.245107 -24.367284 2.675969 0.000000 0.000000 0.000000 34.698937 4.436676 2.328144 45.710143 8.703373 -3.805455 7.295850 27.042145 2.897345 0.000000 0.000000 0.000000 
0.043901 0.963604 0.069369 0.289235 -4.160538 -4.385596 0.584342 0.943910 10.003812 -2.024260 0.373385 -7.380172 5.149594 14.535037 30.142869 0.000000 0.000000 0.000000 -4.774346 -0.157608 5.140373 2.576463 -0.285312 -1.870474 -9.526991 -22.375351 25.928924 0.000000 0.000000 0.000000 6.005502 -1.044583 12.198083 -6.593613 2.281397 -20.942072 -2.456688 5.721981 24.891039 10.798740 -3.495546 -29.993738 0.000000 0.000000 0.000000 -25.025006 -17.410481 7.864750 -43.798020 -5.425599 -4.894710 -8.434651 -24.619785 2.754451 0.000000 0.000000 0.000000 34.647173 4.397256 2.258540 46.190186 8.654771 -3.852027 7.218896 26.392319 2.800145 0.000000 0.000000 0.000000 
0.044333 0.963813 0.069150 0.272909 -4.230506 -4.362126 0.562990 0.922386 9.755959 -1.729975 0.350513 -7.084388 4.582820 13.911719 30.518222 0.000000 0.000000 0.000000 -4.783184 -0.147080 4.971592 2.660518 -0.286802 -1.560431 -9.537149 -22.401155 25.647280 0.000000 0.000000 0.000000 6.111465 -1.066238 12.336894 -6.576770 2.266856 -21.182436 -2.488312 5.633986 24.941246 10.821805 -3.519298 -30.057457 0.000000 0.000000 0.000000 -25.034374 -17.357768 7.882645 -43.984895 -5.743425 -4.824722 -8.394029 -24.900505 2.785975 0.000000 0.000000 0.000000 34.816509 4.299527 2.124107 46.384801 8.316531 -3.971288 7.141931 25.930659 2.723075 0.000000 0.000000 0.000000 
0.044890 0.964193 0.068914 0.267252 -4.418457 -4.310417 0.549790 0.923386 9.721209 -1.432010 0.336789 -7.189362 3.831113 13.083925 31.030382 0.000000 0.000000 0.000000 -4.738690 -0.140645 4.862217 2.567254 -0.278548 -1.598440 -9.547860 -22.432128 25.813143 0.000000 0.000000 0.000000 6.137599 -1.061188 12.261784 -6.409289 2.207811 -21.325536 -2.422893 5.469141 25.106256 10.605328 -3.457728 -30.016037 0.000000 0.000000 0.000000 -25.183409 -17.323858 7.984259 -44.179517 -6.082242 -4.768278 -8.289307 -25.043189 2.790375 0.000000 0.000000 0.000000 34.835160 4.351035 2.020880 46.544861 8.179067 -3.996260 6.721407 25.489852 2.570030 0.000000 0.000000 0.000000 
0.045495 0.964729 0.068683 0.282818 -4.793862 -4.257852 0.408833 0.924549 9.553551 -1.193529 0.316671 -6.896106 3.587703 12.747800 31.043606 0.000000 0.000000 0.000000 -4.838720 -0.113536 4.603941 2.709994 -0.282546 -1.250860 -9.354839 -22.230149 25.415210 0.000000 0.000000 0.000000 6.234471 -1.065351 12.250279 -6.237351 2.146079 -21.470296 -2.462117 5.722740 25.185626 10.750954 -3.510131 -30.160835 0.000000 0.000000 0.000000 -24.967170 -17.539861 8.099609 -44.518879 -6.548907 -4.649697 -8.271635 -24.830711 2.762833 0.000000 0.000000 0.000000 34.797294 4.240719 1.947401 46.656131 8.046615 -4.059378 6.609845 25.113590 2.503409 0.000000 0.000000 0.000000 
0.046024 0.965010 0.068448 0.313651 -4.931742 -4.147983 0.466637 0.917064 9.500041 -1.406533 0.336191 -7.118658 3.595926 12.790915 31.499732 0.000000 0.000000 0.000000 -4.807600 -0.112456 4.618069 2.584533 -0.272724 -1.352901 -9.150193 -21.983167 24.910570 0.000000 0.000000 0.000000 6.025898 -1.040942 12.198494 -5.841567 2.031451 -21.460375 -2.519757 5.562606 25.270045 10.625126 -3.561720 -29.677604 0.000000 0.000000 0.000000 -24.602460 -17.358136 8.059218 -45.056734 -7.043579 -4.562541 -8.348076 -24.882496 2.799755 0.000000 0.000000 0.000000 34.717844 4.265419 1.846344 46.658102 8.030352 -4.030558 6.243433 25.060806 2.416249 0.000000 0.000000 0.000000 
0.046362 0.965355 0.068219 0.429620 -4.889316 -4.284952 0.551488 0.925024 9.646910 -1.646693 0.345724 -6.932655 2.983187 12.029787 30.930687 0.000000 0.000000 0.000000 -5.027779 -0.106130 4.762500 2.814340 -0.289101 -1.142599 -9.092951 -21.906838 24.338722 0.000000 0.000000 0.000000 6.165281 -1.047441 12.145929 -6.150497 2.118461 -21.519854 -2.482197 5.488362 25.428740 10.679077 -3.528976 -30.148663 0.000000 0.000000 0.000000 -24.303561 -17.951110 8.412955 -45.013964 -7.102351 -4.562335 -8.271544 -24.596025 2.744171 0.000000 0.000000 0.000000 34.459532 4.242285 1.809219 47.020969 7.725614 -4.168563 5.617169 24.611176 2.238767 0.000000 0.000000 0.000000 
0.046538 0.965312 0.067937 0.375389 -4.998002 -3.561042 0.756900 0.828232 8.822812 -1.903570 0.360278 -6.867397 2.862124 11.856419 30.912695 0.000000 0.000000 0.000000 -4.768322 -0.086886 4.199690 2.662086 -0.277134 -1.293869 -9.118685 -21.952575 23.541260 0.000000 0.000000 0.000000 6.122386 -1.001428 11.492230 -5.897304 2.030555 -21.854553 -2.271277 5.214989 25.857480 10.238555 -3.417705 -29.754880 0.000000 0.000000 0.000000 -24.189849 -16.940670 7.970072 -45.838124 -7.480820 -4.585099 -7.949074 -24.998990 2.756665 0.000000 0.000000 0.000000 33.970358 4.591824 1.909984 47.291314 7.805119 -4.124198 5.257501 25.407613 2.248407 0.000000 0.000000 0.000000 
0.046444 0.966323 0.067666 0.270376 -5.391908 -3.859776 0.831422 0.849211 9.022302 -1.951115 0.363178 -6.767693 3.330803 12.444925 31.739077 0.000000 0.000000 0.000000 -4.848120 -0.058096 3.773262 3.206581 -0.310872 -0.518073 -9.660289 -22.700080 24.561159 0.000000 0.000000 0.000000 6.377031 -1.032757 11.720591 -5.610486 1.952416 -21.555293 -2.509389 5.991392 25.342965 11.072734 -3.833059 -29.261562 0.000000 0.000000 0.000000 -23.548891 -17.344802 7.933451 -46.185252 -6.445707 -4.896248 -9.340769 -26.383486 3.229590 0.000000 0.000000 0.000000 33.817840 4.289677 1.939762 47.995625 8.522641 -3.923916 3.771744 23.588792 1.792194 0.000000 0.000000 0.000000 
0.046172 0.968821 0.067363 0.124667 -4.265343 -3.848320 1.823929 0.745184 8.902088 -3.261610 0.436093 -6.631439 2.591202 11.786233 31.639340 0.000000 0.000000 0.000000 -4.791146 -0.114386 4.438955 3.326597 -0.342490 -1.695384 -9.972338 -22.938403 26.529172 0.000000 0.000000 0.000000 6.331310 -1.018587 11.423976 -5.609293 2.000817 -20.680569 -2.063628 4.846629 25.101048 10.865562 -3.941417 -28.425271 0.000000 0.000000 0.000000 -24.249249 -17.122520 7.996009 -45.615579 -7.123077 -4.606133 -9.519443 -25.437581 3.155246 0.000000 0.000000 0.000000 33.770443 4.215236 1.687333 47.326433 9.182349 -3.569149 3.120151 22.843065 1.588328 0.000000 0.000000 0.000000 
