HIERARCHY
ROOT Hips
{
	OFFSET -0.001795 -0.223333 0.028219
	CHANNELS 6 Xposition Yposition Zposition Zrotation Yrotation Xrotation 
	JOINT LeftUpLeg
	{
		OFFSET 0.069520 -0.091406 -0.006815
		CHANNELS 3 Zrotation Yrotation Xrotation
		JOINT LeftLeg
		{
			OFFSET 0.034277 -0.375199 -0.004496
			CHANNELS 3 Zrotation Yrotation Xrotation
			JOINT LeftFoot
			{
				OFFSET -0.013596 -0.397961 -0.043693
				CHANNELS 3 Zrotation Yrotation Xrotation
				JOINT LeftToe
				{
					OFFSET 0.026358 -0.055791 0.119288
					CHANNELS 3 Zrotation Yrotation Xrotation
					End Site
					{
						OFFSET 0.000000 0.000000 0.000000
					}
				}
			}
		}
	}
	JOINT RightUpLeg
	{
		OFFSET -0.067670 -0.090522 -0.004320
		CHANNELS 3 Zrotation Yrotation Xrotation
		JOINT RightLeg
		{
			OFFSET -0.038290 -0.382569 -0.008850
			CHANNELS 3 Zrotation Yrotation Xrotation
			JOINT RightFoot
			{
				OFFSET 0.015774 -0.398415 -0.042312
				CHANNELS 3 Zrotation Yrotation Xrotation
				JOINT RightToe
				{
					OFFSET -0.025372 -0.048144 0.123348
					CHANNELS 3 Zrotation Yrotation Xrotation
					End Site
					{
						OFFSET 0.000000 0.000000 0.000000
					}
				}
			}
		}
	}
	JOINT Spine
	{
		OFFSET -0.002533 0.108963 -0.026696
		CHANNELS 3 Zrotation Yrotation Xrotation
		JOINT Spine1
		{
			OFFSET 0.005487 0.135180 0.001092
			CHANNELS 3 Zrotation Yrotation Xrotation
			JOINT Spine2
			{
				OFFSET 0.001457 0.052922 0.025425
				CHANNELS 3 Zrotation Yrotation Xrotation
				JOINT Neck
				{
					OFFSET -0.002778 0.213870 -0.042857
					CHANNELS 3 Zrotation Yrotation Xrotation
					JOINT Head
					{
						OFFSET 0.005152 0.064970 0.051349
						CHANNELS 3 Zrotation Yrotation Xrotation
						End Site
						{
							OFFSET 0.000000 0.000000 0.000000
						}
					}
				}
				JOINT LeftShoulder
				{
					OFFSET 0.078845 0.121749 -0.034090
					CHANNELS 3 Zrotation Yrotation Xrotation
					JOINT LeftArm
					{
						OFFSET 0.090977 0.030469 -0.008868
						CHANNELS 3 Zrotation Yrotation Xrotation
						JOINT LeftForeArm
						{
							OFFSET 0.259612 -0.012772 -0.027456
							CHANNELS 3 Zrotation Yrotation Xrotation
							JOINT LeftHand
							{
								OFFSET 0.249234 0.008986 -0.001171
								CHANNELS 3 Zrotation Yrotation Xrotation
								End Site
								{
									OFFSET 0.000000 0.000000 0.000000
								}
							}
						}
					}
				}
				JOINT RightShoulder
				{
					OFFSET -0.081759 0.118833 -0.038615
					CHANNELS 3 Zrotation Yrotation Xrotation
					JOINT RightArm
					{
						OFFSET -0.096012 0.032551 -0.009143
						CHANNELS 3 Zrotation Yrotation Xrotation
						JOINT RightForeArm
						{
							OFFSET -0.253742 -0.013329 -0.021401
							CHANNELS 3 Zrotation Yrotation Xrotation
							JOINT RightHand
							{
								OFFSET -0.255298 0.007772 -0.005559
								CHANNELS 3 Zrotation Yrotation Xrotation
								End Site
								{
									OFFSET 0.000000 0.000000 0.000000
								}
							}
						}
					}
				}
			}
		}
	}
}
MOTION
Frames: 140
Frame Time: 0.050000
0.000000 0.957703 0.000000 -1.590897 3.873867 0.080156 2.635419 0.132520 2.921853 0.415727 0.081853 -3.320221 -0.689788 2.611642 8.479868 0.000000 0.000000 0.000000 0.048678 -0.025653 0.241294 -0.849525 0.116799 0.443625 2.562866 2.539376 7.507909 0.000000 0.000000 0.000000 0.402466 -0.058563 1.256313 0.615624 -0.119057 -3.892455 -0.702520 -1.423464 5.692729 2.848501 -0.477472 -16.486775 0.000000 0.000000 0.000000 -21.087616 -0.232902 -2.125353 -49.615116 -5.938254 -3.566146 -14.330238 -20.304183 3.290460 0.000000 0.000000 0.000000 19.823460 -0.721347 -2.002781 56.037574 7.043921 -2.351732 8.088115 20.062280 1.981877 0.000000 0.000000 0.000000 
0.000116 0.956343 0.000185 -1.506795 3.219694 0.245679 2.194573 0.171322 3.131386 0.865375 0.062497 -3.681550 -0.353141 2.593067 7.122481 0.000000 0.000000 0.000000 -0.709831 0.017927 -0.053694 -0.089164 0.037556 0.705088 3.533138 4.815316 7.072303 0.000000 0.000000 0.000000 0.487784 -0.058060 1.200404 -0.239968 0.225200 -3.171964 0.056480 -1.603811 4.758359 2.293738 -0.093215 -17.695808 0.000000 0.000000 0.000000 -21.359518 0.640698 -2.477589 -49.616138 -5.788736 -3.586416 -15.093172 -20.416547 3.471142 0.000000 0.000000 0.000000 18.902866 -1.146889 -2.353481 57.592460 6.091101 -2.725183 8.140098 20.797077 2.033776 0.000000 0.000000 0.000000 
0.000177 0.955485 0.000011 -1.220029 3.537797 0.154024 2.098661 0.170392 3.072359 0.676159 0.048346 -2.954450 -0.505885 2.043749 6.425580 0.000000 0.000000 0.000000 -0.664128 0.006536 0.049140 -0.697420 0.119392 0.916509 3.015459 4.385336 5.768937 0.000000 0.000000 0.000000 0.330973 -0.068751 1.517958 0.179721 0.093807 -4.575923 -0.656666 -1.938858 5.628172 1.872753 0.065089 -16.817697 0.000000 0.000000 0.000000 -20.366844 0.449059 -2.226757 -50.129993 -5.331904 -3.891926 -15.055513 -20.758002 3.534192 0.000000 0.000000 0.000000 19.999850 -0.641048 -2.172732 56.470350 5.138597 -3.221009 7.563866 21.167717 1.986472 0.000000 0.000000 0.000000 
0.000064 0.955147 -0.000246 -1.424522 3.685031 -0.005062 2.233376 0.168810 3.153102 0.888362 0.035757 -3.045464 -0.606010 1.676763 5.982273 0.000000 0.000000 0.000000 -0.765549 0.002572 0.101646 -0.288293 0.073305 1.001511 3.499907 5.616007 5.561908 0.000000 0.000000 0.000000 0.349869 -0.083885 1.852206 -0.252726 0.257408 -3.817489 0.074914 -2.734385 4.519279 1.587341 0.173923 -17.045097 0.000000 0.000000 0.000000 -20.095836 1.498479 -2.579159 -50.533312 -5.585782 -3.765216 -15.701253 -20.511814 3.639100 0.000000 0.000000 0.000000 19.558668 -0.569457 -2.349842 56.223774 4.798772 -3.223314 8.579165 20.790979 2.062999 0.000000 0.000000 0.000000 
-0.000110 0.955160 -0.000632 -1.356656 4.031162 -0.085482 2.310728 0.160181 3.111839 0.761680 0.040349 -2.906091 -0.662926 1.661308 6.129071 0.000000 0.000000 0.000000 -0.855691 -0.017215 0.314288 -0.100366 0.042698 0.806459 3.169475 5.009416 5.340937 0.000000 0.000000 0.000000 0.339082 -0.093943 2.088244 -0.063593 0.194129 -4.253629 -0.260351 -2.590443 4.864702 1.583772 0.203567 -16.910673 0.000000 0.000000 0.000000 -19.801571 1.238925 -2.496475 -50.514276 -5.585896 -3.773501 -16.327448 -20.565226 3.748343 0.000000 0.000000 0.000000 19.912648 -0.716024 -2.354000 55.865913 4.663979 -3.315691 8.829652 20.240125 2.061458 0.000000 0.000000 0.000000 
-0.000213 0.955350 -0.000894 -1.360231 4.291033 -0.000965 2.248523 0.155708 3.035967 0.870234 0.040905 -3.118931 -0.659331 1.645479 6.038278 0.000000 0.000000 0.000000 -0.919531 -0.015904 0.309549 0.018421 0.021098 0.618043 3.449570 5.556629 5.552977 0.000000 0.000000 0.000000 0.222631 -0.090531 2.076317 -0.001484 0.177567 -4.452437 -0.063612 -2.788299 5.071530 1.456341 0.288653 -17.194265 0.000000 0.000000 0.000000 -19.979357 1.667488 -2.719978 -50.655741 -5.795315 -3.721346 -16.371618 -20.524716 3.756702 0.000000 0.000000 0.000000 19.556676 -0.723991 -2.334504 56.040258 4.779394 -3.290187 8.703572 19.554292 1.961613 0.000000 0.000000 0.000000 
-0.000208 0.955430 -0.000999 -1.301727 4.463802 0.099155 2.178357 0.155383 3.006429 0.911945 0.043963 -3.265847 -0.627527 1.794568 6.213220 0.000000 0.000000 0.000000 -0.900694 -0.021291 0.361945 -0.186711 0.035667 0.360232 3.495685 5.701632 5.509287 0.000000 0.000000 0.000000 0.250199 -0.090090 2.048300 -0.047553 0.205116 -4.604220 -0.181789 -2.794985 5.180526 1.636420 0.206343 -17.361527 0.000000 0.000000 0.000000 -19.928786 1.884943 -2.857132 -50.929007 -5.653934 -3.801622 -16.650131 -20.492739 3.799028 0.000000 0.000000 0.000000 19.413697 -0.602644 -2.219146 56.279661 4.766588 -3.324016 8.783528 19.457502 1.968559 0.000000 0.000000 0.000000 
-0.000073 0.955319 -0.000948 -1.319277 4.728205 0.280138 2.128769 0.146313 2.877243 0.959401 0.050999 -3.516846 -0.567274 1.906008 6.173707 0.000000 0.000000 0.000000 -0.905328 -0.027190 0.424342 -0.195585 0.023433 0.023300 3.641351 6.075618 5.479652 0.000000 0.000000 0.000000 0.193804 -0.085011 1.961313 -0.043729 0.204437 -4.546558 -0.218166 -2.669450 4.965690 1.655980 0.211268 -17.165280 0.000000 0.000000 0.000000 -20.042814 1.866332 -2.938828 -50.918751 -5.543547 -3.807616 -16.830993 -20.461578 3.809312 0.000000 0.000000 0.000000 19.263514 -0.794021 -2.242834 56.303765 4.853427 -3.267902 8.963287 19.322834 1.988239 0.000000 0.000000 0.000000 
0.000060 0.955210 -0.000778 -1.319377 4.912361 0.431885 2.079526 0.149058 2.914844 1.084896 0.058823 -3.916315 -0.592289 1.935872 6.314504 0.000000 0.000000 0.000000 -0.913700 -0.036878 0.527535 -0.224543 0.005951 -0.498096 3.572430 5.820727 5.684659 0.000000 0.000000 0.000000 0.176344 -0.078503 1.818077 -0.104820 0.233392 -4.559443 -0.163954 -2.737412 4.801045 1.548039 0.264513 -16.983761 0.000000 0.000000 0.000000 -20.253938 1.976571 -3.036449 -51.078274 -5.474747 -3.830209 -16.760400 -20.054667 3.715094 0.000000 0.000000 0.000000 19.355754 -0.642831 -2.170436 55.997568 5.036073 -3.150118 9.065281 19.292230 1.999680 0.000000 0.000000 0.000000 
0.000158 0.955014 -0.000594 -1.336450 5.093789 0.513405 2.055379 0.148133 2.909346 1.137758 0.067382 -4.205216 -0.601987 1.960648 6.380011 0.000000 0.000000 0.000000 -0.889514 -0.053595 0.693970 -0.240459 -0.005989 -0.838470 3.616134 5.896676 5.758606 0.000000 0.000000 0.000000 0.164013 -0.069659 1.618606 -0.124546 0.240436 -4.457795 -0.252567 -2.589604 4.669871 1.466174 0.336911 -16.910119 0.000000 0.000000 0.000000 -20.160509 2.006456 -3.112365 -51.263074 -5.416310 -3.840447 -16.774550 -19.630827 3.621865 0.000000 0.000000 0.000000 19.411757 -0.550900 -2.063076 55.886662 5.230846 -3.049014 9.016140 19.251966 1.995374 0.000000 0.000000 0.000000 
0.000223 0.954966 -0.000435 -1.397097 5.313463 0.517551 2.145442 0.149722 3.030892 1.156246 0.077077 -4.467660 -0.659458 1.874673 6.387461 0.000000 0.000000 0.000000 -0.836347 -0.063723 0.782000 -0.248572 -0.014533 -1.072795 3.641734 5.955353 5.794150 0.000000 0.000000 0.000000 0.137192 -0.066634 1.562296 -0.161166 0.259596 -4.471856 -0.277746 -2.600926 4.672605 1.474089 0.350210 -16.983735 0.000000 0.000000 0.000000 -20.299182 1.871681 -3.086757 -51.179189 -5.329235 -3.865102 -16.837403 -19.360403 3.575115 0.000000 0.000000 0.000000 19.531224 -0.501915 -2.018661 55.751124 5.548108 -2.901722 9.134080 19.164144 2.006995 0.000000 0.000000 0.000000 
0.000267 0.955006 -0.000316 -1.471187 5.560454 0.514894 2.232973 0.148476 3.114917 1.200236 0.083562 -4.689094 -0.784185 1.705512 6.476589 0.000000 0.000000 0.000000 -0.707907 -0.077354 0.887782 -0.337069 -0.008949 -1.171261 3.674827 6.078837 5.747634 0.000000 0.000000 0.000000 0.132124 -0.067032 1.574326 -0.187152 0.272789 -4.440790 -0.375130 -2.605407 4.598743 1.403307 0.428924 -17.226825 0.000000 0.000000 0.000000 -20.334627 1.917201 -3.157611 -51.078655 -5.393160 -3.815671 -16.880813 -18.953827 3.496298 0.000000 0.000000 0.000000 19.708736 -0.556829 -2.030012 55.579617 5.813420 -2.771085 9.211984 18.997847 2.003501 0.000000 0.000000 0.000000 
0.000333 0.955123 -0.000228 -1.517054 5.769049 0.491551 2.199338 0.156506 3.239890 1.346643 0.084714 -4.921674 -0.851902 1.649045 6.587374 0.000000 0.000000 0.000000 -0.538833 -0.097957 1.051931 -0.500951 -0.002876 -1.439427 3.670892 6.051812 5.816725 0.000000 0.000000 0.000000 0.038901 -0.067146 1.627936 -0.168565 0.266903 -4.427314 -0.351993 -2.631373 4.523163 1.298811 0.510580 -17.359348 0.000000 0.000000 0.000000 -20.507666 1.918504 -3.205523 -50.762740 -5.410543 -3.773530 -16.878305 -18.681226 3.438520 0.000000 0.000000 0.000000 19.832081 -0.456841 -1.968228 55.375887 5.927742 -2.708154 9.384015 19.094120 2.043063 0.000000 0.000000 0.000000 
0.000418 0.955189 -0.000214 -1.569437 5.898775 0.432021 2.177438 0.163581 3.346752 1.506022 0.082955 -5.092154 -0.840679 1.736824 6.710534 0.000000 0.000000 0.000000 -0.359604 -0.115877 1.183726 -0.614438 0.003241 -1.572508 3.676345 6.147430 5.686004 0.000000 0.000000 0.000000 0.040241 -0.074896 1.811514 -0.208555 0.283333 -4.361551 -0.343092 -2.599654 4.302238 1.198748 0.583551 -17.381306 0.000000 0.000000 0.000000 -20.717427 1.838539 -3.222545 -50.440649 -5.316268 -3.762695 -17.002581 -18.619068 3.440256 0.000000 0.000000 0.000000 19.981407 -0.514808 -1.997009 55.065437 6.025303 -2.635173 9.736851 19.236501 2.115264 0.000000 0.000000 0.000000 
0.000506 0.955181 -0.000287 -1.601404 6.023416 0.365396 2.159564 0.169830 3.442548 1.603826 0.082638 -5.209306 -0.818629 1.798907 6.736653 0.000000 0.000000 0.000000 -0.258013 -0.132300 1.315653 -0.660124 0.003682 -1.672235 3.640059 6.121932 5.601016 0.000000 0.000000 0.000000 0.002233 -0.078852 1.928181 -0.235807 0.296590 -4.355721 -0.354605 -2.640015 4.225540 1.108138 0.651447 -17.521788 0.000000 0.000000 0.000000 -20.809764 1.981745 -3.323554 -50.235549 -5.369327 -3.717990 -16.804020 -18.711762 3.423539 0.000000 0.000000 0.000000 20.015611 -0.504715 -1.989888 54.924417 6.031123 -2.622067 9.911167 19.329341 2.153710 0.000000 0.000000 0.000000 
0.000556 0.955158 -0.000446 -1.605484 5.947546 0.217446 2.132022 0.183230 3.609530 1.694333 0.078354 -5.228220 -0.718634 1.958280 6.699680 0.000000 0.000000 0.000000 -0.258565 -0.148080 1.465708 -0.685807 0.002660 -1.750987 3.673569 6.250734 5.493741 0.000000 0.000000 0.000000 0.015089 -0.087247 2.120079 -0.348663 0.347761 -4.434069 -0.324855 -2.577129 4.349831 0.937844 0.766641 -17.712076 0.000000 0.000000 0.000000 -20.869534 1.996240 -3.341045 -50.018083 -5.436630 -3.685491 -16.915350 -18.901778 3.477893 0.000000 0.000000 0.000000 20.063167 -0.535645 -2.002246 54.910368 6.108396 -2.603006 9.973712 19.511084 2.188790 0.000000 0.000000 0.000000 
0.000613 0.955188 -0.000606 -1.623340 5.898776 0.170967 2.144567 0.193200 3.769914 1.667789 0.086422 -5.383460 -0.686159 2.056832 6.795292 0.000000 0.000000 0.000000 -0.273567 -0.145775 1.447302 -0.704841 0.005650 -1.726601 3.633327 6.133945 5.530745 0.000000 0.000000 0.000000 -0.010607 -0.092127 2.251458 -0.363595 0.352526 -4.402657 -0.333792 -2.601227 4.328725 0.834549 0.833685 -17.870562 0.000000 0.000000 0.000000 -20.747831 1.938820 -3.279756 -49.980335 -5.560155 -3.634220 -16.932299 -19.238792 3.547422 0.000000 0.000000 0.000000 20.015823 -0.529489 -2.008188 54.897572 6.196233 -2.558240 10.150574 19.673377 2.235157 0.000000 0.000000 0.000000 
0.000681 0.955281 -0.000722 -1.629079 5.758546 0.071903 2.132127 0.208561 3.975201 1.636653 0.086444 -5.350572 -0.566731 2.219062 6.699518 0.000000 0.000000 0.000000 -0.273758 -0.161502 1.598913 -0.775971 0.008759 -1.811018 3.502197 5.841168 5.494680 0.000000 0.000000 0.000000 -0.034241 -0.099754 2.447292 -0.416506 0.374941 -4.433297 -0.334620 -2.625148 4.290128 0.628020 0.966209 -18.186004 0.000000 0.000000 0.000000 -20.707296 2.082733 -3.327970 -49.754545 -5.699377 -3.564916 -17.143631 -19.646841 3.666757 0.000000 0.000000 0.000000 20.140637 -0.455773 -2.008541 54.725953 6.145311 -2.567829 10.326948 19.969408 2.296965 0.000000 0.000000 0.000000 
0.000781 0.955410 -0.000802 -1.591224 5.521459 -0.003185 2.070391 0.220274 4.060625 1.648613 0.084147 -5.318790 -0.546383 2.261121 6.750702 0.000000 0.000000 0.000000 -0.344665 -0.171949 1.721213 -0.799230 0.004961 -1.933251 3.472375 5.730931 5.534313 0.000000 0.000000 0.000000 -0.048840 -0.106287 2.612515 -0.516085 0.416239 -4.464752 -0.301745 -2.571883 4.313620 0.585986 0.990357 -18.311756 0.000000 0.000000 0.000000 -20.571934 2.226093 -3.364908 -49.678291 -5.800239 -3.526864 -17.407845 -20.131565 3.812893 0.000000 0.000000 0.000000 20.135588 -0.547209 -2.080273 54.675325 6.040736 -2.612317 10.670906 20.380311 2.404137 0.000000 0.000000 0.000000 
0.000903 0.955410 -0.000866 -1.510133 5.235708 -0.227898 1.923455 0.247258 4.283831 1.695359 0.076536 -5.214689 -0.444725 2.389451 6.671518 0.000000 0.000000 0.000000 -0.388540 -0.196468 1.973082 -0.941408 0.017365 -1.958500 3.433095 5.680125 5.416714 0.000000 0.000000 0.000000 -0.013826 -0.116970 2.841067 -0.567049 0.436468 -4.506188 -0.437553 -2.579397 4.319372 0.675071 0.934760 -18.450002 0.000000 0.000000 0.000000 -20.587147 2.269785 -3.356351 -49.436387 -5.776826 -3.528515 -17.614541 -20.685162 3.966881 0.000000 0.000000 0.000000 20.265443 -0.399317 -2.048752 54.508715 5.737890 -2.737436 11.106477 20.819317 2.529327 0.000000 0.000000 0.000000 
0.001021 0.955436 -0.000936 -1.495316 4.970684 -0.358998 1.875248 0.265985 4.477713 1.620522 0.072451 -5.035661 -0.389994 2.431403 6.584956 0.000000 0.000000 0.000000 -0.394307 -0.211798 2.127869 -1.031682 0.021576 -2.043336 3.441969 5.695339 5.385842 0.000000 0.000000 0.000000 0.041045 -0.121490 2.908785 -0.664778 0.475663 -4.507619 -0.453216 -2.321672 4.259673 0.786356 0.886434 -18.472298 0.000000 0.000000 0.000000 -20.396330 2.164778 -3.304689 -49.308190 -5.712967 -3.533551 -18.030097 -20.980216 4.096641 0.000000 0.000000 0.000000 20.242135 -0.637496 -2.148599 54.442642 5.414099 -2.880243 11.636012 20.981492 2.645605 0.000000 0.000000 0.000000 
0.001146 0.955469 -0.001004 -1.493836 4.747158 -0.490021 1.856652 0.286442 4.729006 1.665327 0.067024 -4.981220 -0.470879 2.209546 6.451833 0.000000 0.000000 0.000000 -0.376757 -0.229025 2.293663 -1.179682 0.038775 -1.978348 3.442395 5.734353 5.283939 0.000000 0.000000 0.000000 0.103908 -0.126317 2.976971 -0.688691 0.488429 -4.670202 -0.564779 -2.303512 4.424681 1.098747 0.708082 -18.608943 0.000000 0.000000 0.000000 -20.474731 2.260348 -3.344125 -49.126207 -5.728123 -3.533791 -18.285928 -21.116871 4.178397 0.000000 0.000000 0.000000 20.289549 -0.564967 -2.128095 54.393153 5.217179 -2.979632 11.939765 21.190190 2.725686 0.000000 0.000000 0.000000 
0.001276 0.955658 -0.001042 -1.502412 4.412471 -0.579858 1.908092 0.295882 4.861637 1.582172 0.071995 -4.993108 -0.470356 2.224081 6.537677 0.000000 0.000000 0.000000 -0.350738 -0.251161 2.508065 -1.227637 0.033226 -2.163391 3.592438 5.965127 5.439618 0.000000 0.000000 0.000000 0.155214 -0.125303 2.920472 -0.714350 0.491916 -4.558079 -0.562567 -2.174908 4.219922 1.276513 0.600673 -18.582035 0.000000 0.000000 0.000000 -20.575525 2.235969 -3.337536 -48.992050 -5.565866 -3.573160 -18.602024 -21.247122 4.265749 0.000000 0.000000 0.000000 20.356149 -0.586169 -2.168749 54.247890 4.919528 -3.082212 12.278269 21.355189 2.802728 0.000000 0.000000 0.000000 
0.001435 0.955891 -0.001028 -1.501545 4.246113 -0.751418 1.852145 0.316954 5.088171 1.638346 0.069303 -5.015016 -0.582253 2.032296 6.592307 0.000000 0.000000 0.000000 -0.228253 -0.287875 2.821603 -1.427914 0.049855 -2.202764 3.646773 6.068869 5.453742 0.000000 0.000000 0.000000 0.108657 -0.128245 3.024806 -0.636803 0.454021 -4.465086 -0.574689 -2.116526 3.927360 1.744962 0.347555 -18.767417 0.000000 0.000000 0.000000 -20.669973 2.348121 -3.412197 -48.881302 -5.452147 -3.589218 -18.645804 -21.240906 4.271624 0.000000 0.000000 0.000000 20.481945 -0.641044 -2.231673 54.112292 4.662064 -3.161611 12.528743 21.260979 2.825284 0.000000 0.000000 0.000000 
0.001616 0.956080 -0.001020 -1.531055 4.016546 -0.948141 1.835501 0.342539 5.405256 1.670950 0.070567 -5.096321 -0.593232 2.000427 6.602491 0.000000 0.000000 0.000000 -0.170209 -0.320648 3.118577 -1.413919 0.039399 -2.366553 3.748595 6.199330 5.600700 0.000000 0.000000 0.000000 0.137984 -0.131782 3.089192 -0.594374 0.434813 -4.521057 -0.548205 -2.012242 3.881527 2.024316 0.184826 -18.750540 0.000000 0.000000 0.000000 -20.884649 2.407451 -3.470489 -48.748493 -5.329585 -3.626742 -19.039359 -21.263397 4.351946 0.000000 0.000000 0.000000 20.609447 -0.753398 -2.315671 53.958313 4.495715 -3.223886 12.586361 21.185555 2.821796 0.000000 0.000000 0.000000 
0.001781 0.956170 -0.001063 -1.587626 3.712502 -1.147041 1.797603 0.367869 5.681408 1.773118 0.070878 -5.247107 -0.514023 2.156313 6.677962 0.000000 0.000000 0.000000 -0.128319 -0.342735 3.321482 -1.484578 0.043013 -2.407985 3.942226 6.545540 5.723275 0.000000 0.000000 0.000000 0.174155 -0.135958 3.163549 -0.536164 0.401242 -4.361213 -0.529805 -1.883682 3.681235 2.392874 -0.027976 -18.736511 0.000000 0.000000 0.000000 -20.961103 2.395950 -3.471303 -48.665928 -5.098524 -3.697353 -19.296383 -21.442099 4.439108 0.000000 0.000000 0.000000 20.740155 -0.752522 -2.347139 53.746521 4.285457 -3.284692 12.832256 21.270467 2.871944 0.000000 0.000000 0.000000 
0.001888 0.956176 -0.001189 -1.646343 3.678072 -1.255495 1.828317 0.378888 5.864008 1.862498 0.069219 -5.326253 -0.577677 2.026978 6.651464 0.000000 0.000000 0.000000 -0.044733 -0.355463 3.408607 -1.516020 0.046918 -2.388952 3.998866 6.622043 5.809500 0.000000 0.000000 0.000000 0.153739 -0.134776 3.152647 -0.440203 0.356642 -4.277128 -0.467345 -1.874688 3.469086 2.411768 -0.050483 -18.601021 0.000000 0.000000 0.000000 -21.064334 2.449464 -3.516281 -48.520925 -4.986961 -3.713559 -19.742233 -21.465093 4.528521 0.000000 0.000000 0.000000 20.832122 -0.903847 -2.455288 53.528532 4.115099 -3.325769 13.052605 21.240609 2.901011 0.000000 0.000000 0.000000 
0.001938 0.956032 -0.001423 -1.674989 3.575173 -1.306996 1.864707 0.379170 5.883800 1.975911 0.059866 -5.273119 -0.546139 1.981004 6.428852 0.000000 0.000000 0.000000 -0.008716 -0.351017 3.355417 -1.470956 0.047812 -2.288844 4.138868 7.002390 5.692231 0.000000 0.000000 0.000000 0.076788 -0.137542 3.271339 -0.364173 0.322735 -4.293550 -0.258150 -1.884739 3.326148 2.589544 -0.155784 -18.671844 0.000000 0.000000 0.000000 -21.162643 2.838768 -3.720024 -48.453502 -4.887365 -3.742841 -20.015783 -21.513755 4.597322 0.000000 0.000000 0.000000 20.817213 -0.957101 -2.518965 53.344006 4.147799 -3.281297 12.952984 21.151230 2.862753 0.000000 0.000000 0.000000 
0.001936 0.955890 -0.001685 -1.722460 3.622698 -1.435969 1.891786 0.386465 6.021890 2.082578 0.054056 -5.283241 -0.658356 1.785984 6.443892 0.000000 0.000000 0.000000 0.047868 -0.357687 3.393088 -1.484894 0.053773 -2.205611 4.219898 7.218618 5.648890 0.000000 0.000000 0.000000 -0.000287 -0.143657 3.469879 -0.316622 0.305091 -4.365080 -0.153142 -1.894580 3.241851 2.693432 -0.192854 -18.903844 0.000000 0.000000 0.000000 -20.920931 3.036610 -3.794662 -48.576917 -4.724840 -3.811113 -20.257551 -21.810241 4.710669 0.000000 0.000000 0.000000 20.974024 -1.067464 -2.603369 53.125205 4.117830 -3.275278 12.886075 21.010986 2.828264 0.000000 0.000000 0.000000 
0.001931 0.955642 -0.001925 -1.710158 3.677014 -1.535702 1.942521 0.390161 6.132653 2.065619 0.055085 -5.284188 -0.664422 1.719746 6.309768 0.000000 0.000000 0.000000 0.038963 -0.361385 3.429215 -1.458170 0.051527 -2.205080 4.343744 7.547349 5.582838 0.000000 0.000000 0.000000 -0.080212 -0.149004 3.656606 -0.311615 0.299459 -4.235061 -0.020072 -1.881064 2.921521 2.758490 -0.204732 -19.107848 0.000000 0.000000 0.000000 -20.926768 3.265736 -3.932480 -48.401670 -4.611880 -3.814450 -20.402780 -21.954654 4.767139 0.000000 0.000000 0.000000 21.168720 -1.169328 -2.692805 52.847107 4.057655 -3.255918 12.763480 20.891339 2.785481 0.000000 0.000000 0.000000 
0.001967 0.955489 -0.002133 -1.689984 3.800338 -1.577730 1.914773 0.392873 6.164541 2.078795 0.057356 -5.342902 -0.667163 1.738421 6.343328 0.000000 0.000000 0.000000 0.046715 -0.361054 3.418630 -1.572088 0.063531 -2.188693 4.369238 7.704652 5.438764 0.000000 0.000000 0.000000 -0.113639 -0.152489 3.762398 -0.321436 0.305248 -4.241813 0.045230 -1.802980 2.875360 2.738266 -0.175348 -19.136546 0.000000 0.000000 0.000000 -20.643616 3.612064 -4.114154 -48.567957 -4.464853 -3.872285 -20.394630 -22.180076 4.807247 0.000000 0.000000 0.000000 21.208211 -1.470736 -2.831522 52.723995 4.150004 -3.212675 12.508544 20.634167 2.710837 0.000000 0.000000 0.000000 
0.002047 0.955367 -0.002357 -1.592116 3.997549 -1.677907 1.865115 0.393969 6.155692 1.974198 0.060403 -5.275136 -0.590824 1.886433 6.329463 0.000000 0.000000 0.000000 0.053090 -0.377595 3.563861 -1.648021 0.068178 -2.247722 4.403839 7.815667 5.414127 0.000000 0.000000 0.000000 -0.143114 -0.160304 3.969112 -0.358445 0.314446 -3.952343 0.121426 -1.861345 2.593461 2.533098 -0.043780 -19.246500 0.000000 0.000000 0.000000 -20.692918 3.982610 -4.335572 -48.340321 -4.464106 -3.830263 -20.321781 -22.431663 4.844359 0.000000 0.000000 0.000000 21.203451 -1.657136 -2.941006 52.464135 4.240410 -3.134078 12.139122 20.503915 2.627916 0.000000 0.000000 0.000000 
0.002153 0.955271 -0.002670 -1.489368 4.255189 -1.786853 1.732103 0.404512 6.212747 2.052521 0.053667 -5.222841 -0.565724 1.918466 6.256222 0.000000 0.000000 0.000000 0.178705 -0.394150 3.658502 -1.864857 0.096695 -2.121718 4.260087 7.716365 5.067416 0.000000 0.000000 0.000000 -0.215554 -0.169569 4.247094 -0.280345 0.283153 -3.953328 0.106822 -1.847050 2.581233 2.495786 -0.006100 -19.255006 0.000000 0.000000 0.000000 -20.602723 4.279117 -4.519142 -48.245539 -4.242715 -3.901041 -20.089639 -22.738743 4.856321 0.000000 0.000000 0.000000 21.223978 -1.896721 -3.037190 52.139951 4.177831 -3.152106 11.843889 20.389054 2.569328 0.000000 0.000000 0.000000 
0.002238 0.955123 -0.003100 -1.376042 4.509048 -1.811400 1.618655 0.408740 6.198372 2.039415 0.051244 -5.147706 -0.570240 1.844736 6.071701 0.000000 0.000000 0.000000 0.157189 -0.400459 3.716362 -1.985941 0.105860 -2.179907 4.254079 7.790546 4.955094 0.000000 0.000000 0.000000 -0.230925 -0.173804 4.359155 -0.246145 0.265127 -3.778863 0.127073 -1.864306 2.482075 2.274314 0.156093 -19.546625 0.000000 0.000000 0.000000 -20.533284 4.734601 -4.780576 -48.288924 -4.145394 -3.931613 -19.927123 -22.748968 4.818937 0.000000 0.000000 0.000000 21.190976 -2.025823 -3.081383 52.070853 4.311653 -3.090319 11.335731 20.219895 2.465960 0.000000 0.000000 0.000000 
0.002242 0.955083 -0.003594 -1.310461 4.635242 -1.870485 1.554098 0.419308 6.304605 2.109760 0.053606 -5.278397 -0.618598 1.759605 6.062267 0.000000 0.000000 0.000000 0.195603 -0.415523 3.834756 -2.152115 0.114716 -2.306767 4.335302 7.895999 5.107986 0.000000 0.000000 0.000000 -0.228286 -0.182673 4.562688 -0.231499 0.261235 -3.812058 0.117015 -1.763907 2.485585 2.318211 0.147281 -19.521317 0.000000 0.000000 0.000000 -20.535703 5.132271 -5.036573 -48.223489 -3.913557 -4.007864 -19.857412 -22.621403 4.765712 0.000000 0.000000 0.000000 21.127499 -2.261139 -3.159401 51.965215 4.470570 -3.029119 11.601599 20.336833 2.532951 0.000000 0.000000 0.000000 
0.002138 0.955006 -0.004123 -1.219658 4.800872 -1.877808 1.435401 0.419884 6.214886 2.186301 0.041786 -5.121245 -0.734535 1.461696 5.856156 0.000000 0.000000 0.000000 0.359078 -0.431219 3.906709 -2.438358 0.138541 -2.368807 4.402864 8.157813 4.959564 0.000000 0.000000 0.000000 -0.138456 -0.193366 4.723443 -0.288211 0.277714 -3.521951 0.105670 -1.662075 2.212907 2.124141 0.297140 -19.728541 0.000000 0.000000 0.000000 -20.746034 5.385187 -5.262455 -48.001500 -3.836630 -3.983874 -19.702183 -22.422526 4.675319 0.000000 0.000000 0.000000 21.121095 -2.468961 -3.235726 51.811362 4.576535 -2.960875 11.511200 20.630830 2.564822 0.000000 0.000000 0.000000 
0.001984 0.955020 -0.004628 -1.107989 4.743223 -1.858656 1.311384 0.430510 6.227761 2.334040 0.035550 -5.172740 -0.667667 1.562288 5.815073 0.000000 0.000000 0.000000 0.390479 -0.439768 3.973853 -2.656718 0.154280 -2.436200 4.344740 8.086246 4.847376 0.000000 0.000000 0.000000 -0.200805 -0.197470 4.882627 -0.231555 0.256178 -3.646065 -0.002801 -1.601389 2.322803 1.968154 0.398465 -19.846303 0.000000 0.000000 0.000000 -20.796751 5.519883 -5.355134 -47.896049 -3.813451 -3.988725 -19.211179 -22.207790 4.528865 0.000000 0.000000 0.000000 21.087565 -2.438304 -3.196087 51.934786 4.994968 -2.804223 11.299561 20.930388 2.575869 0.000000 0.000000 0.000000 
0.001809 0.954847 -0.005047 -1.035041 4.682382 -1.881217 1.355821 0.424935 6.177845 2.299472 0.028737 -5.000402 -0.719196 1.403530 5.688440 0.000000 0.000000 0.000000 0.277664 -0.440743 4.031404 -2.678381 0.150956 -2.514422 4.368083 8.193131 4.753408 0.000000 0.000000 0.000000 -0.110293 -0.211221 5.111306 -0.372985 0.319390 -3.676482 0.047950 -1.497999 2.262172 1.744224 0.575962 -20.403866 0.000000 0.000000 0.000000 -20.709117 5.727614 -5.465736 -47.971585 -3.802113 -3.992909 -19.026488 -21.777279 4.397242 0.000000 0.000000 0.000000 20.976378 -2.670805 -3.300665 51.826418 5.073403 -2.761891 11.778454 21.266617 2.706659 0.000000 0.000000 0.000000 
0.001672 0.954932 -0.005386 -1.025356 4.616866 -1.850220 1.336789 0.427601 6.186309 2.421469 0.020582 -4.987638 -0.654402 1.524971 5.699775 0.000000 0.000000 0.000000 0.300088 -0.450854 4.116186 -2.712103 0.151147 -2.553468 4.490740 8.487837 4.734599 0.000000 0.000000 0.000000 -0.161771 -0.212984 5.206978 -0.373131 0.321797 -3.768894 0.071114 -1.601123 2.269024 1.604800 0.654228 -20.622540 0.000000 0.000000 0.000000 -20.666651 6.007816 -5.574511 -48.066614 -3.832020 -3.998503 -18.698615 -21.407859 4.265397 0.000000 0.000000 0.000000 20.888590 -2.705463 -3.347373 51.963535 5.282635 -2.670381 11.917314 21.535313 2.763088 0.000000 0.000000 0.000000 
0.001595 0.954830 -0.005647 -0.957258 4.516167 -1.746380 1.186207 0.442388 6.230234 2.735910 0.005217 -5.059922 -0.799199 1.268888 5.745243 0.000000 0.000000 0.000000 0.181934 -0.432813 4.006099 -2.680743 0.145349 -2.588850 4.584218 8.585117 4.913106 0.000000 0.000000 0.000000 -0.177893 -0.211820 5.203397 -0.482590 0.369620 -3.793278 0.150999 -1.714983 2.229189 1.234585 0.873925 -21.130769 0.000000 0.000000 0.000000 -20.701716 6.124770 -5.599591 -48.242077 -4.122776 -3.907422 -18.500524 -20.807240 4.114473 0.000000 0.000000 0.000000 20.868146 -2.544041 -3.307499 51.929746 5.458927 -2.577481 12.427135 21.494845 2.835555 0.000000 0.000000 0.000000 
0.001560 0.954795 -0.005841 -0.868324 4.464297 -1.707352 1.084883 0.446938 6.184483 2.777211 0.001201 -5.034029 -0.749471 1.409443 5.858193 0.000000 0.000000 0.000000 0.004804 -0.425961 4.020539 -2.648693 0.139214 -2.633848 4.649995 8.670448 5.012729 0.000000 0.000000 0.000000 -0.261318 -0.213341 5.333646 -0.444598 0.361537 -4.080429 0.055084 -1.720951 2.434629 1.092587 0.971756 -21.454510 0.000000 0.000000 0.000000 -20.841916 6.053221 -5.579799 -48.223488 -4.404720 -3.813122 -18.267469 -20.360075 3.982819 0.000000 0.000000 0.000000 21.003976 -2.446698 -3.266467 51.973351 5.511680 -2.576183 12.546981 21.290838 2.827520 0.000000 0.000000 0.000000 
0.001518 0.954836 -0.006040 -0.812063 4.492550 -1.714414 0.938394 0.452367 6.121233 2.827224 -0.011743 -4.853470 -0.775315 1.346500 5.822220 0.000000 0.000000 0.000000 -0.174622 -0.413211 3.976650 -2.628347 0.148415 -2.461381 4.810412 9.097206 4.932003 0.000000 0.000000 0.000000 -0.244377 -0.220245 5.476099 -0.584888 0.425445 -4.142654 0.089954 -1.832010 2.438678 0.790249 1.162316 -22.034270 0.000000 0.000000 0.000000 -20.981414 6.071863 -5.589134 -48.252478 -4.757057 -3.685378 -18.004842 -19.780256 3.824026 0.000000 0.000000 0.000000 21.114699 -2.409071 -3.289091 51.857166 5.575496 -2.538528 13.051617 21.071189 2.874431 0.000000 0.000000 0.000000 
0.001496 0.954919 -0.006248 -0.822632 4.435103 -1.668260 0.888648 0.455529 6.110239 2.815720 -0.020044 -4.692829 -0.782023 1.279586 5.713130 0.000000 0.000000 0.000000 -0.182748 -0.401806 3.875546 -2.552549 0.144078 -2.414216 4.917098 9.368353 4.890829 0.000000 0.000000 0.000000 -0.219993 -0.217413 5.385197 -0.622507 0.439073 -4.077662 0.099439 -1.900561 2.420057 0.637263 1.243307 -22.200452 0.000000 0.000000 0.000000 -20.999338 5.961574 -5.508170 -48.369744 -5.074561 -3.574022 -17.727778 -19.290624 3.682718 0.000000 0.000000 0.000000 21.264683 -2.159275 -3.196678 51.954358 5.557419 -2.542162 13.110577 20.754515 2.830067 0.000000 0.000000 0.000000 
0.001507 0.955143 -0.006446 -0.840245 4.547295 -1.617917 0.949022 0.453507 6.158588 2.618982 -0.011101 -4.618929 -0.780426 1.269535 5.669574 0.000000 0.000000 0.000000 -0.266685 -0.397651 3.866465 -2.432572 0.132348 -2.431312 5.049522 9.607736 5.011224 0.000000 0.000000 0.000000 -0.179750 -0.218146 5.353024 -0.627450 0.448857 -4.280367 -0.033460 -1.935109 2.720631 0.418865 1.382923 -22.498606 0.000000 0.000000 0.000000 -20.893402 5.709249 -5.358879 -48.640173 -5.656304 -3.387465 -17.478050 -18.892331 3.561849 0.000000 0.000000 0.000000 21.528894 -2.077800 -3.156220 51.799613 5.913069 -2.418619 13.428927 20.297821 2.817559 0.000000 0.000000 0.000000 
0.001551 0.955407 -0.006588 -0.812236 4.673466 -1.691518 0.833434 0.470925 6.301002 2.575400 -0.003360 -4.706863 -0.936581 0.962878 5.619962 0.000000 0.000000 0.000000 -0.190674 -0.421153 4.049627 -2.470333 0.129565 -2.542878 5.172864 9.843747 5.106248 0.000000 0.000000 0.000000 -0.230281 -0.222284 5.497929 -0.717991 0.491969 -4.342589 0.070534 -2.147023 2.828247 0.182127 1.484965 -22.478315 0.000000 0.000000 0.000000 -21.053232 5.479575 -5.215529 -48.662143 -6.192870 -3.198900 -17.401288 -18.687801 3.517902 0.000000 0.000000 0.000000 21.550474 -1.651246 -2.962267 51.830607 6.041902 -2.367133 13.562750 19.987105 2.782711 0.000000 0.000000 0.000000 
0.001642 0.955517 -0.006703 -0.746217 5.004519 -1.697493 0.939254 0.460964 6.318164 2.369323 0.015218 -4.800068 -1.130709 0.693127 5.768564 0.000000 0.000000 0.000000 -0.231906 -0.450680 4.328056 -2.510559 0.120170 -2.775209 5.242920 10.020753 5.126695 0.000000 0.000000 0.000000 -0.325581 -0.215189 5.425750 -0.644017 0.459030 -4.191572 -0.050089 -2.368287 2.739996 -0.068277 1.614285 -22.487525 0.000000 0.000000 0.000000 -21.211779 5.341928 -5.163898 -48.599858 -6.649300 -3.008652 -17.452568 -18.610813 3.511229 0.000000 0.000000 0.000000 21.861725 -1.523432 -2.938445 51.728433 6.345616 -2.225464 13.597447 19.406696 2.693746 0.000000 0.000000 0.000000 
0.001754 0.955652 -0.006827 -0.681140 5.326671 -1.803265 0.932295 0.470948 6.498173 2.246888 0.027436 -4.881965 -1.192672 0.594153 5.757940 0.000000 0.000000 0.000000 -0.277024 -0.493502 4.728739 -2.638863 0.118554 -3.005640 5.320863 10.247574 5.099625 0.000000 0.000000 0.000000 -0.420256 -0.219136 5.604823 -0.640580 0.462092 -4.218164 -0.023503 -2.537816 2.677043 -0.214788 1.684032 -22.371642 0.000000 0.000000 0.000000 -21.397572 5.174932 -5.104001 -48.503470 -6.821188 -2.930574 -17.400689 -18.788259 3.536014 0.000000 0.000000 0.000000 21.949268 -1.471750 -2.923524 51.762808 6.358966 -2.217162 13.603768 19.389402 2.691715 0.000000 0.000000 0.000000 
0.001876 0.955448 -0.006948 -0.707189 5.855692 -1.809570 1.082354 0.450432 6.458430 1.763888 0.052136 -4.769740 -1.181101 0.522921 5.497558 0.000000 0.000000 0.000000 -0.235648 -0.543078 5.133415 -2.778678 0.113536 -3.308390 5.295675 10.385946 4.866262 0.000000 0.000000 0.000000 -0.380896 -0.224145 5.648745 -0.618512 0.456530 -4.144877 -0.237366 -2.718358 2.616133 -0.430704 1.804270 -22.197988 0.000000 0.000000 0.000000 -21.423845 5.149691 -5.133959 -48.271889 -6.955025 -2.850204 -17.395430 -19.149983 3.598313 0.000000 0.000000 0.000000 22.398270 -1.554719 -2.985030 51.618793 6.486500 -2.164275 13.331783 19.561873 2.682567 0.000000 0.000000 0.000000 
0.001995 0.955210 -0.007038 -0.596288 6.171237 -1.717315 1.076902 0.437945 6.325476 1.575397 0.065501 -4.807123 -1.198825 0.534286 5.547292 0.000000 0.000000 0.000000 -0.355451 -0.564685 5.370905 -2.777372 0.097071 -3.575389 5.207179 10.343795 4.649367 0.000000 0.000000 0.000000 -0.495864 -0.218730 5.642463 -0.645513 0.463620 -3.909493 -0.261504 -2.798994 2.326438 -0.648040 1.917820 -22.009553 0.000000 0.000000 0.000000 -21.493742 4.956748 -5.067488 -48.154058 -6.967647 -2.808017 -17.233014 -19.478897 3.628132 0.000000 0.000000 0.000000 22.387581 -1.448572 -2.909927 51.500749 6.539834 -2.115482 13.078834 19.793139 2.679168 0.000000 0.000000 0.000000 
0.002105 0.954941 -0.007060 -0.561004 6.527611 -1.664623 1.286418 0.404128 6.117167 1.236859 0.079631 -4.656926 -1.107944 0.756898 5.607165 0.000000 0.000000 0.000000 -0.338012 -0.599088 5.651346 -2.720079 0.067409 -3.973443 5.234397 10.328155 4.814773 0.000000 0.000000 0.000000 -0.429778 -0.224697 5.690204 -0.594884 0.441653 -3.808578 -0.496471 -2.812962 2.216127 -0.731488 1.963374 -21.571870 0.000000 0.000000 0.000000 -21.626493 4.949938 -5.148794 -47.732313 -7.027631 -2.734929 -17.255997 -19.810421 3.684118 0.000000 0.000000 0.000000 22.750117 -1.526917 -2.935196 51.180546 6.782707 -2.010297 12.661059 19.780258 2.619939 0.000000 0.000000 0.000000 
0.002222 0.954630 -0.007025 -0.486634 6.783694 -1.543057 1.350568 0.388861 6.004954 1.051337 0.099799 -4.894500 -1.114897 0.843986 5.776312 0.000000 0.000000 0.000000 -0.509310 -0.596226 5.696113 -2.606718 0.052528 -4.073562 5.175150 10.313762 4.648400 0.000000 0.000000 0.000000 -0.549068 -0.220386 5.722283 -0.544898 0.410843 -3.506054 -0.593047 -2.758408 1.886661 -0.703127 1.966286 -21.499423 0.000000 0.000000 0.000000 -21.496803 5.062726 -5.245959 -47.526777 -6.844218 -2.754146 -17.201795 -20.369185 3.770369 0.000000 0.000000 0.000000 22.728780 -1.507972 -2.875843 51.070217 6.725019 -2.013404 12.379262 20.081891 2.624575 0.000000 0.000000 0.000000 
0.002360 0.954175 -0.006974 -0.379626 7.181471 -1.321560 1.526056 0.353569 5.733448 0.832587 0.103851 -4.664260 -1.332879 0.415475 5.679904 0.000000 0.000000 0.000000 -0.602646 -0.587542 5.639636 -2.599807 0.045529 -4.192544 5.082422 10.240320 4.463327 0.000000 0.000000 0.000000 -0.608026 -0.221957 5.817336 -0.475329 0.372204 -3.230198 -0.765541 -2.820060 1.511001 -0.599573 1.899471 -20.947471 0.000000 0.000000 0.000000 -21.519189 5.331967 -5.453020 -47.116334 -6.636267 -2.763431 -17.358319 -20.830835 3.875070 0.000000 0.000000 0.000000 23.038546 -1.766751 -3.023682 50.818727 6.727035 -1.981988 12.228925 20.211751 2.624105 0.000000 0.000000 0.000000 
0.002597 0.953760 -0.006900 -0.296602 7.597863 -1.197775 1.749761 0.324528 5.607585 0.598173 0.114498 -4.587526 -1.499595 0.094580 5.609769 0.000000 0.000000 0.000000 -0.813435 -0.567102 5.527943 -2.385434 0.027376 -4.228859 4.923275 10.022003 4.251941 0.000000 0.000000 0.000000 -0.674845 -0.223916 5.924747 -0.391329 0.324847 -2.920739 -0.903626 -2.965258 1.143164 -0.694283 1.958726 -20.924820 0.000000 0.000000 0.000000 -21.207424 5.578429 -5.560044 -47.157126 -6.286660 -2.863054 -17.280339 -21.249695 3.932738 0.000000 0.000000 0.000000 22.945590 -1.795353 -3.017472 50.908232 6.783684 -1.930251 12.156133 20.375326 2.636566 0.000000 0.000000 0.000000 
0.002930 0.953397 -0.006847 -0.150100 7.940027 -1.140242 1.701188 0.316053 5.469038 0.465876 0.107251 -4.140669 -1.649975 -0.311707 5.335761 0.000000 0.000000 0.000000 -0.934222 -0.551271 5.415463 -2.402488 0.035218 -4.147412 4.792677 9.919342 3.949307 0.000000 0.000000 0.000000 -0.790389 -0.236936 6.358893 -0.406784 0.336996 -2.977892 -1.047413 -3.149651 1.050499 -0.715126 1.971788 -20.937063 0.000000 0.000000 0.000000 -21.413962 5.660269 -5.649645 -46.756948 -6.060164 -2.912540 -17.235154 -21.719589 4.012678 0.000000 0.000000 0.000000 23.325855 -1.803995 -3.067493 50.388624 6.805998 -1.900741 12.270787 20.527898 2.676946 0.000000 0.000000 0.000000 
0.003358 0.953126 -0.006864 -0.046600 8.063118 -1.028553 1.715023 0.319636 5.571342 0.467943 0.111320 -4.270630 -1.650235 -0.497565 4.982159 0.000000 0.000000 0.000000 -1.090581 -0.518167 5.173384 -2.401541 0.044341 -4.008988 4.682696 9.954629 3.475920 0.000000 0.000000 0.000000 -0.796288 -0.246453 6.585997 -0.525354 0.388923 -2.933222 -1.008561 -3.257944 0.996863 -0.946506 2.110467 -21.365158 0.000000 0.000000 0.000000 -21.153284 5.921910 -5.725767 -46.933476 -6.252426 -2.852729 -17.067762 -21.769582 3.993377 0.000000 0.000000 0.000000 23.322463 -1.642826 -2.995436 50.297930 6.939131 -1.832976 12.402247 20.670156 2.716414 0.000000 0.000000 0.000000 
0.003814 0.952628 -0.007025 -0.053017 7.892298 -0.659225 1.494644 0.324877 5.383276 0.514611 0.100328 -4.021571 -1.454138 -0.465868 4.377376 0.000000 0.000000 0.000000 -1.228973 -0.477664 4.878902 -2.565582 0.060510 -3.950639 4.431988 9.594787 3.061251 0.000000 0.000000 0.000000 -0.766716 -0.246353 6.575664 -0.528987 0.392638 -3.047728 -1.139959 -3.011958 1.318228 -0.647477 2.005047 -21.938081 0.000000 0.000000 0.000000 -20.952360 5.956155 -5.746729 -46.905873 -6.241852 -2.865364 -17.120763 -22.264135 4.091243 0.000000 0.000000 0.000000 23.464181 -1.738708 -2.996189 49.717419 7.484499 -1.640154 12.977986 20.683973 2.827749 0.000000 0.000000 0.000000 
0.004434 0.952198 -0.007159 -0.207392 7.985509 -0.236497 1.424829 0.315159 5.189487 0.716798 0.093365 -4.171892 -1.460361 -0.736578 3.902113 0.000000 0.000000 0.000000 -1.375028 -0.438968 4.578931 -2.793474 0.068308 -4.112536 4.561806 9.963599 2.984328 0.000000 0.000000 0.000000 -0.663939 -0.254545 6.624830 -0.548249 0.416294 -3.423829 -1.215469 -2.810891 1.893622 -0.487084 1.964705 -22.175448 0.000000 0.000000 0.000000 -21.011704 6.058344 -5.871961 -46.737544 -6.563035 -2.759910 -17.245149 -22.682621 4.187333 0.000000 0.000000 0.000000 23.548108 -1.710049 -2.876193 49.610209 7.930600 -1.535639 13.016701 21.158139 2.930828 0.000000 0.000000 0.000000 
0.005596 0.951438 -0.007192 -0.327093 8.401525 0.294840 1.367976 0.279543 4.656727 0.744131 0.077678 -3.773444 -1.256909 -0.717691 3.199160 0.000000 0.000000 0.000000 -1.439737 -0.381425 4.034117 -3.051648 0.103946 -3.919588 4.389630 9.873324 2.480842 0.000000 0.000000 0.000000 -0.677612 -0.250400 6.534649 -0.551590 0.414657 -3.305248 -1.116615 -2.614964 2.011190 -0.302419 1.943273 -22.716363 0.000000 0.000000 0.000000 -20.923223 6.299076 -6.077427 -46.615150 -6.850798 -2.628164 -18.095339 -23.241574 4.448648 0.000000 0.000000 0.000000 23.510893 -1.851031 -2.830569 49.286769 8.255733 -1.440264 13.306100 21.118311 2.995690 0.000000 0.000000 0.000000 
0.007928 0.950848 -0.006542 -0.545411 8.457359 0.748057 1.236258 0.253231 4.144599 0.720339 0.072584 -3.587276 -0.871108 -0.326541 2.541810 0.000000 0.000000 0.000000 -1.559342 -0.362076 3.910661 -3.135819 0.071320 -4.468611 4.242014 9.413239 2.641200 0.000000 0.000000 0.000000 -0.428177 -0.261651 6.432834 -0.793923 0.540733 -3.813379 -0.937459 -2.412824 2.939796 -0.007886 1.866274 -23.567076 0.000000 0.000000 0.000000 -21.066617 6.181427 -6.077886 -46.562812 -7.200046 -2.553789 -18.187979 -24.322712 4.684345 0.000000 0.000000 0.000000 23.347815 -1.824635 -2.693035 49.214897 8.640807 -1.389077 13.195199 21.493736 3.060825 0.000000 0.000000 0.000000 
0.012234 0.950280 -0.004755 -0.806329 9.369797 1.175798 0.901633 0.213016 3.338882 0.698349 0.031635 -2.417362 -0.372966 0.043804 1.400791 0.000000 0.000000 0.000000 -1.323373 -0.348640 3.645636 -3.443050 0.130774 -4.044279 3.655401 8.328675 2.086790 0.000000 0.000000 0.000000 -0.130703 -0.301397 6.763040 -0.649127 0.502519 -4.234918 -1.070103 -1.641886 3.404986 0.326816 1.853499 -23.680681 0.000000 0.000000 0.000000 -20.730688 6.049196 -6.247996 -46.589771 -7.457660 -2.420221 -19.803895 -24.864135 5.063873 0.000000 0.000000 0.000000 23.272917 -2.105544 -2.429678 48.590425 8.545631 -1.575178 13.627441 22.378210 3.361762 0.000000 0.000000 0.000000 
0.019063 0.949262 -0.000736 -0.735992 10.019728 1.700848 -0.014404 0.198718 2.455829 1.004561 -0.020762 -1.650944 0.164740 0.707836 0.642674 0.000000 0.000000 0.000000 -1.905874 -0.328419 3.653165 -3.532636 0.162425 -3.754310 3.327951 7.903618 1.422938 0.000000 0.000000 0.000000 0.110308 -0.314218 6.637944 -0.638811 0.508392 -4.359689 -1.216714 -0.952591 4.056419 0.602149 1.885494 -24.345473 0.000000 0.000000 0.000000 -20.297880 5.749775 -6.243943 -46.488152 -7.903195 -2.238506 -21.355776 -25.179458 5.402494 0.000000 0.000000 0.000000 22.810547 -2.261083 -2.129737 48.648725 8.579958 -1.703828 12.917857 22.805554 3.368126 0.000000 0.000000 0.000000 
0.028532 0.947365 0.006037 -0.849940 11.284189 2.274604 -0.538055 0.205852 2.209427 1.562836 -0.093658 -0.967429 0.429845 0.685904 -0.314662 0.000000 0.000000 0.000000 -1.826349 -0.173458 2.001440 -3.503932 0.421521 -0.129313 2.405356 7.197432 -1.707608 0.000000 0.000000 0.000000 0.542848 -0.366138 6.897297 -0.382824 0.409899 -4.349328 -1.151586 -0.634229 3.882308 1.319532 1.621508 -24.112853 0.000000 0.000000 0.000000 -20.645260 5.172869 -6.271655 -45.918882 -7.120434 -2.400185 -23.140273 -26.292092 5.983414 0.000000 0.000000 0.000000 22.278950 -3.025007 -2.269260 48.337220 8.744999 -1.675067 12.854402 22.779620 3.404003 0.000000 0.000000 0.000000 
0.040211 0.944730 0.016153 -0.461769 12.214519 2.381836 -1.308933 0.333226 3.227379 1.847755 -0.104513 -1.169076 0.873468 0.720261 -1.746773 0.000000 0.000000 0.000000 -3.020389 0.015736 -0.034623 -2.987186 0.607081 4.242715 1.839812 6.516972 -3.494932 0.000000 0.000000 0.000000 0.409682 -0.411782 7.757403 0.246376 0.133446 -4.062853 -1.675206 -1.113447 4.156465 1.384386 1.637109 -24.596698 0.000000 0.000000 0.000000 -21.591129 5.954502 -6.938429 -44.890822 -8.066367 -1.990366 -23.398252 -26.924440 6.197964 0.000000 0.000000 0.000000 21.485652 -2.400123 -1.815000 48.912204 8.885023 -1.635602 12.004602 24.557906 3.552869 0.000000 0.000000 0.000000 
0.053405 0.940882 0.029753 -0.722699 12.764864 2.041231 -1.568988 0.433419 4.272010 1.926055 -0.214356 0.802197 1.250392 -0.086695 -4.220473 0.000000 0.000000 0.000000 -2.983043 0.183620 -2.243197 -3.300416 0.978233 11.859716 1.147017 4.829431 -4.194228 0.000000 0.000000 0.000000 0.841370 -0.577346 9.571060 0.376163 0.073286 -3.919869 -0.898969 -1.214640 4.635006 0.828079 2.036961 -26.296586 0.000000 0.000000 0.000000 -22.330032 4.488486 -6.323681 -44.244808 -9.495418 -1.445865 -23.018642 -27.255080 6.193591 0.000000 0.000000 0.000000 19.530862 -3.596338 -2.368462 50.152229 9.655877 -1.305537 10.775915 25.637165 3.504729 0.000000 0.000000 0.000000 
0.066710 0.937476 0.048396 -0.247988 14.121640 1.976985 -2.530604 0.713144 6.860870 2.376983 -0.212051 0.087490 0.680099 -2.393078 -5.492897 0.000000 0.000000 0.000000 -4.360314 0.525217 -9.724746 -0.795084 0.100282 27.972831 -0.245248 2.006069 -7.209045 0.000000 0.000000 0.000000 -0.240372 -0.623814 11.660056 1.246363 -0.210023 -5.087976 -0.534584 -4.913733 5.725178 0.740994 1.864298 -28.776488 0.000000 0.000000 0.000000 -22.808313 6.012904 -6.393366 -43.871084 -11.574093 -1.041270 -22.241052 -28.765683 6.656599 0.000000 0.000000 0.000000 18.944711 -3.237453 -2.849216 50.057533 10.453131 -0.895290 10.356795 26.776163 3.403893 0.000000 0.000000 0.000000 
0.079259 0.934522 0.074596 -0.821049 14.101474 2.158665 -2.799088 0.965177 9.734989 2.762247 -0.155643 -1.461539 0.629726 -3.174590 -6.380571 0.000000 0.000000 0.000000 -4.163306 0.838562 -20.342582 1.392460 -1.671531 41.053205 0.212390 3.828682 -7.413951 0.000000 0.000000 0.000000 0.033034 -0.745277 12.794655 2.437659 -0.683184 -5.576309 -0.466655 -7.370038 6.603382 0.160613 1.890542 -29.982090 0.000000 0.000000 0.000000 -21.184765 5.444011 -5.060578 -44.481244 -13.958755 -0.483644 -21.619893 -30.509393 7.191959 0.000000 0.000000 0.000000 16.707651 -5.009463 -4.069961 51.855783 10.482436 -0.770239 9.563111 25.091386 2.844123 0.000000 0.000000 0.000000 
0.091269 0.931169 0.110191 -1.471387 15.029117 2.332237 -2.198582 1.125997 13.866979 3.624156 -0.047897 -4.392432 -0.971733 -4.922396 -3.925626 0.000000 0.000000 0.000000 -4.100265 0.788458 -28.141818 3.409020 -3.064836 43.203873 0.469401 3.715210 -5.711332 0.000000 0.000000 0.000000 0.798695 -0.887023 13.104840 3.405893 -1.139601 -4.973773 -0.567856 -11.161954 6.043235 -0.311928 1.691446 -29.991379 0.000000 0.000000 0.000000 -21.883176 6.168150 -4.691010 -43.085106 -16.330313 0.088537 -21.304223 -32.320876 7.914281 0.000000 0.000000 0.000000 17.486193 -5.085588 -5.005220 51.268180 9.209884 -1.089471 9.961634 23.438308 2.490223 0.000000 0.000000 0.000000 
0.103513 0.924335 0.155019 -1.556892 15.570990 2.323372 -1.776243 1.249841 18.908050 3.413039 0.098120 -7.200810 -2.268989 -7.230354 -3.271829 0.000000 0.000000 0.000000 -4.914933 0.327976 -34.482280 5.109833 -3.202520 37.344507 1.818023 4.871659 -0.815364 0.000000 0.000000 0.000000 0.560303 -0.944005 13.992769 4.405306 -1.506884 -5.596944 -0.566010 -13.763475 6.432543 -0.067395 1.241318 -29.456940 0.000000 0.000000 0.000000 -21.627805 5.927613 -3.857370 -42.613720 -20.339148 1.228174 -19.089479 -35.699609 8.380864 0.000000 0.000000 0.000000 17.553885 -6.393439 -6.212623 50.465520 6.074189 -2.285532 10.249823 21.423082 2.175198 0.000000 0.000000 0.000000 
0.116036 0.912212 0.208196 -1.415120 16.117399 2.435379 -1.782220 1.334645 23.272710 3.169730 0.182379 -9.205389 -2.799577 -6.781555 -1.412404 0.000000 0.000000 0.000000 -4.502572 0.273044 -37.290944 4.733389 -1.891969 26.094361 0.759304 0.656628 3.538474 0.000000 0.000000 0.000000 0.661119 -1.034588 14.715223 4.794118 -1.601915 -6.212669 -0.349200 -16.788666 6.459767 -0.950473 1.363675 -30.930955 0.000000 0.000000 0.000000 -21.808850 6.822747 -3.650231 -41.962136 -23.668642 2.128106 -18.053153 -41.185319 9.851202 0.000000 0.000000 0.000000 18.699096 -7.849298 -7.912015 48.625848 3.271174 -3.108576 9.138012 17.419182 1.483163 0.000000 0.000000 0.000000 
0.127840 0.895434 0.269703 -0.925351 17.335482 3.538618 -1.986461 1.340706 27.020173 3.701637 0.233278 -10.806578 -3.579141 -7.638073 -0.526736 0.000000 0.000000 0.000000 -4.652882 -0.085580 -39.625088 2.577619 -0.557559 15.204080 0.840511 -0.107862 7.159031 0.000000 0.000000 0.000000 0.990721 -1.053349 14.159473 5.799570 -2.076201 -5.703254 -0.857764 -19.606472 5.434691 -1.246428 1.354856 -32.915976 0.000000 0.000000 0.000000 -20.766852 7.234902 -3.322745 -42.011286 -27.419062 3.534805 -17.082005 -46.680522 11.351065 0.000000 0.000000 0.000000 18.650397 -9.360862 -9.169793 48.370818 -0.720250 -4.480164 7.153832 15.271330 0.998837 0.000000 0.000000 0.000000 
0.138930 0.878331 0.340237 -1.152867 18.183800 4.431966 -0.768009 0.863531 29.859931 3.789666 0.216275 -10.434288 -2.393121 -5.027948 -0.358930 0.000000 0.000000 0.000000 -4.124091 -0.207513 -42.330751 2.065069 -0.381649 13.775843 -0.134091 -2.422962 8.815243 0.000000 0.000000 0.000000 1.327545 -1.092172 13.828947 7.662019 -2.787565 -6.367551 -2.103782 -20.521133 5.019299 -1.144928 1.278035 -32.239193 0.000000 0.000000 0.000000 -19.511824 7.372976 -3.353902 -43.133753 -30.779286 5.236764 -16.484370 -52.389626 12.791493 0.000000 0.000000 0.000000 18.985157 -10.598874 -9.937763 46.566029 -3.548353 -5.266495 5.715399 13.602425 0.748078 0.000000 0.000000 0.000000 
0.148940 0.869916 0.421588 -1.725008 19.333479 6.090845 0.545273 0.234246 31.575477 5.192905 0.123385 -8.818650 -3.513097 -4.260025 3.694688 0.000000 0.000000 0.000000 -3.058670 -0.109743 -44.253496 2.782983 -0.822668 19.003524 0.616908 -0.924884 8.891204 0.000000 0.000000 0.000000 3.285554 -1.266702 12.392109 6.872333 -2.386256 -6.610085 -1.491656 -22.326650 3.099257 -1.584400 1.462229 -34.231524 0.000000 0.000000 0.000000 -19.574205 7.987611 -3.490705 -45.267480 -31.123951 6.015813 -22.138683 -55.902867 17.314688 0.000000 0.000000 0.000000 19.529710 -11.034704 -10.663109 44.893302 -6.207581 -5.757451 4.243753 12.501897 0.527177 0.000000 0.000000 0.000000 
0.156643 0.874515 0.514908 -2.672085 18.976792 7.642213 2.485664 -0.374529 31.371039 6.005006 -0.313249 -2.803977 -6.239938 -4.477827 10.637931 0.000000 0.000000 0.000000 -1.237350 0.545302 -47.146108 3.717246 -1.666833 27.633613 1.199924 -0.098088 9.387951 0.000000 0.000000 0.000000 4.623277 -1.134694 9.478697 7.690042 -2.566413 -7.773572 -2.790021 -21.640496 3.165254 -2.313929 1.834003 -33.447120 0.000000 0.000000 0.000000 -19.621713 10.136410 -4.963076 -48.460274 -27.599540 5.259694 -31.559109 -56.893654 23.199570 0.000000 0.000000 0.000000 18.821711 -11.945364 -10.638279 43.710001 -6.088707 -5.581326 4.894356 9.423796 0.449821 0.000000 0.000000 0.000000 
0.161427 0.890915 0.613521 -3.517614 18.285862 7.350794 4.564240 -0.717899 26.928735 6.259630 -1.544184 9.203354 -10.114749 -5.218889 19.368372 0.000000 0.000000 0.000000 1.207604 1.890636 -41.928243 4.039831 -1.990279 29.239373 0.525943 -0.211989 5.010676 0.000000 0.000000 0.000000 5.855523 -1.229605 8.908457 6.499199 -2.035476 -8.209137 -2.079450 -19.893354 2.851751 -2.971246 2.283202 -34.701260 0.000000 0.000000 0.000000 -21.460664 10.567998 -5.673634 -50.001527 -24.274840 4.010757 -37.964703 -53.334190 24.829315 0.000000 0.000000 0.000000 16.795357 -11.530496 -9.443599 45.632287 -7.620608 -6.575341 5.457304 9.607969 0.510114 0.000000 0.000000 0.000000 
0.165045 0.910660 0.708174 -3.938583 16.409513 7.476640 4.988544 -0.250333 16.100540 4.248770 -3.555320 27.134178 -5.923867 -0.739952 17.014355 0.000000 0.000000 0.000000 4.593989 3.145144 -34.727483 1.992311 -0.850216 25.627517 0.540820 0.844583 1.736329 0.000000 0.000000 0.000000 5.887260 -1.138016 8.215027 4.777461 -1.336452 -8.536431 -1.504258 -16.857003 3.976472 -2.736798 2.330887 -33.292612 0.000000 0.000000 0.000000 -20.990115 9.233324 -5.282345 -49.989959 -19.793476 2.006225 -39.022171 -49.523863 22.949655 0.000000 0.000000 0.000000 18.016078 -10.025847 -8.720361 45.356579 -6.333463 -6.100868 6.096214 10.626079 0.655657 0.000000 0.000000 0.000000 
0.169519 0.927388 0.798614 -4.321675 15.096330 5.886142 5.437011 -0.278466 2.390456 -0.360494 -4.406485 44.562486 0.052126 3.102084 5.695102 0.000000 0.000000 0.000000 7.878183 3.163306 -23.574602 -0.145929 0.132457 19.426224 0.138677 1.122944 -2.155233 0.000000 0.000000 0.000000 4.934671 -1.176284 9.936177 3.355909 -0.862335 -7.815285 0.608667 -12.349124 4.120802 -3.336024 2.925698 -32.466713 0.000000 0.000000 0.000000 -21.755649 8.021669 -5.482382 -49.363486 -16.469145 0.614865 -36.933380 -45.143346 18.890674 0.000000 0.000000 0.000000 18.489470 -8.045948 -7.115420 46.541388 -2.234411 -4.952036 5.495653 12.959959 0.836750 0.000000 0.000000 0.000000 
0.175800 0.940189 0.888800 -3.424577 12.219593 4.294203 4.637462 -0.850606 -11.498254 -5.126794 -2.143133 51.530847 4.744553 9.290529 -1.702308 0.000000 0.000000 0.000000 9.320910 1.731565 -11.160484 -3.107782 0.926771 11.371826 2.032484 6.926018 -3.245815 0.000000 0.000000 0.000000 2.740902 -0.929499 10.903141 2.079897 -0.372875 -8.267160 1.275743 -7.189697 5.347992 -1.695871 2.660981 -32.300429 0.000000 0.000000 0.000000 -21.163251 7.842100 -6.168205 -48.710926 -11.767588 -1.247454 -35.633478 -39.792265 15.246554 0.000000 0.000000 0.000000 17.937309 -7.472683 -5.843735 47.574645 1.795788 -3.877497 8.085336 17.635958 1.644366 0.000000 0.000000 0.000000 
0.183668 0.945951 0.980784 -2.666197 8.333465 2.138478 3.437223 -1.621258 -20.773737 -5.928545 -0.333461 45.777263 7.103174 13.663102 -4.845452 0.000000 0.000000 0.000000 8.717889 -0.358327 0.875732 -3.806554 0.811824 5.527784 3.987339 13.107615 -3.648289 0.000000 0.000000 0.000000 0.681943 -0.697841 12.054721 0.477650 0.141345 -7.226706 2.221447 -1.608992 4.282105 -2.405227 3.314557 -30.487044 0.000000 0.000000 0.000000 -18.606676 9.423820 -7.246117 -48.585953 -5.915487 -3.329092 -34.844670 -35.050701 12.409156 0.000000 0.000000 0.000000 16.967824 -6.452360 -4.457357 49.623075 6.239403 -2.349815 10.333549 22.761753 2.764344 0.000000 0.000000 0.000000 
0.193112 0.944711 1.074939 -2.530077 4.517967 0.849663 2.826224 -1.906583 -24.485469 -2.771829 -0.458596 29.460699 6.664094 13.233848 -2.841132 0.000000 0.000000 0.000000 7.387385 -1.999797 10.459094 -4.317994 0.647201 2.121198 5.368938 16.502729 -2.662163 0.000000 0.000000 0.000000 -0.242418 -0.528351 11.960110 -0.905027 0.663738 -8.352356 2.871465 2.070077 5.970196 -1.547379 3.179193 -31.302157 0.000000 0.000000 0.000000 -18.122706 11.664211 -8.571249 -46.446953 -1.787610 -4.786996 -35.471232 -30.389221 10.619646 0.000000 0.000000 0.000000 15.551353 -6.027764 -3.693467 51.380061 10.651563 -0.743834 12.486227 28.716126 4.313874 0.000000 0.000000 0.000000 
0.205096 0.943527 1.171535 -2.139833 1.396004 0.194267 2.816908 -1.797006 -25.018666 -1.044811 -0.191941 11.049019 5.453349 12.005958 2.981544 0.000000 0.000000 0.000000 5.716661 -2.760325 16.791854 -5.911787 1.047156 4.449141 7.363199 18.186883 1.257002 0.000000 0.000000 0.000000 -1.034443 -0.354710 10.800282 -1.755511 0.923070 -6.691699 3.477382 4.241573 4.698035 -2.866829 3.726850 -28.982531 0.000000 0.000000 0.000000 -18.581410 13.114492 -9.522021 -45.207592 0.937422 -5.486422 -32.825732 -26.038085 8.287195 0.000000 0.000000 0.000000 13.386156 -5.009630 -2.933851 52.559299 13.406987 0.668980 15.499594 35.154666 6.438772 0.000000 0.000000 0.000000 
0.219928 0.942551 1.271724 -0.901648 1.630866 -1.059744 -0.847208 -2.196605 -21.541025 0.430989 -0.080063 0.873680 3.349354 10.286726 12.167457 0.000000 0.000000 0.000000 3.363886 -2.709959 19.419235 -5.672895 1.852618 13.878364 7.431555 14.363885 5.837949 0.000000 0.000000 0.000000 -2.726822 -0.177016 10.034318 -1.494175 0.805470 -5.474148 3.991077 2.119729 5.203102 -4.219725 4.115507 -30.051803 0.000000 0.000000 0.000000 -19.234110 15.542139 -10.538226 -45.039002 3.277137 -6.414189 -30.882093 -26.239641 8.133174 0.000000 0.000000 0.000000 14.335424 -5.565540 -3.639322 53.449435 15.902031 1.748988 21.491694 39.325858 9.210060 0.000000 0.000000 0.000000 
0.237425 0.938204 1.372633 0.027589 1.322302 -2.610188 -3.711648 -2.040865 -16.308389 1.067401 -0.271384 3.467931 1.952075 8.034723 12.284045 0.000000 0.000000 0.000000 0.774286 -1.703211 15.288355 -4.167845 2.927105 32.098342 6.755594 13.127855 5.339503 0.000000 0.000000 0.000000 -3.742234 -0.093221 9.305600 -1.304071 0.728683 -5.823115 4.307249 -0.365889 7.782693 -5.722024 4.514944 -29.608538 0.000000 0.000000 0.000000 -21.012648 15.311367 -10.319513 -44.665627 1.572911 -6.091744 -31.711598 -24.453815 8.091277 0.000000 0.000000 0.000000 12.493781 -5.130221 -3.541904 55.083259 15.073264 1.187863 24.079879 40.228507 10.031868 0.000000 0.000000 0.000000 
0.255429 0.934582 1.468375 0.788317 3.050397 -4.557919 -6.753495 -1.124037 -7.449788 1.931969 -0.474438 4.936813 0.984644 5.060692 7.373817 0.000000 0.000000 0.000000 -0.308134 -0.510564 5.045681 -3.535098 3.720317 51.122576 4.078347 8.468462 2.973585 0.000000 0.000000 0.000000 -4.158231 -0.132197 11.939897 -0.570669 0.419485 -4.790562 2.591293 -3.900019 6.514759 -5.846545 4.279491 -30.299510 0.000000 0.000000 0.000000 -22.880003 11.972653 -8.276243 -45.204379 -2.032484 -5.021705 -28.656020 -26.981845 8.391094 0.000000 0.000000 0.000000 15.612891 -4.575114 -4.237551 53.957014 11.700445 -0.248998 22.640699 35.970275 7.922377 0.000000 0.000000 0.000000 
0.271110 0.933110 1.559702 1.603658 5.112914 -7.408350 -8.532422 0.247115 1.882319 0.871862 -0.283904 4.207760 0.699681 2.988778 3.235460 0.000000 0.000000 0.000000 -1.714373 0.657739 -8.058751 -2.090100 2.681430 62.295455 2.505698 5.975185 0.706551 0.000000 0.000000 0.000000 -4.500151 -0.230421 15.852764 0.622515 -0.044456 -5.564553 0.500009 -6.815471 6.956745 -6.101759 4.224549 -31.315473 0.000000 0.000000 0.000000 -24.368892 8.060138 -5.727509 -43.787679 -8.846530 -2.827048 -25.043002 -30.084018 8.493520 0.000000 0.000000 0.000000 18.027595 -5.716605 -5.590501 52.299378 6.907464 -2.297703 18.287047 29.301976 5.050270 0.000000 0.000000 0.000000 
0.284264 0.931637 1.651374 0.661572 7.353124 -8.718288 -8.810373 1.602313 10.864006 2.698280 -0.453569 2.825741 -0.005213 -0.968337 -1.673872 0.000000 0.000000 0.000000 -0.740536 1.602374 -19.187329 -1.685499 1.409674 56.553420 0.542155 3.159099 -3.397323 0.000000 0.000000 0.000000 -2.595021 -0.581272 17.354338 1.293543 -0.313908 -5.285015 -0.358485 -10.969657 6.130082 -6.948608 4.286986 -30.399010 0.000000 0.000000 0.000000 -25.820598 7.779590 -4.951394 -44.295853 -15.985076 -0.516387 -22.411526 -33.484519 8.929149 0.000000 0.000000 0.000000 17.489360 -6.426217 -6.397797 50.043574 1.485182 -4.236611 18.027623 22.987711 3.600210 0.000000 0.000000 0.000000 
0.295225 0.927887 1.744643 0.042527 10.279583 -8.629135 -7.945093 2.319347 17.729736 4.315619 -0.599340 2.148620 -0.979950 -4.396997 -3.506332 0.000000 0.000000 0.000000 -2.126119 1.478502 -24.508961 1.241697 -0.482890 36.083880 1.811680 5.029224 -1.146602 0.000000 0.000000 0.000000 -2.173980 -0.687357 16.730555 2.884298 -0.972965 -5.314794 -1.080687 -14.248647 5.373944 -7.317792 4.292775 -28.429394 0.000000 0.000000 0.000000 -24.139806 6.342989 -3.481267 -46.802201 -21.713285 1.854610 -19.670029 -39.061837 9.787849 0.000000 0.000000 0.000000 14.632947 -9.052954 -7.104028 49.504391 -5.285428 -6.981764 16.617291 18.634927 2.566415 0.000000 0.000000 0.000000 
0.305071 0.917459 1.840027 -0.535172 11.616990 -7.985155 -6.520078 2.556832 23.088516 5.136122 -0.650836 1.645398 -1.035993 -5.318026 -4.570370 0.000000 0.000000 0.000000 -1.328748 1.632696 -25.486935 2.292330 -0.367230 16.216459 2.680036 4.132444 5.170638 0.000000 0.000000 0.000000 -2.717735 -0.586458 15.381870 3.856874 -1.325498 -5.996856 -1.562728 -17.508547 5.945141 -7.139575 3.914415 -27.445680 0.000000 0.000000 0.000000 -22.653982 7.860896 -3.669987 -48.480256 -26.395931 3.994844 -20.252072 -44.817097 12.218691 0.000000 0.000000 0.000000 13.874653 -9.493362 -7.434704 46.702743 -9.441563 -8.108279 14.068998 15.148146 1.695046 0.000000 0.000000 0.000000 
0.315037 0.906824 1.938568 -1.516794 12.753447 -6.131240 -3.979854 2.095470 25.202346 4.888813 -0.899904 4.934412 -1.983643 -8.656375 -5.888066 0.000000 0.000000 0.000000 0.818731 2.139382 -26.553827 2.341798 -0.321211 10.826017 3.358690 4.203300 8.836731 0.000000 0.000000 0.000000 -1.712063 -0.473518 11.422867 4.202957 -1.491752 -5.489952 -1.797315 -18.733605 4.781821 -6.823338 3.691976 -27.311114 0.000000 0.000000 0.000000 -22.621689 7.523838 -3.411904 -48.458880 -27.157590 4.440392 -23.079952 -47.658804 14.532764 0.000000 0.000000 0.000000 13.313419 -10.840277 -7.925191 45.410483 -11.781628 -8.626864 11.483387 11.918644 1.076168 0.000000 0.000000 0.000000 
0.325536 0.898049 2.038340 -2.465058 14.194570 -6.551224 0.274812 0.939196 23.951695 2.703609 -1.798350 18.062607 -4.124790 -12.335000 -4.328560 0.000000 0.000000 0.000000 2.659892 2.450425 -25.591401 2.629644 -0.655314 18.039065 2.663029 2.454481 10.131029 0.000000 0.000000 0.000000 0.066525 -0.518516 9.790030 4.311307 -1.650414 -4.187834 -2.267252 -17.989258 2.479605 -7.143346 4.168229 -23.568192 0.000000 0.000000 0.000000 -22.889302 7.941753 -4.220460 -49.145691 -24.699822 3.801638 -32.754773 -52.173546 20.925008 0.000000 0.000000 0.000000 12.052360 -12.282649 -7.880262 45.868289 -13.832915 -9.429277 9.242791 9.031559 0.668884 0.000000 0.000000 0.000000 
0.336277 0.895105 2.128063 -3.729940 14.004430 -7.967129 3.760436 0.233131 15.999639 -0.164127 -3.545871 38.685945 -3.085686 -7.469716 -1.367334 0.000000 0.000000 0.000000 5.393807 2.891714 -22.998597 1.497058 -0.617338 25.055206 1.855105 2.383650 5.487651 0.000000 0.000000 0.000000 1.188097 -0.697641 11.119403 3.024046 -1.084767 -3.912015 -0.734702 -14.984244 0.997929 -5.812753 3.799811 -21.542661 0.000000 0.000000 0.000000 -23.640483 8.139944 -5.150438 -51.035724 -21.324621 2.782824 -35.400035 -48.405750 19.879809 0.000000 0.000000 0.000000 13.542255 -12.519284 -8.152400 45.167560 -14.037706 -9.151471 8.879123 9.627239 0.738947 0.000000 0.000000 0.000000 
0.346981 0.901532 2.203121 -4.577439 12.707520 -8.978233 5.785004 -0.022697 4.453384 -4.115282 -3.592596 54.041182 1.067475 0.337628 -3.420327 0.000000 0.000000 0.000000 8.033620 2.864684 -17.829310 0.357662 -0.198512 26.591003 1.865820 3.722916 2.072209 0.000000 0.000000 0.000000 1.064414 -0.798111 12.628957 2.849060 -1.014504 -3.991194 -0.033078 -11.260216 1.641028 -4.159587 3.236704 -22.152127 0.000000 0.000000 0.000000 -22.785300 7.913998 -5.647740 -51.830416 -16.571816 0.827469 -30.292547 -41.049609 13.909389 0.000000 0.000000 0.000000 16.311504 -10.071604 -7.388043 45.115259 -9.815239 -7.580921 8.976520 11.512350 0.985032 0.000000 0.000000 0.000000 
0.358740 0.914665 2.270662 -4.276646 10.529300 -8.877191 6.698070 -0.359103 -7.851511 -6.750682 -1.785348 58.720901 3.636193 5.810696 -4.363459 0.000000 0.000000 0.000000 8.400795 1.926083 -10.860970 -0.262315 0.291507 22.513876 1.762020 4.777481 -0.684861 0.000000 0.000000 0.000000 0.074648 -0.763405 13.772954 1.459519 -0.330388 -5.174061 1.996768 -7.511173 3.004977 -3.400239 3.086739 -22.375993 0.000000 0.000000 0.000000 -23.090564 8.479915 -6.535804 -50.249986 -12.095521 -1.164647 -29.026312 -33.720374 10.543304 0.000000 0.000000 0.000000 16.659441 -8.042723 -6.068455 47.294546 -2.191232 -5.318580 10.058981 14.050800 1.410430 0.000000 0.000000 0.000000 
0.372396 0.928008 2.335978 -3.034751 8.164671 -8.468586 6.680407 -0.743738 -16.329293 -7.042831 -0.245670 51.455718 4.294119 7.898774 -2.885669 0.000000 0.000000 0.000000 7.466635 0.639225 -3.417716 -1.512981 0.782888 16.835224 2.903611 8.383941 -1.453476 0.000000 0.000000 0.000000 -1.181497 -0.592410 13.668587 0.342745 0.171569 -6.253227 2.335246 -2.923671 4.882068 -2.536144 3.030393 -22.705244 0.000000 0.000000 0.000000 -22.516672 8.780013 -7.382138 -47.632170 -6.621940 -3.221214 -28.569399 -28.204814 8.279817 0.000000 0.000000 0.000000 17.146349 -7.605824 -5.277051 48.629354 3.133851 -3.701734 13.840764 20.750532 2.993290 0.000000 0.000000 0.000000 
0.387928 0.934653 2.400822 -2.573562 5.569274 -8.185616 6.676389 -0.855470 -19.834781 -4.556385 -0.210338 35.373472 3.601216 7.690910 0.626551 0.000000 0.000000 0.000000 6.150080 -0.431395 2.916634 -1.684002 0.826262 13.866161 3.239854 12.251806 -5.088236 0.000000 0.000000 0.000000 -1.197628 -0.528255 13.341533 -0.749996 0.554420 -4.949046 2.708773 0.915013 3.843535 -3.417358 3.748757 -21.949450 0.000000 0.000000 0.000000 -20.952987 10.257289 -8.385340 -46.371351 -2.235712 -4.557359 -28.119921 -23.594202 6.541163 0.000000 0.000000 0.000000 17.072174 -6.550179 -4.304069 48.832475 9.063324 -1.356705 15.636512 26.165027 4.440836 0.000000 0.000000 0.000000 
0.404862 0.932374 2.465110 -2.667599 2.971615 -7.276997 7.855371 -0.594092 -20.850694 -3.372473 0.120011 18.097764 2.243871 6.760168 5.667271 0.000000 0.000000 0.000000 4.415497 -1.130264 7.862375 -0.747816 0.600835 12.235375 3.627169 14.622867 -6.022292 0.000000 0.000000 0.000000 -0.595400 -0.483490 12.047316 -1.720619 0.951793 -5.717963 3.058693 2.561116 4.135982 -3.684806 3.917250 -21.799662 0.000000 0.000000 0.000000 -20.150190 13.302862 -9.839174 -45.010524 2.142730 -5.978355 -29.658766 -21.831601 6.308788 0.000000 0.000000 0.000000 15.559631 -5.720665 -3.638800 49.983152 13.158606 0.344262 17.513271 31.020686 5.957845 0.000000 0.000000 0.000000 
0.423911 0.924268 2.529683 -2.905004 0.346395 -6.819705 9.134039 -0.213766 -19.712051 -1.579461 0.105766 3.307083 0.656573 5.159852 9.831798 0.000000 0.000000 0.000000 2.940633 -1.417940 11.040998 -0.781051 0.723674 13.679494 3.079507 15.944134 -8.649671 0.000000 0.000000 0.000000 -0.275512 -0.448051 11.337645 -1.819976 0.956008 -6.380243 3.170187 4.972025 4.129740 -3.629367 3.994691 -21.498008 0.000000 0.000000 0.000000 -19.707572 14.380388 -10.484305 -44.776893 4.725185 -6.816651 -28.105435 -21.032107 5.690576 0.000000 0.000000 0.000000 14.929535 -4.668934 -2.870160 49.948885 16.285953 1.662629 18.461589 35.205385 7.323039 0.000000 0.000000 0.000000 
0.446221 0.912956 2.594426 -2.634023 0.133295 -7.490697 8.559314 -0.261342 -18.288579 -1.193319 0.146368 -0.532491 -0.685832 4.009967 13.080374 0.000000 0.000000 0.000000 1.265075 -1.735097 15.383201 -1.438408 0.994718 15.680894 3.076482 17.116214 -9.564230 0.000000 0.000000 0.000000 -0.510930 -0.408162 10.868250 -2.128847 1.084237 -6.264124 3.521018 5.394436 5.186389 -3.875001 4.164694 -20.913889 0.000000 0.000000 0.000000 -18.633783 13.869858 -9.918859 -45.506496 4.973834 -7.125691 -25.976020 -21.503288 5.409110 0.000000 0.000000 0.000000 14.938706 -4.663225 -2.790531 50.355421 18.746902 2.626577 21.949972 39.288129 9.686010 0.000000 0.000000 0.000000 
0.471339 0.900875 2.659835 -1.716617 1.260090 -7.282982 4.985269 -0.991525 -19.917148 -0.413746 -0.169409 6.570245 -2.783458 1.564902 15.187241 0.000000 0.000000 0.000000 0.356346 -1.692481 15.800845 -3.014403 1.927753 24.058548 2.072289 14.904469 -10.820613 0.000000 0.000000 0.000000 -1.559031 -0.315623 10.090191 -1.916131 1.016541 -7.055702 3.050470 3.562877 7.045936 -2.976919 3.561782 -20.789697 0.000000 0.000000 0.000000 -21.110095 13.439260 -10.208133 -43.347489 3.731381 -6.425537 -25.568752 -23.271657 5.924790 0.000000 0.000000 0.000000 16.192388 -3.392814 -2.410650 48.843199 19.362198 2.526940 22.811734 40.157763 10.122912 0.000000 0.000000 0.000000 
0.495663 0.893885 2.721010 0.041453 3.109756 -7.524089 0.891623 -1.920222 -21.254104 -0.789717 -0.436358 15.223089 -2.371287 1.498637 12.950597 0.000000 0.000000 0.000000 -2.380885 -1.037712 12.025054 -2.065841 2.238902 38.511899 2.410530 11.816928 -6.934076 0.000000 0.000000 0.000000 -4.286817 -0.160816 11.098314 -1.210605 0.741560 -6.580518 2.523989 2.949772 6.718891 -1.965106 3.026691 -20.861614 0.000000 0.000000 0.000000 -23.320842 10.353048 -9.218464 -42.174217 0.404713 -5.052694 -25.591357 -28.519694 7.314186 0.000000 0.000000 0.000000 19.047299 -3.667968 -2.752796 48.181797 16.487482 1.237184 20.737313 38.539475 8.919458 0.000000 0.000000 0.000000 
0.514203 0.898749 2.772976 0.862844 4.988543 -7.108946 -1.196757 -2.250501 -20.236848 -1.159714 -0.519351 17.985953 -1.830099 1.324260 9.981688 0.000000 0.000000 0.000000 -3.325344 -0.378640 4.534363 -1.295814 1.875171 50.837023 3.143386 9.189228 -1.363157 0.000000 0.000000 0.000000 -5.279987 -0.108036 11.626440 -0.713138 0.566090 -6.716698 1.508189 0.847171 6.286447 -1.631464 2.709756 -20.853857 0.000000 0.000000 0.000000 -23.474959 7.563804 -7.428606 -41.040648 -5.119450 -3.166231 -29.083558 -37.762719 11.210524 0.000000 0.000000 0.000000 20.390113 -4.087226 -3.369079 49.879042 12.761023 -0.131056 18.506965 33.609134 6.818136 0.000000 0.000000 0.000000 
0.527269 0.914449 2.816702 0.084270 5.991639 -7.128135 -1.650175 -1.724203 -15.294350 -0.506081 -0.596276 15.352348 -2.080529 0.017714 7.861004 0.000000 0.000000 0.000000 -1.835887 0.128773 -1.770608 -1.541597 1.688082 52.954196 0.793345 4.174334 -3.710329 0.000000 0.000000 0.000000 -4.206356 -0.217880 12.198813 -0.833213 0.612422 -5.764164 1.249109 -1.157585 4.908485 -2.287960 2.855308 -19.738104 0.000000 0.000000 0.000000 -23.608272 6.439360 -6.469657 -41.174515 -11.274757 -1.189536 -33.297445 -47.401056 16.554015 0.000000 0.000000 0.000000 20.646433 -3.871520 -3.679299 51.081379 8.313005 -1.763218 16.049984 28.678048 4.920135 0.000000 0.000000 0.000000 
0.537394 0.933535 2.854704 -0.588871 6.901426 -6.754917 -1.959540 -1.181303 -10.570631 -0.112777 -0.480161 11.122970 -2.835561 -0.994025 8.324633 0.000000 0.000000 0.000000 -0.727860 0.507658 -5.531892 -1.096869 1.064631 45.824093 -0.250133 2.630819 -6.460597 0.000000 0.000000 0.000000 -3.595655 -0.274906 12.064258 -0.494225 0.523407 -6.981709 1.211220 -3.629795 5.445682 -2.733392 2.834059 -18.027281 0.000000 0.000000 0.000000 -22.552970 6.092491 -5.538751 -42.085130 -16.550611 0.373147 -43.554390 -57.471129 27.335830 0.000000 0.000000 0.000000 20.378415 -4.905179 -4.671970 51.880967 4.260908 -3.440666 15.983160 24.909891 4.059394 0.000000 0.000000 0.000000 
0.545673 0.944763 2.888037 -1.447973 7.366525 -5.652920 -0.913391 -0.685980 -6.942689 0.181286 -0.286940 6.217243 -4.310113 -3.858382 7.875796 0.000000 0.000000 0.000000 0.585874 0.720026 -6.877211 -0.783976 0.786314 32.542266 -0.105672 4.077330 -8.477084 0.000000 0.000000 0.000000 -2.540594 -0.318004 10.831586 -0.016729 0.317578 -6.549592 0.826662 -5.181506 4.052455 -2.762186 2.637396 -15.297563 0.000000 0.000000 0.000000 -19.983413 6.889742 -5.309828 -45.114282 -20.664230 2.104327 -55.193647 -64.632541 40.166106 0.000000 0.000000 0.000000 19.145279 -6.125167 -5.429949 52.253513 0.527785 -4.846893 16.267841 21.900639 3.472857 0.000000 0.000000 0.000000 
0.552291 0.949559 2.916811 -0.809575 7.666614 -4.880719 -0.981282 -0.380855 -3.974641 -0.327265 -0.072647 2.899997 -4.401093 -3.689513 8.386637 0.000000 0.000000 0.000000 0.638350 0.588748 -5.559349 -1.662914 0.954714 20.761691 1.388761 6.752016 -5.554412 0.000000 0.000000 0.000000 -2.713396 -0.252932 9.389322 0.089841 0.214181 -5.065973 0.124014 -5.189362 1.930622 -2.295591 2.292391 -13.125409 0.000000 0.000000 0.000000 -16.922119 6.029050 -4.479576 -46.878669 -24.139789 3.900559 -65.000297 -69.545131 51.513061 0.000000 0.000000 0.000000 19.885803 -6.696017 -5.888965 52.075968 -1.665945 -5.541290 12.977277 19.708116 2.558255 0.000000 0.000000 0.000000 
0.557591 0.949009 2.941429 -0.512209 9.250622 -4.834027 -1.214821 -0.167066 -1.829284 0.053341 -0.091205 2.188624 -4.902585 -5.387089 6.918814 0.000000 0.000000 0.000000 1.183511 0.398011 -3.517051 -3.272872 1.196295 15.564328 2.006787 7.189305 -3.585522 0.000000 0.000000 0.000000 -2.624069 -0.248628 8.748157 0.062480 0.238759 -4.808991 -0.520374 -5.805861 1.593001 -1.606272 1.830786 -11.946142 0.000000 0.000000 0.000000 -15.376802 5.044380 -3.829636 -48.493862 -27.209093 5.471705 -70.110813 -72.315200 58.125976 0.000000 0.000000 0.000000 20.143701 -7.987084 -6.558852 52.752163 -3.060463 -6.202954 10.925699 18.384624 2.084967 0.000000 0.000000 0.000000 
0.561749 0.946660 2.961449 -0.325851 9.450866 -4.427773 -1.155633 -0.012826 -0.242319 -0.120361 -0.059792 1.891114 -4.229532 -5.453819 4.862845 0.000000 0.000000 0.000000 0.635741 0.232758 -2.153208 -2.895768 0.975820 12.332621 2.669411 7.398601 -0.845802 0.000000 0.000000 0.000000 -2.422228 -0.223230 7.708544 -0.162417 0.309096 -4.160571 -0.639409 -5.713926 1.743590 -1.993634 2.110077 -12.227914 0.000000 0.000000 0.000000 -14.830173 4.213784 -3.383131 -48.897092 -28.912385 6.277485 -72.945141 -74.524766 62.616402 0.000000 0.000000 0.000000 20.391981 -7.899293 -6.510295 52.729302 -3.937445 -6.586096 10.755145 19.185777 2.174970 0.000000 0.000000 0.000000 
0.565053 0.944837 2.976962 -0.364021 9.229517 -4.196382 -1.116798 0.106540 1.043995 -0.009703 -0.036212 0.990062 -3.704351 -5.229833 3.677677 0.000000 0.000000 0.000000 0.775973 0.018448 -0.192111 -2.781459 0.844424 9.660834 2.679984 7.262939 -0.510038 0.000000 0.000000 0.000000 -1.801140 -0.221520 6.845170 -0.323486 0.348693 -3.554999 -0.737472 -5.008582 1.619344 -1.873076 2.074221 -11.998533 0.000000 0.000000 0.000000 -14.606891 3.095380 -2.925208 -48.913660 -29.386686 6.503109 -72.261461 -75.378348 62.500922 0.000000 0.000000 0.000000 21.027830 -6.977158 -5.980884 52.025844 -2.938656 -6.073530 9.373242 18.828510 1.953221 0.000000 0.000000 0.000000 
0.567799 0.944220 2.988719 -0.306766 8.611280 -3.321053 -1.113532 0.150766 1.487710 -0.081250 -0.007160 0.410832 -3.310945 -4.949405 2.971718 0.000000 0.000000 0.000000 -0.102659 -0.059955 0.515273 -1.859066 0.596884 8.020710 2.894200 7.609968 -0.112988 0.000000 0.000000 0.000000 -1.275486 -0.200135 5.823315 -0.300513 0.314665 -3.241017 -1.097145 -4.556529 1.373820 -1.905162 2.124706 -12.292829 0.000000 0.000000 0.000000 -14.713297 2.576594 -2.738154 -48.732951 -29.187022 6.417185 -66.662249 -74.798314 56.852080 0.000000 0.000000 0.000000 20.740913 -6.209222 -5.460387 51.809167 -1.722300 -5.503206 10.186462 18.995153 2.100578 0.000000 0.000000 0.000000 
0.570073 0.943766 2.998074 -0.234013 7.698500 -3.018929 -1.168168 0.260359 2.648539 -0.145784 0.030495 -0.473578 -2.848540 -4.410861 2.421820 0.000000 0.000000 0.000000 -0.617976 -0.161620 1.552678 -1.100892 0.389901 6.114032 2.934365 7.579562 0.130009 0.000000 0.000000 0.000000 -0.771589 -0.197240 5.310143 -0.351231 0.316621 -2.986938 -1.018285 -4.010378 1.308815 -1.961340 2.173663 -12.505518 0.000000 0.000000 0.000000 -15.409631 2.329047 -2.722598 -48.434147 -28.168219 5.930534 -63.938877 -73.134028 53.033216 0.000000 0.000000 0.000000 20.159149 -5.382917 -4.899861 52.327066 0.123937 -4.772420 10.352398 19.832720 2.232805 0.000000 0.000000 0.000000 
0.571788 0.942782 3.005597 -0.231263 6.734484 -2.469659 -0.960440 0.353516 3.729871 -0.205432 0.082710 -1.904586 -2.379822 -3.535015 2.350151 0.000000 0.000000 0.000000 -1.014060 -0.259514 2.651390 -0.454086 0.220569 4.329349 3.128350 8.037823 0.217217 0.000000 0.000000 0.000000 -0.414384 -0.173214 4.457946 -0.061068 0.149944 -2.444573 -1.136099 -3.735049 1.119662 -1.917455 2.152238 -13.042368 0.000000 0.000000 0.000000 -15.776290 2.637735 -2.893725 -48.160941 -26.443018 5.173394 -62.248812 -71.417299 50.255823 0.000000 0.000000 0.000000 19.397995 -4.389569 -4.297220 52.606309 1.669038 -4.096254 11.244423 21.129545 2.537430 0.000000 0.000000 0.000000 
0.572691 0.942147 3.011196 -0.343254 5.736170 -2.028104 -1.026048 0.396977 4.116604 -0.067232 0.089699 -2.463392 -1.918693 -2.726275 2.192767 0.000000 0.000000 0.000000 -0.957137 -0.278939 2.896509 -0.309053 0.171471 3.516017 2.994974 7.950936 -0.197033 0.000000 0.000000 0.000000 -0.325209 -0.155961 4.004892 -0.108522 0.160908 -2.389321 -0.834922 -3.605989 1.082824 -1.779906 2.032986 -13.176356 0.000000 0.000000 0.000000 -16.394441 2.638681 -2.889464 -47.430736 -24.897623 4.414285 -58.658517 -69.407011 45.911496 0.000000 0.000000 0.000000 19.487575 -3.845431 -4.133933 52.605351 2.861941 -3.552042 11.606266 22.431030 2.753165 0.000000 0.000000 0.000000 
0.573112 0.941112 3.014926 -0.446056 4.920545 -1.618572 -0.772815 0.406499 4.312848 -0.141043 0.103436 -2.710206 -1.640337 -2.411187 1.803195 0.000000 0.000000 0.000000 -1.018775 -0.306079 3.250776 -0.277900 0.145190 2.890622 2.911469 8.054890 -0.685625 0.000000 0.000000 0.000000 -0.063095 -0.159466 3.889602 -0.178598 0.186204 -2.403455 -0.752484 -3.747038 1.073160 -1.731518 1.977251 -13.727124 0.000000 0.000000 0.000000 -17.173587 3.176473 -3.149899 -46.720720 -23.340103 3.673947 -56.363869 -67.465089 42.860437 0.000000 0.000000 0.000000 19.107786 -3.306610 -3.927656 52.635123 3.453285 -3.263182 12.346638 23.672875 3.032234 0.000000 0.000000 0.000000 
0.573113 0.940929 3.016785 -0.516907 4.552662 -1.307329 -0.517485 0.379702 4.134021 -0.319047 0.116453 -2.682531 -1.619500 -2.358974 1.838991 0.000000 0.000000 0.000000 -0.850177 -0.304481 3.200105 -0.229716 0.125121 2.526692 2.774365 7.827062 -0.890441 0.000000 0.000000 0.000000 -0.121913 -0.165331 4.079939 -0.060525 0.128465 -2.394821 -0.673062 -3.811652 0.787328 -1.395039 1.762788 -14.106332 0.000000 0.000000 0.000000 -17.855984 3.138378 -3.168434 -46.266017 -21.550981 2.921176 -54.831533 -65.636308 40.444345 0.000000 0.000000 0.000000 19.479407 -2.960207 -3.879285 52.113281 3.592557 -3.118374 12.629756 24.501053 3.185415 0.000000 0.000000 0.000000 
0.572868 0.940635 3.017256 -0.612725 4.148825 -0.814910 -0.385117 0.338341 3.710157 -0.049172 0.090580 -2.533153 -1.554292 -2.348903 1.642771 0.000000 0.000000 0.000000 -0.558793 -0.296661 3.039727 -0.356973 0.132172 2.254038 2.681670 7.781793 -1.187861 0.000000 0.000000 0.000000 -0.054834 -0.150833 3.686961 -0.031533 0.098286 -2.052661 -0.603131 -4.186691 0.674975 -1.174750 1.586674 -14.356573 0.000000 0.000000 0.000000 -18.757496 3.192090 -3.179722 -45.715252 -19.497581 2.045720 -52.525090 -63.984284 37.802541 0.000000 0.000000 0.000000 19.473255 -2.107432 -3.579068 52.327882 3.504902 -3.118312 12.540935 25.298633 3.241504 0.000000 0.000000 0.000000 
0.572187 0.940563 3.016930 -0.625669 4.110524 -0.588697 -0.120993 0.298244 3.389685 -0.163031 0.090810 -2.254651 -1.554821 -2.376415 1.599419 0.000000 0.000000 0.000000 -0.497541 -0.256453 2.625537 -0.406228 0.141366 2.319070 2.556121 7.480265 -1.246242 0.000000 0.000000 0.000000 -0.269884 -0.142732 3.683469 0.052476 0.056901 -1.996304 -0.728209 -4.133060 0.912770 -0.832965 1.387506 -14.449658 0.000000 0.000000 0.000000 -19.390486 3.209791 -3.273082 -45.503049 -17.737586 1.332607 -50.952399 -62.346863 35.572601 0.000000 0.000000 0.000000 19.856704 -2.301636 -3.722161 52.103055 3.460551 -3.139129 12.723942 25.426859 3.305975 0.000000 0.000000 0.000000 
0.571054 0.940503 3.016181 -0.613051 4.076909 -0.464035 -0.020301 0.284970 3.286692 -0.061973 0.079581 -2.165750 -1.487477 -2.206407 1.655509 0.000000 0.000000 0.000000 -0.258754 -0.253012 2.509844 -0.614897 0.159339 2.077839 2.617571 7.598057 -1.174513 0.000000 0.000000 0.000000 -0.307343 -0.137758 3.597795 0.075146 0.036903 -1.766368 -0.934385 -4.127112 1.265911 -0.330134 1.079956 -14.408340 0.000000 0.000000 0.000000 -19.922032 3.344116 -3.409613 -45.073584 -16.345969 0.753595 -49.769990 -60.902369 33.819978 0.000000 0.000000 0.000000 19.877264 -2.097739 -3.597484 52.579431 3.536411 -3.172120 12.012444 25.228450 3.140301 0.000000 0.000000 0.000000 
0.569513 0.940219 3.014929 -0.685446 4.007989 -0.406636 0.289314 0.248271 3.014416 -0.083968 0.059385 -1.497663 -1.332255 -2.181262 1.134272 0.000000 0.000000 0.000000 -0.070724 -0.211711 2.052019 -0.619011 0.175326 2.446022 2.573564 7.461221 -1.149772 0.000000 0.000000 0.000000 -0.364845 -0.145547 3.845699 0.180490 -0.009639 -1.831474 -1.208524 -3.979101 1.628833 0.181721 0.782982 -14.441120 0.000000 0.000000 0.000000 -20.113839 3.574042 -3.592038 -44.925517 -15.047491 0.245073 -49.913555 -59.864819 33.217904 0.000000 0.000000 0.000000 19.919540 -2.013167 -3.502283 53.200553 3.301717 -3.358833 11.659929 24.938225 3.046707 0.000000 0.000000 0.000000 
0.567621 0.939960 3.013215 -0.685567 3.986121 -0.339181 0.387995 0.238869 2.952396 -0.148933 0.060062 -1.341947 -1.086162 -1.783324 0.928282 0.000000 0.000000 0.000000 0.028152 -0.188309 1.799613 -0.605486 0.175611 2.497443 2.472498 7.075410 -0.981318 0.000000 0.000000 0.000000 -0.497896 -0.147346 4.027901 0.248260 -0.034457 -1.991963 -1.426392 -3.979610 2.400848 0.622691 0.524722 -14.682267 0.000000 0.000000 0.000000 -20.254837 3.470198 -3.538972 -44.518859 -14.180958 -0.148038 -50.021082 -59.444913 33.055621 0.000000 0.000000 0.000000 19.906990 -1.996447 -3.459428 53.960060 3.516943 -3.393920 11.066113 24.155281 2.839412 0.000000 0.000000 0.000000 
0.565661 0.939588 3.011149 -0.652832 3.975006 -0.195099 0.440303 0.213702 2.673121 -0.120262 0.046560 -1.013993 -0.989419 -1.730139 0.661513 0.000000 0.000000 0.000000 0.204737 -0.155628 1.441829 -0.635032 0.181801 2.550934 2.448693 6.979691 -0.935195 0.000000 0.000000 0.000000 -0.618279 -0.143308 4.058483 0.279230 -0.045965 -2.062842 -1.528412 -3.958951 2.879931 0.735387 0.468510 -14.892880 0.000000 0.000000 0.000000 -20.378356 3.665059 -3.656197 -44.354188 -13.205323 -0.542085 -51.568919 -59.344380 34.046015 0.000000 0.000000 0.000000 19.961595 -1.816257 -3.347204 54.445781 3.345670 -3.550380 10.744014 23.852519 2.747978 0.000000 0.000000 0.000000 
0.563885 0.939484 3.009140 -0.676493 4.081294 0.056827 0.607831 0.180186 2.353130 -0.112245 0.038552 -0.798956 -0.774231 -1.253985 0.702681 0.000000 0.000000 0.000000 0.340503 -0.119076 1.064521 -0.569014 0.166869 2.412022 2.342276 6.389717 -0.465013 0.000000 0.000000 0.000000 -0.774572 -0.126790 3.797973 0.372427 -0.080419 -2.244697 -1.590899 -3.780336 3.563770 0.848222 0.423646 -15.004027 0.000000 0.000000 0.000000 -20.472616 3.827976 -3.801153 -44.334968 -12.667021 -0.773943 -52.707036 -59.329177 34.762341 0.000000 0.000000 0.000000 20.069402 -2.092036 -3.427007 54.690380 3.414689 -3.612417 10.446776 23.172764 2.630474 0.000000 0.000000 0.000000 
0.562484 0.939265 3.007465 -0.583743 4.073408 0.147005 0.592111 0.170950 2.230839 -0.061486 0.026715 -0.593570 -0.672669 -1.124718 0.549989 0.000000 0.000000 0.000000 0.250964 -0.113248 1.031299 -0.517835 0.155495 2.304197 2.305865 6.343812 -0.545135 0.000000 0.000000 0.000000 -0.691779 -0.125555 3.683915 0.023388 0.083878 -2.373087 -1.583573 -3.500249 3.978387 0.997423 0.368367 -15.202683 0.000000 0.000000 0.000000 -20.484441 3.921029 -3.909841 -44.370842 -12.241986 -0.942278 -53.494819 -59.133567 35.098392 0.000000 0.000000 0.000000 20.131259 -2.338640 -3.486213 54.923870 3.315391 -3.727913 10.254964 22.349717 2.512730 0.000000 0.000000 0.000000 
0.561379 0.939261 3.006284 -0.525347 4.158890 0.215455 0.609343 0.171680 2.252416 -0.041099 0.029054 -0.718787 -0.504854 -0.717617 0.649263 0.000000 0.000000 0.000000 0.263037 -0.117984 1.072553 -0.521769 0.141919 1.963290 2.359868 6.330549 -0.298995 0.000000 0.000000 0.000000 -0.768391 -0.117857 3.559424 -0.053465 0.121595 -2.430592 -1.589368 -3.116444 4.309455 0.930806 0.444263 -15.151577 0.000000 0.000000 0.000000 -20.429479 3.993702 -4.040644 -44.593512 -11.781638 -1.105194 -53.793488 -58.755282 34.919766 0.000000 0.000000 0.000000 20.274705 -2.463003 -3.450866 55.031313 3.327296 -3.782945 9.758137 21.795237 2.382965 0.000000 0.000000 0.000000 
0.560525 0.939451 3.005498 -0.493902 4.241492 0.348652 0.646298 0.162676 2.163887 -0.036805 0.026562 -0.658634 -0.420676 -0.518725 0.690209 0.000000 0.000000 0.000000 0.308128 -0.113641 1.020642 -0.666806 0.147203 1.640926 2.459163 6.443780 -0.064024 0.000000 0.000000 0.000000 -0.614193 -0.108103 3.148244 -0.296071 0.234878 -2.505769 -1.510360 -2.946888 4.483439 1.029244 0.410609 -15.268223 0.000000 0.000000 0.000000 -20.048506 3.908588 -3.982677 -44.998999 -11.486321 -1.215417 -53.395151 -57.915274 34.043098 0.000000 0.000000 0.000000 19.860803 -2.382625 -3.291424 55.313700 3.306208 -3.839208 9.520510 21.260695 2.288960 0.000000 0.000000 0.000000 
0.559875 0.939788 3.004948 -0.399442 4.448048 0.494770 0.723514 0.156584 2.136212 -0.166981 0.047865 -0.927529 -0.406447 -0.335492 0.974591 0.000000 0.000000 0.000000 0.288202 -0.105588 0.949603 -0.710462 0.142318 1.396564 2.416602 6.254421 0.062553 0.000000 0.000000 0.000000 -0.575683 -0.100533 2.917519 -0.348417 0.261941 -2.562005 -1.566690 -2.750887 4.497992 0.883675 0.536553 -15.334106 0.000000 0.000000 0.000000 -19.781836 3.841775 -3.984965 -45.387127 -11.238782 -1.288840 -51.411170 -56.360531 31.648248 0.000000 0.000000 0.000000 19.922025 -2.492773 -3.276626 55.041374 3.243894 -3.861288 9.385574 21.352376 2.292405 0.000000 0.000000 0.000000 
0.559413 0.940021 3.004428 -0.274272 4.454775 0.656340 0.538431 0.151778 1.986448 0.009804 0.034580 -1.017709 -0.452819 -0.433482 0.971349 0.000000 0.000000 0.000000 0.308024 -0.115105 1.033536 -0.854649 0.146577 1.084165 2.526848 6.512572 0.111127 0.000000 0.000000 0.000000 -0.498030 -0.089696 2.572181 -0.453757 0.317120 -2.787554 -1.524439 -2.672940 4.679426 1.012195 0.479907 -15.542665 0.000000 0.000000 0.000000 -19.688981 3.702858 -3.909644 -45.509859 -11.086655 -1.355742 -47.793830 -54.201447 28.095684 0.000000 0.000000 0.000000 19.761704 -2.371328 -3.164028 54.925940 3.683072 -3.674203 9.200215 21.348149 2.265904 0.000000 0.000000 0.000000 
0.559192 0.940078 3.003760 -0.251107 4.419919 0.804765 0.682054 0.133194 1.825168 -0.121099 0.053580 -1.227250 -0.485763 -0.310203 1.333994 0.000000 0.000000 0.000000 0.229079 -0.101827 0.928410 -0.733753 0.126748 0.974637 2.574631 6.614389 0.146653 0.000000 0.000000 0.000000 -0.421425 -0.091466 2.561042 -0.456667 0.317938 -2.789821 -1.581103 -2.420673 4.115232 1.002477 0.517117 -15.544866 0.000000 0.000000 0.000000 -19.284562 3.638781 -3.891706 -45.991394 -10.787461 -1.406812 -44.305119 -51.256327 24.349280 0.000000 0.000000 0.000000 19.630576 -2.374704 -3.101870 54.623984 3.851846 -3.530585 9.287644 21.938267 2.357450 0.000000 0.000000 0.000000 
0.559212 0.940337 3.003073 -0.208390 4.274888 0.918279 0.685239 0.136429 1.863141 -0.250035 0.076170 -1.570458 -0.444484 -0.098429 1.583126 0.000000 0.000000 0.000000 0.197839 -0.093804 0.860782 -0.770840 0.125283 0.842912 2.416991 6.095035 0.318861 0.000000 0.000000 0.000000 -0.316703 -0.100381 2.705931 -0.531634 0.363796 -3.204946 -1.500698 -2.387881 3.990608 1.118928 0.442509 -15.550252 0.000000 0.000000 0.000000 -19.497741 3.345871 -3.757434 -45.886019 -10.286176 -1.582373 -39.800714 -48.214262 20.457986 0.000000 0.000000 0.000000 19.543365 -2.231231 -3.030248 54.083391 4.461296 -3.211055 9.345321 22.505093 2.432560 0.000000 0.000000 0.000000 
0.559480 0.940238 3.002442 -0.165535 3.980780 0.989098 0.754685 0.131924 1.830277 -0.354264 0.090622 -1.741242 -0.396721 0.024770 1.645176 0.000000 0.000000 0.000000 0.038380 -0.083524 0.803009 -0.661174 0.107073 0.735426 2.471056 6.237487 0.309893 0.000000 0.000000 0.000000 -0.224881 -0.107752 2.815813 -0.492882 0.340892 -3.114807 -1.571440 -2.375512 3.302223 0.865872 0.587695 -15.525915 0.000000 0.000000 0.000000 -19.466146 3.234327 -3.681540 -46.325727 -9.825567 -1.713273 -34.522840 -44.020727 16.128993 0.000000 0.000000 0.000000 19.427500 -1.806488 -2.838964 53.830177 4.721111 -3.007239 9.269165 23.300091 2.498213 0.000000 0.000000 0.000000 
0.559849 0.940390 3.002042 -0.189499 3.789487 1.049346 0.685396 0.137788 1.864617 -0.380944 0.102379 -2.049829 -0.355963 0.276855 1.988794 0.000000 0.000000 0.000000 0.052816 -0.089395 0.856754 -0.701213 0.099887 0.468084 2.413022 5.931334 0.557206 0.000000 0.000000 0.000000 -0.039216 -0.117864 2.901140 -0.622720 0.404581 -3.370289 -1.470668 -2.446664 3.350204 0.800854 0.606236 -15.506418 0.000000 0.000000 0.000000 -19.638266 3.039475 -3.553942 -46.493266 -9.228181 -1.957641 -30.000227 -39.535235 12.605784 0.000000 0.000000 0.000000 19.556158 -1.808825 -2.904098 53.388512 5.400283 -2.680970 9.488069 23.879871 2.600585 0.000000 0.000000 0.000000 
0.560334 0.940384 3.001781 -0.193971 3.639541 1.047535 0.649389 0.149849 1.990952 -0.270914 0.099097 -2.238211 -0.535771 -0.011903 2.147772 0.000000 0.000000 0.000000 -0.065850 -0.081461 0.811425 -0.596402 0.089041 0.503590 2.476446 6.128630 0.499292 0.000000 0.000000 0.000000 0.119191 -0.127509 2.991238 -0.580375 0.388382 -3.501592 -1.543253 -2.599749 3.240155 0.649867 0.651266 -15.141856 0.000000 0.000000 0.000000 -20.019917 2.810346 -3.433312 -46.605367 -8.856571 -2.105313 -25.535109 -34.877982 9.536086 0.000000 0.000000 0.000000 19.513628 -1.641054 -2.866476 53.169267 5.553063 -2.581094 9.926611 24.649716 2.768065 0.000000 0.000000 0.000000 
0.560908 0.940631 3.001523 -0.266955 3.538965 1.058915 0.533142 0.143573 1.857173 -0.098202 0.081346 -2.130290 -0.471209 0.182944 2.281513 0.000000 0.000000 0.000000 -0.032072 -0.091807 0.903483 -0.711964 0.092501 0.279538 2.504818 6.167746 0.552078 0.000000 0.000000 0.000000 0.246026 -0.134392 3.038451 -0.600467 0.400527 -3.646278 -1.484894 -2.551379 3.228210 0.790265 0.556191 -15.027259 0.000000 0.000000 0.000000 -20.256591 2.713347 -3.409138 -46.854791 -8.248337 -2.344536 -23.213028 -31.048916 7.741521 0.000000 0.000000 0.000000 19.712882 -1.795120 -2.980145 52.969752 5.990266 -2.379623 9.911751 24.758979 2.777872 0.000000 0.000000 0.000000 
0.561646 0.940884 3.001080 -0.406434 3.136983 0.969003 0.447902 0.151411 1.900678 0.022738 0.071410 -2.137220 -0.477323 0.233571 2.433101 0.000000 0.000000 0.000000 -0.055345 -0.090432 0.898351 -0.693141 0.087184 0.218027 2.710677 6.451699 0.928079 0.000000 0.000000 0.000000 0.342119 -0.139597 3.075572 -0.528731 0.359420 -3.462130 -1.368034 -2.339013 3.109066 0.906565 0.479941 -14.960548 0.000000 0.000000 0.000000 -20.567843 2.715166 -3.451881 -46.942162 -7.586170 -2.587764 -21.573576 -28.450276 6.618086 0.000000 0.000000 0.000000 19.744881 -1.563102 -2.866876 52.899958 6.200850 -2.272521 9.642227 24.959897 2.745929 0.000000 0.000000 0.000000 
0.562465 0.941299 3.000477 -0.400660 2.788026 0.988502 0.397588 0.133955 1.661693 -0.057242 0.064002 -1.710626 -0.386880 0.387109 2.397060 0.000000 0.000000 0.000000 -0.015701 -0.083083 0.818298 -0.779439 0.090942 0.096277 2.840678 6.581059 1.229530 0.000000 0.000000 0.000000 0.380193 -0.137371 2.996536 -0.624355 0.395162 -3.352275 -1.154748 -2.185019 3.147325 1.020721 0.415320 -15.135260 0.000000 0.000000 0.000000 -20.689045 2.752259 -3.466131 -47.185379 -7.042945 -2.814687 -20.902106 -27.043320 6.111974 0.000000 0.000000 0.000000 19.693893 -1.538675 -2.867885 52.917530 6.234943 -2.257026 9.588179 24.982851 2.732273 0.000000 0.000000 0.000000 
0.563361 0.941595 2.999861 -0.442956 2.839678 0.982842 0.393029 0.148084 1.828626 -0.020013 0.065225 -1.844952 -0.422543 0.398683 2.565975 0.000000 0.000000 0.000000 0.128136 -0.085094 0.798653 -0.980033 0.112622 0.078597 2.764198 6.314526 1.346061 0.000000 0.000000 0.000000 0.373053 -0.130908 2.859283 -0.417486 0.299577 -3.198237 -1.095542 -2.070254 3.157429 1.211163 0.305016 -15.052202 0.000000 0.000000 0.000000 -20.676542 2.731325 -3.485306 -47.639241 -6.641193 -2.986449 -20.519949 -26.216153 5.814042 0.000000 0.000000 0.000000 19.745985 -1.444763 -2.789770 52.679021 6.496496 -2.143277 9.237275 24.575389 2.619805 0.000000 0.000000 0.000000 
0.564362 0.941659 2.999291 -0.425749 2.833459 1.025879 0.338859 0.142237 1.737040 0.132461 0.045111 -1.652412 -0.563957 0.079093 2.493917 0.000000 0.000000 0.000000 0.054580 -0.057426 0.550816 -1.067281 0.132805 0.297039 2.774404 6.231979 1.516735 0.000000 0.000000 0.000000 0.427870 -0.128315 2.757127 -0.342076 0.263132 -3.109436 -0.980173 -1.888382 3.148547 1.356039 0.215647 -14.854694 0.000000 0.000000 0.000000 -20.728519 2.623592 -3.472721 -47.788584 -6.345920 -3.098273 -20.369338 -25.385593 5.573431 0.000000 0.000000 0.000000 19.561464 -1.457458 -2.734037 52.676827 6.591426 -2.109789 8.985898 24.272522 2.542870 0.000000 0.000000 0.000000 
0.565380 0.941594 2.998747 -0.480708 2.658221 1.074057 0.204571 0.130523 1.543588 0.412283 0.019341 -1.636654 -0.476870 0.335770 2.673291 0.000000 0.000000 0.000000 0.036557 -0.036626 0.353630 -1.077765 0.134969 0.324334 2.614382 5.691126 1.730500 0.000000 0.000000 0.000000 0.455839 -0.128271 2.733146 -0.195935 0.216179 -3.725151 -0.962806 -1.494213 3.792008 1.840271 -0.068900 -14.748868 0.000000 0.000000 0.000000 -20.547627 2.300604 -3.328594 -47.893452 -5.916387 -3.309582 -20.822839 -25.531374 5.701248 0.000000 0.000000 0.000000 19.579097 -1.634216 -2.732657 52.274935 6.747204 -2.110920 8.754610 23.452970 2.427646 0.000000 0.000000 0.000000 
0.566414 0.941324 2.998087 -0.493939 2.801085 1.196530 0.257017 0.111761 1.348994 0.435342 0.018937 -1.676704 -0.631293 -0.152081 2.302394 0.000000 0.000000 0.000000 -0.337102 0.005121 0.025868 -0.824358 0.119963 0.621276 2.738343 5.857968 1.970615 0.000000 0.000000 0.000000 0.494899 -0.112241 2.348389 -0.398490 0.294054 -3.311627 -0.646166 -1.719562 3.723840 1.846288 -0.074893 -14.966361 0.000000 0.000000 0.000000 -20.444237 2.207478 -3.206879 -47.773371 -6.359219 -3.140737 -20.916142 -25.008673 5.615582 0.000000 0.000000 0.000000 19.196313 -1.467567 -2.655080 51.950629 6.619574 -2.134581 8.645250 22.874303 2.326629 0.000000 0.000000 0.000000 
0.567367 0.941873 2.997257 -0.553344 2.423153 1.221227 0.412646 0.100281 1.264775 0.491573 -0.001100 -1.296040 -0.551885 -0.024946 2.257003 0.000000 0.000000 0.000000 -0.267548 0.027584 -0.212959 -0.625382 0.100283 0.708802 2.245364 4.478350 2.207321 0.000000 0.000000 0.000000 0.803343 -0.113222 2.159139 -0.324785 0.276399 -3.933799 -0.655894 -0.783284 4.770802 2.215826 -0.242901 -14.950695 0.000000 0.000000 0.000000 -21.035733 1.308232 -2.953746 -47.246133 -5.897961 -3.325451 -20.247332 -25.730688 5.588881 0.000000 0.000000 0.000000 20.165725 -1.426141 -2.517810 50.726835 6.962321 -2.101573 7.690606 22.858413 2.198399 0.000000 0.000000 0.000000 
0.568133 0.942281 2.996392 -0.708956 2.246361 1.477743 0.262009 0.077087 0.942692 0.868468 -0.030170 -1.448510 -0.532565 -0.184448 1.862866 0.000000 0.000000 0.000000 -0.261963 0.110425 -1.044323 -0.464376 0.102880 1.214906 2.215558 4.103052 2.717303 0.000000 0.000000 0.000000 0.757217 -0.080626 1.487354 -0.255469 0.208146 -2.761298 -0.334350 -1.076905 4.460478 2.629212 -0.514946 -15.191919 0.000000 0.000000 0.000000 -20.628235 2.212347 -3.286047 -47.891678 -6.367942 -3.188418 -21.313479 -25.751480 5.875871 0.000000 0.000000 0.000000 18.250487 -1.260647 -2.338536 52.004133 8.080273 -1.601307 6.868218 22.140563 1.951879 0.000000 0.000000 0.000000 
0.568583 0.942925 2.995559 -0.543981 3.246423 1.069875 0.749730 0.069430 1.034013 0.070239 0.044152 -1.461220 -0.863643 -0.373583 2.764100 0.000000 0.000000 0.000000 0.083344 0.037192 -0.370750 -1.157481 0.166971 0.773660 2.302762 4.248345 2.921311 0.000000 0.000000 0.000000 0.512185 -0.076680 1.567346 0.446183 -0.092111 -2.919962 -1.138192 -0.543913 4.882436 3.662792 -1.130395 -14.380389 0.000000 0.000000 0.000000 -20.122438 0.421175 -2.548619 -47.612929 -5.894481 -3.315272 -20.429922 -25.974796 5.629187 0.000000 0.000000 0.000000 19.338273 -1.023601 -2.006626 50.865193 8.195215 -1.649409 5.982668 20.684916 1.712224 0.000000 0.000000 0.000000 
