HIERARCHY
ROOT Hips
{
	OFFSET -0.001795 -0.223333 0.028219
	CHANNELS 6 Xposition Yposition Zposition Zrotation Yrotation Xrotation 
	JOINT LeftUpLeg
	{
		OFFSET 0.069520 -0.091406 -0.006815
		CHANNELS 3 Zrotation Yrotation Xrotation
		JOINT LeftLeg
		{
			OFFSET 0.034277 -0.375199 -0.004496
			CHANNELS 3 Zrotation Yrotation Xrotation
			JOINT LeftFoot
			{
				OFFSET -0.013596 -0.397961 -0.043693
				CHANNELS 3 Zrotation Yrotation Xrotation
				JOINT LeftToe
				{
					OFFSET 0.026358 -0.055791 0.119288
					CHANNELS 3 Zrotation Yrotation Xrotation
					End Site
					{
						OFFSET 0.000000 0.000000 0.000000
					}
				}
			}
		}
	}
	JOINT RightUpLeg
	{
		OFFSET -0.067670 -0.090522 -0.004320
		CHANNELS 3 Zrotation Yrotation Xrotation
		JOINT RightLeg
		{
			OFFSET -0.038290 -0.382569 -0.008850
			CHANNELS 3 Zrotation Yrotation Xrotation
			JOINT RightFoot
			{
				OFFSET 0.015774 -0.398415 -0.042312
				CHANNELS 3 Zrotation Yrotation Xrotation
				JOINT RightToe
				{
					OFFSET -0.025372 -0.048144 0.123348
					CHANNELS 3 Zrotation Yrotation Xrotation
					End Site
					{
						OFFSET 0.000000 0.000000 0.000000
					}
				}
			}
		}
	}
	JOINT Spine
	{
		OFFSET -0.002533 0.108963 -0.026696
		CHANNELS 3 Zrotation Yrotation Xrotation
		JOINT Spine1
		{
			OFFSET 0.005487 0.135180 0.001092
			CHANNELS 3 Zrotation Yrotation Xrotation
			JOINT Spine2
			{
				OFFSET 0.001457 0.052922 0.025425
				CHANNELS 3 Zrotation Yrotation Xrotation
				JOINT Neck
				{
					OFFSET -0.002778 0.213870 -0.042857
					CHANNELS 3 Zrotation Yrotation Xrotation
					JOINT Head
					{
						OFFSET 0.005152 0.064970 0.051349
						CHANNELS 3 Zrotation Yrotation Xrotation
						End Site
						{
							OFFSET 0.000000 0.000000 0.000000
						}
					}
				}
				JOINT LeftShoulder
				{
					OFFSET 0.078845 0.121749 -0.034090
					CHANNELS 3 Zrotation Yrotation Xrotation
					JOINT LeftArm
					{
						OFFSET 0.090977 0.030469 -0.008868
						CHANNELS 3 Zrotation Yrotation Xrotation
						JOINT LeftForeArm
						{
							OFFSET 0.259612 -0.012772 -0.027456
							CHANNELS 3 Zrotation Yrotation Xrotation
							JOINT LeftHand
							{
								OFFSET 0.249234 0.008986 -0.001171
								CHANNELS 3 Zrotation Yrotation Xrotation
								End Site
								{
									OFFSET 0.000000 0.000000 0.000000
								}
							}
						}
					}
				}
				JOINT RightShoulder
				{
					OFFSET -0.081759 0.118833 -0.038615
					CHANNELS 3 Zrotation Yrotation Xrotation
					JOINT RightArm
					{
						OFFSET -0.096012 0.032551 -0.009143
						CHANNELS 3 Zrotation Yrotation Xrotation
						JOINT RightForeArm
						{
							OFFSET -0.253742 -0.013329 -0.021401
							CHANNELS 3 Zrotation Yrotation Xrotation
							JOINT RightHand
							{
								OFFSET -0.255298 0.007772 -0.005559
								CHANNELS 3 Zrotation Yrotation Xrotation
								End Site
								{
									OFFSET 0.000000 0.000000 0.000000
								}
							}
						}
					}
				}
			}
		}
	}
}
MOTION
Frames: 88
Frame Time: 0.050000
0.000000 0.955152 0.000000 -1.481727 0.758640 -2.035239 4.698224 0.374031 8.630252 -3.493591 0.394963 -5.349866 2.915231 8.989622 9.961220 0.000000 0.000000 0.000000 -1.090670 -0.415420 4.711587 2.660696 -0.290704 -0.058540 -1.856374 -7.905577 9.931944 0.000000 0.000000 0.000000 -1.278681 -0.160820 5.396783 4.036749 -0.388569 -23.778944 -1.492075 -1.352630 30.200507 1.463072 0.482425 -25.429269 0.000000 0.000000 0.000000 -28.668846 2.545649 -3.034082 -50.094934 -3.859156 -7.085566 -13.326367 -25.174303 4.420329 0.000000 0.000000 0.000000 20.117443 1.862900 -0.202538 56.222145 2.152736 -7.274111 10.663575 26.106110 3.530858 0.000000 0.000000 0.000000 
-0.000270 0.955108 0.001341 -1.822409 0.601571 -1.627004 5.112477 0.334207 8.581958 -3.397161 0.392108 -6.031957 2.868710 8.818975 9.633234 0.000000 0.000000 0.000000 -1.104509 -0.346596 3.992768 2.980707 -0.319123 0.313689 -1.747364 -7.536484 9.327965 0.000000 0.000000 0.000000 -0.954634 -0.155748 4.802126 3.581960 -0.275040 -23.765902 -1.367886 -1.527417 30.327805 1.310150 0.523372 -25.414594 0.000000 0.000000 0.000000 -29.394755 3.588014 -3.710007 -49.808036 -3.595951 -7.208769 -13.206132 -24.833720 4.356245 0.000000 0.000000 0.000000 19.445923 1.806448 -0.257182 57.085231 1.538082 -7.673260 10.033914 27.053808 3.534665 0.000000 0.000000 0.000000 
-0.000433 0.954733 0.002522 -1.541214 0.629322 -1.614664 5.084601 0.319298 8.183402 -3.979622 0.426509 -4.727653 2.824594 8.512479 8.700073 0.000000 0.000000 0.000000 -1.293515 -0.354975 4.198510 2.547194 -0.277753 -0.090656 -1.773892 -7.593362 9.343475 0.000000 0.000000 0.000000 -0.840789 -0.152141 4.561975 3.174471 -0.162672 -23.966756 -1.301499 -1.790756 30.677226 0.403518 0.978936 -24.665140 0.000000 0.000000 0.000000 -29.520235 3.449357 -3.505879 -49.299934 -3.616597 -7.208295 -12.669778 -23.677512 4.022449 0.000000 0.000000 0.000000 19.187951 2.796242 0.235436 57.456915 1.757181 -7.629284 8.560623 26.038391 3.032918 0.000000 0.000000 0.000000 
-0.000693 0.954871 0.003805 -1.524072 0.448439 -1.912257 5.027294 0.363440 8.869787 -3.907130 0.424067 -4.558575 2.885856 8.498015 8.265132 0.000000 0.000000 0.000000 -1.328151 -0.373217 4.429021 2.764594 -0.293362 0.380717 -1.726585 -7.561372 9.495489 0.000000 0.000000 0.000000 -0.968012 -0.148975 4.614463 3.749578 -0.277009 -24.522102 -1.518031 -1.634102 31.406340 0.633362 0.819350 -24.439315 0.000000 0.000000 0.000000 -30.912194 3.948332 -3.990977 -48.288486 -3.271509 -7.286461 -13.069044 -22.968746 3.977755 0.000000 0.000000 0.000000 19.252174 3.312958 0.555397 57.102996 2.231554 -7.462696 8.494425 25.531358 2.958923 0.000000 0.000000 0.000000 
-0.000930 0.955104 0.004904 -1.416084 0.338274 -2.198218 4.802489 0.414646 9.391312 -3.730398 0.413359 -4.671209 2.888397 8.597867 8.667769 0.000000 0.000000 0.000000 -1.499945 -0.396252 4.804173 2.607315 -0.278978 0.159047 -1.856201 -7.828881 9.481205 0.000000 0.000000 0.000000 -0.905544 -0.163131 4.948753 3.910274 -0.357312 -23.874888 -1.579899 -1.209114 30.560644 0.544904 0.891814 -23.422699 0.000000 0.000000 0.000000 -30.843910 3.724335 -4.018409 -47.857281 -2.908006 -7.233726 -13.815376 -22.638892 4.031967 0.000000 0.000000 0.000000 19.508712 3.204966 0.549159 56.601250 2.210558 -7.334925 8.780397 25.150879 2.965849 0.000000 0.000000 0.000000 
-0.001033 0.955137 0.005733 -1.345828 0.346306 -2.553230 4.819455 0.437149 9.803878 -3.591108 0.404353 -4.650312 2.716792 8.250850 8.448622 0.000000 0.000000 0.000000 -1.667634 -0.430788 5.303261 2.697574 -0.289136 0.167402 -1.734142 -7.524963 9.256633 0.000000 0.000000 0.000000 -1.040611 -0.161176 5.045934 3.977544 -0.370031 -23.965089 -1.568718 -1.187250 31.011207 0.320958 1.013257 -23.106382 0.000000 0.000000 0.000000 -30.668974 3.530069 -3.842337 -47.670403 -2.673443 -7.343783 -14.316209 -23.052551 4.218651 0.000000 0.000000 0.000000 19.350556 3.774823 0.890413 56.382778 2.260235 -7.341873 8.885465 25.379858 3.019231 0.000000 0.000000 0.000000 
-0.001146 0.955163 0.005926 -1.267701 0.629558 -2.540836 4.773784 0.433213 9.793850 -3.509496 0.396505 -4.612597 2.608943 8.172741 8.787260 0.000000 0.000000 0.000000 -1.603780 -0.443868 5.375235 2.640596 -0.283869 0.208688 -1.744699 -7.444448 8.987763 0.000000 0.000000 0.000000 -1.004931 -0.162798 5.043300 4.002478 -0.393661 -23.587117 -1.688860 -1.503441 30.781531 0.138670 1.108633 -23.208991 0.000000 0.000000 0.000000 -30.443620 3.383483 -3.669632 -47.678177 -2.428669 -7.428925 -15.460758 -23.774250 4.615587 0.000000 0.000000 0.000000 19.637693 4.003060 0.961534 56.179562 2.468623 -7.195568 9.191181 25.617847 3.107145 0.000000 0.000000 0.000000 
-0.001366 0.954997 0.005600 -1.276308 0.661217 -2.522423 4.707440 0.422669 9.467300 -3.482539 0.393400 -4.273398 2.911609 8.518649 8.103695 0.000000 0.000000 0.000000 -1.719233 -0.403779 4.993001 2.786754 -0.296072 0.491837 -1.870389 -7.538098 8.418691 0.000000 0.000000 0.000000 -0.854559 -0.170416 5.072939 3.812601 -0.356348 -23.395062 -1.671954 -1.517063 31.156915 -0.173444 1.291274 -22.974614 0.000000 0.000000 0.000000 -30.274137 2.699627 -3.162331 -47.252371 -2.780961 -7.287916 -17.476673 -25.396230 5.430815 0.000000 0.000000 0.000000 20.040393 4.182170 1.062574 55.789803 2.736134 -7.078735 10.214833 26.791256 3.513196 0.000000 0.000000 0.000000 
-0.001916 0.954749 0.004738 -1.156885 0.730472 -2.521207 4.663378 0.411144 9.172658 -3.558772 0.398023 -4.227126 3.104423 8.780158 7.805841 0.000000 0.000000 0.000000 -1.793478 -0.387382 4.848744 2.790397 -0.295908 0.557876 -1.943982 -7.690276 8.443953 0.000000 0.000000 0.000000 -1.040227 -0.175094 5.470390 4.124294 -0.437318 -23.360618 -1.708092 -1.577104 31.204638 -0.593121 1.548526 -22.852517 0.000000 0.000000 0.000000 -30.029542 2.338542 -2.867243 -47.134105 -3.033458 -7.199518 -18.979920 -27.377809 6.286445 0.000000 0.000000 0.000000 20.114830 4.517897 1.241690 55.590144 2.835974 -7.019366 10.978927 28.410144 3.950784 0.000000 0.000000 0.000000 
-0.002683 0.954315 0.003822 -1.133288 0.902979 -2.326186 4.773061 0.371231 8.671190 -3.733139 0.408258 -3.660310 3.396135 9.106475 7.040830 0.000000 0.000000 0.000000 -1.550483 -0.370713 4.489694 2.615365 -0.272416 0.832656 -2.086910 -7.814803 7.878545 0.000000 0.000000 0.000000 -1.034023 -0.181233 5.654518 4.128338 -0.427899 -23.484183 -1.573561 -1.689510 31.524582 -0.893137 1.744292 -23.060681 0.000000 0.000000 0.000000 -29.816186 2.053037 -2.641555 -46.309207 -3.746166 -6.868633 -21.834485 -29.434105 7.593260 0.000000 0.000000 0.000000 20.720098 4.457088 1.199807 54.785152 2.893977 -6.945031 13.389405 30.683574 4.974437 0.000000 0.000000 0.000000 
-0.003385 0.953669 0.003439 -1.087225 1.121258 -2.313511 4.829701 0.341929 8.254014 -3.696043 0.403312 -3.193493 3.109122 8.460247 6.465440 0.000000 0.000000 0.000000 -1.573215 -0.350402 4.254200 2.751904 -0.283799 1.240572 -2.336259 -8.171470 7.331947 0.000000 0.000000 0.000000 -1.330276 -0.184033 6.225855 4.228234 -0.443513 -23.545403 -1.442620 -1.797910 31.485194 -1.020571 1.824518 -22.987441 0.000000 0.000000 0.000000 -29.675517 1.699614 -2.394126 -45.373494 -4.269728 -6.578131 -24.723593 -32.537660 9.367973 0.000000 0.000000 0.000000 20.294141 4.329093 1.156580 54.650422 2.210709 -7.243280 17.198779 33.930876 6.766282 0.000000 0.000000 0.000000 
-0.003705 0.952851 0.004113 -0.917415 1.397817 -2.346800 4.654433 0.344550 8.118093 -3.589005 0.391485 -2.549184 3.356284 8.715286 5.714280 0.000000 0.000000 0.000000 -1.693821 -0.270033 3.384944 2.642487 -0.245139 3.017658 -2.497702 -8.182966 6.148645 0.000000 0.000000 0.000000 -1.502682 -0.196678 6.954006 4.365090 -0.476494 -23.529625 -1.170981 -1.710276 31.782244 -0.906033 1.800551 -23.168981 0.000000 0.000000 0.000000 -29.361029 1.534667 -2.355166 -44.535136 -5.086520 -6.192069 -28.338051 -35.373947 11.478357 0.000000 0.000000 0.000000 20.839443 4.047301 1.061324 53.154534 1.771814 -7.303951 22.743775 38.692314 9.896404 0.000000 0.000000 0.000000 
-0.003192 0.951718 0.005946 -0.970675 1.695453 -2.491361 4.484679 0.344293 7.944034 -3.317149 0.362196 -1.635430 3.471464 8.682835 4.780698 0.000000 0.000000 0.000000 -1.693050 -0.166376 2.169615 2.320319 -0.156271 5.750980 -2.599310 -7.960430 4.545197 0.000000 0.000000 0.000000 -1.429700 -0.222623 7.605351 4.856158 -0.633412 -22.939900 -1.608227 -1.533753 31.551582 -1.107218 1.977714 -22.785740 0.000000 0.000000 0.000000 -28.695682 1.158432 -2.192749 -43.389809 -5.298554 -5.926812 -33.475766 -39.022482 14.715140 0.000000 0.000000 0.000000 20.519002 3.893388 1.081238 52.340767 1.499888 -7.320601 30.241939 43.064592 14.380851 0.000000 0.000000 0.000000 
-0.002004 0.950209 0.008648 -0.721365 1.364118 -2.348884 4.034175 0.372428 7.649632 -2.954472 0.327406 -1.166003 3.870490 9.249594 4.157942 0.000000 0.000000 0.000000 -2.030387 0.017428 0.139265 2.246106 -0.067302 9.931490 -2.519416 -7.256350 2.693541 0.000000 0.000000 0.000000 -1.295312 -0.249989 8.279301 4.777611 -0.652912 -22.412928 -1.555213 -1.842271 31.515103 -1.455996 2.131082 -23.383531 0.000000 0.000000 0.000000 -28.708752 0.964922 -1.851912 -42.360807 -6.521565 -5.474526 -39.742736 -42.086710 18.820216 0.000000 0.000000 0.000000 19.917494 4.167844 1.092622 51.180853 1.432834 -7.155489 39.929153 47.976278 20.898663 0.000000 0.000000 0.000000 
-0.000797 0.948578 0.012654 -0.487507 1.169498 -2.183182 3.550754 0.416684 7.712825 -2.807165 0.312234 -0.960546 3.960776 9.182693 3.259297 0.000000 0.000000 0.000000 -2.613262 0.226604 -2.410413 2.375778 -0.013938 14.629883 -2.856215 -7.582141 1.128243 0.000000 0.000000 0.000000 -1.148809 -0.285053 9.101068 5.129765 -0.787941 -21.845066 -2.060230 -2.247151 31.055576 -2.188299 2.515116 -23.852661 0.000000 0.000000 0.000000 -28.201015 0.614731 -1.400338 -41.511496 -6.812871 -5.294514 -47.481164 -46.399459 24.937159 0.000000 0.000000 0.000000 19.809355 4.181158 0.928247 50.154566 1.299196 -6.983670 50.671026 52.567251 29.148398 0.000000 0.000000 0.000000 
-0.001010 0.946827 0.019176 -0.195948 1.610695 -1.771680 3.222275 0.386644 6.955347 -2.358629 0.238122 0.997887 4.052151 8.937245 1.692040 0.000000 0.000000 0.000000 -2.814374 0.382014 -4.485776 2.370111 0.034064 19.158736 -3.363747 -8.424430 -0.261431 0.000000 0.000000 0.000000 -0.955545 -0.336726 10.103111 5.170460 -0.790188 -21.826324 -2.513908 -3.325185 30.925585 -3.208786 3.024805 -25.389284 0.000000 0.000000 0.000000 -27.742836 0.096378 -0.740538 -40.906709 -7.812960 -4.989200 -56.112717 -50.364269 32.494779 0.000000 0.000000 0.000000 19.646920 4.179404 0.706248 49.407029 0.595944 -7.091073 63.696611 55.518112 39.169033 0.000000 0.000000 0.000000 
-0.003137 0.944899 0.029824 -0.050100 2.393540 -1.569152 3.093261 0.374955 6.842014 -1.905975 0.157720 2.285443 3.982306 8.429674 0.473083 0.000000 0.000000 0.000000 -2.655473 0.434789 -5.165773 2.399291 0.005824 21.607644 -3.771552 -9.182230 -1.374377 0.000000 0.000000 0.000000 -0.646657 -0.395095 10.736455 5.511357 -0.910456 -21.194501 -2.965532 -4.354368 30.488197 -4.478186 3.691107 -25.752145 0.000000 0.000000 0.000000 -27.609203 -0.156032 -0.406504 -40.357996 -9.032082 -4.569390 -62.329843 -53.580787 38.918667 0.000000 0.000000 0.000000 19.113480 3.974964 0.468812 49.905386 -0.120948 -7.365614 74.817750 56.162466 47.443394 0.000000 0.000000 0.000000 
-0.007248 0.941665 0.044464 -0.176798 4.231603 -1.297767 3.716853 0.191466 4.845266 -2.159656 0.060325 7.824241 4.281199 7.927083 -2.711082 0.000000 0.000000 0.000000 -2.812619 0.440865 -5.430012 3.471032 -0.474584 23.433729 -4.943371 -12.223315 -1.655177 0.000000 0.000000 0.000000 -0.416629 -0.481764 11.754680 5.994081 -0.983220 -21.473671 -3.064674 -5.414726 30.346329 -4.999498 3.987074 -27.193568 0.000000 0.000000 0.000000 -26.708467 -0.036738 -0.491755 -40.771318 -9.777096 -4.335515 -71.939693 -55.521874 47.441767 0.000000 0.000000 0.000000 18.910713 3.681041 0.344589 49.605286 -0.563386 -7.475570 85.909144 55.660795 55.656089 0.000000 0.000000 0.000000 
-0.011696 0.937834 0.062003 -0.065693 4.637502 -1.084868 4.205722 -0.047304 0.682410 -2.671648 -0.066075 16.236790 5.055766 9.643125 -2.517949 0.000000 0.000000 0.000000 -2.948826 0.375122 -4.604564 3.428337 -0.498638 23.993157 -4.739994 -11.532523 -2.851251 0.000000 0.000000 0.000000 -0.580162 -0.486205 12.137098 6.701464 -1.263980 -20.309113 -3.009872 -5.087724 29.633901 -5.725003 4.496309 -27.312229 0.000000 0.000000 0.000000 -26.334408 0.354679 -0.963948 -41.368900 -9.591341 -4.304463 -78.331894 -56.528872 53.166912 0.000000 0.000000 0.000000 18.920375 4.812610 1.088504 49.818103 -0.046213 -7.264840 91.347735 57.163842 62.160926 0.000000 0.000000 0.000000 
-0.013722 0.931825 0.081819 -0.258018 5.612631 -0.352800 6.133774 -0.360654 -5.736543 -5.350096 0.365460 28.632991 5.903449 11.154925 -3.610455 0.000000 0.000000 0.000000 -2.683740 0.322201 -3.780749 3.670762 -0.673764 24.430770 -5.446249 -13.336731 -4.473711 0.000000 0.000000 0.000000 0.206282 -0.614233 12.629959 6.179751 -1.069180 -20.474494 -2.212829 -4.285314 29.120498 -5.318145 4.457192 -29.316011 0.000000 0.000000 0.000000 -26.550398 1.371413 -2.145867 -41.998563 -8.324364 -4.579066 -84.515164 -56.392326 57.692028 0.000000 0.000000 0.000000 18.556520 5.093537 1.618949 49.241875 2.007519 -6.420758 97.070391 58.201383 69.304375 0.000000 0.000000 0.000000 
-0.010944 0.926256 0.104542 0.556742 6.350532 0.065177 7.178377 -0.659097 -13.834976 -10.411327 2.355775 40.592184 7.278778 14.577356 -1.974133 0.000000 0.000000 0.000000 -3.673559 0.119897 -1.229092 3.511031 -0.648528 23.392360 -5.092521 -12.291239 -5.795754 0.000000 0.000000 0.000000 0.111343 -0.634633 13.073857 5.579357 -0.857120 -20.812291 -1.388390 -2.026152 29.937936 -5.426402 4.931068 -31.428854 0.000000 0.000000 0.000000 -27.431646 1.677381 -3.409138 -42.020821 -6.627337 -4.887784 -92.415241 -54.791166 61.795476 0.000000 0.000000 0.000000 16.896619 6.280016 2.923311 50.694970 6.209821 -5.066459 101.409197 61.722889 79.480048 0.000000 0.000000 0.000000 
-0.002677 0.924097 0.132203 1.534149 7.126138 0.757915 7.175824 -0.989949 -19.872100 -12.739320 3.467470 43.856704 8.468845 17.212085 -1.213294 0.000000 0.000000 0.000000 -4.834878 -0.081138 1.876489 3.122239 -0.497612 20.114797 -4.795735 -11.538732 -6.114141 0.000000 0.000000 0.000000 -0.521495 -0.623206 14.180800 5.178115 -0.617825 -22.510748 -0.013793 0.345078 30.468191 -4.497209 4.897988 -32.084233 0.000000 0.000000 0.000000 -27.349247 1.778952 -4.561984 -43.236063 -3.430143 -5.739429 -100.492425 -53.272386 66.294729 0.000000 0.000000 0.000000 14.005318 6.576331 3.534846 52.055678 10.341763 -3.402203 107.144512 63.115877 89.353896 0.000000 0.000000 0.000000 
0.010329 0.926535 0.165359 2.141456 7.143854 2.017003 6.615428 -1.222520 -22.121771 -11.147514 2.514172 36.854596 9.042190 18.163054 -3.239493 0.000000 0.000000 0.000000 -6.123683 -0.205325 4.896432 3.382600 -0.495781 16.055460 -4.626582 -11.509971 -3.160684 0.000000 0.000000 0.000000 -0.629693 -0.595233 13.971874 4.211224 -0.353869 -22.612114 1.423383 2.647004 30.476367 -3.866208 4.945683 -31.702695 0.000000 0.000000 0.000000 -26.167613 2.896564 -5.946444 -44.987716 0.331575 -7.025169 -106.253550 -49.133775 65.752637 0.000000 0.000000 0.000000 11.962126 7.427062 4.145045 51.713304 13.087840 -2.058126 111.879416 63.396652 96.444946 0.000000 0.000000 0.000000 
0.027722 0.929321 0.205284 2.857753 8.952094 2.371419 4.452284 -1.553774 -21.021732 -6.866045 0.587295 28.431217 8.290333 16.460875 -2.859442 0.000000 0.000000 0.000000 -6.236613 -0.449353 8.299232 1.794859 -0.121896 13.926173 -4.539080 -11.720887 -0.815876 0.000000 0.000000 0.000000 -1.692022 -0.495407 14.331816 4.380055 -0.390930 -21.983646 2.381418 4.953416 30.285764 -2.285818 4.676251 -32.994037 0.000000 0.000000 0.000000 -26.588043 2.041962 -6.865635 -45.015982 1.767320 -7.072308 -109.721721 -47.548118 65.310636 0.000000 0.000000 0.000000 9.418628 7.298862 4.184981 52.793542 13.433790 -1.455112 119.733473 62.580946 107.241822 0.000000 0.000000 0.000000 
0.048749 0.928523 0.251447 2.948519 10.134911 2.350492 3.291850 -1.524808 -18.594471 -5.016831 0.048683 23.100933 7.540513 15.210216 -0.814703 0.000000 0.000000 0.000000 -5.777774 -0.693624 10.634604 0.089523 0.278780 14.630280 -3.545232 -9.514374 1.456349 0.000000 0.000000 0.000000 -2.884830 -0.385576 14.945101 4.770328 -0.452312 -22.483760 2.638898 5.797336 30.855650 -0.891843 4.256642 -32.808219 0.000000 0.000000 0.000000 -26.112674 2.427328 -7.591244 -45.923906 1.665318 -7.092239 -108.070387 -48.182181 63.701562 0.000000 0.000000 0.000000 8.592935 7.954888 4.544750 53.048973 14.551261 -0.858935 119.477750 62.397166 107.987031 0.000000 0.000000 0.000000 
0.071956 0.921650 0.302377 3.425523 12.810226 2.783118 0.993761 -1.559378 -15.990922 -4.124098 -0.401694 23.000807 5.830121 10.146729 -4.797424 0.000000 0.000000 0.000000 -5.400924 -0.600112 8.240979 -0.762996 0.281655 25.973030 -3.917744 -10.598545 3.317371 0.000000 0.000000 0.000000 -3.442966 -0.333319 14.420784 3.736363 -0.183932 -20.946972 2.546924 4.175390 30.473526 -1.040836 4.330148 -34.002394 0.000000 0.000000 0.000000 -26.183349 0.872371 -6.662890 -45.750595 -1.043045 -6.072508 -109.740737 -49.744575 67.323789 0.000000 0.000000 0.000000 9.369353 7.325046 4.420416 52.296112 13.491555 -1.456118 116.762204 62.250711 104.275141 0.000000 0.000000 0.000000 
0.094813 0.912529 0.355230 3.560726 14.428482 1.306574 0.396145 -1.004681 -10.621853 -4.951916 -0.392889 24.605498 6.236995 9.203085 -8.311988 0.000000 0.000000 0.000000 -5.910550 -0.153833 1.404687 -0.326475 -1.235453 44.904752 -3.631724 -10.190390 6.532549 0.000000 0.000000 0.000000 -5.383619 -0.240995 17.173179 5.491812 -0.609845 -21.651775 1.716404 2.703659 30.727340 -0.117236 3.828799 -35.672968 0.000000 0.000000 0.000000 -27.104337 -0.587768 -5.713900 -45.507515 -6.415359 -4.166863 -109.353109 -53.354141 71.932312 0.000000 0.000000 0.000000 8.925704 5.794637 3.567546 54.157749 9.879248 -3.056545 113.674579 60.832466 98.922508 0.000000 0.000000 0.000000 
0.114580 0.902236 0.410024 3.676103 15.661154 0.549623 -0.395222 -0.524230 -5.844723 -3.777594 -0.913935 25.568244 6.495925 8.277781 -10.714362 0.000000 0.000000 0.000000 -5.566725 0.306311 -9.442819 -1.405936 -2.573664 61.873328 -2.327728 -7.478765 6.662617 0.000000 0.000000 0.000000 -5.151891 -0.428530 19.425371 5.773516 -0.629997 -22.224956 -0.402295 -1.203338 30.436108 -1.406829 3.929616 -37.858462 0.000000 0.000000 0.000000 -27.963482 -2.489172 -3.296440 -44.365552 -12.756911 -2.234640 -114.287566 -56.966229 83.588884 0.000000 0.000000 0.000000 9.697382 4.150104 2.531810 53.853485 5.591004 -5.202355 112.233537 57.326683 90.985686 0.000000 0.000000 0.000000 
0.131444 0.904360 0.471316 2.703931 16.656307 0.403065 -0.913701 0.083307 0.595269 -0.486862 -1.471225 21.103114 6.609399 9.136780 -8.568382 0.000000 0.000000 0.000000 -5.075313 0.465775 -18.009204 0.943505 -5.143441 64.731032 -3.791537 -9.871462 2.529821 0.000000 0.000000 0.000000 -4.084672 -0.671049 19.848591 7.609730 -1.062059 -22.839911 -3.817558 -5.796680 30.772374 -1.856171 3.548953 -40.373673 0.000000 0.000000 0.000000 -28.206884 -2.798463 -1.420904 -44.369269 -19.546735 -0.403333 -117.695139 -58.962189 92.404421 0.000000 0.000000 0.000000 11.975799 3.013367 1.604084 50.816713 2.989951 -6.348248 111.450698 55.230289 84.362620 0.000000 0.000000 0.000000 
0.146292 0.922386 0.542717 0.513889 16.571534 0.945732 0.635805 0.398391 7.425397 1.522376 -1.149627 13.663738 4.026085 6.613686 -2.363327 0.000000 0.000000 0.000000 -2.908609 0.937851 -23.431887 4.914254 -6.295395 54.214081 -4.835860 -12.071410 1.891533 0.000000 0.000000 0.000000 -1.696614 -0.935529 17.988772 8.095078 -1.160571 -23.340105 -4.834096 -9.961374 30.365005 -2.697400 3.293500 -39.693656 0.000000 0.000000 0.000000 -25.605655 -0.325433 -1.214639 -47.980871 -21.147206 -0.089768 -125.791421 -55.992514 101.935888 0.000000 0.000000 0.000000 10.980190 1.897302 0.429172 49.849388 -0.145586 -7.353580 110.935404 52.363232 77.083576 0.000000 0.000000 0.000000 
0.158398 0.948505 0.620803 -0.373669 15.991965 2.868457 2.120947 0.333142 11.318663 1.597813 -0.814724 10.108992 -0.633735 3.355343 7.989687 0.000000 0.000000 0.000000 -1.775610 1.268395 -26.595956 6.042862 -4.147375 38.345702 -4.627073 -11.564512 2.933572 0.000000 0.000000 0.000000 -0.206625 -0.793218 13.711443 8.925859 -1.201708 -25.627905 -6.907264 -12.417289 32.601435 -4.392989 3.630738 -39.693983 0.000000 0.000000 0.000000 -23.994118 3.151602 -2.274298 -50.215901 -20.261610 -0.767150 -126.647629 -51.297521 99.958487 0.000000 0.000000 0.000000 10.266306 1.526004 -0.059802 49.355782 -2.553628 -8.355613 111.820477 49.203793 72.262059 0.000000 0.000000 0.000000 
0.167759 0.963509 0.699981 -0.029150 14.628990 2.974899 3.011037 0.241520 11.318428 0.597093 -1.142433 16.363492 -3.232140 1.979566 14.087955 0.000000 0.000000 0.000000 0.453172 1.841088 -25.347406 3.600765 -1.517178 26.283083 -4.271814 -10.935037 5.836764 0.000000 0.000000 0.000000 0.047970 -0.635212 11.522161 8.452573 -1.168019 -24.759617 -6.949624 -12.915476 31.526813 -4.391258 3.408799 -36.700900 0.000000 0.000000 0.000000 -22.080047 2.488539 -1.420085 -51.817715 -19.291816 -0.993203 -127.232419 -49.821789 99.949679 0.000000 0.000000 0.000000 9.212224 2.338105 0.189141 51.638392 -4.055214 -9.261613 114.019503 48.503119 72.899307 0.000000 0.000000 0.000000 
0.174925 0.955413 0.775583 0.792716 14.893110 1.745162 4.473657 -0.041889 5.831049 -2.095715 -2.237648 34.079219 -0.961917 4.372438 11.970564 0.000000 0.000000 0.000000 2.351541 2.031849 -21.659743 2.079198 -1.014081 26.743640 -4.092161 -10.611868 6.383092 0.000000 0.000000 0.000000 -0.547933 -0.584064 11.857916 8.872194 -1.327074 -23.983992 -6.532641 -11.632742 30.472902 -4.177765 3.514278 -34.775768 0.000000 0.000000 0.000000 -22.748988 1.295778 -1.219075 -50.465591 -17.079508 -1.813502 -126.443887 -46.646845 93.146678 0.000000 0.000000 0.000000 10.135485 3.535051 0.853449 51.987359 -4.351658 -9.331494 117.068911 49.595620 78.704969 0.000000 0.000000 0.000000 
0.180838 0.927038 0.842493 0.207268 14.378213 -0.926272 6.246479 -0.326899 -1.868854 -6.274863 -2.411161 52.708921 4.109365 10.696325 7.129551 0.000000 0.000000 0.000000 3.858383 2.069024 -18.273027 3.287988 -2.150926 34.449683 -5.292229 -13.260174 0.452791 0.000000 0.000000 0.000000 0.601933 -1.083909 16.301785 7.953582 -1.091173 -24.279480 -3.926048 -8.192834 29.773140 -3.876077 3.886342 -36.766647 0.000000 0.000000 0.000000 -24.310787 -0.868847 -1.003861 -49.047048 -14.125139 -2.786486 -124.950814 -44.768762 86.021881 0.000000 0.000000 0.000000 12.423956 3.422266 1.209050 50.608168 -1.451927 -7.978121 121.171687 53.198146 90.580244 0.000000 0.000000 0.000000 
0.187052 0.905217 0.902680 -0.254446 12.132972 -2.464291 7.456488 -0.695839 -12.689121 -10.745387 0.315509 66.095289 7.941153 16.382639 1.059812 0.000000 0.000000 0.000000 5.216212 2.024251 -15.330206 2.903171 -2.088384 39.711135 -5.459548 -13.550888 -4.739201 0.000000 0.000000 0.000000 1.099075 -1.413437 19.643308 7.751581 -1.163638 -23.208599 -1.609526 -3.354529 29.273331 -4.431590 4.667334 -37.824933 0.000000 0.000000 0.000000 -25.934218 -1.246249 -2.094199 -46.524250 -10.615695 -3.684893 -123.127129 -43.954636 79.778277 0.000000 0.000000 0.000000 13.777526 4.888226 2.502515 48.409386 3.111999 -6.050978 124.617818 57.857660 102.861147 0.000000 0.000000 0.000000 
0.195285 0.907293 0.966313 0.776167 11.712275 -2.663933 6.192167 -1.562151 -23.316968 -13.348053 2.779989 69.405604 9.568120 19.757251 3.150674 0.000000 0.000000 0.000000 5.040729 1.154078 -8.293308 1.355187 -1.007229 36.655358 -4.245639 -10.025848 -6.980998 0.000000 0.000000 0.000000 -1.011268 -1.176588 21.553751 8.278182 -1.263396 -24.038796 0.188710 -0.909880 30.381205 -5.187233 5.343082 -37.547788 0.000000 0.000000 0.000000 -28.016828 0.756532 -4.443983 -44.144597 -6.264349 -4.799846 -121.472151 -40.863725 71.714950 0.000000 0.000000 0.000000 11.700355 5.994815 3.250163 48.909477 6.997416 -4.650096 128.565413 61.368893 114.009973 0.000000 0.000000 0.000000 
0.206381 0.932768 1.039976 2.088964 10.354891 -0.995018 4.767592 -2.352585 -29.237444 -13.544466 3.579551 59.122492 10.363830 21.317591 4.655344 0.000000 0.000000 0.000000 2.861567 -0.019781 0.023278 1.365048 -0.391983 28.540017 -2.728555 -6.550078 -2.452562 0.000000 0.000000 0.000000 -3.546625 -0.558061 20.222326 7.239064 -0.884586 -25.655897 2.750682 2.860458 32.041831 -5.985250 6.234119 -36.237160 0.000000 0.000000 0.000000 -26.935452 1.920502 -6.131680 -43.037547 -1.498449 -6.056902 -123.691695 -36.722162 65.895676 0.000000 0.000000 0.000000 10.409580 3.902600 2.603748 49.683172 8.118636 -4.287304 129.648347 60.758944 117.663623 0.000000 0.000000 0.000000 
0.219418 0.969133 1.123870 2.697024 9.386877 -0.150568 2.035494 -2.730867 -27.803862 -8.633323 1.043921 39.269061 7.883974 17.520664 8.461404 0.000000 0.000000 0.000000 0.383783 -0.876323 7.473420 1.705934 -0.208043 21.165700 -0.066403 -3.205875 9.056804 0.000000 0.000000 0.000000 -5.515994 -0.080040 16.611490 7.842561 -1.286850 -22.693055 3.112337 5.168326 30.424740 -5.017092 6.088529 -33.140456 0.000000 0.000000 0.000000 -25.527348 5.535264 -8.734950 -41.829026 2.782481 -6.897758 -126.414335 -33.289061 61.587425 0.000000 0.000000 0.000000 6.779256 3.975345 2.321978 53.068302 5.754931 -4.686575 132.163704 57.354372 119.028263 0.000000 0.000000 0.000000 
0.231837 0.996579 1.212430 1.758340 8.926671 0.349653 0.198424 -2.433141 -22.870953 -3.307428 -0.075376 16.413470 4.583066 13.411494 13.997542 0.000000 0.000000 0.000000 -0.183840 -1.078088 9.499560 2.446811 -0.488122 23.982893 1.928570 -2.471945 19.164638 0.000000 0.000000 0.000000 -6.313328 0.064838 15.145746 7.965487 -1.297249 -23.008005 3.939174 6.166729 29.637326 -3.848497 5.644711 -31.404724 0.000000 0.000000 0.000000 -24.789438 8.268595 -10.452289 -41.336183 5.768357 -7.628942 -125.385438 -30.579519 54.985254 0.000000 0.000000 0.000000 4.335188 1.095113 0.841267 54.801775 2.490299 -5.743881 131.546833 50.321987 110.866187 0.000000 0.000000 0.000000 
0.242524 0.997423 1.300738 0.720416 8.829621 -1.054235 -0.501377 -1.631892 -15.682248 -2.032315 0.055060 5.377161 1.925812 9.918685 15.797477 0.000000 0.000000 0.000000 0.655997 -0.959335 7.978976 2.683924 -0.970879 34.149988 0.928187 -4.584519 20.110149 0.000000 0.000000 0.000000 -6.978411 0.116552 14.748739 7.191837 -1.124233 -22.871284 3.788110 4.461935 30.250184 -2.680804 4.826778 -31.684288 0.000000 0.000000 0.000000 -23.259579 9.562923 -10.087832 -41.557188 6.221805 -8.117295 -126.194017 -31.535074 58.514726 0.000000 0.000000 0.000000 4.480184 -0.522622 0.108481 56.577376 0.988153 -6.745527 127.280816 46.973494 99.285905 0.000000 0.000000 0.000000 
0.253778 0.972999 1.386190 0.152417 8.045611 -4.746207 -1.445842 -1.060998 -10.014913 -1.509984 -0.224810 10.994682 1.904835 8.672693 12.124980 0.000000 0.000000 0.000000 0.509077 -0.449096 3.924327 2.077050 -1.201347 47.975800 -1.540194 -7.864810 14.458322 0.000000 0.000000 0.000000 -8.561655 0.256943 17.514833 8.244216 -1.401516 -23.613903 2.328114 2.405941 32.195377 -1.892674 4.073697 -33.921075 0.000000 0.000000 0.000000 -25.030888 10.096896 -9.966599 -40.490033 3.865217 -7.522938 -126.880327 -36.607324 69.879279 0.000000 0.000000 0.000000 7.241742 0.023061 0.377407 55.444956 0.152316 -7.806720 126.476039 46.606160 95.776959 0.000000 0.000000 0.000000 
0.266156 0.941829 1.467403 -0.049282 8.496084 -7.714453 -2.515730 -0.626029 -5.610525 -1.168474 -0.689079 18.110962 4.350764 9.872642 2.891263 0.000000 0.000000 0.000000 -1.838956 0.229149 -3.069925 2.797571 -2.359732 57.234883 -2.791350 -9.312892 9.517448 0.000000 0.000000 0.000000 -8.998902 0.250014 21.439249 8.716105 -1.529170 -23.948141 0.183161 -0.990787 32.190254 -2.965432 4.072532 -35.667283 0.000000 0.000000 0.000000 -28.402811 8.817136 -8.739001 -39.125613 -1.308358 -6.121072 -124.896487 -42.518933 78.875590 0.000000 0.000000 0.000000 11.824890 -0.730999 -0.211275 53.453386 -1.271287 -8.717325 123.250951 47.348473 89.233161 0.000000 0.000000 0.000000 
0.277926 0.933687 1.548643 -1.255197 8.073854 -8.515241 -0.932675 0.108994 1.232349 -0.785943 -0.764793 17.944179 6.847599 13.158710 -2.014700 0.000000 0.000000 0.000000 -1.961190 0.809831 -10.787594 3.866639 -2.866159 55.656235 -3.212444 -9.235733 5.098389 0.000000 0.000000 0.000000 -7.462304 -0.000508 21.440505 9.580411 -1.807840 -23.660867 -2.661178 -5.003926 32.532487 -3.990716 3.879487 -36.998590 0.000000 0.000000 0.000000 -30.234016 9.331995 -7.843275 -39.531212 -5.783516 -5.404625 -122.062755 -47.287414 84.697534 0.000000 0.000000 0.000000 14.767789 -0.488028 -0.906186 50.582048 -3.004779 -9.055340 120.779023 50.354397 86.092410 0.000000 0.000000 0.000000 
0.287285 0.951014 1.634610 -3.124019 7.487165 -7.912097 0.788399 0.534372 7.756501 0.308705 -0.779553 14.368973 5.260157 11.349520 2.516349 0.000000 0.000000 0.000000 -0.411214 1.374735 -15.519324 3.859499 -1.960222 44.658225 -2.746478 -8.366225 6.302052 0.000000 0.000000 0.000000 -4.450236 -0.388706 18.906500 9.732692 -1.585793 -26.299436 -5.248227 -7.944929 34.617706 -5.468346 4.083706 -35.464313 0.000000 0.000000 0.000000 -28.341777 10.461252 -7.039476 -41.290398 -5.941106 -6.145338 -125.226836 -48.440367 92.832397 0.000000 0.000000 0.000000 13.990489 -2.370917 -2.300973 49.188733 -6.161722 -10.144917 121.365510 48.797972 82.191231 0.000000 0.000000 0.000000 
0.293033 0.973591 1.723142 -3.942983 6.394796 -6.879192 2.760330 0.365305 7.236760 -1.304637 -0.788349 21.911290 3.986120 10.648583 8.116793 0.000000 0.000000 0.000000 3.688140 1.989424 -15.651608 1.747239 -0.221316 31.378129 -2.977705 -9.626322 10.861566 0.000000 0.000000 0.000000 -2.812696 -0.449562 15.452966 10.180305 -1.541324 -27.678906 -6.850913 -8.996137 35.938524 -5.622542 3.871261 -33.261179 0.000000 0.000000 0.000000 -29.548348 13.814785 -9.017213 -41.059271 -3.107645 -7.167955 -126.019080 -44.723106 89.642745 0.000000 0.000000 0.000000 11.477484 -2.008044 -2.078714 52.584010 -8.565280 -12.025203 121.832780 48.188473 81.217604 0.000000 0.000000 0.000000 
0.297012 0.988093 1.809220 -3.521445 6.922925 -7.479220 4.299132 0.002012 1.243180 -3.117462 -1.001387 34.619795 3.610295 10.387338 9.425978 0.000000 0.000000 0.000000 5.667771 1.418708 -9.511001 0.368641 0.320487 23.059786 -0.756513 -6.096453 14.621440 0.000000 0.000000 0.000000 -3.520023 -0.308004 13.125070 7.994824 -1.020432 -27.851194 -4.032018 -8.282370 36.559457 -4.341218 3.379868 -30.553221 0.000000 0.000000 0.000000 -29.437598 13.357522 -9.076712 -40.167819 -1.170904 -7.576985 -124.550357 -42.324825 83.479045 0.000000 0.000000 0.000000 10.156177 -3.556339 -2.408828 55.081244 -10.315879 -13.506759 124.382685 47.759946 85.367541 0.000000 0.000000 0.000000 
0.301584 0.988860 1.890246 -2.866661 7.390345 -8.393819 5.153811 -0.297308 -5.282086 -4.608261 -0.829182 40.977364 5.206713 12.446572 6.931056 0.000000 0.000000 0.000000 6.192677 0.300866 -1.748244 -0.410041 0.531697 19.955509 -1.114075 -6.489403 13.606082 0.000000 0.000000 0.000000 -4.343664 -0.254492 13.557239 7.477938 -0.913776 -27.712543 -2.523213 -5.477224 35.551582 -1.617183 2.381812 -29.736934 0.000000 0.000000 0.000000 -28.175309 13.117468 -9.797513 -39.618869 2.219420 -8.032004 -123.614559 -41.073216 78.176865 0.000000 0.000000 0.000000 10.653345 -4.185274 -2.345204 55.846563 -8.257749 -12.601549 129.201409 47.805865 94.624537 0.000000 0.000000 0.000000 
0.308475 0.988003 1.966473 -2.516042 5.971244 -8.988843 6.386481 -0.432947 -10.129687 -4.833868 -0.123021 33.694870 7.926998 17.273820 9.400844 0.000000 0.000000 0.000000 6.150266 -0.681629 4.356581 -1.428059 0.930457 20.153236 0.009145 -4.007384 11.400397 0.000000 0.000000 0.000000 -5.357087 -0.141330 13.292623 7.128788 -0.892109 -27.245470 0.088153 -0.999566 35.059597 -0.443481 2.459293 -30.613368 0.000000 0.000000 0.000000 -27.702170 13.259115 -11.083456 -38.127617 4.597384 -7.929124 -122.695676 -39.934787 72.784682 0.000000 0.000000 0.000000 9.853272 -3.736346 -1.642951 58.584841 -3.871311 -10.868029 131.676841 49.675146 104.619436 0.000000 0.000000 0.000000 
0.318723 0.993587 2.039903 -3.193366 5.303163 -9.480014 6.895126 -0.413464 -11.126330 -2.392466 -0.177997 15.951618 5.624594 14.540220 14.389914 0.000000 0.000000 0.000000 6.177550 -1.537869 9.469205 -1.297955 0.937014 20.447957 0.857425 -2.666609 12.139797 0.000000 0.000000 0.000000 -5.355616 -0.139446 12.790038 5.701076 -0.568014 -27.280314 3.066065 1.372595 35.233984 -0.278203 2.801017 -31.084501 0.000000 0.000000 0.000000 -25.762563 14.268338 -11.928025 -38.078319 5.670938 -8.016225 -121.789877 -37.677057 66.887815 0.000000 0.000000 0.000000 8.653983 -2.809929 -0.966542 60.102927 2.830136 -7.613490 132.836541 52.011077 112.036048 0.000000 0.000000 0.000000 
0.332486 0.996791 2.112941 -2.888132 3.825062 -10.133575 6.432920 -0.416534 -11.142205 -1.651516 0.133993 1.757447 2.861329 12.379434 24.359045 0.000000 0.000000 0.000000 4.397350 -1.519910 10.480674 0.046451 0.740982 26.617780 3.043291 -0.347237 16.395578 0.000000 0.000000 0.000000 -6.379469 -0.045107 11.624458 5.869254 -0.799150 -24.727588 3.983929 4.318321 33.702732 1.576003 2.133885 -30.635996 0.000000 0.000000 0.000000 -22.985759 14.826412 -12.018687 -40.027943 7.642965 -8.751565 -119.503451 -36.167036 60.848212 0.000000 0.000000 0.000000 6.976337 -0.865581 -0.051426 61.096243 8.016181 -4.405205 134.363528 52.998565 116.753796 0.000000 0.000000 0.000000 
0.347639 0.984435 2.184319 -2.744371 2.829002 -11.818285 5.022660 -0.481243 -10.446554 -1.473953 0.113856 1.913186 1.780585 10.966076 24.812272 0.000000 0.000000 0.000000 1.668769 -0.913457 7.741839 1.609708 0.393945 40.977458 3.779974 0.235402 17.537760 0.000000 0.000000 0.000000 -8.239405 0.104128 13.216184 5.723913 -0.724901 -25.708121 6.182946 3.995279 34.417097 1.313733 2.121031 -30.600518 0.000000 0.000000 0.000000 -22.640795 14.163982 -11.170730 -39.616874 8.320816 -8.990290 -118.212900 -36.373203 60.409693 0.000000 0.000000 0.000000 6.754734 0.597021 0.484772 59.001413 12.184049 -2.492620 137.578437 51.890846 119.575518 0.000000 0.000000 0.000000 
0.361118 0.961483 2.248158 -2.588933 2.668391 -12.724120 4.633607 -0.532499 -10.877721 -2.483884 0.081465 10.312420 3.654314 12.354992 19.546429 0.000000 0.000000 0.000000 -1.102420 -0.153065 1.440328 3.155014 -0.471350 55.252451 2.360514 -2.686780 18.381865 0.000000 0.000000 0.000000 -8.718358 0.157014 14.473019 6.909798 -1.061833 -25.377479 4.417547 3.334566 33.672330 0.835240 2.305584 -32.397996 0.000000 0.000000 0.000000 -23.282013 13.070957 -10.368753 -37.495077 7.578904 -8.353705 -117.410382 -38.474400 63.080033 0.000000 0.000000 0.000000 9.866276 2.379300 1.304789 55.187000 13.702850 -2.152590 139.102851 52.722147 121.267207 0.000000 0.000000 0.000000 
0.371752 0.949801 2.298755 -2.407208 1.811231 -13.773878 5.143234 -0.369601 -9.288009 -3.632955 0.264844 15.635275 4.844787 13.225731 15.589103 0.000000 0.000000 0.000000 -2.332563 0.341182 -4.739691 3.188976 -0.157065 60.106752 -1.652032 -8.614790 14.397197 0.000000 0.000000 0.000000 -8.156912 0.163420 16.853760 6.807989 -1.015406 -25.998934 2.808291 2.142587 34.028658 0.402890 2.330380 -34.925079 0.000000 0.000000 0.000000 -25.675592 9.524184 -8.140868 -36.580483 4.521555 -7.580238 -116.769732 -44.522049 72.201402 0.000000 0.000000 0.000000 12.905537 3.553911 1.738789 54.228192 14.144486 -2.285379 134.411009 54.086852 114.072570 0.000000 0.000000 0.000000 
0.380302 0.959736 2.339912 -2.407279 1.309360 -13.699080 4.944845 -0.197277 -5.734911 -4.222848 0.442755 13.998032 5.767880 14.362383 14.448540 0.000000 0.000000 0.000000 -2.323261 0.732550 -9.652840 3.422077 -0.148829 54.190918 -4.601377 -13.364966 11.226638 0.000000 0.000000 0.000000 -7.163279 0.100560 18.580186 6.139216 -0.775082 -27.049858 1.548734 0.013254 34.221792 -0.925585 2.591000 -35.195348 0.000000 0.000000 0.000000 -26.861706 6.117329 -5.330608 -38.327883 -0.376867 -6.912757 -114.452339 -49.415153 77.931910 0.000000 0.000000 0.000000 14.402358 4.296876 1.727139 53.055634 11.999572 -3.371959 131.880136 54.940406 109.251588 0.000000 0.000000 0.000000 
0.387160 0.974750 2.376379 -2.228638 1.051639 -12.931298 4.131619 -0.051488 -2.117263 -3.851925 0.390235 10.745794 5.321424 13.648464 14.100432 0.000000 0.000000 0.000000 -2.271571 0.995945 -12.822434 3.179548 0.003631 42.041065 -5.060358 -14.115029 10.791742 0.000000 0.000000 0.000000 -6.075966 -0.007376 19.124089 6.180253 -0.736367 -27.637587 -0.299656 -2.477254 34.122128 -1.139908 2.251477 -36.008613 0.000000 0.000000 0.000000 -28.863117 4.640756 -3.685650 -39.506163 -5.523655 -5.912455 -116.304352 -52.193498 85.272875 0.000000 0.000000 0.000000 14.368294 3.735443 0.956174 52.076740 8.877120 -4.637079 129.946466 52.481287 100.927316 0.000000 0.000000 0.000000 
0.391608 0.987127 2.411942 -2.103871 1.787342 -12.713925 3.086029 0.141684 1.615131 -2.805007 0.215722 7.270911 4.763082 12.909251 14.144704 0.000000 0.000000 0.000000 -2.676232 0.912624 -12.517363 3.222557 -0.191680 27.368674 -3.931025 -12.302370 13.256117 0.000000 0.000000 0.000000 -5.156423 -0.151527 19.525774 6.334595 -0.711939 -28.330246 -1.944239 -5.137409 34.537363 -2.525678 2.556261 -36.251747 0.000000 0.000000 0.000000 -28.605284 2.745861 -1.545588 -41.596874 -11.700042 -4.535066 -121.734016 -53.882603 95.901200 0.000000 0.000000 0.000000 13.289439 2.835372 0.204655 50.581782 5.147823 -6.081241 130.271278 49.893915 95.747016 0.000000 0.000000 0.000000 
0.393085 0.990632 2.448032 -1.609143 2.077204 -11.634443 2.324379 0.348744 4.784908 -2.217208 0.168424 4.329704 4.629312 12.618666 13.484975 0.000000 0.000000 0.000000 -1.816723 0.966686 -11.876224 2.181611 0.025701 16.626429 -2.542947 -10.320983 16.172923 0.000000 0.000000 0.000000 -4.561743 -0.216244 18.699159 6.579220 -0.791974 -27.813478 -3.740080 -7.300556 33.522896 -2.653384 2.266180 -36.065563 0.000000 0.000000 0.000000 -28.714583 1.650685 -0.167284 -43.084457 -16.415345 -3.092327 -129.089816 -55.743810 109.250532 0.000000 0.000000 0.000000 13.011485 2.274615 -0.432763 48.163481 2.057065 -6.767627 133.606112 48.019509 95.287738 0.000000 0.000000 0.000000 
0.391098 0.989185 2.485774 -1.081846 2.677930 -11.309158 2.156478 0.562848 8.050567 -1.618150 0.120219 2.502601 4.587062 12.623330 13.586822 0.000000 0.000000 0.000000 -1.169301 0.791549 -9.068775 1.255752 0.132379 11.163516 -0.695110 -7.628363 18.550697 0.000000 0.000000 0.000000 -3.736575 -0.309021 17.244892 6.179894 -0.729594 -27.215426 -4.485276 -9.219274 33.143982 -3.430229 2.392179 -36.472073 0.000000 0.000000 0.000000 -28.097330 -0.396794 1.753196 -44.503295 -21.093502 -1.524736 -136.985771 -56.521689 123.041983 0.000000 0.000000 0.000000 13.092497 2.009993 -0.854783 46.684528 1.078773 -6.797299 134.692899 48.635234 96.035131 0.000000 0.000000 0.000000 
0.386245 0.983523 2.522825 -0.671161 3.661909 -11.486806 2.526891 0.672364 10.571644 -1.554038 0.104449 2.640005 4.293623 12.035100 12.416945 0.000000 0.000000 0.000000 -1.094516 0.500008 -5.746687 0.527034 0.239227 9.923078 -0.766388 -7.542045 18.307926 0.000000 0.000000 0.000000 -3.298282 -0.343326 15.529166 5.802266 -0.681787 -26.332611 -5.277876 -10.875438 33.005930 -3.924097 2.423990 -35.070039 0.000000 0.000000 0.000000 -27.862393 -1.429125 2.781465 -45.337906 -24.078300 -0.377090 -142.476168 -56.476458 132.410594 0.000000 0.000000 0.000000 12.772289 2.360364 -0.845017 47.753527 0.318781 -7.193534 136.175163 48.536625 97.351277 0.000000 0.000000 0.000000 
0.379596 0.979320 2.555023 -0.630437 4.030349 -11.303761 3.443830 0.628997 11.590345 -1.912790 0.100317 4.756514 4.441978 11.685021 9.546356 0.000000 0.000000 0.000000 -0.565200 0.355396 -3.851480 0.401008 0.285554 10.884953 -1.998902 -8.987803 15.403323 0.000000 0.000000 0.000000 -2.198255 -0.432456 14.490623 5.327521 -0.588986 -25.813987 -5.351434 -11.512347 32.864014 -4.121340 2.475128 -35.584773 0.000000 0.000000 0.000000 -27.799808 -1.701518 3.076245 -45.763317 -24.757402 -0.085789 -143.391642 -56.721175 134.452989 0.000000 0.000000 0.000000 13.404689 2.043361 -1.165265 46.896892 0.551466 -6.890690 137.543692 48.945129 99.539510 0.000000 0.000000 0.000000 
0.373383 0.980174 2.579630 -0.757061 3.767452 -11.238069 4.609869 0.481404 10.561625 -2.626347 0.118787 9.219889 5.385968 13.104229 9.057442 0.000000 0.000000 0.000000 -0.158892 0.192491 -2.003885 0.335802 0.296660 10.615491 -2.135432 -8.862971 13.323407 0.000000 0.000000 0.000000 -0.571815 -0.571585 14.152242 5.464117 -0.621536 -25.855433 -5.323414 -10.653489 32.422655 -4.456466 2.772063 -34.800563 0.000000 0.000000 0.000000 -27.038192 -2.026914 2.938593 -46.437233 -23.069804 -0.534419 -141.966276 -56.654402 131.736351 0.000000 0.000000 0.000000 14.796633 2.429626 -1.057254 47.452101 1.872651 -6.407999 136.769783 50.493561 101.307504 0.000000 0.000000 0.000000 
0.369304 0.982910 2.596943 -0.312675 3.309874 -9.931963 5.046123 0.322625 7.284591 -3.868335 0.290133 14.974538 6.701136 15.089820 8.331324 0.000000 0.000000 0.000000 -0.208392 0.081376 -0.879578 0.587950 0.224680 9.628275 -1.955068 -8.362061 12.201386 0.000000 0.000000 0.000000 0.577924 -0.653643 13.751453 5.109707 -0.565574 -25.343120 -4.378179 -9.777918 30.905944 -4.282095 2.811400 -34.795651 0.000000 0.000000 0.000000 -27.538422 -1.372681 2.233806 -46.746135 -19.087014 -1.896121 -136.773631 -55.779008 122.106791 0.000000 0.000000 0.000000 15.722885 3.613566 -0.516558 47.487921 4.993207 -5.084681 136.756259 52.885367 104.886783 0.000000 0.000000 0.000000 
0.367262 0.987381 2.609961 0.322833 2.301788 -8.864270 5.160321 0.177871 3.617776 -4.861985 0.552632 20.688088 6.939443 15.293550 7.192382 0.000000 0.000000 0.000000 -1.476383 -0.005269 -0.020181 1.608557 0.006333 8.211713 -1.002753 -6.932132 13.011783 0.000000 0.000000 0.000000 0.929082 -0.680552 13.922369 4.883180 -0.497432 -25.620909 -3.345773 -8.063414 30.154761 -3.768890 2.720896 -33.884659 0.000000 0.000000 0.000000 -28.107158 -0.860027 1.469985 -45.547146 -14.596429 -3.437414 -129.556172 -54.583771 108.924972 0.000000 0.000000 0.000000 17.005799 4.805306 0.153655 47.953939 7.446820 -4.159118 133.701550 55.440203 104.673167 0.000000 0.000000 0.000000 
0.367070 0.990661 2.621379 0.604313 1.321912 -7.163977 5.758352 0.047267 0.833677 -5.975987 0.981570 23.515255 7.574476 16.409368 7.969656 0.000000 0.000000 0.000000 -2.130170 -0.011721 0.205033 2.679194 -0.195043 6.983554 -0.597320 -6.562351 13.877636 0.000000 0.000000 0.000000 1.373257 -0.643099 12.571136 5.192320 -0.641592 -24.704854 -2.643246 -6.476294 28.449726 -4.477945 3.260837 -33.127800 0.000000 0.000000 0.000000 -29.579265 1.040971 -0.276654 -44.354975 -8.395171 -5.321064 -123.675957 -51.892182 96.322567 0.000000 0.000000 0.000000 17.169054 6.001507 0.921679 48.568326 9.170699 -3.390968 129.171149 57.802790 101.972142 0.000000 0.000000 0.000000 
0.368193 0.992073 2.632259 1.036884 0.831082 -6.104071 5.576893 0.023611 0.385077 -5.281701 0.782738 20.705636 7.450073 16.220042 8.261766 0.000000 0.000000 0.000000 -2.822250 -0.010866 0.381096 2.972724 -0.239845 6.793581 0.118248 -5.376307 14.037612 0.000000 0.000000 0.000000 1.515012 -0.570418 11.053184 4.917641 -0.582533 -24.510623 -2.068571 -4.552837 28.290979 -4.205321 3.379221 -32.538998 0.000000 0.000000 0.000000 -28.951467 2.610200 -1.917528 -44.140673 -3.598007 -6.692440 -119.286236 -49.222576 86.303019 0.000000 0.000000 0.000000 16.966799 5.424728 1.011272 49.346060 10.176799 -3.099348 124.881232 58.488335 98.477257 0.000000 0.000000 0.000000 
0.370514 0.991063 2.642727 1.250554 1.158608 -5.945931 5.384864 0.081469 1.849405 -4.240476 0.470375 14.165240 6.097992 14.154791 9.392378 0.000000 0.000000 0.000000 -3.198404 -0.128071 2.046604 2.969020 -0.261824 5.283698 0.468312 -4.612291 13.796942 0.000000 0.000000 0.000000 1.298170 -0.534821 10.662030 4.937725 -0.570682 -24.672798 -1.869650 -3.332740 28.549426 -1.580643 2.244186 -32.309823 0.000000 0.000000 0.000000 -28.060440 3.526597 -2.978863 -44.941712 -0.107326 -7.809428 -115.365190 -47.831675 79.140284 0.000000 0.000000 0.000000 16.759597 4.347323 0.806521 50.885641 11.212604 -2.809123 121.525452 58.842533 95.954277 0.000000 0.000000 0.000000 
0.373759 0.988212 2.652923 0.759307 2.604079 -6.182495 5.035544 0.159010 3.889079 -2.854916 0.193718 8.543043 4.745318 12.038384 9.435123 0.000000 0.000000 0.000000 -3.223866 -0.272434 3.770029 3.281952 -0.345062 3.351782 -0.041068 -5.586168 14.647337 0.000000 0.000000 0.000000 0.570943 -0.492370 10.705672 5.244528 -0.607079 -24.955633 -1.735230 -3.563513 28.702093 -0.603149 1.801959 -31.454216 0.000000 0.000000 0.000000 -28.475802 4.061974 -3.645861 -44.837634 1.537453 -8.287349 -110.188669 -47.428687 72.448896 0.000000 0.000000 0.000000 17.562357 4.452570 1.000538 50.901472 10.276318 -3.241552 118.088956 59.758272 93.428806 0.000000 0.000000 0.000000 
0.378082 0.984186 2.661860 -0.191003 3.339686 -5.811120 5.576464 0.179152 5.629763 -2.592607 0.208728 4.345708 4.125443 11.053057 9.358099 0.000000 0.000000 0.000000 -2.509489 -0.353106 4.352401 3.338513 -0.366519 2.631336 -0.317715 -5.762808 13.937512 0.000000 0.000000 0.000000 0.482687 -0.436123 9.490774 5.306912 -0.647952 -24.352425 -1.291642 -3.145710 28.562446 -0.058803 1.636590 -30.880862 0.000000 0.000000 0.000000 -28.803049 3.838930 -3.907939 -44.651105 2.784411 -8.575461 -105.464587 -48.695830 68.590223 0.000000 0.000000 0.000000 18.459889 3.758625 0.840846 51.112000 8.782109 -3.913940 113.051751 61.770508 90.612368 0.000000 0.000000 0.000000 
0.383391 0.980833 2.668366 -0.839560 3.816952 -5.477594 5.911827 0.210533 7.908047 -2.292284 0.230028 0.463218 3.886602 10.883869 10.187171 0.000000 0.000000 0.000000 -1.799604 -0.414917 4.675921 3.099989 -0.341740 2.168479 -1.108994 -7.015792 13.433497 0.000000 0.000000 0.000000 0.302770 -0.391750 8.717112 5.475378 -0.662505 -24.617113 -1.457271 -3.492495 29.195768 0.348531 1.431944 -31.356510 0.000000 0.000000 0.000000 -28.606270 4.559681 -4.337433 -44.700889 3.133482 -8.756147 -101.735053 -49.147696 65.565616 0.000000 0.000000 0.000000 19.095921 2.887925 0.364075 50.686994 7.604719 -4.435631 109.666068 63.065513 88.324871 0.000000 0.000000 0.000000 
0.389622 0.977524 2.672113 -1.327107 4.026569 -5.393624 6.012016 0.234696 9.471529 -2.184746 0.252683 -1.801696 3.888738 10.967970 10.487470 0.000000 0.000000 0.000000 -1.349576 -0.466673 4.988247 2.828571 -0.307834 2.032687 -1.156816 -7.059674 13.405123 0.000000 0.000000 0.000000 -0.033771 -0.370163 8.656008 5.696541 -0.704847 -24.768580 -1.604433 -3.765424 29.183408 0.478880 1.366606 -31.797628 0.000000 0.000000 0.000000 -28.688806 4.871709 -4.519825 -44.322455 2.794393 -8.577976 -97.892245 -49.970738 62.923129 0.000000 0.000000 0.000000 19.692627 2.658488 0.169902 50.837529 6.508031 -4.870689 106.263017 63.974624 85.556222 0.000000 0.000000 0.000000 
0.396438 0.976078 2.673547 -1.706413 4.101801 -5.355261 5.888590 0.266655 10.451623 -2.086624 0.265175 -3.278089 3.554950 10.436837 10.490267 0.000000 0.000000 0.000000 -1.237793 -0.476128 5.019957 2.659251 -0.284083 2.126043 -1.815079 -8.269526 13.410974 0.000000 0.000000 0.000000 -0.308833 -0.359689 8.784338 5.849205 -0.729321 -24.917143 -1.628911 -3.810683 29.316058 0.964983 1.117424 -31.866959 0.000000 0.000000 0.000000 -28.709065 4.811901 -4.488782 -44.148306 1.671220 -8.178416 -94.250663 -51.142420 60.942556 0.000000 0.000000 0.000000 20.165876 2.246826 -0.082935 50.811532 5.807019 -5.156043 104.026244 64.511474 83.772615 0.000000 0.000000 0.000000 
0.403717 0.974802 2.673641 -1.932107 4.030796 -5.025067 5.713849 0.292938 10.862837 -2.182469 0.285590 -4.364734 3.737636 10.740168 10.577400 0.000000 0.000000 0.000000 -1.269230 -0.430047 4.570210 2.317909 -0.229024 2.602271 -2.206873 -8.880780 12.813719 0.000000 0.000000 0.000000 -0.593511 -0.334140 8.614448 5.987843 -0.787772 -24.576094 -1.666294 -3.975766 28.809283 0.880047 1.151591 -32.099952 0.000000 0.000000 0.000000 -28.677222 4.845993 -4.461153 -44.091207 1.044804 -7.922930 -90.281288 -52.262010 58.706641 0.000000 0.000000 0.000000 20.170443 2.006032 -0.300113 50.788837 4.641415 -5.540856 101.145540 64.996992 81.061281 0.000000 0.000000 0.000000 
0.411189 0.973749 2.673151 -1.949283 3.948795 -4.920358 5.383392 0.336675 11.080015 -2.284295 0.301545 -5.217522 3.868277 10.976913 10.734682 0.000000 0.000000 0.000000 -1.403569 -0.450540 4.855806 2.101539 -0.202496 2.336784 -2.469075 -9.357138 12.673707 0.000000 0.000000 0.000000 -0.786742 -0.327324 8.768640 5.831720 -0.730534 -24.850895 -1.618964 -3.986282 28.734195 0.931229 1.089884 -31.663374 0.000000 0.000000 0.000000 -28.918571 4.554385 -4.282694 -44.109733 0.265245 -7.660636 -85.830798 -53.726858 56.473335 0.000000 0.000000 0.000000 20.451992 1.347865 -0.712758 50.808884 3.739945 -5.884627 95.697756 64.807931 75.291757 0.000000 0.000000 0.000000 
0.418682 0.972821 2.672508 -1.917308 3.757625 -4.835539 4.803064 0.416507 11.356748 -2.166675 0.303874 -5.894868 4.194072 11.565670 11.136482 0.000000 0.000000 0.000000 -1.845458 -0.463333 5.240438 1.986415 -0.193159 1.922180 -2.417565 -9.206859 12.259305 0.000000 0.000000 0.000000 -0.908978 -0.310773 8.578936 5.620098 -0.706964 -24.504673 -1.733823 -4.061819 28.325711 0.730685 1.173412 -31.674119 0.000000 0.000000 0.000000 -28.816209 4.811001 -4.390215 -44.454219 -0.000864 -7.598198 -80.828612 -54.221134 52.953121 0.000000 0.000000 0.000000 20.312983 1.185962 -0.868408 51.458885 2.786747 -6.270604 89.532137 65.047155 69.488623 0.000000 0.000000 0.000000 
0.425817 0.971694 2.671762 -1.785014 3.842560 -4.731512 4.354227 0.468675 11.488218 -2.308412 0.313646 -6.222513 4.436113 11.975402 11.267384 0.000000 0.000000 0.000000 -2.214368 -0.451799 5.314282 2.001932 -0.196150 1.887377 -2.711914 -9.693309 11.924842 0.000000 0.000000 0.000000 -0.977432 -0.304514 8.551728 5.614767 -0.699102 -24.525359 -1.882486 -4.140157 28.155988 0.539507 1.259163 -31.497948 0.000000 0.000000 0.000000 -29.155018 4.849137 -4.458294 -44.307309 0.290498 -7.655917 -77.851912 -54.709806 51.037470 0.000000 0.000000 0.000000 20.473517 1.095734 -0.949556 51.437355 1.906726 -6.597509 82.829513 64.783993 63.016478 0.000000 0.000000 0.000000 
0.432170 0.970202 2.670875 -1.558914 3.826256 -4.745743 3.776072 0.542268 11.631108 -2.271810 0.317376 -6.747964 4.125855 11.600464 11.805675 0.000000 0.000000 0.000000 -2.714338 -0.476210 5.903477 1.980551 -0.206677 1.191887 -2.884035 -10.040286 11.976075 0.000000 0.000000 0.000000 -0.868254 -0.304073 8.370620 5.295551 -0.653493 -24.038271 -2.134595 -3.809463 27.696865 0.328204 1.418923 -31.224670 0.000000 0.000000 0.000000 -29.212707 4.726048 -4.536238 -44.208869 0.997552 -7.784651 -72.171558 -54.827659 46.621357 0.000000 0.000000 0.000000 21.016817 1.239157 -0.841939 51.495442 1.177150 -6.855023 73.070890 64.643321 54.574541 0.000000 0.000000 0.000000 
0.437306 0.969045 2.669879 -1.515644 4.181083 -4.621237 3.706230 0.545042 11.796993 -2.585320 0.330138 -7.177272 4.225820 11.758950 11.721374 0.000000 0.000000 0.000000 -2.821627 -0.467608 5.821113 1.921385 -0.200496 1.203406 -3.180102 -10.533773 11.802865 0.000000 0.000000 0.000000 -0.825791 -0.294107 8.028777 5.055973 -0.592077 -23.886682 -2.126037 -3.659878 27.466024 0.236735 1.514000 -30.924452 0.000000 0.000000 0.000000 -29.238502 4.507491 -4.552253 -43.924000 1.810259 -7.940687 -64.279979 -54.520214 40.530847 0.000000 0.000000 0.000000 21.503351 1.385814 -0.691005 50.918452 0.794053 -6.929236 60.817787 63.505003 43.952781 0.000000 0.000000 0.000000 
0.440955 0.967990 2.668913 -1.514088 4.386347 -4.628581 3.378681 0.581047 11.909091 -2.649745 0.332161 -7.552990 4.104283 11.592880 11.773074 0.000000 0.000000 0.000000 -2.803537 -0.509955 6.273408 1.763158 -0.189228 0.824895 -3.391946 -10.908808 11.739537 0.000000 0.000000 0.000000 -0.700784 -0.298264 7.921269 5.028904 -0.601227 -23.565178 -2.398610 -3.233200 27.198480 0.197903 1.626980 -30.799116 0.000000 0.000000 0.000000 -29.816865 4.335473 -4.766568 -43.607231 2.723150 -8.085691 -52.497977 -52.203178 31.003243 0.000000 0.000000 0.000000 22.026211 1.817586 -0.318556 50.487357 0.592678 -6.954758 46.762118 60.270796 31.793755 0.000000 0.000000 0.000000 
0.443089 0.967277 2.668031 -1.493802 4.696877 -4.602056 3.331506 0.569881 11.773927 -2.760283 0.332831 -7.605959 4.122727 11.568264 11.432852 0.000000 0.000000 0.000000 -2.473538 -0.545261 6.412282 1.528583 -0.167635 0.543365 -3.630694 -11.331902 11.744152 0.000000 0.000000 0.000000 -0.700948 -0.283925 7.545221 4.843164 -0.548936 -23.537062 -2.380100 -2.828662 27.344527 0.478091 1.552218 -30.334083 0.000000 0.000000 0.000000 -30.361283 3.397417 -4.448025 -43.584956 2.991266 -8.115336 -38.801558 -46.619298 20.203581 0.000000 0.000000 0.000000 22.428255 2.551174 0.289250 50.278839 0.589580 -6.991428 34.556536 55.121699 21.612438 0.000000 0.000000 0.000000 
0.444063 0.966576 2.667287 -1.645371 4.831047 -4.476406 3.376498 0.553285 11.666727 -2.546140 0.324189 -7.626260 3.960383 11.395176 11.748895 0.000000 0.000000 0.000000 -2.029185 -0.599715 6.704639 1.379938 -0.166498 -0.114070 -3.660982 -11.357753 11.620795 0.000000 0.000000 0.000000 -0.516452 -0.289925 7.422846 4.892282 -0.542431 -23.788099 -2.659063 -2.566600 27.559370 0.100918 1.837689 -30.825781 0.000000 0.000000 0.000000 -31.140977 3.150881 -4.537039 -43.818406 3.154939 -8.185399 -28.666836 -38.681725 12.439633 0.000000 0.000000 0.000000 22.833591 3.207504 0.791112 50.545945 1.317102 -6.791149 24.056549 47.347657 13.198255 0.000000 0.000000 0.000000 
0.444295 0.965819 2.666641 -1.567120 4.786381 -4.628906 3.308043 0.569237 11.772294 -2.488889 0.324484 -7.908922 3.792496 11.135899 11.762847 0.000000 0.000000 0.000000 -1.920427 -0.665796 7.334855 1.494272 -0.196707 -0.777689 -3.807758 -11.708895 12.047516 0.000000 0.000000 0.000000 -0.594097 -0.282479 7.357530 4.444061 -0.435811 -23.671960 -2.428573 -2.500166 27.753845 -0.208893 2.001330 -30.749819 0.000000 0.000000 0.000000 -31.785391 2.751276 -4.356427 -44.574009 3.515674 -8.464621 -21.936844 -31.260615 7.856666 0.000000 0.000000 0.000000 23.045154 4.241896 1.417453 51.254819 1.641951 -6.772108 16.541718 40.847882 8.211022 0.000000 0.000000 0.000000 
0.444120 0.965418 2.665869 -1.571198 4.713426 -4.831400 3.328068 0.589474 12.180014 -2.285517 0.322182 -8.336129 3.342478 10.680369 12.809537 0.000000 0.000000 0.000000 -1.706285 -0.764749 8.209623 1.403790 -0.203889 -1.433937 -3.677830 -11.538071 12.476574 0.000000 0.000000 0.000000 -0.693077 -0.279556 7.422118 4.468584 -0.448278 -23.603042 -2.516517 -2.110834 27.934982 -0.582661 2.271906 -31.108812 0.000000 0.000000 0.000000 -32.267195 2.573034 -4.447222 -45.074307 3.898244 -8.662976 -16.990464 -25.480646 5.115918 0.000000 0.000000 0.000000 23.516577 4.349257 1.584207 51.535577 2.322952 -6.572361 11.480273 34.661420 5.207739 0.000000 0.000000 0.000000 
0.443621 0.965012 2.664518 -1.515149 4.621401 -4.992826 3.260274 0.607069 12.277062 -1.970823 0.315342 -8.391954 3.275247 10.518021 12.581836 0.000000 0.000000 0.000000 -1.677388 -0.792959 8.489905 1.599589 -0.228087 -1.579260 -3.888056 -11.953458 12.523535 0.000000 0.000000 0.000000 -0.865291 -0.265048 7.294032 4.393173 -0.435182 -23.585975 -2.442738 -1.923305 28.496079 -0.400585 2.218131 -31.674565 0.000000 0.000000 0.000000 -32.286687 2.348620 -4.313409 -45.971052 4.250093 -9.005896 -14.130758 -21.686620 3.745600 0.000000 0.000000 0.000000 23.285957 5.308270 2.214807 51.971418 3.026674 -6.397328 8.610422 30.569951 3.721895 0.000000 0.000000 0.000000 
0.442932 0.964662 2.662609 -1.470784 4.666803 -5.069123 3.446910 0.574386 12.063386 -2.486113 0.330589 -8.824002 3.687132 11.317374 13.321819 0.000000 0.000000 0.000000 -1.582289 -0.823949 8.720432 1.617479 -0.241842 -2.040567 -3.614683 -11.472544 12.770254 0.000000 0.000000 0.000000 -0.958937 -0.266036 7.451720 4.377841 -0.437314 -23.426141 -2.617477 -1.657175 28.430945 -0.278842 2.192098 -31.403339 0.000000 0.000000 0.000000 -31.979115 2.280120 -4.349581 -46.294289 4.061091 -8.961490 -13.062976 -19.953554 3.224637 0.000000 0.000000 0.000000 23.127470 5.489922 2.411482 52.161763 3.420742 -6.259022 7.868394 28.289881 3.215629 0.000000 0.000000 0.000000 
0.442148 0.964049 2.660322 -1.414603 5.151077 -5.194076 3.843454 0.503557 11.845798 -3.007705 0.336307 -8.843351 3.494655 11.029933 13.146986 0.000000 0.000000 0.000000 -1.514564 -0.838926 8.728260 2.002658 -0.281809 -1.988467 -3.867136 -11.838721 12.310949 0.000000 0.000000 0.000000 -1.163346 -0.253897 7.375213 4.098924 -0.350132 -23.544061 -2.467224 -2.065177 28.991468 -0.417758 2.263350 -31.960997 0.000000 0.000000 0.000000 -32.090404 1.853747 -3.987607 -45.762921 3.419975 -8.710924 -13.284002 -19.613295 3.205538 0.000000 0.000000 0.000000 22.600104 5.768887 2.562614 52.573146 2.997676 -6.526719 7.707072 27.496593 3.067374 0.000000 0.000000 0.000000 
0.441272 0.963179 2.658243 -1.317095 4.681242 -4.666997 4.082696 0.467621 11.332823 -3.405138 0.349245 -9.140043 3.897087 11.726706 13.770831 0.000000 0.000000 0.000000 -1.825687 -0.758090 8.255986 2.485507 -0.335938 -2.391289 -3.847939 -11.811652 12.059981 0.000000 0.000000 0.000000 -1.190366 -0.231454 6.878537 3.643081 -0.254567 -23.278611 -2.046896 -1.880732 28.853225 -0.761772 2.369014 -30.548384 0.000000 0.000000 0.000000 -31.940673 1.692405 -3.810520 -45.747257 2.644726 -8.433388 -12.882097 -19.215734 3.066786 0.000000 0.000000 0.000000 22.958029 5.618288 2.427790 51.933129 3.027704 -6.415728 7.307394 27.353256 2.940720 0.000000 0.000000 0.000000 
0.440445 0.962771 2.656570 -1.526572 4.175510 -4.527892 4.567469 0.410431 10.874406 -4.072660 0.369781 -9.089176 4.631327 12.707220 13.378178 0.000000 0.000000 0.000000 -1.517774 -0.707888 7.590810 2.499374 -0.324911 -1.843643 -4.016414 -12.093088 11.454017 0.000000 0.000000 0.000000 -1.218276 -0.225505 6.783512 3.371224 -0.197799 -23.192874 -1.343886 -1.520548 28.541366 -0.057087 1.971001 -29.843702 0.000000 0.000000 0.000000 -31.870004 1.313598 -3.556701 -45.521915 1.791503 -8.074255 -14.702880 -20.116311 3.546444 0.000000 0.000000 0.000000 21.660477 5.220861 2.205174 53.051375 3.079555 -6.482221 7.208193 26.103737 2.774012 0.000000 0.000000 0.000000 
0.439705 0.964146 2.655371 -1.718442 4.974351 -5.076421 5.601984 0.288981 11.432064 -5.496769 0.368189 -9.663102 4.445271 12.716242 14.543649 0.000000 0.000000 0.000000 -1.188414 -0.851534 8.626456 2.414408 -0.341119 -2.911682 -3.815250 -11.830578 12.887359 0.000000 0.000000 0.000000 -1.482647 -0.224185 6.984331 3.987315 -0.367420 -22.742969 -1.480405 -1.727130 28.456374 0.924002 1.394637 -28.443838 0.000000 0.000000 0.000000 -31.803695 0.885478 -3.379341 -44.937705 1.026201 -7.680374 -14.613845 -21.316444 3.735397 0.000000 0.000000 0.000000 22.434140 4.607419 1.943594 51.920981 3.729315 -6.145618 7.119233 25.655806 2.703427 0.000000 0.000000 0.000000 
