HIERARCHY
ROOT Hips
{
	OFFSET -0.001795 -0.223333 0.028219
	CHANNELS 6 Xposition Yposition Zposition Zrotation Yrotation Xrotation 
	JOINT LeftUpLeg
	{
		OFFSET 0.069520 -0.091406 -0.006815
		CHANNELS 3 Zrotation Yrotation Xrotation
		JOINT LeftLeg
		{
			OFFSET 0.034277 -0.375199 -0.004496
			CHANNELS 3 Zrotation Yrotation Xrotation
			JOINT LeftFoot
			{
				OFFSET -0.013596 -0.397961 -0.043693
				CHANNELS 3 Zrotation Yrotation Xrotation
				JOINT LeftToe
				{
					OFFSET 0.026358 -0.055791 0.119288
					CHANNELS 3 Zrotation Yrotation Xrotation
					End Site
					{
						OFFSET 0.000000 0.000000 0.000000
					}
				}
			}
		}
	}
	JOINT RightUpLeg
	{
		OFFSET -0.067670 -0.090522 -0.004320
		CHANNELS 3 Zrotation Yrotation Xrotation
		JOINT RightLeg
		{
			OFFSET -0.038290 -0.382569 -0.008850
			CHANNELS 3 Zrotation Yrotation Xrotation
			JOINT RightFoot
			{
				OFFSET 0.015774 -0.398415 -0.042312
				CHANNELS 3 Zrotation Yrotation Xrotation
				JOINT RightToe
				{
					OFFSET -0.025372 -0.048144 0.123348
					CHANNELS 3 Zrotation Yrotation Xrotation
					End Site
					{
						OFFSET 0.000000 0.000000 0.000000
					}
				}
			}
		}
	}
	JOINT Spine
	{
		OFFSET -0.002533 0.108963 -0.026696
		CHANNELS 3 Zrotation Yrotation Xrotation
		JOINT Spine1
		{
			OFFSET 0.005487 0.135180 0.001092
			CHANNELS 3 Zrotation Yrotation Xrotation
			JOINT Spine2
			{
				OFFSET 0.001457 0.052922 0.025425
				CHANNELS 3 Zrotation Yrotation Xrotation
				JOINT Neck
				{
					OFFSET -0.002778 0.213870 -0.042857
					CHANNELS 3 Zrotation Yrotation Xrotation
					JOINT Head
					{
						OFFSET 0.005152 0.064970 0.051349
						CHANNELS 3 Zrotation Yrotation Xrotation
						End Site
						{
							OFFSET 0.000000 0.000000 0.000000
						}
					}
				}
				JOINT LeftShoulder
				{
					OFFSET 0.078845 0.121749 -0.034090
					CHANNELS 3 Zrotation Yrotation Xrotation
					JOINT LeftArm
					{
						OFFSET 0.090977 0.030469 -0.008868
						CHANNELS 3 Zrotation Yrotation Xrotation
						JOINT LeftForeArm
						{
							OFFSET 0.259612 -0.012772 -0.027456
							CHANNELS 3 Zrotation Yrotation Xrotation
							JOINT LeftHand
							{
								OFFSET 0.249234 0.008986 -0.001171
								CHANNELS 3 Zrotation Yrotation Xrotation
								End Site
								{
									OFFSET 0.000000 0.000000 0.000000
								}
							}
						}
					}
				}
				JOINT RightShoulder
				{
					OFFSET -0.081759 0.118833 -0.038615
					CHANNELS 3 Zrotation Yrotation Xrotation
					JOINT RightArm
					{
						OFFSET -0.096012 0.032551 -0.009143
						CHANNELS 3 Zrotation Yrotation Xrotation
						JOINT RightForeArm
						{
							OFFSET -0.253742 -0.013329 -0.021401
							CHANNELS 3 Zrotation Yrotation Xrotation
							JOINT RightHand
							{
								OFFSET -0.255298 0.007772 -0.005559
								CHANNELS 3 Zrotation Yrotation Xrotation
								End Site
								{
									OFFSET 0.000000 0.000000 0.000000
								}
							}
						}
					}
				}
			}
		}
	}
}
MOTION
Frames: 100
Frame Time: 0.050000
0.000000 0.983062 0.000000 -8.723380 -24.474971 7.440242 5.478977 0.144596 -13.967990 2.622815 0.172569 21.763346 0.371660 3.171068 18.578048 0.000000 0.000000 0.000000 -3.533391 0.537034 -4.000759 10.481792 8.851017 77.302232 -0.713172 -6.581510 10.899862 0.000000 0.000000 0.000000 -8.381148 3.234324 28.952135 3.949204 2.314174 -49.464745 4.034154 11.064717 33.439655 8.783784 -4.666335 -23.585571 0.000000 0.000000 0.000000 -24.924611 -4.186758 2.616685 -42.363283 -10.926547 -4.843625 -0.291493 -40.712448 2.910338 0.000000 0.000000 0.000000 29.502292 3.547060 -0.351143 53.707899 15.256231 -1.780684 7.035003 49.722415 6.275401 0.000000 0.000000 0.000000 
-0.008246 0.989417 0.010264 -10.263268 -23.741977 6.862503 8.348250 0.556227 -11.907393 1.528128 0.466621 21.716518 -1.236525 0.352658 15.041493 0.000000 0.000000 0.000000 -3.736382 0.949433 -8.868380 12.311962 8.337312 86.115330 0.117906 -6.239551 16.065473 0.000000 0.000000 0.000000 -8.236215 3.117286 29.255452 7.995147 2.490746 -50.107642 1.926443 13.901566 34.473949 10.392897 -4.794746 -26.326178 0.000000 0.000000 0.000000 -25.723554 -4.052353 1.511056 -40.851182 -8.439952 -5.475765 -2.714353 -39.917742 3.375675 0.000000 0.000000 0.000000 32.730374 2.165044 -0.139078 51.107765 13.869584 -2.972027 10.177036 47.606141 7.669684 0.000000 0.000000 0.000000 
-0.017734 0.993102 0.020606 -10.549823 -21.552830 5.483224 8.572935 0.403830 -8.507483 1.607349 0.213758 20.939892 -0.372122 1.662652 13.312912 0.000000 0.000000 0.000000 -3.987913 0.934526 -8.927832 11.050720 7.746199 83.695752 -2.624030 -9.908340 11.277331 0.000000 0.000000 0.000000 -5.623467 1.975045 28.979283 3.598334 1.490740 -45.921960 3.031403 13.532002 29.953769 10.341126 -5.102792 -22.801334 0.000000 0.000000 0.000000 -27.199463 -5.546634 1.953052 -38.581699 -8.605599 -4.576719 -3.895389 -36.582157 3.173809 0.000000 0.000000 0.000000 32.742285 0.475382 -1.349354 49.070348 10.632614 -3.642947 12.467918 49.054040 8.724467 0.000000 0.000000 0.000000 
-0.028610 0.996833 0.030028 -10.628978 -22.377204 5.093617 9.560431 0.526442 -6.531192 2.123536 0.112062 21.232606 -1.546109 -0.258363 13.537855 0.000000 0.000000 0.000000 -5.612301 1.225113 -11.933798 7.331630 10.654315 78.055773 -1.338828 -7.572034 10.354046 0.000000 0.000000 0.000000 -5.739818 2.051629 28.977657 4.356519 1.987579 -49.051328 1.904462 13.119669 32.682183 12.491947 -6.580812 -24.283375 0.000000 0.000000 0.000000 -25.916690 -3.837807 1.324916 -40.113174 -7.657748 -5.429509 -4.344761 -35.597619 3.370596 0.000000 0.000000 0.000000 32.852703 -1.820465 -3.228316 48.751568 8.892831 -4.578715 17.779386 49.009229 11.133140 0.000000 0.000000 0.000000 
-0.041004 0.999327 0.038840 -10.112002 -21.331722 3.268220 10.747585 0.632253 -5.107558 2.092856 0.187102 23.664515 -2.601389 -2.786065 9.382456 0.000000 0.000000 0.000000 -7.556559 1.230030 -12.655374 3.171734 10.505715 66.465120 1.283883 -4.655630 14.071285 0.000000 0.000000 0.000000 -5.788677 1.800667 27.835945 3.096304 1.516668 -46.299854 1.959616 12.177061 30.503986 13.513022 -7.804539 -21.554567 0.000000 0.000000 0.000000 -25.595524 -2.905473 0.806163 -40.849832 -5.413226 -5.982635 -5.921091 -32.923073 3.552541 0.000000 0.000000 0.000000 32.396263 -3.057685 -4.369348 48.287531 5.298391 -5.563059 21.348175 50.179164 12.932892 0.000000 0.000000 0.000000 
-0.054910 1.000406 0.045639 -9.720483 -21.455798 2.347849 10.542320 0.591749 -3.078099 2.180594 0.128466 23.286873 -2.541883 -3.105378 7.823785 0.000000 0.000000 0.000000 -8.636438 1.221918 -12.831349 -1.085200 9.362345 52.147006 3.556654 -3.749104 19.038756 0.000000 0.000000 0.000000 -6.182528 1.757601 26.685905 3.947307 1.278279 -45.244624 1.712808 12.611721 31.136245 12.920389 -7.605993 -20.802060 0.000000 0.000000 0.000000 -26.163612 -2.218995 0.272465 -41.065888 -3.017334 -6.776241 -5.855466 -32.510707 3.467457 0.000000 0.000000 0.000000 31.652609 -3.059092 -4.108934 48.098620 3.417153 -6.395198 21.271582 52.453654 13.664176 0.000000 0.000000 0.000000 
-0.070813 0.997972 0.050970 -9.004768 -21.190396 1.773244 10.752693 0.597734 -1.828031 2.343548 0.005637 22.711560 -2.746487 -3.813588 6.584416 0.000000 0.000000 0.000000 -9.776201 1.122831 -11.512482 -3.708314 6.505799 37.029065 5.933647 -2.862047 23.570072 0.000000 0.000000 0.000000 -5.810156 1.532554 25.720053 3.866975 1.113071 -43.775152 1.530523 12.660497 30.174514 12.666545 -7.737528 -19.047624 0.000000 0.000000 0.000000 -25.913443 -0.738314 -0.727701 -42.202056 -0.389103 -7.646540 -7.516103 -31.668899 3.847655 0.000000 0.000000 0.000000 30.897859 -5.020375 -5.426102 47.317595 0.394620 -7.291789 22.686408 53.673041 14.645550 0.000000 0.000000 0.000000 
-0.089457 0.993542 0.054702 -7.958243 -20.661517 1.271744 11.231486 0.618341 -0.989956 2.436508 -0.135283 21.726153 -3.444636 -5.169514 6.318348 0.000000 0.000000 0.000000 -10.250735 1.041744 -10.146904 -4.676773 4.149136 25.633718 8.614870 0.725286 23.891300 0.000000 0.000000 0.000000 -4.388141 1.088878 25.579334 2.685304 1.317241 -45.746076 1.766824 12.055178 32.906006 11.341357 -7.041272 -19.217784 0.000000 0.000000 0.000000 -26.688112 -0.239334 -0.836842 -42.775117 0.467198 -8.408929 -7.509909 -31.569264 3.918585 0.000000 0.000000 0.000000 32.057274 -5.041666 -5.586894 45.547645 -0.456007 -7.682832 18.722072 53.751845 12.635192 0.000000 0.000000 0.000000 
-0.111935 0.985362 0.057926 -6.010758 -18.724285 0.474719 11.282616 0.550165 -0.721039 2.545365 -0.329871 21.499690 -4.208010 -6.409117 6.549946 0.000000 0.000000 0.000000 -10.877232 0.969512 -9.811517 -4.602334 3.174920 21.328271 9.895075 3.544730 23.085191 0.000000 0.000000 0.000000 -2.766378 0.525656 24.950635 0.247916 1.188215 -44.594512 1.754869 11.462113 31.079334 9.507579 -6.357972 -14.726235 0.000000 0.000000 0.000000 -26.493737 -0.517889 -0.961014 -43.426151 2.806747 -9.011057 -9.202713 -31.067189 4.227890 0.000000 0.000000 0.000000 32.919425 -5.176443 -5.671449 44.405903 -2.089881 -7.926425 13.409890 51.725713 9.394756 0.000000 0.000000 0.000000 
-0.139748 0.976246 0.060502 -4.141725 -16.316348 -1.376931 12.162675 0.548658 -0.763108 2.649305 -0.521362 22.585129 -5.279561 -8.443568 6.062274 0.000000 0.000000 0.000000 -11.042604 0.796906 -7.212266 -4.608468 3.084857 21.380849 9.683167 4.446410 21.836664 0.000000 0.000000 0.000000 -2.118497 0.285434 25.663155 -1.942377 1.243509 -44.635537 2.007973 10.751255 30.762548 8.567378 -5.678455 -13.925574 0.000000 0.000000 0.000000 -28.017146 -0.966922 -1.098676 -42.955266 3.313456 -9.003716 -7.110679 -30.113765 3.471586 0.000000 0.000000 0.000000 34.096902 -5.553340 -5.708779 43.810739 -3.258112 -8.342882 9.643560 48.157920 7.078757 0.000000 0.000000 0.000000 
-0.172706 0.969022 0.061560 -2.598045 -12.663232 -2.896653 12.735122 0.464839 -1.148825 3.233503 -0.991707 24.503507 -6.404327 -10.259737 6.241577 0.000000 0.000000 0.000000 -10.778391 0.615257 -4.579533 -3.895718 2.950248 23.028383 7.667601 4.233191 17.777285 0.000000 0.000000 0.000000 -1.037444 -0.155560 26.269847 -6.029613 1.515474 -46.075843 3.848873 7.712072 32.871465 6.568960 -4.318737 -13.996373 0.000000 0.000000 0.000000 -30.056225 -0.116165 -1.437179 -42.468358 1.765431 -8.755955 -5.288587 -29.243486 2.987410 0.000000 0.000000 0.000000 34.630828 -5.133683 -5.608167 44.894360 -1.936519 -8.326344 5.931420 43.676897 4.950219 0.000000 0.000000 0.000000 
-0.206745 0.965805 0.059782 -1.884420 -10.590495 -3.392077 13.121052 0.441091 -2.539144 5.238931 -1.901964 26.447505 -7.495578 -11.935075 6.681070 0.000000 0.000000 0.000000 -9.828946 0.514541 -3.943143 -2.287747 2.530806 24.528550 4.957941 2.997244 12.208346 0.000000 0.000000 0.000000 -0.313246 -0.439157 26.150967 -5.189903 1.416569 -45.093686 2.699028 8.863952 32.485423 5.810363 -3.348028 -13.709453 0.000000 0.000000 0.000000 -30.772351 0.754926 -3.034459 -43.621968 2.569715 -8.975361 -3.234156 -27.986203 2.295344 0.000000 0.000000 0.000000 35.570926 -4.858669 -4.448500 45.172558 0.234745 -7.966095 3.188575 39.223227 3.647916 0.000000 0.000000 0.000000 
-0.236933 0.969517 0.055747 -1.796861 -9.548095 -3.031472 14.543345 0.689411 -7.517452 5.191335 -2.136067 32.210812 -7.467512 -8.786267 12.071685 0.000000 0.000000 0.000000 -8.045210 0.442665 -3.443676 -1.542050 2.296997 25.183158 2.885275 0.108484 10.386934 0.000000 0.000000 0.000000 1.363958 -0.887367 26.473107 -6.268800 1.534991 -46.909960 3.065040 8.840566 34.657652 4.579351 -2.095112 -14.928967 0.000000 0.000000 0.000000 -30.853992 1.422575 -3.623617 -45.523329 2.565836 -9.561326 -0.665830 -26.554951 1.640085 0.000000 0.000000 0.000000 35.551457 -4.209979 -3.492734 45.301249 2.102916 -7.735598 2.059372 35.280866 2.945209 0.000000 0.000000 0.000000 
-0.260043 0.976419 0.050984 -1.079433 -8.297663 -3.224904 13.505111 0.777384 -13.472189 3.863334 -1.860683 39.957035 -4.001274 -1.995251 13.923161 0.000000 0.000000 0.000000 -7.099717 0.357450 -2.301184 -1.585497 2.213552 25.091999 2.607239 -0.588390 10.930247 0.000000 0.000000 0.000000 1.837949 -1.081616 27.780038 -6.509535 1.530368 -48.692314 4.148748 9.029016 35.624149 3.420166 -0.671685 -17.406017 0.000000 0.000000 0.000000 -31.940621 -0.049162 -3.144739 -45.785207 4.015894 -10.043106 -2.038379 -25.616445 1.834500 0.000000 0.000000 0.000000 33.934832 -4.677229 -3.102154 45.034135 2.797124 -7.712956 3.510506 34.286708 3.342906 0.000000 0.000000 0.000000 
-0.277179 0.989025 0.048227 -0.118892 -6.604292 -3.330813 11.317881 0.542752 -19.709028 1.436239 -0.964256 46.895375 -2.638070 0.371494 13.686820 0.000000 0.000000 0.000000 -6.834051 0.255213 -0.484872 -1.247551 1.809148 23.296121 2.371879 -1.110568 11.452164 0.000000 0.000000 0.000000 2.931358 -1.493301 29.415496 -10.554148 1.612472 -50.621232 6.053074 5.779836 36.758929 3.412397 -1.001147 -18.814678 0.000000 0.000000 0.000000 -33.299660 0.404210 -2.706716 -46.362240 2.787609 -10.074725 -2.972828 -24.268662 2.037372 0.000000 0.000000 0.000000 31.827771 -5.181384 -4.019381 45.970350 3.096394 -7.601085 3.097019 33.268615 3.037980 0.000000 0.000000 0.000000 
-0.290717 1.005731 0.048891 0.872775 -6.594172 -2.696155 9.904051 0.357259 -24.005746 -3.128020 1.799233 48.567257 1.190525 6.387208 13.306859 0.000000 0.000000 0.000000 -7.105724 0.230329 0.916143 -1.145319 1.480849 19.993555 2.912034 -1.067714 13.424890 0.000000 0.000000 0.000000 2.544474 -1.384250 29.763831 -9.889148 1.576037 -51.545250 6.067533 6.724751 38.340444 4.005667 -1.243860 -19.283890 0.000000 0.000000 0.000000 -33.701687 -0.133390 -2.714898 -45.979036 3.162272 -10.207644 -3.798129 -24.078583 2.167427 0.000000 0.000000 0.000000 31.592584 -4.836005 -3.234341 45.888415 4.130895 -7.592523 1.842436 34.212825 2.900626 0.000000 0.000000 0.000000 
-0.301953 1.023899 0.053782 1.760853 -6.251355 -1.995291 7.947007 -0.094563 -27.448362 -5.890623 3.090720 44.950609 2.718788 9.227046 15.707051 0.000000 0.000000 0.000000 -7.093730 0.184141 2.621863 -1.066877 1.126458 16.083720 3.431903 -0.982332 15.314930 0.000000 0.000000 0.000000 2.150969 -1.294286 29.940024 -10.066151 1.599448 -50.639877 5.890773 6.966718 37.221796 4.801177 -1.535947 -21.333848 0.000000 0.000000 0.000000 -32.919299 0.149827 -3.094348 -45.870420 3.833470 -10.189079 -4.934566 -24.819983 2.434973 0.000000 0.000000 0.000000 31.032002 -5.959343 -3.925398 46.326404 4.709000 -7.294276 0.648530 34.323125 2.616666 0.000000 0.000000 0.000000 
-0.311229 1.038200 0.063595 2.701456 -6.542003 -1.262848 6.363192 -0.483364 -28.758520 -8.183540 3.688243 37.342563 5.359184 13.188515 17.436559 0.000000 0.000000 0.000000 -7.442510 0.204891 3.600411 -1.139893 0.926412 13.142166 4.414897 -0.318951 17.449648 0.000000 0.000000 0.000000 1.701005 -1.148786 30.739668 -12.856355 1.474303 -54.119839 8.046526 5.188130 40.200060 5.537146 -2.538049 -21.226010 0.000000 0.000000 0.000000 -32.384367 -0.356556 -1.735310 -46.088319 2.727030 -10.479169 -5.414953 -24.764681 2.642851 0.000000 0.000000 0.000000 28.728472 -7.667052 -5.272401 47.669908 6.022088 -7.183265 3.491538 36.018674 3.724038 0.000000 0.000000 0.000000 
-0.318398 1.047174 0.077432 2.771613 -6.565884 -1.123384 5.360138 -0.750233 -28.984456 -7.893198 2.924967 30.525922 4.028175 11.288508 18.052173 0.000000 0.000000 0.000000 -6.838045 0.119595 5.165137 -1.740737 0.857130 10.573817 4.830564 0.252351 17.719072 0.000000 0.000000 0.000000 2.028446 -1.246244 31.350606 -11.141989 1.538415 -53.509004 5.694240 5.924833 39.521155 6.386229 -2.959505 -21.904739 0.000000 0.000000 0.000000 -31.602324 0.515938 -2.542400 -45.710628 4.197265 -10.734532 -5.796892 -26.879895 2.951178 0.000000 0.000000 0.000000 29.831168 -7.651366 -5.291990 47.700725 6.242000 -7.044295 3.094649 39.041716 4.060902 0.000000 0.000000 0.000000 
-0.323286 1.049428 0.095492 2.819791 -6.888829 -0.573881 3.798521 -1.135309 -28.799745 -7.204065 2.232072 24.702594 3.585166 10.660770 18.823666 0.000000 0.000000 0.000000 -6.526751 0.079767 6.113891 -2.008331 0.814763 9.319835 4.952344 0.065849 18.407475 0.000000 0.000000 0.000000 2.030282 -1.207749 30.678319 -11.467625 1.564865 -53.236992 5.790554 5.011348 39.441805 7.732380 -4.113097 -22.610455 0.000000 0.000000 0.000000 -29.703910 0.459450 -1.783892 -46.857983 3.343312 -10.860847 -7.277364 -26.332069 3.291326 0.000000 0.000000 0.000000 29.874520 -7.986797 -5.968883 46.955916 6.329867 -6.797371 4.432188 41.983226 4.833305 0.000000 0.000000 0.000000 
-0.325954 1.046147 0.118037 2.243931 -8.819484 -0.090947 2.844208 -1.199470 -28.358175 -5.231929 1.425694 20.169630 2.496978 9.469021 23.156231 0.000000 0.000000 0.000000 -6.039299 0.065943 6.749617 -2.037601 0.756658 8.318723 5.864168 0.757575 19.336878 0.000000 0.000000 0.000000 0.691451 -0.678577 30.293512 -7.247402 1.711717 -52.049188 5.122773 6.620493 39.117132 7.745977 -3.818250 -23.287114 0.000000 0.000000 0.000000 -29.062982 0.064257 -1.671567 -47.456112 4.158788 -11.095332 -7.134489 -27.963473 3.450195 0.000000 0.000000 0.000000 28.843055 -7.144799 -5.149247 47.928894 5.999115 -6.924198 3.530401 45.245207 4.998545 0.000000 0.000000 0.000000 
-0.326736 1.039421 0.145622 2.030639 -9.854655 0.584047 1.645757 -1.404965 -27.880537 -4.061448 1.015189 17.879560 1.065467 8.173485 27.535700 0.000000 0.000000 0.000000 -6.138337 0.092698 7.641474 -2.168438 0.775136 8.213145 6.460386 1.212968 19.980332 0.000000 0.000000 0.000000 0.833954 -0.640042 29.778853 -7.774625 1.762331 -50.587166 5.206559 5.947796 36.943257 7.174976 -3.533566 -23.404954 0.000000 0.000000 0.000000 -27.837089 -1.156812 -0.366800 -48.856297 2.604953 -10.651182 -7.283808 -27.310902 3.408763 0.000000 0.000000 0.000000 29.582748 -6.665534 -5.613557 47.993806 4.847440 -6.841690 3.593804 45.894509 4.786076 0.000000 0.000000 0.000000 
-0.325386 1.029313 0.179331 0.653430 -12.003937 1.369421 1.659609 -1.186994 -26.088978 -3.633711 0.966516 16.944623 0.890463 7.975553 29.900464 0.000000 0.000000 0.000000 -5.551837 0.085873 7.383212 -2.297690 1.057670 10.984539 6.971894 1.782925 19.691524 0.000000 0.000000 0.000000 1.554765 -0.702637 28.919416 -5.543011 1.798126 -49.674499 4.342825 7.958849 37.109335 7.624322 -3.578250 -24.120478 0.000000 0.000000 0.000000 -26.815558 -1.217979 -0.480041 -48.301892 0.946211 -9.876132 -8.884635 -28.222707 3.891220 0.000000 0.000000 0.000000 30.482773 -5.738818 -4.899551 47.142174 4.141986 -7.055108 3.519380 46.583542 4.833069 0.000000 0.000000 0.000000 
-0.322157 1.015995 0.220868 0.116226 -11.799131 1.303305 0.134920 -1.466660 -22.839137 -2.925279 0.724304 16.095855 1.211640 8.188187 28.953547 0.000000 0.000000 0.000000 -5.575797 0.049882 8.946361 -2.315541 1.329807 13.784192 6.569170 1.028240 20.026510 0.000000 0.000000 0.000000 1.552073 -0.746055 27.125972 -5.025175 1.688018 -47.557570 4.417271 7.340441 35.814170 6.615311 -3.188553 -22.434316 0.000000 0.000000 0.000000 -28.413323 -2.206398 0.254354 -46.597167 -0.764685 -8.881649 -8.445764 -27.985932 3.715423 0.000000 0.000000 0.000000 30.729466 -5.071812 -4.796184 46.690423 3.274772 -7.080779 4.165573 43.199799 4.430335 0.000000 0.000000 0.000000 
-0.316577 0.998400 0.269563 0.084910 -11.250943 0.565164 -1.361940 -1.661103 -20.112443 -2.716575 0.691893 17.265406 1.638873 8.398827 26.446241 0.000000 0.000000 0.000000 -6.209057 0.132309 7.709801 -2.634871 2.401056 22.570817 6.304658 0.151264 21.377005 0.000000 0.000000 0.000000 0.693218 -0.581863 25.769780 -4.036714 1.635238 -47.858316 3.836081 7.247398 37.231603 7.830117 -4.305349 -21.317591 0.000000 0.000000 0.000000 -29.384165 -3.419901 1.063713 -43.770925 -3.701863 -7.638238 -9.306019 -28.258201 3.916282 0.000000 0.000000 0.000000 32.790929 -5.302120 -5.083516 45.008482 2.395168 -7.419985 5.807808 38.525793 4.393791 0.000000 0.000000 0.000000 
-0.309817 0.983103 0.318534 0.657581 -9.163897 -1.524874 -3.058297 -1.931806 -18.593301 -3.240490 0.956552 22.566758 1.512004 7.740044 20.966413 0.000000 0.000000 0.000000 -7.355003 0.252657 3.596813 -1.622271 3.995880 38.399566 7.218846 -0.252449 26.958488 0.000000 0.000000 0.000000 -0.028636 -0.519540 26.241811 -4.756239 1.576795 -46.469866 3.736460 5.239638 36.288485 7.527352 -4.047686 -22.603959 0.000000 0.000000 0.000000 -30.365861 -4.509025 2.015714 -41.963740 -6.078188 -6.621805 -9.834096 -29.541027 4.233781 0.000000 0.000000 0.000000 33.431663 -5.670224 -5.848629 45.158492 0.671970 -7.786633 5.383517 34.604033 3.615790 0.000000 0.000000 0.000000 
-0.303897 0.974794 0.364097 0.808692 -7.047897 -2.825182 -4.539215 -1.989823 -16.225385 -3.466265 0.978399 25.472309 0.845869 6.330054 16.855499 0.000000 0.000000 0.000000 -7.249271 0.367769 -2.864147 -0.760804 5.332180 53.776712 6.563179 -2.357536 31.926854 0.000000 0.000000 0.000000 0.559924 -0.797631 27.709061 -7.110269 1.664398 -47.335549 3.604822 2.649969 36.444811 8.075319 -4.508632 -24.369826 0.000000 0.000000 0.000000 -30.605918 -6.213963 3.701161 -41.025542 -10.054707 -5.467276 -8.098051 -29.283500 3.742382 0.000000 0.000000 0.000000 33.581673 -5.746366 -6.461530 46.617193 -0.225721 -8.182058 3.760152 31.605770 2.769944 0.000000 0.000000 0.000000 
-0.300389 0.984795 0.408148 0.463909 -5.234069 -3.751609 -5.721624 -1.584948 -11.481917 -2.540171 0.443942 24.142690 0.316298 5.538945 15.831784 0.000000 0.000000 0.000000 -5.853513 0.637387 -9.144419 0.370506 5.178309 63.387310 4.634834 -3.806951 29.829316 0.000000 0.000000 0.000000 1.291868 -1.122590 28.349230 -8.647596 1.656810 -48.791633 3.104415 -1.028746 37.595367 6.449257 -3.982148 -24.644133 0.000000 0.000000 0.000000 -31.098537 -6.129995 4.801588 -40.649945 -12.335394 -5.220222 -7.833241 -29.175570 3.756356 0.000000 0.000000 0.000000 33.501241 -5.486426 -7.345172 47.455905 -1.457605 -8.577988 4.268590 29.469948 2.553076 0.000000 0.000000 0.000000 
-0.298596 1.006033 0.452160 -0.174916 -3.626522 -4.581681 -5.959694 -0.779402 -5.436393 -0.982133 -0.197325 19.462675 -1.369704 3.658523 17.457295 0.000000 0.000000 0.000000 -4.716358 0.974867 -13.827018 1.751004 3.484565 64.832083 2.721570 -5.246346 26.380207 0.000000 0.000000 0.000000 1.816379 -1.379977 28.385302 -5.920080 1.471900 -50.011894 0.102731 -1.163873 39.051288 6.408664 -4.092756 -23.480129 0.000000 0.000000 0.000000 -30.219852 -5.975106 4.505493 -41.377250 -12.508592 -5.330668 -8.330273 -30.862030 4.195250 0.000000 0.000000 0.000000 34.138523 -6.204758 -7.644028 47.628622 -1.560794 -8.902744 4.453399 29.636174 2.716321 0.000000 0.000000 0.000000 
-0.298288 1.027210 0.495608 -0.915310 -1.877289 -5.065196 -5.445787 0.014139 0.059639 -0.167524 -0.426341 15.169909 -2.705344 2.907353 20.340067 0.000000 0.000000 0.000000 -2.854146 1.446155 -17.747567 2.054791 2.091523 60.223086 1.899725 -5.480935 23.480332 0.000000 0.000000 0.000000 2.406999 -1.634695 27.800586 -5.601468 1.314351 -53.179591 -0.870331 -3.939671 43.167651 5.003178 -3.914435 -21.754035 0.000000 0.000000 0.000000 -30.523304 -5.949067 5.482370 -41.570553 -14.494551 -5.458109 -7.653928 -32.530360 4.430532 0.000000 0.000000 0.000000 32.906955 -6.081141 -7.834011 48.519877 -1.783960 -9.516691 5.420390 31.169648 3.162066 0.000000 0.000000 0.000000 
-0.299199 1.040457 0.538101 -1.932220 -0.550206 -5.201308 -4.000289 0.584693 4.567829 0.149458 -0.413622 11.208151 -4.003497 1.629444 21.203178 0.000000 0.000000 0.000000 -1.733202 1.815235 -20.529946 2.015349 1.142886 50.027463 2.611842 -4.148850 23.136195 0.000000 0.000000 0.000000 2.825948 -1.795323 27.063998 -4.826147 1.243785 -51.779022 -1.744011 -6.215983 41.942282 3.886069 -3.549945 -19.691332 0.000000 0.000000 0.000000 -30.198847 -5.135989 5.426220 -42.128514 -14.744247 -5.428797 -8.561687 -34.312359 5.142066 0.000000 0.000000 0.000000 30.912120 -6.261953 -8.225989 49.644286 -3.249657 -9.970188 6.005858 31.967818 3.263311 0.000000 0.000000 0.000000 
-0.300976 1.041082 0.579818 -2.566542 1.285563 -5.297614 -2.744913 0.954497 8.433618 0.228364 -0.365455 8.774816 -5.022128 0.515372 21.097542 0.000000 0.000000 0.000000 -1.705291 1.823278 -21.450075 2.183047 0.310928 35.955894 3.180609 -3.311056 24.229164 0.000000 0.000000 0.000000 1.874629 -1.669612 26.617918 -2.083402 1.112811 -51.511644 -3.247713 -6.756452 42.220759 3.485490 -3.196616 -19.496638 0.000000 0.000000 0.000000 -28.911713 -5.221593 5.207645 -42.750971 -16.438729 -4.835153 -8.823652 -37.096550 5.804900 0.000000 0.000000 0.000000 30.439557 -6.646748 -8.187021 50.191715 -3.599546 -10.314091 6.810308 33.375061 3.723581 0.000000 0.000000 0.000000 
-0.303407 1.030520 0.621965 -2.765156 2.467710 -5.358777 -2.612253 1.242180 11.408003 1.184428 -0.556365 8.784130 -5.572005 -0.367936 20.310122 0.000000 0.000000 0.000000 -0.743186 1.865529 -20.508693 1.525478 0.237069 21.021595 3.354753 -3.255535 25.841744 0.000000 0.000000 0.000000 0.622756 -1.447354 26.503633 -1.327106 1.063607 -49.458235 -3.014775 -7.613895 40.497279 3.776216 -3.253147 -20.741762 0.000000 0.000000 0.000000 -28.587091 -6.382958 5.854431 -42.651413 -18.280185 -3.976669 -8.105687 -40.341554 6.157208 0.000000 0.000000 0.000000 30.376856 -7.377455 -8.837030 50.457616 -4.123631 -10.298308 7.660974 33.354565 3.896260 0.000000 0.000000 0.000000 
-0.305784 1.012129 0.665853 -2.750347 3.490175 -5.281259 -2.950135 1.423589 13.007818 2.271499 -0.883698 10.561097 -6.054142 -1.936874 17.957216 0.000000 0.000000 0.000000 0.007413 1.806807 -18.826534 1.060802 0.073040 7.605475 4.044614 -2.597892 27.856046 0.000000 0.000000 0.000000 -0.857974 -1.171689 26.523524 -0.324406 0.984692 -49.113229 -3.515482 -9.212393 40.065588 1.872498 -1.999270 -21.019453 0.000000 0.000000 0.000000 -28.725880 -5.548711 5.669043 -42.284572 -20.699629 -3.228186 -8.201314 -43.784183 7.028578 0.000000 0.000000 0.000000 29.912677 -7.148185 -8.991716 50.999933 -4.671855 -10.469214 7.089716 33.460003 3.651812 0.000000 0.000000 0.000000 
-0.306841 0.992576 0.712989 -2.556893 4.018745 -4.785300 -3.291940 1.670056 15.075595 3.177246 -1.097757 10.911813 -6.678841 -3.701004 16.151011 0.000000 0.000000 0.000000 0.973249 1.942247 -18.825135 1.686667 -0.171457 1.117343 2.987933 -4.252974 28.924118 0.000000 0.000000 0.000000 -0.874987 -1.170971 26.157628 -1.328024 0.991341 -50.627780 -3.737334 -10.402274 42.229831 2.039034 -2.322549 -22.930532 0.000000 0.000000 0.000000 -28.003355 -5.728763 6.183309 -42.553272 -23.268090 -2.689865 -8.811110 -46.101834 8.005189 0.000000 0.000000 0.000000 30.730595 -6.887869 -9.372371 51.502889 -4.064189 -10.466865 3.904641 32.834935 2.709727 0.000000 0.000000 0.000000 
-0.305454 0.975419 0.764980 -2.316588 4.329103 -4.083608 -4.215257 1.960444 16.545879 4.128590 -1.476808 12.984251 -6.725978 -3.774529 16.081433 0.000000 0.000000 0.000000 2.333994 2.207190 -19.432174 1.872098 -0.178752 1.998593 1.952676 -5.962443 30.366142 0.000000 0.000000 0.000000 -0.202582 -1.222010 24.457398 -1.073732 1.006268 -49.832405 -5.105167 -10.429912 41.735639 1.931950 -2.317125 -21.121404 0.000000 0.000000 0.000000 -27.128788 -5.675834 5.908654 -43.522305 -23.124913 -2.557613 -11.202295 -46.548625 9.141262 0.000000 0.000000 0.000000 32.114332 -7.135147 -9.947257 51.194353 -4.499928 -10.470064 0.871297 32.539439 1.862640 0.000000 0.000000 0.000000 
-0.299117 0.964737 0.820419 -2.623469 3.780459 -3.400867 -4.599254 2.031819 16.411079 4.702912 -1.971304 16.957694 -8.180712 -4.045319 20.140620 0.000000 0.000000 0.000000 3.965006 2.568408 -20.125926 0.784750 0.104107 6.961763 0.804119 -7.637650 30.438506 0.000000 0.000000 0.000000 2.172844 -1.513993 22.006516 -3.991800 1.122846 -48.352239 -5.032057 -12.266062 41.230900 2.068417 -2.826262 -21.451796 0.000000 0.000000 0.000000 -26.692459 -5.753008 6.520065 -45.620182 -22.723260 -2.678729 -11.597706 -47.392286 9.853849 0.000000 0.000000 0.000000 32.866524 -6.410373 -10.632459 51.003356 -5.551772 -10.500162 -0.657382 32.431659 1.259589 0.000000 0.000000 0.000000 
-0.286630 0.962919 0.874380 -3.899828 2.387195 -2.981555 -2.735369 1.577667 14.361628 1.713809 -1.585413 23.631099 -9.914245 -4.021920 25.781830 0.000000 0.000000 0.000000 5.570474 2.856686 -19.961560 0.251987 0.347483 11.282574 0.057953 -8.479841 28.154232 0.000000 0.000000 0.000000 4.565716 -1.759387 19.980726 -3.101877 1.089531 -49.509587 -5.703329 -10.341589 42.737198 0.831691 -1.643011 -21.990891 0.000000 0.000000 0.000000 -26.430304 -6.359182 6.620760 -46.813299 -20.810037 -3.456746 -15.584110 -47.400657 11.680056 0.000000 0.000000 0.000000 33.524025 -6.427173 -10.344196 49.167931 -4.861796 -10.132021 -0.101022 30.309207 1.383263 0.000000 0.000000 0.000000 
-0.269353 0.965189 0.922629 -4.539841 3.097409 -3.180188 -0.527588 0.877283 9.935475 -2.293683 -0.738917 33.358292 -11.420653 -3.228230 31.514880 0.000000 0.000000 0.000000 5.707915 2.634057 -18.348617 0.064295 0.451156 14.052183 -0.649900 -8.890273 26.040363 0.000000 0.000000 0.000000 7.040436 -2.252414 20.096117 -5.227836 1.129306 -48.713094 -4.534487 -12.187611 41.710332 -1.806523 0.146018 -22.599883 0.000000 0.000000 0.000000 -28.356421 -5.783345 6.826596 -46.709353 -19.422511 -4.002846 -20.702658 -48.396685 14.533941 0.000000 0.000000 0.000000 31.589617 -6.271529 -10.181441 48.535526 -5.757477 -10.148836 1.943513 29.527664 1.681439 0.000000 0.000000 0.000000 
-0.248471 0.967408 0.964228 -4.609134 2.672797 -3.790665 1.192335 0.340481 4.724934 -6.860318 1.229584 41.006633 -7.616269 1.762247 33.138948 0.000000 0.000000 0.000000 5.475193 2.071403 -14.527696 -1.570870 0.842266 13.788514 0.062640 -7.658234 24.689285 0.000000 0.000000 0.000000 8.087160 -2.403700 19.989141 -7.035539 1.216308 -48.263484 -2.312600 -11.749627 41.444675 -1.386496 -0.095009 -21.386141 0.000000 0.000000 0.000000 -28.559279 -6.710234 7.286728 -47.069612 -17.994167 -4.488644 -23.313881 -48.142425 15.635109 0.000000 0.000000 0.000000 31.463312 -6.640582 -10.175760 46.692909 -5.547191 -9.730681 3.045405 28.501572 1.863786 0.000000 0.000000 0.000000 
-0.224905 0.971082 1.000359 -3.888192 3.396816 -4.753568 2.533970 0.021807 0.810339 -9.598392 2.518703 45.929622 -4.361240 4.538738 29.857453 0.000000 0.000000 0.000000 3.701725 1.336834 -10.373111 -2.137552 0.885758 12.253517 0.506600 -6.907981 24.960818 0.000000 0.000000 0.000000 8.132588 -2.573118 21.246977 -8.902282 1.275047 -48.399779 -0.377232 -11.798429 41.686480 -2.002343 0.450504 -19.752081 0.000000 0.000000 0.000000 -28.419208 -6.273147 6.797402 -46.846917 -16.781110 -4.952592 -25.291750 -48.757579 16.841929 0.000000 0.000000 0.000000 30.753543 -6.606303 -9.613921 45.575285 -5.190037 -9.545749 4.426428 27.806383 2.147336 0.000000 0.000000 0.000000 
-0.199621 0.973914 1.031474 -2.667454 3.596199 -5.157186 4.263662 -0.234507 -3.548318 -11.729429 3.720302 47.797757 -1.928770 6.545229 26.583222 0.000000 0.000000 0.000000 1.442073 0.815227 -7.314971 -2.735983 0.967639 11.305259 1.270623 -5.777461 25.002133 0.000000 0.000000 0.000000 7.472100 -2.464639 21.562001 -9.091532 1.530099 -45.539706 1.034599 -10.079773 38.633082 -2.147597 1.048441 -17.961858 0.000000 0.000000 0.000000 -28.830822 -5.239157 5.260547 -46.175710 -13.377245 -5.626455 -28.346313 -47.552222 17.382361 0.000000 0.000000 0.000000 30.121439 -6.879897 -8.908590 45.521618 -4.838045 -9.346050 4.427139 26.918060 2.116556 0.000000 0.000000 0.000000 
-0.173003 0.975235 1.057824 -1.915075 4.121458 -5.488355 6.405139 -0.355221 -7.594842 -11.446617 3.387809 47.348997 0.545802 8.911554 23.217473 0.000000 0.000000 0.000000 -1.418327 0.440319 -4.925704 -2.465214 0.875526 10.747043 2.402435 -4.065003 25.212989 0.000000 0.000000 0.000000 6.817321 -2.373853 21.834700 -10.707568 1.672087 -45.226606 2.971495 -10.007556 38.951761 -2.767845 1.651746 -16.951019 0.000000 0.000000 0.000000 -29.672131 -4.339750 4.651746 -45.533173 -11.003318 -6.584643 -27.895419 -45.362590 16.232552 0.000000 0.000000 0.000000 29.491096 -6.919047 -8.486479 45.136866 -4.150138 -9.230120 5.341800 25.526299 2.213306 0.000000 0.000000 0.000000 
-0.144645 0.973734 1.080091 -1.255225 3.170712 -5.761874 9.436057 -0.213664 -10.364447 -9.909409 2.709983 43.909306 1.290869 9.675946 22.546153 0.000000 0.000000 0.000000 -4.035193 0.226934 -3.181929 -2.128628 0.809136 10.489313 3.269688 -2.844585 24.614718 0.000000 0.000000 0.000000 6.697097 -2.242634 21.399345 -12.148803 2.174239 -41.552289 4.460349 -8.100164 35.686039 -2.769046 1.978442 -15.886144 0.000000 0.000000 0.000000 -29.136805 -3.059614 3.123624 -46.482378 -8.292170 -7.093114 -29.327772 -42.961690 15.756930 0.000000 0.000000 0.000000 28.804988 -7.148923 -8.109279 45.341691 -3.909905 -8.945129 6.988228 25.718964 2.577254 0.000000 0.000000 0.000000 
-0.114276 0.969380 1.098940 -1.033207 1.670186 -5.605079 12.384466 0.066471 -10.134233 -5.862644 0.943715 37.031070 3.727652 12.176271 19.195366 0.000000 0.000000 0.000000 -6.256808 0.158709 -2.355795 -2.109872 0.854422 10.970772 5.008872 -0.254629 23.777127 0.000000 0.000000 0.000000 6.669800 -2.087773 20.574126 -12.944195 2.351510 -40.589293 4.527349 -6.599657 34.887132 -2.335949 1.772214 -16.035318 0.000000 0.000000 0.000000 -27.679555 -2.260462 2.367435 -46.952287 -4.814646 -8.216588 -31.361547 -41.879299 16.214030 0.000000 0.000000 0.000000 28.320353 -6.176352 -7.163777 45.217757 -2.341935 -8.338159 9.293747 26.216894 3.129539 0.000000 0.000000 0.000000 
-0.080550 0.961973 1.114635 -1.555455 -0.950529 -5.782675 16.569461 0.418491 -7.445454 -2.891704 0.086758 28.574422 5.743174 14.762418 20.196019 0.000000 0.000000 0.000000 -7.520507 0.210099 -2.895847 -2.574096 1.099492 12.597917 6.047465 1.264257 22.612811 0.000000 0.000000 0.000000 6.551276 -1.930353 20.120760 -14.185765 2.756056 -38.160425 6.580649 -4.896376 32.223787 -1.983237 1.572024 -15.533422 0.000000 0.000000 0.000000 -27.031615 -2.942517 2.572547 -46.128047 -3.601851 -8.115797 -32.213640 -42.040553 16.382140 0.000000 0.000000 0.000000 28.225479 -5.483373 -6.815181 43.612870 -0.545309 -7.106730 12.421823 28.804127 4.136896 0.000000 0.000000 0.000000 
-0.041893 0.952850 1.126733 -1.947941 -2.725040 -6.189520 19.308808 0.470984 -3.928717 1.401587 -1.003389 19.470721 2.653146 11.697823 28.349698 0.000000 0.000000 0.000000 -9.204617 0.238754 -3.188987 -2.748888 1.261763 13.792300 7.253543 2.811306 22.610490 0.000000 0.000000 0.000000 5.124451 -1.564555 19.292979 -11.402823 2.481524 -36.828962 4.267765 -2.339048 31.760228 0.010328 0.335382 -16.878602 0.000000 0.000000 0.000000 -25.210209 -4.085554 2.808310 -46.226222 -4.553089 -7.613093 -33.359972 -44.463817 17.870212 0.000000 0.000000 0.000000 30.189218 -3.198229 -5.172332 41.959118 2.865555 -5.798731 15.644828 32.971815 5.810432 0.000000 0.000000 0.000000 
0.003782 0.940994 1.135360 -2.761988 -5.239435 -6.910670 20.699077 0.430131 -0.183540 4.670487 -1.639311 15.979422 -4.330848 3.452221 30.331204 0.000000 0.000000 0.000000 -10.632127 0.300193 -3.737411 -3.495022 1.575333 14.765076 7.727431 3.544522 21.620819 0.000000 0.000000 0.000000 3.387714 -1.113868 17.340321 -10.692684 2.649727 -31.741026 4.410184 0.232534 28.136763 3.717913 -2.139275 -17.380817 0.000000 0.000000 0.000000 -22.124942 -9.438778 5.265556 -45.215863 -9.999673 -4.870048 -29.885748 -50.815121 18.311852 0.000000 0.000000 0.000000 31.663214 -1.050739 -3.806131 39.495058 9.066871 -3.291345 17.735538 36.954940 7.207517 0.000000 0.000000 0.000000 
0.056237 0.928852 1.138924 -3.832846 -7.419734 -7.208642 20.649131 0.493630 1.270455 3.122075 -1.224375 17.322018 -3.590914 2.070065 23.830906 0.000000 0.000000 0.000000 -11.987308 0.370728 -5.085623 -3.948056 1.724187 14.698776 8.118490 3.234729 22.576150 0.000000 0.000000 0.000000 2.764240 -0.960450 16.620918 -10.787651 2.593143 -31.816050 4.529283 0.710033 27.923736 6.080058 -4.409248 -14.372419 0.000000 0.000000 0.000000 -20.124253 -13.927295 7.796547 -42.042574 -19.843356 -1.394883 -22.919787 -56.704304 16.726759 0.000000 0.000000 0.000000 33.253041 3.929540 -0.900651 34.526485 15.578051 -1.200912 18.523352 43.984173 8.864975 0.000000 0.000000 0.000000 
0.109877 0.923274 1.136537 -4.417143 -8.380604 -7.947112 18.831133 0.527792 1.346233 1.295302 -0.735298 20.599290 -1.050395 2.808927 14.294020 0.000000 0.000000 0.000000 -14.182823 0.383300 -5.589424 -3.951331 1.727307 14.542276 7.522098 0.727285 25.352597 0.000000 0.000000 0.000000 0.413876 -0.651759 17.055017 -8.217121 2.102497 -29.633661 3.465096 2.915788 25.946162 9.954258 -7.102188 -14.130592 0.000000 0.000000 0.000000 -17.622869 -22.029448 11.158764 -34.451218 -30.094530 1.663398 -1.295551 -63.512141 4.670219 0.000000 0.000000 0.000000 31.148192 6.911083 1.928233 30.951244 23.660887 0.562307 11.089998 53.362220 7.484488 0.000000 0.000000 0.000000 
0.157913 0.928832 1.132086 -4.993232 -9.839996 -7.291339 17.218171 0.608938 0.335477 -0.671317 -0.008500 21.393487 0.318721 4.292738 12.222756 0.000000 0.000000 0.000000 -16.492851 0.436240 -7.086250 -2.094748 1.367774 14.967141 7.825157 0.240506 26.825894 0.000000 0.000000 0.000000 -1.797453 -0.320486 17.306334 -7.293634 1.777051 -31.070714 4.056666 4.778455 25.835803 10.527029 -7.903397 -11.442941 0.000000 0.000000 0.000000 -11.344626 -27.577119 12.202163 -26.843905 -39.626539 2.867086 31.407706 -62.290161 -15.688350 0.000000 0.000000 0.000000 26.561569 10.452168 4.644368 27.125064 32.433268 1.820448 -7.210120 58.336413 -1.581161 0.000000 0.000000 0.000000 
0.197639 0.943528 1.129235 -6.574393 -11.971206 -6.291818 16.174577 0.610126 1.526673 -1.595020 0.369263 19.009011 1.884472 6.457038 11.250151 0.000000 0.000000 0.000000 -16.758709 0.568202 -7.630540 -0.068928 1.018446 15.696786 5.090932 -5.104492 29.513981 0.000000 0.000000 0.000000 -1.740918 -0.296204 16.522437 -7.250712 1.694761 -29.940282 2.906511 6.894574 24.766165 9.574690 -7.347792 -9.143864 0.000000 0.000000 0.000000 -2.940456 -30.070074 10.914731 -17.385658 -47.013918 1.736061 59.196230 -51.775227 -27.757774 0.000000 0.000000 0.000000 20.052307 14.306088 6.721061 20.866688 42.382853 2.179878 -32.182660 52.589671 -13.605850 0.000000 0.000000 0.000000 
0.229900 0.960945 1.128844 -6.931293 -14.402492 -4.665670 14.593885 0.595521 3.095988 -1.797978 0.382796 13.325659 1.049699 5.528017 15.651799 0.000000 0.000000 0.000000 -17.237879 0.770971 -7.691750 -0.242977 1.155147 16.029246 3.871255 -8.310449 33.297428 0.000000 0.000000 0.000000 -2.746279 -0.084019 17.117808 -7.468336 1.515292 -37.247883 3.449390 8.390454 31.121735 11.912178 -9.169425 -11.820620 0.000000 0.000000 0.000000 7.083617 -29.663809 7.880933 -6.261221 -51.895683 -2.009731 73.993082 -35.912319 -24.980828 0.000000 0.000000 0.000000 12.927846 15.655906 6.840999 6.410770 49.739789 -2.379694 -45.186455 39.941161 -15.113459 0.000000 0.000000 0.000000 
0.256249 0.980379 1.130430 -9.102584 -16.837361 -2.457177 14.718848 0.651537 5.183508 -1.243469 0.188560 7.629256 0.811488 5.434318 19.676307 0.000000 0.000000 0.000000 -14.414158 0.872851 -7.979115 -2.900268 1.878239 16.340697 4.435961 -9.060283 36.779381 0.000000 0.000000 0.000000 -3.778764 0.157070 17.505815 -7.911782 1.488897 -37.444055 4.520759 9.186407 29.085980 12.343929 -9.743732 -10.034472 0.000000 0.000000 0.000000 15.626860 -30.855822 5.783020 3.787277 -52.962210 -5.353886 81.601929 -18.939123 -14.869549 0.000000 0.000000 0.000000 3.858848 15.359247 5.513925 -5.950292 48.125020 -6.348652 -50.033166 29.171201 -12.565371 0.000000 0.000000 0.000000 
0.277898 0.998977 1.132987 -10.618018 -17.520086 -1.526786 14.118233 0.647293 5.507307 -0.995686 0.127865 5.558715 1.482812 6.814448 23.381438 0.000000 0.000000 0.000000 -12.901454 0.875484 -6.940732 -3.789470 2.054614 15.970912 6.326333 -7.081188 36.903894 0.000000 0.000000 0.000000 -5.629129 0.591746 18.970100 -6.164787 1.297886 -39.519530 3.468214 8.697159 29.489013 14.079283 -11.360035 -9.691967 0.000000 0.000000 0.000000 22.931274 -28.168537 3.110952 10.044425 -53.809522 -7.477241 85.899998 -7.130933 -5.619986 0.000000 0.000000 0.000000 -5.975597 11.984076 3.498289 -12.369515 46.283581 -8.250736 -47.580134 20.878093 -8.572377 0.000000 0.000000 0.000000 
0.294308 1.014394 1.134797 -13.777990 -16.876455 0.297329 15.891056 0.624002 5.243818 -0.334442 0.003811 3.622899 0.647373 5.886105 24.108351 0.000000 0.000000 0.000000 -10.841723 0.823911 -7.108200 -4.377828 2.316759 16.884132 6.661698 -7.293610 39.676961 0.000000 0.000000 0.000000 -7.884590 1.180199 20.548934 -4.632496 1.193129 -37.929934 3.893822 7.059191 26.273818 13.839661 -11.256624 -8.230989 0.000000 0.000000 0.000000 24.968622 -28.153141 2.734307 16.805826 -51.694784 -9.108973 87.647857 -0.925174 -0.095015 0.000000 0.000000 0.000000 -13.406988 8.261737 2.472669 -13.907209 41.865477 -7.758475 -45.117264 17.904440 -6.994666 0.000000 0.000000 0.000000 
0.306134 1.022977 1.134870 -16.740651 -17.846060 1.947213 18.322570 0.777685 4.652765 -0.084512 -0.034636 3.879963 0.066320 5.453304 26.836442 0.000000 0.000000 0.000000 -9.754957 0.920370 -9.110093 -2.571014 2.073730 18.082274 6.910752 -6.628524 37.600318 0.000000 0.000000 0.000000 -11.077589 2.228126 22.356438 0.345931 0.779800 -38.282118 1.500673 7.277655 26.122388 14.307776 -11.680767 -7.795030 0.000000 0.000000 0.000000 27.354018 -24.485382 1.706230 22.257377 -51.724867 -11.011579 85.871244 3.451765 3.701921 0.000000 0.000000 0.000000 -17.107326 5.569720 1.989439 -11.309180 40.456130 -6.743974 -44.486207 16.249057 -6.204732 0.000000 0.000000 0.000000 
0.316112 1.026058 1.133146 -20.294459 -18.627077 3.714764 21.668032 1.190440 2.414913 -0.041581 -0.037279 6.227065 0.627675 5.873259 25.719863 0.000000 0.000000 0.000000 -8.270511 1.095831 -11.430948 -2.601564 2.484673 20.525930 9.936915 -2.241512 35.152873 0.000000 0.000000 0.000000 -13.038198 3.307737 25.533063 3.906895 0.799860 -40.797410 0.083405 8.209954 27.393534 14.663625 -11.158039 -10.669229 0.000000 0.000000 0.000000 27.327780 -23.025137 1.642182 25.753857 -51.817868 -12.657137 83.575862 4.790417 4.384898 0.000000 0.000000 0.000000 -16.931486 5.030472 1.788456 -7.075398 38.125551 -5.061783 -47.437027 17.789096 -7.229403 0.000000 0.000000 0.000000 
0.326239 1.022269 1.130682 -22.945867 -16.548277 6.022854 25.341786 1.863985 -2.469059 -0.544965 0.098378 10.681634 -0.187160 4.945945 24.510797 0.000000 0.000000 0.000000 -7.204005 1.420778 -15.201175 -3.534060 3.506188 25.609168 9.758391 -0.465112 31.720545 0.000000 0.000000 0.000000 -14.267172 4.134179 28.513279 2.701036 0.746460 -39.426375 1.987253 4.911263 24.740549 15.075046 -10.813153 -12.822715 0.000000 0.000000 0.000000 24.715003 -21.657431 2.156118 28.264378 -53.198620 -13.770604 80.703327 4.199158 4.281399 0.000000 0.000000 0.000000 -13.859633 3.807961 1.951656 -2.927283 37.869445 -4.247978 -48.485213 23.673904 -10.170653 0.000000 0.000000 0.000000 
0.336771 1.014560 1.128507 -24.057606 -13.102893 6.704021 26.326858 2.282894 -7.460450 -0.877703 0.217169 16.309319 -2.103541 2.246248 21.371900 0.000000 0.000000 0.000000 -6.040970 1.585735 -17.022219 -4.123872 4.655709 32.529131 7.456100 -0.684318 26.907128 0.000000 0.000000 0.000000 -15.852130 5.365745 33.917285 3.768344 0.725014 -40.054128 2.777252 3.650784 24.629104 18.314693 -11.679105 -17.960151 0.000000 0.000000 0.000000 19.550842 -21.942477 3.624340 30.258667 -51.359817 -14.487930 77.842005 0.966306 1.236772 0.000000 0.000000 0.000000 -10.128657 4.666553 1.924160 6.474600 38.050863 -1.895673 -53.620972 28.826107 -13.455052 0.000000 0.000000 0.000000 
0.346746 1.005601 1.128203 -25.004951 -9.225268 7.437372 26.721038 2.897953 -14.171563 -0.497364 0.048990 22.642939 -3.847563 -0.118013 19.527764 0.000000 0.000000 0.000000 -6.808631 1.473540 -17.630849 -4.044039 4.515488 34.909091 6.464647 0.204313 23.485656 0.000000 0.000000 0.000000 -17.510368 6.384810 38.562800 4.881501 0.356163 -36.840611 4.399287 3.466407 21.715111 19.049437 -9.936929 -23.685821 0.000000 0.000000 0.000000 19.443003 -22.003264 4.282129 23.686529 -50.200257 -12.105977 69.504047 -2.696003 -1.271716 0.000000 0.000000 0.000000 -6.440092 5.043919 1.883106 20.979274 36.002210 1.677443 -56.898795 40.530368 -19.744783 0.000000 0.000000 0.000000 
0.355601 0.996502 1.131413 -26.359354 -7.120230 10.336552 27.313202 3.986510 -21.410734 -0.907715 0.186752 27.773554 -2.733530 0.692896 16.213416 0.000000 0.000000 0.000000 -5.458077 1.709805 -19.231131 -5.297986 5.000369 36.032253 6.875654 0.487946 25.021210 0.000000 0.000000 0.000000 -17.464254 6.368045 39.234986 6.219056 0.038219 -34.699721 4.962197 4.679546 20.754152 17.984182 -6.780995 -31.553475 0.000000 0.000000 0.000000 16.036860 -20.376573 5.027969 12.068089 -51.047451 -8.598491 63.806295 -9.754653 -5.055802 0.000000 0.000000 0.000000 -2.508328 8.190706 2.881410 35.113785 34.331306 4.751598 -50.649800 50.899833 -21.185428 0.000000 0.000000 0.000000 
0.363528 0.977698 1.138380 -26.146451 -5.253446 13.393500 26.200872 4.523844 -27.413922 -1.542427 0.415916 31.392868 0.968615 5.299718 11.149208 0.000000 0.000000 0.000000 -3.275975 2.103325 -21.015509 -5.706123 5.204007 37.400676 4.131398 -2.222789 21.665466 0.000000 0.000000 0.000000 -17.610027 6.637354 40.859240 6.019838 0.093967 -34.536028 5.731904 5.742253 22.709944 17.983950 -5.254893 -36.801274 0.000000 0.000000 0.000000 16.496989 -21.285458 5.420549 1.071010 -47.823380 -4.555831 58.643634 -15.127240 -7.560439 0.000000 0.000000 0.000000 0.956139 9.231326 3.502144 46.456720 33.067961 6.956285 -38.401466 56.423604 -16.104712 0.000000 0.000000 0.000000 
0.372658 0.953393 1.149028 -23.757141 -3.773406 15.082822 23.010850 4.145189 -32.250886 -1.413744 0.275035 34.852680 4.468047 10.333631 5.079000 0.000000 0.000000 0.000000 -1.969833 2.240496 -21.364286 -5.871555 5.362548 39.310341 2.142060 -2.390301 14.115602 0.000000 0.000000 0.000000 -17.055413 6.810686 44.392986 5.632873 0.241094 -35.520082 6.294077 5.449353 21.869238 17.932621 -4.478461 -39.565186 0.000000 0.000000 0.000000 14.092090 -24.671521 6.667676 -12.019984 -46.587400 -0.239973 55.248648 -22.272090 -10.361830 0.000000 0.000000 0.000000 4.898366 11.415604 4.747143 51.882216 34.367439 9.012558 -26.578899 56.895067 -9.704930 0.000000 0.000000 0.000000 
0.382520 0.920738 1.162810 -20.939058 -3.302862 15.721887 20.685422 3.918317 -36.445230 -3.247194 1.177528 40.066983 6.991079 14.632781 -0.044136 0.000000 0.000000 0.000000 -0.458769 2.371918 -21.231357 -6.205053 6.124046 43.636464 0.416859 -4.605076 11.588585 0.000000 0.000000 0.000000 -17.293384 7.593519 48.701160 6.968475 0.144685 -36.141775 5.600055 6.604711 19.926778 18.175310 -4.195080 -39.822009 0.000000 0.000000 0.000000 12.405650 -25.829265 7.388744 -22.362846 -47.078205 3.081956 53.574095 -29.707236 -13.651295 0.000000 0.000000 0.000000 9.444505 14.813667 7.048380 51.048100 36.900080 10.126265 -26.613495 57.156016 -9.454886 0.000000 0.000000 0.000000 
0.391935 0.885828 1.177018 -16.217286 -0.617466 15.341862 16.253522 2.226731 -41.234893 -4.170913 1.225365 46.510292 8.189404 16.852606 -4.854374 0.000000 0.000000 0.000000 -0.232944 2.089463 -19.718257 -3.988210 4.826166 48.600034 -2.581453 -8.716329 6.398804 0.000000 0.000000 0.000000 -16.099863 6.822585 53.531054 6.947731 0.320253 -38.332111 5.140971 6.659489 20.246056 17.068844 -3.292389 -41.533016 0.000000 0.000000 0.000000 8.733595 -29.445475 8.933598 -28.736716 -48.569585 5.362843 49.554379 -35.198579 -14.917468 0.000000 0.000000 0.000000 12.043092 17.294711 8.970092 46.854288 42.819804 11.436468 -30.685577 55.664982 -11.058281 0.000000 0.000000 0.000000 
0.399728 0.853645 1.189451 -11.576088 -0.405270 15.511446 13.097271 1.142807 -44.525454 -6.212879 2.489906 52.164380 6.880673 13.248253 -8.662690 0.000000 0.000000 0.000000 0.828323 1.973654 -17.994391 -3.728215 4.736505 50.111949 -4.789470 -12.719751 2.830219 0.000000 0.000000 0.000000 -14.667567 6.291137 56.437944 6.521549 0.628443 -41.353452 3.562821 7.327530 18.580318 17.645780 -3.590547 -40.451073 0.000000 0.000000 0.000000 0.962844 -34.666260 12.091528 -32.230801 -46.842542 6.375219 43.231955 -41.614213 -15.182776 0.000000 0.000000 0.000000 16.983108 20.969013 12.226932 38.270063 48.111313 10.238624 -30.904286 50.648003 -10.208763 0.000000 0.000000 0.000000 
0.405177 0.830011 1.200141 -6.650846 1.527716 15.269075 10.146023 -0.543648 -47.024657 -8.916091 3.758191 55.244679 5.268415 9.192839 -8.344500 0.000000 0.000000 0.000000 0.652529 1.721616 -16.521639 -0.641950 2.258652 51.184296 -4.416836 -11.328484 0.570136 0.000000 0.000000 0.000000 -11.020230 3.610360 59.118051 4.184448 0.996683 -45.100055 2.159686 6.555901 19.131143 16.732725 -3.153249 -41.162461 0.000000 0.000000 0.000000 -4.130680 -37.692412 14.407854 -35.448248 -45.666349 7.309846 38.742103 -47.608003 -15.392514 0.000000 0.000000 0.000000 21.497913 21.457864 13.702329 31.098487 52.040342 8.258574 -24.370757 47.000550 -6.888428 0.000000 0.000000 0.000000 
0.407280 0.823571 1.210993 -1.769630 2.245343 13.041472 7.818322 -1.645431 -44.343630 -12.886076 6.033412 55.213087 3.530837 5.041239 -7.308513 0.000000 0.000000 0.000000 0.603316 1.328609 -13.044639 0.240782 1.420595 52.273721 -3.390411 -8.203259 -1.440549 0.000000 0.000000 0.000000 -8.281267 1.675816 62.221424 -0.490483 1.217636 -49.020431 2.359828 3.554151 20.028238 13.363384 -3.045143 -37.360815 0.000000 0.000000 0.000000 -11.158547 -38.110798 16.938900 -35.559025 -43.900839 6.970362 32.308763 -55.074362 -14.177477 0.000000 0.000000 0.000000 22.301778 21.397512 12.884232 33.159649 51.832965 8.958539 -17.902675 46.962660 -4.530489 0.000000 0.000000 0.000000 
0.405304 0.845130 1.222461 2.089346 1.847475 11.706267 5.002628 -2.317430 -38.880618 -13.929960 6.160456 50.108152 1.107130 0.636233 -3.838236 0.000000 0.000000 0.000000 -0.384774 1.019782 -10.598277 1.291534 0.811724 50.937344 -1.838772 -5.796437 3.072235 0.000000 0.000000 0.000000 -4.748836 -0.392034 60.500362 -4.361031 1.239730 -48.022843 2.107106 0.329896 19.779692 6.124029 -0.995707 -32.446952 0.000000 0.000000 0.000000 -15.467253 -35.069622 17.394669 -40.333246 -39.810666 6.929683 28.998939 -62.167525 -13.639035 0.000000 0.000000 0.000000 22.616137 21.093700 11.667320 39.804125 47.605595 10.155768 -13.026642 46.484810 -2.694421 0.000000 0.000000 0.000000 
0.395670 0.893438 1.232692 4.005651 2.454139 11.453552 2.477931 -2.655513 -32.563760 -9.493980 2.755643 40.083078 -3.740967 -3.689719 7.541222 0.000000 0.000000 0.000000 -2.443066 0.921590 -10.889693 0.912205 0.774553 48.504996 1.473815 -0.578773 8.746175 0.000000 0.000000 0.000000 -0.493056 -2.810267 54.452278 -5.434519 1.148233 -50.395987 1.806242 -2.556803 23.786609 1.370907 0.483540 -28.209668 0.000000 0.000000 0.000000 -22.866594 -28.275035 16.406620 -42.300005 -32.848949 4.072816 11.774061 -67.940290 -2.791520 0.000000 0.000000 0.000000 25.688489 19.801930 10.568579 40.858872 36.122356 5.839755 1.959149 48.208865 3.363196 0.000000 0.000000 0.000000 
0.376488 0.954655 1.238554 3.966814 0.588224 10.651618 2.364393 -1.971854 -25.899928 -8.558490 2.123532 28.606649 -1.651643 5.112123 21.542272 0.000000 0.000000 0.000000 -4.119749 0.788559 -9.861006 0.174047 1.533466 43.407906 3.372469 0.444423 14.722209 0.000000 0.000000 0.000000 0.688288 -2.465217 47.122069 -1.793222 1.220982 -48.808572 0.454494 -2.126876 26.082795 1.551489 -0.070171 -22.788362 0.000000 0.000000 0.000000 -27.200011 -19.108145 11.791265 -42.233811 -21.332051 -0.660923 -14.453237 -65.580549 14.369384 0.000000 0.000000 0.000000 27.070816 17.473946 9.188709 42.464406 22.325048 1.042334 12.104668 47.156036 7.421245 0.000000 0.000000 0.000000 
0.349473 1.006326 1.237547 3.627958 0.522654 10.751474 1.258239 -1.991977 -23.670521 -6.339968 1.179138 23.301510 1.061594 10.014548 27.262586 0.000000 0.000000 0.000000 -5.877522 0.742922 -10.506717 -0.691665 1.843537 40.286248 5.342513 0.374435 23.059508 0.000000 0.000000 0.000000 0.659504 -2.182440 42.797084 2.731241 1.315029 -50.160637 1.338206 -2.077234 28.104614 -0.041860 0.664254 -16.491325 0.000000 0.000000 0.000000 -31.200808 -11.325696 7.092332 -39.669020 -11.273147 -4.112374 -21.960289 -56.239211 15.650009 0.000000 0.000000 0.000000 23.944436 12.380685 5.784546 44.040384 9.401365 -3.534295 18.357615 41.155136 8.458809 0.000000 0.000000 0.000000 
0.316497 1.030235 1.228304 3.108520 1.289173 10.295961 0.793355 -2.009268 -22.593486 -3.883505 0.349895 20.001650 0.470829 9.805150 29.075522 0.000000 0.000000 0.000000 -8.448126 0.618269 -12.238179 -1.596149 2.076049 39.219417 4.307344 -3.137487 29.024702 0.000000 0.000000 0.000000 2.622936 -2.863643 39.013866 6.079436 0.933458 -45.017793 -0.495785 1.395156 24.881049 6.548911 -3.779573 -14.222002 0.000000 0.000000 0.000000 -27.737574 -8.279091 3.101273 -40.448166 -2.027830 -6.007248 -24.419793 -48.451642 13.531353 0.000000 0.000000 0.000000 24.477807 4.205483 1.804688 44.622361 0.734110 -6.353354 18.282458 34.295392 7.015619 0.000000 0.000000 0.000000 
0.279440 1.027288 1.213424 0.924362 -0.076150 7.355488 3.310864 -1.239973 -18.590870 -0.635997 -0.417923 17.214784 -3.483054 4.818047 29.174938 0.000000 0.000000 0.000000 -9.136596 0.575533 -12.185129 -5.187232 4.064881 38.821159 4.512196 -3.197304 29.208461 0.000000 0.000000 0.000000 2.543778 -2.593624 38.623385 7.856934 0.797027 -44.887167 2.612668 1.878359 28.193705 5.447348 -2.456475 -18.893194 0.000000 0.000000 0.000000 -25.641005 -1.887619 -0.663888 -41.713878 2.532025 -8.000535 -24.385046 -44.930969 12.585305 0.000000 0.000000 0.000000 19.920885 0.019410 -0.479681 46.436253 -3.905344 -8.576644 15.927331 30.897039 5.672134 0.000000 0.000000 0.000000 
0.237485 0.998281 1.194048 -0.895138 0.523048 5.046122 8.520570 -0.480954 -17.290302 -0.493134 -0.582814 20.345057 -4.436270 3.259804 27.497054 0.000000 0.000000 0.000000 -11.885677 0.311007 -12.082163 -6.249637 4.442050 38.452290 3.515903 -4.469562 29.198123 0.000000 0.000000 0.000000 3.196948 -2.817447 37.116770 13.604149 -0.121164 -40.827370 0.180536 5.694216 28.699306 5.083570 -0.650266 -24.972579 0.000000 0.000000 0.000000 -21.212926 1.936555 -3.745185 -43.450932 4.380059 -8.637244 -23.503981 -41.637461 10.695004 0.000000 0.000000 0.000000 18.310691 -3.711434 -1.500594 49.651439 -5.862488 -10.016614 9.900467 28.428728 4.021512 0.000000 0.000000 0.000000 
0.185220 0.958172 1.169685 -0.272193 1.305434 3.185361 11.997904 -0.047772 -17.257422 -1.651701 -0.370736 23.221606 -1.822848 5.371831 22.794213 0.000000 0.000000 0.000000 -14.482795 0.004987 -12.299668 -7.710012 4.885940 37.285488 5.277723 -1.367463 27.683078 0.000000 0.000000 0.000000 3.816365 -3.215362 38.275730 11.415196 0.216019 -42.534178 -0.580607 3.821113 30.900547 6.588298 -1.969859 -25.159190 0.000000 0.000000 0.000000 -21.835998 2.711018 -3.737231 -39.271057 3.833448 -7.995889 -15.613390 -37.156988 6.839860 0.000000 0.000000 0.000000 19.217772 -4.678975 -2.292547 49.547543 -7.289715 -10.896369 8.312363 26.653793 3.355615 0.000000 0.000000 0.000000 
0.116611 0.928342 1.143945 0.022770 -1.285275 2.053630 17.165143 0.708227 -14.652626 -4.366806 0.697765 22.893484 2.153227 9.942929 21.276682 0.000000 0.000000 0.000000 -13.614107 0.161828 -14.644673 -6.519969 5.031453 39.270263 6.161426 1.088884 23.546158 0.000000 0.000000 0.000000 2.789857 -2.376938 37.041320 11.691722 -0.325455 -38.466328 -2.446510 6.537175 27.339418 7.447490 -2.825012 -20.673005 0.000000 0.000000 0.000000 -19.674645 3.948206 -4.578666 -38.232818 2.519307 -7.033006 -9.381823 -30.838699 3.681504 0.000000 0.000000 0.000000 22.056118 -7.558068 -3.912997 48.816473 -8.179978 -10.889128 9.373319 27.136008 3.792209 0.000000 0.000000 0.000000 
0.035216 0.921125 1.117723 0.909640 0.523872 1.127519 20.361639 0.688888 -11.695632 -0.846885 -0.356326 15.958363 0.277136 8.388111 24.303508 0.000000 0.000000 0.000000 -13.708834 0.021432 -14.234550 0.210832 1.456157 38.785629 1.333894 -3.762347 15.866792 0.000000 0.000000 0.000000 3.680190 -2.816663 36.192995 7.028079 0.353329 -40.409777 -4.081843 1.922088 27.935801 7.500033 -3.968889 -18.206025 0.000000 0.000000 0.000000 -20.046217 5.990225 -4.864951 -35.391809 0.495261 -6.268266 -6.548015 -29.904908 3.023842 0.000000 0.000000 0.000000 22.000820 -7.404624 -4.767596 49.468351 -9.169410 -11.305387 12.566360 28.399611 4.625826 0.000000 0.000000 0.000000 
-0.046205 0.933871 1.091590 1.772613 0.879601 0.194918 19.911243 0.291305 -7.287817 1.528673 -0.678875 10.337894 1.047925 10.650162 30.561676 0.000000 0.000000 0.000000 -11.544960 0.202808 -14.233687 5.194200 -0.936464 36.473956 -1.660428 -8.535497 13.898049 0.000000 0.000000 0.000000 3.833774 -2.686081 33.965054 4.788379 0.576800 -40.720656 -6.521511 -1.121844 29.537849 9.846627 -6.749446 -16.038742 0.000000 0.000000 0.000000 -19.039155 7.273877 -4.668335 -38.633661 -0.937642 -6.835509 -8.840254 -31.028354 4.124197 0.000000 0.000000 0.000000 22.784444 -7.140502 -5.461499 49.498652 -6.639464 -10.438839 17.779065 30.547260 6.325362 0.000000 0.000000 0.000000 
-0.118804 0.964173 1.063754 1.914526 0.578454 1.640745 15.547964 0.005273 -5.974924 -2.280278 0.048111 13.238410 3.039638 12.466668 28.039698 0.000000 0.000000 0.000000 -8.316999 0.564296 -13.860045 6.114376 -1.171301 29.731513 -1.711580 -9.989109 20.042199 0.000000 0.000000 0.000000 3.269326 -2.225852 30.547939 3.809457 0.673113 -40.574474 -5.626804 -3.599128 29.174501 7.090449 -5.114767 -15.497594 0.000000 0.000000 0.000000 -23.127001 5.327423 -3.317031 -37.731729 -1.996193 -6.605366 -9.624811 -32.746386 4.740038 0.000000 0.000000 0.000000 22.636346 -5.830733 -5.468703 46.541711 -6.526241 -9.532969 21.531788 35.384108 8.259996 0.000000 0.000000 0.000000 
-0.185356 0.995179 1.033472 1.450944 -0.289446 2.128269 9.473642 -0.195175 -6.299214 -7.359583 1.497696 20.664340 4.753568 14.127122 26.123460 0.000000 0.000000 0.000000 -4.236260 0.955054 -13.349409 5.721300 -0.863711 25.233763 -2.940370 -13.021829 26.443059 0.000000 0.000000 0.000000 2.951902 -2.068458 30.430093 4.558916 0.713825 -42.328762 -5.404198 -3.533810 31.217719 5.700124 -4.339392 -14.820833 0.000000 0.000000 0.000000 -25.139987 4.119279 -2.408363 -39.074739 -4.799303 -6.413569 -9.166491 -32.036743 4.626101 0.000000 0.000000 0.000000 22.493863 -6.058538 -5.658603 44.113248 -3.322771 -8.178827 26.475942 38.939112 10.931337 0.000000 0.000000 0.000000 
-0.248777 1.013896 1.002441 -0.223723 -1.155551 2.784515 3.380462 -0.496109 -7.299299 -7.583886 1.762268 23.705614 2.718661 11.718485 27.324152 0.000000 0.000000 0.000000 -2.153686 1.272740 -14.615894 7.200022 -1.268405 24.922177 -0.809645 -10.377438 27.379018 0.000000 0.000000 0.000000 3.697331 -2.444292 33.162701 6.712890 0.967891 -47.101901 -5.667563 -2.047993 32.758785 7.662625 -5.183399 -18.540490 0.000000 0.000000 0.000000 -23.735903 3.365588 -2.047716 -42.165858 -3.550816 -7.195598 -13.084737 -35.323953 6.529036 0.000000 0.000000 0.000000 18.774801 -6.831903 -5.173577 46.818767 0.398968 -7.614113 28.251243 42.317596 13.085207 0.000000 0.000000 0.000000 
-0.313247 1.004910 0.972724 -2.065758 -3.364875 2.417082 3.780009 -0.308364 -4.782354 -5.826318 1.272090 20.700998 2.798560 11.186364 25.557545 0.000000 0.000000 0.000000 -4.879651 1.192082 -16.385551 5.621606 -0.486442 30.763014 3.088616 -4.189303 23.853409 0.000000 0.000000 0.000000 4.340310 -2.464297 33.372662 9.171470 0.630898 -44.643601 -5.165566 0.776696 30.042142 7.888092 -4.970214 -17.717264 0.000000 0.000000 0.000000 -23.145365 2.241914 -1.935692 -43.705901 -1.580362 -7.649401 -12.463053 -33.255648 5.746185 0.000000 0.000000 0.000000 19.212990 -4.369929 -3.458492 44.627333 0.294772 -7.161761 29.462658 47.750032 15.730099 0.000000 0.000000 0.000000 
-0.386201 0.975006 0.942129 -2.405317 -6.014503 2.233407 6.772808 -0.145267 -4.608564 -3.607591 0.718513 18.643990 5.152099 13.330399 21.895897 0.000000 0.000000 0.000000 -9.899412 0.762467 -15.440733 0.351553 1.849208 30.962276 -0.382984 -10.163068 25.003708 0.000000 0.000000 0.000000 4.993768 -2.399950 33.572813 9.777968 0.480879 -43.460192 -5.719029 3.206776 31.620837 8.023508 -4.348848 -21.704237 0.000000 0.000000 0.000000 -22.994122 4.262533 -3.364155 -43.459581 0.474926 -8.350981 -14.507480 -33.219937 6.334941 0.000000 0.000000 0.000000 20.967018 -3.126834 -2.581470 42.218424 2.297386 -6.522193 31.454968 55.019092 20.031434 0.000000 0.000000 0.000000 
-0.472448 0.945709 0.909502 -2.679035 -8.346337 3.586006 11.162545 0.143628 -5.915055 -3.116564 0.643932 16.450780 4.947207 12.381607 18.862547 0.000000 0.000000 0.000000 -11.500752 0.756092 -14.510229 -2.241489 2.678023 27.540897 -0.346238 -10.706693 25.514313 0.000000 0.000000 0.000000 4.683327 -2.079743 33.632883 9.494230 0.065267 -40.002334 -6.115298 6.220941 26.704155 5.512353 -1.995072 -21.633517 0.000000 0.000000 0.000000 -20.815629 4.060297 -3.787608 -42.623986 2.271741 -8.031588 -13.841613 -28.961423 4.959260 0.000000 0.000000 0.000000 23.217551 -2.660918 -2.220776 39.082360 3.039062 -5.436455 32.470740 55.765174 20.731000 0.000000 0.000000 0.000000 
-0.567055 0.936790 0.878089 -1.813685 -7.208453 4.987932 16.508415 0.516559 -7.163843 0.316289 -0.317076 12.579525 4.095562 11.521530 21.047580 0.000000 0.000000 0.000000 -11.531160 0.723953 -14.422693 0.287631 1.457342 24.741435 1.149725 -6.699071 19.841140 0.000000 0.000000 0.000000 5.314764 -2.378338 33.215442 4.562766 0.959862 -44.622191 -6.521855 3.570370 30.566591 6.255275 -2.909741 -22.588139 0.000000 0.000000 0.000000 -21.447758 4.083527 -3.095621 -39.281131 1.407830 -7.632873 -10.765192 -25.925859 3.773159 0.000000 0.000000 0.000000 23.415046 -2.454649 -2.739193 41.205444 3.673664 -5.606198 34.568432 55.825972 21.701928 0.000000 0.000000 0.000000 
-0.655987 0.945089 0.850315 -1.697406 -6.396322 6.302236 17.986740 0.720476 -9.489764 2.285202 -0.780947 12.293583 4.564325 12.836557 26.598521 0.000000 0.000000 0.000000 -8.623321 0.945610 -15.473519 1.955707 0.826831 23.973493 -2.138571 -11.936510 20.433606 0.000000 0.000000 0.000000 4.977141 -2.319285 32.452301 2.450635 1.053258 -43.753229 -6.635573 1.349853 29.024714 8.611372 -4.529167 -23.812169 0.000000 0.000000 0.000000 -21.716587 5.290260 -3.462364 -39.792564 2.821683 -8.000719 -8.771679 -24.140002 3.127307 0.000000 0.000000 0.000000 23.194332 -3.617978 -4.139207 42.265806 4.373376 -5.058851 38.432380 54.745980 22.839688 0.000000 0.000000 0.000000 
-0.731991 0.964490 0.827898 -2.044659 -6.856270 7.407353 14.367006 0.448889 -11.177243 -1.812752 0.237743 17.536231 4.504864 12.186262 21.546543 0.000000 0.000000 0.000000 -5.175481 1.311512 -16.360560 2.906387 0.554570 23.484128 -0.676101 -10.305128 22.612263 0.000000 0.000000 0.000000 3.712688 -1.877243 31.855946 0.474081 1.071233 -42.387136 -3.573061 -0.598845 27.177108 7.841225 -4.305099 -23.689562 0.000000 0.000000 0.000000 -24.180615 3.418712 -1.971262 -39.490152 1.954753 -7.685103 -8.111328 -22.495301 2.777997 0.000000 0.000000 0.000000 24.394357 -4.853299 -5.935163 42.314924 2.930410 -5.030434 37.206269 49.759082 19.137124 0.000000 0.000000 0.000000 
-0.799248 0.982797 0.810836 -1.908855 -6.699171 6.312292 8.743667 -0.130241 -9.831738 -5.798811 1.522038 20.352452 1.739376 8.440585 21.071768 0.000000 0.000000 0.000000 -1.484849 1.456564 -14.684741 3.135255 0.434120 22.427597 1.531500 -6.925553 22.524328 0.000000 0.000000 0.000000 2.149454 -1.410695 32.545711 -0.285015 1.021111 -39.853094 -0.534168 -3.930266 25.453926 4.322993 -2.664890 -22.613306 0.000000 0.000000 0.000000 -28.570012 0.776301 0.635257 -39.158017 0.072371 -7.307526 -6.182418 -21.394505 2.279111 0.000000 0.000000 0.000000 21.926311 -3.201259 -5.448756 46.863510 -0.165837 -6.289239 28.317640 44.576918 12.485638 0.000000 0.000000 0.000000 
-0.861988 0.989174 0.798244 -3.381803 -5.457267 4.976563 5.817178 -0.281707 -6.278767 -5.203655 1.160025 18.553562 0.826665 7.878376 23.456876 0.000000 0.000000 0.000000 -1.214516 1.487268 -14.911364 6.427744 -0.570244 26.381967 0.486077 -7.992218 21.742103 0.000000 0.000000 0.000000 0.179475 -0.953605 33.977240 7.210191 0.570521 -42.023826 -2.547922 -2.572202 29.458505 5.062971 -2.609273 -26.492269 0.000000 0.000000 0.000000 -28.780918 1.316832 -0.228756 -41.167227 -2.716816 -7.153695 -7.158781 -22.521047 2.670452 0.000000 0.000000 0.000000 23.532375 -3.662023 -5.255134 46.005321 -0.312743 -6.841267 19.575509 35.610831 7.295436 0.000000 0.000000 0.000000 
-0.925512 0.978944 0.790684 -4.657632 -7.074331 4.493394 6.700400 -0.092628 -2.570224 -1.779671 0.203431 15.070426 3.013695 10.318038 22.500274 0.000000 0.000000 0.000000 -4.788859 1.302724 -15.884705 3.824729 0.608231 29.707982 1.845974 -5.740810 20.545353 0.000000 0.000000 0.000000 -0.157996 -0.701317 31.910338 10.240536 0.050778 -39.797753 -4.036504 -1.864564 30.482885 2.758617 -1.310886 -25.727092 0.000000 0.000000 0.000000 -27.395694 2.970970 -1.140793 -42.657154 -4.410737 -6.937606 -8.318839 -24.816402 3.339422 0.000000 0.000000 0.000000 24.741284 -3.103812 -5.258482 46.699268 -2.657175 -7.793680 12.657735 30.804851 4.367786 0.000000 0.000000 0.000000 
-0.993641 0.964701 0.789086 -4.929731 -8.293144 4.053404 9.675942 0.058609 0.040806 0.061972 -0.225535 12.712078 4.268079 11.819493 22.714140 0.000000 0.000000 0.000000 -8.917251 0.961164 -15.141150 0.728918 1.649930 27.458108 1.627727 -6.071165 19.734290 0.000000 0.000000 0.000000 0.110865 -0.688706 28.571077 13.417292 -0.886076 -35.779602 -7.092276 -0.755184 28.340183 2.426962 -0.874462 -26.541424 0.000000 0.000000 0.000000 -26.371419 4.764566 -2.552691 -43.030687 -4.278542 -6.750373 -10.747622 -28.564834 4.585812 0.000000 0.000000 0.000000 24.410461 -3.003486 -5.024026 47.218818 -4.276247 -8.330095 10.189818 25.765507 3.056147 0.000000 0.000000 0.000000 
-1.069329 0.959111 0.793399 -5.273400 -9.980084 4.988685 13.870884 0.176211 1.124363 -0.484746 -0.052640 11.401477 4.828195 12.549133 25.517765 0.000000 0.000000 0.000000 -11.290406 0.819050 -12.284404 -2.681440 2.136228 20.779964 5.525360 -2.641914 25.605986 0.000000 0.000000 0.000000 -0.628950 -0.430137 23.636223 17.327505 -1.375048 -35.138053 -9.995441 2.880634 28.382408 0.535095 0.599092 -23.376726 0.000000 0.000000 0.000000 -24.682537 6.330827 -4.273347 -43.011502 -3.963778 -6.638263 -12.875453 -29.177701 5.122800 0.000000 0.000000 0.000000 26.364940 -2.859375 -4.356989 45.109411 -4.754997 -8.401090 7.909188 20.991241 2.135825 0.000000 0.000000 0.000000 
-1.150199 0.962428 0.800434 -4.501355 -9.915015 5.298643 17.385753 0.436268 -2.077182 1.663407 -0.613368 17.586754 2.525574 10.020881 28.048724 0.000000 0.000000 0.000000 -11.303238 0.768019 -9.707170 -3.530793 2.159771 19.043883 8.545173 1.032936 27.450110 0.000000 0.000000 0.000000 -1.356404 -0.284075 20.243122 16.813323 -1.089617 -36.020802 -10.772224 2.776294 29.183983 -1.273971 1.681916 -21.554190 0.000000 0.000000 0.000000 -26.691104 7.278292 -5.004006 -40.836882 -3.476400 -6.643323 -12.631395 -29.991173 5.213501 0.000000 0.000000 0.000000 22.774940 -0.489856 -2.389137 51.150840 -5.808689 -10.177499 5.748622 17.639487 1.470323 0.000000 0.000000 0.000000 
-1.227463 0.963402 0.808467 -4.100425 -7.654039 3.838358 17.479896 0.623395 -6.546473 3.979647 -1.691210 28.308138 3.454803 11.326864 25.373587 0.000000 0.000000 0.000000 -8.103051 0.590244 -6.031314 -2.862385 1.762067 17.731890 7.967549 1.976531 24.571023 0.000000 0.000000 0.000000 -2.328298 -0.157702 21.391296 15.604224 -0.404910 -39.513790 -10.507952 2.678727 31.100520 0.673988 0.297708 -17.923022 0.000000 0.000000 0.000000 -25.917658 6.768120 -4.818435 -42.106354 -2.741830 -7.196623 -11.183720 -30.200541 4.851895 0.000000 0.000000 0.000000 23.687731 -1.487728 -2.631744 49.923662 -4.588211 -9.812153 7.589028 15.117131 1.470607 0.000000 0.000000 0.000000 
-1.291926 0.964816 0.818949 -3.917801 -7.798078 2.310630 13.955194 0.517567 -9.840353 2.710375 -1.267282 36.858064 5.697125 13.509689 16.179785 0.000000 0.000000 0.000000 -5.151137 0.348685 -2.225092 -3.414107 1.678396 15.498361 7.705727 2.177052 23.143102 0.000000 0.000000 0.000000 -3.559293 0.106827 22.037790 14.873747 -0.426782 -39.583448 -9.080224 3.877693 31.618669 0.798646 0.351013 -16.843973 0.000000 0.000000 0.000000 -27.235404 5.456667 -4.482890 -41.222926 -2.417887 -7.171511 -10.027162 -30.236987 4.443658 0.000000 0.000000 0.000000 24.191812 -0.715105 -1.736522 49.840504 -2.924432 -9.422196 7.284216 16.941273 1.679541 0.000000 0.000000 0.000000 
-1.342299 0.970590 0.834381 -3.641037 -8.807755 1.214894 10.213496 0.234212 -13.007437 -0.442643 0.477690 39.144444 6.146443 13.883063 13.094014 0.000000 0.000000 0.000000 -3.290249 0.031221 1.742547 -4.085594 1.631022 13.396931 7.897983 2.702417 22.191912 0.000000 0.000000 0.000000 -3.759320 0.196079 22.475535 12.443970 0.009699 -41.332411 -7.176999 4.505389 32.495762 1.864442 -0.680953 -14.086094 0.000000 0.000000 0.000000 -28.138025 3.367906 -3.137278 -41.690713 -1.362068 -7.690810 -9.791789 -27.492410 3.923000 0.000000 0.000000 0.000000 25.059905 0.653803 -0.893587 50.119300 -1.833519 -9.188842 4.690525 17.887486 1.440798 0.000000 0.000000 0.000000 
-1.380822 0.979413 0.854857 -3.772341 -11.446962 0.745151 6.361215 -0.189416 -14.245445 -4.823757 2.614083 33.043147 5.734243 13.014560 14.382669 0.000000 0.000000 0.000000 -1.222673 -0.291316 4.581314 -5.676628 1.991806 13.143167 8.705603 2.972163 22.919287 0.000000 0.000000 0.000000 -5.908427 0.693809 20.970519 13.205213 -0.642152 -38.099103 -4.274045 8.141645 28.887123 1.905414 -0.565920 -10.181680 0.000000 0.000000 0.000000 -26.941132 3.254715 -3.989993 -44.815643 1.290835 -8.367273 -10.885002 -24.898050 3.641017 0.000000 0.000000 0.000000 23.811059 -0.271751 -0.859280 48.687645 -1.605368 -8.521728 5.834224 20.405917 1.877609 0.000000 0.000000 0.000000 
-1.412516 0.981808 0.879069 -4.254296 -13.149350 -0.313376 1.819748 -0.775995 -13.808558 -4.471680 1.768462 23.096357 4.980291 11.706843 17.339504 0.000000 0.000000 0.000000 0.471508 -0.784756 9.456311 -6.558297 1.479609 7.733459 10.374573 5.622331 22.257156 0.000000 0.000000 0.000000 -4.380086 0.481765 22.407119 9.289600 0.701000 -44.719085 0.480086 8.474198 35.686745 1.294642 -0.224563 -9.299012 0.000000 0.000000 0.000000 -28.562008 2.270653 -2.865313 -44.292546 0.893672 -9.008871 -7.992394 -25.090973 3.157412 0.000000 0.000000 0.000000 23.388019 0.829144 -0.079930 47.263349 0.440800 -8.372221 6.080077 21.415002 2.050168 0.000000 0.000000 0.000000 
