HIERARCHY
ROOT Hips
{
	OFFSET -0.001795 -0.223333 0.028219
	CHANNELS 6 Xposition Yposition Zposition Zrotation Yrotation Xrotation 
	JOINT LeftUpLeg
	{
		OFFSET 0.069520 -0.091406 -0.006815
		CHANNELS 3 Zrotation Yrotation Xrotation
		JOINT LeftLeg
		{
			OFFSET 0.034277 -0.375199 -0.004496
			CHANNELS 3 Zrotation Yrotation Xrotation
			JOINT LeftFoot
			{
				OFFSET -0.013596 -0.397961 -0.043693
				CHANNELS 3 Zrotation Yrotation Xrotation
				JOINT LeftToe
				{
					OFFSET 0.026358 -0.055791 0.119288
					CHANNELS 3 Zrotation Yrotation Xrotation
					End Site
					{
						OFFSET 0.000000 0.000000 0.000000
					}
				}
			}
		}
	}
	JOINT RightUpLeg
	{
		OFFSET -0.067670 -0.090522 -0.004320
		CHANNELS 3 Zrotation Yrotation Xrotation
		JOINT RightLeg
		{
			OFFSET -0.038290 -0.382569 -0.008850
			CHANNELS 3 Zrotation Yrotation Xrotation
			JOINT RightFoot
			{
				OFFSET 0.015774 -0.398415 -0.042312
				CHANNELS 3 Zrotation Yrotation Xrotation
				JOINT RightToe
				{
					OFFSET -0.025372 -0.048144 0.123348
					CHANNELS 3 Zrotation Yrotation Xrotation
					End Site
					{
						OFFSET 0.000000 0.000000 0.000000
					}
				}
			}
		}
	}
	JOINT Spine
	{
		OFFSET -0.002533 0.108963 -0.026696
		CHANNELS 3 Zrotation Yrotation Xrotation
		JOINT Spine1
		{
			OFFSET 0.005487 0.135180 0.001092
			CHANNELS 3 Zrotation Yrotation Xrotation
			JOINT Spine2
			{
				OFFSET 0.001457 0.052922 0.025425
				CHANNELS 3 Zrotation Yrotation Xrotation
				JOINT Neck
				{
					OFFSET -0.002778 0.213870 -0.042857
					CHANNELS 3 Zrotation Yrotation Xrotation
					JOINT Head
					{
						OFFSET 0.005152 0.064970 0.051349
						CHANNELS 3 Zrotation Yrotation Xrotation
						End Site
						{
							OFFSET 0.000000 0.000000 0.000000
						}
					}
				}
				JOINT LeftShoulder
				{
					OFFSET 0.078845 0.121749 -0.034090
					CHANNELS 3 Zrotation Yrotation Xrotation
					JOINT LeftArm
					{
						OFFSET 0.090977 0.030469 -0.008868
						CHANNELS 3 Zrotation Yrotation Xrotation
						JOINT LeftForeArm
						{
							OFFSET 0.259612 -0.012772 -0.027456
							CHANNELS 3 Zrotation Yrotation Xrotation
							JOINT LeftHand
							{
								OFFSET 0.249234 0.008986 -0.001171
								CHANNELS 3 Zrotation Yrotation Xrotation
								End Site
								{
									OFFSET 0.000000 0.000000 0.000000
								}
							}
						}
					}
				}
				JOINT RightShoulder
				{
					OFFSET -0.081759 0.118833 -0.038615
					CHANNELS 3 Zrotation Yrotation Xrotation
					JOINT RightArm
					{
						OFFSET -0.096012 0.032551 -0.009143
						CHANNELS 3 Zrotation Yrotation Xrotation
						JOINT RightForeArm
						{
							OFFSET -0.253742 -0.013329 -0.021401
							CHANNELS 3 Zrotation Yrotation Xrotation
							JOINT RightHand
							{
								OFFSET -0.255298 0.007772 -0.005559
								CHANNELS 3 Zrotation Yrotation Xrotation
								End Site
								{
									OFFSET 0.000000 0.000000 0.000000
								}
							}
						}
					}
				}
			}
		}
	}
}
MOTION
Frames: 100
Frame Time: 0.050000
0.000000 0.983062 0.000000 -9.087662 -22.282262 13.054282 6.097391 0.392808 -22.582591 2.817147 0.166526 27.222567 1.185974 3.068232 4.700634 0.000000 0.000000 0.000000 -5.078500 1.080103 -9.730967 13.982081 3.828638 82.867815 -2.660574 -8.057092 3.560503 0.000000 0.000000 0.000000 -2.661428 0.175574 11.512890 -1.649300 1.001692 -30.006817 3.187070 10.610677 28.455678 8.059657 -2.283066 -34.387559 0.000000 0.000000 0.000000 -10.485408 -1.081372 0.535637 -56.615982 -14.059784 -2.173537 -0.620097 -41.847458 3.544980 0.000000 0.000000 0.000000 14.502299 0.296279 -1.395961 69.740944 18.627889 1.713794 6.121571 50.401320 5.622556 0.000000 0.000000 0.000000 
-0.008246 0.989417 0.010264 -10.879589 -21.336248 12.420158 9.480005 0.967443 -20.440189 1.396319 0.640977 27.303146 -0.232360 -0.421806 0.475594 0.000000 0.000000 0.000000 -5.557863 1.554737 -14.999058 15.032059 2.575663 91.473988 -1.101604 -6.925756 11.721669 0.000000 0.000000 0.000000 -1.632650 0.000139 12.277828 -0.029514 0.758420 -30.320232 2.137319 11.603502 28.335269 8.705871 -2.126924 -36.199543 0.000000 0.000000 0.000000 -12.014240 -0.820121 0.194097 -54.809295 -11.863950 -3.476038 -3.323503 -41.066366 4.237083 0.000000 0.000000 0.000000 18.144034 -0.798520 -2.045096 66.457664 15.809641 -0.094299 10.257850 48.572976 7.376376 0.000000 0.000000 0.000000 
-0.017734 0.993102 0.020606 -11.077087 -18.897627 10.750855 9.695614 0.607948 -16.567824 1.473679 0.302252 26.145189 0.610582 0.996910 -1.309469 0.000000 0.000000 0.000000 -5.972381 1.454480 -14.751921 14.005409 1.918510 89.263477 -3.742209 -10.937523 6.001977 0.000000 0.000000 0.000000 0.560255 -0.386515 12.617203 -2.077562 0.965963 -28.305545 1.686307 11.383358 26.572029 8.605189 -1.966787 -35.338931 0.000000 0.000000 0.000000 -12.760859 -2.220624 0.615255 -53.164253 -13.425486 -2.642590 -3.923876 -37.667656 3.727755 0.000000 0.000000 0.000000 17.861611 -2.413477 -2.616936 64.533322 13.582572 -1.163244 12.525128 50.185764 8.805575 0.000000 0.000000 0.000000 
-0.028610 0.996833 0.030028 -11.152278 -19.753343 10.469885 10.852353 0.744661 -14.564694 1.878497 0.239180 26.324231 -0.395528 -1.169841 -1.327762 0.000000 0.000000 0.000000 -8.074228 1.696863 -18.133438 11.056869 5.013427 84.067701 -2.969599 -8.877312 3.975396 0.000000 0.000000 0.000000 0.456682 -0.359679 12.517882 -1.763467 0.993549 -29.869142 0.872986 10.986756 27.299557 10.346133 -2.865572 -35.773359 0.000000 0.000000 0.000000 -11.905216 -0.557341 -0.020939 -54.383890 -11.487974 -3.555019 -4.967981 -36.733630 4.085331 0.000000 0.000000 0.000000 18.336860 -5.025433 -4.302094 63.677546 10.914583 -2.804408 19.127242 50.081913 11.689414 0.000000 0.000000 0.000000 
-0.041004 0.999327 0.038840 -10.729557 -18.795619 8.642474 12.297278 0.896805 -13.126297 1.677843 0.385536 29.018209 -1.064267 -4.162884 -5.933545 0.000000 0.000000 0.000000 -10.241102 1.575799 -18.951000 7.932262 5.658755 72.670981 -1.294508 -6.151478 6.165364 0.000000 0.000000 0.000000 0.347060 -0.354295 12.169041 -2.343650 1.058781 -29.000290 0.551191 10.058637 26.741098 11.452580 -3.630509 -34.373655 0.000000 0.000000 0.000000 -10.906064 0.535737 -0.493806 -55.651786 -9.386695 -4.453740 -6.929286 -33.974419 4.332775 0.000000 0.000000 0.000000 17.536308 -6.415114 -4.982820 63.411700 7.656587 -4.524660 23.581880 51.112528 14.037013 0.000000 0.000000 0.000000 
-0.054910 1.000406 0.045639 -10.423720 -19.040850 7.728204 12.250813 0.784305 -10.870614 1.631276 0.385414 28.519030 -0.803939 -4.392447 -8.434876 0.000000 0.000000 0.000000 -11.374552 1.516710 -19.194376 4.333687 5.849032 58.180843 0.123399 -5.243450 9.961764 0.000000 0.000000 0.000000 0.049079 -0.307986 11.479889 -2.081996 0.970271 -28.443138 0.625738 9.998603 27.323540 10.763643 -3.435914 -34.035897 0.000000 0.000000 0.000000 -11.574446 1.337980 -0.865698 -55.787056 -6.752870 -5.729960 -7.318163 -33.694240 4.427142 0.000000 0.000000 0.000000 16.443192 -6.474768 -4.842777 63.242920 5.483355 -5.802779 24.616272 53.363487 15.288409 0.000000 0.000000 0.000000 
-0.070813 0.997972 0.050970 -9.771444 -18.990182 7.122028 12.650518 0.770834 -9.335459 1.566915 0.344228 27.717486 -0.834554 -5.028333 -9.899060 0.000000 0.000000 0.000000 -12.378738 1.374058 -17.736527 1.497762 4.449199 42.169808 1.969183 -3.918934 13.590722 0.000000 0.000000 0.000000 0.143303 -0.313436 10.965017 -1.839812 0.919095 -28.120507 0.608285 10.110326 27.287226 10.650608 -3.539449 -32.984068 0.000000 0.000000 0.000000 -11.275338 2.904940 -1.634155 -56.934364 -3.909932 -7.091001 -9.464388 -32.833399 4.937942 0.000000 0.000000 0.000000 15.701289 -8.548433 -5.769331 62.173125 2.314842 -7.378753 27.166162 54.460532 16.960377 0.000000 0.000000 0.000000 
-0.089457 0.993542 0.054702 -8.730803 -18.764566 6.754229 13.296432 0.803490 -8.412197 1.330960 0.318725 26.453229 -1.239488 -6.332317 -10.371381 0.000000 0.000000 0.000000 -12.691865 1.293538 -16.524736 -0.079520 3.005615 29.928560 4.157950 0.419801 12.716115 0.000000 0.000000 0.000000 0.967764 -0.410456 10.412848 -2.176596 0.995083 -28.487516 0.579431 10.173648 28.146745 9.619506 -3.108693 -32.722697 0.000000 0.000000 0.000000 -11.900507 3.397551 -1.906255 -57.555520 -2.244336 -8.070950 -9.906515 -32.799474 5.084838 0.000000 0.000000 0.000000 16.781095 -8.790865 -6.055482 60.508234 0.945812 -7.999807 23.813109 54.659911 15.287873 0.000000 0.000000 0.000000 
-0.111935 0.985362 0.057926 -6.711897 -17.364302 6.009168 13.458115 0.730119 -7.946597 1.018903 0.265466 25.997256 -1.575964 -7.387920 -10.153382 0.000000 0.000000 0.000000 -13.226871 1.189123 -16.502757 -0.491461 2.367727 25.402346 5.296268 3.886999 11.135972 0.000000 0.000000 0.000000 1.504149 -0.457781 9.632605 -2.699061 1.071777 -27.591844 0.171736 10.556006 27.047878 8.349499 -2.606193 -30.127136 0.000000 0.000000 0.000000 -11.944918 3.066267 -1.972506 -57.855200 -0.191369 -9.024057 -11.817348 -32.405883 5.408396 0.000000 0.000000 0.000000 17.674323 -8.922389 -6.035772 59.378252 -0.264395 -8.302709 17.928441 53.045933 11.939956 0.000000 0.000000 0.000000 
-0.139748 0.976246 0.060502 -4.638959 -15.400154 4.019285 14.344344 0.775667 -7.826233 0.757827 0.206604 27.097168 -2.225625 -9.484765 -10.041297 0.000000 0.000000 0.000000 -13.256116 0.973661 -13.890017 -0.949850 2.404981 25.465418 5.159188 5.172053 9.240525 0.000000 0.000000 0.000000 1.097482 -0.435491 10.498073 -3.170550 1.187203 -27.434763 -0.096769 10.870139 26.547368 7.655395 -2.009630 -29.871501 0.000000 0.000000 0.000000 -13.198394 2.637455 -2.144853 -57.743924 0.169023 -9.268272 -9.563139 -31.567776 4.459096 0.000000 0.000000 0.000000 18.601030 -9.428747 -6.090784 59.174790 -1.430165 -8.799912 13.726958 49.570588 9.392312 0.000000 0.000000 0.000000 
-0.172706 0.969022 0.061560 -3.091296 -12.204378 2.567162 15.163605 0.752784 -8.246995 0.965121 -0.140514 29.208932 -2.729638 -11.353896 -9.912028 0.000000 0.000000 0.000000 -12.629906 0.775392 -11.434457 -0.624697 2.308788 27.243820 3.118099 4.708847 4.084978 0.000000 0.000000 0.000000 1.487760 -0.511334 10.954823 -4.574467 1.523658 -27.878604 0.311545 9.920113 27.386718 6.393909 -1.259752 -29.332710 0.000000 0.000000 0.000000 -14.553873 3.570261 -2.940970 -57.657569 -0.398213 -9.131264 -7.931231 -30.808562 3.833365 0.000000 0.000000 0.000000 19.424665 -9.159214 -5.760893 60.622717 -0.069673 -8.440412 8.941850 45.157103 6.738518 0.000000 0.000000 0.000000 
-0.206745 0.965805 0.059782 -2.316279 -10.273724 2.009961 15.641992 0.803938 -9.727361 2.930722 -1.128205 31.480966 -3.556732 -13.318296 -9.119759 0.000000 0.000000 0.000000 -11.515751 0.703605 -10.823615 0.863998 1.822133 28.863280 0.339183 2.664856 -2.450530 0.000000 0.000000 0.000000 1.751486 -0.553784 10.956457 -3.877496 1.387497 -27.338800 -0.294323 10.533878 27.366187 5.478628 -0.464582 -29.324954 0.000000 0.000000 0.000000 -15.339683 4.657016 -3.962985 -59.240214 0.237139 -9.730671 -5.660264 -29.593017 2.966326 0.000000 0.000000 0.000000 19.476112 -8.937827 -5.181759 61.690369 1.856010 -7.570651 5.556696 40.635722 4.986775 0.000000 0.000000 0.000000 
-0.236933 0.969517 0.055747 -2.271638 -9.312510 2.423016 17.343635 1.384513 -15.238473 2.716579 -1.160542 38.169767 -4.219037 -10.245983 -2.080795 0.000000 0.000000 0.000000 -9.442281 0.727133 -10.385732 1.413548 1.606844 29.547134 -1.443938 -0.803394 -4.605789 0.000000 0.000000 0.000000 3.060189 -0.711513 11.025699 -3.975183 1.433172 -28.133085 -0.340738 11.117910 28.257655 4.347915 0.362537 -29.610617 0.000000 0.000000 0.000000 -15.431600 5.420689 -4.591751 -61.091877 1.046676 -10.572058 -3.213023 -28.276299 2.170848 0.000000 0.000000 0.000000 19.357945 -8.315768 -4.505772 61.962934 3.366403 -6.896552 3.949782 36.619663 3.986783 0.000000 0.000000 0.000000 
-0.260043 0.976419 0.050984 -1.511355 -8.281077 2.203215 16.293688 1.673175 -21.805624 1.374420 -0.594919 46.970015 -1.615875 -2.491870 2.036955 0.000000 0.000000 0.000000 -8.312436 0.686589 -9.239980 1.069443 1.632767 29.459778 -1.580996 -1.372472 -4.432705 0.000000 0.000000 0.000000 3.134724 -0.773522 11.965718 -3.817373 1.412310 -28.613156 0.523957 11.815703 28.132227 3.389618 1.205242 -30.823507 0.000000 0.000000 0.000000 -16.389201 3.915283 -4.300146 -61.353055 2.478161 -11.311974 -4.534465 -27.250864 2.288009 0.000000 0.000000 0.000000 17.988691 -8.624613 -4.263209 61.420327 3.723121 -6.543099 5.349603 35.439022 4.347544 0.000000 0.000000 0.000000 
-0.277179 0.989025 0.048227 -0.544942 -6.918004 2.006442 14.087382 1.522356 -28.483900 -1.070663 0.709731 54.553769 -0.463456 0.353516 3.185532 0.000000 0.000000 0.000000 -7.856432 0.589868 -7.274555 1.101370 1.341415 27.440573 -1.553000 -1.652045 -3.988812 0.000000 0.000000 0.000000 3.641418 -0.922485 13.384534 -5.256606 1.714289 -29.713226 1.261451 10.785323 28.712150 3.858150 0.959450 -31.371365 0.000000 0.000000 0.000000 -17.400185 4.223403 -4.625328 -61.890239 2.290325 -11.323692 -5.523050 -25.792976 2.405460 0.000000 0.000000 0.000000 16.846015 -9.101108 -4.454174 61.749738 4.284281 -6.248790 4.532834 34.324801 3.939454 0.000000 0.000000 0.000000 
-0.290717 1.005731 0.048891 0.581688 -7.148026 2.621540 12.564263 1.404210 -33.013319 -5.791796 4.103252 56.160305 3.110760 7.437237 3.698360 0.000000 0.000000 0.000000 -8.206432 0.553010 -5.728734 1.055628 1.103020 23.726271 -0.931933 -1.213053 -1.931569 0.000000 0.000000 0.000000 2.784818 -0.809106 13.422726 -4.763935 1.618274 -30.057174 1.666044 11.775078 29.703171 4.281308 0.852701 -31.177517 0.000000 0.000000 0.000000 -18.082412 3.642926 -4.631558 -61.309546 2.810524 -11.565703 -6.331450 -25.556563 2.528798 0.000000 0.000000 0.000000 16.639028 -8.684375 -4.027929 61.522077 4.899094 -6.006499 3.336086 35.345369 3.836487 0.000000 0.000000 0.000000 
-0.301953 1.023899 0.053782 1.543771 -7.055433 3.309218 10.530689 0.926424 -36.597989 -8.764169 5.609642 52.109461 4.766283 10.990857 6.354852 0.000000 0.000000 0.000000 -8.191400 0.509550 -3.838091 0.957049 0.830137 19.287902 -0.245018 -0.729753 0.187272 0.000000 0.000000 0.000000 2.053498 -0.710207 13.374736 -4.712575 1.608427 -29.545387 1.711422 12.187499 29.358947 4.728031 0.860173 -33.003747 0.000000 0.000000 0.000000 -17.598001 3.900054 -4.809131 -60.878252 3.261811 -11.654413 -7.640611 -26.194690 2.840759 0.000000 0.000000 0.000000 15.987173 -9.805286 -4.534870 61.987700 5.448847 -5.570977 2.002974 35.436100 3.517122 0.000000 0.000000 0.000000 
-0.311229 1.038200 0.063595 2.448526 -7.676099 4.213055 9.088257 0.579480 -38.089020 -11.439572 6.265105 43.897756 7.655958 16.023312 7.509238 0.000000 0.000000 0.000000 -8.477049 0.528367 -2.991179 0.738894 0.700480 16.015681 0.792157 0.483521 2.337769 0.000000 0.000000 0.000000 1.402000 -0.612074 13.391427 -5.883116 1.815351 -30.948031 2.885471 12.510817 30.493226 5.837817 0.155516 -31.807226 0.000000 0.000000 0.000000 -16.696867 3.234465 -4.235224 -60.842978 3.185425 -11.775822 -8.433093 -25.995509 3.023287 0.000000 0.000000 0.000000 14.820560 -11.457781 -5.353453 62.403470 6.232394 -5.147315 4.773191 37.015532 4.675160 0.000000 0.000000 0.000000 
-0.318398 1.047174 0.077432 2.514789 -7.743139 4.287328 8.027015 0.224914 -38.307661 -11.174833 5.124621 36.747071 6.549663 14.116189 7.818314 0.000000 0.000000 0.000000 -7.805272 0.457811 -1.168365 -0.002682 0.677681 13.032548 1.225798 1.304270 2.662048 0.000000 0.000000 0.000000 1.610927 -0.661920 14.059756 -5.081570 1.676285 -31.044047 1.641501 12.078563 30.439955 6.171982 -0.031909 -32.471017 0.000000 0.000000 0.000000 -16.553425 4.087155 -4.543627 -60.122365 4.390129 -12.205256 -9.065589 -28.119787 3.467898 0.000000 0.000000 0.000000 15.378249 -11.541270 -5.527955 62.689332 6.384356 -5.131825 4.627217 40.117443 5.152613 0.000000 0.000000 0.000000 
-0.323286 1.049428 0.095492 2.678012 -7.978523 4.879607 6.149009 -0.406184 -38.233096 -10.279968 3.994136 30.649410 6.217277 13.548084 8.317781 0.000000 0.000000 0.000000 -7.592121 0.430524 -0.058114 -0.301675 0.638919 11.443429 1.454935 1.099659 3.812898 0.000000 0.000000 0.000000 1.415651 -0.607969 13.307110 -5.168794 1.690669 -30.919189 1.731254 11.240067 30.571172 7.349917 -0.744349 -33.072660 0.000000 0.000000 0.000000 -14.274394 4.050577 -3.865982 -61.365922 3.550147 -12.142308 -10.691927 -27.329957 3.843157 0.000000 0.000000 0.000000 15.343497 -11.988394 -5.932334 62.116817 6.631366 -5.075214 6.224323 42.998806 6.179548 0.000000 0.000000 0.000000 
-0.325954 1.046147 0.118037 2.097658 -9.710138 5.404758 4.854296 -0.600321 -37.822643 -7.831019 2.712828 25.922207 5.095467 11.962702 13.125800 0.000000 0.000000 0.000000 -7.085729 0.413898 0.748021 -0.305971 0.579353 10.156048 2.247372 1.999844 5.046979 0.000000 0.000000 0.000000 0.555515 -0.454446 12.939810 -3.588177 1.412975 -30.828557 2.515643 11.097898 31.323078 7.240069 -0.829402 -33.557387 0.000000 0.000000 0.000000 -13.803864 3.695747 -3.373544 -61.863696 3.843374 -12.375615 -10.646460 -29.085226 4.207900 0.000000 0.000000 0.000000 14.015124 -10.998329 -5.446476 63.129293 6.218543 -5.379097 5.759952 46.335155 6.455377 0.000000 0.000000 0.000000 
-0.326736 1.039421 0.145622 1.811377 -10.707206 6.054662 3.510660 -0.915430 -37.205412 -6.350075 2.051261 23.394009 3.652576 10.247179 18.203700 0.000000 0.000000 0.000000 -7.125083 0.415242 1.892742 -0.473858 0.596481 9.812653 2.917489 2.667889 6.159370 0.000000 0.000000 0.000000 0.822390 -0.470171 12.459734 -3.935600 1.461524 -30.143405 2.575625 10.584801 30.351965 6.830967 -0.725773 -34.084981 0.000000 0.000000 0.000000 -12.472766 2.350601 -2.325869 -63.300918 1.766750 -11.416125 -10.448604 -28.432986 4.126123 0.000000 0.000000 0.000000 14.809319 -10.563408 -5.529442 63.346580 5.853475 -5.579100 5.690508 46.991386 6.291167 0.000000 0.000000 0.000000 
-0.325386 1.029313 0.179331 0.378293 -12.449393 6.685423 3.179331 -0.806456 -35.093166 -5.561347 1.850361 22.372583 3.311950 9.797370 20.532128 0.000000 0.000000 0.000000 -6.495153 0.391846 2.027230 -0.486416 0.834453 12.678973 3.163997 3.227077 5.922651 0.000000 0.000000 0.000000 1.908246 -0.592758 11.999441 -3.000234 1.278395 -29.901672 2.273152 11.370881 30.865241 6.998515 -0.824462 -34.524456 0.000000 0.000000 0.000000 -11.776411 2.279704 -2.128064 -62.672149 -0.241184 -10.267430 -11.903366 -29.344737 4.695335 0.000000 0.000000 0.000000 15.263654 -9.677425 -5.182786 62.689458 5.042322 -6.100024 6.186994 47.764814 6.529828 0.000000 0.000000 0.000000 
-0.322157 1.015995 0.220868 -0.200704 -12.079699 6.704491 1.454465 -1.390983 -31.694985 -4.572629 1.436195 21.308487 3.613934 10.048242 19.009171 0.000000 0.000000 0.000000 -6.484229 0.340630 3.717140 -0.427749 1.048996 15.557649 2.886676 2.248830 6.533615 0.000000 0.000000 0.000000 2.213507 -0.591007 10.545750 -2.939654 1.231240 -28.890169 2.371995 10.224293 30.497468 6.262787 -0.679373 -33.871407 0.000000 0.000000 0.000000 -12.708209 1.368372 -1.632836 -61.758151 -2.498400 -8.879435 -11.053164 -29.156352 4.492460 0.000000 0.000000 0.000000 15.276763 -9.045289 -5.020425 62.587672 4.607728 -6.353996 6.670203 44.329314 5.908730 0.000000 0.000000 0.000000 
-0.316577 0.998400 0.269563 -0.293032 -11.585458 6.015904 -0.094938 -1.799626 -28.818088 -4.244819 1.377215 22.412870 4.071467 10.408618 15.709664 0.000000 0.000000 0.000000 -7.149406 0.424745 2.185481 -0.652263 2.057805 25.430194 2.871740 1.240685 8.246527 0.000000 0.000000 0.000000 1.704743 -0.498841 9.598888 -2.641013 1.180309 -28.984723 1.958330 9.725185 30.940713 7.198754 -1.304975 -32.995683 0.000000 0.000000 0.000000 -13.354393 0.212889 -1.065733 -59.487885 -5.660254 -7.105176 -11.624602 -29.404077 4.687533 0.000000 0.000000 0.000000 16.642984 -9.571113 -5.503472 61.623642 3.256738 -7.129614 8.579790 39.461031 5.728586 0.000000 0.000000 0.000000 
-0.309817 0.983103 0.318534 0.182612 -9.777499 3.892879 -1.643476 -2.256613 -27.304667 -4.875101 1.840786 28.149404 4.025970 9.806620 9.271787 0.000000 0.000000 0.000000 -8.301591 0.550024 -2.709806 0.574262 3.506085 43.352410 4.616244 0.864796 15.877462 0.000000 0.000000 0.000000 1.156910 -0.474377 10.628273 -3.126284 1.286624 -28.882514 1.818071 8.022183 30.964574 7.065512 -1.200907 -34.127542 0.000000 0.000000 0.000000 -13.803325 -0.935956 -0.425993 -58.235947 -8.533293 -5.633395 -11.839121 -30.689617 5.008184 0.000000 0.000000 0.000000 17.553917 -9.971060 -5.953496 61.675950 1.771752 -7.926154 7.899261 35.552671 4.744932 0.000000 0.000000 0.000000 
-0.303897 0.974794 0.364097 0.434972 -7.662874 2.551629 -3.364523 -2.596507 -24.812567 -5.051481 1.879334 31.179540 3.496967 8.242302 4.395816 0.000000 0.000000 0.000000 -8.295480 0.707741 -10.008681 1.583615 4.508891 60.355426 4.724073 -1.704360 23.526857 0.000000 0.000000 0.000000 1.433058 -0.573867 12.142573 -4.120920 1.505579 -29.537663 1.116245 6.150652 30.906260 7.577858 -1.404298 -35.357841 0.000000 0.000000 0.000000 -13.871467 -2.864073 0.627757 -57.550566 -12.722001 -3.591673 -9.470442 -30.444030 4.323811 0.000000 0.000000 0.000000 18.081930 -10.088099 -6.199870 62.930084 1.057341 -8.437575 5.852183 32.634222 3.667707 0.000000 0.000000 0.000000 
-0.300389 0.984795 0.408148 0.062469 -5.754836 1.599501 -4.792893 -2.420374 -19.648665 -3.951700 1.122990 29.512894 3.156477 7.302171 2.634206 0.000000 0.000000 0.000000 -6.823332 1.072871 -17.011896 2.717837 3.966817 70.828403 3.040670 -3.679408 22.834056 0.000000 0.000000 0.000000 2.190338 -0.724660 12.980253 -4.844345 1.652143 -30.583259 0.315903 2.836524 31.280179 6.536273 -1.288886 -35.202906 0.000000 0.000000 0.000000 -14.059927 -2.919158 1.071472 -57.523430 -14.410079 -2.800246 -9.176340 -30.299442 4.376760 0.000000 0.000000 0.000000 18.415246 -9.954713 -6.649283 63.552529 -0.037787 -9.209578 6.247461 30.445516 3.304010 0.000000 0.000000 0.000000 
-0.298596 1.006033 0.452160 -0.504290 -3.856759 0.687274 -5.431927 -1.713294 -12.936488 -2.070366 0.133584 24.023712 1.643412 4.764429 3.946426 0.000000 0.000000 0.000000 -5.880630 1.423771 -22.128698 4.200041 1.780577 72.578791 1.092025 -5.620559 19.594515 0.000000 0.000000 0.000000 2.725759 -0.835493 13.337179 -3.463054 1.399483 -31.162175 -1.598353 0.872228 31.469302 6.233875 -1.420427 -34.134276 0.000000 0.000000 0.000000 -13.552292 -2.703620 1.116448 -58.244177 -14.559747 -2.715991 -9.633096 -32.009302 4.888160 0.000000 0.000000 0.000000 18.379343 -10.833370 -7.316684 63.946868 -1.021829 -9.815763 6.894288 30.616727 3.441237 0.000000 0.000000 0.000000 
-0.298288 1.027210 0.495608 -1.358683 -1.921124 0.242318 -4.964822 -0.880615 -6.928514 -1.089173 -0.263240 18.880270 0.354200 3.444655 7.032670 0.000000 0.000000 0.000000 -3.937960 1.986677 -26.563150 4.556235 0.306027 68.049492 0.065240 -6.271789 16.169631 0.000000 0.000000 0.000000 3.640172 -0.948057 12.840703 -3.414332 1.380487 -32.505397 -2.222709 -2.411819 32.867417 5.322802 -1.642066 -31.860371 0.000000 0.000000 0.000000 -13.777192 -2.725639 1.536249 -58.692096 -15.481077 -2.333179 -9.168814 -33.727124 5.269793 0.000000 0.000000 0.000000 17.224852 -10.850728 -7.512637 64.587987 -2.032611 -10.712602 8.459381 32.080705 3.922815 0.000000 0.000000 0.000000 
-0.299199 1.040457 0.538101 -2.383535 -0.200274 0.090282 -3.565746 -0.198048 -1.978019 -0.642251 -0.337923 14.181858 -0.972319 1.436216 7.727128 0.000000 0.000000 0.000000 -3.033323 2.300613 -29.557578 4.700213 -0.620664 57.467663 0.382630 -5.145792 14.662108 0.000000 0.000000 0.000000 4.313304 -1.016125 12.293597 -3.206000 1.333120 -31.752346 -2.806246 -5.594318 32.296201 4.529641 -1.685134 -30.763592 0.000000 0.000000 0.000000 -13.055819 -1.823795 1.389110 -59.562973 -15.653031 -1.990205 -10.154947 -35.507129 6.140352 0.000000 0.000000 0.000000 15.309177 -10.944509 -7.538873 65.495012 -3.208738 -11.597919 9.427531 32.832101 4.070797 0.000000 0.000000 0.000000 
-0.300976 1.041082 0.579818 -3.049315 1.863011 -0.035592 -2.233995 0.282280 2.306314 -0.557358 -0.305390 11.125977 -1.972696 -0.270353 7.547141 0.000000 0.000000 0.000000 -3.121771 2.173496 -30.498569 4.938231 -1.131153 42.582342 0.614334 -4.460466 14.573462 0.000000 0.000000 0.000000 3.872649 -0.975770 12.052042 -2.297703 1.160607 -32.054860 -3.429461 -7.723760 32.936215 4.131078 -1.660658 -30.649984 0.000000 0.000000 0.000000 -11.861473 -1.843956 1.457476 -60.209876 -17.619728 -0.812888 -10.033971 -38.367679 6.831301 0.000000 0.000000 0.000000 14.612123 -11.266727 -7.682440 66.037200 -3.952804 -12.253273 10.781349 34.148070 4.599441 0.000000 0.000000 0.000000 
-0.303407 1.030520 0.621965 -3.232811 3.148232 0.016033 -2.139317 0.608056 5.464206 0.554012 -0.539936 10.846363 -2.438522 -1.535869 6.476929 0.000000 0.000000 0.000000 -2.113645 2.263280 -29.645674 4.040640 -0.619925 26.664857 0.566168 -4.584620 15.485269 0.000000 0.000000 0.000000 2.997071 -0.868098 11.737424 -2.213450 1.152750 -30.782833 -3.208229 -8.955482 32.325452 4.397308 -1.721254 -31.794340 0.000000 0.000000 0.000000 -11.214241 -2.963902 1.983114 -60.382272 -20.071395 0.678173 -8.728314 -41.667640 7.104920 0.000000 0.000000 0.000000 14.847437 -11.901956 -8.167254 66.166357 -4.380487 -12.441825 11.650875 34.096164 4.779056 0.000000 0.000000 0.000000 
-0.305784 1.012129 0.665853 -3.211327 4.196461 0.111359 -2.517851 0.811334 7.233270 1.808835 -0.919884 12.630518 -2.595075 -3.428968 3.415463 0.000000 0.000000 0.000000 -1.241868 2.269078 -27.860512 3.189821 -0.314627 12.129749 1.165769 -3.897850 17.501478 0.000000 0.000000 0.000000 1.885401 -0.755465 11.738391 -2.020143 1.113519 -30.732602 -3.399293 -11.027473 32.262261 2.965350 -1.183823 -32.178196 0.000000 0.000000 0.000000 -11.235988 -2.109495 1.767472 -60.340283 -22.408106 2.094598 -8.297708 -45.151135 7.943209 0.000000 0.000000 0.000000 14.557988 -11.634065 -8.221246 66.639165 -4.760757 -12.866655 11.168705 34.203002 4.500858 0.000000 0.000000 0.000000 
-0.306841 0.992576 0.712989 -3.068326 4.614069 0.652153 -2.838215 1.081456 9.578624 2.811911 -1.149085 12.702737 -2.741583 -5.465130 0.572412 0.000000 0.000000 0.000000 -0.026763 2.524261 -27.889840 3.491208 -0.384324 5.023728 0.223392 -5.841589 19.160380 0.000000 0.000000 0.000000 1.917348 -0.725959 11.166945 -2.559671 1.201574 -31.216247 -3.629528 -11.799421 33.115640 3.228638 -1.369792 -32.961768 0.000000 0.000000 0.000000 -10.489054 -2.377033 1.911634 -60.883215 -24.369007 3.337913 -8.629245 -47.516578 8.779424 0.000000 0.000000 0.000000 15.512456 -11.533118 -8.578566 67.158139 -4.471521 -12.877394 7.793393 33.900942 3.465274 0.000000 0.000000 0.000000 
-0.305454 0.975419 0.764980 -2.779395 4.892271 1.353675 -3.899863 1.388122 11.320174 3.970618 -1.583289 14.711149 -2.798957 -5.567160 0.582227 0.000000 0.000000 0.000000 1.474093 2.899769 -28.465163 3.504242 -0.387139 5.901095 -0.735092 -7.751644 20.935524 0.000000 0.000000 0.000000 2.251779 -0.654838 9.583868 -2.236755 1.156607 -30.438991 -4.552148 -12.142708 32.624396 2.982611 -1.351266 -31.975029 0.000000 0.000000 0.000000 -10.008937 -2.364655 1.850295 -61.534205 -24.375499 3.623490 -10.778136 -48.172005 9.872420 0.000000 0.000000 0.000000 16.614265 -11.930664 -9.177276 67.060555 -4.967926 -13.018716 4.672504 34.005488 2.549875 0.000000 0.000000 0.000000 
-0.299117 0.964737 0.820419 -3.100923 4.448550 2.096034 -4.314802 1.435576 11.163370 4.702471 -2.171601 19.046297 -4.785335 -6.238355 5.842812 0.000000 0.000000 0.000000 3.192407 3.410534 -29.209922 2.312876 -0.124683 11.282372 -1.867239 -9.648329 20.962991 0.000000 0.000000 0.000000 4.077738 -0.660549 7.418338 -3.122647 1.324901 -29.659271 -5.350346 -12.860558 32.499626 3.300028 -1.617255 -32.477311 0.000000 0.000000 0.000000 -9.183994 -2.509857 1.939572 -63.938972 -23.453475 3.807934 -11.205930 -49.190835 10.527030 0.000000 0.000000 0.000000 17.216002 -11.493521 -9.392703 67.294803 -5.403939 -13.320260 3.048073 34.077145 1.972188 0.000000 0.000000 0.000000 
-0.286630 0.962919 0.874380 -4.498201 3.376499 2.420071 -2.153746 0.973152 8.954476 1.389639 -1.722404 26.640552 -7.271586 -6.486387 13.176392 0.000000 0.000000 0.000000 4.824572 3.832065 -28.842078 1.903579 0.045563 15.849005 -2.768991 -10.825677 18.063222 0.000000 0.000000 0.000000 6.380638 -0.703183 5.883442 -2.558971 1.206320 -30.269787 -5.620037 -11.710760 32.809876 2.009480 -0.861416 -32.606874 0.000000 0.000000 0.000000 -9.164131 -3.114343 2.171205 -64.952722 -21.434581 2.697015 -15.776437 -49.293897 12.715148 0.000000 0.000000 0.000000 17.163750 -11.679467 -9.377554 65.813677 -5.152028 -12.838961 3.478911 31.901482 1.972019 0.000000 0.000000 0.000000 
-0.269353 0.965189 0.922629 -5.204139 4.285453 2.175903 0.347736 0.311537 3.934450 -3.135447 -0.661437 37.817882 -9.381113 -5.529548 20.952063 0.000000 0.000000 0.000000 4.988006 3.580579 -27.003895 1.875468 0.035994 18.679511 -3.498227 -11.512812 15.361380 0.000000 0.000000 0.000000 8.512665 -0.882245 6.025858 -3.201539 1.323283 -30.062711 -5.377537 -12.714134 32.564784 0.258444 0.030625 -33.300725 0.000000 0.000000 0.000000 -10.636389 -2.574578 2.123372 -65.018032 -19.836338 1.679011 -21.806861 -50.228520 16.192736 0.000000 0.000000 0.000000 15.466804 -11.422214 -8.780442 65.090286 -5.365286 -12.879448 5.482709 30.764468 2.338448 0.000000 0.000000 0.000000 
-0.248471 0.967408 0.964228 -5.146381 4.011384 1.393348 2.077144 -0.176784 -1.838041 -8.149547 1.738778 46.695507 -5.590220 0.823298 23.538575 0.000000 0.000000 0.000000 4.686195 2.980278 -22.614729 0.243832 0.493732 18.192363 -2.920332 -10.161642 13.169914 0.000000 0.000000 0.000000 9.048021 -0.952380 6.455866 -3.738141 1.421075 -30.206173 -4.220344 -11.330636 32.591343 0.780848 -0.090351 -32.394617 0.000000 0.000000 0.000000 -10.408034 -3.464494 2.350460 -65.324188 -18.396398 0.686830 -25.233241 -49.875695 17.606985 0.000000 0.000000 0.000000 15.564982 -11.779487 -8.704436 63.234897 -5.071710 -12.241748 6.376896 29.607907 2.558309 0.000000 0.000000 0.000000 
-0.224905 0.971082 1.000359 -4.404463 4.526741 0.423867 3.603061 -0.450502 -6.299545 -11.401954 3.603723 52.280662 -2.089281 4.516812 20.399997 0.000000 0.000000 0.000000 3.006524 2.157440 -18.104939 -0.356673 0.586399 16.304272 -2.454987 -9.182745 12.970547 0.000000 0.000000 0.000000 8.853090 -1.067260 7.692201 -4.428839 1.550480 -30.281940 -3.131822 -10.192066 32.778301 0.505582 0.200993 -31.076593 0.000000 0.000000 0.000000 -10.150410 -2.940809 1.889135 -64.740336 -16.850449 -0.510543 -28.235147 -50.238363 19.114431 0.000000 0.000000 0.000000 15.186157 -11.642293 -8.181598 61.934875 -4.675317 -11.753102 7.612312 28.703224 2.890002 0.000000 0.000000 0.000000 
-0.199621 0.973914 1.031474 -3.049219 4.380814 0.018815 5.564335 -0.615982 -11.129213 -14.095181 5.499565 54.391234 0.476241 7.225034 17.308790 0.000000 0.000000 0.000000 0.677641 1.508840 -14.776872 -0.985634 0.717778 15.118543 -1.642316 -7.613445 12.562246 0.000000 0.000000 0.000000 7.780215 -1.015012 8.188533 -4.326403 1.573589 -29.164392 -2.132865 -7.890424 31.964707 0.334191 0.669286 -30.487487 0.000000 0.000000 0.000000 -10.830249 -1.785669 1.078194 -63.307158 -14.113520 -2.406396 -32.104278 -48.802480 19.967916 0.000000 0.000000 0.000000 14.613560 -11.669875 -7.591866 61.905540 -3.903131 -11.233151 7.335791 27.791080 2.888153 0.000000 0.000000 0.000000 
-0.173003 0.975235 1.057824 -2.228335 4.660220 -0.289231 8.060886 -0.583137 -15.643003 -14.255858 5.508363 54.073607 2.977368 10.173862 13.940350 0.000000 0.000000 0.000000 -2.379776 0.964590 -12.208985 -0.503629 0.567546 14.357828 -0.499237 -5.435894 12.600872 0.000000 0.000000 0.000000 6.963177 -0.962662 8.445359 -4.970094 1.714970 -28.863420 -1.006349 -6.682980 32.284484 -0.037963 1.052714 -29.466268 0.000000 0.000000 0.000000 -11.132540 -0.711043 0.415873 -62.780803 -11.214304 -4.288201 -32.538223 -46.091822 18.744286 0.000000 0.000000 0.000000 14.192740 -11.652978 -7.199211 61.485905 -3.282595 -10.858504 8.054766 26.252397 2.970043 0.000000 0.000000 0.000000 
-0.144645 0.973734 1.080091 -1.569878 3.398493 -0.618342 11.645974 -0.126949 -18.548790 -13.150783 5.004386 50.501567 3.714229 11.124105 13.274256 0.000000 0.000000 0.000000 -5.115754 0.622556 -10.282738 0.008672 0.469491 13.963086 0.388425 -3.741425 11.939940 0.000000 0.000000 0.000000 6.661366 -0.909587 8.404010 -5.560038 1.886385 -27.444426 -0.336312 -3.851814 31.674518 -0.093695 1.467942 -29.562670 0.000000 0.000000 0.000000 -10.371319 0.773998 -0.541053 -63.665595 -8.936374 -5.636708 -34.222107 -43.366133 17.962207 0.000000 0.000000 0.000000 13.439590 -11.737361 -6.728151 61.819854 -2.427781 -10.315496 9.555290 26.310235 3.434167 0.000000 0.000000 0.000000 
-0.114276 0.969380 1.098940 -1.365422 1.757057 -0.459423 14.999774 0.432541 -18.123316 -9.299393 2.868131 43.265288 2.782011 9.197417 11.549905 0.000000 0.000000 0.000000 -7.501443 0.445680 -9.344409 0.223590 0.477352 14.372391 2.016683 -0.492583 11.138361 0.000000 0.000000 0.000000 6.580471 -0.830031 7.799028 -5.902349 1.954759 -27.157415 -0.548414 -1.928603 31.518335 0.147033 1.523399 -29.896221 0.000000 0.000000 0.000000 -8.741792 1.723384 -0.997567 -64.007673 -5.460245 -7.575357 -36.883382 -41.686368 18.272477 0.000000 0.000000 0.000000 12.531983 -10.754224 -5.919589 62.008393 -0.412087 -9.246496 11.729731 26.632701 4.026951 0.000000 0.000000 0.000000 
-0.080550 0.961973 1.114635 -1.861883 -0.698784 -0.662651 19.431312 1.043038 -15.051387 -6.407831 1.589445 34.114733 1.207211 6.362942 11.243444 0.000000 0.000000 0.000000 -9.048634 0.420481 -9.829309 0.025980 0.669759 16.164910 2.803276 1.284219 10.015612 0.000000 0.000000 0.000000 6.563976 -0.790131 7.621859 -6.618683 2.127409 -26.245806 0.614360 0.206539 30.799251 0.487801 1.481964 -30.194024 0.000000 0.000000 0.000000 -8.167301 1.009356 -0.731852 -62.739173 -4.974342 -7.681151 -37.815047 -41.938458 18.555971 0.000000 0.000000 0.000000 12.919829 -9.858726 -5.449622 60.275198 2.331603 -7.565151 14.529613 29.233234 5.215668 0.000000 0.000000 0.000000 
-0.041893 0.952850 1.126733 -2.338218 -2.444862 -1.112829 22.434160 1.179384 -11.019905 -2.001680 -0.042606 23.991164 -1.983291 2.585041 16.053511 0.000000 0.000000 0.000000 -10.874055 0.359941 -10.068105 0.079555 0.778663 17.468822 3.863137 3.186181 10.139971 0.000000 0.000000 0.000000 5.731172 -0.679118 7.259133 -5.818830 1.941941 -25.993365 -0.421370 1.377318 30.889386 1.651594 0.968463 -31.549274 0.000000 0.000000 0.000000 -6.381657 -0.026058 -0.200921 -63.291876 -6.885387 -6.703788 -38.533007 -44.485983 20.237007 0.000000 0.000000 0.000000 13.642075 -7.677383 -4.441991 59.579335 6.262385 -5.599598 17.628705 33.412584 7.053225 0.000000 0.000000 0.000000 
0.003782 0.940994 1.135360 -3.289517 -4.771233 -1.895555 23.929549 1.107994 -6.926082 1.628616 -0.992722 19.952569 -5.095121 -2.512504 16.043665 0.000000 0.000000 0.000000 -12.443727 0.343220 -10.527735 -0.400190 1.059464 18.605237 4.043051 3.959030 9.004494 0.000000 0.000000 0.000000 4.839523 -0.518360 6.241104 -6.039312 2.013241 -24.109843 -0.370911 3.303027 30.228012 4.614497 -0.359199 -32.683290 0.000000 0.000000 0.000000 -3.328055 -5.383407 1.920767 -61.952715 -14.706841 -2.307772 -33.261893 -52.288742 20.918579 0.000000 0.000000 0.000000 14.795451 -5.383856 -3.344720 57.662596 13.850817 -1.762694 18.487021 37.732447 8.447560 0.000000 0.000000 0.000000 
0.056237 0.928852 1.138924 -4.453394 -6.628257 -2.272935 23.808428 1.131261 -5.481536 0.213465 -0.505503 21.405612 -3.957735 -2.714746 11.590103 0.000000 0.000000 0.000000 -14.059034 0.322660 -11.714378 -0.534446 1.161269 18.552458 4.384797 3.501286 10.601776 0.000000 0.000000 0.000000 4.778803 -0.486227 6.001135 -6.338998 2.059286 -24.299931 -0.724340 3.548083 29.915253 6.808914 -1.856045 -30.924090 0.000000 0.000000 0.000000 -0.637056 -9.761326 3.430524 -59.238031 -25.964689 3.837183 -21.596863 -59.150643 17.101275 0.000000 0.000000 0.000000 16.173520 -0.136227 -0.957660 52.820737 22.090894 1.788887 17.066069 45.255800 9.581945 0.000000 0.000000 0.000000 
0.109877 0.923274 1.136537 -5.162777 -7.443198 -3.040468 21.885634 1.099484 -5.627288 -1.462071 0.102631 25.204499 -1.263189 -0.425525 5.364332 0.000000 0.000000 0.000000 -16.474370 0.197876 -12.116694 -0.205552 1.089053 18.377816 4.185478 0.632846 14.875430 0.000000 0.000000 0.000000 3.392816 -0.453905 6.685600 -5.701728 1.904240 -23.333447 -0.949444 4.313452 29.251220 9.670120 -3.244370 -31.296211 0.000000 0.000000 0.000000 3.072920 -17.303684 5.482494 -51.262227 -39.052093 9.186494 10.908164 -63.876623 -2.260022 0.000000 0.000000 0.000000 13.089927 3.139431 0.866304 49.252248 31.056286 5.376073 5.637564 54.407007 6.078354 0.000000 0.000000 0.000000 
0.157913 0.928832 1.132086 -5.769249 -8.718879 -2.245336 20.057960 1.140455 -6.987893 -3.284337 0.923868 26.255920 0.910951 3.079540 3.524804 0.000000 0.000000 0.000000 -19.142896 0.115052 -13.585430 2.157394 0.534426 18.628530 4.561728 -0.091642 17.412476 0.000000 0.000000 0.000000 1.970763 -0.375066 6.576124 -5.779694 1.890515 -23.779166 -0.423920 5.636706 28.523005 10.258771 -3.721160 -29.545306 0.000000 0.000000 0.000000 9.993167 -21.527324 5.560016 -41.406030 -49.764487 11.067788 43.998916 -56.673257 -20.649276 0.000000 0.000000 0.000000 7.846805 6.661511 2.500291 44.865026 40.453931 8.538054 -17.441651 56.933358 -5.822182 0.000000 0.000000 0.000000 
0.197639 0.943528 1.129235 -7.510778 -10.397639 -1.280001 18.925925 1.018282 -5.788417 -3.959548 1.213214 23.731232 2.031197 5.301097 3.902046 0.000000 0.000000 0.000000 -19.495256 0.256844 -13.694810 4.615595 -0.004991 18.979798 1.829484 -6.410406 21.173815 0.000000 0.000000 0.000000 2.666689 -0.387630 6.010603 -6.075813 1.939479 -23.323646 -1.464398 7.083560 28.213656 9.048572 -3.172686 -28.187522 0.000000 0.000000 0.000000 17.255112 -22.544897 4.498904 -27.077066 -56.889956 7.613574 64.199391 -41.247003 -23.517303 0.000000 0.000000 0.000000 0.430577 9.931879 3.409819 36.325323 50.697128 9.812388 -40.656657 46.631280 -14.690958 0.000000 0.000000 0.000000 
0.229900 0.960945 1.128844 -7.830271 -12.745641 0.454485 17.148723 0.821609 -3.973775 -4.120560 1.108972 17.218050 2.596283 6.613650 5.703891 0.000000 0.000000 0.000000 -20.069927 0.509238 -13.608747 4.523764 0.132801 19.120779 0.672484 -9.891965 25.831328 0.000000 0.000000 0.000000 2.058596 -0.355774 5.863284 -6.714270 2.003316 -26.181610 -1.441633 8.929550 29.697445 10.923484 -4.151959 -28.729973 0.000000 0.000000 0.000000 24.984680 -21.123538 2.843739 -11.907637 -59.672453 1.052432 74.253681 -23.763906 -16.034380 0.000000 0.000000 0.000000 -6.484333 10.424816 3.024535 19.385060 56.446555 4.121944 -49.142907 31.817976 -12.173112 0.000000 0.000000 0.000000 
0.256249 0.980379 1.130430 -10.115183 -14.521852 2.819029 17.316646 0.750244 -1.909319 -3.395835 0.704161 10.781271 3.678696 8.743900 7.654136 0.000000 0.000000 0.000000 -17.060936 0.791629 -13.687853 1.764154 0.920682 19.341002 1.147295 -10.644007 29.955332 0.000000 0.000000 0.000000 2.137212 -0.365696 5.667002 -7.516622 2.157073 -25.831938 -1.212889 9.437417 28.118591 11.508631 -4.709101 -27.420331 0.000000 0.000000 0.000000 31.754385 -20.897700 1.626098 2.535507 -58.891661 -5.281986 79.592944 -5.806782 -3.928129 0.000000 0.000000 0.000000 -13.488619 9.607240 2.438026 2.417050 52.818768 -3.220648 -50.926613 20.769372 -8.239518 0.000000 0.000000 0.000000 
0.277898 0.998977 1.132987 -11.628067 -14.724504 3.678196 16.554082 0.665533 -1.629576 -2.862001 0.518562 8.521995 2.926800 7.544050 9.297721 0.000000 0.000000 0.000000 -15.507703 0.875980 -12.292006 0.975761 1.087358 18.821687 2.884855 -8.351317 29.547533 0.000000 0.000000 0.000000 1.270311 -0.366263 6.852875 -7.568119 2.142365 -26.683631 -1.739458 7.867796 27.641811 12.928682 -5.916942 -26.537852 0.000000 0.000000 0.000000 36.589492 -18.019093 0.353238 9.794127 -57.836339 -7.682851 82.888321 6.107592 5.990469 0.000000 0.000000 0.000000 -20.992801 5.981150 1.785775 -5.817423 48.786190 -6.239697 -46.393677 14.053960 -5.067198 0.000000 0.000000 0.000000 
0.294308 1.014394 1.134797 -14.716651 -12.949453 5.435769 18.320936 0.678502 -2.429725 -1.932509 0.264958 6.611038 1.496249 5.251916 9.905670 0.000000 0.000000 0.000000 -13.611770 0.873253 -11.916892 0.852312 1.107459 19.409122 3.044639 -8.784797 33.236976 0.000000 0.000000 0.000000 0.463633 -0.364292 8.189621 -7.546671 2.157905 -26.097061 -1.424733 4.717552 26.323853 12.737541 -6.225105 -25.497160 0.000000 0.000000 0.000000 37.881363 -17.734069 -0.185852 15.772661 -54.667914 -8.795377 84.452800 11.895407 11.511339 0.000000 0.000000 0.000000 -25.655356 2.768232 1.940769 -9.207943 42.950480 -6.659503 -42.949735 12.317646 -4.372540 0.000000 0.000000 0.000000 
0.306134 1.022977 1.134870 -17.697211 -13.220646 6.919902 20.890448 0.945937 -3.290744 -1.517698 0.191928 7.002539 0.877302 4.936006 13.996236 0.000000 0.000000 0.000000 -12.763604 0.969550 -13.580237 3.247377 0.585690 20.295745 2.865554 -8.475990 31.041562 0.000000 0.000000 0.000000 -1.074767 -0.246997 10.240022 -5.832539 1.756966 -26.903149 -2.494718 3.036264 26.556494 13.037240 -6.851796 -24.628934 0.000000 0.000000 0.000000 38.866258 -15.150147 -0.904553 19.725844 -53.480766 -9.340636 82.699505 15.469432 14.643590 0.000000 0.000000 0.000000 -27.789841 0.375893 2.251645 -7.941461 41.067169 -6.270541 -41.665999 11.650754 -4.301854 0.000000 0.000000 0.000000 
0.316112 1.026058 1.133146 -21.298256 -13.184523 8.775771 24.360340 1.666076 -6.498753 -1.246999 0.172311 10.073980 1.100491 5.033645 12.682872 0.000000 0.000000 0.000000 -11.504634 1.143951 -15.889125 3.792938 0.621613 22.758014 5.366974 -3.836372 27.316848 0.000000 0.000000 0.000000 -1.293786 -0.255826 12.888407 -4.785491 1.524792 -28.498209 -3.312942 2.708336 27.116156 13.049575 -6.795384 -25.242717 0.000000 0.000000 0.000000 37.968317 -14.847758 -0.994935 22.134265 -53.213988 -10.071503 80.869373 15.867012 14.520572 0.000000 0.000000 0.000000 -26.755657 0.393573 2.297594 -4.169904 39.020761 -4.903787 -44.449809 13.493288 -5.499864 0.000000 0.000000 0.000000 
0.326239 1.022269 1.130682 -23.677488 -10.309047 10.942963 27.678270 2.696187 -12.402730 -1.358594 0.234357 15.507230 0.029854 3.299387 11.609013 0.000000 0.000000 0.000000 -11.175955 1.273313 -19.439143 3.689019 0.819713 28.148667 4.642527 -2.555808 22.829050 0.000000 0.000000 0.000000 -1.464685 -0.290046 15.145945 -5.854600 1.729597 -27.232911 -2.551202 -0.729469 25.639760 13.739124 -7.102310 -26.251897 0.000000 0.000000 0.000000 35.208242 -14.361960 -0.827907 24.173813 -54.121480 -10.665228 78.264741 14.248014 13.044880 0.000000 0.000000 0.000000 -22.806386 -0.127001 2.460491 -0.152074 39.243006 -4.160919 -46.403965 19.305882 -8.501541 0.000000 0.000000 0.000000 
0.336771 1.014560 1.128507 -24.610586 -6.394139 11.476513 27.984473 3.194031 -18.095428 -1.015204 0.079113 22.080515 -1.913071 -0.547801 8.718829 0.000000 0.000000 0.000000 -10.486895 1.243512 -21.089977 3.752066 0.808021 35.636891 2.146101 -3.600985 16.780097 0.000000 0.000000 0.000000 -2.402159 -0.225368 19.799541 -5.273193 1.622784 -27.538260 -2.121737 -2.436334 25.819551 16.740642 -8.020140 -29.092505 0.000000 0.000000 0.000000 29.988345 -15.885623 0.300880 25.437368 -52.538165 -11.283094 76.112038 9.744087 8.881481 0.000000 0.000000 0.000000 -18.412240 1.286862 2.156290 9.607302 40.250993 -1.614480 -52.068983 24.873680 -11.944929 0.000000 0.000000 0.000000 
0.346746 1.005601 1.128203 -25.417589 -2.270802 12.231091 27.492235 3.739786 -25.613757 0.062026 -0.566572 29.328602 -3.539329 -3.638389 7.687352 0.000000 0.000000 0.000000 -11.591040 0.932076 -21.323911 4.132527 0.079698 37.774517 1.272435 -3.212207 13.113973 0.000000 0.000000 0.000000 -3.754807 -0.088716 24.116060 -3.587088 1.319924 -26.294787 -1.285355 -3.119913 24.747362 17.484335 -7.311588 -32.042508 0.000000 0.000000 0.000000 28.203573 -17.215319 1.365433 19.806732 -51.496665 -9.538382 67.946715 3.685549 3.706683 0.000000 0.000000 0.000000 -13.603223 2.449042 1.826078 24.519092 38.625074 2.353574 -56.279583 37.700820 -18.985524 0.000000 0.000000 0.000000 
0.355601 0.996502 1.131413 -26.369328 -0.042293 14.984493 27.115367 4.560267 -33.250278 0.136377 -0.796104 35.026203 -3.351374 -4.063948 5.996914 0.000000 0.000000 0.000000 -10.493681 1.079397 -22.672258 2.838404 0.402394 38.876155 1.827314 -2.678908 15.047480 0.000000 0.000000 0.000000 -3.629289 -0.185821 24.407399 -2.245948 1.043325 -24.797294 -0.752052 -2.447249 24.273514 16.400792 -5.147836 -37.548555 0.000000 0.000000 0.000000 24.024583 -16.647605 2.490098 8.444192 -52.682492 -6.127553 62.741687 -4.513410 -1.096969 0.000000 0.000000 0.000000 -9.477610 5.939066 2.353491 39.618692 37.224862 6.048744 -51.267565 49.202833 -21.699843 0.000000 0.000000 0.000000 
0.363528 0.977698 1.138380 -25.666820 1.659225 18.142445 25.232843 4.692292 -39.406029 -0.269594 -0.765698 38.954016 -1.878803 -2.371590 3.475223 0.000000 0.000000 0.000000 -8.493823 1.431094 -24.765250 2.242545 0.528004 40.449026 -0.676289 -6.193964 11.540316 0.000000 0.000000 0.000000 -4.500117 0.020928 25.456839 -1.468248 0.897436 -25.182354 -0.004748 -0.966822 26.438518 16.455640 -4.286432 -40.327935 0.000000 0.000000 0.000000 23.100649 -18.357927 3.291986 -2.514195 -49.691031 -2.432257 57.836009 -11.709143 -4.809875 0.000000 0.000000 0.000000 -5.546235 7.452385 2.637698 51.730816 35.126099 8.513083 -39.282260 56.001670 -17.243845 0.000000 0.000000 0.000000 
0.372658 0.953393 1.149028 -23.064639 2.467046 20.079090 21.761040 3.923954 -44.039331 -0.181949 -0.993621 42.607712 0.243521 -0.228543 -1.621550 0.000000 0.000000 0.000000 -6.953158 1.681206 -25.677046 1.557204 0.792851 42.909404 -2.273227 -6.874074 2.514045 0.000000 0.000000 0.000000 -5.123232 0.198932 27.683380 -1.113997 0.845016 -25.808320 0.910041 -0.649571 25.885364 16.593855 -3.792633 -42.214873 0.000000 0.000000 0.000000 20.136247 -22.142923 4.696221 -15.507035 -48.854206 1.826666 55.009402 -19.627857 -8.193436 0.000000 0.000000 0.000000 -0.857838 9.991949 3.635237 57.135210 35.990527 10.640481 -27.382714 56.878822 -10.652048 0.000000 0.000000 0.000000 
0.382520 0.920738 1.162810 -20.102673 2.273924 20.784690 19.320516 3.423436 -48.052797 -2.304421 0.058346 48.293196 1.535889 1.186936 -5.105830 0.000000 0.000000 0.000000 -5.122836 1.964582 -26.013828 0.515283 1.517007 48.016097 -3.358458 -8.841624 0.062148 0.000000 0.000000 0.000000 -6.466660 0.708436 30.804396 0.187251 0.590626 -25.360681 0.908428 0.568140 23.915908 17.050763 -3.697872 -42.243025 0.000000 0.000000 0.000000 17.456211 -23.750947 5.808847 -25.325717 -49.284850 5.110783 53.838866 -27.467817 -11.697740 0.000000 0.000000 0.000000 4.475638 13.848647 5.631258 55.814153 38.278730 11.744629 -27.509204 57.018634 -10.334852 0.000000 0.000000 0.000000 
0.391935 0.885828 1.177018 -15.449807 3.763161 20.493901 15.291670 1.467349 -52.355863 -3.901338 0.518330 55.010257 2.508427 2.554957 -7.296210 0.000000 0.000000 0.000000 -4.213281 1.877373 -24.848469 1.642233 0.393884 53.431286 -5.207249 -12.586965 -5.076051 0.000000 0.000000 0.000000 -6.949069 0.736290 34.032631 0.755778 0.539542 -26.265471 1.149565 1.051947 24.047029 16.219534 -2.982209 -43.609576 0.000000 0.000000 0.000000 13.578516 -27.532452 7.568008 -31.551311 -51.077690 7.431207 50.361932 -33.124028 -13.342791 0.000000 0.000000 0.000000 7.709830 16.599363 7.469788 51.173057 44.090068 13.197368 -31.737779 55.300107 -11.695168 0.000000 0.000000 0.000000 
0.399728 0.853645 1.189451 -10.990289 2.767827 20.753176 12.886096 0.612404 -55.353499 -6.747863 2.698277 60.807936 4.019780 5.211631 -10.526984 0.000000 0.000000 0.000000 -2.154827 2.076908 -23.576894 0.678259 1.290468 55.555320 -6.655678 -16.257365 -9.100319 0.000000 0.000000 0.000000 -7.275992 1.007074 34.855864 0.548219 0.594964 -26.114619 0.833111 2.667974 21.386430 16.814768 -3.007974 -43.409662 0.000000 0.000000 0.000000 6.377616 -32.830743 10.739450 -34.713956 -50.219191 8.218808 44.930539 -39.441005 -14.153037 0.000000 0.000000 0.000000 12.760453 20.508181 10.554410 42.111365 49.825422 12.272346 -32.465057 49.810629 -10.618658 0.000000 0.000000 0.000000 
0.405177 0.830011 1.200141 -6.372330 3.298612 20.545454 11.090340 -0.594965 -57.398154 -10.463457 5.362775 63.500461 5.335609 8.837300 -10.752837 0.000000 0.000000 0.000000 -1.384159 2.011128 -22.436644 2.620453 -0.332960 56.834675 -6.112669 -14.067073 -12.010293 0.000000 0.000000 0.000000 -5.560415 0.250862 35.913556 -0.313498 0.803606 -27.759325 0.342896 3.210185 21.179201 15.836898 -2.351930 -44.470120 0.000000 0.000000 0.000000 1.766506 -36.000086 12.880928 -38.025898 -49.520137 9.249440 41.225337 -45.515576 -15.040631 0.000000 0.000000 0.000000 17.030413 21.082064 12.100341 34.842225 54.147909 10.524488 -26.444250 45.940624 -7.252803 0.000000 0.000000 0.000000 
0.407280 0.823571 1.210993 -1.934348 2.583115 18.756094 10.155482 -0.998404 -54.643195 -15.595978 9.236210 62.571018 7.372076 14.536409 -10.264518 0.000000 0.000000 0.000000 -0.356553 1.890889 -19.854895 2.287826 0.012266 58.425170 -5.215704 -10.090537 -13.967028 0.000000 0.000000 0.000000 -4.749881 -0.021288 37.397305 -2.907658 1.251914 -29.358040 1.309530 2.355744 20.785790 12.809123 -2.036920 -41.176761 0.000000 0.000000 0.000000 -5.147737 -36.810291 15.196012 -38.375819 -47.653960 8.893929 35.685365 -53.362740 -14.895665 0.000000 0.000000 0.000000 18.144151 20.922535 11.886123 36.371206 54.315579 11.248494 -20.535731 45.908953 -5.073662 0.000000 0.000000 0.000000 
0.405304 0.845130 1.222461 1.574694 1.002355 17.605951 8.234426 -1.442198 -48.679339 -17.614607 9.992509 56.568319 8.377014 17.534773 -5.975410 0.000000 0.000000 0.000000 -0.628333 1.691509 -17.873496 2.547306 0.283719 57.393737 -3.954760 -6.873730 -10.045013 0.000000 0.000000 0.000000 -3.151156 -0.396401 35.269063 -4.298752 1.500013 -27.610185 1.595574 1.388975 20.301883 6.207482 -0.115795 -38.223951 0.000000 0.000000 0.000000 -7.669074 -33.736180 14.699466 -45.183764 -44.146592 10.016655 33.949319 -60.490497 -15.818328 0.000000 0.000000 0.000000 17.182772 20.258814 10.810111 44.375679 51.304171 13.665427 -16.762516 45.274001 -3.606666 0.000000 0.000000 0.000000 
0.395670 0.893438 1.232692 3.720908 1.209459 17.204986 5.381559 -2.291597 -41.575926 -13.427944 5.656155 46.098343 5.839669 12.283306 -2.196690 0.000000 0.000000 0.000000 -3.027459 1.473866 -18.184659 2.068253 0.382344 55.042640 -1.185102 -0.753613 -4.770142 0.000000 0.000000 0.000000 -0.455804 -1.202869 29.680465 -3.358578 1.329070 -27.544469 1.245889 -0.794018 21.914259 2.139782 1.048873 -36.434316 0.000000 0.000000 0.000000 -12.811296 -26.973018 12.984332 -50.254614 -37.600088 8.411519 19.760619 -67.202839 -7.840648 0.000000 0.000000 0.000000 17.992916 18.691090 9.436394 48.086789 40.920427 10.096143 -2.782279 47.892843 1.762763 0.000000 0.000000 0.000000 
0.376488 0.954655 1.238554 4.160261 -0.403462 16.546235 4.390842 -2.010339 -34.552018 -12.264587 4.100826 33.826479 6.802864 15.575268 8.607081 0.000000 0.000000 0.000000 -5.497259 1.226986 -17.150260 1.848652 0.833298 49.507838 0.333864 0.521369 0.646345 0.000000 0.000000 0.000000 -0.318651 -0.840451 22.816140 -0.244233 0.696356 -24.440938 0.628729 -1.430725 22.425880 2.138279 0.664823 -34.076345 0.000000 0.000000 0.000000 -15.636488 -17.272425 8.722008 -52.712861 -26.232047 3.253352 -9.463091 -66.648449 11.833005 0.000000 0.000000 0.000000 17.033587 16.073704 7.380009 52.105361 27.398658 4.921144 8.569273 47.814030 6.246287 0.000000 0.000000 0.000000 
0.349473 1.006326 1.237547 3.840498 -0.356957 16.530947 2.956412 -2.213622 -31.976390 -9.566063 2.561044 28.103593 5.738910 14.369357 13.904331 0.000000 0.000000 0.000000 -7.518958 1.068353 -17.641377 1.215489 1.062294 46.058122 2.562385 0.918415 10.161118 0.000000 0.000000 0.000000 -0.282041 -0.702413 18.972259 2.221530 0.172374 -24.043911 2.719831 -2.779505 22.192124 0.708816 0.829689 -29.377515 0.000000 0.000000 0.000000 -19.513134 -9.042815 4.891960 -50.732344 -15.442497 -1.797642 -21.641175 -57.619638 16.663895 0.000000 0.000000 0.000000 13.534369 10.623116 3.964633 54.185708 13.421166 -1.142251 17.580349 42.095309 8.363702 0.000000 0.000000 0.000000 
0.316497 1.030235 1.228304 3.426775 0.596489 16.041919 2.188169 -2.380990 -30.837301 -6.635408 1.293318 24.644572 3.662806 11.815480 17.271355 0.000000 0.000000 0.000000 -10.571359 0.724290 -19.443508 0.651649 1.093513 44.809108 2.079072 -2.964345 17.865056 0.000000 0.000000 0.000000 1.441780 -1.001472 16.539217 4.172708 -0.315425 -23.039513 1.731207 -1.257486 22.602843 6.106000 -1.658410 -28.745135 0.000000 0.000000 0.000000 -16.094669 -5.313406 2.102525 -51.428151 -7.137236 -5.005011 -25.318461 -49.788057 15.190915 0.000000 0.000000 0.000000 13.106363 2.202760 0.167526 55.514330 4.026813 -5.371049 19.158761 34.951548 7.371900 0.000000 0.000000 0.000000 
0.279440 1.027288 1.213424 0.940771 -0.347664 12.948696 4.930291 -1.434712 -26.582730 -3.023757 0.215407 21.718805 -0.519678 5.659659 18.399398 0.000000 0.000000 0.000000 -11.194277 0.641395 -19.380270 -2.708951 3.194699 44.521177 2.369793 -2.994096 18.861964 0.000000 0.000000 0.000000 2.652828 -1.256557 17.342690 4.349314 -0.331840 -24.349816 4.604908 -1.208657 25.589375 5.467054 -1.239082 -31.284459 0.000000 0.000000 0.000000 -13.028070 1.598086 -1.183649 -53.179033 -1.026322 -7.925616 -27.309167 -45.681641 14.919654 0.000000 0.000000 0.000000 8.520317 -2.237458 -1.614898 57.502927 -1.654421 -8.569543 17.915070 31.209774 6.111222 0.000000 0.000000 0.000000 
0.237485 0.998281 1.194048 -0.717205 0.932447 10.730101 10.212364 -0.444480 -25.626439 -3.044291 0.132710 25.264240 -1.684347 3.493516 16.569699 0.000000 0.000000 0.000000 -14.717549 0.075130 -19.199209 -2.975606 3.059030 44.072038 1.349291 -4.798019 19.689882 0.000000 0.000000 0.000000 3.765791 -1.458864 16.790038 7.402523 -1.096030 -23.672593 3.385033 -0.358764 28.045350 4.724329 -0.197365 -35.356211 0.000000 0.000000 0.000000 -8.918144 5.689828 -3.016499 -54.607416 0.954394 -9.085313 -26.925372 -42.244474 13.282347 0.000000 0.000000 0.000000 5.522427 -6.179085 -2.847553 61.379319 -4.946379 -10.808959 12.964143 28.585903 4.516155 0.000000 0.000000 0.000000 
0.185220 0.958172 1.169685 0.037508 1.619321 9.012468 14.031113 0.254141 -25.818166 -4.855419 0.710865 28.391141 1.150037 6.453888 11.265949 0.000000 0.000000 0.000000 -17.751843 -0.494444 -19.785969 -4.228891 3.540467 43.186735 2.951362 -1.236478 17.477442 0.000000 0.000000 0.000000 3.864733 -1.553889 17.859499 6.513035 -0.836653 -24.377845 2.241546 -1.471385 29.072650 6.056687 -1.006278 -35.080471 0.000000 0.000000 0.000000 -9.330557 6.372901 -3.266578 -50.589973 0.987999 -8.629586 -18.853587 -37.838754 8.811512 0.000000 0.000000 0.000000 6.215899 -7.321974 -3.451260 61.382541 -6.803483 -12.001325 11.548289 26.840558 3.865160 0.000000 0.000000 0.000000 
0.116611 0.928342 1.143945 0.328149 -1.106612 7.727494 19.736749 1.454159 -22.628466 -8.366629 2.273355 27.623498 4.934129 12.170356 9.845729 0.000000 0.000000 0.000000 -16.794123 -0.290977 -22.481610 -3.070781 3.711738 45.625980 3.420042 1.452691 12.400020 0.000000 0.000000 0.000000 2.705929 -1.196542 17.392665 6.306382 -1.010800 -22.255660 1.276692 1.266048 27.756993 6.332022 -1.156800 -32.879608 0.000000 0.000000 0.000000 -7.956716 7.629754 -3.808169 -49.249408 -0.916503 -7.534402 -11.854908 -31.806586 5.024959 0.000000 0.000000 0.000000 7.555759 -10.524271 -4.960361 61.816186 -7.782643 -12.345096 12.918737 27.122602 4.345799 0.000000 0.000000 0.000000 
0.035216 0.921125 1.117723 1.122693 0.347348 7.016017 23.515341 1.561558 -19.247760 -5.157138 0.825348 19.800457 3.371794 10.446047 13.809022 0.000000 0.000000 0.000000 -16.571940 -0.433559 -22.578908 3.695138 -0.291569 45.002779 -1.301900 -4.764187 3.561585 0.000000 0.000000 0.000000 3.230793 -1.261694 16.579011 4.043692 -0.374445 -23.131553 -1.304977 -1.550979 27.305724 6.725083 -1.865459 -31.185312 0.000000 0.000000 0.000000 -7.974212 9.455879 -4.457366 -46.722148 -2.255216 -6.592994 -8.984484 -30.841256 4.185431 0.000000 0.000000 0.000000 7.276329 -10.730900 -5.175307 62.699154 -8.225246 -12.912561 16.318783 28.157344 5.230784 0.000000 0.000000 0.000000 
-0.046205 0.933871 1.091590 1.812648 0.268311 5.916793 23.264614 0.984048 -14.039103 -2.658992 0.158054 13.353517 4.448666 13.105616 20.848069 0.000000 0.000000 0.000000 -13.720811 -0.002459 -22.818056 8.388375 -2.651484 42.582197 -3.934366 -10.266990 1.201994 0.000000 0.000000 0.000000 3.211970 -1.174253 15.707748 2.852429 -0.012424 -24.741781 -3.770779 -3.556565 28.991805 8.747280 -3.509569 -29.933947 0.000000 0.000000 0.000000 -6.255926 10.723960 -4.637344 -50.686123 -2.839146 -6.825215 -11.844748 -31.846631 5.501414 0.000000 0.000000 0.000000 6.754221 -10.994288 -5.356877 63.930580 -5.402181 -12.126638 21.785666 29.861251 6.934828 0.000000 0.000000 0.000000 
-0.118804 0.964173 1.063754 2.000018 -0.036050 7.246114 18.339150 0.352853 -12.544996 -6.390620 1.094154 16.136694 6.517126 15.519901 17.178257 0.000000 0.000000 0.000000 -10.168729 0.632416 -22.147466 9.053997 -2.534189 35.175146 -4.079315 -11.943591 7.487833 0.000000 0.000000 0.000000 2.568034 -0.876526 12.603969 2.250260 0.099076 -24.167962 -3.203432 -5.601963 28.162068 6.656367 -2.680649 -30.158799 0.000000 0.000000 0.000000 -9.300431 8.924778 -3.928845 -50.888769 -4.162504 -6.291721 -12.459344 -33.726161 6.260177 0.000000 0.000000 0.000000 6.675182 -9.790919 -5.007213 61.357005 -4.273913 -11.183487 25.589247 34.634251 8.997823 0.000000 0.000000 0.000000 
-0.185356 0.995179 1.033472 1.641408 -0.659020 7.561779 11.410041 -0.193851 -13.095027 -11.135689 2.952810 24.293483 7.934888 17.358897 14.433428 0.000000 0.000000 0.000000 -5.809109 1.299475 -21.236046 8.325921 -1.903789 30.167517 -5.422366 -15.526082 14.617321 0.000000 0.000000 0.000000 2.321703 -0.841636 12.672942 2.488010 0.082312 -25.129526 -2.762705 -6.071199 28.996815 5.438962 -2.314447 -29.528149 0.000000 0.000000 0.000000 -10.741676 7.825561 -3.360001 -53.138839 -6.794360 -5.556385 -11.616972 -33.006899 6.026477 0.000000 0.000000 0.000000 6.507086 -10.073398 -5.164925 59.030419 -1.310911 -9.446564 30.529806 38.061834 11.578921 0.000000 0.000000 0.000000 
-0.248777 1.013896 1.002441 -0.011646 -0.940962 8.131860 4.331167 -0.872786 -14.399843 -10.102556 2.872672 27.986437 5.489819 13.919086 16.244032 0.000000 0.000000 0.000000 -3.825999 1.689554 -22.296597 10.125862 -2.513737 29.598493 -3.588925 -12.634152 16.241669 0.000000 0.000000 0.000000 3.578302 -1.204256 15.030154 3.516425 0.037780 -28.422216 -2.796436 -5.946513 29.171516 6.981658 -2.883335 -31.348177 0.000000 0.000000 0.000000 -9.945419 6.904766 -2.862108 -55.580046 -5.417998 -6.185016 -15.591755 -36.176334 8.160907 0.000000 0.000000 0.000000 3.564431 -10.545480 -4.692154 60.704540 1.946621 -8.199750 32.170673 41.613047 13.491345 0.000000 0.000000 0.000000 
-0.313247 1.004910 0.972724 -1.941903 -2.564023 7.846132 4.611180 -0.686255 -11.937593 -7.822687 2.047094 24.870939 5.334842 13.154073 13.283031 0.000000 0.000000 0.000000 -7.207226 1.361402 -24.149548 9.350288 -2.258250 35.832720 -0.046740 -5.668314 12.974799 0.000000 0.000000 0.000000 4.875660 -1.372243 14.787251 4.468300 -0.326324 -26.086730 -1.878584 -4.372961 27.293709 6.907735 -2.687708 -31.131041 0.000000 0.000000 0.000000 -9.642481 5.919506 -2.461584 -56.984427 -4.359587 -6.636496 -14.566946 -34.124006 7.192852 0.000000 0.000000 0.000000 3.837829 -7.956214 -3.650237 58.597842 2.525791 -7.403866 33.374661 47.198041 16.116044 0.000000 0.000000 0.000000 
-0.386201 0.975006 0.942129 -2.475415 -5.234757 7.606993 8.161121 -0.302812 -11.694409 -5.827834 1.509704 22.696323 7.588358 16.167029 7.351492 0.000000 0.000000 0.000000 -12.626256 0.682474 -22.841119 4.425402 0.248261 36.195182 -3.398761 -12.404569 13.936609 0.000000 0.000000 0.000000 5.678732 -1.465928 15.135397 4.866991 -0.477201 -25.622168 -2.244342 -1.814902 29.229598 6.767288 -2.213066 -33.675431 0.000000 0.000000 0.000000 -9.840153 7.857112 -3.473735 -56.435264 -1.671662 -8.016550 -17.259731 -33.985056 8.010070 0.000000 0.000000 0.000000 4.693180 -6.894939 -3.322473 57.001487 4.240599 -6.549850 36.126524 54.225837 20.862359 0.000000 0.000000 0.000000 
-0.472448 0.945709 0.909502 -2.707968 -7.494765 9.113263 13.023169 0.295529 -13.201153 -5.835339 1.567931 20.351001 7.199288 15.241211 3.457431 0.000000 0.000000 0.000000 -14.501911 0.662592 -21.715613 1.962144 1.328804 32.397964 -3.591190 -13.084562 14.067481 0.000000 0.000000 0.000000 5.431214 -1.361874 14.508438 4.612643 -0.642367 -23.063675 -2.555943 1.398594 26.585471 4.290002 -0.512574 -34.419144 0.000000 0.000000 0.000000 -9.062990 7.448740 -3.485955 -54.502400 -0.935398 -7.901038 -16.036532 -29.854111 6.237963 0.000000 0.000000 0.000000 7.515683 -6.124935 -3.347984 53.225011 5.587057 -5.117252 36.238079 55.585632 21.772194 0.000000 0.000000 0.000000 
-0.567055 0.936790 0.878089 -1.709876 -6.566843 10.505919 18.965635 0.992412 -14.168371 -2.968077 0.503837 15.929201 6.617637 14.330429 7.044372 0.000000 0.000000 0.000000 -14.530677 0.625662 -21.543179 4.439015 0.131849 29.111431 -2.437146 -8.813834 6.547043 0.000000 0.000000 0.000000 5.459511 -1.360531 13.880632 2.492145 0.032492 -25.737334 -4.347520 0.545309 28.138233 5.121919 -1.027454 -34.071441 0.000000 0.000000 0.000000 -9.331756 7.246580 -3.353436 -51.307024 -0.871535 -7.652784 -13.102480 -26.707783 4.761540 0.000000 0.000000 0.000000 7.856448 -6.116160 -3.452773 55.291050 6.032397 -5.208143 38.450687 55.593186 23.093846 0.000000 0.000000 0.000000 
-0.655987 0.945089 0.850315 -1.679452 -5.877436 11.611652 20.756561 1.338347 -16.189062 -1.068101 -0.023061 15.624672 7.275844 15.761027 14.264830 0.000000 0.000000 0.000000 -11.109243 1.021782 -22.478950 5.674518 -0.369868 28.165898 -5.272660 -14.908796 7.301600 0.000000 0.000000 0.000000 5.295917 -1.350348 13.722874 1.288246 0.343290 -26.490029 -5.052628 -0.773858 28.064415 7.138098 -1.924838 -35.539325 0.000000 0.000000 0.000000 -9.486009 8.418523 -3.834116 -51.825803 0.777718 -8.249610 -11.217280 -24.932978 4.025187 0.000000 0.000000 0.000000 8.074126 -7.274931 -4.130629 56.089456 7.170826 -4.720324 41.770778 54.731203 24.242556 0.000000 0.000000 0.000000 
-0.731991 0.964490 0.827898 -2.077075 -6.273303 12.779297 16.751385 0.909430 -18.155579 -4.989267 1.284748 21.417220 6.934552 14.972513 7.925187 0.000000 0.000000 0.000000 -7.252433 1.617325 -23.508883 6.312701 -0.530063 27.607236 -3.933435 -12.857898 10.067458 0.000000 0.000000 0.000000 4.511210 -1.172564 12.734321 -0.128120 0.572520 -25.086323 -3.080695 -1.806646 26.745534 7.005004 -1.946476 -35.890937 0.000000 0.000000 0.000000 -11.236919 6.580984 -2.924430 -51.894812 -0.429754 -7.697765 -10.272803 -23.385551 3.552770 0.000000 0.000000 0.000000 10.521950 -8.295712 -5.291999 55.724503 6.165811 -4.978106 39.848137 50.024334 20.342270 0.000000 0.000000 0.000000 
-0.799248 0.982797 0.810836 -1.749451 -6.020739 11.615358 10.203424 -0.093844 -16.906143 -8.426449 2.610499 24.455869 4.200030 10.231693 7.906903 0.000000 0.000000 0.000000 -3.277786 1.977564 -21.792998 6.131839 -0.477822 26.530491 -1.935204 -8.783904 9.682529 0.000000 0.000000 0.000000 2.946355 -0.976217 13.888710 -0.676260 0.682334 -24.453865 -0.934482 -4.794342 26.663158 4.699760 -1.409209 -35.224206 0.000000 0.000000 0.000000 -14.514961 3.924426 -1.178487 -52.271571 -2.610661 -7.018728 -7.956042 -22.474667 2.989530 0.000000 0.000000 0.000000 8.693280 -6.510885 -4.398803 60.174157 3.829725 -6.813988 30.903014 44.720667 13.469469 0.000000 0.000000 0.000000 
-0.861988 0.989174 0.798244 -3.336804 -4.344993 10.200444 6.869955 -0.508036 -13.177552 -7.139476 1.865665 22.470936 3.233905 9.137987 10.491642 0.000000 0.000000 0.000000 -3.074410 1.957375 -21.970968 10.006381 -2.039357 30.590639 -2.895221 -10.426836 9.523766 0.000000 0.000000 0.000000 2.193860 -0.959515 15.509400 2.775425 0.013572 -25.886404 -1.203523 -6.418790 29.010256 5.157644 -1.597190 -37.210271 0.000000 0.000000 0.000000 -14.748719 4.717361 -1.405909 -54.640723 -5.227953 -6.406667 -8.734528 -23.512725 3.440878 0.000000 0.000000 0.000000 10.094336 -6.915479 -4.986368 59.379298 2.160128 -7.768952 22.346866 35.681258 7.700417 0.000000 0.000000 0.000000 
-0.925512 0.978944 0.790684 -4.867774 -5.659086 9.931353 8.058743 -0.307110 -9.468287 -3.425505 0.652267 18.528603 5.230819 12.106421 8.406250 0.000000 0.000000 0.000000 -7.058549 1.564524 -23.107382 8.014369 -1.162550 34.303563 -1.861120 -8.009167 8.021370 0.000000 0.000000 0.000000 2.763172 -0.931940 13.522509 3.794470 -0.339874 -24.241475 -1.793482 -7.074981 30.144178 3.110316 -1.042498 -36.268999 0.000000 0.000000 0.000000 -13.210925 6.468680 -2.091671 -56.467352 -6.444656 -5.773081 -10.020128 -25.805496 4.309419 0.000000 0.000000 0.000000 10.479293 -6.544464 -5.156550 60.637410 -0.573392 -9.506300 15.705443 31.002658 4.693265 0.000000 0.000000 0.000000 
-0.993641 0.964701 0.789086 -4.947350 -6.645651 9.321815 11.156786 -0.075490 -6.574054 -1.699520 0.171638 15.754706 6.341072 13.947419 8.129588 0.000000 0.000000 0.000000 -11.941321 0.919649 -21.806114 5.333031 -0.052295 31.835008 -2.192576 -8.517392 7.244275 0.000000 0.000000 0.000000 2.736168 -0.786436 11.209134 5.505502 -0.893243 -22.445142 -3.581836 -7.484626 29.990897 2.474896 -0.735836 -37.689175 0.000000 0.000000 0.000000 -12.186640 8.391494 -2.988300 -57.267744 -6.612422 -5.484341 -12.535780 -29.601039 5.963850 0.000000 0.000000 0.000000 8.699928 -6.783099 -4.901035 61.991874 -1.856001 -10.654664 13.380500 25.890872 3.292309 0.000000 0.000000 0.000000 
-1.069329 0.959111 0.793399 -5.156136 -8.206110 10.332612 15.702970 0.185708 -5.470822 -2.776136 0.488738 14.124201 6.889438 14.908868 12.060340 0.000000 0.000000 0.000000 -14.576908 0.759416 -18.394428 1.753805 0.943766 24.253393 1.463717 -3.941601 13.855001 0.000000 0.000000 0.000000 2.030579 -0.483358 6.999231 6.747041 -1.194797 -22.426577 -4.091283 -5.725887 30.243521 0.198207 0.225494 -35.876274 0.000000 0.000000 0.000000 -11.642791 9.967285 -3.939585 -56.747141 -6.565255 -5.422932 -14.636594 -30.359261 6.702838 0.000000 0.000000 0.000000 9.120714 -6.888558 -4.947980 60.566558 -2.842691 -10.835695 11.057247 21.261645 2.320084 0.000000 0.000000 0.000000 
-1.150199 0.962428 0.800434 -4.353991 -8.404154 10.802893 19.592348 0.739444 -9.006393 -0.881504 0.106613 21.090491 4.632477 11.628946 16.074941 0.000000 0.000000 0.000000 -14.371020 0.804778 -15.813297 0.539231 1.171817 22.183781 4.627282 0.861398 16.066785 0.000000 0.000000 0.000000 1.089248 -0.255302 4.112492 6.399352 -1.017076 -23.365096 -4.718052 -5.469356 30.529495 -1.306211 0.881813 -34.606905 0.000000 0.000000 0.000000 -13.231698 11.057496 -4.559330 -55.189322 -5.909657 -5.857122 -14.698806 -31.164149 6.959602 0.000000 0.000000 0.000000 5.016331 -4.805316 -2.968505 66.347951 -3.436643 -12.913628 9.255689 17.996319 1.744772 0.000000 0.000000 0.000000 
-1.227463 0.963402 0.808467 -3.924412 -6.202765 9.290953 19.598067 1.098317 -14.035913 1.782006 -1.007939 33.352875 5.188096 12.573411 13.538950 0.000000 0.000000 0.000000 -10.629961 0.799134 -12.054948 0.722369 0.923642 20.656030 3.796728 1.837577 11.672379 0.000000 0.000000 0.000000 0.164610 -0.236825 5.452159 5.591524 -0.659513 -25.188590 -4.806164 -5.403722 30.380769 0.264312 0.162488 -31.954524 0.000000 0.000000 0.000000 -12.447407 10.560607 -4.467612 -56.380347 -4.928737 -6.395247 -13.338961 -31.392606 6.502223 0.000000 0.000000 0.000000 5.806552 -5.776518 -3.417312 65.365983 -2.800949 -12.041748 10.658631 15.282283 1.656349 0.000000 0.000000 0.000000 
-1.291926 0.964816 0.818949 -3.765754 -6.429834 7.801279 15.626399 0.903369 -17.939676 0.968649 -0.618135 43.150293 7.023144 14.905987 3.550354 0.000000 0.000000 0.000000 -7.123041 0.731762 -8.229916 -0.431245 1.085430 18.124017 3.431579 2.192364 9.540513 0.000000 0.000000 0.000000 -0.805355 -0.176456 6.205329 4.913958 -0.546726 -24.973284 -3.787163 -3.891746 30.295436 0.438343 0.257891 -31.152051 0.000000 0.000000 0.000000 -13.618119 9.359201 -4.086888 -55.628326 -4.935754 -6.594722 -12.155931 -31.514687 6.038928 0.000000 0.000000 0.000000 6.133897 -4.919714 -2.985806 65.688518 -1.284518 -11.099921 10.256329 17.166304 1.899169 0.000000 0.000000 0.000000 
-1.342299 0.970590 0.834381 -3.642004 -7.625319 6.533030 11.608378 0.499554 -21.327111 -1.959785 1.288489 45.909513 7.451816 15.507552 0.518058 0.000000 0.000000 0.000000 -4.674629 0.476525 -3.863306 -1.647644 1.230736 15.604975 3.635605 3.122629 8.384772 0.000000 0.000000 0.000000 -0.837524 -0.196472 7.107718 3.488273 -0.202730 -25.720629 -2.724805 -2.184321 29.638047 1.461178 -0.236476 -29.139351 0.000000 0.000000 0.000000 -14.083645 7.269219 -3.154746 -56.408969 -3.960103 -7.149787 -11.839981 -28.756830 5.221912 0.000000 0.000000 0.000000 6.845600 -3.519548 -2.433070 66.404939 -0.030613 -10.312405 7.378723 18.396414 1.682074 0.000000 0.000000 0.000000 
-1.380822 0.979413 0.854857 -3.732160 -10.195943 6.202659 7.173057 -0.162624 -22.971367 -6.098302 3.556236 39.519212 7.133976 14.878160 1.473032 0.000000 0.000000 0.000000 -2.303850 0.199179 -1.000031 -3.652340 1.716699 15.195764 4.359282 3.850724 9.073523 0.000000 0.000000 0.000000 -2.502240 -0.016441 5.916918 3.322556 -0.315579 -24.204825 -0.036248 1.359178 27.835853 1.580957 -0.060106 -26.591698 0.000000 0.000000 0.000000 -12.976294 7.285143 -3.483801 -59.244829 -2.170073 -7.963901 -12.775700 -26.206890 4.765148 0.000000 0.000000 0.000000 6.141847 -4.163339 -2.411654 64.571968 0.685573 -9.168182 8.519602 20.911222 2.172571 0.000000 0.000000 0.000000 
-1.412516 0.981808 0.879069 -4.203035 -11.647777 5.251652 1.964947 -1.144572 -22.807847 -5.201575 2.297597 29.096039 6.397245 13.496250 3.944665 0.000000 0.000000 0.000000 -0.248128 -0.345335 4.162003 -4.976035 1.303651 8.876758 5.701531 7.105526 8.156758 0.000000 0.000000 0.000000 -1.268263 -0.150963 7.198013 1.690894 0.233428 -27.405000 2.286675 3.777727 29.630161 1.743020 -0.081858 -24.647788 0.000000 0.000000 0.000000 -13.198990 6.423130 -3.224693 -59.261994 -0.944135 -8.857048 -10.456397 -26.441091 4.205506 0.000000 0.000000 0.000000 6.424261 -3.023141 -1.837260 63.124122 1.983004 -8.296026 8.612279 21.935367 2.385180 0.000000 0.000000 0.000000 
