HIERARCHY
ROOT Hips
{
	OFFSET -0.001795 -0.223333 0.028219
	CHANNELS 6 Xposition Yposition Zposition Zrotation Yrotation Xrotation 
	JOINT LeftUpLeg
	{
		OFFSET 0.069520 -0.091406 -0.006815
		CHANNELS 3 Zrotation Yrotation Xrotation
		JOINT LeftLeg
		{
			OFFSET 0.034277 -0.375199 -0.004496
			CHANNELS 3 Zrotation Yrotation Xrotation
			JOINT LeftFoot
			{
				OFFSET -0.013596 -0.397961 -0.043693
				CHANNELS 3 Zrotation Yrotation Xrotation
				JOINT LeftToe
				{
					OFFSET 0.026358 -0.055791 0.119288
					CHANNELS 3 Zrotation Yrotation Xrotation
					End Site
					{
						OFFSET 0.000000 0.000000 0.000000
					}
				}
			}
		}
	}
	JOINT RightUpLeg
	{
		OFFSET -0.067670 -0.090522 -0.004320
		CHANNELS 3 Zrotation Yrotation Xrotation
		JOINT RightLeg
		{
			OFFSET -0.038290 -0.382569 -0.008850
			CHANNELS 3 Zrotation Yrotation Xrotation
			JOINT RightFoot
			{
				OFFSET 0.015774 -0.398415 -0.042312
				CHANNELS 3 Zrotation Yrotation Xrotation
				JOINT RightToe
				{
					OFFSET -0.025372 -0.048144 0.123348
					CHANNELS 3 Zrotation Yrotation Xrotation
					End Site
					{
						OFFSET 0.000000 0.000000 0.000000
					}
				}
			}
		}
	}
	JOINT Spine
	{
		OFFSET -0.002533 0.108963 -0.026696
		CHANNELS 3 Zrotation Yrotation Xrotation
		JOINT Spine1
		{
			OFFSET 0.005487 0.135180 0.001092
			CHANNELS 3 Zrotation Yrotation Xrotation
			JOINT Spine2
			{
				OFFSET 0.001457 0.052922 0.025425
				CHANNELS 3 Zrotation Yrotation Xrotation
				JOINT Neck
				{
					OFFSET -0.002778 0.213870 -0.042857
					CHANNELS 3 Zrotation Yrotation Xrotation
					JOINT Head
					{
						OFFSET 0.005152 0.064970 0.051349
						CHANNELS 3 Zrotation Yrotation Xrotation
						End Site
						{
							OFFSET 0.000000 0.000000 0.000000
						}
					}
				}
				JOINT LeftShoulder
				{
					OFFSET 0.078845 0.121749 -0.034090
					CHANNELS 3 Zrotation Yrotation Xrotation
					JOINT LeftArm
					{
						OFFSET 0.090977 0.030469 -0.008868
						CHANNELS 3 Zrotation Yrotation Xrotation
						JOINT LeftForeArm
						{
							OFFSET 0.259612 -0.012772 -0.027456
							CHANNELS 3 Zrotation Yrotation Xrotation
							JOINT LeftHand
							{
								OFFSET 0.249234 0.008986 -0.001171
								CHANNELS 3 Zrotation Yrotation Xrotation
								End Site
								{
									OFFSET 0.000000 0.000000 0.000000
								}
							}
						}
					}
				}
				JOINT RightShoulder
				{
					OFFSET -0.081759 0.118833 -0.038615
					CHANNELS 3 Zrotation Yrotation Xrotation
					JOINT RightArm
					{
						OFFSET -0.096012 0.032551 -0.009143
						CHANNELS 3 Zrotation Yrotation Xrotation
						JOINT RightForeArm
						{
							OFFSET -0.253742 -0.013329 -0.021401
							CHANNELS 3 Zrotation Yrotation Xrotation
							JOINT RightHand
							{
								OFFSET -0.255298 0.007772 -0.005559
								CHANNELS 3 Zrotation Yrotation Xrotation
								End Site
								{
									OFFSET 0.000000 0.000000 0.000000
								}
							}
						}
					}
				}
			}
		}
	}
}
MOTION
Frames: 100
Frame Time: 0.050000
0.000000 0.957253 0.000000 -2.127485 2.902088 0.465627 0.632750 0.354003 4.488924 -1.018472 0.174283 -2.740207 3.341546 10.505993 12.755355 0.000000 0.000000 0.000000 0.231927 0.680829 -6.679157 2.121911 -0.152188 4.803313 -2.594809 -10.005076 14.621379 0.000000 0.000000 0.000000 5.177355 -0.879056 9.257563 -5.387143 1.947836 -24.409012 -2.072402 2.214523 27.794687 11.616703 -4.735476 -25.961624 0.000000 0.000000 0.000000 -27.093589 -7.719392 1.697915 -45.460485 -3.435484 -5.981202 -6.557184 -24.822247 2.454252 0.000000 0.000000 0.000000 35.586749 -4.339551 -3.756606 49.569527 6.143298 -5.414345 4.857490 29.062783 2.899170 0.000000 0.000000 0.000000 
-0.000521 0.956241 0.003949 -1.986852 2.724065 1.484750 0.789053 0.289088 3.779158 -1.548916 0.220406 -2.960798 3.456367 10.636011 12.646999 0.000000 0.000000 0.000000 -0.286642 0.697989 -7.071983 2.496117 -0.211660 4.515359 -1.957185 -8.588640 13.185217 0.000000 0.000000 0.000000 5.619457 -0.831695 8.161352 -6.311880 2.157871 -24.220555 -1.944971 2.286871 27.674538 11.844665 -4.617356 -27.208329 0.000000 0.000000 0.000000 -26.135933 -7.221423 1.478585 -46.238339 -3.872381 -5.953797 -6.436587 -25.265657 2.487091 0.000000 0.000000 0.000000 34.882976 -4.959189 -4.219704 51.465624 5.799423 -5.619143 5.005278 30.579471 3.168440 0.000000 0.000000 0.000000 
-0.001106 0.955851 0.007919 -1.467575 3.218241 1.923392 0.736647 0.251871 3.304390 -2.241084 0.265679 -2.560692 3.170124 10.227804 12.601042 0.000000 0.000000 0.000000 -0.650879 0.710950 -7.397447 2.315760 -0.185513 4.706822 -2.405515 -9.317180 13.025079 0.000000 0.000000 0.000000 5.808627 -0.784118 7.412586 -6.850526 2.303126 -23.906218 -1.858260 1.933893 27.887561 10.893698 -4.117434 -26.943193 0.000000 0.000000 0.000000 -25.573868 -7.994796 2.019822 -46.529140 -4.209766 -5.902221 -6.859917 -25.110560 2.564455 0.000000 0.000000 0.000000 34.736296 -4.819906 -4.109648 51.359185 6.274940 -5.430968 5.386761 29.589038 3.128106 0.000000 0.000000 0.000000 
-0.001975 0.956372 0.012579 -1.273807 3.112384 2.093555 0.364851 0.298673 3.629701 -1.844831 0.240896 -2.913558 3.152885 10.268850 12.947680 0.000000 0.000000 0.000000 -1.126028 0.665011 -7.112318 2.565710 -0.226780 4.417157 -1.865860 -8.329372 13.017553 0.000000 0.000000 0.000000 6.076334 -0.796382 7.296325 -7.048093 2.327153 -24.320093 -1.845159 2.564180 28.721707 11.401767 -4.259455 -27.518119 0.000000 0.000000 0.000000 -26.119932 -8.613487 2.209126 -45.849833 -3.885948 -5.940844 -7.505842 -26.402768 2.834778 0.000000 0.000000 0.000000 35.311037 -4.618604 -3.702349 50.679730 6.935229 -5.317365 5.864362 29.733702 3.308158 0.000000 0.000000 0.000000 
-0.003175 0.956718 0.017338 -1.192478 3.080673 2.198759 0.345757 0.304898 3.689629 -1.796602 0.233281 -2.685333 3.146127 10.291320 13.110808 0.000000 0.000000 0.000000 -1.316575 0.619138 -6.667663 2.530353 -0.223635 4.213598 -1.262074 -7.089715 12.536000 0.000000 0.000000 0.000000 5.999097 -0.820615 7.590833 -6.246466 2.164224 -23.700685 -2.104792 2.882428 28.054033 11.620330 -4.387893 -27.074264 0.000000 0.000000 0.000000 -26.079231 -8.975470 2.283102 -45.748357 -4.422219 -5.623293 -9.478620 -27.282948 3.384102 0.000000 0.000000 0.000000 34.935870 -4.189756 -3.224604 50.325581 7.534953 -5.018990 5.991223 29.382508 3.277532 0.000000 0.000000 0.000000 
-0.004843 0.956892 0.022087 -1.136990 3.136643 2.164188 0.229870 0.316666 3.756513 -1.454202 0.196699 -2.218203 3.145303 10.306062 13.153964 0.000000 0.000000 0.000000 -1.464190 0.555269 -5.986165 2.654124 -0.246663 3.899915 -0.867190 -6.180195 11.949987 0.000000 0.000000 0.000000 6.198434 -0.864703 7.865385 -6.495112 2.207600 -24.103840 -1.935392 2.751719 28.631449 11.679596 -4.397638 -27.449755 0.000000 0.000000 0.000000 -26.070933 -9.555029 2.710874 -45.779136 -5.221373 -5.414228 -10.920811 -28.449204 3.916464 0.000000 0.000000 0.000000 34.418918 -3.437688 -2.638279 50.077154 7.781637 -4.943150 6.243188 29.129418 3.279627 0.000000 0.000000 0.000000 
-0.007035 0.956728 0.026797 -1.025142 3.114762 2.364207 0.261485 0.343071 4.088577 -1.439746 0.204502 -2.651565 3.105480 10.275684 13.311677 0.000000 0.000000 0.000000 -1.525648 0.521402 -5.603498 2.727777 -0.262789 3.420523 -0.723162 -5.830758 11.673112 0.000000 0.000000 0.000000 6.374656 -0.891358 7.941580 -6.258181 2.177043 -23.415709 -2.213948 2.533905 28.186022 12.103588 -4.638347 -27.579353 0.000000 0.000000 0.000000 -26.072531 -10.432286 3.322349 -45.933016 -5.728002 -5.216671 -12.338104 -29.166494 4.397385 0.000000 0.000000 0.000000 33.981820 -2.860190 -2.298984 49.923771 8.107350 -4.719260 6.685446 28.992683 3.334181 0.000000 0.000000 0.000000 
-0.009805 0.956163 0.031484 -0.910764 3.302507 2.801102 0.462677 0.326703 4.045197 -1.610426 0.222058 -2.915795 2.996773 10.124953 13.310068 0.000000 0.000000 0.000000 -1.592341 0.523234 -5.637316 2.902396 -0.292479 3.108088 -0.746438 -5.818609 11.562115 0.000000 0.000000 0.000000 6.532471 -0.921382 8.001779 -6.085789 2.137449 -23.389686 -2.417284 1.825844 28.297928 11.812215 -4.511162 -27.833593 0.000000 0.000000 0.000000 -25.978919 -11.111073 3.980141 -46.323547 -6.433669 -5.068476 -14.068616 -30.097389 5.062068 0.000000 0.000000 0.000000 33.142409 -2.361682 -2.146420 49.983477 8.459499 -4.481209 6.969806 28.595181 3.300978 0.000000 0.000000 0.000000 
-0.013160 0.955828 0.036170 -0.806875 3.499689 3.183696 0.614301 0.333906 4.263262 -1.589318 0.227328 -3.326541 2.773320 9.713365 12.950576 0.000000 0.000000 0.000000 -1.546120 0.533711 -5.739711 3.156195 -0.329040 3.255849 -0.993140 -6.109259 10.952796 0.000000 0.000000 0.000000 6.845288 -0.958813 7.996641 -5.920185 2.110076 -23.032156 -2.839186 1.192083 27.997344 11.845997 -4.596965 -27.796541 0.000000 0.000000 0.000000 -25.952810 -11.880199 4.634234 -47.182762 -6.696777 -5.059222 -14.536349 -30.505006 5.300958 0.000000 0.000000 0.000000 32.576401 -1.951777 -2.049945 49.984704 8.489454 -4.352605 7.060288 28.827077 3.317857 0.000000 0.000000 0.000000 
-0.017171 0.955779 0.040873 -0.668277 3.543543 3.711243 0.713385 0.326251 4.252093 -1.496035 0.224188 -3.533195 2.578797 9.324802 12.595839 0.000000 0.000000 0.000000 -1.316658 0.544124 -5.770456 3.218637 -0.338800 3.123538 -1.307048 -6.505497 10.117339 0.000000 0.000000 0.000000 7.172528 -1.000942 7.996063 -5.917654 2.107682 -22.942887 -3.008438 0.678227 27.979146 11.710213 -4.511664 -28.160170 0.000000 0.000000 0.000000 -26.063034 -12.618950 5.283127 -47.559254 -6.979603 -5.011744 -15.036564 -30.501283 5.469837 0.000000 0.000000 0.000000 32.127745 -1.682449 -2.047873 49.894824 8.649176 -4.198649 6.996583 28.659538 3.245522 0.000000 0.000000 0.000000 
-0.021767 0.955701 0.045855 -0.555093 3.635236 4.039193 0.905222 0.302829 4.118956 -1.371773 0.207253 -3.149389 2.328323 8.836585 12.191541 0.000000 0.000000 0.000000 -1.156170 0.582109 -6.149717 3.569213 -0.387571 3.610567 -1.778740 -7.396443 9.951814 0.000000 0.000000 0.000000 7.510751 -1.081938 8.354606 -5.816312 2.073771 -23.083869 -3.416535 0.217860 27.945096 11.756926 -4.497311 -28.677989 0.000000 0.000000 0.000000 -26.273951 -13.045310 5.714941 -47.854035 -6.951960 -5.076685 -14.725072 -30.387893 5.387279 0.000000 0.000000 0.000000 31.841410 -1.637877 -2.177819 49.657805 8.602875 -4.143208 6.568726 28.558687 3.102330 0.000000 0.000000 0.000000 
-0.026835 0.955292 0.051458 -0.436823 3.760179 4.366765 1.226701 0.277200 4.067985 -1.694892 0.221154 -2.657528 2.471039 8.831313 11.279015 0.000000 0.000000 0.000000 -0.852708 0.594296 -6.181383 3.626858 -0.396958 3.668689 -2.110590 -7.954067 9.544970 0.000000 0.000000 0.000000 7.895750 -1.164750 8.657938 -5.879915 2.087415 -23.085327 -3.720849 -0.202951 27.727042 11.600826 -4.399666 -28.879359 0.000000 0.000000 0.000000 -26.248230 -13.496586 6.120515 -48.084311 -7.189644 -5.002289 -13.943980 -29.801739 5.075113 0.000000 0.000000 0.000000 31.730129 -1.857423 -2.502788 49.075129 8.214544 -4.178390 6.156805 28.747057 2.996038 0.000000 0.000000 0.000000 
-0.032150 0.954641 0.058196 -0.324878 3.549078 4.477234 1.523979 0.264804 4.142152 -1.791002 0.221736 -2.230306 2.510787 8.897670 11.374986 0.000000 0.000000 0.000000 -0.576642 0.596333 -6.112243 3.663542 -0.398774 3.912443 -2.248431 -8.190084 9.248612 0.000000 0.000000 0.000000 8.151329 -1.217555 8.875924 -5.987195 2.114831 -22.900894 -3.908497 -0.376832 27.614925 11.405477 -4.255110 -29.305535 0.000000 0.000000 0.000000 -26.341136 -13.647688 6.343741 -48.059655 -7.410869 -4.938035 -12.607756 -28.962924 4.579883 0.000000 0.000000 0.000000 31.504258 -1.625025 -2.466412 48.635571 7.942563 -4.203148 5.450241 28.675284 2.786073 0.000000 0.000000 0.000000 
-0.037497 0.953943 0.066086 -0.073703 2.925622 4.669852 1.737745 0.248244 4.039253 -1.888317 0.217162 -1.373106 2.303652 8.541812 11.521679 0.000000 0.000000 0.000000 -0.498670 0.562214 -5.720602 3.451446 -0.360090 3.774390 -1.812322 -7.187913 8.498932 0.000000 0.000000 0.000000 8.459659 -1.293564 9.262049 -6.359166 2.172722 -23.451441 -3.838185 0.004222 27.763699 11.042420 -4.071424 -29.255691 0.000000 0.000000 0.000000 -26.575895 -13.815711 6.503700 -47.987434 -7.246808 -5.020800 -10.962838 -28.394703 4.065535 0.000000 0.000000 0.000000 31.627563 -1.704316 -2.550869 47.801738 7.522167 -4.329978 4.950146 28.736824 2.660920 0.000000 0.000000 0.000000 
-0.042738 0.953168 0.074950 0.108069 2.515397 4.681480 1.980220 0.240888 4.103807 -2.037810 0.215029 -0.333508 2.296191 8.465319 11.441417 0.000000 0.000000 0.000000 -0.217119 0.528964 -5.312689 3.077805 -0.300584 3.844950 -1.595188 -6.696585 8.173346 0.000000 0.000000 0.000000 8.661081 -1.345323 9.550358 -6.573619 2.201842 -23.825760 -4.060271 0.024020 28.165831 10.918160 -4.035588 -29.413093 0.000000 0.000000 0.000000 -26.525891 -13.356085 6.342950 -48.058974 -7.685567 -4.946496 -8.997106 -27.906715 3.520718 0.000000 0.000000 0.000000 31.765678 -1.660949 -2.636501 47.757876 7.405908 -4.380761 4.191980 28.964957 2.497285 0.000000 0.000000 0.000000 
-0.047704 0.952193 0.084519 0.208277 1.659374 4.587922 2.076786 0.187461 3.332020 -2.293544 0.199028 2.742516 2.992581 9.340996 10.742816 0.000000 0.000000 0.000000 0.125198 0.493739 -4.908824 2.586264 -0.218963 3.990610 -1.173417 -5.876562 8.065744 0.000000 0.000000 0.000000 8.753827 -1.398680 10.014561 -6.887666 2.252147 -24.083277 -3.812821 0.084772 27.995710 10.693833 -3.922937 -29.795476 0.000000 0.000000 0.000000 -26.607000 -12.719764 6.143028 -47.960210 -7.771299 -4.961891 -7.980930 -27.957440 3.300869 0.000000 0.000000 0.000000 31.813311 -1.636989 -2.859182 47.376588 7.396757 -4.285059 4.298277 28.530667 2.438038 0.000000 0.000000 0.000000 
-0.052286 0.951686 0.094427 0.312809 1.395145 4.515807 2.753949 0.019611 1.305864 -3.355394 0.304356 8.013051 3.252368 9.567798 9.971528 0.000000 0.000000 0.000000 0.588692 0.403027 -3.989912 2.301077 -0.183114 3.551435 -1.382921 -6.240832 7.732337 0.000000 0.000000 0.000000 8.767450 -1.452780 10.489730 -6.933135 2.265099 -23.941584 -3.878997 -0.271514 27.656278 10.221558 -3.737766 -29.837853 0.000000 0.000000 0.000000 -26.469924 -12.350025 6.087930 -47.748708 -8.764596 -4.607090 -6.898329 -27.610613 3.007642 0.000000 0.000000 0.000000 31.747816 -1.463328 -2.980199 47.474495 7.292190 -4.230425 3.860004 28.641382 2.310112 0.000000 0.000000 0.000000 
-0.056042 0.950071 0.104097 0.565043 1.557034 4.463587 3.412758 -0.222315 -2.266438 -4.530824 0.524603 15.705843 3.218078 9.489758 9.811066 0.000000 0.000000 0.000000 0.693135 0.328138 -3.275290 2.131058 -0.148667 4.188458 -1.484231 -5.846640 5.788165 0.000000 0.000000 0.000000 8.603107 -1.571690 11.632384 -6.992189 2.283575 -23.902195 -4.036261 -1.050581 27.104494 10.320260 -3.719741 -30.750565 0.000000 0.000000 0.000000 -26.409581 -11.899630 6.030432 -46.901564 -9.796701 -4.188226 -5.954696 -27.602803 2.791565 0.000000 0.000000 0.000000 31.365031 -1.181728 -3.069808 47.437788 7.521541 -3.989591 3.299689 28.806761 2.139215 0.000000 0.000000 0.000000 
-0.058696 0.948982 0.114388 0.404518 0.276033 4.846177 4.113054 -0.432800 -6.095994 -5.631679 0.970969 22.389837 3.628742 10.693379 12.882274 0.000000 0.000000 0.000000 0.783362 0.376724 -3.773346 2.242340 -0.123409 5.711347 -1.014364 -4.470291 4.575228 0.000000 0.000000 0.000000 8.724937 -1.655337 12.273584 -7.385943 2.308890 -24.831234 -3.097139 -0.791564 27.399877 9.577774 -3.328823 -31.449590 0.000000 0.000000 0.000000 -27.527418 -11.703107 6.231285 -44.941409 -10.471775 -3.945920 -5.852642 -28.824009 2.915668 0.000000 0.000000 0.000000 30.660820 -0.815899 -2.968706 46.479799 7.855745 -3.793718 4.692457 28.737139 2.412562 0.000000 0.000000 0.000000 
-0.060691 0.947821 0.126526 0.596620 -0.025217 5.071351 4.203214 -0.635477 -9.876809 -7.046376 1.484125 23.754468 8.668344 18.708337 21.816780 0.000000 0.000000 0.000000 0.255496 0.375496 -3.769002 2.760269 -0.185957 6.654066 -0.746723 -3.685749 4.079217 0.000000 0.000000 0.000000 8.644260 -1.752784 13.182730 -7.230409 2.249443 -25.186608 -3.210221 -0.686683 27.008553 9.230364 -2.943651 -32.742833 0.000000 0.000000 0.000000 -29.292249 -11.584717 6.275596 -42.399140 -11.335492 -3.498372 -5.728606 -29.667875 2.947826 0.000000 0.000000 0.000000 30.923619 -0.486302 -2.825306 45.557571 8.521034 -3.464206 5.985905 28.886545 2.713331 0.000000 0.000000 0.000000 
-0.062288 0.947130 0.141244 0.603091 -1.349246 4.945022 3.736366 -0.837690 -13.262328 -8.352646 1.697238 17.058561 18.469208 28.769666 32.991379 0.000000 0.000000 0.000000 0.248284 0.326234 -3.313002 2.363162 -0.084981 7.552276 -0.121080 -2.217582 3.844944 0.000000 0.000000 0.000000 8.168998 -1.826049 14.713907 -6.676647 2.073899 -26.217197 -2.795867 0.666951 27.131929 10.443014 -3.296205 -33.908399 0.000000 0.000000 0.000000 -30.051723 -12.135219 6.494898 -41.138947 -11.564697 -3.329246 -5.917782 -31.438584 3.167660 0.000000 0.000000 0.000000 30.712540 0.002875 -2.219666 45.327620 10.114170 -2.994781 6.373479 28.896244 2.833733 0.000000 0.000000 0.000000 
-0.063835 0.946600 0.158519 0.596255 -2.265075 4.924520 3.068311 -1.045876 -15.984601 -7.853923 1.247367 8.839249 12.127436 22.708380 23.836056 0.000000 0.000000 0.000000 0.077924 0.220921 -2.266432 2.387924 -0.082300 7.285926 0.396718 -1.322572 4.359687 0.000000 0.000000 0.000000 7.830923 -1.826225 15.421842 -6.627955 2.066933 -25.733437 -2.802605 1.439744 26.397362 10.536694 -3.197173 -34.325030 0.000000 0.000000 0.000000 -29.932194 -12.503866 6.602195 -40.807481 -12.973081 -2.779052 -4.958798 -31.212825 2.854607 0.000000 0.000000 0.000000 31.058291 0.449852 -1.878831 45.596771 11.798877 -2.363171 5.923942 28.295514 2.665041 0.000000 0.000000 0.000000 
-0.064745 0.946336 0.178537 0.560122 -3.522579 5.228392 2.592609 -1.182573 -17.841566 -6.996725 0.944966 3.918402 4.951026 12.959349 17.930113 0.000000 0.000000 0.000000 -0.260076 0.153755 -1.518831 2.479336 -0.085107 7.063628 1.138674 -0.229140 5.346539 0.000000 0.000000 0.000000 7.279281 -1.797162 16.287038 -6.588461 2.001829 -27.087449 -2.895039 2.958255 27.069510 11.345836 -3.260246 -35.660378 0.000000 0.000000 0.000000 -29.294205 -12.601299 6.376392 -40.564054 -13.406736 -2.613724 -5.047205 -31.480537 2.885175 0.000000 0.000000 0.000000 31.547846 0.217011 -1.747933 45.972392 12.684437 -2.202023 6.865036 28.397894 2.958932 0.000000 0.000000 0.000000 
-0.064921 0.944515 0.201822 0.697312 -3.470558 4.590563 1.587294 -1.338487 -18.051743 -6.030895 0.780601 3.300870 2.745254 9.613076 16.882784 0.000000 0.000000 0.000000 -0.030146 -0.048351 0.492906 2.289353 -0.050033 7.309346 0.271447 -2.107387 5.236631 0.000000 0.000000 0.000000 6.624584 -1.752506 17.161110 -7.077536 2.136311 -26.399081 -2.915203 2.692315 27.030310 12.129006 -3.641176 -35.829528 0.000000 0.000000 0.000000 -28.772962 -13.354414 6.895205 -40.194808 -14.557814 -2.240109 -3.770264 -31.852103 2.548878 0.000000 0.000000 0.000000 32.566831 0.117949 -2.007680 46.425420 13.138110 -2.001770 5.884101 28.492193 2.743123 0.000000 0.000000 0.000000 
-0.063672 0.942002 0.228660 0.429160 -4.169013 4.211528 0.920649 -1.390486 -17.729372 -4.763873 0.655163 6.745722 3.624925 10.307431 13.669371 0.000000 0.000000 0.000000 0.314425 -0.168276 1.553489 1.626954 0.122155 8.998658 0.358241 -2.108337 5.533391 0.000000 0.000000 0.000000 5.888072 -1.660337 17.900683 -8.078145 2.304103 -27.487675 -2.570259 2.666629 27.929160 12.585426 -4.057558 -35.358410 0.000000 0.000000 0.000000 -28.729216 -13.762034 7.404074 -39.455052 -15.524018 -2.070121 -3.658794 -30.977914 2.445795 0.000000 0.000000 0.000000 33.703959 0.358777 -2.123817 46.397353 12.856203 -2.130718 6.445213 29.036480 2.939898 0.000000 0.000000 0.000000 
-0.061203 0.938776 0.258648 0.231821 -4.350523 3.903881 0.376121 -1.448765 -17.553114 -4.122018 0.594696 10.619753 4.259191 10.804441 10.402050 0.000000 0.000000 0.000000 0.111523 -0.073455 0.688563 1.996146 0.228109 13.804792 0.202899 -3.420690 7.634843 0.000000 0.000000 0.000000 4.868144 -1.502250 18.344138 -8.130916 2.323185 -27.286698 -2.998253 2.754846 27.943410 12.450826 -4.198015 -34.216857 0.000000 0.000000 0.000000 -28.000310 -14.167779 7.603467 -39.354524 -15.921511 -1.933533 -2.310357 -30.183573 2.004285 0.000000 0.000000 0.000000 35.373079 0.182895 -2.422201 46.636253 12.329609 -2.325916 5.553902 29.245407 2.775115 0.000000 0.000000 0.000000 
-0.058112 0.938155 0.290568 -0.167200 -4.816078 2.925753 0.594567 -1.243050 -15.314422 -4.552159 0.742292 12.447841 4.738486 11.250173 8.080018 0.000000 0.000000 0.000000 0.040453 0.032152 -0.365192 1.998634 0.576782 21.552228 1.079392 -2.532526 9.616708 0.000000 0.000000 0.000000 3.603731 -1.234381 18.025586 -8.032490 2.374420 -25.672663 -2.737785 2.631532 27.199545 12.301981 -4.237362 -33.757532 0.000000 0.000000 0.000000 -28.948899 -15.303967 8.548590 -37.862705 -14.892669 -2.190487 -1.830109 -28.398822 1.715528 0.000000 0.000000 0.000000 36.208035 0.011936 -2.870306 46.310833 11.105993 -2.626601 6.307869 29.287837 2.927011 0.000000 0.000000 0.000000 
-0.055322 0.938808 0.322900 0.232774 -4.244087 2.082307 -0.182823 -1.144781 -12.791819 -4.693076 0.775836 13.307495 4.578315 10.810532 6.679398 0.000000 0.000000 0.000000 -0.522448 0.369904 -3.749770 2.206572 1.019338 32.572646 1.068455 -3.543303 12.221606 0.000000 0.000000 0.000000 2.108634 -0.997659 18.395205 -7.839127 2.316546 -26.438545 -3.182243 1.012320 28.952176 12.137685 -4.339654 -34.468921 0.000000 0.000000 0.000000 -30.152160 -15.063701 9.172040 -35.824712 -15.314809 -2.360925 -0.451602 -26.496938 1.285615 0.000000 0.000000 0.000000 36.767273 0.029013 -3.520345 46.186379 9.651994 -3.107622 7.251870 29.937605 3.200212 0.000000 0.000000 0.000000 
-0.053664 0.941308 0.354994 -0.147779 -3.745942 1.250515 -0.290822 -0.841101 -9.125034 -4.268532 0.637165 12.259428 4.297337 10.190433 5.773626 0.000000 0.000000 0.000000 -0.216587 0.797180 -8.005111 2.779150 1.114586 40.650488 0.552549 -6.582238 18.695281 0.000000 0.000000 0.000000 1.194794 -0.849264 18.331936 -6.897444 2.162641 -25.136410 -3.791970 -0.088368 28.400430 11.664067 -4.304735 -33.853115 0.000000 0.000000 0.000000 -30.261246 -15.376516 9.675083 -35.158217 -15.405895 -2.344791 0.567275 -24.858678 0.969271 0.000000 0.000000 0.000000 37.214807 0.119128 -3.999188 46.130331 6.897337 -3.839517 8.250524 30.867205 3.490790 0.000000 0.000000 0.000000 
-0.052964 0.943512 0.387537 -1.032879 -3.341851 1.298065 0.074817 -0.547109 -6.052897 -3.472681 0.430058 10.649012 4.073786 9.680752 5.086190 0.000000 0.000000 0.000000 0.679117 1.232012 -11.578043 2.946487 0.998455 41.802361 -1.201365 -9.358188 18.502146 0.000000 0.000000 0.000000 1.370568 -0.897087 18.280191 -6.195926 1.996206 -25.505602 -4.675443 -0.613147 29.275377 11.769868 -4.272963 -34.789057 0.000000 0.000000 0.000000 -30.107232 -16.066318 10.292011 -34.718435 -15.511635 -2.402002 1.303364 -23.740106 0.757174 0.000000 0.000000 0.000000 36.411509 -0.160657 -4.226205 46.960109 4.756573 -4.710599 9.140741 31.547540 3.813285 0.000000 0.000000 0.000000 
-0.052516 0.945456 0.420586 -2.000404 -2.710200 1.575761 0.774955 -0.340459 -3.930524 -2.923855 0.296822 10.198908 3.757460 9.078154 4.874151 0.000000 0.000000 0.000000 1.874125 1.606612 -13.916616 2.415429 0.933677 37.561587 -2.365757 -8.710764 8.018248 0.000000 0.000000 0.000000 2.268029 -1.088276 18.382098 -6.435399 2.063316 -25.159596 -4.859989 -2.213408 28.906350 11.261192 -4.190904 -34.725940 0.000000 0.000000 0.000000 -30.226572 -15.542623 10.424784 -34.812684 -16.181918 -2.329362 1.307082 -23.009783 0.744806 0.000000 0.000000 0.000000 35.775272 -0.369473 -4.927873 47.017594 2.592089 -5.271660 10.732956 31.552708 4.133718 0.000000 0.000000 0.000000 
-0.052104 0.946788 0.454422 -2.500061 -1.957723 1.539148 1.739039 -0.140244 -1.568844 -3.545105 0.405579 9.853849 3.215935 8.176605 5.191949 0.000000 0.000000 0.000000 2.189325 1.925971 -16.242508 2.236616 0.647675 31.334728 -2.089475 -6.209695 2.304521 0.000000 0.000000 0.000000 2.499762 -1.203357 19.199136 -5.852762 1.926436 -25.719102 -5.139036 -3.198829 28.858675 12.494949 -4.570967 -36.315248 0.000000 0.000000 0.000000 -30.449413 -15.417944 10.605462 -35.482625 -16.176012 -2.422279 1.571423 -23.477485 0.737453 0.000000 0.000000 0.000000 35.417886 -0.962673 -5.569189 47.114761 1.267595 -5.688447 10.753058 31.613848 4.105459 0.000000 0.000000 0.000000 
-0.051864 0.946369 0.489138 -2.492881 -1.793658 1.819083 1.724167 0.040303 0.814588 -3.533858 0.397854 9.008140 2.968115 7.840508 5.656663 0.000000 0.000000 0.000000 2.555613 2.211915 -18.139316 2.069222 0.388957 22.353253 -1.863372 -6.322641 4.037476 0.000000 0.000000 0.000000 2.618468 -1.262672 19.697137 -5.708884 1.857369 -27.202812 -5.359136 -3.605190 29.989882 12.046761 -4.230641 -37.573869 0.000000 0.000000 0.000000 -30.879699 -14.882235 10.518200 -35.820078 -16.400328 -2.512887 1.281247 -23.932965 0.833062 0.000000 0.000000 0.000000 35.141522 -1.821708 -6.308008 46.998323 0.195325 -6.120090 11.435722 30.717396 4.139269 0.000000 0.000000 0.000000 
-0.052321 0.944548 0.525000 -2.715065 -2.262175 1.982621 1.634653 0.173940 2.481307 -3.362301 0.375082 9.480443 3.543982 9.202490 7.141872 0.000000 0.000000 0.000000 3.199799 2.592745 -20.196339 2.578784 0.056285 14.731866 -1.421020 -6.724352 7.836810 0.000000 0.000000 0.000000 3.226668 -1.383427 20.002911 -5.954820 1.890040 -27.531269 -5.360607 -4.518196 29.839339 11.692066 -3.982529 -38.910283 0.000000 0.000000 0.000000 -30.488572 -13.601977 10.085499 -37.254899 -16.768801 -2.559489 1.033760 -24.189357 0.948395 0.000000 0.000000 0.000000 34.353778 -2.080040 -6.947275 47.425938 -0.215586 -6.154520 10.883602 29.776640 3.764179 0.000000 0.000000 0.000000 
-0.053702 0.941425 0.562540 -2.670510 -2.822021 2.664674 1.318023 0.196422 2.617154 -3.197100 0.359294 11.545203 4.064168 10.582867 9.842531 0.000000 0.000000 0.000000 3.397404 2.818129 -21.485827 3.323555 -0.155974 11.599086 -1.126517 -7.077942 10.501767 0.000000 0.000000 0.000000 3.863468 -1.528710 20.571451 -5.629563 1.776590 -29.176698 -5.726609 -4.234894 30.653948 12.606126 -4.349667 -39.488052 0.000000 0.000000 0.000000 -30.081754 -13.123234 9.800805 -38.781042 -16.778717 -2.661698 -0.785131 -24.089518 1.341878 0.000000 0.000000 0.000000 35.647164 -1.730028 -7.050248 46.752655 1.382843 -5.497670 8.413800 29.502207 3.128495 0.000000 0.000000 0.000000 
-0.056079 0.936455 0.602563 -2.475264 -4.314714 3.229820 0.991098 0.186638 2.316989 -4.046214 0.638304 14.266503 5.875913 14.049685 15.460294 0.000000 0.000000 0.000000 4.292928 3.106042 -22.142094 2.284030 0.156142 13.607803 -0.403068 -5.598274 9.800759 0.000000 0.000000 0.000000 4.245801 -1.551322 20.608125 -4.390867 1.525184 -27.682292 -6.427907 -2.930812 28.260032 12.179866 -4.031551 -38.842146 0.000000 0.000000 0.000000 -29.772324 -12.478220 8.945323 -39.402370 -16.021576 -2.574452 -2.918829 -21.879122 1.557198 0.000000 0.000000 0.000000 37.315058 0.125650 -5.852398 45.565675 3.450500 -4.414040 4.672301 28.198865 2.091567 0.000000 0.000000 0.000000 
-0.059659 0.932542 0.646120 -2.141353 -4.778130 3.061525 1.427566 -0.115204 -1.241614 -5.688206 1.468868 24.006237 6.408399 15.475623 24.900142 0.000000 0.000000 0.000000 4.858818 3.007984 -20.902972 1.060539 0.570004 16.395642 -0.878279 -5.326388 6.488515 0.000000 0.000000 0.000000 5.132248 -1.704890 20.621534 -4.888517 1.616759 -27.741996 -5.980183 -3.118551 27.688901 11.561438 -3.584756 -39.999071 0.000000 0.000000 0.000000 -31.931648 -12.406909 9.370409 -38.327601 -14.716328 -3.026166 -3.550825 -19.622014 1.456159 0.000000 0.000000 0.000000 37.271131 1.244558 -5.209302 44.148430 5.829540 -3.387910 4.694589 26.335193 1.906024 0.000000 0.000000 0.000000 
-0.063995 0.933544 0.693994 -1.758971 -5.072674 1.382438 3.097291 -0.291109 -4.300593 -8.269225 3.223429 34.495129 2.629473 8.019657 9.730091 0.000000 0.000000 0.000000 4.850757 2.211540 -15.882576 0.901664 0.626851 16.518428 -1.247641 -4.581833 2.871199 0.000000 0.000000 0.000000 5.789856 -1.875346 21.802541 -4.448418 1.529806 -29.143776 -5.718015 -2.259724 28.527235 10.169126 -2.725878 -41.516089 0.000000 0.000000 0.000000 -34.724967 -11.461043 8.759346 -37.309543 -13.244839 -3.466794 -5.490585 -18.734680 1.679664 0.000000 0.000000 0.000000 37.594474 2.148453 -4.153431 42.594743 7.433487 -2.942214 6.160279 25.342774 2.146349 0.000000 0.000000 0.000000 
-0.068271 0.939942 0.745317 -1.073945 -5.504686 0.008109 3.130055 -0.437796 -6.962148 -8.384104 3.772963 39.053901 0.998544 -4.438500 -13.387250 0.000000 0.000000 0.000000 4.790441 1.406012 -10.670356 -0.171121 0.866563 15.911087 -1.119177 -3.637934 1.550870 0.000000 0.000000 0.000000 6.461712 -1.913174 21.257262 -4.855660 1.617357 -29.137064 -5.676356 -0.372513 28.344170 10.355816 -3.065228 -38.539451 0.000000 0.000000 0.000000 -34.871082 -12.147541 8.475684 -37.509703 -11.097653 -3.829652 -5.841579 -17.668471 1.607845 0.000000 0.000000 0.000000 38.049247 1.569667 -3.761446 42.956017 8.609891 -2.827965 6.667544 23.326562 2.113441 0.000000 0.000000 0.000000 
-0.072413 0.949993 0.797736 0.031768 -7.648913 -1.725233 1.079645 -0.562395 -7.098604 -8.311144 3.622532 33.698816 0.680657 -10.196394 -20.272880 0.000000 0.000000 0.000000 3.540638 0.467086 -4.447082 -0.706350 0.903533 13.820116 0.183285 -0.950374 2.251695 0.000000 0.000000 0.000000 5.238891 -1.450395 19.643027 -4.950397 1.642197 -27.360199 -4.777922 2.351519 27.148258 9.948605 -2.887435 -36.815206 0.000000 0.000000 0.000000 -33.892252 -10.925240 6.772451 -39.296152 -11.050719 -3.687157 -5.561419 -15.208914 1.338225 0.000000 0.000000 0.000000 37.789699 0.909398 -3.502317 44.297946 8.852771 -2.960000 7.620588 21.646163 2.147990 0.000000 0.000000 0.000000 
-0.076714 0.955284 0.848253 0.995000 -7.686195 -3.053957 -1.999725 -0.662662 -6.011227 -6.318510 1.867088 22.410246 -3.032621 -12.558547 -9.478038 0.000000 0.000000 0.000000 1.759088 -0.104803 0.519220 -0.087919 0.695359 12.714439 0.835906 -0.181851 3.513816 0.000000 0.000000 0.000000 4.385019 -1.228532 18.713053 -4.631008 1.583202 -25.325319 -5.281379 4.763059 25.345187 10.058118 -2.651868 -35.566451 0.000000 0.000000 0.000000 -32.422500 -11.290913 5.666652 -41.253398 -10.384733 -3.474893 -4.258082 -15.917165 1.223095 0.000000 0.000000 0.000000 37.458038 -0.254644 -3.092633 46.612315 8.625836 -3.399430 7.079020 20.757250 2.037779 0.000000 0.000000 0.000000 
-0.082780 0.953182 0.891990 1.744031 -8.444475 -4.580716 -4.667119 -0.658409 -4.693392 -3.940471 0.856126 16.065676 -6.102410 -9.189398 6.828949 0.000000 0.000000 0.000000 1.304637 -0.313787 2.802302 -0.263531 0.980119 15.898775 0.209177 -1.772066 3.719577 0.000000 0.000000 0.000000 5.424887 -1.336345 18.752676 -5.744862 1.852704 -25.250193 -4.475899 7.017012 27.434039 11.452566 -2.643742 -38.850396 0.000000 0.000000 0.000000 -31.254520 -13.185933 6.304868 -42.197912 -13.068908 -2.646783 -2.809631 -16.507745 1.058958 0.000000 0.000000 0.000000 37.101084 1.076879 -1.013499 48.568988 11.568077 -2.880960 3.551260 17.961314 1.281663 0.000000 0.000000 0.000000 
-0.093620 0.941116 0.924489 2.123275 -8.864950 -5.577870 -5.634405 -0.795347 -5.294163 -4.391195 1.151394 19.080147 -3.395671 -2.481454 10.965945 0.000000 0.000000 0.000000 -0.522934 0.061655 -0.447357 2.347681 1.044844 25.923768 1.535133 -0.164802 6.071132 0.000000 0.000000 0.000000 5.807990 -1.457886 20.431513 -6.825845 2.110537 -25.568519 -3.538824 8.508766 27.797963 8.560036 -0.908501 -40.886095 0.000000 0.000000 0.000000 -29.469582 -14.952238 6.870910 -43.334967 -16.827163 -1.268077 -1.042561 -17.868613 0.872036 0.000000 0.000000 0.000000 36.108527 2.168078 0.534566 49.384605 13.744087 -2.255329 0.683590 15.904779 0.783479 0.000000 0.000000 0.000000 
-0.112231 0.928792 0.947128 3.045355 -7.906458 -6.275240 -7.246864 -1.342667 -8.397426 -3.878437 1.345305 27.511999 0.524397 4.607924 11.967845 0.000000 0.000000 0.000000 -0.459747 0.580043 -5.973070 4.657505 0.851915 36.685717 0.019710 -7.368998 16.245975 0.000000 0.000000 0.000000 4.920992 -1.451839 22.974261 -4.759083 1.624306 -25.126148 -4.165065 9.750405 28.634395 6.707632 0.515397 -44.840144 0.000000 0.000000 0.000000 -28.098302 -15.827211 6.670299 -42.839602 -19.401119 -0.263658 4.169953 -23.716530 0.091040 0.000000 0.000000 0.000000 33.403831 5.487570 3.908487 49.024550 17.781148 -0.934524 -0.999162 16.741421 0.623804 0.000000 0.000000 0.000000 
-0.145255 0.924128 0.967584 3.861927 -8.592286 -5.516447 -9.251863 -2.013010 -11.739296 -1.542699 0.747733 32.772269 6.872895 15.161966 18.538606 0.000000 0.000000 0.000000 -0.305674 1.254129 -12.178352 5.845855 0.843828 42.598290 -8.371740 -19.497453 -4.282932 0.000000 0.000000 0.000000 4.948098 -1.427676 23.218203 -5.978895 1.947192 -23.563208 -2.552249 10.563625 27.173176 1.719831 2.516769 -44.888267 0.000000 0.000000 0.000000 -24.575220 -13.628718 4.989389 -43.530452 -21.781506 0.730033 6.851930 -27.237616 -0.555494 0.000000 0.000000 0.000000 25.110963 9.257645 5.963204 50.819497 23.161983 1.900324 -6.547751 15.981376 -0.029864 0.000000 0.000000 0.000000 
-0.197084 0.933344 0.990800 4.468451 -10.954089 -5.026452 -8.469567 -2.016761 -12.431021 -2.095408 1.434907 33.957591 10.060119 19.297613 20.710155 0.000000 0.000000 0.000000 -0.638128 1.760190 -16.403076 5.430624 1.530925 42.545188 -5.965041 -15.583716 4.546806 0.000000 0.000000 0.000000 4.951284 -1.366626 25.232168 -4.995474 1.626215 -27.796047 -2.248774 13.693884 28.305472 -2.126356 4.222281 -42.218652 0.000000 0.000000 0.000000 -22.161490 -11.840691 3.525426 -39.716781 -19.481987 -0.295913 8.973788 -32.141094 -1.431969 0.000000 0.000000 0.000000 21.845814 12.569650 8.044328 44.410065 27.169261 2.536131 -6.483817 18.341351 -0.080640 0.000000 0.000000 0.000000 
-0.267072 0.943946 1.014011 4.500933 -13.659686 -2.977862 -6.371093 -2.337364 -17.884698 -1.881705 1.985547 36.859216 8.556835 16.940061 20.703738 0.000000 0.000000 0.000000 0.333483 1.915144 -16.521693 1.460658 2.658991 33.523244 -9.624270 -22.481377 0.700979 0.000000 0.000000 0.000000 6.715852 -1.581867 24.520860 -6.366193 1.901478 -28.195001 -3.181324 18.212578 26.949038 0.249328 3.702759 -40.318984 0.000000 0.000000 0.000000 -14.375935 -9.382403 1.914758 -35.004332 -16.913573 -0.976952 8.313178 -32.822806 -1.726725 0.000000 0.000000 0.000000 16.455297 17.085508 10.006303 31.346980 30.337240 1.995938 -7.716613 22.821202 -0.482385 0.000000 0.000000 0.000000 
-0.349863 0.943205 1.032818 6.503788 -15.418800 -3.712475 -8.917628 -3.130453 -21.765457 -4.312913 3.857827 39.274475 5.648803 12.217423 9.937817 0.000000 0.000000 0.000000 2.942689 1.812380 -14.134563 -1.226257 3.751551 32.246893 -10.769505 -24.099557 -3.820748 0.000000 0.000000 0.000000 3.712075 -0.787882 27.664125 -3.037300 1.295199 -31.508458 -4.818124 23.723389 27.591894 3.555853 3.061468 -40.699754 0.000000 0.000000 0.000000 -12.743165 -10.607188 1.823703 -24.704644 -11.239914 -1.621765 12.387636 -28.419949 -2.994321 0.000000 0.000000 0.000000 8.065492 20.279281 9.712208 15.572984 34.414507 0.614059 -10.029658 19.415116 -0.889221 0.000000 0.000000 0.000000 
-0.442958 0.936269 1.049297 7.342500 -19.668764 -4.593269 -10.357577 -3.597671 -25.992223 -9.026265 6.893175 37.494202 0.504714 2.608208 6.652822 0.000000 0.000000 0.000000 5.911477 1.842057 -12.784097 -1.587654 4.515457 33.003163 -7.784563 -16.463694 -4.154353 0.000000 0.000000 0.000000 0.333902 0.549761 30.269774 -3.606034 1.206250 -28.954361 -5.923404 25.848948 22.627260 8.693874 0.748140 -38.296564 0.000000 0.000000 0.000000 -10.925223 -8.989580 1.189227 -15.345515 -6.418633 -1.285367 14.493773 -19.407054 -2.457923 0.000000 0.000000 0.000000 -0.350938 22.039345 7.723875 -3.191520 36.279138 -2.262599 -9.155579 14.629805 -0.555393 0.000000 0.000000 0.000000 
-0.543304 0.918504 1.065763 6.717900 -20.142925 -4.966730 -12.396575 -4.043226 -26.618358 -10.077383 6.209133 31.560531 -3.576382 -3.097833 11.884010 0.000000 0.000000 0.000000 9.542916 2.530525 -14.124949 2.885693 3.587972 37.279183 -6.532227 -16.520352 3.632504 0.000000 0.000000 0.000000 -3.619817 1.966473 32.260631 -3.045410 1.126200 -29.791857 -4.467185 24.563011 23.421897 10.722096 -0.953472 -34.314250 0.000000 0.000000 0.000000 -12.095976 -9.393995 1.486254 -5.207545 -0.064299 -0.563988 15.126642 -6.626618 -0.933575 0.000000 0.000000 0.000000 -10.488695 22.156205 4.618631 -16.450438 33.939807 -4.133809 -8.621338 8.139316 -0.180531 0.000000 0.000000 0.000000 
-0.645013 0.897832 1.084068 4.827467 -22.006390 -6.671261 -11.341277 -3.577173 -24.602511 -8.294342 5.739406 31.957458 -2.553882 -1.975431 10.529338 0.000000 0.000000 0.000000 12.694115 3.581350 -16.177079 8.464120 3.082063 48.025886 4.041065 -2.508017 17.767286 0.000000 0.000000 0.000000 -5.749845 3.563292 36.997879 -3.108895 1.231294 -32.725814 -3.680838 23.474636 26.766827 15.170602 -3.425504 -36.006068 0.000000 0.000000 0.000000 -9.584117 -8.120658 1.650442 1.064007 7.254806 0.561980 10.025342 -1.372868 -0.186371 0.000000 0.000000 0.000000 -10.981112 15.575684 2.590525 -30.464116 30.908167 -5.504126 -10.544952 2.522767 0.047465 0.000000 0.000000 0.000000 
-0.742409 0.879469 1.103496 2.593057 -19.512867 -7.417745 -9.142080 -3.136920 -22.875280 -4.300535 4.289834 37.143138 -0.362344 -0.137303 2.040202 0.000000 0.000000 0.000000 9.254637 4.707929 -22.494790 16.697081 -1.485205 54.085691 20.084144 10.578430 39.989323 0.000000 0.000000 0.000000 -5.906690 3.771615 40.607584 -5.046049 1.512751 -32.348061 -4.642237 18.576519 25.696032 17.061425 -5.895843 -31.734395 0.000000 0.000000 0.000000 -5.362485 -7.720938 2.218558 5.485993 11.680231 1.774973 7.119509 5.480166 0.100107 0.000000 0.000000 0.000000 -9.756442 10.394212 1.829745 -31.026765 21.699744 -2.665357 -13.787473 0.035837 0.264085 0.000000 0.000000 0.000000 
-0.834898 0.869695 1.122538 1.812373 -18.690976 -8.282358 -4.894931 -2.167054 -20.259850 -1.964402 3.437760 40.372261 1.607770 2.548755 -4.074716 0.000000 0.000000 0.000000 4.215809 5.025077 -27.998185 18.480128 -2.881891 55.073021 33.976498 19.598573 52.491281 0.000000 0.000000 0.000000 -7.448470 4.671033 43.191355 -3.782513 1.323953 -34.301570 -5.004127 15.761755 28.227599 18.292278 -7.504280 -30.503872 0.000000 0.000000 0.000000 -5.440850 -6.878297 2.128241 10.252616 15.905449 3.499417 4.377351 5.002309 0.003832 0.000000 0.000000 0.000000 -5.717353 6.802379 1.501037 -31.015487 16.051471 -0.808616 -16.438174 -0.094391 0.247106 0.000000 0.000000 0.000000 
-0.924794 0.866454 1.141535 -1.081308 -18.557982 -7.490561 3.245828 -0.455275 -18.879347 -0.139542 2.761053 44.228051 0.666568 -0.238168 -5.920500 0.000000 0.000000 0.000000 -0.015084 4.998817 -32.376881 17.952202 -2.961386 48.741721 31.258784 20.287344 47.758211 0.000000 0.000000 0.000000 -7.825253 4.928622 44.560756 -4.161742 1.313426 -32.892276 -3.570142 13.140649 26.301691 18.249830 -8.196023 -28.327386 0.000000 0.000000 0.000000 -2.259672 -5.173279 1.698617 9.091830 16.828048 3.336347 6.164047 4.575120 0.070519 0.000000 0.000000 0.000000 -1.750426 5.783168 1.726090 -27.440025 12.043669 0.207726 -18.466726 0.843149 0.115494 0.000000 0.000000 0.000000 
-1.013749 0.870337 1.160281 -2.804085 -15.750673 -6.646143 9.023505 0.602320 -17.029572 1.704106 0.860816 43.916331 0.557819 0.537622 -2.228874 0.000000 0.000000 0.000000 -5.751121 3.617436 -34.257875 15.010522 -2.388754 42.297961 -8.374114 -22.001777 9.774073 0.000000 0.000000 0.000000 -9.024519 4.915063 45.038279 -1.560454 0.852265 -32.135294 -3.241883 10.991176 26.759977 18.085008 -8.290844 -28.185832 0.000000 0.000000 0.000000 -2.915010 -3.507532 1.099517 11.223291 16.062910 3.922971 6.215374 2.811079 0.041831 0.000000 0.000000 0.000000 3.297165 5.927970 2.182158 -22.845930 12.110991 0.020777 -22.810630 1.424225 -0.038385 0.000000 0.000000 0.000000 
-1.101694 0.870939 1.178449 -4.615064 -15.619961 -4.929658 16.207205 2.032269 -15.896629 0.449372 1.281632 43.321754 3.193061 7.341339 3.874131 0.000000 0.000000 0.000000 -9.995980 2.781554 -36.238049 11.154040 -1.033757 36.196198 -14.033425 -31.152767 12.981411 0.000000 0.000000 0.000000 -8.999821 4.709555 44.360222 -1.841390 0.828030 -30.258734 -1.796755 11.092781 25.377172 16.127629 -7.197863 -26.824404 0.000000 0.000000 0.000000 -0.604119 -4.666233 1.570981 9.654286 14.100574 3.211059 8.829300 1.330830 0.019418 0.000000 0.000000 0.000000 8.760283 6.133382 2.679641 -17.149294 13.175489 -0.388899 -24.982715 3.217712 -0.353246 0.000000 0.000000 0.000000 
-1.188902 0.867904 1.196446 -5.504439 -15.675230 -3.790263 20.680612 3.088514 -16.286278 -0.890606 2.071582 44.556656 6.922320 14.490054 8.846103 0.000000 0.000000 0.000000 -12.957014 2.037132 -35.753694 6.400274 0.441946 30.514558 -8.900974 -23.356961 20.293421 0.000000 0.000000 0.000000 -9.285648 4.746301 43.571357 0.628739 0.351907 -30.207462 -2.021368 13.297576 25.460862 16.269407 -6.941206 -26.842442 0.000000 0.000000 0.000000 -1.837011 -5.903098 1.895007 9.509129 8.839120 2.465318 14.692778 -1.288664 -0.297850 0.000000 0.000000 0.000000 16.033923 7.617705 4.397223 -13.583722 14.700413 -0.703839 -27.929097 7.261408 -1.299183 0.000000 0.000000 0.000000 
-1.274696 0.857606 1.212532 -5.705270 -14.036736 -2.497082 23.114910 3.939508 -19.544704 0.284217 1.140202 47.698696 6.968825 14.752764 10.803939 0.000000 0.000000 0.000000 -16.677423 0.917283 -35.337569 2.104374 1.523809 27.900361 -0.831204 -12.473276 26.693594 0.000000 0.000000 0.000000 -8.859494 4.150686 43.062393 1.463145 0.153296 -29.546535 -1.762129 13.732104 24.347919 15.764108 -6.299819 -27.054891 0.000000 0.000000 0.000000 -4.155803 -9.005761 2.825453 8.112813 2.560079 1.385373 19.256665 -5.376954 -1.065147 0.000000 0.000000 0.000000 24.405722 6.727966 5.145159 -8.568841 20.598822 -1.838345 -26.996708 10.943093 -1.954692 0.000000 0.000000 0.000000 
-1.356247 0.843788 1.224675 -6.344968 -13.410492 -1.651370 26.143209 5.003245 -21.512628 1.108275 0.538968 51.033001 5.949729 13.012318 8.552232 0.000000 0.000000 0.000000 -17.623915 0.644647 -36.265531 2.359291 1.751771 32.070203 2.724740 -7.058152 26.521662 0.000000 0.000000 0.000000 -7.319367 3.448380 43.657786 2.086269 0.179917 -31.617912 -1.280100 12.442847 25.816914 14.492232 -6.136440 -25.882032 0.000000 0.000000 0.000000 -11.657704 -11.256150 3.708075 8.016468 -3.885936 0.616699 23.977386 -11.204006 -2.498168 0.000000 0.000000 0.000000 31.867599 9.710192 7.578872 -1.075438 23.004618 -2.008926 -28.068625 17.027410 -3.400410 0.000000 0.000000 0.000000 
-1.430469 0.829138 1.230156 -5.955922 -12.623053 -1.872970 24.319076 4.990777 -24.918744 2.681827 -0.546343 56.361905 4.754240 9.840822 0.421302 0.000000 0.000000 0.000000 -18.686188 0.236663 -36.015251 6.574599 0.357473 37.633853 0.703239 -8.269233 21.529244 0.000000 0.000000 0.000000 -5.142115 2.710918 46.985924 0.211575 0.561374 -32.880966 -1.096359 10.151063 25.064344 14.489060 -5.747428 -28.885426 0.000000 0.000000 0.000000 -16.211018 -18.419474 7.483367 5.249377 -6.105841 0.107986 27.922553 -16.994768 -4.217376 0.000000 0.000000 0.000000 38.227446 9.722410 7.370866 5.636858 24.635197 -1.691718 -26.290467 21.685581 -4.019033 0.000000 0.000000 0.000000 
-1.496342 0.817715 1.232485 -6.243504 -10.659663 -2.236406 23.112607 4.819543 -28.003645 0.404738 0.481122 59.697074 3.621503 4.105551 -11.108689 0.000000 0.000000 0.000000 -19.493015 -0.329754 -36.704940 9.682624 -1.218247 44.050998 -3.267834 -13.448554 18.690946 0.000000 0.000000 0.000000 -2.047707 1.042063 49.767695 -1.140166 0.786264 -32.700700 -2.625599 7.493188 23.818206 14.900838 -6.405368 -28.121945 0.000000 0.000000 0.000000 -19.405143 -23.038118 10.501341 3.440401 -13.030719 -0.707474 31.395446 -20.928529 -5.743430 0.000000 0.000000 0.000000 43.311245 11.340533 8.094170 13.775110 22.773614 -1.028175 -26.514060 25.473910 -4.736597 0.000000 0.000000 0.000000 
-1.558104 0.815008 1.234511 -6.010778 -9.205830 -2.180910 23.442361 4.784225 -28.779999 0.449655 -0.113333 56.523477 5.674708 10.592710 -6.162108 0.000000 0.000000 0.000000 -19.548665 -0.584823 -36.085484 11.101958 -2.224455 46.191259 -5.637588 -16.800001 16.784284 0.000000 0.000000 0.000000 -0.955954 0.259881 51.494376 -0.253919 0.609720 -31.521383 -3.603321 5.844557 23.591716 13.621768 -5.533785 -29.343552 0.000000 0.000000 0.000000 -22.443493 -29.763508 15.035045 -0.658286 -17.628590 -1.109362 34.307060 -25.465302 -7.528365 0.000000 0.000000 0.000000 45.513032 11.899804 8.132410 21.612254 21.050754 -0.637365 -24.783222 29.855524 -5.069761 0.000000 0.000000 0.000000 
-1.618862 0.816106 1.237690 -6.050642 -8.278749 -1.900482 25.523315 5.122607 -28.148082 1.153359 -0.917760 52.760474 4.978594 10.039726 -1.150621 0.000000 0.000000 0.000000 -18.025772 -0.338347 -35.630946 11.908031 -2.859758 47.386267 -6.929407 -18.643430 14.464413 0.000000 0.000000 0.000000 0.311912 -0.565627 52.296508 -0.551228 0.665391 -30.648368 -5.706289 3.178945 23.729123 12.113791 -4.760674 -30.619002 0.000000 0.000000 0.000000 -23.018386 -32.196823 17.255772 -4.528702 -25.387037 -1.347900 36.045203 -28.328253 -8.655175 0.000000 0.000000 0.000000 46.080169 13.243779 7.995285 29.062285 17.638175 -0.611868 -18.689233 34.626385 -4.124677 0.000000 0.000000 0.000000 
-1.679382 0.822262 1.241664 -5.810136 -8.926579 -0.365533 27.747893 5.335252 -25.476615 1.586428 -0.973934 44.337376 5.946385 12.645681 3.589184 0.000000 0.000000 0.000000 -16.813493 0.137175 -36.000114 13.592351 -3.622803 47.455448 -5.631231 -15.922784 9.730640 0.000000 0.000000 0.000000 0.890799 -0.660166 51.958248 -2.258570 0.946805 -29.057881 -6.378995 0.906233 22.241178 11.876448 -5.023063 -29.779993 0.000000 0.000000 0.000000 -26.259284 -35.470340 21.187165 -6.860868 -28.951043 -1.229402 32.524268 -28.601611 -7.558772 0.000000 0.000000 0.000000 45.795979 13.353078 6.435129 36.769140 14.373169 -0.673718 -10.991916 39.006334 -2.128728 0.000000 0.000000 0.000000 
-1.735586 0.831696 1.246186 -5.190685 -7.227381 1.423885 29.530596 4.942948 -23.237977 2.142763 -1.378782 35.956845 5.453462 12.525231 9.578768 0.000000 0.000000 0.000000 -15.853736 0.180077 -35.845433 14.283015 -4.314558 46.157657 -3.666568 -11.172472 6.018785 0.000000 0.000000 0.000000 2.292949 -1.715374 50.207193 -3.819147 1.313117 -27.834386 -7.641417 -2.210129 22.450425 10.059276 -3.780737 -33.379666 0.000000 0.000000 0.000000 -28.543145 -34.134822 22.201315 -9.822537 -32.719376 -0.977394 28.398889 -29.242093 -6.463515 0.000000 0.000000 0.000000 44.691646 13.694877 5.052791 41.929844 11.002263 -1.176961 -5.085152 40.605613 -0.245158 0.000000 0.000000 0.000000 
-1.783304 0.847227 1.250872 -5.092826 -5.976521 3.939230 31.497404 4.767530 -21.907301 2.581880 -1.483960 29.508461 5.052670 12.909430 18.037038 0.000000 0.000000 0.000000 -14.638085 0.386205 -35.938262 14.581693 -4.576656 43.462313 -0.808039 -4.426745 4.874745 0.000000 0.000000 0.000000 3.343725 -2.423784 47.652974 -5.535341 1.689424 -27.481065 -7.573099 -3.666309 22.454850 7.416190 -2.806907 -31.829909 0.000000 0.000000 0.000000 -32.088645 -32.423691 22.997823 -13.393361 -32.007797 -0.644908 20.445449 -30.319606 -4.466065 0.000000 0.000000 0.000000 42.302549 12.503272 3.331495 44.297587 11.185224 -0.953353 2.794590 41.501835 2.514672 0.000000 0.000000 0.000000 
-1.820728 0.868317 1.256629 -4.021359 -4.207501 5.071445 29.040222 4.015498 -22.986668 1.736831 -1.214709 27.399278 6.741171 15.612275 20.467212 0.000000 0.000000 0.000000 -12.060777 0.799571 -34.166894 11.812433 -3.367490 40.847437 -0.185064 -2.450179 3.810435 0.000000 0.000000 0.000000 4.193383 -3.046047 45.242400 -6.498757 1.939536 -26.761675 -7.103441 -3.518275 22.298972 4.845750 -1.152757 -33.739200 0.000000 0.000000 0.000000 -34.997149 -30.504392 22.442344 -18.472481 -29.548128 -0.185328 14.077604 -30.226627 -2.684503 0.000000 0.000000 0.000000 40.174378 11.326057 2.871668 44.105771 11.489523 -1.013199 5.161309 44.932757 3.737687 0.000000 0.000000 0.000000 
-1.849093 0.889027 1.264616 -2.511089 -1.827694 5.312849 23.898521 2.918028 -26.037057 -2.312870 0.081075 30.030636 8.853149 18.605647 15.119447 0.000000 0.000000 0.000000 -10.502579 0.815758 -30.729054 8.940230 -2.271002 37.339017 -0.951333 -3.567027 2.414522 0.000000 0.000000 0.000000 4.534683 -3.448152 42.747786 -5.527677 1.731411 -28.835776 -7.808906 -1.664777 24.667471 6.676134 -1.802989 -32.888607 0.000000 0.000000 0.000000 -37.376326 -28.219529 20.284257 -24.095123 -25.451366 -0.126765 6.551239 -28.788028 -0.606506 0.000000 0.000000 0.000000 38.881760 9.340858 2.992615 42.518852 13.546053 -1.074572 7.492343 44.895913 4.948045 0.000000 0.000000 0.000000 
-1.870403 0.909531 1.275118 -1.857845 1.111625 5.290961 18.455422 1.551056 -29.253396 -4.874338 0.782096 32.861134 9.070500 19.178081 12.687572 0.000000 0.000000 0.000000 -9.584074 0.659885 -26.325543 6.720814 -1.602241 33.157091 -1.881302 -5.806447 2.776816 0.000000 0.000000 0.000000 5.362824 -3.953268 39.455263 -6.338524 1.946566 -28.168735 -6.809533 -0.639151 24.296831 5.629901 -1.073591 -31.150757 0.000000 0.000000 0.000000 -38.706998 -25.257573 17.089693 -29.152438 -19.484540 -0.692580 1.093625 -26.297886 0.745830 0.000000 0.000000 0.000000 37.018099 7.429522 2.833317 41.182691 14.454977 -1.172118 9.136861 44.558806 5.724378 0.000000 0.000000 0.000000 
-1.886549 0.926617 1.288692 -1.038906 3.757346 5.115234 13.808186 0.177126 -31.053632 -8.690693 2.011757 33.833975 9.311455 19.755516 11.541331 0.000000 0.000000 0.000000 -9.229322 0.486149 -21.002720 4.891156 -1.059585 28.525723 -3.000722 -8.550065 3.762591 0.000000 0.000000 0.000000 5.051679 -3.961118 37.330258 -5.969218 1.853919 -29.617150 -6.263415 1.957795 25.845996 6.123442 -0.651985 -31.834479 0.000000 0.000000 0.000000 -39.059587 -22.365755 12.755240 -31.481712 -12.886204 -1.716069 -4.185748 -25.943261 1.926081 0.000000 0.000000 0.000000 35.146181 5.273906 3.245948 39.577646 16.687726 -1.231021 10.049237 44.082131 6.352559 0.000000 0.000000 0.000000 
-1.898645 0.939301 1.304051 -0.526436 7.380354 4.273355 10.836449 -0.934738 -31.202734 -11.803072 2.551189 29.457196 9.422647 20.272083 12.429171 0.000000 0.000000 0.000000 -8.914221 0.308649 -15.551068 3.970098 -0.951208 24.495781 -3.887286 -10.712024 6.079105 0.000000 0.000000 0.000000 5.372998 -4.174427 34.767845 -7.424120 2.154443 -29.435132 -4.328887 4.249669 26.198061 5.545145 0.239655 -30.876801 0.000000 0.000000 0.000000 -37.349004 -20.259228 8.487910 -34.623141 -6.774761 -2.765327 -7.004235 -25.116461 2.421454 0.000000 0.000000 0.000000 33.970061 2.637038 3.308381 38.923780 18.455932 -1.326041 7.963068 42.806756 5.724229 0.000000 0.000000 0.000000 
-1.907113 0.944731 1.321069 -0.162385 10.612559 3.073625 9.291175 -1.538592 -30.124310 -12.826704 2.251879 22.888753 10.082195 21.653709 16.119450 0.000000 0.000000 0.000000 -8.928906 0.139745 -9.270000 3.584394 -0.848532 19.052982 -4.105574 -11.266600 9.407800 0.000000 0.000000 0.000000 4.397562 -4.013215 33.626484 -7.516777 2.186491 -29.639448 -3.490342 6.608375 26.640322 7.769659 -0.407285 -29.786866 0.000000 0.000000 0.000000 -35.040941 -18.514233 4.788436 -35.296774 -2.577550 -3.383603 -8.257549 -24.164650 2.467627 0.000000 0.000000 0.000000 33.618588 1.511031 4.461005 39.433358 20.579189 -1.281316 5.214350 40.903397 4.794957 0.000000 0.000000 0.000000 
-1.910688 0.946173 1.338908 -0.072331 14.012158 2.358717 7.393546 -2.101698 -28.700270 -10.214788 1.196718 16.052995 10.181836 22.259902 19.145547 0.000000 0.000000 0.000000 -8.337393 0.003736 -4.135352 3.727470 -0.895742 15.081191 -4.565260 -11.969566 11.177759 0.000000 0.000000 0.000000 3.484426 -3.768107 31.840228 -7.975524 2.310627 -29.294716 -1.839318 9.739834 26.536949 9.418634 -0.373636 -30.463115 0.000000 0.000000 0.000000 -32.700215 -17.769071 1.719651 -36.647314 1.475407 -4.026708 -7.455491 -22.886170 2.006817 0.000000 0.000000 0.000000 34.346228 0.394601 6.000328 38.309115 22.253835 -1.520503 0.882673 38.025734 3.128028 0.000000 0.000000 0.000000 
-1.908238 0.944356 1.358567 -0.571790 18.295579 1.681675 5.486622 -2.544376 -26.886349 -7.658813 0.554991 10.640918 11.121227 23.932415 22.713982 0.000000 0.000000 0.000000 -7.475888 -0.252545 1.112409 3.713208 -0.884903 11.496826 -4.178291 -10.806660 11.965361 0.000000 0.000000 0.000000 3.232999 -3.793126 30.188498 -8.329725 2.347182 -29.653907 -0.840599 11.591589 27.445792 10.972382 -0.233525 -32.267519 0.000000 0.000000 0.000000 -30.482298 -16.426749 -1.050789 -36.542951 2.329804 -3.871481 -6.235520 -22.150205 1.534044 0.000000 0.000000 0.000000 35.131340 -1.044805 7.103290 37.917020 24.100741 -1.714078 0.349982 34.286974 2.668798 0.000000 0.000000 0.000000 
-1.898511 0.940810 1.380670 -1.102926 20.699746 1.210498 5.706475 -2.360063 -24.818194 -7.428805 0.471298 6.774349 13.472280 26.513746 28.502471 0.000000 0.000000 0.000000 -6.158286 -0.493334 4.394350 3.698364 -0.882416 10.007187 -5.816350 -13.917033 11.938344 0.000000 0.000000 0.000000 3.584391 -3.656385 27.928838 -9.460216 2.525622 -29.554585 0.284645 13.445745 28.307468 10.851160 0.492124 -32.844489 0.000000 0.000000 0.000000 -28.964901 -14.961339 -3.293656 -36.854257 3.624393 -4.033819 -5.981106 -22.900897 1.347234 0.000000 0.000000 0.000000 34.896042 -1.584599 8.141979 38.125986 25.416383 -1.693915 -0.172931 32.748514 2.402703 0.000000 0.000000 0.000000 
-1.881689 0.937369 1.405982 -1.613215 24.241629 0.587065 4.883161 -2.297270 -22.446102 -7.791880 0.392219 4.973986 14.909359 27.936244 29.658438 0.000000 0.000000 0.000000 -5.305812 -0.908521 7.869231 3.537059 -0.931707 9.685174 -6.304336 -14.617233 12.578179 0.000000 0.000000 0.000000 2.768619 -3.200157 25.503290 -9.004952 2.601337 -28.251313 1.043858 15.485170 27.893462 11.381469 1.007756 -33.331614 0.000000 0.000000 0.000000 -27.503974 -14.322302 -5.310099 -37.135732 4.369911 -3.873837 -5.521558 -22.909209 1.029760 0.000000 0.000000 0.000000 35.961409 -2.043292 10.030909 37.584257 26.379291 -2.047350 -1.538562 31.542580 1.907699 0.000000 0.000000 0.000000 
-1.857245 0.935641 1.434294 -1.878580 27.750483 -0.377841 3.879456 -2.267453 -20.743767 -8.711440 0.344622 6.693002 15.004391 28.162111 27.484373 0.000000 0.000000 0.000000 -4.943200 -1.431538 11.149663 3.592604 -1.136649 10.828111 -6.948139 -15.357028 14.946740 0.000000 0.000000 0.000000 2.256421 -2.593352 22.060517 -9.414131 2.863306 -26.489025 1.625304 16.360990 27.481729 13.252856 0.453223 -32.851737 0.000000 0.000000 0.000000 -26.174988 -14.762367 -6.108197 -37.282843 6.083825 -4.112965 -6.208295 -22.023403 0.978835 0.000000 0.000000 0.000000 37.045445 -3.266973 10.932308 37.667311 26.952057 -2.407859 0.153834 31.211099 2.327659 0.000000 0.000000 0.000000 
-1.826159 0.936863 1.463445 -2.563749 31.928835 -1.536042 2.564691 -2.184419 -18.870036 -8.745099 0.170507 9.133041 13.352906 26.632465 22.788092 0.000000 0.000000 0.000000 -5.263590 -1.576943 11.167769 4.756209 -2.576788 17.866278 -6.582598 -13.717088 19.065213 0.000000 0.000000 0.000000 1.289303 -2.172113 19.986299 -8.695807 2.742730 -26.550785 2.188201 16.410749 28.437834 12.610767 1.345802 -33.106189 0.000000 0.000000 0.000000 -25.976752 -13.842257 -8.010362 -36.968922 6.670998 -3.967022 -6.970516 -21.854362 0.977729 0.000000 0.000000 0.000000 36.981143 -3.631666 12.190595 39.433696 27.178540 -2.643239 1.027217 30.087682 2.468475 0.000000 0.000000 0.000000 
-1.791042 0.938143 1.490556 -2.875903 36.594706 -2.216327 0.761391 -1.934071 -16.273312 -8.520781 -0.057872 10.254148 11.159711 23.915510 17.913674 0.000000 0.000000 0.000000 -6.109350 -1.271234 7.640100 3.937465 -5.499203 30.208437 -3.742874 -8.337986 24.101009 0.000000 0.000000 0.000000 0.573609 -2.055092 19.279956 -8.542246 2.665210 -26.925152 2.664282 14.950180 28.793837 12.084725 1.854728 -32.983824 0.000000 0.000000 0.000000 -25.630475 -13.572729 -8.840731 -37.354010 6.780960 -3.928237 -8.770286 -20.121905 1.165837 0.000000 0.000000 0.000000 37.684830 -4.240453 12.845963 40.110690 26.507137 -3.181993 2.348843 30.956635 2.939048 0.000000 0.000000 0.000000 
-1.755863 0.940389 1.514537 -3.456925 41.980071 -3.072250 -0.674627 -1.515305 -13.322414 -8.057139 -0.316191 10.740195 8.480110 19.979756 13.870504 0.000000 0.000000 0.000000 -5.793138 -0.814860 1.678482 -0.408318 -9.205408 44.479255 0.624501 -2.072747 26.068822 0.000000 0.000000 0.000000 0.903724 -2.295651 19.354925 -8.706679 2.673736 -26.707219 2.391370 12.295298 27.844606 9.675040 3.147721 -32.284410 0.000000 0.000000 0.000000 -26.822874 -13.091007 -10.063650 -36.227385 6.620643 -3.449502 -10.912621 -18.602338 1.453026 0.000000 0.000000 0.000000 37.871843 -4.578407 13.068896 41.948427 25.437071 -3.494529 3.080995 31.162299 3.244023 0.000000 0.000000 0.000000 
-1.721255 0.943286 1.535560 -4.625883 48.063061 -4.848470 -2.155165 -0.858493 -9.110223 -6.069477 -0.543487 9.894684 5.342763 14.674410 10.366544 0.000000 0.000000 0.000000 -4.804395 -0.589653 -3.051457 -6.327339 -11.335336 53.753963 2.490675 1.300342 22.085022 0.000000 0.000000 0.000000 2.023877 -2.816589 19.857210 -8.776662 2.781612 -25.775174 1.575876 9.440139 27.240337 8.239170 4.124999 -33.185965 0.000000 0.000000 0.000000 -27.747059 -12.773273 -11.312078 -35.671832 6.427016 -3.016358 -10.399693 -17.548286 1.303600 0.000000 0.000000 0.000000 36.809387 -4.867705 12.945382 43.846096 24.757992 -3.414892 3.464251 30.777382 3.359555 0.000000 0.000000 0.000000 
-1.686424 0.947772 1.554467 -6.335206 54.146645 -6.490563 -2.917342 -0.307063 -5.087569 -4.040524 -0.587007 7.964246 1.971955 9.169772 8.545912 0.000000 0.000000 0.000000 -3.055213 -0.417533 -8.365971 -11.766673 -11.910000 57.907803 3.237262 4.005501 15.965740 0.000000 0.000000 0.000000 3.019808 -3.109808 19.410954 -8.626766 2.571878 -26.386087 1.724291 6.705034 28.723758 7.284969 4.965414 -33.143807 0.000000 0.000000 0.000000 -29.105374 -14.156728 -12.425403 -35.179108 6.071713 -2.404128 -10.415414 -17.300164 1.277735 0.000000 0.000000 0.000000 36.347776 -5.753177 13.122785 44.836822 24.588750 -3.684627 3.440948 30.418619 3.385429 0.000000 0.000000 0.000000 
-1.650955 0.951756 1.572134 -8.831453 60.619949 -8.709204 -3.396219 0.003607 -1.629253 -2.077807 -0.611125 6.755699 -0.385336 4.742903 7.091644 0.000000 0.000000 0.000000 -0.798547 -0.435843 -13.337965 -14.112665 -12.171368 56.486584 2.295490 3.250393 14.878035 0.000000 0.000000 0.000000 4.870836 -3.423764 18.416856 -9.201012 2.692724 -25.132933 1.427404 3.153723 27.957883 6.500316 5.429098 -32.522071 0.000000 0.000000 0.000000 -29.277013 -14.249520 -13.081519 -36.484259 5.355348 -2.171204 -10.215873 -17.545917 1.205191 0.000000 0.000000 0.000000 34.868636 -7.032653 11.774872 45.948886 22.177127 -4.083793 5.420404 29.601789 3.835000 0.000000 0.000000 0.000000 
-1.614471 0.954430 1.589333 -11.283117 65.687947 -10.863388 -3.279285 0.050160 2.089896 -1.106903 -0.481255 4.463543 -2.276814 2.049434 7.122846 0.000000 0.000000 0.000000 1.352180 -0.781114 -18.143520 -13.118856 -10.966031 49.640708 0.635324 1.548505 13.549811 0.000000 0.000000 0.000000 5.953925 -3.670651 17.827870 -8.889687 2.516236 -25.262264 0.869340 0.065208 28.404527 5.249130 6.248535 -33.369999 0.000000 0.000000 0.000000 -29.653983 -14.702609 -13.758691 -36.560785 4.736453 -1.762201 -10.589246 -19.373535 1.308015 0.000000 0.000000 0.000000 33.623602 -7.876818 11.022691 46.460719 20.858469 -4.345271 5.453369 28.096310 3.583402 0.000000 0.000000 0.000000 
-1.576333 0.954722 1.606639 -14.017362 70.011976 -13.314127 -2.355121 -0.287882 5.453631 -1.563957 -0.451976 2.920164 -3.430479 0.378386 7.132731 0.000000 0.000000 0.000000 2.708678 -1.249497 -20.916525 -7.568900 -8.879852 37.555037 -2.258390 -2.670145 10.769841 0.000000 0.000000 0.000000 6.897505 -3.784018 17.054035 -8.840100 2.561374 -24.350984 0.686055 -1.858480 28.107369 4.369873 6.862555 -34.445944 0.000000 0.000000 0.000000 -29.838349 -15.606652 -14.221488 -36.314606 3.667949 -1.091832 -11.022878 -21.042362 1.404472 0.000000 0.000000 0.000000 34.071843 -9.420806 10.504901 45.501059 19.017801 -5.337532 6.032544 27.898623 3.745732 0.000000 0.000000 0.000000 
-1.535992 0.951750 1.624314 -16.381452 73.290173 -15.290070 -1.459002 -0.917896 8.593838 -2.441203 -0.502147 1.814638 -3.459805 -0.222293 6.695495 0.000000 0.000000 0.000000 3.035713 -1.635138 -21.711353 -1.296698 -5.591606 23.015440 -3.225665 -3.977612 10.202653 0.000000 0.000000 0.000000 7.605370 -3.942579 16.602195 -8.511439 2.439081 -24.387596 -0.144675 -3.188230 28.103006 4.560662 6.943424 -34.588574 0.000000 0.000000 0.000000 -28.896769 -15.885830 -14.214179 -36.363692 2.800985 -0.830203 -13.268990 -22.253425 1.767954 0.000000 0.000000 0.000000 33.011157 -9.940039 9.922928 46.223045 17.558917 -5.424436 5.628391 26.825698 3.417488 0.000000 0.000000 0.000000 
-1.493218 0.947550 1.642449 -16.328169 74.354424 -15.372665 -1.304014 -1.601836 11.868023 -3.112201 -0.522581 1.233897 -2.944173 1.241412 7.583814 0.000000 0.000000 0.000000 4.377951 -1.153285 -21.064355 1.915083 -2.457194 9.471388 -3.495027 -2.818380 14.244628 0.000000 0.000000 0.000000 8.195260 -4.004242 16.241481 -9.212352 2.515517 -23.754441 0.548424 -3.512166 27.086751 4.889391 6.822832 -33.792639 0.000000 0.000000 0.000000 -28.882719 -16.802343 -13.724525 -37.018265 1.989123 -0.557216 -12.181783 -23.143306 1.576118 0.000000 0.000000 0.000000 32.704293 -10.283997 9.502482 45.806162 16.865066 -5.593419 5.850991 26.065893 3.317171 0.000000 0.000000 0.000000 
-1.448565 0.941483 1.660208 -14.228357 75.673082 -13.581621 -1.991788 -1.757658 12.941634 -2.917226 -0.592215 4.305055 -3.274556 2.543497 9.603370 0.000000 0.000000 0.000000 4.698157 -1.143417 -20.969123 2.834790 -1.940995 5.267195 -3.432987 -1.676869 17.379163 0.000000 0.000000 0.000000 8.821220 -4.315204 16.463724 -10.749128 2.329116 -24.305381 0.783188 -5.238213 27.115151 4.529513 6.830699 -33.464579 0.000000 0.000000 0.000000 -28.601350 -15.463183 -13.526131 -37.259518 0.924133 -0.695228 -12.087421 -23.453828 1.635354 0.000000 0.000000 0.000000 32.304393 -9.875088 9.216823 45.472571 17.213712 -5.369753 4.054040 24.681672 2.650512 0.000000 0.000000 0.000000 
-1.401930 0.937002 1.677765 -10.907049 76.123822 -9.886545 -1.413334 -1.903677 12.995261 -5.247758 -0.928104 7.409477 -4.216363 5.249370 14.657729 0.000000 0.000000 0.000000 5.521340 -0.967869 -21.047043 2.451356 -2.425673 8.167190 -3.936843 -2.937295 15.461707 0.000000 0.000000 0.000000 9.300772 -4.248758 15.821758 -9.955629 2.430257 -23.753076 -0.731607 -5.495874 26.423957 4.406746 6.821465 -34.496717 0.000000 0.000000 0.000000 -29.144599 -15.590317 -13.744923 -37.895263 1.012356 -0.596847 -10.039793 -22.321886 1.192158 0.000000 0.000000 0.000000 34.681211 -10.990394 9.407519 41.594264 19.713639 -5.465845 2.687612 22.815320 2.074349 0.000000 0.000000 0.000000 
-1.354109 0.937583 1.696043 -10.836409 75.337428 -9.143328 1.147583 -1.706970 9.723431 -9.903793 -2.109432 16.005967 -4.583735 8.984253 21.988481 0.000000 0.000000 0.000000 6.474309 -0.870411 -22.032765 2.042588 -3.622232 13.371097 -3.389432 -2.689405 13.750674 0.000000 0.000000 0.000000 10.163520 -3.944159 14.351393 -10.299890 2.433931 -23.808617 -0.719860 -7.245069 26.647840 3.581249 6.840112 -34.680546 0.000000 0.000000 0.000000 -29.527114 -13.652836 -13.935039 -37.987110 0.578547 -0.799101 -9.972607 -21.818293 1.223354 0.000000 0.000000 0.000000 34.834628 -10.204487 9.305606 39.210320 20.173223 -5.421953 3.200385 22.765320 2.098669 0.000000 0.000000 0.000000 
-1.306145 0.940519 1.715378 -9.263582 72.828670 -6.816527 4.449733 -1.244864 2.373572 -20.069879 -4.265070 29.078916 -0.171904 15.312719 32.194804 0.000000 0.000000 0.000000 8.125108 -0.181091 -21.504886 1.039792 -3.537083 14.908545 -4.623696 -4.048598 16.001105 0.000000 0.000000 0.000000 11.212593 -3.705568 12.840375 -8.438707 2.547545 -23.854895 -3.415647 -5.400550 26.833519 4.243741 6.526326 -34.732318 0.000000 0.000000 0.000000 -28.822641 -14.090450 -13.268662 -38.143084 1.817353 -1.206091 -9.778507 -21.987010 1.148588 0.000000 0.000000 0.000000 34.226998 -8.955925 9.934117 39.301357 20.467474 -4.916032 2.817289 22.692875 1.968969 0.000000 0.000000 0.000000 
-1.258140 0.941977 1.736119 -7.607779 70.976752 -5.995154 8.061670 -1.573163 -4.709878 -32.648403 -4.743674 40.464301 6.969723 20.448172 42.441729 0.000000 0.000000 0.000000 9.140972 0.737372 -17.798727 0.187950 -3.467066 15.856742 -5.263631 -6.494993 12.839236 0.000000 0.000000 0.000000 11.189647 -3.831236 13.433897 -13.359173 2.363379 -24.226054 1.410946 -6.913239 25.898796 3.667573 6.343862 -34.603649 0.000000 0.000000 0.000000 -29.033886 -13.689790 -11.665636 -38.704045 2.688266 -2.114478 -8.984951 -21.842956 1.168239 0.000000 0.000000 0.000000 32.373270 -8.373032 8.176173 39.997098 18.988371 -4.677185 4.885979 24.340590 2.652354 0.000000 0.000000 0.000000 
-1.209815 0.942730 1.757829 -6.557588 68.737111 -6.745051 10.736910 -2.133892 -10.018301 -39.086326 -3.631423 45.249396 14.426322 24.899257 46.897766 0.000000 0.000000 0.000000 9.814918 1.297425 -13.232006 -0.925976 -3.811384 18.384425 -3.442296 -5.428773 8.183393 0.000000 0.000000 0.000000 10.813831 -4.123795 14.936873 -11.059184 2.628693 -24.267388 -1.306316 -5.290157 26.380150 7.141519 4.748021 -33.887609 0.000000 0.000000 0.000000 -28.408028 -14.227823 -10.770800 -38.260958 2.986965 -2.261680 -9.527039 -22.036471 1.294181 0.000000 0.000000 0.000000 33.718941 -8.181389 8.679253 40.321666 20.925822 -4.209394 3.434286 24.840883 2.439694 0.000000 0.000000 0.000000 
-1.161795 0.943320 1.778997 -5.469218 65.893015 -7.181876 13.091831 -2.710531 -14.296737 -39.999612 -2.633647 44.649945 26.116992 33.910508 38.589704 0.000000 0.000000 0.000000 9.437093 1.281499 -7.815672 -0.816079 -3.880614 18.930217 -0.982733 -2.292144 4.318357 0.000000 0.000000 0.000000 10.234547 -4.202817 16.099719 -11.692701 2.647153 -25.143343 -0.305770 -4.327676 26.776546 7.140865 4.623728 -34.381901 0.000000 0.000000 0.000000 -29.368671 -15.376447 -9.846645 -37.630829 3.585203 -2.367326 -8.199744 -20.467686 1.120702 0.000000 0.000000 0.000000 35.522390 -8.358647 8.784314 39.287165 21.906659 -4.434624 2.316119 25.161638 2.263785 0.000000 0.000000 0.000000 
-1.114805 0.944520 1.798670 -3.937249 62.124727 -6.381677 14.181993 -2.956409 -16.692254 -32.638266 -2.702162 39.680082 25.251119 35.691978 23.822565 0.000000 0.000000 0.000000 8.842585 0.851244 -3.306970 -2.125011 -2.924507 18.652910 1.739239 3.123139 2.882808 0.000000 0.000000 0.000000 8.896390 -3.762021 16.307453 -10.870661 2.571461 -26.259218 -0.320351 -2.699064 28.202845 9.737935 3.304594 -34.333042 0.000000 0.000000 0.000000 -29.214761 -15.337512 -9.747492 -37.313486 4.264296 -2.574625 -8.460014 -20.986619 1.183006 0.000000 0.000000 0.000000 36.109244 -9.269712 8.328372 40.862811 23.515067 -4.150055 0.491794 26.796660 2.341809 0.000000 0.000000 0.000000 
-1.069080 0.947158 1.816679 -1.518055 57.575888 -4.768888 13.962426 -2.793947 -17.667638 -22.153967 -2.316487 30.586051 18.426706 30.132926 19.383488 0.000000 0.000000 0.000000 7.064113 0.169099 0.709430 -3.369317 -1.850697 18.129156 3.856392 8.002600 3.310082 0.000000 0.000000 0.000000 7.520775 -3.514349 17.164528 -10.363125 2.383169 -27.952191 -0.535972 -1.293706 29.390083 11.121427 2.232085 -33.708281 0.000000 0.000000 0.000000 -29.918547 -14.233242 -9.911113 -36.480923 5.361743 -2.953090 -9.192204 -22.105937 1.454633 0.000000 0.000000 0.000000 36.209787 -8.457254 8.387039 42.626076 23.513778 -3.881287 -1.182088 29.668152 2.467152 0.000000 0.000000 0.000000 
-1.024082 0.945867 1.833647 -0.144401 51.634718 -3.694602 13.483560 -2.391245 -17.014942 -11.632525 -1.131453 18.140372 10.478975 22.786956 17.475186 0.000000 0.000000 0.000000 4.862997 -0.631700 4.600763 -4.456496 -0.791462 17.377224 5.771331 12.652684 1.424033 0.000000 0.000000 0.000000 6.378503 -2.977005 16.815459 -10.188717 2.471435 -28.000721 -0.112104 1.019572 29.623068 11.271652 1.952334 -34.529057 0.000000 0.000000 0.000000 -29.200865 -13.666625 -9.042363 -36.452391 5.566528 -3.359608 -8.680911 -22.281293 1.423980 0.000000 0.000000 0.000000 35.670419 -9.691287 6.461252 45.324458 23.585856 -3.279180 -1.450065 33.682217 3.383130 0.000000 0.000000 0.000000 
-0.978385 0.942468 1.850052 0.975888 47.882596 -1.849720 11.969865 -2.111497 -16.604257 -4.088811 -0.278349 5.633127 2.162779 15.168461 18.962058 0.000000 0.000000 0.000000 3.281514 -1.063009 6.663277 -5.904793 0.030230 16.787462 5.641714 12.897026 0.753804 0.000000 0.000000 0.000000 4.871105 -2.259955 15.455673 -8.680856 2.655944 -26.407786 -0.915275 1.543241 28.189122 11.967579 0.797715 -31.306109 0.000000 0.000000 0.000000 -28.816537 -13.078166 -8.468447 -38.429097 6.124521 -3.956346 -5.824825 -23.450740 0.895201 0.000000 0.000000 0.000000 34.573842 -8.632412 6.188265 47.269990 21.439692 -3.253879 -1.263662 35.865363 3.802896 0.000000 0.000000 0.000000 
-0.930190 0.936448 1.865855 -0.051647 42.983110 -2.672216 13.901634 -1.802065 -14.164932 -0.620542 -0.040186 -0.738653 -4.366164 8.865253 22.373879 0.000000 0.000000 0.000000 1.852442 -1.353649 8.206500 -6.910124 0.550555 17.807550 6.684328 15.378990 2.767604 0.000000 0.000000 0.000000 4.446524 -1.706192 13.542850 -8.287828 2.818180 -25.295465 0.257284 2.607657 29.040009 12.761768 0.292913 -33.497877 0.000000 0.000000 0.000000 -26.586426 -12.484654 -6.923500 -41.694006 4.321098 -4.530043 -5.627067 -22.016083 0.828617 0.000000 0.000000 0.000000 35.317981 -9.024058 5.354733 46.950097 22.482047 -3.027455 -1.991723 36.682853 3.832800 0.000000 0.000000 0.000000 
-0.878681 0.930560 1.880319 1.013251 40.190901 -1.066663 12.152042 -1.701433 -15.194892 -1.284358 -0.139096 3.098673 -4.585986 7.701325 21.128072 0.000000 0.000000 0.000000 -2.675689 -1.369258 8.491624 -6.365375 0.258242 20.589445 8.366492 18.780651 3.440392 0.000000 0.000000 0.000000 4.189550 -1.538282 13.006533 -8.761343 3.103077 -23.686642 -0.396387 4.317297 25.953863 13.235293 -0.801275 -28.954280 0.000000 0.000000 0.000000 -26.248348 -12.453281 -6.729089 -42.165484 3.634491 -4.176022 -2.916536 -21.055330 0.277665 0.000000 0.000000 0.000000 37.471366 -8.502142 6.110877 45.754291 21.016503 -3.881957 -2.378948 35.627870 3.411920 0.000000 0.000000 0.000000 
