HIERARCHY
ROOT Hips
{
	OFFSET -0.001795 -0.223333 0.028219
	CHANNELS 6 Xposition Yposition Zposition Zrotation Yrotation Xrotation 
	JOINT LeftUpLeg
	{
		OFFSET 0.069520 -0.091406 -0.006815
		CHANNELS 3 Zrotation Yrotation Xrotation
		JOINT LeftLeg
		{
			OFFSET 0.034277 -0.375199 -0.004496
			CHANNELS 3 Zrotation Yrotation Xrotation
			JOINT LeftFoot
			{
				OFFSET -0.013596 -0.397961 -0.043693
				CHANNELS 3 Zrotation Yrotation Xrotation
				JOINT LeftToe
				{
					OFFSET 0.026358 -0.055791 0.119288
					CHANNELS 3 Zrotation Yrotation Xrotation
					End Site
					{
						OFFSET 0.000000 0.000000 0.000000
					}
				}
			}
		}
	}
	JOINT RightUpLeg
	{
		OFFSET -0.067670 -0.090522 -0.004320
		CHANNELS 3 Zrotation Yrotation Xrotation
		JOINT RightLeg
		{
			OFFSET -0.038290 -0.382569 -0.008850
			CHANNELS 3 Zrotation Yrotation Xrotation
			JOINT RightFoot
			{
				OFFSET 0.015774 -0.398415 -0.042312
				CHANNELS 3 Zrotation Yrotation Xrotation
				JOINT RightToe
				{
					OFFSET -0.025372 -0.048144 0.123348
					CHANNELS 3 Zrotation Yrotation Xrotation
					End Site
					{
						OFFSET 0.000000 0.000000 0.000000
					}
				}
			}
		}
	}
	JOINT Spine
	{
		OFFSET -0.002533 0.108963 -0.026696
		CHANNELS 3 Zrotation Yrotation Xrotation
		JOINT Spine1
		{
			OFFSET 0.005487 0.135180 0.001092
			CHANNELS 3 Zrotation Yrotation Xrotation
			JOINT Spine2
			{
				OFFSET 0.001457 0.052922 0.025425
				CHANNELS 3 Zrotation Yrotation Xrotation
				JOINT Neck
				{
					OFFSET -0.002778 0.213870 -0.042857
					CHANNELS 3 Zrotation Yrotation Xrotation
					JOINT Head
					{
						OFFSET 0.005152 0.064970 0.051349
						CHANNELS 3 Zrotation Yrotation Xrotation
						End Site
						{
							OFFSET 0.000000 0.000000 0.000000
						}
					}
				}
				JOINT LeftShoulder
				{
					OFFSET 0.078845 0.121749 -0.034090
					CHANNELS 3 Zrotation Yrotation Xrotation
					JOINT LeftArm
					{
						OFFSET 0.090977 0.030469 -0.008868
						CHANNELS 3 Zrotation Yrotation Xrotation
						JOINT LeftForeArm
						{
							OFFSET 0.259612 -0.012772 -0.027456
							CHANNELS 3 Zrotation Yrotation Xrotation
							JOINT LeftHand
							{
								OFFSET 0.249234 0.008986 -0.001171
								CHANNELS 3 Zrotation Yrotation Xrotation
								End Site
								{
									OFFSET 0.000000 0.000000 0.000000
								}
							}
						}
					}
				}
				JOINT RightShoulder
				{
					OFFSET -0.081759 0.118833 -0.038615
					CHANNELS 3 Zrotation Yrotation Xrotation
					JOINT RightArm
					{
						OFFSET -0.096012 0.032551 -0.009143
						CHANNELS 3 Zrotation Yrotation Xrotation
						JOINT RightForeArm
						{
							OFFSET -0.253742 -0.013329 -0.021401
							CHANNELS 3 Zrotation Yrotation Xrotation
							JOINT RightHand
							{
								OFFSET -0.255298 0.007772 -0.005559
								CHANNELS 3 Zrotation Yrotation Xrotation
								End Site
								{
									OFFSET 0.000000 0.000000 0.000000
								}
							}
						}
					}
				}
			}
		}
	}
}
MOTION
Frames: 100
Frame Time: 0.050000
0.000000 0.957253 0.000000 -2.234718 2.981159 1.811684 0.876826 0.220500 3.000833 -2.332974 0.269114 -2.236512 2.900492 8.640051 8.136950 0.000000 0.000000 0.000000 0.075396 0.850730 -8.462432 2.663835 -0.227779 5.472115 -2.354347 -7.978326 7.159758 0.000000 0.000000 0.000000 5.351211 -0.634922 6.166022 -4.678519 1.790240 -23.232686 -2.491367 2.567610 29.223519 11.060476 -3.565756 -29.732963 0.000000 0.000000 0.000000 -22.206065 -6.794613 1.321260 -50.398321 -5.012574 -6.084851 -6.767862 -25.215399 2.571827 0.000000 0.000000 0.000000 30.407392 -5.568913 -3.918542 55.136172 6.967546 -5.310899 5.122397 29.346264 3.149295 0.000000 0.000000 0.000000 
-0.000521 0.956241 0.003949 -2.102968 2.783901 2.855533 1.053587 0.154824 2.278147 -2.657419 0.297447 -2.393604 3.382595 9.106865 6.822271 0.000000 0.000000 0.000000 -0.442472 0.862308 -8.866619 3.050869 -0.289133 5.159105 -2.129384 -7.398056 6.677560 0.000000 0.000000 0.000000 5.758667 -0.575055 5.034295 -5.427332 1.968287 -23.072649 -2.442292 2.768720 29.150519 11.249600 -3.452547 -30.820872 0.000000 0.000000 0.000000 -21.253003 -6.281155 1.087526 -51.168900 -5.396616 -6.037331 -6.693665 -25.662728 2.612516 0.000000 0.000000 0.000000 29.716220 -6.209131 -4.315168 56.999164 6.584723 -5.501571 5.311709 30.875920 3.450223 0.000000 0.000000 0.000000 
-0.001106 0.955851 0.007919 -1.600523 3.221380 3.340178 1.032699 0.113125 1.757938 -3.143105 0.327079 -1.410737 3.197818 8.852661 6.997545 0.000000 0.000000 0.000000 -0.780972 0.876984 -9.261160 2.849452 -0.259693 5.378274 -2.141789 -7.493504 7.090946 0.000000 0.000000 0.000000 5.917547 -0.518362 4.235235 -5.870475 2.089462 -22.806141 -2.373759 2.529235 29.385044 10.361173 -3.022044 -30.527861 0.000000 0.000000 0.000000 -20.645883 -7.063702 1.570431 -51.463155 -5.735509 -5.962326 -7.134525 -25.493641 2.691456 0.000000 0.000000 0.000000 29.558133 -6.080790 -4.191255 56.908522 7.070033 -5.291751 5.665845 29.870292 3.394537 0.000000 0.000000 0.000000 
-0.001975 0.956372 0.012579 -1.415843 3.090832 3.509383 0.660605 0.157386 2.106822 -2.731570 0.290346 -1.271689 3.215743 8.794045 6.697841 0.000000 0.000000 0.000000 -1.250905 0.825525 -8.967628 3.183355 -0.314044 5.029103 -1.661490 -6.539751 7.297084 0.000000 0.000000 0.000000 6.164408 -0.524243 4.122232 -6.020091 2.109854 -23.166577 -2.339509 3.199165 30.111160 10.801402 -3.118160 -30.985419 0.000000 0.000000 0.000000 -21.208849 -7.696217 1.744195 -50.789461 -5.394425 -6.038521 -7.794890 -26.803839 2.969455 0.000000 0.000000 0.000000 30.070006 -5.902944 -3.843054 56.294430 7.684655 -5.153235 6.163618 30.006462 3.591331 0.000000 0.000000 0.000000 
-0.003175 0.956718 0.017338 -1.314952 3.066545 3.601649 0.620428 0.165698 2.186321 -2.525450 0.271634 -1.249183 3.079236 8.682867 7.169422 0.000000 0.000000 0.000000 -1.466473 0.773870 -8.485871 3.259038 -0.327365 4.750587 -1.698169 -6.609817 7.259799 0.000000 0.000000 0.000000 6.054469 -0.547001 4.408549 -5.333341 1.959591 -22.618857 -2.488620 3.422267 29.568525 10.997407 -3.225408 -30.639615 0.000000 0.000000 0.000000 -21.204352 -8.066484 1.859520 -50.655176 -6.028438 -5.680116 -9.741958 -27.674136 3.526466 0.000000 0.000000 0.000000 29.672982 -5.426824 -3.410899 55.941004 8.324264 -4.797887 6.251060 29.645160 3.542109 0.000000 0.000000 0.000000 
-0.004843 0.956892 0.022087 -1.251352 3.123283 3.562957 0.492458 0.177425 2.258889 -2.138432 0.230987 -0.884996 2.827138 8.252337 7.192244 0.000000 0.000000 0.000000 -1.623158 0.706870 -7.775626 3.428036 -0.355571 4.547954 -1.439101 -6.037127 7.195427 0.000000 0.000000 0.000000 6.224098 -0.583071 4.673584 -5.533378 1.997772 -22.947503 -2.346266 3.313181 30.051791 11.058728 -3.244474 -30.922541 0.000000 0.000000 0.000000 -21.181940 -8.654369 2.238333 -50.680756 -6.820173 -5.423253 -11.204285 -28.835447 4.076310 0.000000 0.000000 0.000000 29.192514 -4.656262 -2.856372 55.633901 8.592284 -4.700699 6.502911 29.390738 3.540326 0.000000 0.000000 0.000000 
-0.007035 0.956728 0.026797 -1.132128 3.097365 3.762503 0.517219 0.205374 2.610176 -2.213543 0.247885 -1.558166 2.946681 8.605429 7.723777 0.000000 0.000000 0.000000 -1.690150 0.671624 -7.374979 3.579947 -0.379302 4.293265 -1.545496 -6.253676 7.148761 0.000000 0.000000 0.000000 6.366407 -0.601771 4.731971 -5.317117 1.961425 -22.348416 -2.578130 3.078924 29.728068 11.447522 -3.458011 -31.063229 0.000000 0.000000 0.000000 -21.178534 -9.562827 2.816776 -50.821905 -7.396723 -5.172732 -12.593335 -29.549725 4.564085 0.000000 0.000000 0.000000 28.734325 -4.054616 -2.523429 55.477831 8.983665 -4.449383 6.920693 29.239599 3.583953 0.000000 0.000000 0.000000 
-0.009805 0.956163 0.031484 -1.005036 3.285035 4.205912 0.712914 0.191522 2.571960 -2.082542 0.238734 -1.777815 3.181775 9.030039 7.760129 0.000000 0.000000 0.000000 -1.771340 0.671599 -7.403253 3.759104 -0.408169 4.349234 -1.650186 -6.357705 6.775145 0.000000 0.000000 0.000000 6.486232 -0.621219 4.746444 -5.164022 1.924165 -22.296654 -2.758916 2.350202 29.836418 11.177814 -3.375084 -31.263608 0.000000 0.000000 0.000000 -21.036073 -10.261239 3.414004 -51.239308 -8.118363 -4.958917 -14.324385 -30.472249 5.247610 0.000000 0.000000 0.000000 27.907762 -3.545656 -2.368138 55.502800 9.367538 -4.190321 7.191170 28.829569 3.533593 0.000000 0.000000 0.000000 
-0.013160 0.955828 0.036170 -0.891802 3.482681 4.603098 0.861288 0.199971 2.789826 -1.999334 0.242183 -2.513407 3.353143 9.428861 8.129349 0.000000 0.000000 0.000000 -1.733184 0.682941 -7.516757 4.033670 -0.452206 4.267957 -1.953172 -6.968278 6.682657 0.000000 0.000000 0.000000 6.752042 -0.643168 4.696313 -4.997142 1.892848 -21.981408 -3.152164 1.704383 29.611307 11.208695 -3.467481 -31.218626 0.000000 0.000000 0.000000 -21.000594 -11.066911 4.021388 -52.095872 -8.411396 -4.895015 -14.764860 -30.883663 5.490825 0.000000 0.000000 0.000000 27.323808 -3.119433 -2.257618 55.491415 9.441710 -4.059129 7.270712 29.059700 3.543096 0.000000 0.000000 0.000000 
-0.017171 0.955779 0.040873 -0.746613 3.520315 5.145174 0.957091 0.193212 2.781330 -1.891294 0.239349 -2.882008 3.656617 9.995163 8.334328 0.000000 0.000000 0.000000 -1.500657 0.696682 -7.551336 4.152782 -0.469782 4.155304 -2.205566 -7.415103 6.304975 0.000000 0.000000 0.000000 7.035095 -0.668878 4.638311 -4.974461 1.886165 -21.879020 -3.311420 1.197357 29.612844 11.081488 -3.414069 -31.517040 0.000000 0.000000 0.000000 -21.072058 -11.833592 4.609795 -52.492072 -8.711880 -4.802224 -15.244265 -30.872007 5.661179 0.000000 0.000000 0.000000 26.867818 -2.849725 -2.238285 55.396213 9.630727 -3.904357 7.196841 28.882991 3.460028 0.000000 0.000000 0.000000 
-0.021767 0.955701 0.045855 -0.627048 3.607699 5.483102 1.150470 0.171019 2.643879 -1.763885 0.227204 -2.759659 3.687834 10.051065 8.328769 0.000000 0.000000 0.000000 -1.341460 0.736695 -7.945460 4.371905 -0.504210 4.287167 -2.378868 -7.741561 6.127712 0.000000 0.000000 0.000000 7.330616 -0.730441 4.939004 -4.861390 1.853806 -21.974321 -3.692631 0.729613 29.573472 11.109657 -3.411279 -31.963794 0.000000 0.000000 0.000000 -21.284062 -12.284405 5.007687 -52.790696 -8.691761 -4.844289 -14.911486 -30.752368 5.576743 0.000000 0.000000 0.000000 26.580746 -2.802196 -2.350121 55.134634 9.591978 -3.864961 6.764724 28.786019 3.307196 0.000000 0.000000 0.000000 
-0.026835 0.955292 0.051458 -0.504058 3.726039 5.819887 1.478940 0.147721 2.593134 -2.164152 0.252076 -2.459029 4.041790 10.585926 8.051705 0.000000 0.000000 0.000000 -1.030990 0.752969 -7.981483 4.249896 -0.486545 4.244866 -2.410899 -7.678558 5.608581 0.000000 0.000000 0.000000 7.675352 -0.792567 5.181897 -4.897270 1.861488 -21.931031 -3.980477 0.320392 29.370051 10.956871 -3.335033 -32.138414 0.000000 0.000000 0.000000 -21.262114 -12.757395 5.378174 -53.010084 -8.953413 -4.730696 -14.089343 -30.160567 5.248887 0.000000 0.000000 0.000000 26.488245 -3.029257 -2.636671 54.511794 9.225867 -3.946414 6.364481 28.976483 3.202875 0.000000 0.000000 0.000000 
-0.032150 0.954641 0.058196 -0.388875 3.506598 5.931557 1.783078 0.137423 2.675294 -2.268481 0.256841 -2.139578 4.236686 10.953441 8.279613 0.000000 0.000000 0.000000 -0.746253 0.758715 -7.908210 4.205257 -0.476810 4.461972 -2.307350 -7.344401 5.124584 0.000000 0.000000 0.000000 7.899772 -0.834113 5.381060 -4.976644 1.881231 -21.761264 -4.158127 0.170959 29.286786 10.767141 -3.214209 -32.523817 0.000000 0.000000 0.000000 -21.357408 -12.930788 5.579972 -52.989559 -9.169861 -4.647274 -12.715679 -29.319217 4.735313 0.000000 0.000000 0.000000 26.272604 -2.797629 -2.585229 54.034559 8.986260 -4.001010 5.658870 28.914122 2.989485 0.000000 0.000000 0.000000 
-0.037497 0.953943 0.066086 -0.140687 2.858610 6.140117 2.010877 0.119968 2.564248 -2.387456 0.258409 -1.267146 4.608389 11.483604 7.986243 0.000000 0.000000 0.000000 -0.653729 0.728927 -7.526953 3.974987 -0.431755 4.322765 -2.046388 -6.602604 4.406930 0.000000 0.000000 0.000000 8.171200 -0.893131 5.700497 -5.264698 1.930613 -22.192099 -4.088580 0.610449 29.367793 10.418487 -3.042585 -32.470773 0.000000 0.000000 0.000000 -21.603687 -13.123228 5.716525 -52.919171 -8.989154 -4.732315 -11.032810 -28.754898 4.196884 0.000000 0.000000 0.000000 26.406111 -2.885882 -2.652084 53.171719 8.582420 -4.166145 5.167739 28.983488 2.868620 0.000000 0.000000 0.000000 
-0.042738 0.953168 0.074950 0.039338 2.430313 6.150219 2.264271 0.114013 2.639871 -2.557563 0.263361 -0.208663 4.548821 11.367645 8.026162 0.000000 0.000000 0.000000 -0.354490 0.699858 -7.109523 3.575808 -0.366128 4.393692 -1.736548 -5.740916 3.816114 0.000000 0.000000 0.000000 8.345666 -0.936159 5.973367 -5.427873 1.955373 -22.498670 -4.303262 0.669771 29.696234 10.290960 -3.008582 -32.583133 0.000000 0.000000 0.000000 -21.592931 -12.660965 5.550910 -52.996299 -9.365342 -4.641679 -9.051960 -28.266053 3.638914 0.000000 0.000000 0.000000 26.540068 -2.862345 -2.726180 53.119997 8.463001 -4.235204 4.416378 29.224370 2.707328 0.000000 0.000000 0.000000 
-0.047704 0.952193 0.084519 0.132040 1.560216 6.059087 2.378571 0.059089 1.845156 -2.841162 0.265950 2.969490 4.953318 11.701066 6.364922 0.000000 0.000000 0.000000 0.012083 0.670370 -6.702776 3.055076 -0.276907 4.544968 -1.578109 -4.973332 2.519100 0.000000 0.000000 0.000000 8.435068 -0.985306 6.403778 -5.680986 1.999019 -22.687529 -4.090453 0.783856 29.511383 10.085632 -2.907812 -32.976700 0.000000 0.000000 0.000000 -21.694801 -12.025016 5.339108 -52.888680 -9.401858 -4.650624 -8.037075 -28.323043 3.417412 0.000000 0.000000 0.000000 26.642822 -2.840312 -2.897581 52.695225 8.517398 -4.146804 4.487868 28.785687 2.633815 0.000000 0.000000 0.000000 
-0.052286 0.951686 0.094427 0.236506 1.286479 5.977994 3.096191 -0.103244 -0.235244 -3.984699 0.415648 8.444004 5.511633 12.515380 5.408202 0.000000 0.000000 0.000000 0.497922 0.582769 -5.745846 2.742208 -0.234083 4.068346 -1.695681 -4.721629 1.024791 0.000000 0.000000 0.000000 8.440038 -1.036288 6.866557 -5.713724 2.007318 -22.550790 -4.164654 0.451349 29.217876 9.653054 -2.753066 -33.066714 0.000000 0.000000 0.000000 -21.599824 -11.663892 5.280018 -52.640191 -10.382037 -4.235234 -6.916633 -27.975737 3.112031 0.000000 0.000000 0.000000 26.644814 -2.655637 -2.979602 52.728458 8.468368 -4.097711 4.019603 28.904255 2.495686 0.000000 0.000000 0.000000 
-0.056042 0.950071 0.104097 0.485382 1.426850 5.930175 3.813271 -0.335763 -3.918346 -5.254079 0.716912 16.426076 5.883380 13.060866 4.551954 0.000000 0.000000 0.000000 0.618861 0.508943 -5.022674 2.555395 -0.198859 4.716673 -2.094560 -4.883547 -1.233576 0.000000 0.000000 0.000000 8.276044 -1.144221 7.922459 -5.764102 2.024947 -22.448839 -4.333261 -0.298257 28.712781 9.743634 -2.745805 -33.928950 0.000000 0.000000 0.000000 -21.595844 -11.221102 5.215441 -51.734835 -11.409469 -3.759590 -5.934153 -27.957393 2.885212 0.000000 0.000000 0.000000 26.375553 -2.338416 -3.018639 52.572344 8.777272 -3.835713 3.400955 29.073026 2.304294 0.000000 0.000000 0.000000 
-0.058696 0.948982 0.114388 0.323148 0.158903 6.324567 4.565901 -0.529075 -7.872054 -6.417308 1.256908 23.372093 6.804939 14.735718 4.493542 0.000000 0.000000 0.000000 0.705413 0.559693 -5.533947 2.677423 -0.178530 6.284789 -2.201241 -4.714349 -2.244091 0.000000 0.000000 0.000000 8.408989 -1.220248 8.458041 -6.090065 2.057602 -23.160359 -3.473540 -0.015854 28.891320 9.068239 -2.413918 -34.574540 0.000000 0.000000 0.000000 -22.724855 -11.050516 5.371289 -49.747483 -12.042253 -3.508281 -5.815196 -29.192233 3.014211 0.000000 0.000000 0.000000 25.757016 -1.955286 -2.891633 51.533677 9.162489 -3.629539 4.782575 28.981941 2.571842 0.000000 0.000000 0.000000 
-0.060691 0.947821 0.126526 0.528309 -0.146820 6.576091 4.679139 -0.719954 -11.803162 -7.335049 1.781076 28.689261 7.535517 16.038349 4.042748 0.000000 0.000000 0.000000 0.149679 0.555617 -5.558318 3.222140 -0.249859 7.255369 -2.583751 -5.634831 -2.461979 0.000000 0.000000 0.000000 8.301335 -1.302005 9.232908 -5.931572 2.004066 -23.373413 -3.565672 0.081404 28.497203 8.716992 -2.065704 -35.813476 0.000000 0.000000 0.000000 -24.604210 -10.984835 5.449485 -47.120868 -12.953188 -3.060064 -5.598840 -30.039818 3.029540 0.000000 0.000000 0.000000 26.090127 -1.592730 -2.746483 50.540517 9.894128 -3.259778 6.027497 29.120145 2.862241 0.000000 0.000000 0.000000 
-0.062288 0.947130 0.141244 0.559593 -1.455842 6.443719 4.185773 -0.914421 -15.300132 -7.998910 2.257038 30.003081 8.676231 18.075081 2.879593 0.000000 0.000000 0.000000 0.113644 0.504670 -5.080938 2.825377 -0.148231 8.166104 -2.284479 -4.899126 -2.143346 0.000000 0.000000 0.000000 7.824393 -1.386042 10.672876 -5.469698 1.858204 -24.184079 -3.077611 1.347172 28.500084 9.820013 -2.356787 -36.870601 0.000000 0.000000 0.000000 -25.414451 -11.556675 5.695775 -45.804326 -13.238423 -2.897913 -5.731191 -31.816441 3.240035 0.000000 0.000000 0.000000 25.918823 -1.060699 -2.212379 50.261368 11.481648 -2.677978 6.369389 29.119084 2.969125 0.000000 0.000000 0.000000 
-0.063835 0.946600 0.158519 0.551720 -2.370299 6.430395 3.514777 -1.117694 -18.117976 -7.429078 1.997200 27.221918 8.547307 17.806811 1.898847 0.000000 0.000000 0.000000 -0.056659 0.395454 -4.007391 2.854341 -0.144291 7.857266 -2.059475 -4.498395 -1.613567 0.000000 0.000000 0.000000 7.513178 -1.400412 11.315456 -5.450747 1.851254 -23.720927 -3.056743 2.126068 27.874817 9.889085 -2.261047 -37.289118 0.000000 0.000000 0.000000 -25.359170 -11.957660 5.829060 -45.406484 -14.712438 -2.274672 -4.666710 -31.569747 2.886350 0.000000 0.000000 0.000000 26.288636 -0.581328 -1.877656 50.511760 13.237553 -1.930450 5.824245 28.503624 2.772839 0.000000 0.000000 0.000000 
-0.064745 0.946336 0.178537 0.512744 -3.627313 6.733873 3.033595 -1.246732 -20.027200 -6.679217 1.550586 21.097644 7.869828 16.549659 2.821506 0.000000 0.000000 0.000000 -0.400746 0.321051 -3.221136 2.957231 -0.146837 7.587158 -1.959739 -4.315684 -1.343233 0.000000 0.000000 0.000000 7.009151 -1.400062 12.110260 -5.460346 1.813559 -24.861708 -3.092347 3.627619 28.358654 10.581248 -2.293487 -38.403782 0.000000 0.000000 0.000000 -24.786946 -12.041801 5.628594 -45.137855 -15.125256 -2.100674 -4.749270 -31.821400 2.905810 0.000000 0.000000 0.000000 26.724221 -0.829120 -1.797006 50.940129 14.040664 -1.705638 6.775417 28.595742 3.074296 0.000000 0.000000 0.000000 
-0.064921 0.944515 0.201822 0.654011 -3.582027 6.069533 1.997329 -1.420765 -20.233865 -5.967905 1.071593 14.126879 6.211243 13.562492 4.568261 0.000000 0.000000 0.000000 -0.155757 0.113477 -1.135549 2.747042 -0.109889 7.798942 -2.174432 -4.748189 -1.579061 0.000000 0.000000 0.000000 6.381819 -1.380778 13.020394 -5.923329 1.939825 -24.288354 -3.150291 3.426174 28.398127 11.327801 -2.634730 -38.515265 0.000000 0.000000 0.000000 -24.299716 -12.829435 6.110976 -44.690485 -16.279065 -1.678201 -3.426862 -32.186283 2.549902 0.000000 0.000000 0.000000 27.760318 -0.950619 -2.014818 51.429905 14.509304 -1.496509 5.755193 28.686213 2.852717 0.000000 0.000000 0.000000 
-0.063672 0.942002 0.228660 0.379435 -4.269649 5.672103 1.299345 -1.484570 -19.899466 -5.133377 0.787348 9.923844 5.058258 11.810374 7.701422 0.000000 0.000000 0.000000 0.206701 -0.010008 -0.024299 2.059780 0.063780 9.506458 -2.617916 -5.685236 -1.945072 0.000000 0.000000 0.000000 5.728237 -1.330639 13.759485 -6.828317 2.117580 -25.211200 -2.936528 3.494820 29.100715 11.774642 -3.000996 -37.981422 0.000000 0.000000 0.000000 -24.230696 -13.253310 6.528335 -43.976069 -17.191715 -1.463248 -3.326777 -31.293132 2.448183 0.000000 0.000000 0.000000 28.873041 -0.741836 -2.086948 51.473274 14.251663 -1.655610 6.298958 29.225422 3.054720 0.000000 0.000000 0.000000 
-0.061203 0.938776 0.258648 0.173675 -4.443241 5.351625 0.737709 -1.552669 -19.714902 -4.695894 0.721647 10.927746 4.830703 11.515056 8.572204 0.000000 0.000000 0.000000 0.001232 0.084835 -0.906330 2.454886 0.150805 14.473930 -3.278847 -6.627803 -3.733507 0.000000 0.000000 0.000000 4.808530 -1.221028 14.204161 -6.938049 2.148516 -25.015295 -3.384922 3.584375 29.120765 11.655224 -3.123031 -36.931302 0.000000 0.000000 0.000000 -23.527152 -13.665854 6.719748 -43.837978 -17.609994 -1.303549 -1.956024 -30.480801 1.993196 0.000000 0.000000 0.000000 30.445507 -0.962023 -2.372620 51.859618 13.732515 -1.890317 5.394435 29.423494 2.890425 0.000000 0.000000 0.000000 
-0.058112 0.938155 0.290568 -0.231596 -4.885050 4.343723 0.941366 -1.349491 -17.406636 -5.497218 0.951497 12.171229 5.591128 12.798573 8.673304 0.000000 0.000000 0.000000 -0.077773 0.192335 -1.984286 2.488888 0.470003 22.483379 -3.337993 -7.258609 -2.615318 0.000000 0.000000 0.000000 3.677838 -1.024921 14.033050 -6.959807 2.197421 -23.720625 -3.165299 3.416915 28.622063 11.500759 -3.153428 -36.599314 0.000000 0.000000 0.000000 -24.343773 -14.836453 7.604018 -42.402230 -16.692736 -1.623499 -1.456061 -28.691485 1.704406 0.000000 0.000000 0.000000 31.233175 -1.145142 -2.768513 51.609780 12.564555 -2.288710 6.150843 29.466847 3.048093 0.000000 0.000000 0.000000 
-0.055322 0.938808 0.322900 0.185945 -4.348221 3.459772 0.125385 -1.273449 -14.774700 -5.598299 1.005047 13.692726 5.194674 11.923402 6.748339 0.000000 0.000000 0.000000 -0.680682 0.534273 -5.462370 2.718820 0.872605 33.897900 -3.016361 -7.532903 -0.048126 0.000000 0.000000 0.000000 2.216272 -0.837175 14.504450 -6.838708 2.162882 -24.434043 -3.641057 1.797768 30.145170 11.356227 -3.272644 -37.134526 0.000000 0.000000 0.000000 -25.422022 -14.603062 8.129850 -40.535662 -17.039176 -1.821226 -0.129808 -26.764236 1.301019 0.000000 0.000000 0.000000 31.696705 -1.226025 -3.405983 51.620007 11.032367 -2.916588 7.192344 30.109454 3.340261 0.000000 0.000000 0.000000 
-0.053664 0.941308 0.354994 -0.223139 -3.832476 2.611887 0.014749 -0.980543 -11.003749 -5.530095 0.960456 13.450659 5.114843 11.583307 5.078380 0.000000 0.000000 0.000000 -0.359682 0.979685 -9.859142 3.332952 0.908500 42.286964 -3.413668 -8.947338 1.138825 0.000000 0.000000 0.000000 1.449702 -0.734564 14.544517 -6.119537 2.031488 -23.382939 -4.229521 0.571667 29.776825 10.919023 -3.271204 -36.625142 0.000000 0.000000 0.000000 -25.451703 -14.922220 8.620505 -39.912456 -17.210729 -1.806036 0.913080 -25.098513 0.981987 0.000000 0.000000 0.000000 32.194762 -1.109286 -3.860312 51.487941 8.263185 -3.827794 8.266539 31.070119 3.645575 0.000000 0.000000 0.000000 
-0.052964 0.943512 0.387537 -1.156674 -3.389151 2.658098 0.402254 -0.685962 -7.838338 -5.492630 0.900882 12.231530 4.874320 10.940371 3.695053 0.000000 0.000000 0.000000 0.570823 1.439481 -13.529704 3.526489 0.762199 43.527501 -3.779894 -9.457980 -0.136298 0.000000 0.000000 0.000000 1.771882 -0.793526 14.516730 -5.585742 1.899441 -23.730309 -5.060879 -0.088930 30.552896 10.949610 -3.247944 -37.378706 0.000000 0.000000 0.000000 -25.320466 -15.613560 9.219474 -39.461482 -17.332579 -1.868245 1.645177 -23.971171 0.772349 0.000000 0.000000 0.000000 31.333600 -1.411991 -4.127392 52.285262 5.974472 -4.842836 9.327181 31.758012 4.005546 0.000000 0.000000 0.000000 
-0.052516 0.945456 0.420586 -2.158323 -2.694451 2.948436 1.123959 -0.475152 -5.665339 -5.168312 0.774389 10.898394 4.921807 10.893040 2.789204 0.000000 0.000000 0.000000 1.786432 1.838841 -15.934559 3.000033 0.710626 39.227556 -3.602748 -8.381574 -2.121948 0.000000 0.000000 0.000000 2.757105 -0.961417 14.571634 -5.812174 1.966457 -23.400010 -5.349390 -1.717209 30.257711 10.518900 -3.212021 -37.343260 0.000000 0.000000 0.000000 -25.459240 -15.100093 9.329268 -39.534437 -17.969504 -1.753873 1.635424 -23.233215 0.766523 0.000000 0.000000 0.000000 30.787452 -1.617888 -4.747395 52.241387 3.826191 -5.537367 10.979999 31.751095 4.328596 0.000000 0.000000 0.000000 
-0.052104 0.946788 0.454422 -2.666495 -1.902459 2.905266 2.105857 -0.268126 -3.235433 -5.135578 0.727471 10.036955 4.642858 10.291375 2.445663 0.000000 0.000000 0.000000 2.080717 2.164361 -18.322616 2.822600 0.449925 32.907603 -2.922157 -6.776926 -1.723954 0.000000 0.000000 0.000000 3.041396 -1.069924 15.336172 -5.331082 1.851545 -23.826127 -5.619261 -2.815222 30.149866 11.658452 -3.548163 -38.809051 0.000000 0.000000 0.000000 -25.652909 -14.971322 9.506185 -40.237955 -17.977951 -1.818402 1.910685 -23.697931 0.763451 0.000000 0.000000 0.000000 30.507565 -2.198603 -5.370607 52.261188 2.438012 -6.030197 11.048925 31.816937 4.296619 0.000000 0.000000 0.000000 
-0.051864 0.946369 0.489138 -2.666201 -1.741098 3.217288 2.089965 -0.093906 -0.801146 -5.062554 0.678809 8.158465 4.993693 10.917630 2.122502 0.000000 0.000000 0.000000 2.448183 2.466145 -20.310182 2.463155 0.371040 26.198983 -2.764062 -6.718917 -0.826120 0.000000 0.000000 0.000000 3.165807 -1.122032 15.735034 -5.208874 1.796131 -25.076840 -5.811933 -3.240330 31.054278 11.239005 -3.265192 -39.850587 0.000000 0.000000 0.000000 -26.173711 -14.434078 9.432354 -40.547072 -18.104180 -1.904381 1.590187 -24.172276 0.871910 0.000000 0.000000 0.000000 30.302084 -3.098608 -6.099734 52.056991 1.234179 -6.546115 11.816714 30.905669 4.335148 0.000000 0.000000 0.000000 
-0.052321 0.944548 0.525000 -2.900766 -2.199631 3.372201 1.997909 0.037429 0.939977 -4.565778 0.604420 8.832754 5.643946 12.146550 1.789498 0.000000 0.000000 0.000000 3.101923 2.868336 -22.410006 2.763565 0.160403 20.795869 -2.907719 -7.129966 -0.716995 0.000000 0.000000 0.000000 3.773045 -1.230171 16.021110 -5.406332 1.825757 -25.331997 -5.853576 -4.124361 30.875099 10.920028 -3.052324 -41.102839 0.000000 0.000000 0.000000 -25.814526 -13.132974 8.981886 -42.000071 -18.367784 -1.887281 1.300834 -24.438353 1.002592 0.000000 0.000000 0.000000 29.596488 -3.360924 -6.654136 52.410754 0.861392 -6.605151 11.237076 29.973545 3.933327 0.000000 0.000000 0.000000 
-0.053702 0.941425 0.562540 -2.849245 -2.756331 4.084548 1.665135 0.053944 1.062604 -3.993364 0.526760 11.126584 5.861991 12.382213 0.333031 0.000000 0.000000 0.000000 3.282293 3.104998 -23.751265 3.788870 -0.172406 16.748047 -3.282321 -8.212978 -0.371504 0.000000 0.000000 0.000000 4.357232 -1.349241 16.434179 -5.083413 1.719482 -26.629552 -6.140050 -3.873665 31.432390 11.767483 -3.371102 -41.573557 0.000000 0.000000 0.000000 -25.524222 -12.650613 8.728501 -43.459500 -18.283150 -1.952881 -0.554815 -24.344149 1.405306 0.000000 0.000000 0.000000 30.995082 -2.994519 -6.800835 51.674562 2.435007 -5.848188 8.649630 29.750357 3.257042 0.000000 0.000000 0.000000 
-0.056079 0.936455 0.602563 -2.660547 -4.269962 4.636132 1.338033 0.043278 0.801834 -4.795155 0.816579 14.110145 6.943921 14.738642 1.456111 0.000000 0.000000 0.000000 4.216879 3.423881 -24.383509 3.311262 0.012905 16.826247 -2.149682 -5.810944 0.663137 0.000000 0.000000 0.000000 4.697346 -1.372227 16.433125 -3.990379 1.468354 -25.247652 -6.665681 -2.642816 29.344071 11.372142 -3.097176 -41.165921 0.000000 0.000000 0.000000 -25.436920 -12.035621 8.063665 -43.848734 -17.636194 -1.897385 -2.643546 -22.128251 1.598045 0.000000 0.000000 0.000000 32.771889 -0.981493 -5.678310 50.371712 4.710967 -4.565431 4.622317 28.502198 2.138130 0.000000 0.000000 0.000000 
-0.059659 0.932542 0.646120 -2.295149 -4.745511 4.470149 1.777799 -0.247686 -2.883891 -6.336472 1.725169 24.781923 7.053984 15.056021 3.216014 0.000000 0.000000 0.000000 4.787722 3.333179 -23.115005 2.408871 0.344952 19.189214 -2.048058 -5.369527 0.253497 0.000000 0.000000 0.000000 5.440203 -1.477296 16.414054 -4.326543 1.535031 -25.194002 -6.246426 -2.752966 28.740594 10.816794 -2.693802 -42.307662 0.000000 0.000000 0.000000 -27.575004 -12.027805 8.484368 -42.781344 -16.358998 -2.441735 -3.267594 -19.872828 1.493431 0.000000 0.000000 0.000000 32.806403 0.193267 -5.018122 48.886384 7.261532 -3.377874 4.488352 26.606684 1.912367 0.000000 0.000000 0.000000 
-0.063995 0.933544 0.693994 -1.904356 -5.078200 2.736388 3.520386 -0.389550 -6.026356 -8.929072 3.642544 35.853087 6.908345 15.048633 7.319226 0.000000 0.000000 0.000000 4.837837 2.515218 -17.935772 1.732376 0.541745 19.145956 -1.468312 -3.674537 -0.152347 0.000000 0.000000 0.000000 5.991309 -1.626363 17.747450 -3.872021 1.437416 -26.498347 -5.888846 -1.915593 29.352199 9.466121 -1.918330 -43.655760 0.000000 0.000000 0.000000 -30.447014 -11.075093 7.968873 -41.777437 -14.838232 -3.027650 -5.230863 -19.001426 1.728262 0.000000 0.000000 0.000000 33.118081 1.142390 -4.041811 47.311511 8.867471 -2.839500 5.932092 25.599028 2.153455 0.000000 0.000000 0.000000 
-0.068271 0.939942 0.745317 -1.190281 -5.551045 1.328649 3.556236 -0.521750 -8.770824 -9.049745 4.265146 40.601954 6.251532 13.842596 6.961704 0.000000 0.000000 0.000000 4.810133 1.681269 -12.579973 1.039012 0.671577 17.717792 -0.902144 -2.068637 -0.407929 0.000000 0.000000 0.000000 6.494198 -1.633498 17.413766 -4.120358 1.494719 -26.648204 -5.784975 0.060368 29.169569 9.623656 -2.182397 -40.965306 0.000000 0.000000 0.000000 -30.536075 -11.776590 7.707014 -42.063013 -12.742354 -3.484300 -5.556113 -17.940412 1.644618 0.000000 0.000000 0.000000 33.340685 0.503921 -3.683245 47.904631 10.069405 -2.652704 6.437221 23.545523 2.135237 0.000000 0.000000 0.000000 
-0.072413 0.949993 0.797736 -0.050874 -7.775743 -0.481489 1.444256 -0.666246 -8.855472 -8.979809 4.089482 35.148187 5.672853 12.333911 3.394998 0.000000 0.000000 0.000000 3.559688 0.682034 -6.137548 -0.310910 0.886432 14.844475 0.203356 0.081023 0.670444 0.000000 0.000000 0.000000 5.183770 -1.239368 16.195212 -4.208191 1.503636 -25.418944 -4.808329 2.879206 28.268010 9.192381 -1.988067 -39.484354 0.000000 0.000000 0.000000 -29.462431 -10.463804 6.068082 -44.036610 -12.722204 -3.320262 -5.268765 -15.447026 1.359809 0.000000 0.000000 0.000000 32.792799 -0.196575 -3.412532 49.531690 10.362565 -2.753106 7.398387 21.836849 2.184647 0.000000 0.000000 0.000000 
-0.076714 0.955284 0.848253 0.904356 -7.885569 -1.878199 -1.692439 -0.809047 -7.668866 -6.930420 2.164460 23.574740 2.593258 5.921803 1.567229 0.000000 0.000000 0.000000 1.781143 0.053868 -0.989926 -0.170273 0.707803 12.673559 0.826300 0.935644 1.700708 0.000000 0.000000 0.000000 4.322855 -1.050902 15.540392 -3.951108 1.442631 -23.833934 -5.156500 5.341510 26.801844 9.248168 -1.743014 -38.420134 0.000000 0.000000 0.000000 -27.997985 -10.833620 5.116567 -46.036180 -12.217427 -3.095290 -3.881084 -16.150451 1.219763 0.000000 0.000000 0.000000 32.197200 -1.392044 -3.075523 52.065756 10.086615 -3.143575 6.895283 20.933591 2.093130 0.000000 0.000000 0.000000 
-0.082780 0.953182 0.891990 1.709545 -8.684815 -3.471972 -4.489048 -0.845327 -6.271130 -4.426616 1.035944 17.051282 -0.946277 -1.107860 2.365526 0.000000 0.000000 0.000000 1.275394 -0.174469 1.384466 0.657754 0.779145 16.126206 -0.241829 -0.124691 -0.728754 0.000000 0.000000 0.000000 5.133465 -1.122618 15.799406 -4.793761 1.650181 -23.884017 -4.331214 7.745282 28.722755 10.433534 -1.691042 -41.193818 0.000000 0.000000 0.000000 -26.719203 -12.695163 5.642852 -47.104020 -14.889212 -2.125954 -2.409767 -16.703920 1.040336 0.000000 0.000000 0.000000 31.628089 -0.085659 -1.169190 54.229117 12.943665 -2.390535 3.315486 18.117671 1.321365 0.000000 0.000000 0.000000 
-0.093620 0.941116 0.924489 2.085209 -9.150116 -4.514490 -5.452085 -0.991173 -6.860060 -4.893983 1.373188 20.162146 -1.387377 -3.135834 -0.384077 0.000000 0.000000 0.000000 -0.585033 0.197885 -1.962850 2.573304 1.025132 26.600734 -2.586318 -3.593243 -5.064708 0.000000 0.000000 0.000000 5.459640 -1.233785 17.508516 -5.667037 1.865746 -24.155513 -3.463447 9.418453 29.043879 7.697529 -0.161404 -43.020591 0.000000 0.000000 0.000000 -24.885509 -14.461724 6.134796 -48.211752 -18.737658 -0.501325 -0.576650 -18.007799 0.826646 0.000000 0.000000 0.000000 30.637695 1.058643 0.291858 55.033215 15.156994 -1.537472 0.377197 16.037336 0.806623 0.000000 0.000000 0.000000 
-0.112231 0.928792 0.947128 3.084585 -8.200778 -5.252908 -7.139473 -1.566469 -10.039285 -4.357398 1.626331 28.864659 -2.685987 -7.283536 -2.881815 0.000000 0.000000 0.000000 -0.574524 0.743201 -7.642560 5.142762 0.739492 38.041170 -7.484641 -16.697326 -6.831347 0.000000 0.000000 0.000000 4.428223 -1.211821 19.941134 -3.851136 1.419033 -23.634513 -3.807895 10.463994 29.879957 5.905914 1.035619 -46.487618 0.000000 0.000000 0.000000 -23.505370 -15.255829 6.024877 -47.709551 -21.435926 0.599752 4.785140 -23.796807 -0.008730 0.000000 0.000000 0.000000 27.794065 4.526742 3.262147 54.692794 19.149069 0.164848 -1.311782 16.834628 0.641848 0.000000 0.000000 0.000000 
-0.145255 0.924128 0.967584 3.941271 -8.917770 -4.508739 -9.193525 -2.266638 -13.461960 -1.946760 1.014704 34.337336 -1.936628 -6.690028 -5.078389 0.000000 0.000000 0.000000 -0.436484 1.452375 -13.998532 6.330784 0.740705 44.497337 -8.416857 -19.244672 -7.965836 0.000000 0.000000 0.000000 4.318842 -1.173296 20.157009 -4.903431 1.692029 -22.332864 -2.202858 11.437922 28.766494 1.297384 2.774828 -46.544254 0.000000 0.000000 0.000000 -19.939485 -12.879473 4.403818 -48.397444 -23.757591 1.660148 7.412327 -27.279853 -0.668977 0.000000 0.000000 0.000000 19.275170 8.344497 5.030542 56.508854 24.676075 3.657333 -6.846145 15.906192 -0.014222 0.000000 0.000000 0.000000 
-0.197084 0.933344 0.990800 4.573398 -11.327858 -3.943612 -8.379221 -2.256599 -14.264017 -2.547041 1.777906 35.593066 -0.108829 -2.395021 -5.704793 0.000000 0.000000 0.000000 -0.794239 2.003849 -18.444017 5.949204 1.457231 44.555400 -7.184229 -16.977333 -2.061571 0.000000 0.000000 0.000000 4.198901 -1.108856 21.831045 -3.967375 1.410653 -25.769604 -1.763919 14.541616 29.365481 -2.346912 4.300879 -44.095869 0.000000 0.000000 0.000000 -17.863334 -11.023953 3.087021 -44.193622 -21.323565 0.365277 9.466260 -32.243043 -1.576691 0.000000 0.000000 0.000000 15.949860 11.678166 6.704468 49.921372 28.755575 4.514236 -6.792133 18.222673 -0.067178 0.000000 0.000000 0.000000 
-0.267072 0.943946 1.014011 4.544305 -14.086024 -1.756793 -6.095810 -2.489150 -19.967098 -2.375175 2.404589 38.667695 1.897935 3.769678 -0.966167 0.000000 0.000000 0.000000 0.265408 2.211849 -18.660443 1.849845 2.741280 35.403535 -7.645458 -17.225170 -4.470221 0.000000 0.000000 0.000000 5.912817 -1.300458 20.848427 -5.102317 1.649516 -26.091303 -2.544135 19.301277 28.132716 -0.273848 3.962898 -42.348266 0.000000 0.000000 0.000000 -10.706293 -8.513914 1.724047 -38.732124 -18.586284 -0.654980 8.552595 -32.948027 -1.857968 0.000000 0.000000 0.000000 10.568662 16.150220 8.223472 36.141559 32.031376 3.759339 -7.982256 22.695818 -0.444374 0.000000 0.000000 0.000000 
-0.349863 0.943205 1.032818 6.767820 -15.912609 -2.524684 -8.834148 -3.333980 -23.998307 -4.807339 4.373692 41.121639 4.634960 9.479500 -1.334627 0.000000 0.000000 0.000000 2.793282 2.133167 -16.256053 -1.027542 3.988297 34.127460 -8.120119 -17.654790 -5.543172 0.000000 0.000000 0.000000 2.556335 -0.558019 23.717194 -2.141874 1.067424 -28.794555 -3.714328 24.526780 28.399317 2.526702 3.502012 -42.622035 0.000000 0.000000 0.000000 -9.524479 -9.734104 1.769874 -28.027924 -12.855434 -1.596221 12.573274 -28.449817 -3.114239 0.000000 0.000000 0.000000 2.273807 19.173224 7.473059 19.682823 35.860757 2.130280 -9.992445 19.307213 -0.799428 0.000000 0.000000 0.000000 
-0.442958 0.936269 1.049297 7.563369 -20.268777 -3.375585 -10.168742 -3.739432 -28.391017 -6.735235 6.533254 42.173853 6.226520 12.775800 1.001958 0.000000 0.000000 0.000000 5.972212 2.235378 -14.888991 -1.536052 4.874146 34.876224 -7.757901 -15.765436 -6.294287 0.000000 0.000000 0.000000 -0.697416 0.546087 25.986346 -2.807152 1.017169 -26.285787 -4.638496 26.952658 23.975956 7.142757 1.665185 -40.715703 0.000000 0.000000 0.000000 -8.035660 -8.087269 1.177819 -18.475081 -7.939722 -1.429222 14.595703 -19.266499 -2.522645 0.000000 0.000000 0.000000 -5.886920 20.684591 5.572940 -0.054836 37.524033 -1.312828 -9.091744 14.542011 -0.486558 0.000000 0.000000 0.000000 
-0.543304 0.918504 1.065763 6.972778 -20.674826 -3.849635 -12.346999 -4.247698 -28.954837 -5.031142 4.943840 38.804756 3.092743 6.363562 -0.021466 0.000000 0.000000 0.000000 9.645338 2.989763 -16.122355 3.035128 3.859030 39.258456 -8.041103 -16.402839 -7.360528 0.000000 0.000000 0.000000 -4.422448 1.743063 28.001176 -2.564424 0.993813 -27.051124 -3.336747 25.523543 24.719887 9.184292 0.212439 -37.122538 0.000000 0.000000 0.000000 -9.023076 -8.455000 1.417113 -8.512029 -1.435067 -0.943338 14.990068 -6.458268 -0.934871 0.000000 0.000000 0.000000 -15.343233 20.501239 2.883517 -13.967343 34.816955 -3.617957 -8.432260 8.119262 -0.136240 0.000000 0.000000 0.000000 
-0.645013 0.897832 1.084068 4.890115 -22.470777 -5.568259 -11.160461 -3.734952 -26.871310 -3.023875 4.417198 39.746528 2.223507 4.435886 -1.129175 0.000000 0.000000 0.000000 13.017543 4.166541 -18.143485 8.856972 3.147854 50.171684 -7.619477 -17.238464 -3.497554 0.000000 0.000000 0.000000 -6.094388 3.021862 32.696916 -2.891132 1.141890 -29.512174 -2.890637 24.470922 27.471908 13.486251 -2.024720 -38.403579 0.000000 0.000000 0.000000 -6.463028 -7.171794 1.538485 -2.341119 6.053573 -0.097699 9.718873 -1.353712 -0.185771 0.000000 0.000000 0.000000 -15.399862 14.114207 1.309472 -27.639446 31.376522 -5.085155 -10.282925 2.583009 0.085929 0.000000 0.000000 0.000000 
-0.742409 0.879469 1.103496 2.583104 -19.851786 -6.364510 -8.944391 -3.286242 -25.059069 -0.980830 3.471217 43.895973 3.257090 5.687307 -7.380279 0.000000 0.000000 0.000000 9.386078 5.310491 -24.647811 17.466183 -1.962723 56.268595 -12.087331 -29.212390 -5.458960 0.000000 0.000000 0.000000 -5.956412 3.149288 36.304295 -4.753962 1.488900 -29.029003 -4.240448 19.583655 26.363966 15.547024 -4.269868 -34.470273 0.000000 0.000000 0.000000 -2.276441 -6.711292 2.034907 2.117145 10.500352 0.943304 6.723118 5.483436 0.082029 0.000000 0.000000 0.000000 -13.856523 9.130303 0.914007 -28.184342 22.070525 -2.573789 -13.387271 0.047238 0.312312 0.000000 0.000000 0.000000 
-0.834898 0.869695 1.122538 1.778808 -18.956743 -7.323088 -4.616103 -2.240918 -22.279097 -1.521554 3.957024 45.873877 4.590705 8.129559 -13.497931 0.000000 0.000000 0.000000 4.117352 5.541131 -30.247552 19.437869 -3.599708 57.217643 -13.472247 -33.819316 -7.928815 0.000000 0.000000 0.000000 -7.309692 3.906230 38.953088 -3.818474 1.329422 -30.620431 -4.694552 16.529157 28.466807 16.839469 -5.791581 -33.191093 0.000000 0.000000 0.000000 -2.232308 -5.884170 1.877837 6.729387 14.784186 2.426256 4.016033 4.971080 -0.010126 0.000000 0.000000 0.000000 -9.841375 5.658333 0.765591 -27.923415 16.504963 -0.959823 -15.979236 -0.068177 0.311163 0.000000 0.000000 0.000000 
-0.924794 0.866454 1.141535 -1.264236 -18.617947 -6.475965 3.727237 -0.354905 -20.920431 -1.534852 3.939487 47.624153 4.545962 7.018804 -17.095863 0.000000 0.000000 0.000000 -0.351980 5.384955 -34.721167 19.158408 -3.797170 50.705146 -14.285814 -36.238082 -8.348029 0.000000 0.000000 0.000000 -7.210606 3.925849 40.303138 -4.443912 1.408458 -29.337216 -3.533493 13.738999 26.838559 17.126368 -6.634385 -31.211944 0.000000 0.000000 0.000000 0.927704 -4.153511 1.460195 5.711459 15.718913 2.281337 5.753671 4.579056 0.058337 0.000000 0.000000 0.000000 -5.658751 4.747430 1.127253 -24.451763 12.547815 -0.042070 -17.981668 0.758214 0.192889 0.000000 0.000000 0.000000 
-1.013749 0.870337 1.160281 -3.004952 -15.679463 -5.649719 9.594363 0.777957 -19.005946 -2.524837 3.318077 45.455493 3.764588 4.140692 -16.535509 0.000000 0.000000 0.000000 -6.328549 3.758217 -36.542225 16.328220 -3.165252 44.148427 -15.537422 -36.276403 0.289337 0.000000 0.000000 0.000000 -8.081982 3.813315 40.818547 -2.381299 0.991648 -28.651464 -3.213170 11.083648 27.392628 17.083348 -6.880981 -31.024882 0.000000 0.000000 0.000000 0.364484 -2.501799 0.877986 7.795399 15.018003 2.863815 5.817686 2.823337 0.039393 0.000000 0.000000 0.000000 -0.595817 4.973756 1.592548 -19.849628 12.739346 -0.261349 -22.301485 1.287914 0.060370 0.000000 0.000000 0.000000 
-1.101694 0.870939 1.178449 -4.898770 -15.457544 -3.860208 17.000036 2.354874 -17.883462 -4.414005 4.130320 45.164890 3.523292 3.462538 -15.427977 0.000000 0.000000 0.000000 -10.711316 2.770133 -38.481800 12.550637 -1.698202 37.910652 -14.636749 -32.560271 10.615555 0.000000 0.000000 0.000000 -7.754745 3.491430 40.039870 -2.812251 1.032411 -26.887055 -1.914756 11.105695 26.241164 15.400803 -6.035647 -29.724715 0.000000 0.000000 0.000000 2.643141 -3.665047 1.349191 6.384357 13.054582 2.275727 8.400918 1.383447 0.028436 0.000000 0.000000 0.000000 4.905474 5.265733 2.052571 -14.123658 13.934217 -0.630622 -24.554270 3.028098 -0.232303 0.000000 0.000000 0.000000 
-1.188902 0.867904 1.196446 -5.794080 -15.457653 -2.723590 21.559781 3.502971 -18.259258 -5.146699 4.618371 46.213834 3.488029 4.389266 -11.723500 0.000000 0.000000 0.000000 -13.774878 1.930268 -37.878661 7.797151 -0.057724 32.162714 -9.748060 -24.544259 17.963850 0.000000 0.000000 0.000000 -7.921279 3.477176 39.256283 -0.730733 0.564343 -26.803546 -1.963118 13.007322 26.319950 15.510129 -5.807975 -29.735765 0.000000 0.000000 0.000000 1.362291 -4.911794 1.717240 6.326583 7.801240 1.719522 14.281053 -1.167613 -0.256414 0.000000 0.000000 0.000000 11.908937 6.862697 3.505476 -10.303723 15.648446 -0.946353 -27.636924 7.122228 -1.140272 0.000000 0.000000 0.000000 
-1.274696 0.857606 1.212532 -6.001179 -13.767521 -1.299544 24.027589 4.440857 -21.728670 -1.527836 2.233375 49.758356 1.345614 -0.467553 -8.930916 0.000000 0.000000 0.000000 -17.578768 0.695866 -37.438417 3.465344 1.104083 29.445573 -1.717046 -13.150208 24.563263 0.000000 0.000000 0.000000 -7.410905 2.904031 38.399798 -0.081054 0.390290 -25.866460 -1.666847 13.247360 25.179462 15.104450 -5.274674 -29.971537 0.000000 0.000000 0.000000 -0.969983 -8.052538 2.646236 5.114426 1.496785 0.849658 18.975877 -5.094940 -0.982405 0.000000 0.000000 0.000000 20.408590 6.132964 4.198730 -5.275751 21.684950 -1.878340 -26.954443 10.766585 -1.795970 0.000000 0.000000 0.000000 
-1.356247 0.843788 1.224675 -6.583434 -13.066341 -0.411686 27.010600 5.567790 -23.816224 0.572846 0.800333 53.242299 1.682701 2.186761 -3.930692 0.000000 0.000000 0.000000 -18.649435 0.347589 -38.333731 3.768310 1.218979 33.564243 1.873988 -7.515899 24.522805 0.000000 0.000000 0.000000 -5.954496 2.292818 38.786414 0.551509 0.343353 -27.540545 -1.230968 11.845026 26.313388 13.924397 -5.141569 -28.929130 0.000000 0.000000 0.000000 -8.462306 -10.413655 3.482583 5.210589 -4.940569 0.215832 23.907407 -10.828473 -2.373727 0.000000 0.000000 0.000000 28.080198 9.318462 6.589005 2.072795 24.240008 -1.898973 -28.290374 16.831194 -3.253588 0.000000 0.000000 0.000000 
-1.430469 0.829138 1.230156 -6.184953 -12.289848 -0.607277 25.096896 5.546792 -27.343133 2.223333 -0.390121 58.663436 3.194678 4.845888 -6.141976 0.000000 0.000000 0.000000 -19.723156 -0.090060 -38.096930 8.052964 -0.378627 39.094452 1.803060 -5.025276 17.822267 0.000000 0.000000 0.000000 -3.971955 1.668372 41.816237 -0.921289 0.685627 -28.401398 -1.197496 9.814043 25.376802 13.978958 -4.813707 -31.757804 0.000000 0.000000 0.000000 -13.008032 -17.801961 7.054932 2.783018 -7.213673 -0.215167 28.094147 -16.507173 -4.082734 0.000000 0.000000 0.000000 34.900598 9.438474 6.632655 8.523381 25.911688 -1.455756 -26.757987 21.449542 -3.932532 0.000000 0.000000 0.000000 
-1.496342 0.817715 1.232485 -6.479910 -10.319624 -1.016213 23.822911 5.339239 -30.463921 -0.028791 0.663109 62.073793 3.974392 3.965547 -13.607655 0.000000 0.000000 0.000000 -20.532954 -0.713511 -38.745223 11.175900 -2.165735 45.515942 0.501579 -4.911367 12.309851 0.000000 0.000000 0.000000 -0.945311 0.218060 44.433066 -1.937052 0.905094 -28.017479 -2.793335 7.199146 24.136049 14.404169 -5.403496 -31.084513 0.000000 0.000000 0.000000 -16.226901 -22.582511 9.941652 1.334956 -14.214589 -0.879819 31.824211 -20.230474 -5.580247 0.000000 0.000000 0.000000 40.235596 11.204844 7.515683 16.493922 24.095929 -0.718615 -27.209635 25.248059 -4.726412 0.000000 0.000000 0.000000 
-1.558104 0.815008 1.234511 -6.280669 -8.906527 -0.930920 24.222610 5.325632 -31.231470 -0.044637 0.115512 58.829531 5.907012 10.574965 -8.728926 0.000000 0.000000 0.000000 -20.518720 -0.954629 -38.173426 12.577347 -3.235995 47.671016 -0.640978 -5.428462 8.052767 0.000000 0.000000 0.000000 0.146655 -0.467164 45.975891 -1.104145 0.719210 -26.811771 -3.670887 5.428572 23.989155 13.126320 -4.656539 -32.183506 0.000000 0.000000 0.000000 -19.157057 -29.480403 14.321043 -2.482980 -18.983026 -1.176752 35.023283 -24.575348 -7.360900 0.000000 0.000000 0.000000 42.647549 11.851737 7.569623 24.291762 22.268725 -0.237473 -25.568134 29.759843 -5.153371 0.000000 0.000000 0.000000 
-1.618862 0.816106 1.237690 -6.323391 -7.975317 -0.665722 26.379262 5.696975 -30.543078 0.578647 -0.663954 54.976673 5.217975 10.013476 -3.753035 0.000000 0.000000 0.000000 -18.956588 -0.675848 -37.737780 13.369333 -3.911188 48.910732 -2.676482 -8.385913 4.032335 0.000000 0.000000 0.000000 1.393063 -1.184355 46.722859 -1.264196 0.761947 -26.029254 -5.757434 2.775636 24.258958 11.663145 -4.020783 -33.260209 0.000000 0.000000 0.000000 -19.742235 -32.012232 16.433972 -6.083086 -26.868746 -1.268289 36.910711 -27.296226 -8.457243 0.000000 0.000000 0.000000 43.218899 13.211328 7.468970 31.804791 18.840229 -0.180645 -19.548849 34.646102 -4.314501 0.000000 0.000000 0.000000 
-1.679382 0.822262 1.241664 -6.061680 -8.645331 0.881394 28.718081 5.938059 -27.743712 0.849604 -0.639441 46.400930 6.169368 12.748127 0.752737 0.000000 0.000000 0.000000 -17.746754 -0.161606 -38.155512 15.077063 -4.716125 48.968566 -3.023820 -7.620568 -0.564793 0.000000 0.000000 0.000000 1.853772 -1.229958 46.270941 -2.693704 1.054513 -24.493607 -6.493845 0.761709 22.953032 11.466479 -4.266496 -32.540002 0.000000 0.000000 0.000000 -22.832943 -35.462541 20.169853 -8.288349 -30.553798 -1.068355 33.523200 -27.566436 -7.440072 0.000000 0.000000 0.000000 43.048091 13.307583 6.105129 39.471597 15.660895 -0.225355 -11.943650 39.106481 -2.413866 0.000000 0.000000 0.000000 
-1.735586 0.831696 1.246186 -5.407602 -6.977662 2.706732 30.625615 5.530955 -25.383440 1.185946 -0.989839 37.802080 5.774362 12.769227 6.668077 0.000000 0.000000 0.000000 -16.765451 -0.100961 -38.059585 15.748384 -5.387978 47.682001 -4.137567 -10.188978 -1.534531 0.000000 0.000000 0.000000 3.146430 -2.059115 44.468887 -3.894707 1.383386 -23.580168 -7.847615 -2.127017 23.423122 9.691875 -3.148813 -35.870761 0.000000 0.000000 0.000000 -25.266418 -34.239841 21.200351 -11.250629 -34.339159 -0.703943 29.432227 -28.355719 -6.431852 0.000000 0.000000 0.000000 41.961283 13.570537 4.888811 44.647945 12.389554 -0.793672 -6.004721 40.768028 -0.538913 0.000000 0.000000 0.000000 
-1.783304 0.847227 1.250872 -5.298416 -5.729055 5.304859 32.707543 5.350875 -23.981236 1.458102 -1.083028 31.124757 5.479368 13.281322 15.363615 0.000000 0.000000 0.000000 -15.524557 0.130826 -38.213726 16.041148 -5.598963 44.929192 -5.274416 -13.265544 -1.206606 0.000000 0.000000 0.000000 4.189993 -2.626964 41.801335 -5.353840 1.745341 -23.397452 -7.898435 -3.407937 23.588270 7.155026 -2.275529 -34.377206 0.000000 0.000000 0.000000 -29.015407 -32.612521 22.082460 -14.928490 -33.622795 -0.313694 21.493235 -29.756410 -4.572094 0.000000 0.000000 0.000000 39.639404 12.287576 3.308088 46.966826 12.632100 -0.584572 1.973560 41.706448 2.275187 0.000000 0.000000 0.000000 
-1.820728 0.868317 1.256629 -4.211807 -4.034037 6.481895 30.241890 4.552851 -25.065988 0.572529 -0.807942 28.941745 7.251538 16.184426 17.865040 0.000000 0.000000 0.000000 -12.811266 0.640660 -36.522218 13.117997 -4.205745 42.435563 -5.318470 -13.516013 -0.445842 0.000000 0.000000 0.000000 4.916862 -3.044786 39.402722 -6.082624 1.961549 -22.928105 -7.458622 -3.110659 23.604165 4.651045 -0.735585 -36.175839 0.000000 0.000000 0.000000 -32.007545 -30.759092 21.626833 -20.255411 -31.198430 0.217646 15.098884 -29.894991 -2.848735 0.000000 0.000000 0.000000 37.425293 11.028643 2.911264 46.842884 12.989419 -0.668842 4.365089 45.169264 3.526535 0.000000 0.000000 0.000000 
-1.849093 0.889027 1.264616 -2.665347 -1.757727 6.720970 25.001317 3.378750 -28.192532 -3.491100 0.583729 31.649152 9.395047 19.418237 12.156053 0.000000 0.000000 0.000000 -11.123279 0.727655 -33.074819 10.058432 -2.906209 38.998705 -5.439069 -13.353837 -2.418698 0.000000 0.000000 0.000000 5.077095 -3.242233 37.076515 -5.078197 1.716799 -25.102453 -7.984725 -1.343959 25.840174 6.287430 -1.247131 -35.287276 0.000000 0.000000 0.000000 -34.474938 -28.439501 19.649316 -26.237163 -27.160085 0.322145 7.499113 -28.691059 -0.782271 0.000000 0.000000 0.000000 35.881439 8.955532 2.911531 45.460994 14.914012 -0.703873 6.894480 45.174362 4.861726 0.000000 0.000000 0.000000 
-1.870403 0.909531 1.275118 -1.993391 1.144535 6.710162 19.431057 1.901039 -31.573193 -5.981997 1.312577 34.584598 9.637370 20.058608 9.679594 0.000000 0.000000 0.000000 -10.118125 0.605587 -28.597273 7.706806 -2.096580 34.752417 -4.970390 -12.417666 -0.761733 0.000000 0.000000 0.000000 5.830601 -3.562083 33.928279 -5.683872 1.907600 -24.644939 -7.051726 -0.282412 25.585043 5.286303 -0.536035 -33.780816 0.000000 0.000000 0.000000 -35.654817 -25.446770 16.522806 -31.746196 -21.233907 -0.257326 1.924659 -26.360380 0.601519 0.000000 0.000000 0.000000 33.793601 6.966057 2.733732 44.340261 15.864454 -0.766724 8.624106 44.852754 5.730615 0.000000 0.000000 0.000000 
-1.886549 0.926617 1.288692 -1.166342 3.730422 6.530611 14.709307 0.414164 -33.453093 -9.799667 2.602296 35.549589 9.945737 20.753540 8.517430 0.000000 0.000000 0.000000 -9.685658 0.462136 -23.158944 5.763913 -1.438890 29.984394 -4.718761 -11.891326 -0.009561 0.000000 0.000000 0.000000 5.466173 -3.482344 31.954881 -5.311935 1.819081 -26.107687 -6.438476 2.220730 26.977888 5.647061 -0.063004 -34.385258 0.000000 0.000000 0.000000 -36.006435 -22.406913 12.320756 -34.385343 -14.555515 -1.432237 -3.491262 -26.161931 1.811075 0.000000 0.000000 0.000000 31.651746 4.744587 2.976152 42.985781 17.938413 -0.737140 9.745857 44.364218 6.500767 0.000000 0.000000 0.000000 
-1.898645 0.939301 1.304051 -0.643844 7.320089 5.669201 11.700474 -0.805437 -33.633590 -12.957143 3.110215 31.038635 10.188972 21.410726 9.448476 0.000000 0.000000 0.000000 -9.323525 0.301610 -17.580118 4.774287 -1.273499 25.809191 -4.448821 -11.255552 0.279289 0.000000 0.000000 0.000000 5.733107 -3.576688 29.617109 -6.517588 2.114284 -26.095230 -4.631005 4.595371 27.331184 5.081802 0.827634 -33.550464 0.000000 0.000000 0.000000 -34.048941 -20.146340 8.066015 -37.920641 -8.395315 -2.619801 -6.446828 -25.419013 2.317991 0.000000 0.000000 0.000000 30.217103 2.036105 2.939222 42.669596 19.619482 -0.707814 7.774624 43.066797 5.983367 0.000000 0.000000 0.000000 
-1.907113 0.944731 1.321069 -0.293980 10.511568 4.424283 10.164716 -1.477662 -32.511272 -13.993648 2.703396 24.297028 11.003089 22.918037 13.260492 0.000000 0.000000 0.000000 -9.279598 0.160819 -11.117592 4.346893 -1.114760 20.123161 -4.636021 -11.895031 1.823896 0.000000 0.000000 0.000000 4.816901 -3.410638 28.703499 -6.634203 2.156521 -26.457725 -3.808948 6.922503 27.763414 7.170110 0.350084 -32.565094 0.000000 0.000000 0.000000 -31.669037 -18.242792 4.492065 -38.770034 -4.165701 -3.389728 -7.795989 -24.519606 2.359135 0.000000 0.000000 0.000000 29.555950 0.880217 3.866183 43.587165 21.625816 -0.444058 5.095642 41.120528 5.109535 0.000000 0.000000 0.000000 
-1.910688 0.946173 1.338908 -0.200621 13.902896 3.688843 8.228532 -2.132981 -31.075374 -11.261936 1.473227 17.366722 10.975525 23.236339 16.092888 0.000000 0.000000 0.000000 -8.656411 0.057338 -5.836812 4.478440 -1.135821 15.942779 -4.991732 -12.824531 1.327962 0.000000 0.000000 0.000000 3.950114 -3.158056 27.078468 -7.030618 2.286793 -26.222260 -2.253563 10.046818 27.682791 8.687478 0.485126 -33.244687 0.000000 0.000000 0.000000 -29.191674 -17.341779 1.572671 -40.314769 -0.191057 -4.185583 -7.042659 -23.251665 1.870010 0.000000 0.000000 0.000000 30.121606 -0.192589 5.205895 42.726323 23.209966 -0.519940 0.802603 38.251905 3.466852 0.000000 0.000000 0.000000 
-1.908238 0.944356 1.358567 -0.724188 18.200420 2.987282 6.280780 -2.673520 -29.248123 -8.703982 0.723129 12.332736 10.688333 23.216024 15.937882 0.000000 0.000000 0.000000 -7.733626 -0.156216 -0.420732 4.450813 -1.099038 12.110738 -5.548665 -14.262300 2.788038 0.000000 0.000000 0.000000 3.819837 -3.157707 25.573434 -7.393755 2.348401 -26.629926 -1.362493 11.836049 28.504522 10.087907 0.680856 -34.933134 0.000000 0.000000 0.000000 -26.898946 -15.836812 -1.010901 -40.339457 0.624659 -4.111053 -5.841723 -22.515573 1.363247 0.000000 0.000000 0.000000 30.731986 -1.640040 6.077336 42.686358 24.898355 -0.513567 0.367272 34.489271 3.019156 0.000000 0.000000 0.000000 
-1.898511 0.940810 1.380670 -1.284800 20.620252 2.495635 6.507794 -2.509673 -27.136801 -8.323292 0.580453 8.646467 12.151477 25.245790 18.158522 0.000000 0.000000 0.000000 -6.340024 -0.361089 2.967335 4.408133 -1.079505 10.484436 -6.804589 -17.327792 3.661133 0.000000 0.000000 0.000000 4.208780 -3.020196 23.470451 -8.373772 2.533615 -26.622246 -0.369156 13.783033 29.315415 9.918132 1.393057 -35.466397 0.000000 0.000000 0.000000 -25.293118 -14.229916 -3.113645 -40.812431 1.911991 -4.384013 -5.640100 -23.273453 1.136760 0.000000 0.000000 0.000000 30.361541 -2.178807 6.930522 43.130834 26.089086 -0.285755 -0.118719 32.958461 2.756185 0.000000 0.000000 0.000000 
-1.881689 0.937369 1.405982 -1.791555 24.199789 1.851880 5.608423 -2.502813 -24.716314 -8.602702 0.473693 6.767621 13.739216 27.159570 19.371078 0.000000 0.000000 0.000000 -5.454141 -0.746076 6.571600 4.235651 -1.127628 10.037860 -6.948660 -17.455785 5.440860 0.000000 0.000000 0.000000 3.447979 -2.604747 21.234972 -7.993600 2.579257 -25.592403 0.396474 15.753080 29.059934 10.368319 1.909496 -35.989020 0.000000 0.000000 0.000000 -23.769464 -13.468816 -4.892322 -41.202437 2.495613 -4.304932 -5.157292 -23.282928 0.772281 0.000000 0.000000 0.000000 31.244030 -2.577276 8.570750 42.922492 26.984821 -0.460605 -1.439181 31.775252 2.285125 0.000000 0.000000 0.000000 
-1.857245 0.935641 1.434294 -2.082984 27.712993 0.853978 4.575503 -2.512969 -22.984201 -9.619729 0.426850 8.290185 14.885318 28.391644 21.423416 0.000000 0.000000 0.000000 -5.029091 -1.241976 9.951932 4.272745 -1.340673 11.118160 -6.795195 -16.438985 8.574072 0.000000 0.000000 0.000000 2.953028 -2.073392 18.113517 -8.361900 2.778348 -24.327663 0.989995 16.729316 28.906600 12.096787 1.539892 -35.632289 0.000000 0.000000 0.000000 -22.273694 -13.813739 -5.532595 -41.533531 4.021145 -4.662619 -5.864051 -22.414720 0.703518 0.000000 0.000000 0.000000 32.105893 -3.808664 9.291789 43.398103 27.481867 -0.652676 0.346513 31.433380 2.763334 0.000000 0.000000 0.000000 
-1.826159 0.936863 1.463445 -2.782951 31.923969 -0.328421 3.178462 -2.477884 -21.085875 -9.903460 0.261971 9.798828 14.094522 27.478202 19.950295 0.000000 0.000000 0.000000 -5.353133 -1.378662 9.964822 5.478317 -2.888567 18.340327 -6.877878 -15.482235 12.713436 0.000000 0.000000 0.000000 2.076151 -1.710981 16.255318 -7.829814 2.672471 -24.556124 1.531734 16.676777 29.762414 11.496748 2.315244 -35.829082 0.000000 0.000000 0.000000 -21.974360 -12.767972 -7.197575 -41.391685 4.539403 -4.602644 -6.615052 -22.262229 0.674985 0.000000 0.000000 0.000000 31.860981 -4.139041 10.229741 45.545122 27.403173 -0.643060 1.290192 30.294138 2.911216 0.000000 0.000000 0.000000 
-1.791042 0.938143 1.490556 -3.100790 36.606122 -1.014572 1.266831 -2.262854 -18.442839 -10.248643 0.042813 11.104131 13.480670 26.363684 16.635031 0.000000 0.000000 0.000000 -6.259448 -1.096645 6.307572 4.588762 -5.981040 31.108001 -4.859472 -10.573052 17.930660 0.000000 0.000000 0.000000 1.416299 -1.591917 15.608390 -7.738677 2.618748 -24.930611 1.884693 15.150200 30.023402 11.054252 2.735536 -35.688603 0.000000 0.000000 0.000000 -21.529616 -12.405326 -7.883417 -41.852608 4.535164 -4.598365 -8.449189 -20.525251 0.892181 0.000000 0.000000 0.000000 32.587779 -4.715581 10.809129 46.297929 26.628295 -1.185033 2.695031 31.152548 3.448323 0.000000 0.000000 0.000000 
-1.755863 0.940389 1.514537 -3.680811 42.015119 -1.912789 -0.294517 -1.841802 -15.380342 -10.236751 -0.260453 12.132484 11.160703 22.500315 11.413309 0.000000 0.000000 0.000000 -6.005793 -0.709833 0.183533 -0.055927 -9.729211 45.925985 -0.316334 -2.726916 18.014347 0.000000 0.000000 0.000000 1.735753 -1.771513 15.759436 -7.863751 2.634379 -24.798371 1.506875 12.425220 29.149505 8.807186 3.857708 -35.146980 0.000000 0.000000 0.000000 -22.742001 -11.927179 -9.062869 -40.732506 4.405692 -4.068421 -10.556043 -19.043156 1.195342 0.000000 0.000000 0.000000 32.784021 -4.998740 11.025012 48.143064 25.480498 -1.468682 3.384808 31.346796 3.745425 0.000000 0.000000 0.000000 
-1.721255 0.943286 1.535560 -4.847923 48.149725 -3.747294 -1.935169 -1.133954 -11.010795 -8.135798 -0.576968 11.505705 8.420206 17.812919 8.988631 0.000000 0.000000 0.000000 -5.052557 -0.566086 -4.652367 -6.284390 -11.711746 55.577518 1.760351 1.068119 15.471594 0.000000 0.000000 0.000000 2.821037 -2.191310 16.348570 -7.864378 2.715868 -24.024765 0.618542 9.457460 28.678376 7.436391 4.677750 -36.022847 0.000000 0.000000 0.000000 -23.648864 -11.584542 -10.260612 -40.242671 4.224101 -3.612210 -9.982865 -17.977360 1.043832 0.000000 0.000000 0.000000 31.662489 -5.238815 10.806089 50.104125 24.610912 -1.260369 3.702883 30.943356 3.813350 0.000000 0.000000 0.000000 
-1.686424 0.947772 1.554467 -6.590525 54.304166 -5.428140 -2.793645 -0.500484 -6.873103 -6.035328 -0.712370 9.930798 5.313372 12.275664 6.801914 0.000000 0.000000 0.000000 -3.293536 -0.498997 -10.128253 -11.977928 -12.070240 59.964985 3.230416 4.305397 12.989129 0.000000 0.000000 0.000000 3.805138 -2.407884 15.938298 -7.738455 2.557050 -24.598828 0.640017 6.558261 29.980296 6.592499 5.360769 -35.874218 0.000000 0.000000 0.000000 -24.851480 -12.899944 -11.259770 -39.912196 3.811302 -2.972418 -9.872479 -17.747235 0.980375 0.000000 0.000000 0.000000 31.154082 -6.113552 10.735884 51.288015 24.060245 -1.417288 3.765987 30.563879 3.856927 0.000000 0.000000 0.000000 
-1.650955 0.951756 1.572134 -9.139356 60.851381 -7.664416 -3.338214 -0.099639 -3.369257 -4.076509 -0.761292 8.521946 3.565014 8.189761 5.032113 0.000000 0.000000 0.000000 -0.996934 -0.640861 -15.296855 -14.520874 -12.206575 58.642394 2.400381 3.548683 11.781636 0.000000 0.000000 0.000000 5.561233 -2.612771 14.907077 -8.135621 2.660904 -23.508407 0.175462 2.947398 29.407529 5.903027 5.766620 -35.325194 0.000000 0.000000 0.000000 -24.929653 -12.945883 -11.855408 -41.253883 2.979239 -2.745307 -9.639806 -17.979978 0.886537 0.000000 0.000000 0.000000 29.733464 -7.364784 9.389883 52.218044 21.429291 -1.906127 5.754376 29.723123 4.268100 0.000000 0.000000 0.000000 
-1.614471 0.954430 1.589333 -11.671095 65.965169 -9.901435 -3.219501 0.061761 0.465746 -2.461593 -0.579360 5.464408 0.678598 4.202399 5.310250 0.000000 0.000000 0.000000 1.243694 -1.113206 -20.257120 -13.641454 -11.012055 51.775440 0.863846 1.721671 10.101775 0.000000 0.000000 0.000000 6.579901 -2.784929 14.329614 -7.808862 2.516392 -23.654007 -0.472670 -0.253770 29.815630 4.781344 6.397854 -36.049364 0.000000 0.000000 0.000000 -25.189031 -13.327187 -12.412434 -41.424605 2.252985 -2.322472 -9.902619 -19.830217 0.910119 0.000000 0.000000 0.000000 28.440771 -8.179207 8.477034 52.753595 19.789124 -2.168778 5.811000 28.211352 3.970828 0.000000 0.000000 0.000000 
-1.576333 0.954722 1.606639 -14.515515 70.324675 -12.424636 -2.235905 -0.169383 3.876852 -2.389698 -0.529519 3.632285 -0.828792 1.057016 4.409539 0.000000 0.000000 0.000000 2.682035 -1.681098 -23.171354 -7.964725 -9.132972 39.528895 -1.812666 -2.816107 6.790888 0.000000 0.000000 0.000000 7.451493 -2.831688 13.497084 -7.707978 2.548937 -22.838237 -0.712313 -2.244749 29.635252 3.976991 6.884193 -37.035644 0.000000 0.000000 0.000000 -25.257548 -14.188763 -12.792751 -41.245508 1.066296 -1.600518 -10.184151 -21.519162 0.907707 0.000000 0.000000 0.000000 28.873480 -9.720429 7.889924 51.763738 17.788651 -3.334918 6.547041 27.990583 4.184269 0.000000 0.000000 0.000000 
-1.535992 0.951750 1.624314 -16.952580 73.619649 -14.472884 -1.274237 -0.713413 7.111235 -2.870532 -0.555653 2.278588 -1.469565 -0.278652 4.139588 0.000000 0.000000 0.000000 3.028868 -2.128461 -24.003595 -1.334238 -6.003054 24.687270 -2.631922 -4.426102 5.886631 0.000000 0.000000 0.000000 8.070643 -2.929823 13.032914 -7.383849 2.446221 -22.882984 -1.518466 -3.658260 29.639570 4.146023 6.953379 -37.136707 0.000000 0.000000 0.000000 -24.333902 -14.430799 -12.678412 -41.227717 0.083498 -1.328188 -12.407509 -22.800061 1.221173 0.000000 0.000000 0.000000 27.806718 -10.202059 7.220166 52.365307 16.108391 -3.427654 6.125855 26.941363 3.806010 0.000000 0.000000 0.000000 
-1.493218 0.947550 1.642449 -16.844154 74.679868 -14.505985 -1.069685 -1.339424 10.484691 -3.349103 -0.560220 1.510180 -1.187117 0.689666 4.754382 0.000000 0.000000 0.000000 4.382488 -1.605567 -23.344456 2.163338 -2.778865 10.768299 -4.462232 -5.725786 10.686182 0.000000 0.000000 0.000000 8.550722 -2.963152 12.682318 -7.907197 2.519917 -22.307404 -0.935699 -3.932640 28.758459 4.456317 6.897006 -36.539119 0.000000 0.000000 0.000000 -24.196393 -15.352918 -12.233648 -41.895734 -0.866571 -1.017303 -11.229216 -23.663689 0.972127 0.000000 0.000000 0.000000 27.548467 -10.531429 6.892399 51.886546 15.533587 -3.629760 6.304313 26.168649 3.672226 0.000000 0.000000 0.000000 
-1.448565 0.941483 1.660208 -14.562687 75.957375 -12.558720 -1.782749 -1.477712 11.621443 -3.114797 -0.625899 4.621423 0.432221 1.408086 3.489973 0.000000 0.000000 0.000000 4.723413 -1.584755 -23.240134 3.116088 -2.205880 6.466988 -4.874139 -6.051878 11.442435 0.000000 0.000000 0.000000 9.027388 -3.197099 12.926956 -9.175709 2.435534 -22.735567 -0.902222 -5.592879 28.700331 4.189354 6.880293 -36.231759 0.000000 0.000000 0.000000 -24.001450 -14.050673 -12.120845 -41.960602 -1.790404 -1.130397 -11.239466 -23.971922 1.065989 0.000000 0.000000 0.000000 27.259511 -10.150147 6.717508 51.475900 16.028427 -3.418318 4.426734 24.817180 2.945207 0.000000 0.000000 0.000000 
-1.401930 0.937002 1.677765 -11.094659 76.344149 -8.747571 -1.181105 -1.633862 11.737371 -5.548618 -0.969136 7.780789 1.913229 4.023306 4.547641 0.000000 0.000000 0.000000 5.607258 -1.362504 -23.285295 2.621192 -2.702515 9.446724 -4.528387 -6.796435 8.383144 0.000000 0.000000 0.000000 9.360637 -3.128674 12.336001 -8.388788 2.479862 -22.282800 -2.228835 -5.782314 28.136784 4.013119 6.866567 -37.300514 0.000000 0.000000 0.000000 -24.587235 -14.233234 -12.373558 -42.631339 -1.725667 -1.021223 -9.152765 -22.774737 0.651285 0.000000 0.000000 0.000000 29.503389 -11.307401 6.879783 47.917783 18.738110 -3.554417 3.122872 22.956461 2.373296 0.000000 0.000000 0.000000 
-1.354109 0.937583 1.696043 -11.178679 75.522558 -8.112016 1.457723 -1.486742 8.343091 -10.435535 -2.183118 16.678720 0.480358 6.062407 8.958369 0.000000 0.000000 0.000000 6.665939 -1.239955 -24.335469 2.062255 -3.925126 14.811751 -3.290836 -5.770716 5.446024 0.000000 0.000000 0.000000 10.191665 -2.880220 10.842750 -8.621916 2.489246 -22.343107 -2.323644 -7.367586 28.353617 3.323157 6.819205 -37.465695 0.000000 0.000000 0.000000 -24.875551 -12.235747 -12.566248 -42.815001 -2.084403 -1.249304 -9.178309 -22.242064 0.733415 0.000000 0.000000 0.000000 29.749781 -10.549613 6.918039 45.491378 19.496256 -3.680815 3.663619 22.905216 2.412034 0.000000 0.000000 0.000000 
-1.306145 0.940519 1.715378 -9.669779 72.959733 -5.867714 4.851683 -1.181630 0.839066 -21.258452 -4.265541 30.147001 5.214894 15.318121 17.021732 0.000000 0.000000 0.000000 8.398490 -0.442482 -23.740819 0.968377 -3.791125 16.350250 -3.419991 -5.689839 6.098635 0.000000 0.000000 0.000000 11.183377 -2.722150 9.418565 -6.996630 2.504256 -22.414981 -4.505573 -5.455557 28.473204 3.763198 6.612219 -37.610261 0.000000 0.000000 0.000000 -24.352744 -12.745612 -11.896592 -42.951914 -0.886584 -1.716226 -9.001208 -22.424916 0.672275 0.000000 0.000000 0.000000 28.887940 -9.275061 7.368341 45.671287 19.759578 -3.047240 3.275862 22.859618 2.274171 0.000000 0.000000 0.000000 
-1.258140 0.941977 1.736119 -7.926572 71.109113 -4.976236 8.587947 -1.662270 -6.457756 -34.561581 -4.367776 41.637321 16.359471 26.797318 25.391819 0.000000 0.000000 0.000000 9.353399 0.596885 -19.921425 0.105994 -3.712887 17.233185 -2.536603 -5.509431 3.221568 0.000000 0.000000 0.000000 11.128876 -2.835940 10.067344 -11.162946 2.532128 -22.749764 -0.607015 -6.745450 27.592060 3.494537 6.370761 -37.494904 0.000000 0.000000 0.000000 -24.263595 -12.334315 -10.547956 -43.512834 0.092048 -2.657090 -8.379949 -22.267253 0.739872 0.000000 0.000000 0.000000 27.632856 -8.717407 6.229332 45.739940 18.704478 -3.037103 5.208018 24.492533 2.944690 0.000000 0.000000 0.000000 
-1.209815 0.942730 1.757829 -6.740215 68.876998 -5.650187 11.358265 -2.320666 -11.905723 -41.346185 -2.929942 46.321771 24.377724 33.994005 28.563448 0.000000 0.000000 0.000000 9.933113 1.284998 -15.200921 -1.015730 -4.076857 19.743076 -1.478698 -5.247803 -0.201776 0.000000 0.000000 0.000000 10.732428 -3.109227 11.699212 -9.188204 2.634424 -22.856516 -2.825832 -5.210938 28.016045 6.579949 5.113256 -36.883164 0.000000 0.000000 0.000000 -23.860594 -12.960026 -9.699813 -42.953285 0.414919 -2.783385 -8.937302 -22.483376 0.884103 0.000000 0.000000 0.000000 28.786680 -8.567723 6.647045 46.247080 20.630802 -2.429561 3.744148 25.027542 2.745810 0.000000 0.000000 0.000000 
-1.161795 0.943320 1.778997 -5.624276 65.991672 -6.127587 13.868231 -2.954721 -16.239151 -42.417798 -1.813083 45.598229 30.287584 39.647918 28.049275 0.000000 0.000000 0.000000 9.517744 1.397081 -9.566592 -0.824975 -4.157496 20.158249 -0.023606 -2.778789 -1.865514 0.000000 0.000000 0.000000 10.184139 -3.232123 12.999669 -9.729357 2.661535 -23.630233 -1.912021 -4.130550 28.251046 6.596952 4.994146 -37.432809 0.000000 0.000000 0.000000 -24.643350 -14.150618 -8.912248 -42.467206 1.029403 -2.850667 -7.573628 -20.885818 0.739068 0.000000 0.000000 0.000000 30.634665 -8.825783 6.895164 45.289763 21.838828 -2.724996 2.624847 25.361054 2.595646 0.000000 0.000000 0.000000 
-1.114805 0.944520 1.798670 -4.000250 62.212858 -5.277869 15.014473 -3.212746 -18.679497 -34.990585 -2.074619 40.782343 26.858365 38.093520 22.148237 0.000000 0.000000 0.000000 8.881422 1.048391 -4.881848 -2.076855 -3.159145 19.741760 1.868150 1.511611 -3.269770 0.000000 0.000000 0.000000 8.828669 -2.892510 13.307977 -9.053906 2.564038 -24.648205 -1.756899 -2.470638 29.414589 9.004510 3.883353 -37.271369 0.000000 0.000000 0.000000 -24.414228 -14.047240 -8.768649 -42.293516 1.700370 -3.101331 -7.839980 -21.413707 0.788783 0.000000 0.000000 0.000000 30.982518 -9.811726 6.294695 47.283160 23.167551 -2.186684 0.826922 27.011453 2.730121 0.000000 0.000000 0.000000 
-1.069080 0.947158 1.816679 -1.522362 57.586940 -3.626648 14.823211 -3.035310 -19.646964 -24.190938 -1.996623 31.784232 20.032661 32.174804 17.233107 0.000000 0.000000 0.000000 7.077559 0.409441 -0.737037 -3.290101 -2.022423 19.097591 3.702201 6.905315 -2.445785 0.000000 0.000000 0.000000 7.434227 -2.704295 14.175623 -8.658609 2.396573 -26.096044 -1.805970 -1.014363 30.284496 10.251584 2.994961 -36.667777 0.000000 0.000000 0.000000 -25.184875 -12.948112 -8.986984 -41.519629 2.995274 -3.511031 -8.600691 -22.573171 1.051769 0.000000 0.000000 0.000000 31.021670 -9.042644 6.371083 49.069727 23.133976 -1.869658 -0.847840 29.918738 2.928628 0.000000 0.000000 0.000000 
-1.024082 0.945867 1.833647 -0.107322 51.596687 -2.473070 14.308194 -2.597511 -19.014297 -13.132773 -1.059638 19.292916 12.093796 24.150372 14.897563 0.000000 0.000000 0.000000 4.830235 -0.363032 3.221565 -4.324826 -0.910708 18.216044 5.148348 11.446074 -3.071136 0.000000 0.000000 0.000000 6.245186 -2.257220 13.802921 -8.543620 2.439168 -26.204679 -1.233658 1.415076 30.511815 10.372704 2.718663 -37.334956 0.000000 0.000000 0.000000 -24.538861 -12.403267 -8.185463 -41.412436 3.281969 -3.946497 -8.193208 -22.739006 1.062032 0.000000 0.000000 0.000000 30.363039 -10.361234 4.523056 51.847854 22.955989 -1.149784 -1.121986 33.927788 3.930754 0.000000 0.000000 0.000000 
-0.978385 0.942468 1.850052 1.002866 47.792937 -0.587487 12.774331 -2.316571 -18.609062 -5.130691 -0.290541 6.591322 3.705942 15.796565 16.154271 0.000000 0.000000 0.000000 3.240180 -0.788664 5.313961 -5.775442 -0.041114 17.542374 5.716101 13.654753 -3.578989 0.000000 0.000000 0.000000 4.750714 -1.657101 12.388119 -7.299008 2.516150 -24.880229 -1.739488 1.983999 29.388481 11.037183 1.819514 -34.503799 0.000000 0.000000 0.000000 -24.107742 -11.812297 -7.613391 -43.485343 3.729216 -4.610279 -5.343515 -23.858549 0.524429 0.000000 0.000000 0.000000 29.183467 -9.274803 4.336176 53.658108 20.890076 -1.219493 -1.002526 36.108732 4.353732 0.000000 0.000000 0.000000 
-0.930190 0.936448 1.865855 -0.020038 42.947602 -1.391107 14.674079 -1.927762 -16.127229 -1.487995 -0.045345 0.063257 -3.103819 8.895759 19.572565 0.000000 0.000000 0.000000 1.759270 -1.087016 6.897545 -6.714253 0.482140 18.550589 6.083176 15.711353 -3.899322 0.000000 0.000000 0.000000 4.358690 -1.229992 10.577648 -7.007006 2.605627 -24.014784 -0.540588 3.112973 30.294684 11.867162 1.211659 -36.275465 0.000000 0.000000 0.000000 -21.586663 -11.080808 -6.040661 -46.858677 1.756236 -5.262211 -5.397188 -22.362043 0.575937 0.000000 0.000000 0.000000 29.805429 -9.781971 3.560203 53.617217 21.909746 -0.998957 -1.661543 36.915876 4.449989 0.000000 0.000000 0.000000 
-0.878681 0.930560 1.880319 1.018062 40.100833 0.203440 12.933927 -1.848647 -17.149890 -2.192574 -0.135828 3.969610 -3.264307 7.743432 18.223890 0.000000 0.000000 0.000000 -2.865119 -1.151723 7.194610 -6.064484 0.142358 21.383476 6.448142 17.771764 -5.679852 0.000000 0.000000 0.000000 4.072028 -1.087456 9.970353 -7.354013 2.823026 -22.569410 -1.124060 4.997808 27.646232 12.355679 0.469772 -32.454766 0.000000 0.000000 0.000000 -21.255184 -11.146645 -5.900899 -47.373430 0.925647 -4.816110 -2.559687 -21.331054 -0.000354 0.000000 0.000000 0.000000 31.906481 -9.282240 4.490633 52.382399 20.946025 -2.030881 -2.069245 35.859706 4.050041 0.000000 0.000000 0.000000 
