HIERARCHY
ROOT Hips
{
	OFFSET -0.001795 -0.223333 0.028219
	CHANNELS 6 Xposition Yposition Zposition Zrotation Yrotation Xrotation 
	JOINT LeftUpLeg
	{
		OFFSET 0.069520 -0.091406 -0.006815
		CHANNELS 3 Zrotation Yrotation Xrotation
		JOINT LeftLeg
		{
			OFFSET 0.034277 -0.375199 -0.004496
			CHANNELS 3 Zrotation Yrotation Xrotation
			JOINT LeftFoot
			{
				OFFSET -0.013596 -0.397961 -0.043693
				CHANNELS 3 Zrotation Yrotation Xrotation
				JOINT LeftToe
				{
					OFFSET 0.026358 -0.055791 0.119288
					CHANNELS 3 Zrotation Yrotation Xrotation
					End Site
					{
						OFFSET 0.000000 0.000000 0.000000
					}
				}
			}
		}
	}
	JOINT RightUpLeg
	{
		OFFSET -0.067670 -0.090522 -0.004320
		CHANNELS 3 Zrotation Yrotation Xrotation
		JOINT RightLeg
		{
			OFFSET -0.038290 -0.382569 -0.008850
			CHANNELS 3 Zrotation Yrotation Xrotation
			JOINT RightFoot
			{
				OFFSET 0.015774 -0.398415 -0.042312
				CHANNELS 3 Zrotation Yrotation Xrotation
				JOINT RightToe
				{
					OFFSET -0.025372 -0.048144 0.123348
					CHANNELS 3 Zrotation Yrotation Xrotation
					End Site
					{
						OFFSET 0.000000 0.000000 0.000000
					}
				}
			}
		}
	}
	JOINT Spine
	{
		OFFSET -0.002533 0.108963 -0.026696
		CHANNELS 3 Zrotation Yrotation Xrotation
		JOINT Spine1
		{
			OFFSET 0.005487 0.135180 0.001092
			CHANNELS 3 Zrotation Yrotation Xrotation
			JOINT Spine2
			{
				OFFSET 0.001457 0.052922 0.025425
				CHANNELS 3 Zrotation Yrotation Xrotation
				JOINT Neck
				{
					OFFSET -0.002778 0.213870 -0.042857
					CHANNELS 3 Zrotation Yrotation Xrotation
					JOINT Head
					{
						OFFSET 0.005152 0.064970 0.051349
						CHANNELS 3 Zrotation Yrotation Xrotation
						End Site
						{
							OFFSET 0.000000 0.000000 0.000000
						}
					}
				}
				JOINT LeftShoulder
				{
					OFFSET 0.078845 0.121749 -0.034090
					CHANNELS 3 Zrotation Yrotation Xrotation
					JOINT LeftArm
					{
						OFFSET 0.090977 0.030469 -0.008868
						CHANNELS 3 Zrotation Yrotation Xrotation
						JOINT LeftForeArm
						{
							OFFSET 0.259612 -0.012772 -0.027456
							CHANNELS 3 Zrotation Yrotation Xrotation
							JOINT LeftHand
							{
								OFFSET 0.249234 0.008986 -0.001171
								CHANNELS 3 Zrotation Yrotation Xrotation
								End Site
								{
									OFFSET 0.000000 0.000000 0.000000
								}
							}
						}
					}
				}
				JOINT RightShoulder
				{
					OFFSET -0.081759 0.118833 -0.038615
					CHANNELS 3 Zrotation Yrotation Xrotation
					JOINT RightArm
					{
						OFFSET -0.096012 0.032551 -0.009143
						CHANNELS 3 Zrotation Yrotation Xrotation
						JOINT RightForeArm
						{
							OFFSET -0.253742 -0.013329 -0.021401
							CHANNELS 3 Zrotation Yrotation Xrotation
							JOINT RightHand
							{
								OFFSET -0.255298 0.007772 -0.005559
								CHANNELS 3 Zrotation Yrotation Xrotation
								End Site
								{
									OFFSET 0.000000 0.000000 0.000000
								}
							}
						}
					}
				}
			}
		}
	}
}
MOTION
Frames: 140
Frame Time: 0.050000
0.000000 0.957703 0.000000 -1.630810 3.816098 -0.544634 2.542527 0.183907 3.608173 0.816586 0.009357 -2.246636 -0.996150 3.367186 11.670251 0.000000 0.000000 0.000000 0.262272 -0.104045 0.943446 -1.182898 0.147046 0.256883 5.344445 6.255944 11.646503 0.000000 0.000000 0.000000 0.266383 -0.106054 2.428796 0.826905 -0.310924 -1.753588 -0.604908 -1.089161 1.486384 2.685383 -0.758891 -11.975117 0.000000 0.000000 0.000000 -24.282130 -0.790302 -2.417638 -46.467392 -4.005789 -3.661373 -14.484576 -20.041419 3.220247 0.000000 0.000000 0.000000 23.031614 -0.370440 -2.198931 52.675225 5.267019 -2.651070 8.326520 19.967636 1.970897 0.000000 0.000000 0.000000 
0.000116 0.956343 0.000185 -1.537884 3.174995 -0.373297 2.098899 0.224454 3.801284 1.284900 -0.011033 -2.700277 -0.601019 3.847471 11.423476 0.000000 0.000000 0.000000 -0.491004 -0.055831 0.645248 -0.448866 0.072437 0.516621 5.972989 7.707383 11.140027 0.000000 0.000000 0.000000 0.344845 -0.105911 2.371185 -0.115077 0.092404 -0.976991 0.257410 -1.297808 0.476625 2.123591 -0.324368 -13.260840 0.000000 0.000000 0.000000 -24.515138 0.082865 -2.750946 -46.503496 -3.904989 -3.680325 -15.229192 -20.149703 3.393542 0.000000 0.000000 0.000000 21.980776 -0.809983 -2.611237 54.340777 4.281933 -2.999527 8.364261 20.695878 2.016206 0.000000 0.000000 0.000000 
0.000177 0.955485 0.000011 -1.245855 3.508103 -0.500346 1.994261 0.226789 3.783243 0.959689 0.006826 -2.485742 -0.733774 3.569499 11.169095 0.000000 0.000000 0.000000 -0.457041 -0.072641 0.799789 -1.040652 0.151006 0.701164 5.639737 7.498844 10.394989 0.000000 0.000000 0.000000 0.183683 -0.118245 2.763775 0.361380 -0.064424 -2.535033 -0.503553 -1.665264 1.454329 1.685727 -0.151292 -12.274632 0.000000 0.000000 0.000000 -23.525862 -0.103445 -2.488542 -47.025699 -3.445947 -3.986693 -15.170892 -20.487659 3.451043 0.000000 0.000000 0.000000 23.124453 -0.295376 -2.405026 53.178563 3.320187 -3.458656 7.798814 21.061647 1.972951 0.000000 0.000000 0.000000 
0.000064 0.955147 -0.000246 -1.452788 3.647032 -0.629566 2.132930 0.221894 3.831190 1.154602 -0.012551 -2.402475 -0.744992 3.489347 10.959413 0.000000 0.000000 0.000000 -0.548276 -0.072701 0.815453 -0.648278 0.108344 0.791731 5.915110 7.939510 10.647434 0.000000 0.000000 0.000000 0.197649 -0.131427 3.052467 -0.122645 0.126041 -1.710914 0.355494 -2.443775 0.288153 1.363219 0.014928 -12.552742 0.000000 0.000000 0.000000 -23.259380 0.956555 -2.835605 -47.448356 -3.760484 -3.878216 -15.796877 -20.243498 3.549528 0.000000 0.000000 0.000000 22.576583 -0.236614 -2.629896 53.003226 2.943437 -3.433426 8.818224 20.678497 2.048277 0.000000 0.000000 0.000000 
-0.000110 0.955160 -0.000632 -1.379390 3.999096 -0.710687 2.200331 0.213137 3.791983 0.976380 -0.001316 -2.304521 -0.928744 3.217345 10.944336 0.000000 0.000000 0.000000 -0.645182 -0.092403 1.027568 -0.462587 0.078249 0.602410 5.651510 7.448807 10.642454 0.000000 0.000000 0.000000 0.179870 -0.141819 3.304890 0.089561 0.050147 -2.208640 -0.019245 -2.310270 0.677278 1.366651 0.028084 -12.382663 0.000000 0.000000 0.000000 -22.958045 0.688497 -2.755418 -47.435831 -3.737750 -3.884989 -16.415137 -20.291545 3.653965 0.000000 0.000000 0.000000 22.964138 -0.380680 -2.620242 52.615488 2.825242 -3.522093 9.064044 20.126398 2.046756 0.000000 0.000000 0.000000 
-0.000213 0.955350 -0.000894 -1.383858 4.257610 -0.624591 2.140644 0.208457 3.713982 1.143685 -0.008940 -2.436199 -1.065247 3.047924 11.016345 0.000000 0.000000 0.000000 -0.706455 -0.090498 1.018193 -0.347607 0.057182 0.421131 5.651996 7.368309 10.852036 0.000000 0.000000 0.000000 0.058080 -0.137332 3.294411 0.161762 0.028450 -2.436852 0.194732 -2.489009 0.918367 1.226774 0.131046 -12.685827 0.000000 0.000000 0.000000 -23.151499 1.109511 -2.985787 -47.560122 -3.968714 -3.837674 -16.454466 -20.253162 3.660841 0.000000 0.000000 0.000000 22.596105 -0.382633 -2.594615 52.797257 2.950931 -3.500771 8.923061 19.444012 1.946665 0.000000 0.000000 0.000000 
-0.000208 0.955430 -0.000999 -1.325305 4.433235 -0.527586 2.069667 0.208650 3.687489 1.183899 -0.003422 -2.629791 -1.172757 2.921017 11.097641 0.000000 0.000000 0.000000 -0.690524 -0.096051 1.069613 -0.544175 0.070109 0.174480 5.681069 7.428618 10.896198 0.000000 0.000000 0.000000 0.090421 -0.137654 3.275549 0.109517 0.060706 -2.609611 0.073462 -2.511165 1.044634 1.413966 0.035402 -12.867177 0.000000 0.000000 0.000000 -23.103102 1.324170 -3.128949 -47.817523 -3.836981 -3.911908 -16.725589 -20.223287 3.701111 0.000000 0.000000 0.000000 22.484721 -0.254854 -2.472603 53.016004 2.934382 -3.542004 8.997874 19.349171 1.952369 0.000000 0.000000 0.000000 
-0.000073 0.955319 -0.000948 -1.342017 4.696201 -0.350024 2.019185 0.200102 3.563255 1.332731 -0.006243 -2.817787 -1.289951 2.750056 11.082678 0.000000 0.000000 0.000000 -0.696670 -0.101855 1.127998 -0.551591 0.057491 -0.146076 5.652271 7.449499 10.822536 0.000000 0.000000 0.000000 0.027882 -0.132296 3.198201 0.116773 0.056429 -2.538336 0.030315 -2.382444 0.801548 1.435471 0.029873 -12.660495 0.000000 0.000000 0.000000 -23.193804 1.315457 -3.224334 -47.821264 -3.714807 -3.914772 -16.916329 -20.184172 3.713109 0.000000 0.000000 0.000000 22.329377 -0.450905 -2.494735 53.048120 3.027707 -3.496022 9.177157 19.210965 1.971212 0.000000 0.000000 0.000000 
0.000060 0.955210 -0.000778 -1.343164 4.879013 -0.202163 1.972154 0.202941 3.601344 1.435080 0.003395 -3.198107 -1.390213 2.620438 11.123626 0.000000 0.000000 0.000000 -0.704016 -0.111769 1.229222 -0.579834 0.039025 -0.651052 5.701990 7.430663 11.089263 0.000000 0.000000 0.000000 0.010839 -0.125974 3.062572 0.050743 0.088415 -2.555337 0.095834 -2.450528 0.628895 1.320138 0.088245 -12.458588 0.000000 0.000000 0.000000 -23.401645 1.431631 -3.328369 -47.976260 -3.641376 -3.939061 -16.849128 -19.779499 3.621763 0.000000 0.000000 0.000000 22.417156 -0.301390 -2.421853 52.745617 3.192004 -3.386908 9.287321 19.182098 1.983019 0.000000 0.000000 0.000000 
0.000158 0.955014 -0.000594 -1.359846 5.059057 -0.121326 1.948170 0.201956 3.595178 1.531024 0.004536 -3.369352 -1.467123 2.496822 11.083080 0.000000 0.000000 0.000000 -0.681110 -0.128560 1.390101 -0.594803 0.026563 -0.978324 5.641103 7.383779 10.999142 0.000000 0.000000 0.000000 -0.002977 -0.116665 2.854262 0.027607 0.094881 -2.424113 0.000596 -2.309227 0.475214 1.237848 0.156157 -12.384437 0.000000 0.000000 0.000000 -23.290941 1.469747 -3.415247 -48.170872 -3.580246 -3.948084 -16.863002 -19.352747 3.531061 0.000000 0.000000 0.000000 22.487849 -0.217042 -2.309021 52.628019 3.387688 -3.299867 9.248253 19.137180 1.980274 0.000000 0.000000 0.000000 
0.000223 0.954966 -0.000435 -1.420491 5.276317 -0.117566 2.037396 0.202902 3.714616 1.525064 0.017346 -3.634600 -1.584599 2.331852 11.095657 0.000000 0.000000 0.000000 -0.628194 -0.138968 1.475459 -0.602575 0.017728 -1.204765 5.677662 7.338048 11.278316 0.000000 0.000000 0.000000 -0.034471 -0.113237 2.795830 -0.011444 0.115055 -2.440375 -0.018421 -2.321363 0.482161 1.246524 0.165493 -12.456366 0.000000 0.000000 0.000000 -23.430154 1.337461 -3.390269 -48.084828 -3.487050 -3.968945 -16.926120 -19.081737 3.485726 0.000000 0.000000 0.000000 22.614298 -0.169760 -2.262092 52.486513 3.702589 -3.165682 9.373001 19.048359 1.992432 0.000000 0.000000 0.000000 
0.000267 0.955006 -0.000316 -1.492828 5.520186 -0.121425 2.122143 0.201258 3.798915 1.555753 0.024861 -3.839140 -1.713692 2.154887 11.117243 0.000000 0.000000 0.000000 -0.503695 -0.153271 1.579378 -0.687583 0.022910 -1.298226 5.614270 7.260325 11.253520 0.000000 0.000000 0.000000 -0.046978 -0.113546 2.811418 -0.038461 0.127896 -2.408488 -0.113017 -2.328504 0.402973 1.178340 0.242493 -12.709112 0.000000 0.000000 0.000000 -23.454348 1.386167 -3.467622 -47.988276 -3.548843 -3.918259 -16.970622 -18.676326 3.409189 0.000000 0.000000 0.000000 22.796902 -0.227627 -2.274250 52.309801 3.968482 -3.045081 9.457607 18.881965 1.989525 0.000000 0.000000 0.000000 
0.000333 0.955123 -0.000228 -1.540042 5.726240 -0.144490 2.091846 0.208891 3.921497 1.731348 0.023850 -4.065595 -1.828533 2.013521 11.174920 0.000000 0.000000 0.000000 -0.336502 -0.174619 1.738878 -0.845233 0.027851 -1.556996 5.523901 7.012344 11.436401 0.000000 0.000000 0.000000 -0.145926 -0.112785 2.866332 -0.015292 0.118503 -2.396847 -0.084434 -2.346998 0.325019 1.069663 0.329123 -12.842306 0.000000 0.000000 0.000000 -23.621170 1.392147 -3.521618 -47.677647 -3.563336 -3.872611 -16.972107 -18.402170 3.353487 0.000000 0.000000 0.000000 22.918217 -0.132038 -2.209182 52.106826 4.078539 -2.987022 9.637396 18.976121 2.029608 0.000000 0.000000 0.000000 
0.000418 0.955189 -0.000214 -1.591908 5.854597 -0.201998 2.072128 0.215363 4.023233 1.880376 0.019492 -4.175598 -1.892341 1.928283 11.186871 0.000000 0.000000 0.000000 -0.161220 -0.193148 1.866202 -0.953345 0.033192 -1.685109 5.352338 6.650750 11.506084 0.000000 0.000000 0.000000 -0.149027 -0.120573 3.054286 -0.057956 0.135906 -2.326980 -0.072222 -2.313407 0.084117 0.969159 0.402264 -12.852640 0.000000 0.000000 0.000000 -23.818620 1.318956 -3.543563 -47.363051 -3.457018 -3.856595 -17.105633 -18.336637 3.356757 0.000000 0.000000 0.000000 23.051782 -0.197603 -2.242535 51.809621 4.169800 -2.916297 9.999375 19.113598 2.101443 0.000000 0.000000 0.000000 
0.000506 0.955181 -0.000287 -1.624366 5.978071 -0.267064 2.056059 0.221250 4.116527 1.983671 0.017144 -4.261147 -1.952550 1.841014 11.181265 0.000000 0.000000 0.000000 -0.061050 -0.209937 1.994225 -0.996545 0.033309 -1.780642 5.211851 6.384416 11.511799 0.000000 0.000000 0.000000 -0.190037 -0.124144 3.171067 -0.087723 0.150451 -2.325118 -0.076538 -2.354356 0.008838 0.877624 0.474439 -13.005944 0.000000 0.000000 0.000000 -23.897085 1.464081 -3.648707 -47.167558 -3.515304 -3.809748 -16.909789 -18.430700 3.341313 0.000000 0.000000 0.000000 23.084327 -0.189337 -2.236799 51.670430 4.174211 -2.902288 10.176416 19.204821 2.139465 0.000000 0.000000 0.000000 
0.000556 0.955158 -0.000446 -1.628939 5.903501 -0.412389 2.030256 0.234359 4.279503 2.021416 0.014616 -4.264579 -1.917742 1.885054 11.168029 0.000000 0.000000 0.000000 -0.061138 -0.225691 2.141389 -1.021713 0.032020 -1.857650 5.291507 6.460745 11.652363 0.000000 0.000000 0.000000 -0.176870 -0.132546 3.360653 -0.209721 0.209576 -2.411848 -0.041969 -2.301796 0.144516 0.704042 0.597656 -13.203329 0.000000 0.000000 0.000000 -23.962886 1.480513 -3.665148 -46.942809 -3.590497 -3.774523 -17.025454 -18.617458 3.396199 0.000000 0.000000 0.000000 23.141447 -0.214584 -2.250329 51.645422 4.251784 -2.884483 10.240136 19.387492 2.173630 0.000000 0.000000 0.000000 
0.000613 0.955188 -0.000606 -1.645547 5.854968 -0.457072 2.041667 0.244059 4.435072 2.018799 0.023952 -4.460417 -1.913806 1.909818 11.223671 0.000000 0.000000 0.000000 -0.076782 -0.223159 2.122558 -1.040799 0.034953 -1.835014 5.425937 6.640351 11.810902 0.000000 0.000000 0.000000 -0.207693 -0.137087 3.494234 -0.223813 0.214446 -2.382135 -0.046772 -2.327393 0.122870 0.598425 0.672299 -13.374098 0.000000 0.000000 0.000000 -23.844827 1.424577 -3.600692 -46.907368 -3.714855 -3.727705 -17.046269 -18.952944 3.465125 0.000000 0.000000 0.000000 23.095593 -0.205676 -2.257243 51.632280 4.339030 -2.841074 10.418570 19.548453 2.219445 0.000000 0.000000 0.000000 
0.000681 0.955281 -0.000722 -1.650608 5.716157 -0.553934 2.028138 0.259466 4.636676 2.023268 0.030206 -4.605569 -1.870556 1.995536 11.293780 0.000000 0.000000 0.000000 -0.078062 -0.238769 2.270827 -1.109892 0.037577 -1.916586 5.563897 6.890726 11.819063 0.000000 0.000000 0.000000 -0.234921 -0.144384 3.691663 -0.279261 0.240383 -2.419392 -0.041340 -2.357928 0.086552 0.388091 0.818690 -13.709644 0.000000 0.000000 0.000000 -23.797387 1.572508 -3.649130 -46.688675 -3.863667 -3.659903 -17.261620 -19.356508 3.582599 0.000000 0.000000 0.000000 23.216317 -0.132855 -2.261815 51.463954 4.281483 -2.845529 10.601325 19.841372 2.281149 0.000000 0.000000 0.000000 
0.000781 0.955410 -0.000802 -1.613218 5.480771 -0.628681 1.968015 0.271478 4.721191 2.005893 0.027988 -4.548628 -1.767907 2.156439 11.338022 0.000000 0.000000 0.000000 -0.147873 -0.248991 2.392243 -1.133105 0.033391 -2.035784 5.729604 7.138498 11.907162 0.000000 0.000000 0.000000 -0.248141 -0.150901 3.861241 -0.387931 0.289700 -2.458770 -0.003631 -2.315203 0.114289 0.344497 0.847241 -13.843116 0.000000 0.000000 0.000000 -23.659239 1.715888 -3.683485 -46.616565 -3.975304 -3.623139 -17.525804 -19.837663 3.725788 0.000000 0.000000 0.000000 23.206641 -0.218149 -2.338588 51.415305 4.177093 -2.882152 10.944427 20.249207 2.385967 0.000000 0.000000 0.000000 
0.000903 0.955410 -0.000866 -1.533826 5.198768 -0.846414 1.825544 0.298318 4.935081 2.045917 0.018507 -4.420551 -1.633135 2.343519 11.330329 0.000000 0.000000 0.000000 -0.190755 -0.272858 2.636226 -1.271725 0.045102 -2.060167 5.844732 7.367226 11.828352 0.000000 0.000000 0.000000 -0.204043 -0.161560 4.076267 -0.446300 0.316060 -2.499428 -0.145203 -2.341537 0.125374 0.441487 0.787137 -13.992253 0.000000 0.000000 0.000000 -23.667198 1.764383 -3.671415 -46.375601 -3.960030 -3.621469 -17.737807 -20.386637 3.877633 0.000000 0.000000 0.000000 23.348498 -0.069440 -2.310979 51.244023 3.864378 -2.993649 11.382797 20.682164 2.509534 0.000000 0.000000 0.000000 
0.001021 0.955436 -0.000936 -1.518564 4.935424 -0.973163 1.778164 0.316939 5.121984 2.043948 0.018789 -4.439075 -1.515003 2.518860 11.356043 0.000000 0.000000 0.000000 -0.197407 -0.287772 2.786012 -1.359777 0.048719 -2.142753 5.997827 7.604666 11.881157 0.000000 0.000000 0.000000 -0.146118 -0.166117 4.132490 -0.554716 0.363354 -2.495199 -0.171487 -2.098477 0.066279 0.558785 0.727261 -14.014903 0.000000 0.000000 0.000000 -23.473129 1.662209 -3.619454 -46.251932 -3.892523 -3.622777 -18.154486 -20.676245 4.005213 0.000000 0.000000 0.000000 23.326881 -0.305067 -2.415096 51.175829 3.550447 -3.123033 11.905074 20.839024 2.621935 0.000000 0.000000 0.000000 
0.001146 0.955469 -0.001004 -1.518123 4.710536 -1.102624 1.761667 0.337278 5.369085 2.023025 0.025872 -4.571074 -1.425675 2.660981 11.406765 0.000000 0.000000 0.000000 -0.178520 -0.305237 2.950656 -1.506704 0.065472 -2.082077 6.130119 7.984670 11.615542 0.000000 0.000000 0.000000 -0.077636 -0.171340 4.193528 -0.582826 0.380817 -2.671268 -0.289904 -2.089870 0.254070 0.884762 0.532513 -14.164110 0.000000 0.000000 0.000000 -23.553521 1.755965 -3.657629 -46.058533 -3.917469 -3.619433 -18.409530 -20.811299 4.084855 0.000000 0.000000 0.000000 23.397539 -0.230442 -2.395128 51.109395 3.353049 -3.213686 12.206878 21.044605 2.700611 0.000000 0.000000 0.000000 
0.001276 0.955658 -0.001042 -1.525978 4.375681 -1.188818 1.813914 0.346064 5.493294 1.874263 0.032971 -4.539907 -1.282681 2.882938 11.470778 0.000000 0.000000 0.000000 -0.153281 -0.327225 3.159861 -1.555102 0.059346 -2.263846 6.216629 8.138386 11.564358 0.000000 0.000000 0.000000 -0.023168 -0.170395 4.125006 -0.617325 0.389215 -2.544489 -0.292120 -1.964163 0.033826 1.071891 0.413238 -14.122263 0.000000 0.000000 0.000000 -23.646879 1.730464 -3.651314 -45.924916 -3.743415 -3.653615 -18.728246 -20.941019 4.169579 0.000000 0.000000 0.000000 23.461245 -0.262155 -2.444729 50.965638 3.047733 -3.303474 12.552938 21.204740 2.778435 0.000000 0.000000 0.000000 
0.001435 0.955891 -0.001028 -1.527046 4.207187 -1.352059 1.761843 0.366500 5.709028 1.926007 0.030121 -4.559680 -1.222257 2.993757 11.546757 0.000000 0.000000 0.000000 -0.032110 -0.363481 3.459391 -1.748726 0.075267 -2.297280 6.135583 8.144957 11.225260 0.000000 0.000000 0.000000 -0.067158 -0.172365 4.213212 -0.537230 0.348356 -2.444657 -0.312127 -1.896896 -0.267948 1.557037 0.136218 -14.313343 0.000000 0.000000 0.000000 -23.728940 1.841300 -3.732927 -45.817357 -3.619499 -3.665717 -18.776614 -20.937411 4.174997 0.000000 0.000000 0.000000 23.581760 -0.332434 -2.517056 50.829620 2.785964 -3.372455 12.812134 21.107029 2.803108 0.000000 0.000000 0.000000 
0.001616 0.956080 -0.001020 -1.555475 3.976688 -1.544001 1.745372 0.391794 6.017996 1.956380 0.033079 -4.675345 -1.136740 3.140682 11.629406 0.000000 0.000000 0.000000 0.023207 -0.395964 3.748258 -1.733765 0.064528 -2.454152 6.104857 8.028267 11.261510 0.000000 0.000000 0.000000 -0.039307 -0.175386 4.261286 -0.490179 0.327131 -2.493863 -0.294305 -1.788303 -0.313713 1.842690 -0.039693 -14.290995 0.000000 0.000000 0.000000 -23.946570 1.903140 -3.798366 -45.672626 -3.491957 -3.697676 -19.174173 -20.956055 4.252833 0.000000 0.000000 0.000000 23.706590 -0.447888 -2.605419 50.671064 2.620998 -3.425476 12.870744 21.031355 2.800148 0.000000 0.000000 0.000000 
0.001781 0.956170 -0.001063 -1.610681 3.670485 -1.734295 1.708207 0.416747 6.282761 2.062533 0.026916 -4.704654 -0.993793 3.352609 11.658965 0.000000 0.000000 0.000000 0.063500 -0.417169 3.940455 -1.810349 0.069595 -2.473314 6.312455 8.382945 11.301361 0.000000 0.000000 0.000000 -0.006102 -0.178737 4.313038 -0.426395 0.289466 -2.304797 -0.286820 -1.651481 -0.533188 2.222038 -0.270218 -14.277941 0.000000 0.000000 0.000000 -24.021648 1.894140 -3.804875 -45.585538 -3.254244 -3.760044 -19.435482 -21.132426 4.337756 0.000000 0.000000 0.000000 23.831435 -0.455994 -2.641286 50.462667 2.409388 -3.475135 13.120667 21.112575 2.850593 0.000000 0.000000 0.000000 
0.001888 0.956176 -0.001189 -1.667323 3.634005 -1.835274 1.736999 0.427104 6.455162 2.106316 0.029840 -4.823431 -0.983213 3.371156 11.670534 0.000000 0.000000 0.000000 0.143748 -0.429253 4.018606 -1.864164 0.078416 -2.403781 6.313910 8.423846 11.229780 0.000000 0.000000 0.000000 -0.034238 -0.176327 4.282480 -0.318204 0.236211 -2.202769 -0.228232 -1.626175 -0.757264 2.239614 -0.292130 -14.135903 0.000000 0.000000 0.000000 -24.116361 1.950793 -3.856921 -45.447766 -3.137170 -3.772735 -19.882867 -21.148275 4.423526 0.000000 0.000000 0.000000 23.902651 -0.616332 -2.755557 50.255289 2.243673 -3.506144 13.343159 21.078840 2.879858 0.000000 0.000000 0.000000 
0.001938 0.956032 -0.001423 -1.697169 3.528723 -1.885004 1.774432 0.427240 6.474230 2.073092 0.028537 -4.760362 -0.917856 3.442963 11.608089 0.000000 0.000000 0.000000 0.181152 -0.424782 3.965147 -1.887190 0.090462 -2.222916 6.314036 8.494637 11.084948 0.000000 0.000000 0.000000 -0.115136 -0.178254 4.401652 -0.232479 0.196728 -2.222274 -0.014364 -1.613512 -0.904497 2.414793 -0.397926 -14.208481 0.000000 0.000000 0.000000 -24.209924 2.336941 -4.070732 -45.381831 -3.045902 -3.797122 -20.153147 -21.194609 4.488440 0.000000 0.000000 0.000000 23.865465 -0.677229 -2.823667 50.080819 2.275653 -3.459301 13.249487 20.989933 2.844089 0.000000 0.000000 0.000000 
0.001936 0.955890 -0.001685 -1.743579 3.575313 -2.009366 1.800846 0.433980 6.606678 2.127904 0.026963 -4.798762 -0.931674 3.405480 11.551747 0.000000 0.000000 0.000000 0.236034 -0.431269 3.999082 -1.936207 0.107128 -2.015938 6.310638 8.596260 10.914795 0.000000 0.000000 0.000000 -0.201103 -0.183159 4.595787 -0.176662 0.174585 -2.304062 0.096482 -1.612954 -0.980170 2.515288 -0.433846 -14.456544 0.000000 0.000000 0.000000 -23.963771 2.535097 -4.149904 -45.516183 -2.890646 -3.861947 -20.387887 -21.487647 4.597534 0.000000 0.000000 0.000000 24.006162 -0.790785 -2.911346 49.864470 2.251158 -3.448377 13.186424 20.850001 2.810982 0.000000 0.000000 0.000000 
0.001931 0.955642 -0.001925 -1.731446 3.631687 -2.102300 1.850550 0.436793 6.708236 2.029315 0.035000 -4.835113 -0.954850 3.347025 11.481655 0.000000 0.000000 0.000000 0.227530 -0.434329 4.028904 -1.981335 0.123459 -1.811119 6.270718 8.695422 10.623835 0.000000 0.000000 0.000000 -0.284901 -0.187334 4.775244 -0.169792 0.166745 -2.160598 0.235808 -1.591513 -1.320963 2.577943 -0.444647 -14.672192 0.000000 0.000000 0.000000 -23.949512 2.770601 -4.296844 -45.360935 -2.781375 -3.860429 -20.535790 -21.626847 4.652978 0.000000 0.000000 0.000000 24.171868 -0.903671 -3.009463 49.601117 2.190178 -3.424061 13.072988 20.728920 2.770199 0.000000 0.000000 0.000000 
0.001967 0.955489 -0.002133 -1.711636 3.757164 -2.142446 1.823680 0.439153 6.737305 2.056071 0.034848 -4.861558 -1.008517 3.255317 11.435702 0.000000 0.000000 0.000000 0.235671 -0.433961 4.016839 -2.021184 0.133923 -1.704531 6.187417 8.600637 10.522431 0.000000 0.000000 0.000000 -0.322907 -0.189927 4.875438 -0.167119 0.166603 -2.155805 0.294678 -1.515624 -1.368311 2.546631 -0.409948 -14.731211 0.000000 0.000000 0.000000 -23.662366 3.130885 -4.493565 -45.531435 -2.659673 -3.911019 -20.525608 -21.846505 4.693880 0.000000 0.000000 0.000000 24.198347 -1.189372 -3.146555 49.481367 2.299629 -3.379356 12.804713 20.478384 2.692439 0.000000 0.000000 0.000000 
0.002047 0.955367 -0.002357 -1.615093 3.960399 -2.234816 1.775019 0.439367 6.719567 1.981259 0.032827 -4.716132 -1.100546 3.100265 11.368970 0.000000 0.000000 0.000000 0.240930 -0.449942 4.153692 -2.203323 0.150841 -1.737484 6.068339 8.441894 10.421893 0.000000 0.000000 0.000000 -0.346986 -0.197340 5.074195 -0.210370 0.176452 -1.841320 0.378722 -1.577204 -1.676115 2.333109 -0.265228 -14.860689 0.000000 0.000000 0.000000 -23.688820 3.507289 -4.724566 -45.322139 -2.675900 -3.862370 -20.455988 -22.096542 4.732183 0.000000 0.000000 0.000000 24.167437 -1.376950 -3.263992 49.239303 2.396016 -3.296956 12.438344 20.351840 2.611170 0.000000 0.000000 0.000000 
0.002153 0.955271 -0.002670 -1.515231 4.221754 -2.338570 1.646758 0.449198 6.770108 2.047656 0.028025 -4.693928 -1.226216 2.910460 11.338495 0.000000 0.000000 0.000000 0.364766 -0.466685 4.242946 -2.595494 0.195425 -1.660910 5.897893 8.213958 10.270724 0.000000 0.000000 0.000000 -0.413355 -0.206203 5.351830 -0.126053 0.139550 -1.850954 0.354212 -1.560406 -1.681172 2.294304 -0.227866 -14.874840 0.000000 0.000000 0.000000 -23.592615 3.799615 -4.918711 -45.226727 -2.467966 -3.918745 -20.221351 -22.407210 4.745244 0.000000 0.000000 0.000000 24.183570 -1.615587 -3.359787 48.913929 2.352922 -3.305557 12.139560 20.241213 2.553484 0.000000 0.000000 0.000000 
0.002238 0.955123 -0.003100 -1.403919 4.481312 -2.361021 1.536295 0.453000 6.752229 2.057947 0.029087 -4.717915 -1.352770 2.720583 11.315039 0.000000 0.000000 0.000000 0.343699 -0.472970 4.298587 -2.751008 0.210090 -1.691964 5.751452 8.005982 10.164387 0.000000 0.000000 0.000000 -0.414945 -0.211459 5.468634 -0.108108 0.125543 -1.673803 0.379330 -1.578750 -1.791228 2.073780 -0.057416 -15.180544 0.000000 0.000000 0.000000 -23.514605 4.235454 -5.186935 -45.267532 -2.378529 -3.938156 -20.047933 -22.432123 4.706819 0.000000 0.000000 0.000000 24.156671 -1.755441 -3.410459 48.832345 2.493942 -3.244564 11.643262 20.078284 2.455385 0.000000 0.000000 0.000000 
0.002242 0.955083 -0.003594 -1.341847 4.609739 -2.417631 1.476407 0.462908 6.853418 2.062800 0.036244 -4.867321 -1.433193 2.617938 11.355487 0.000000 0.000000 0.000000 0.383760 -0.488126 4.412699 -2.932401 0.221290 -1.805268 5.685531 7.898281 10.143314 0.000000 0.000000 0.000000 -0.403009 -0.220873 5.675454 -0.094498 0.122024 -1.723219 0.357008 -1.480331 -1.773707 2.120854 -0.073295 -15.157235 0.000000 0.000000 0.000000 -23.514281 4.626016 -5.455363 -45.189318 -2.163219 -3.997927 -19.971319 -22.311517 4.654881 0.000000 0.000000 0.000000 24.103696 -1.988672 -3.488958 48.714885 2.668028 -3.185159 11.908951 20.195496 2.521358 0.000000 0.000000 0.000000 
0.002138 0.955006 -0.004123 -1.253605 4.778416 -2.421930 1.360162 0.463556 6.762782 2.131281 0.028718 -4.791082 -1.509425 2.503748 11.337893 0.000000 0.000000 0.000000 0.544540 -0.504128 4.479991 -3.359142 0.255278 -1.930432 5.577426 7.732445 10.081334 0.000000 0.000000 0.000000 -0.298775 -0.233113 5.839127 -0.165062 0.142943 -1.403559 0.338905 -1.386235 -2.086292 1.927696 0.080245 -15.382917 0.000000 0.000000 0.000000 -23.693690 4.884947 -5.692635 -44.981965 -2.091985 -3.964963 -19.821791 -22.113654 4.568816 0.000000 0.000000 0.000000 24.077772 -2.201673 -3.570726 48.580397 2.779691 -3.118152 11.824834 20.488920 2.553382 0.000000 0.000000 0.000000 
0.001984 0.955020 -0.004628 -1.145362 4.724447 -2.403739 1.242535 0.473962 6.773469 2.131963 0.032635 -4.875454 -1.500990 2.539490 11.411036 0.000000 0.000000 0.000000 0.576681 -0.512957 4.547068 -3.624936 0.265313 -2.141374 5.598002 7.755579 10.101847 0.000000 0.000000 0.000000 -0.352945 -0.237458 6.008939 -0.103763 0.119672 -1.546998 0.214102 -1.332552 -1.964790 1.773714 0.185869 -15.509056 0.000000 0.000000 0.000000 -23.739098 5.017602 -5.789921 -44.871823 -2.075053 -3.964879 -19.331699 -21.905770 4.426633 0.000000 0.000000 0.000000 24.067684 -2.167554 -3.526783 48.688784 3.197810 -2.978041 11.621460 20.792034 2.566305 0.000000 0.000000 0.000000 
0.001809 0.954847 -0.005047 -1.073017 4.666891 -2.429763 1.285329 0.468748 6.728679 1.922626 0.040191 -4.767340 -1.471327 2.562270 11.366372 0.000000 0.000000 0.000000 0.465421 -0.514102 4.608912 -3.564016 0.251510 -2.248587 5.623854 7.817930 10.069214 0.000000 0.000000 0.000000 -0.252752 -0.253109 6.255485 -0.263320 0.195743 -1.589330 0.266016 -1.242677 -2.029999 1.551037 0.371959 -16.094130 0.000000 0.000000 0.000000 -23.637841 5.224582 -5.901000 -44.955593 -2.071854 -3.967352 -19.141155 -21.480932 4.297628 0.000000 0.000000 0.000000 23.933685 -2.401792 -3.638355 48.603586 3.282969 -2.935911 12.101240 21.119688 2.694346 0.000000 0.000000 0.000000 
0.001672 0.954932 -0.005386 -1.065997 4.600890 -2.395071 1.269774 0.470947 6.731728 1.936931 0.043806 -4.864589 -1.454444 2.609984 11.434899 0.000000 0.000000 0.000000 0.490145 -0.523734 4.686121 -3.621104 0.237425 -2.510865 5.682320 7.867135 10.180552 0.000000 0.000000 0.000000 -0.302130 -0.254494 6.351539 -0.263056 0.199428 -1.700041 0.297755 -1.346897 -2.008457 1.404012 0.463252 -16.322164 0.000000 0.000000 0.000000 -23.599011 5.505417 -6.011967 -45.045989 -2.115427 -3.974168 -18.807492 -21.118235 4.167670 0.000000 0.000000 0.000000 23.843477 -2.430104 -3.686914 48.740083 3.490068 -2.852057 12.244201 21.386847 2.750946 0.000000 0.000000 0.000000 
0.001595 0.954830 -0.005647 -1.001776 4.499833 -2.296647 1.126093 0.486226 6.778926 2.053947 0.049617 -5.136373 -1.420073 2.684996 11.513489 0.000000 0.000000 0.000000 0.378123 -0.505931 4.582499 -3.552492 0.226882 -2.559560 5.724265 7.947944 10.163961 0.000000 0.000000 0.000000 -0.308601 -0.254191 6.362226 -0.386806 0.257366 -1.731015 0.394804 -1.467489 -2.052752 1.023400 0.706980 -16.856946 0.000000 0.000000 0.000000 -23.635354 5.626293 -6.033122 -45.223313 -2.411534 -3.895892 -18.607485 -20.522370 4.019117 0.000000 0.000000 0.000000 23.814777 -2.269486 -3.652557 48.714548 3.651701 -2.764736 12.759237 21.339509 2.822047 0.000000 0.000000 0.000000 
0.001560 0.954795 -0.005841 -0.914841 4.450504 -2.261521 1.027776 0.491329 6.737488 2.051396 0.049400 -5.129941 -1.400472 2.719918 11.537121 0.000000 0.000000 0.000000 0.205519 -0.499033 4.601012 -3.421314 0.206115 -2.679832 5.759274 8.002112 10.180649 0.000000 0.000000 0.000000 -0.388742 -0.255774 6.508251 -0.343575 0.249074 -2.061006 0.290742 -1.482073 -1.813094 0.880719 0.812486 -17.202372 0.000000 0.000000 0.000000 -23.781313 5.557150 -6.013049 -45.196857 -2.692281 -3.811641 -18.377934 -20.077904 3.890874 0.000000 0.000000 0.000000 23.967925 -2.167956 -3.606792 48.743334 3.703583 -2.768013 12.876732 21.134779 2.813540 0.000000 0.000000 0.000000 
0.001518 0.954836 -0.006040 -0.862133 4.478903 -2.269948 0.887710 0.497050 6.677324 2.203384 0.035559 -5.031878 -1.405428 2.715957 11.539924 0.000000 0.000000 0.000000 0.033334 -0.486058 4.559608 -3.209322 0.193002 -2.595978 5.752804 7.996221 10.169986 0.000000 0.000000 0.000000 -0.361735 -0.263789 6.660108 -0.501776 0.325261 -2.141981 0.343096 -1.606552 -1.797991 0.570175 1.021330 -17.817419 0.000000 0.000000 0.000000 -23.920081 5.581791 -6.017462 -45.229123 -3.049707 -3.697435 -18.116739 -19.501670 3.736250 0.000000 0.000000 0.000000 24.072562 -2.127873 -3.635960 48.629231 3.760974 -2.730224 13.381074 20.908708 2.857858 0.000000 0.000000 0.000000 
0.001496 0.954919 -0.006248 -0.871925 4.421689 -2.224438 0.838473 0.500457 6.666367 2.298749 0.033897 -5.114780 -1.384436 2.765509 11.593950 0.000000 0.000000 0.000000 0.024904 -0.474595 4.460805 -3.179346 0.193170 -2.548428 5.782411 8.032732 10.199484 0.000000 0.000000 0.000000 -0.337487 -0.261012 6.566902 -0.543886 0.341592 -2.070736 0.361873 -1.681062 -1.815799 0.409626 1.114118 -18.005940 0.000000 0.000000 0.000000 -23.946631 5.478448 -5.933468 -45.344937 -3.367252 -3.599356 -17.841636 -19.015827 3.598292 0.000000 0.000000 0.000000 24.230712 -1.877564 -3.543579 48.717715 3.731997 -2.735573 13.440513 20.592334 2.813444 0.000000 0.000000 0.000000 
0.001507 0.955143 -0.006446 -0.885586 4.534560 -2.178660 0.893261 0.498718 6.717943 2.243901 0.049101 -5.348920 -1.477304 2.676221 11.719399 0.000000 0.000000 0.000000 -0.061826 -0.470569 4.456632 -2.983298 0.170318 -2.631490 5.769236 7.953563 10.315634 0.000000 0.000000 0.000000 -0.302900 -0.262281 6.544704 -0.547144 0.351968 -2.302762 0.227586 -1.727469 -1.483483 0.187282 1.262980 -18.320386 0.000000 0.000000 0.000000 -23.852796 5.225964 -5.777176 -45.611579 -3.942258 -3.435809 -17.593807 -18.621162 3.480697 0.000000 0.000000 0.000000 24.523189 -1.787751 -3.497892 48.537122 4.089934 -2.622473 13.757197 20.133852 2.799316 0.000000 0.000000 0.000000 
0.001551 0.955407 -0.006588 -0.856084 4.663380 -2.251033 0.778295 0.515999 6.856602 2.408045 0.047536 -5.500086 -1.569114 2.589336 11.839005 0.000000 0.000000 0.000000 0.009642 -0.494312 4.636464 -3.160535 0.175752 -2.797457 5.733932 7.842982 10.413688 0.000000 0.000000 0.000000 -0.357470 -0.265941 6.690583 -0.644888 0.400565 -2.377447 0.357368 -1.943787 -1.359994 -0.065664 1.383190 -18.299438 0.000000 0.000000 0.000000 -24.038345 5.000140 -5.624517 -45.622435 -4.476999 -3.268251 -17.523864 -18.416758 3.438735 0.000000 0.000000 0.000000 24.552709 -1.359475 -3.301089 48.562687 4.200449 -2.577998 13.892722 19.821876 2.764249 0.000000 0.000000 0.000000 
0.001642 0.955517 -0.006703 -0.790201 4.997937 -2.252830 0.880507 0.504957 6.867158 2.143747 0.067535 -5.596563 -1.767869 2.327140 11.898603 0.000000 0.000000 0.000000 -0.032421 -0.523354 4.903930 -3.183952 0.151981 -3.198284 5.622292 7.596614 10.524643 0.000000 0.000000 0.000000 -0.454366 -0.257696 6.606244 -0.562173 0.359120 -2.203809 0.240681 -2.165315 -1.463830 -0.322118 1.524431 -18.315965 0.000000 0.000000 0.000000 -24.189281 4.870712 -5.572658 -45.570377 -4.925860 -3.094453 -17.585973 -18.336131 3.433389 0.000000 0.000000 0.000000 24.870150 -1.236924 -3.281019 48.452014 4.495573 -2.445839 13.933261 19.241694 2.676109 0.000000 0.000000 0.000000 
0.001754 0.955652 -0.006827 -0.726965 5.323300 -2.355981 0.873452 0.514211 7.042524 2.078094 0.080533 -5.787077 -1.967620 2.077718 11.991364 0.000000 0.000000 0.000000 -0.078844 -0.565540 5.291398 -3.202325 0.126289 -3.616680 5.522397 7.366891 10.649945 0.000000 0.000000 0.000000 -0.553528 -0.260300 6.779003 -0.540723 0.353025 -2.224259 0.269738 -2.334086 -1.527340 -0.484397 1.606049 -18.208566 0.000000 0.000000 0.000000 -24.387704 4.725483 -5.518308 -45.468637 -5.099878 -3.024510 -17.551546 -18.503474 3.461536 0.000000 0.000000 0.000000 24.950901 -1.173634 -3.262929 48.488701 4.503665 -2.439846 13.932509 19.227908 2.671042 0.000000 0.000000 0.000000 
0.001876 0.955448 -0.006948 -0.751807 5.853782 -2.360335 1.017599 0.492936 7.002022 1.941218 0.090898 -5.846723 -2.220746 1.692739 11.909504 0.000000 0.000000 0.000000 -0.040295 -0.615230 5.684068 -3.169687 0.085195 -4.204196 5.330642 6.992705 10.755737 0.000000 0.000000 0.000000 -0.515889 -0.266003 6.822174 -0.516973 0.343291 -2.147972 0.058204 -2.523321 -1.592963 -0.701806 1.730099 -18.031437 0.000000 0.000000 0.000000 -24.395029 4.706640 -5.550554 -45.252923 -5.235004 -2.944668 -17.555092 -18.860778 3.525332 0.000000 0.000000 0.000000 25.405177 -1.260457 -3.330025 48.333618 4.633480 -2.390129 13.673428 19.402817 2.664037 0.000000 0.000000 0.000000 
0.001995 0.955210 -0.007038 -0.643615 6.174163 -2.267587 1.013190 0.479922 6.867706 1.772435 0.099930 -5.850370 -2.375311 1.455839 11.863015 0.000000 0.000000 0.000000 -0.156718 -0.636625 5.913891 -3.145234 0.049203 -4.706724 5.212453 6.769994 10.802798 0.000000 0.000000 0.000000 -0.626855 -0.260205 6.818752 -0.547546 0.349133 -1.891707 0.041604 -2.610499 -1.913991 -0.927502 1.851140 -17.833760 0.000000 0.000000 0.000000 -24.455051 4.525871 -5.485021 -45.148583 -5.236258 -2.904724 -17.407381 -19.187005 3.558373 0.000000 0.000000 0.000000 25.385701 -1.155488 -3.255047 48.227572 4.675075 -2.344785 13.429456 19.635929 2.662205 0.000000 0.000000 0.000000 
0.002105 0.954941 -0.007060 -0.608340 6.533364 -2.213591 1.216787 0.445452 6.660212 1.385113 0.111821 -5.661700 -2.534423 1.179336 11.734683 0.000000 0.000000 0.000000 -0.141098 -0.671035 6.185241 -3.206844 0.019362 -5.206290 5.075783 6.513836 10.857878 0.000000 0.000000 0.000000 -0.555587 -0.267514 6.870758 -0.494613 0.322334 -1.783403 -0.207998 -2.633980 -2.042746 -1.005008 1.889504 -17.371467 0.000000 0.000000 0.000000 -24.560239 4.523905 -5.572281 -44.743158 -5.291761 -2.827490 -17.443319 -19.513479 3.616767 0.000000 0.000000 0.000000 25.756821 -1.239453 -3.282558 47.900835 4.918094 -2.246238 13.024071 19.627374 2.606011 0.000000 0.000000 0.000000 
0.002222 0.954630 -0.007025 -0.537021 6.792771 -2.089567 1.281534 0.429346 6.543355 1.157003 0.126016 -5.731915 -2.659009 0.980368 11.684703 0.000000 0.000000 0.000000 -0.304803 -0.667890 6.224994 -3.026525 -0.008506 -5.433209 4.965881 6.341029 10.824431 0.000000 0.000000 0.000000 -0.666830 -0.263534 6.910077 -0.457772 0.292588 -1.474161 -0.304916 -2.581155 -2.394930 -0.965634 1.881283 -17.286141 0.000000 0.000000 0.000000 -24.404831 4.624506 -5.671951 -44.555484 -5.101378 -2.835087 -17.391423 -20.077627 3.702874 0.000000 0.000000 0.000000 25.738249 -1.237180 -3.224978 47.793019 4.861954 -2.248785 12.759361 19.928596 2.615778 0.000000 0.000000 0.000000 
0.002360 0.954175 -0.006974 -0.432836 7.195366 -1.870074 1.455310 0.393150 6.271859 0.688991 0.148533 -5.733659 -2.847602 0.671284 11.593866 0.000000 0.000000 0.000000 -0.393369 -0.659594 6.169313 -3.018987 -0.021860 -5.630883 4.758140 6.031847 10.705271 0.000000 0.000000 0.000000 -0.719064 -0.266259 7.026099 -0.383987 0.246014 -1.183801 -0.486677 -2.646277 -2.816364 -0.855790 1.800230 -16.696249 0.000000 0.000000 0.000000 -24.393854 4.896835 -5.889635 -44.162386 -4.895363 -2.830716 -17.557952 -20.535222 3.808568 0.000000 0.000000 0.000000 26.039851 -1.500950 -3.382377 47.540771 4.864024 -2.214041 12.621041 20.061761 2.616927 0.000000 0.000000 0.000000 
0.002597 0.953760 -0.006900 -0.350381 7.617101 -1.748170 1.672989 0.363378 6.146306 0.181555 0.173863 -5.807214 -3.060369 0.337770 11.536534 0.000000 0.000000 0.000000 -0.600169 -0.639027 6.060709 -2.765500 -0.030809 -5.533688 4.536097 5.724508 10.516330 0.000000 0.000000 0.000000 -0.784459 -0.268857 7.148389 -0.293472 0.188820 -0.860243 -0.626174 -2.793078 -3.213701 -0.950789 1.860737 -16.687909 0.000000 0.000000 0.000000 -24.059632 5.146795 -6.003426 -44.220518 -4.556240 -2.916607 -17.478487 -20.955676 3.866275 0.000000 0.000000 0.000000 25.937702 -1.531033 -3.376682 47.643870 4.920558 -2.166385 12.551930 20.226778 2.629783 0.000000 0.000000 0.000000 
0.002930 0.953397 -0.006847 -0.204413 7.967592 -1.697103 1.624709 0.354955 6.013529 0.000836 0.178436 -5.698779 -3.214793 0.074056 11.441505 0.000000 0.000000 0.000000 -0.720265 -0.624027 5.959596 -2.814908 -0.010655 -5.311863 4.315999 5.439543 10.260172 0.000000 0.000000 0.000000 -0.898900 -0.283359 7.621758 -0.308433 0.201050 -0.944123 -0.765007 -2.989834 -3.323012 -0.968338 1.870512 -16.679106 0.000000 0.000000 0.000000 -24.253262 5.231335 -6.094321 -43.819699 -4.329613 -2.955013 -17.445495 -21.424241 3.948460 0.000000 0.000000 0.000000 26.304435 -1.544600 -3.435103 47.134144 4.932848 -2.131583 12.680135 20.375374 2.671124 0.000000 0.000000 0.000000 
0.003358 0.953126 -0.006864 -0.103800 8.095214 -1.592888 1.638933 0.358679 6.120093 -0.249283 0.198611 -6.082765 -3.313220 -0.041604 11.518145 0.000000 0.000000 0.000000 -0.871195 -0.591510 5.730610 -2.763958 0.005088 -5.037173 4.206081 5.323454 10.055684 0.000000 0.000000 0.000000 -0.897719 -0.294712 7.877589 -0.433285 0.258935 -0.917358 -0.713155 -3.116329 -3.373522 -1.217690 2.027731 -17.140678 0.000000 0.000000 0.000000 -23.996601 5.507199 -6.173956 -44.000365 -4.545614 -2.900239 -17.277280 -21.475300 3.931206 0.000000 0.000000 0.000000 26.299937 -1.365686 -3.360195 47.044988 5.056887 -2.066117 12.811035 20.519447 2.708279 0.000000 0.000000 0.000000 
0.003814 0.952628 -0.007025 -0.108556 7.924134 -1.237678 1.422070 0.365888 5.945856 0.050281 0.195804 -6.439394 -3.195660 0.103810 11.461014 0.000000 0.000000 0.000000 -1.007788 -0.551582 5.452014 -2.581451 -0.026284 -5.285995 4.277612 5.453908 10.042319 0.000000 0.000000 0.000000 -0.866642 -0.297084 7.915387 -0.445402 0.270254 -1.077590 -0.861909 -2.880271 -3.027361 -0.896362 1.902057 -17.744066 0.000000 0.000000 0.000000 -23.793520 5.522072 -6.191758 -43.967852 -4.541271 -2.904804 -17.323944 -21.975262 4.027104 0.000000 0.000000 0.000000 26.459794 -1.463747 -3.353869 46.459033 5.627609 -1.880712 13.390596 20.522226 2.818688 0.000000 0.000000 0.000000 
0.004434 0.952198 -0.007159 -0.259217 8.013184 -0.832194 1.352598 0.357784 5.769068 0.391276 0.197256 -6.980791 -3.210216 0.078015 11.436757 0.000000 0.000000 0.000000 -1.151075 -0.513790 5.169086 -2.076563 -0.082212 -5.594990 4.274241 5.409690 10.143662 0.000000 0.000000 0.000000 -0.772920 -0.308438 8.021783 -0.464694 0.300125 -1.541040 -0.947145 -2.689707 -2.377642 -0.733463 1.854370 -18.018286 0.000000 0.000000 0.000000 -23.860584 5.620722 -6.323051 -43.790977 -4.887156 -2.798662 -17.447119 -22.391871 4.123692 0.000000 0.000000 0.000000 26.575926 -1.415581 -3.209018 46.328704 6.102427 -1.789606 13.425684 20.997971 2.920691 0.000000 0.000000 0.000000 
0.005596 0.951438 -0.007192 -0.381016 8.425213 -0.319692 1.301244 0.323635 5.259317 0.630648 0.193696 -7.184971 -3.326348 -0.177551 11.215452 0.000000 0.000000 0.000000 -1.208163 -0.457570 4.645086 -1.786129 -0.100553 -5.573961 4.049834 5.069096 9.996154 0.000000 0.000000 0.000000 -0.793316 -0.306423 7.985658 -0.460951 0.293929 -1.449672 -0.855907 -2.480085 -2.244862 -0.543701 1.823988 -18.629770 0.000000 0.000000 0.000000 -23.759416 5.860610 -6.540173 -43.685485 -5.203042 -2.664610 -18.294606 -22.936979 4.381497 0.000000 0.000000 0.000000 26.529128 -1.551045 -3.146085 46.019912 6.465284 -1.698397 13.700328 20.957989 2.980838 0.000000 0.000000 0.000000 
0.007928 0.950848 -0.006542 -0.596173 8.473872 0.117988 1.172420 0.299629 4.769305 1.010995 0.179283 -7.124469 -3.230198 -0.176617 10.880869 0.000000 0.000000 0.000000 -1.324446 -0.438944 4.530500 -1.402059 -0.162475 -6.160767 4.086454 5.059005 10.196624 0.000000 0.000000 0.000000 -0.544294 -0.322701 7.932905 -0.736782 0.447164 -2.055987 -0.660132 -2.288105 -1.214652 -0.237370 1.737767 -19.560488 0.000000 0.000000 0.000000 -23.941145 5.715943 -6.528983 -43.604285 -5.576362 -2.591406 -18.380849 -24.019705 4.615902 0.000000 0.000000 0.000000 26.407143 -1.511082 -2.987853 45.913099 6.889402 -1.656773 13.582171 21.335023 3.045753 0.000000 0.000000 0.000000 
0.012234 0.950280 -0.004755 -0.854709 9.376834 0.524455 0.846075 0.262361 3.999480 1.753575 0.131308 -6.553242 -3.464833 -0.770866 10.285673 0.000000 0.000000 0.000000 -1.091783 -0.428203 4.283255 -1.622500 -0.142635 -6.095230 3.639361 4.305530 10.100408 0.000000 0.000000 0.000000 -0.256751 -0.370381 8.340462 -0.564575 0.397858 -2.580911 -0.863075 -1.505867 -0.670091 0.118322 1.691274 -19.751668 0.000000 0.000000 0.000000 -23.568193 5.588090 -6.727098 -43.669731 -5.842017 -2.453128 -19.993355 -24.530455 4.992129 0.000000 0.000000 0.000000 26.359341 -1.778945 -2.665300 45.284143 6.869748 -1.839221 13.983513 22.221754 3.335561 0.000000 0.000000 0.000000 
0.019063 0.949262 -0.000736 -0.789349 10.029913 1.037227 -0.045455 0.251999 3.137900 2.594077 0.053151 -5.550163 -3.514437 -1.230334 9.447946 0.000000 0.000000 0.000000 -1.656171 -0.407572 4.291956 -1.334684 -0.175398 -6.326592 3.325845 3.801629 9.958523 0.000000 0.000000 0.000000 0.010144 -0.390924 8.256241 -0.565523 0.408477 -2.741117 -1.066996 -0.830796 0.013464 0.424395 1.692345 -20.464645 0.000000 0.000000 0.000000 -23.147862 5.260610 -6.733605 -43.556474 -6.280063 -2.265440 -21.534294 -24.834646 5.325970 0.000000 0.000000 0.000000 25.962492 -1.919345 -2.313480 45.304933 6.960816 -1.976973 13.245582 22.664623 3.337455 0.000000 0.000000 0.000000 
0.028532 0.947365 0.006037 -0.894933 11.295036 1.591670 -0.563818 0.260871 2.905690 2.981399 0.036618 -5.529937 -3.864961 -2.237117 8.531071 0.000000 0.000000 0.000000 -1.582746 -0.252513 2.687580 -1.939841 0.061181 -3.252466 2.334985 2.489771 8.419306 0.000000 0.000000 0.000000 0.446821 -0.456439 8.605777 -0.303040 0.300306 -2.788140 -1.041663 -0.472166 -0.177296 1.182349 1.375499 -20.230819 0.000000 0.000000 0.000000 -23.468396 4.665891 -6.773200 -43.003630 -5.458945 -2.399406 -23.332215 -25.922437 5.902910 0.000000 0.000000 0.000000 25.400521 -2.714496 -2.439565 45.026587 7.191158 -1.955481 13.175052 22.637691 3.373032 0.000000 0.000000 0.000000 
0.040211 0.944730 0.016153 -0.533227 12.236627 1.707222 -1.291288 0.382073 3.880399 2.663840 0.076717 -6.063730 -4.144800 -3.179212 7.668789 0.000000 0.000000 0.000000 -2.719628 -0.053715 0.681423 -1.464697 0.273619 2.000749 1.466531 1.414752 6.338224 0.000000 0.000000 0.000000 0.373367 -0.512528 9.490059 0.354925 -0.003284 -2.539796 -1.607844 -0.934471 0.136754 1.262109 1.398813 -20.803335 0.000000 0.000000 0.000000 -24.381429 5.439097 -7.464252 -41.980725 -6.464066 -1.993215 -23.605857 -26.551074 6.118699 0.000000 0.000000 0.000000 24.686222 -2.083410 -1.937003 45.557169 7.368370 -1.932233 12.331691 24.428763 3.527579 0.000000 0.000000 0.000000 
0.053405 0.940882 0.029753 -0.767975 12.789453 1.414162 -1.571658 0.476527 4.856073 2.568567 0.054442 -5.463889 -3.888217 -3.875596 5.795654 0.000000 0.000000 0.000000 -2.703836 0.123406 -1.518130 -2.390917 0.691534 9.178431 1.233749 1.911693 3.421666 0.000000 0.000000 0.000000 0.759482 -0.687315 11.302195 0.513418 -0.073847 -2.493180 -0.817960 -0.956062 0.752990 0.688702 1.861457 -22.766007 0.000000 0.000000 0.000000 -25.268451 3.931153 -6.836329 -41.243907 -7.889325 -1.487725 -23.269120 -26.878872 6.128813 0.000000 0.000000 0.000000 22.758049 -3.252176 -2.482796 46.750271 8.281190 -1.628175 11.061548 25.544036 3.477885 0.000000 0.000000 0.000000 
0.066710 0.937476 0.048396 -0.297794 14.153505 1.334279 -2.513737 0.747355 7.406943 2.734796 0.125519 -7.319862 -4.479610 -5.208780 5.329204 0.000000 0.000000 0.000000 -4.040369 0.496312 -8.795737 -1.171300 0.292311 25.480260 0.487172 0.254000 2.969861 0.000000 0.000000 0.000000 -0.348897 -0.739285 13.506552 1.458082 -0.384191 -3.858226 -0.269080 -4.528503 1.990365 0.548037 1.788199 -25.477569 0.000000 0.000000 0.000000 -25.899061 5.379130 -6.859888 -40.769672 -10.082810 -1.137693 -22.477909 -28.437086 6.562224 0.000000 0.000000 0.000000 22.099535 -2.908718 -3.040852 46.669972 9.084612 -1.183832 10.683488 26.685613 3.403298 0.000000 0.000000 0.000000 
0.079259 0.934522 0.074596 -0.857978 14.128895 1.537472 -2.775727 0.985509 10.184706 3.637032 0.195801 -9.535604 -4.403511 -5.222226 5.088603 0.000000 0.000000 0.000000 -3.849932 0.848684 -19.203006 0.118013 -1.050745 40.662651 1.000921 -0.598920 8.675036 0.000000 0.000000 0.000000 -0.119316 -0.865939 14.660271 2.762642 -0.909882 -4.459489 -0.126257 -6.873062 3.028118 -0.112029 1.909844 -26.917226 0.000000 0.000000 0.000000 -24.539745 4.763918 -5.455126 -41.217081 -12.542807 -0.671139 -21.859003 -30.217335 7.067217 0.000000 0.000000 0.000000 19.757135 -4.622586 -4.322748 48.543935 9.255714 -0.991585 9.767707 25.020445 2.839321 0.000000 0.000000 0.000000 
0.091269 0.931169 0.110191 -1.500985 15.035133 1.723031 -2.188244 1.130485 14.210639 3.860218 0.241534 -10.880999 -3.898897 -6.655253 1.799915 0.000000 0.000000 0.000000 -3.786185 0.837800 -26.875911 2.773154 -2.731547 42.546733 0.289421 -3.178448 12.871670 0.000000 0.000000 0.000000 0.628532 -1.022757 14.989952 3.804745 -1.422457 -3.834611 -0.064105 -10.547782 2.392468 -0.673708 1.789940 -26.969051 0.000000 0.000000 0.000000 -25.261952 5.522031 -5.010720 -39.854767 -15.014120 -0.189286 -21.582587 -32.016579 7.762319 0.000000 0.000000 0.000000 20.377280 -4.691841 -5.341109 48.037465 7.955867 -1.188535 10.143554 23.369508 2.493972 0.000000 0.000000 0.000000 
0.103513 0.924335 0.155019 -1.587400 15.575249 1.699111 -1.776656 1.240746 19.163989 3.604267 0.269220 -11.789841 -3.159776 -7.684457 -1.389503 0.000000 0.000000 0.000000 -4.596254 0.418847 -33.079517 4.817529 -2.593055 32.485518 2.569476 -0.045077 16.894974 0.000000 0.000000 0.000000 0.367265 -1.085905 15.944238 4.894326 -1.827006 -4.564543 0.029495 -13.050900 2.837571 -0.469677 1.382443 -26.449042 0.000000 0.000000 0.000000 -25.106881 5.276457 -4.089595 -39.339386 -19.068575 0.784334 -19.492268 -35.402656 8.232616 0.000000 0.000000 0.000000 20.295189 -5.988922 -6.595558 47.319615 4.909795 -2.215539 10.345761 21.357562 2.177462 0.000000 0.000000 0.000000 
0.116036 0.912212 0.208196 -1.451846 16.126126 1.796954 -1.779554 1.311069 23.452399 3.504704 0.246564 -11.165146 -1.764292 -7.238438 -4.549609 0.000000 0.000000 0.000000 -4.200036 0.369789 -35.822405 3.568540 -0.754337 13.401988 2.427730 -5.288580 38.568928 0.000000 0.000000 0.000000 0.485851 -1.194539 16.741432 5.308889 -1.920822 -5.287940 0.391209 -16.026329 2.856298 -1.455551 1.580840 -28.025755 0.000000 0.000000 0.000000 -25.307380 6.186008 -3.798268 -38.705689 -22.478691 1.533925 -18.616669 -40.875100 9.703584 0.000000 0.000000 0.000000 21.234673 -7.450007 -8.345640 45.575497 2.177714 -2.906556 9.207221 17.356285 1.490962 0.000000 0.000000 0.000000 
0.127840 0.895434 0.269703 -0.947521 17.368395 2.849954 -1.999524 1.306134 27.176752 3.907452 0.233951 -10.908522 -0.785434 -6.540327 -6.360583 0.000000 0.000000 0.000000 -4.395556 0.011634 -38.063800 1.274629 -0.116415 4.186536 3.119104 -3.447910 35.242401 0.000000 0.000000 0.000000 0.838319 -1.235955 16.298178 6.385972 -2.452912 -4.743064 -0.025622 -18.773264 1.654904 -1.794671 1.593886 -30.121714 0.000000 0.000000 0.000000 -24.198853 6.630948 -3.414139 -38.855133 -26.277207 2.767769 -17.943939 -46.344732 11.277351 0.000000 0.000000 0.000000 20.986209 -8.997180 -9.625813 45.468014 -1.734931 -4.137012 7.178561 15.209369 1.005793 0.000000 0.000000 0.000000 
0.138930 0.878331 0.340237 -1.193538 18.196274 3.732265 -0.795534 0.828047 29.963047 3.897205 0.190411 -9.832050 -1.228084 -6.307245 -4.949012 0.000000 0.000000 0.000000 -3.855964 -0.093792 -40.750148 0.936188 -0.043898 6.844333 2.385820 -2.636319 28.407749 0.000000 0.000000 0.000000 1.202386 -1.291639 16.017305 8.389926 -3.227964 -5.532513 -1.380395 -19.580523 1.279181 -1.662339 1.526717 -29.425582 0.000000 0.000000 0.000000 -22.818771 6.783228 -3.477255 -40.126419 -29.598589 4.311471 -17.814848 -51.996921 12.908924 0.000000 0.000000 0.000000 21.214798 -10.255375 -10.348917 43.764790 -4.456708 -4.856410 5.705505 13.530244 0.755142 0.000000 0.000000 0.000000 
0.148940 0.869916 0.421588 -1.777127 19.308214 5.327787 0.491551 0.205932 31.712340 5.281405 0.087308 -8.236564 -3.623625 -5.513903 2.286823 0.000000 0.000000 0.000000 -2.780526 0.011599 -42.634511 1.047211 -0.142358 13.238294 3.115713 -0.587033 24.614869 0.000000 0.000000 0.000000 3.238103 -1.518340 14.697649 7.480173 -2.754801 -5.802942 -0.613169 -21.384065 -0.778109 -2.169797 1.715544 -31.418880 0.000000 0.000000 0.000000 -22.785182 7.438355 -3.593434 -42.368465 -29.924828 4.997914 -23.688102 -55.354083 17.489473 0.000000 0.000000 0.000000 21.564832 -10.741717 -11.072298 42.185700 -7.129890 -5.313569 4.261905 12.422616 0.536520 0.000000 0.000000 0.000000 
0.156643 0.874515 0.514908 -2.690455 18.926903 6.811519 2.375253 -0.377178 31.572426 6.093330 -0.363552 -2.301680 -7.022508 -5.433182 11.139097 0.000000 0.000000 0.000000 -0.994273 0.638235 -45.426790 2.273951 -0.982707 25.013895 1.985236 -0.317985 15.688566 0.000000 0.000000 0.000000 4.550391 -1.387629 11.896758 8.424613 -2.967561 -7.061972 -2.085471 -20.676595 -0.735898 -2.860956 2.101147 -30.494048 0.000000 0.000000 0.000000 -22.729469 9.570276 -5.188145 -45.555851 -26.339525 4.315626 -32.920907 -56.192111 23.099078 0.000000 0.000000 0.000000 20.833876 -11.673161 -11.023075 41.050213 -7.030880 -5.166253 4.893221 9.353890 0.454291 0.000000 0.000000 0.000000 
0.161427 0.890915 0.613521 -3.513287 18.208522 6.492257 4.402851 -0.693874 27.236965 6.361353 -1.607083 9.458513 -11.116442 -4.790284 22.504014 0.000000 0.000000 0.000000 1.432258 1.920428 -40.238255 2.777342 -1.405867 27.658694 0.525074 -1.029758 8.100861 0.000000 0.000000 0.000000 5.760874 -1.493954 11.335248 7.119953 -2.368408 -7.496700 -1.394240 -18.999935 -0.984193 -3.539979 2.543221 -31.742620 0.000000 0.000000 0.000000 -24.531566 10.012981 -5.968850 -47.063463 -22.969405 3.180271 -38.893534 -52.600156 24.434205 0.000000 0.000000 0.000000 18.863877 -11.244249 -9.846303 42.946305 -8.636356 -6.123970 5.422652 9.540119 0.510019 0.000000 0.000000 0.000000 
0.165045 0.910660 0.708174 -3.930098 16.316063 6.619752 4.819620 -0.211381 16.601747 4.392016 -3.609096 26.880014 -7.271241 -0.180690 21.985309 0.000000 0.000000 0.000000 4.775080 3.087218 -33.158035 1.462652 -0.728005 26.110740 0.481954 0.200398 3.316781 0.000000 0.000000 0.000000 5.763211 -1.383649 10.633965 5.289123 -1.600304 -7.821152 -0.871630 -16.093686 0.162266 -3.282129 2.570459 -30.075827 0.000000 0.000000 0.000000 -24.072522 8.668540 -5.565576 -47.042026 -18.404684 1.357941 -39.619215 -48.852867 22.466976 0.000000 0.000000 0.000000 20.188955 -9.698651 -9.096747 42.583436 -7.469260 -5.719256 6.091632 10.556020 0.653719 0.000000 0.000000 0.000000 
0.169519 0.927388 0.798614 -4.312362 14.990675 5.053238 5.252865 -0.225835 3.207224 -0.064879 -4.499451 43.656163 -0.663075 3.152756 8.442495 0.000000 0.000000 0.000000 7.984964 3.032752 -22.221120 -0.140470 0.078174 20.553614 0.588092 1.482825 0.151660 0.000000 0.000000 0.000000 4.729781 -1.397796 12.323574 3.752648 -1.075052 -7.079195 1.192794 -11.596878 0.418192 -3.875141 3.162095 -29.252632 0.000000 0.000000 0.000000 -24.781538 7.451008 -5.820589 -46.494184 -15.022423 0.158864 -37.326652 -44.543845 18.467410 0.000000 0.000000 0.000000 20.758586 -7.741986 -7.444318 43.736925 -3.433279 -4.722862 5.550410 12.892581 0.835129 0.000000 0.000000 0.000000 
0.175800 0.940189 0.888800 -3.470193 12.127474 3.496170 4.503284 -0.772862 -10.356257 -4.688312 -2.354726 50.198633 4.160428 8.959542 0.899233 0.000000 0.000000 0.000000 9.402155 1.583340 -10.097643 -2.119202 0.739792 13.113314 1.732449 4.886931 -0.840075 0.000000 0.000000 0.000000 2.572863 -1.100230 13.150008 2.378834 -0.536469 -7.456826 1.688543 -6.534393 1.693501 -2.095620 2.776401 -28.932538 0.000000 0.000000 0.000000 -24.149083 7.211152 -6.565450 -45.816023 -10.264281 -1.475704 -35.818425 -39.297371 14.878241 0.000000 0.000000 0.000000 20.393407 -7.165090 -6.128684 44.699497 0.536985 -3.805312 8.179101 17.547649 1.635652 0.000000 0.000000 0.000000 
0.183668 0.945951 0.980784 -2.726474 8.271607 1.410462 3.314979 -1.522011 -19.447250 -5.385898 -0.231661 37.158741 11.767763 23.533528 14.017567 0.000000 0.000000 0.000000 8.770477 -0.481156 1.630938 -3.007700 0.739801 6.672310 4.230680 10.393764 1.059645 0.000000 0.000000 0.000000 0.490825 -0.805912 14.096307 0.648951 0.030755 -6.229387 2.510118 -1.112253 0.570352 -2.762468 3.386652 -27.037288 0.000000 0.000000 0.000000 -21.368738 8.840205 -7.718263 -45.871393 -4.465793 -3.329492 -34.825161 -34.608063 12.095112 0.000000 0.000000 0.000000 19.562640 -6.131958 -4.687085 46.716608 4.898762 -2.489310 10.522920 22.644724 2.746978 0.000000 0.000000 0.000000 
0.193112 0.944711 1.074939 -2.588516 4.468827 0.199790 2.710040 -1.813432 -23.144625 -2.220181 -0.061112 12.692342 16.976885 27.650631 36.102112 0.000000 0.000000 0.000000 7.439904 -2.077901 10.931294 -3.731114 0.621377 2.842557 7.451706 15.711561 4.506166 0.000000 0.000000 0.000000 -0.466705 -0.591534 13.797747 -0.818834 0.610337 -7.371201 3.087180 2.436984 2.417697 -1.817582 3.180901 -27.949058 0.000000 0.000000 0.000000 -20.926881 11.034542 -9.102220 -43.607138 -0.478196 -4.587042 -35.285290 -30.042900 10.349899 0.000000 0.000000 0.000000 18.386086 -5.680266 -3.881284 48.332751 9.309901 -1.091753 12.785384 28.557807 4.290626 0.000000 0.000000 0.000000 
0.205096 0.943527 1.171535 -2.210182 1.350238 -0.400830 2.715893 -1.716340 -23.712822 -1.338380 0.146677 -0.162245 4.190750 14.178619 29.390212 0.000000 0.000000 0.000000 5.804638 -2.810222 17.072877 -5.570961 0.983253 4.282831 10.350738 18.935185 8.239251 0.000000 0.000000 0.000000 -1.252721 -0.389610 12.442769 -1.724917 0.899560 -5.508700 3.628302 4.596395 1.043289 -3.118143 3.725016 -25.455531 0.000000 0.000000 0.000000 -21.364482 12.426878 -10.065673 -42.293063 2.197089 -5.179014 -32.597559 -25.761351 8.078206 0.000000 0.000000 0.000000 16.321302 -4.680427 -3.106550 49.513723 11.984556 0.173224 15.975823 34.927359 6.433572 0.000000 0.000000 0.000000 
0.219928 0.942551 1.271724 -0.964180 1.626996 -1.624429 -0.908650 -2.083295 -20.351833 0.041813 0.030552 -1.002364 -0.759993 7.259259 24.143258 0.000000 0.000000 0.000000 3.475436 -2.759586 19.643218 -5.644195 1.812641 13.507616 10.949617 17.017078 12.098290 0.000000 0.000000 0.000000 -2.977430 -0.186006 11.507864 -1.404003 0.746943 -3.956283 4.255383 2.509875 1.374439 -4.604458 4.229317 -26.561518 0.000000 0.000000 0.000000 -22.133603 14.853943 -11.110160 -42.039646 4.383477 -6.006574 -30.573546 -26.027619 7.909044 0.000000 0.000000 0.000000 17.256659 -5.212952 -3.901995 50.313325 14.441129 1.230493 22.074222 39.025024 9.189849 0.000000 0.000000 0.000000 
0.237425 0.938204 1.372633 -0.067517 1.344915 -3.122221 -3.681105 -1.906431 -15.270783 0.623150 -0.226170 3.867074 -1.165619 4.726049 17.396074 0.000000 0.000000 0.000000 0.980829 -1.768469 15.577653 -4.356898 2.955303 31.585437 12.066359 14.764172 17.827518 0.000000 0.000000 0.000000 -3.936144 -0.094662 10.567631 -1.202668 0.662753 -4.269762 4.704426 0.019235 4.183436 -6.236597 4.767057 -26.176868 0.000000 0.000000 0.000000 -24.305636 14.514587 -10.852888 -41.365114 2.557102 -5.682834 -31.343855 -24.340693 7.855224 0.000000 0.000000 0.000000 15.469441 -4.717950 -3.845035 51.886689 13.638451 0.758599 24.502347 39.931216 9.965972 0.000000 0.000000 0.000000 
0.255429 0.934582 1.468375 0.703098 3.109173 -5.001890 -6.660747 -0.997266 -6.654792 1.566901 -0.350141 3.614625 -1.458272 1.624779 9.537259 0.000000 0.000000 0.000000 -0.087394 -0.575570 5.554078 -3.758719 3.739204 50.015734 11.732040 10.409391 23.849290 0.000000 0.000000 0.000000 -4.361376 -0.127414 13.121527 -0.377275 0.288385 -3.058821 3.052219 -3.534253 2.684433 -6.379241 4.550996 -26.852455 0.000000 0.000000 0.000000 -26.128469 11.271828 -8.695167 -41.926529 -0.868658 -4.798701 -28.452347 -26.762071 8.131194 0.000000 0.000000 0.000000 18.481851 -4.170232 -4.622341 50.812685 10.143232 -0.500626 22.969101 35.712065 7.860340 0.000000 0.000000 0.000000 
0.271110 0.933110 1.559702 1.504402 5.225491 -7.756647 -8.376754 0.333334 2.397924 1.612349 -0.383202 4.083248 -1.180771 -0.785859 3.047688 0.000000 0.000000 0.000000 -1.473124 0.610546 -7.260663 -2.330860 2.694320 60.735889 6.744346 6.453262 15.629495 0.000000 0.000000 0.000000 -4.657926 -0.230982 16.933252 0.924196 -0.251385 -3.827707 0.934354 -6.466981 3.054697 -6.602887 4.504610 -27.769328 0.000000 0.000000 0.000000 -27.704495 7.356001 -6.024898 -40.415351 -7.423480 -2.858206 -25.088830 -29.797065 8.244348 0.000000 0.000000 0.000000 20.880111 -5.344180 -6.066563 49.114161 5.348157 -2.338194 18.508368 29.106891 5.017971 0.000000 0.000000 0.000000 
0.284264 0.931637 1.651374 0.595032 7.448414 -9.053408 -8.646395 1.637809 11.187863 4.114222 -0.565187 1.861393 -1.424842 -3.313552 -0.500988 0.000000 0.000000 0.000000 -0.548153 1.552808 -18.143815 -1.382504 1.114046 47.706501 0.562399 -3.953062 14.439327 0.000000 0.000000 0.000000 -2.764789 -0.604590 18.420081 1.647292 -0.569422 -3.508485 0.232702 -10.566436 2.116989 -7.528406 4.655288 -26.790769 0.000000 0.000000 0.000000 -29.174857 7.147354 -5.187290 -40.927813 -14.523035 -0.856643 -22.706446 -33.142387 8.708994 0.000000 0.000000 0.000000 20.166261 -6.032597 -6.934258 46.961439 -0.067879 -4.051382 18.112365 22.820513 3.564824 0.000000 0.000000 0.000000 
0.295225 0.927887 1.744643 0.011272 10.360499 -8.964903 -7.824191 2.313560 17.896399 5.531258 -0.612438 0.580949 -2.459385 -6.002732 -1.212421 0.000000 0.000000 0.000000 -1.934116 1.461527 -23.373436 1.838194 -0.261396 19.934747 2.944536 -4.627814 33.956588 0.000000 0.000000 0.000000 -2.405394 -0.715673 17.764127 3.368062 -1.337259 -3.511422 -0.408130 -13.679169 1.310495 -7.896442 4.730171 -24.715129 0.000000 0.000000 0.000000 -27.585376 5.694366 -3.620765 -43.402375 -20.176162 1.175850 -20.273397 -38.694595 9.619874 0.000000 0.000000 0.000000 17.169774 -8.687252 -7.680031 46.506115 -6.693546 -6.539894 16.545486 18.524754 2.536845 0.000000 0.000000 0.000000 
0.305071 0.917459 1.840027 -0.547256 11.677867 -8.359388 -6.440578 2.528848 23.166599 5.866337 -0.685457 1.062251 -2.726124 -6.345035 -0.984656 0.000000 0.000000 0.000000 -1.152113 1.610052 -24.310821 2.241271 -0.255274 5.502478 6.103613 0.447448 31.581897 0.000000 0.000000 0.000000 -3.042506 -0.603865 16.447768 4.476579 -1.769811 -4.215310 -0.743843 -16.817741 1.846491 -7.750139 4.426462 -23.642608 0.000000 0.000000 0.000000 -26.138818 7.179010 -3.739313 -45.035887 -24.963996 3.020771 -21.126933 -44.382636 12.072620 0.000000 0.000000 0.000000 16.245049 -9.128685 -7.996363 43.803525 -10.780055 -7.539532 13.945328 15.050260 1.678906 0.000000 0.000000 0.000000 
0.315037 0.906824 1.938568 -1.494783 12.788301 -6.586497 -3.984166 2.076500 25.294345 5.272894 -0.912231 4.445767 -4.279797 -6.455325 3.080871 0.000000 0.000000 0.000000 0.954079 2.087901 -25.312104 1.385354 -0.103103 6.413047 6.473154 2.755572 27.207374 0.000000 0.000000 0.000000 -2.092709 -0.498434 12.546636 4.891752 -2.007353 -3.539202 -0.909408 -17.935518 0.407975 -7.414183 4.202223 -23.288196 0.000000 0.000000 0.000000 -25.988924 6.849599 -3.479510 -45.162788 -25.602135 3.425344 -24.129400 -47.129417 14.393500 0.000000 0.000000 0.000000 15.521855 -10.531203 -8.472378 42.587582 -13.108701 -8.014683 11.363598 11.827788 1.064120 0.000000 0.000000 0.000000 
0.325536 0.898049 2.038340 -2.439303 14.212127 -6.993609 0.179828 0.938396 24.056237 2.717852 -1.708940 17.089715 -9.050776 -7.996576 13.069937 0.000000 0.000000 0.000000 2.782263 2.383122 -24.380278 0.918016 -0.087882 15.036821 4.608717 2.688581 19.986938 0.000000 0.000000 0.000000 -0.272398 -0.555836 10.790184 4.975110 -2.213339 -2.003406 -1.453943 -17.182795 -2.086026 -7.623208 4.654952 -19.353697 0.000000 0.000000 0.000000 -26.059738 7.316287 -4.400715 -46.022543 -23.042347 2.923037 -33.834066 -51.459884 20.661534 0.000000 0.000000 0.000000 14.231262 -11.994070 -8.427781 43.057477 -15.169797 -8.779783 9.098710 8.965614 0.655102 0.000000 0.000000 0.000000 
0.336277 0.895105 2.128063 -3.724427 13.961207 -8.387731 3.626383 0.242534 16.299407 -0.058486 -3.479044 37.626073 -12.818431 -5.880866 26.480524 0.000000 0.000000 0.000000 5.545934 2.800716 -21.849779 0.498223 -0.211755 23.452580 2.405995 2.162059 9.632593 0.000000 0.000000 0.000000 0.882745 -0.744993 12.086760 3.518458 -1.537681 -1.684896 0.072263 -14.191649 -3.591883 -6.266417 4.188823 -17.207650 0.000000 0.000000 0.000000 -26.696858 7.578143 -5.443614 -48.013284 -19.563413 2.029519 -36.244798 -47.674115 19.542178 0.000000 0.000000 0.000000 15.697509 -12.232895 -8.679027 42.281381 -15.402863 -8.524210 8.789444 9.560335 0.722799 0.000000 0.000000 0.000000 
0.346981 0.901532 2.203121 -4.564734 12.664819 -9.350923 5.617505 -0.010392 5.001637 -3.728728 -3.726670 52.812006 -11.462055 0.497210 38.474196 0.000000 0.000000 0.000000 8.131689 2.732417 -16.821465 -0.514392 0.138499 25.504123 1.925340 3.176116 3.869701 0.000000 0.000000 0.000000 0.699375 -0.836359 13.545748 3.319713 -1.437593 -1.830690 0.618040 -10.487804 -2.767789 -4.579224 3.490211 -17.904627 0.000000 0.000000 0.000000 -25.851977 7.322004 -6.023356 -48.782229 -14.799243 0.293877 -30.829427 -40.489938 13.613517 0.000000 0.000000 0.000000 18.671738 -9.783441 -7.876023 42.110922 -11.229994 -7.089154 8.971945 11.427671 0.970449 0.000000 0.000000 0.000000 
0.358740 0.914665 2.270662 -4.279438 10.463419 -9.240256 6.524848 -0.337751 -7.007959 -6.288154 -2.019502 57.228381 -6.539576 6.100390 41.680229 0.000000 0.000000 0.000000 8.489924 1.792064 -10.018007 -0.582126 0.391255 21.851849 2.555400 5.731702 1.506979 0.000000 0.000000 0.000000 -0.308591 -0.787709 14.718439 1.828168 -0.623403 -3.235180 2.600552 -6.806210 -1.094082 -3.865575 3.296650 -18.222906 0.000000 0.000000 0.000000 -26.193576 7.907464 -6.982758 -47.194469 -10.433309 -1.463195 -29.294669 -33.232749 10.281144 0.000000 0.000000 0.000000 19.167826 -7.716492 -6.488412 44.256345 -3.659275 -5.086827 10.117156 13.959846 1.391687 0.000000 0.000000 0.000000 
0.372396 0.928008 2.335978 -3.090407 8.116525 -8.862062 6.527281 -0.710303 -15.281631 -6.534005 -0.510404 49.934836 1.109981 8.730645 17.720690 0.000000 0.000000 0.000000 7.580209 0.519846 -2.718489 -1.568646 0.784484 16.548375 3.693774 8.957534 0.978674 0.000000 0.000000 0.000000 -1.479689 -0.611260 14.646590 0.606711 -0.021968 -4.443337 2.737249 -2.381329 0.969732 -2.914534 3.105139 -18.591807 0.000000 0.000000 0.000000 -25.517499 8.171543 -7.880474 -44.612493 -5.031829 -3.239754 -28.624698 -27.791666 8.057944 0.000000 0.000000 0.000000 19.877730 -7.262631 -5.624366 45.505275 1.692139 -3.676441 13.964136 20.615528 2.952334 0.000000 0.000000 0.000000 
0.387928 0.934653 2.400822 -2.634390 5.529656 -8.560461 6.516613 -0.826882 -18.739592 -3.049975 -0.556794 29.318796 2.177444 9.317186 14.059602 0.000000 0.000000 0.000000 6.270168 -0.526083 3.445382 -1.705420 0.786462 12.792966 5.060506 12.400941 1.143900 0.000000 0.000000 0.000000 -1.460440 -0.542841 14.281292 -0.609007 0.435359 -3.021923 2.976108 1.342955 -0.169873 -3.777367 3.777425 -17.823254 0.000000 0.000000 0.000000 -23.782419 9.674719 -8.942296 -43.446026 -0.725890 -4.392167 -28.060686 -23.230843 6.361844 0.000000 0.000000 0.000000 19.869414 -6.222439 -4.587851 45.761839 7.574094 -1.575849 15.919298 25.970886 4.395739 0.000000 0.000000 0.000000 
0.404862 0.932374 2.465110 -2.736735 2.921379 -7.664058 7.688615 -0.585056 -19.731743 -0.363398 -0.270204 8.586605 -2.241917 6.743925 27.954484 0.000000 0.000000 0.000000 4.580654 -1.206034 8.270258 -1.082223 0.580539 9.997628 6.251921 16.001444 0.560029 0.000000 0.000000 0.000000 -0.812132 -0.502986 12.986090 -1.688900 0.915666 -3.839116 3.299499 2.902508 0.159302 -4.019050 3.927151 -17.651644 0.000000 0.000000 0.000000 -22.901425 12.696039 -10.413018 -42.075375 3.486271 -5.645415 -29.465851 -21.527764 6.130113 0.000000 0.000000 0.000000 18.430815 -5.392403 -3.898840 46.932213 11.604221 -0.062098 17.957375 30.762402 5.921168 0.000000 0.000000 0.000000 
0.423911 0.924268 2.529683 -2.993394 0.276062 -7.213240 8.981047 -0.222024 -18.611311 1.653156 -0.081954 -2.104789 -4.904895 2.938559 27.662997 0.000000 0.000000 0.000000 3.162675 -1.485021 11.370559 -1.365556 0.751184 11.571750 6.600981 18.884875 -1.435000 0.000000 0.000000 0.000000 -0.447730 -0.470324 12.272425 -1.817841 0.942881 -4.594144 3.289748 5.288135 0.240539 -3.927712 3.962537 -17.323524 0.000000 0.000000 0.000000 -22.393766 13.766567 -11.086574 -41.833607 6.028169 -6.395676 -27.875034 -20.762746 5.530476 0.000000 0.000000 0.000000 17.885637 -4.350269 -3.059785 46.908032 14.711263 1.097399 19.084310 34.883730 7.324900 0.000000 0.000000 0.000000 
0.446221 0.912956 2.594426 -2.709736 0.067052 -7.819503 8.404740 -0.268405 -17.291757 1.672633 -0.141241 -0.949340 -5.111944 1.658298 24.789908 0.000000 0.000000 0.000000 1.498501 -1.786861 15.545123 -2.065468 1.035526 13.724764 5.799002 18.877452 -3.512012 0.000000 0.000000 0.000000 -0.692166 -0.421461 11.619557 -2.157860 1.091224 -4.433078 3.660104 5.695762 1.455386 -4.181787 4.148925 -16.843566 0.000000 0.000000 0.000000 -21.535271 13.194919 -10.545368 -42.414263 6.223948 -6.647421 -25.700878 -21.290828 5.261292 0.000000 0.000000 0.000000 18.089648 -4.347044 -2.981320 47.119272 17.253497 1.956229 22.704169 38.901913 9.697558 0.000000 0.000000 0.000000 
0.471339 0.900875 2.659835 -1.822347 1.222038 -7.641617 4.900820 -0.950064 -18.876147 3.647820 -0.964510 8.046771 -5.307962 -0.670345 19.107317 0.000000 0.000000 0.000000 0.626390 -1.752613 15.984059 -3.672116 1.999100 22.095870 4.093306 14.970390 -4.670810 0.000000 0.000000 0.000000 -1.700744 -0.328350 10.863683 -1.920802 1.007253 -5.309030 3.262955 3.808974 3.457296 -3.309888 3.560932 -16.626333 0.000000 0.000000 0.000000 -24.151812 12.744560 -10.817614 -40.125023 4.931770 -5.962481 -25.314716 -23.047752 5.768615 0.000000 0.000000 0.000000 19.418525 -3.013153 -2.578662 45.511131 17.828168 1.871074 23.565411 39.767224 10.132643 0.000000 0.000000 0.000000 
0.495663 0.893885 2.721010 -0.071622 3.115066 -7.901980 0.827478 -1.826201 -20.162132 3.743365 -1.767499 17.710549 -2.112375 1.472160 11.827117 0.000000 0.000000 0.000000 -2.067868 -1.099425 12.337554 -2.505481 2.350559 37.076038 4.835805 11.477030 1.584554 0.000000 0.000000 0.000000 -4.485383 -0.151694 11.937631 -1.084197 0.658024 -4.786893 2.687721 3.233629 3.023406 -2.260248 2.967705 -16.699867 0.000000 0.000000 0.000000 -26.313587 9.702956 -9.798461 -38.987692 1.776184 -4.730083 -25.518486 -28.173333 7.154003 0.000000 0.000000 0.000000 22.218300 -3.321805 -2.938009 44.835017 14.950602 0.707903 21.386476 38.224440 8.915644 0.000000 0.000000 0.000000 
0.514203 0.898749 2.772976 0.741646 5.031782 -7.516482 -1.245652 -2.128727 -19.148629 2.945854 -1.931918 21.400619 -1.576233 0.659841 7.509070 0.000000 0.000000 0.000000 -2.990945 -0.433053 5.067810 -1.591984 1.971564 49.677510 6.099320 8.107901 10.794268 0.000000 0.000000 0.000000 -5.483705 -0.095320 12.564285 -0.517275 0.440512 -4.971275 1.695324 1.123434 2.535186 -1.903678 2.641418 -16.595599 0.000000 0.000000 0.000000 -26.527375 6.933624 -7.939292 -37.868793 -3.582490 -3.045532 -29.254154 -37.287400 11.033664 0.000000 0.000000 0.000000 23.515888 -3.753125 -3.618474 46.517049 11.183940 -0.534890 18.995462 33.358839 6.790001 0.000000 0.000000 0.000000 
0.527269 0.914449 2.816702 0.002667 6.028536 -7.526533 -1.691977 -1.610920 -14.317585 3.688822 -1.888563 18.127994 -2.052395 -0.557672 6.592857 0.000000 0.000000 0.000000 -1.563784 0.076925 -1.102057 -1.824390 1.783260 51.643041 2.865406 5.207134 3.592697 0.000000 0.000000 0.000000 -4.454712 -0.212732 13.162118 -0.672499 0.494293 -3.963201 1.570716 -0.873297 1.030175 -2.597852 2.844298 -15.369429 0.000000 0.000000 0.000000 -26.665961 5.846489 -6.921462 -38.090040 -9.640609 -1.294060 -33.799091 -46.786734 16.402258 0.000000 0.000000 0.000000 23.679764 -3.557315 -4.000319 47.758406 6.665715 -2.007352 16.428781 28.479032 4.891543 0.000000 0.000000 0.000000 
0.537394 0.933535 2.854704 -0.659732 6.910577 -7.187839 -1.964417 -1.073848 -9.664844 4.649704 -1.702601 13.609990 -3.209628 -1.611342 8.391237 0.000000 0.000000 0.000000 -0.468360 0.449517 -4.750147 -1.096644 1.018278 41.792244 -0.029382 4.850085 -8.925481 0.000000 0.000000 0.000000 -3.866144 -0.276533 13.104853 -0.297505 0.391191 -5.323499 1.640505 -3.264535 1.647872 -3.057154 2.895459 -13.522049 0.000000 0.000000 0.000000 -25.676448 5.456955 -5.898582 -39.043639 -14.878679 0.061834 -44.274472 -56.681847 27.063736 0.000000 0.000000 0.000000 23.351272 -4.597615 -5.071506 48.532891 2.631407 -3.514532 16.245627 24.741639 4.024454 0.000000 0.000000 0.000000 
0.545673 0.944763 2.888037 -1.490176 7.349121 -6.122978 -0.939138 -0.599530 -6.094403 4.085543 -1.140709 8.954194 -3.888459 -2.377577 9.066078 0.000000 0.000000 0.000000 0.810533 0.649340 -6.048580 -0.530699 0.648962 26.059423 1.081197 5.526799 -5.009580 0.000000 0.000000 0.000000 -2.846802 -0.329380 11.942377 0.221763 0.150716 -4.835744 1.310022 -4.756298 0.101664 -3.096056 2.732913 -10.609227 0.000000 0.000000 0.000000 -23.057665 6.266930 -5.648614 -42.180023 -18.959577 1.593581 -56.098776 -63.639844 39.704664 0.000000 0.000000 0.000000 21.988004 -5.811930 -5.873386 48.981920 -1.107567 -4.780825 16.445982 21.750949 3.432776 0.000000 0.000000 0.000000 
0.552291 0.949559 2.916811 -0.870982 7.666114 -5.366082 -0.992189 -0.305016 -3.205352 2.727586 -0.663468 5.912499 -4.217204 -2.848499 9.212806 0.000000 0.000000 0.000000 0.862625 0.516680 -4.761787 -1.318502 0.730985 15.761516 2.745653 5.267436 3.302921 0.000000 0.000000 0.000000 -2.962482 -0.268062 10.486749 0.321149 0.027297 -3.139216 0.569759 -4.813709 -2.291660 -2.610703 2.337307 -8.352995 0.000000 0.000000 0.000000 -19.827035 5.455825 -4.790164 -44.212823 -22.327024 3.249398 -66.024055 -68.298650 50.851184 0.000000 0.000000 0.000000 22.624922 -6.398349 -6.356155 48.867718 -3.356898 -5.419459 13.160519 19.579711 2.528689 0.000000 0.000000 0.000000 
0.557591 0.949009 2.941429 -0.582411 9.253973 -5.339472 -1.213794 -0.095846 -1.087284 2.367701 -0.536220 4.860233 -4.737276 -4.329355 8.032777 0.000000 0.000000 0.000000 1.393224 0.319069 -2.747120 -2.631687 0.918427 12.509919 2.264736 2.754173 6.635867 0.000000 0.000000 0.000000 -2.837610 -0.269395 9.842260 0.276212 0.050894 -2.850402 -0.066413 -5.476833 -2.660291 -1.913950 1.828686 -7.128408 0.000000 0.000000 0.000000 -18.243618 4.477849 -4.105079 -45.923407 -25.335397 4.685937 -71.144876 -70.917868 57.307589 0.000000 0.000000 0.000000 22.888701 -7.661783 -7.050473 49.503302 -4.721006 -6.030820 11.078391 18.282984 2.054934 0.000000 0.000000 0.000000 
0.561749 0.946660 2.961449 -0.393686 9.461519 -4.926647 -1.159697 0.050168 0.442628 1.846543 -0.395050 3.802162 -4.514173 -4.808862 6.606851 0.000000 0.000000 0.000000 0.847706 0.158086 -1.429809 -1.887800 0.699760 11.161566 1.731391 1.641711 6.519856 0.000000 0.000000 0.000000 -2.616719 -0.245154 8.756095 0.017300 0.130078 -2.097698 -0.176333 -5.429170 -2.558325 -2.314878 2.123968 -7.436420 0.000000 0.000000 0.000000 -17.714442 3.655270 -3.638540 -46.349081 -27.018474 5.433233 -74.006856 -73.059531 61.751685 0.000000 0.000000 0.000000 23.196412 -7.547638 -7.006270 49.419354 -5.593771 -6.370887 10.897499 19.092229 2.139852 0.000000 0.000000 0.000000 
0.565053 0.944837 2.976962 -0.422950 9.240669 -4.699991 -1.129336 0.165316 1.701707 1.775863 -0.340660 3.051686 -4.146617 -4.868647 5.470752 0.000000 0.000000 0.000000 0.971073 -0.058478 0.486277 -2.235636 0.707616 9.156511 1.691897 1.963194 5.472846 0.000000 0.000000 0.000000 -1.979514 -0.247075 7.861164 -0.165040 0.173216 -1.364435 -0.316231 -4.758960 -2.765563 -2.200293 2.062079 -7.220409 0.000000 0.000000 0.000000 -17.494114 2.562449 -3.179487 -46.398449 -27.451056 5.655024 -73.496931 -73.885115 61.800230 0.000000 0.000000 0.000000 23.868424 -6.620008 -6.453412 48.711374 -4.632786 -5.901516 9.539981 18.739762 1.921681 0.000000 0.000000 0.000000 
0.567799 0.944220 2.988719 -0.362931 8.626010 -3.841167 -1.130978 0.208756 2.137540 1.520019 -0.259139 2.150840 -3.789919 -4.502890 5.048662 0.000000 0.000000 0.000000 0.107144 -0.132918 1.178522 -1.091937 0.430560 7.558321 2.009486 2.765905 5.182727 0.000000 0.000000 0.000000 -1.423467 -0.231144 6.862299 -0.155802 0.144351 -1.031597 -0.736337 -4.341558 -3.036208 -2.213979 2.091853 -7.532801 0.000000 0.000000 0.000000 -17.602499 2.046142 -2.991767 -46.200016 -27.227384 5.576155 -68.359328 -73.349135 56.646046 0.000000 0.000000 0.000000 23.617287 -5.859585 -5.910956 48.519261 -3.448089 -5.389686 10.369335 18.895586 2.069730 0.000000 0.000000 0.000000 
0.570073 0.943766 2.998074 -0.292273 7.714140 -3.542142 -1.181062 0.315357 3.268820 1.291508 -0.168429 0.864990 -3.395176 -3.918144 4.862699 0.000000 0.000000 0.000000 -0.397249 -0.232348 2.188711 -0.660332 0.311567 6.137177 2.433474 3.746668 5.031428 0.000000 0.000000 0.000000 -0.876343 -0.233495 6.348039 -0.245297 0.167068 -0.744838 -0.695083 -3.808355 -3.131052 -2.254711 2.128355 -7.718922 0.000000 0.000000 0.000000 -18.315407 1.786831 -2.977617 -45.851764 -26.187417 5.123509 -65.618027 -71.751140 52.866978 0.000000 0.000000 0.000000 23.063752 -5.057337 -5.336773 49.062071 -1.644789 -4.738829 10.573364 19.726045 2.207078 0.000000 0.000000 0.000000 
0.571788 0.942782 3.005597 -0.295700 6.745024 -3.000886 -0.968685 0.404904 4.323693 0.729286 -0.030375 -0.995253 -3.027705 -3.326092 4.774752 0.000000 0.000000 0.000000 -0.780406 -0.328492 3.253267 -0.298100 0.179871 3.887539 2.892531 4.778107 4.961193 0.000000 0.000000 0.000000 -0.490132 -0.211715 5.486725 0.070968 -0.020987 -0.123242 -0.874866 -3.524258 -3.367379 -2.207288 2.112257 -8.324839 0.000000 0.000000 0.000000 -18.688115 2.118984 -3.173838 -45.538708 -24.495877 4.430223 -63.784115 -70.099821 50.015302 0.000000 0.000000 0.000000 22.321696 -4.054425 -4.698335 49.387782 -0.126654 -4.126987 11.475627 21.010067 2.508968 0.000000 0.000000 0.000000 
0.572691 0.942147 3.011196 -0.405796 5.741608 -2.571743 -1.029090 0.448573 4.705886 0.871321 -0.015280 -1.700088 -2.532879 -2.566236 4.544548 0.000000 0.000000 0.000000 -0.725166 -0.348724 3.497186 -0.423756 0.170518 3.046971 3.285518 5.661309 4.881954 0.000000 0.000000 0.000000 -0.399800 -0.195978 5.063919 0.007236 0.005572 -0.083480 -0.562617 -3.376345 -3.413571 -2.058835 1.994485 -8.421840 0.000000 0.000000 0.000000 -19.335179 2.101018 -3.159358 -44.761008 -22.949630 3.723553 -60.150676 -68.178511 45.707980 0.000000 0.000000 0.000000 22.400457 -3.535953 -4.541103 49.404166 1.028412 -3.625552 11.892372 22.299248 2.734231 0.000000 0.000000 0.000000 
0.573112 0.941112 3.014926 -0.508571 4.922665 -2.172105 -0.779091 0.457933 4.901918 0.484433 0.038260 -2.258390 -2.128460 -1.989191 4.262912 0.000000 0.000000 0.000000 -0.781566 -0.376663 3.849014 -0.311919 0.111643 1.895116 3.626287 6.439803 4.804943 0.000000 0.000000 0.000000 -0.132424 -0.202419 4.979980 -0.060669 0.037935 -0.104653 -0.474520 -3.521319 -3.427981 -2.010879 1.957985 -9.028687 0.000000 0.000000 0.000000 -20.121094 2.668039 -3.433040 -44.012109 -21.445151 3.042632 -57.746030 -66.300095 42.633517 0.000000 0.000000 0.000000 21.998126 -2.989236 -4.329730 49.481812 1.597720 -3.357456 12.643057 23.525274 3.010874 0.000000 0.000000 0.000000 
0.573113 0.940929 3.016785 -0.581477 4.550838 -1.867247 -0.527224 0.431520 4.730563 0.128290 0.067948 -2.277844 -1.956290 -1.717574 4.187393 0.000000 0.000000 0.000000 -0.612684 -0.375823 3.799149 -0.525248 0.124318 1.512055 3.766619 6.730252 4.823132 0.000000 0.000000 0.000000 -0.195362 -0.209275 5.211587 0.071480 -0.026192 -0.119498 -0.394395 -3.566105 -3.738684 -1.670022 1.736595 -9.399332 0.000000 0.000000 0.000000 -20.804180 2.642745 -3.459047 -43.536638 -19.650231 2.347677 -56.088093 -64.523904 40.159427 0.000000 0.000000 0.000000 22.331522 -2.658414 -4.280581 48.993312 1.714911 -3.218321 12.959700 24.341416 3.171028 0.000000 0.000000 0.000000 
0.572868 0.940635 3.017256 -0.674886 4.141991 -1.385829 -0.400847 0.392018 4.322158 0.033939 0.079222 -2.384853 -1.747892 -1.374449 4.114101 0.000000 0.000000 0.000000 -0.328664 -0.369178 3.643835 -0.891460 0.138574 0.793856 3.924852 7.026544 4.897334 0.000000 0.000000 0.000000 -0.130833 -0.196236 4.848127 0.095213 -0.054614 0.241358 -0.293060 -3.925235 -3.886267 -1.441706 1.567376 -9.662802 0.000000 0.000000 0.000000 -21.711133 2.703183 -3.465878 -42.950624 -17.615836 1.542409 -53.658965 -62.954875 37.488552 0.000000 0.000000 0.000000 22.314889 -1.823175 -3.981984 49.231035 1.589469 -3.219676 12.896777 25.134205 3.235753 0.000000 0.000000 0.000000 
0.572187 0.940563 3.016930 -0.688262 4.101466 -1.170548 -0.142468 0.352719 4.017784 -0.336295 0.106821 -2.302748 -1.737725 -1.352943 4.123386 0.000000 0.000000 0.000000 -0.268363 -0.329815 3.245080 -0.887916 0.148803 1.032641 3.905355 7.024143 4.818961 0.000000 0.000000 0.000000 -0.360607 -0.186793 4.874604 0.199867 -0.108046 0.296406 -0.429539 -3.864983 -3.653904 -1.091034 1.350686 -9.781891 0.000000 0.000000 0.000000 -22.350457 2.730481 -3.573589 -42.694794 -15.871482 0.892941 -51.965266 -61.380014 35.229454 0.000000 0.000000 0.000000 22.702156 -2.011846 -4.122996 48.997056 1.568589 -3.231024 13.072344 25.261477 3.297694 0.000000 0.000000 0.000000 
0.571054 0.940503 3.016181 -0.672571 4.069932 -1.047810 -0.048138 0.339563 3.916330 -0.415694 0.117796 -2.454121 -1.742300 -1.326655 4.194304 0.000000 0.000000 0.000000 -0.038878 -0.327115 3.132635 -1.200707 0.180390 0.890317 3.887448 7.006237 4.776457 0.000000 0.000000 0.000000 -0.404638 -0.181403 4.794568 0.226002 -0.132439 0.552390 -0.641037 -3.871910 -3.309892 -0.574817 1.018049 -9.771543 0.000000 0.000000 0.000000 -22.872385 2.871298 -3.719104 -42.241699 -14.510674 0.375033 -50.664457 -59.990287 33.448863 0.000000 0.000000 0.000000 22.750496 -1.797158 -3.988726 49.462729 1.651499 -3.267142 12.345248 25.074194 3.130827 0.000000 0.000000 0.000000 
0.569513 0.940219 3.014929 -0.743787 3.997651 -0.994110 0.253860 0.303004 3.654515 -0.660322 0.131767 -2.245455 -1.679657 -1.265107 4.087049 0.000000 0.000000 0.000000 0.144869 -0.286510 2.686409 -1.213499 0.206673 1.408947 3.845562 7.026450 4.568902 0.000000 0.000000 0.000000 -0.471714 -0.189165 5.065569 0.344468 -0.186019 0.460246 -0.940324 -3.727039 -2.919963 -0.042021 0.687053 -9.839558 0.000000 0.000000 0.000000 -23.062452 3.092862 -3.913213 -42.056356 -13.238299 -0.079962 -50.686195 -58.997014 32.792530 0.000000 0.000000 0.000000 22.843211 -1.706060 -3.882338 50.049083 1.432123 -3.451203 11.970911 24.793719 3.034296 0.000000 0.000000 0.000000 
0.567621 0.939960 3.013215 -0.740345 3.977835 -0.930120 0.346049 0.293851 3.596235 -0.628082 0.135641 -2.480147 -1.677112 -1.240219 4.127008 0.000000 0.000000 0.000000 0.237848 -0.263771 2.443649 -1.169318 0.205550 1.504075 3.819096 7.031983 4.453480 0.000000 0.000000 0.000000 -0.619065 -0.189898 5.268576 0.426199 -0.216652 0.262604 -1.167680 -3.736933 -2.094037 0.411210 0.408970 -10.131464 0.000000 0.000000 0.000000 -23.225452 2.983226 -3.855470 -41.615893 -12.405675 -0.432047 -50.698352 -58.612247 32.592205 0.000000 0.000000 0.000000 22.879149 -1.668513 -3.826277 50.773238 1.675593 -3.491985 11.344480 24.023067 2.823005 0.000000 0.000000 0.000000 
0.565661 0.939588 3.011149 -0.706008 3.969263 -0.788703 0.394111 0.269236 3.322876 -0.575090 0.132574 -2.523438 -1.652805 -1.205341 4.104465 0.000000 0.000000 0.000000 0.408654 -0.231891 2.095248 -1.313446 0.228505 1.602153 3.757658 6.997485 4.269002 0.000000 0.000000 0.000000 -0.747032 -0.184898 5.312449 0.463969 -0.231164 0.179183 -1.274759 -3.720978 -1.590751 0.530367 0.347180 -10.383260 0.000000 0.000000 0.000000 -23.360017 3.170324 -3.975416 -41.420159 -11.462448 -0.784012 -52.131054 -58.539425 33.509151 0.000000 0.000000 0.000000 22.968998 -1.481115 -3.704624 51.232445 1.517604 -3.643821 11.004313 23.726726 2.729315 0.000000 0.000000 0.000000 
0.563885 0.939484 3.009140 -0.729613 4.074873 -0.540807 0.557674 0.235731 3.009341 -0.617291 0.141391 -2.729113 -1.715683 -1.265319 4.213641 0.000000 0.000000 0.000000 0.543642 -0.196231 1.727439 -1.281058 0.221312 1.538108 3.706593 6.881278 4.274303 0.000000 0.000000 0.000000 -0.912879 -0.166836 5.057247 0.571070 -0.272996 -0.032642 -1.353223 -3.539822 -0.846485 0.643957 0.294591 -10.535860 0.000000 0.000000 0.000000 -23.465253 3.323792 -4.127301 -41.378192 -10.955780 -0.989000 -53.171540 -58.545669 34.169799 0.000000 0.000000 0.000000 23.113846 -1.738904 -3.770498 51.438228 1.635154 -3.700659 10.678860 23.054323 2.608509 0.000000 0.000000 0.000000 
0.562484 0.939265 3.007465 -0.635939 4.071196 -0.457842 0.539215 0.227429 2.895678 -0.620042 0.145936 -2.887067 -1.729248 -1.253298 4.288369 0.000000 0.000000 0.000000 0.453098 -0.190876 1.702957 -1.149814 0.189752 1.224905 3.713794 6.904399 4.262524 0.000000 0.000000 0.000000 -0.821807 -0.167150 4.955285 0.185822 -0.081260 -0.174586 -1.340620 -3.298208 -0.408621 0.798916 0.221838 -10.752833 0.000000 0.000000 0.000000 -23.473037 3.414284 -4.232751 -41.405147 -10.552140 -1.137551 -53.891086 -58.366088 34.482939 0.000000 0.000000 0.000000 23.189381 -1.974019 -3.830905 51.660059 1.554574 -3.813249 10.466424 22.234662 2.486088 0.000000 0.000000 0.000000 
0.561379 0.939261 3.006284 -0.580714 4.158347 -0.390069 0.559983 0.227520 2.913460 -0.631875 0.155442 -3.212704 -1.811868 -1.322501 4.452601 0.000000 0.000000 0.000000 0.468250 -0.195934 1.744320 -1.148061 0.173753 0.890349 3.698402 6.836968 4.325160 0.000000 0.000000 0.000000 -0.893785 -0.158934 4.827953 0.101139 -0.038005 -0.236186 -1.364710 -2.927529 -0.056948 0.730254 0.289221 -10.710167 0.000000 0.000000 0.000000 -23.405418 3.482807 -4.371029 -41.630323 -10.101468 -1.281534 -54.131235 -58.002695 34.289462 0.000000 0.000000 0.000000 23.357650 -2.088541 -3.782004 51.745507 1.589355 -3.871035 9.956532 21.686131 2.354960 0.000000 0.000000 0.000000 
0.560525 0.939451 3.005498 -0.548546 4.242095 -0.260463 0.594352 0.218698 2.827962 -0.650448 0.162448 -3.431792 -1.894902 -1.379795 4.640315 0.000000 0.000000 0.000000 0.510769 -0.191981 1.695177 -1.175708 0.165078 0.637313 3.692144 6.756926 4.445557 0.000000 0.000000 0.000000 -0.729192 -0.150688 4.406622 -0.170968 0.095330 -0.316720 -1.278942 -2.779464 0.145635 0.830438 0.244158 -10.833866 0.000000 0.000000 0.000000 -23.042592 3.388665 -4.303681 -42.021330 -9.814051 -1.386648 -53.696318 -57.181689 33.420001 0.000000 0.000000 0.000000 22.975252 -1.998367 -3.615581 52.011051 1.570945 -3.933840 9.703042 21.156753 2.258912 0.000000 0.000000 0.000000 
0.559875 0.939788 3.004948 -0.455039 4.451330 -0.117195 0.669953 0.212027 2.798286 -0.864952 0.185243 -3.763960 -2.077035 -1.555278 4.948684 0.000000 0.000000 0.000000 0.490690 -0.184044 1.626384 -1.210729 0.160750 0.454214 3.633631 6.562966 4.567800 0.000000 0.000000 0.000000 -0.681103 -0.143900 4.176181 -0.232236 0.127170 -0.382440 -1.348623 -2.599254 0.171173 0.680528 0.368112 -10.897041 0.000000 0.000000 0.000000 -22.771444 3.321911 -4.309196 -42.412235 -9.559659 -1.456634 -51.714335 -55.642140 31.073962 0.000000 0.000000 0.000000 23.045998 -2.102950 -3.592897 51.731567 1.517648 -3.956328 9.567131 21.248832 2.261618 0.000000 0.000000 0.000000 
0.559413 0.940021 3.004428 -0.331034 4.462107 0.039954 0.487732 0.208287 2.652806 -0.733223 0.178969 -3.868852 -2.118232 -1.540023 5.126046 0.000000 0.000000 0.000000 0.508544 -0.193930 1.710988 -1.437768 0.161497 -0.059750 3.660668 6.537963 4.721876 0.000000 0.000000 0.000000 -0.589296 -0.134092 3.827579 -0.352080 0.193832 -0.635836 -1.309281 -2.537426 0.393060 0.810179 0.303830 -11.111157 0.000000 0.000000 0.000000 -22.694418 3.180311 -4.226555 -42.524053 -9.409056 -1.523337 -48.114045 -53.509992 27.600026 0.000000 0.000000 0.000000 22.914822 -1.974371 -3.474241 51.595116 1.954568 -3.787323 9.386499 21.245814 2.236390 0.000000 0.000000 0.000000 
0.559192 0.940078 3.003760 -0.306702 4.427658 0.187873 0.625713 0.189522 2.492401 -1.014680 0.199422 -3.946475 -2.135945 -1.517511 5.239372 0.000000 0.000000 0.000000 0.429730 -0.180099 1.605751 -1.328304 0.139451 -0.249407 3.699795 6.569202 4.820236 0.000000 0.000000 0.000000 -0.508813 -0.137017 3.826387 -0.358011 0.196806 -0.650871 -1.386417 -2.292207 -0.189725 0.803712 0.329615 -11.093997 0.000000 0.000000 0.000000 -22.250738 3.125240 -4.214983 -43.043463 -9.084558 -1.577948 -44.652914 -50.581895 23.929601 0.000000 0.000000 0.000000 22.769421 -1.988871 -3.409044 51.317325 2.107567 -3.661411 9.492511 21.832109 2.329507 0.000000 0.000000 0.000000 
0.559212 0.940337 3.003073 -0.261969 4.284983 0.298877 0.625684 0.192984 2.529669 -1.131967 0.214780 -4.284431 -2.141633 -1.411635 5.482628 0.000000 0.000000 0.000000 0.395921 -0.172022 1.541124 -1.390081 0.135200 -0.460366 3.789213 6.674028 4.977556 0.000000 0.000000 0.000000 -0.399678 -0.147799 3.992299 -0.440269 0.252676 -1.122909 -1.305634 -2.267052 -0.294006 0.919402 0.248952 -11.061947 0.000000 0.000000 0.000000 -22.467362 2.841024 -4.074807 -42.936654 -8.560888 -1.748465 -40.173263 -47.574147 20.122870 0.000000 0.000000 0.000000 22.675998 -1.847060 -3.337031 50.787171 2.690241 -3.366391 9.576265 22.396147 2.408172 0.000000 0.000000 0.000000 
0.559480 0.940238 3.002442 -0.218806 3.991742 0.368252 0.689864 0.189141 2.501515 -1.412302 0.235397 -4.384256 -2.035664 -1.201407 5.542844 0.000000 0.000000 0.000000 0.238138 -0.160913 1.483588 -1.281697 0.114745 -0.616864 3.921959 6.929521 5.026106 0.000000 0.000000 0.000000 -0.298143 -0.157210 4.122822 -0.409376 0.234272 -1.051130 -1.382733 -2.259964 -1.016260 0.666991 0.402291 -10.987923 0.000000 0.000000 0.000000 -22.410863 2.733767 -3.998108 -43.391053 -8.059559 -1.880848 -34.908792 -43.443202 15.873044 0.000000 0.000000 0.000000 22.548454 -1.442847 -3.149644 50.558795 2.899430 -3.182220 9.544166 23.187788 2.483154 0.000000 0.000000 0.000000 
0.559849 0.940390 3.002042 -0.239289 3.799616 0.426199 0.618463 0.195673 2.537175 -1.320605 0.234171 -4.577211 -1.972643 -1.045002 5.642207 0.000000 0.000000 0.000000 0.247355 -0.166612 1.535887 -1.341741 0.105498 -0.915935 4.040474 7.086911 5.196634 0.000000 0.000000 0.000000 -0.108973 -0.169650 4.221583 -0.555626 0.311797 -1.341807 -1.266627 -2.339608 -0.949453 0.596903 0.429436 -10.948655 0.000000 0.000000 0.000000 -22.601039 2.542500 -3.859631 -43.541103 -7.456895 -2.116313 -30.347180 -39.020613 12.402344 0.000000 0.000000 0.000000 22.670739 -1.444312 -3.224362 50.117648 3.565590 -2.873313 9.790255 23.762888 2.589277 0.000000 0.000000 0.000000 
0.560334 0.940384 3.001781 -0.243202 3.648658 0.422118 0.582872 0.208037 2.663897 -1.331196 0.239703 -4.796300 -1.927532 -0.938840 5.705192 0.000000 0.000000 0.000000 0.131155 -0.158494 1.494451 -1.211797 0.092805 -0.890683 4.112972 7.221263 5.230516 0.000000 0.000000 0.000000 0.057465 -0.181484 4.321354 -0.514162 0.297033 -1.494666 -1.339810 -2.495601 -1.055039 0.441657 0.485147 -10.542710 0.000000 0.000000 0.000000 -22.997460 2.322163 -3.735794 -43.629896 -7.068846 -2.261687 -25.860428 -34.428843 9.383635 0.000000 0.000000 0.000000 22.620281 -1.277267 -3.188429 49.912455 3.699918 -2.778665 10.246289 24.524424 2.758942 0.000000 0.000000 0.000000 
0.560908 0.940631 3.001523 -0.314637 3.544891 0.430657 0.468571 0.202847 2.537530 -1.072909 0.220438 -4.606678 -1.855020 -0.825473 5.671175 0.000000 0.000000 0.000000 0.163508 -0.169161 1.586842 -1.220997 0.081251 -1.136854 4.210753 7.310251 5.442614 0.000000 0.000000 0.000000 0.184798 -0.189961 4.378096 -0.538366 0.312920 -1.652269 -1.282108 -2.441859 -1.068954 0.586402 0.381024 -10.410039 0.000000 0.000000 0.000000 -23.237742 2.224747 -3.711152 -43.866108 -6.448276 -2.488692 -23.495309 -30.644931 7.610098 0.000000 0.000000 0.000000 22.800385 -1.440238 -3.309407 49.724860 4.135082 -2.590917 10.248614 24.630700 2.772123 0.000000 0.000000 0.000000 
0.561646 0.940884 3.001080 -0.452816 3.136774 0.347150 0.386547 0.210830 2.576321 -0.804386 0.202344 -4.503082 -1.649486 -0.482135 5.635818 0.000000 0.000000 0.000000 0.142322 -0.166840 1.574994 -1.074156 0.067162 -1.100011 4.432435 7.658462 5.648102 0.000000 0.000000 0.000000 0.272639 -0.194582 4.395518 -0.448294 0.262023 -1.422219 -1.182694 -2.212548 -1.217673 0.699060 0.303417 -10.347041 0.000000 0.000000 0.000000 -23.544098 2.243327 -3.766827 -43.948990 -5.792176 -2.712612 -21.831224 -28.069234 6.502370 0.000000 0.000000 0.000000 22.819693 -1.206168 -3.184961 49.675174 4.340479 -2.492634 9.978970 24.832840 2.739740 0.000000 0.000000 0.000000 
0.562465 0.941299 3.000477 -0.444069 2.788640 0.365286 0.335402 0.194130 2.340855 -0.882286 0.198808 -4.125287 -1.489329 -0.188587 5.668910 0.000000 0.000000 0.000000 0.179498 -0.160107 1.502726 -1.320468 0.088861 -1.148290 4.606157 7.909077 5.834263 0.000000 0.000000 0.000000 0.309131 -0.192456 4.316036 -0.555505 0.306118 -1.290918 -0.964346 -2.052818 -1.195312 0.819298 0.234761 -10.538597 0.000000 0.000000 0.000000 -23.666780 2.273554 -3.777004 -44.186288 -5.254855 -2.923939 -21.129379 -26.679853 5.998193 0.000000 0.000000 0.000000 22.751593 -1.195292 -3.192194 49.708640 4.378050 -2.476029 9.929980 24.852131 2.728113 0.000000 0.000000 0.000000 
0.563361 0.941595 2.999861 -0.487711 2.837213 0.364727 0.333696 0.207351 2.498442 -0.895727 0.208452 -4.489175 -1.568722 -0.241296 5.864187 0.000000 0.000000 0.000000 0.322622 -0.162005 1.476586 -1.594309 0.115516 -1.169130 4.601355 7.830432 5.950696 0.000000 0.000000 0.000000 0.303211 -0.185260 4.161262 -0.332743 0.196579 -1.108690 -0.921613 -1.916149 -1.199172 1.008991 0.115400 -10.451497 0.000000 0.000000 0.000000 -23.648003 2.246451 -3.802927 -44.647158 -4.842983 -3.087260 -20.723608 -25.863209 5.698344 0.000000 0.000000 0.000000 22.791099 -1.105418 -3.100398 49.484988 4.647558 -2.369212 9.577321 24.447537 2.618078 0.000000 0.000000 0.000000 
0.564362 0.941659 2.999291 -0.468243 2.831807 0.409646 0.277436 0.201708 2.405624 -0.958716 0.212084 -4.472075 -1.574135 -0.236839 5.896160 0.000000 0.000000 0.000000 0.248374 -0.133808 1.231794 -1.618802 0.133513 -0.877833 4.579351 7.804502 5.910352 0.000000 0.000000 0.000000 0.359831 -0.183082 4.055220 -0.255036 0.156671 -1.010277 -0.820314 -1.720623 -1.214513 1.158247 0.014227 -10.260310 0.000000 0.000000 0.000000 -23.698328 2.130024 -3.793218 -44.798264 -4.535750 -3.189666 -20.557447 -25.041644 5.457948 0.000000 0.000000 0.000000 22.604426 -1.128715 -3.039848 49.488080 4.751611 -2.339031 9.325638 24.147955 2.543478 0.000000 0.000000 0.000000 
0.565380 0.941594 2.998747 -0.525087 2.652812 0.450582 0.149388 0.191584 2.225489 -0.772171 0.195166 -4.263890 -1.447622 -0.067662 5.776613 0.000000 0.000000 0.000000 0.234639 -0.113797 1.046022 -1.633818 0.142676 -0.724875 4.643944 7.934321 5.913135 0.000000 0.000000 0.000000 0.390589 -0.184121 4.048131 -0.095954 0.105293 -1.690715 -0.839561 -1.311711 -0.513945 1.653991 -0.308294 -10.096897 0.000000 0.000000 0.000000 -23.557020 1.781417 -3.645252 -44.865395 -4.083648 -3.386791 -20.995878 -25.188527 5.578854 0.000000 0.000000 0.000000 22.669014 -1.297355 -3.021429 49.040383 4.928092 -2.341479 9.079642 23.336094 2.428234 0.000000 0.000000 0.000000 
0.566414 0.941324 2.998087 -0.537424 2.794951 0.571135 0.199341 0.172932 2.034962 -0.949197 0.206341 -4.257152 -1.496520 -0.182116 5.709083 0.000000 0.000000 0.000000 -0.132046 -0.070293 0.721112 -1.048550 0.096655 -0.417735 4.576164 7.836119 5.841496 0.000000 0.000000 0.000000 0.430440 -0.167843 3.649794 -0.321869 0.195079 -1.233756 -0.478619 -1.533089 -0.594118 1.652059 -0.299366 -10.353393 0.000000 0.000000 0.000000 -23.488555 1.684859 -3.508835 -44.737689 -4.544722 -3.227995 -21.079587 -24.670804 5.493628 0.000000 0.000000 0.000000 22.253470 -1.130308 -2.948362 48.750633 4.806695 -2.348547 8.953740 22.757397 2.325247 0.000000 0.000000 0.000000 
0.567367 0.941873 2.997257 -0.590700 2.415242 0.583378 0.344716 0.162953 1.968489 -1.272287 0.227588 -4.200000 -1.376234 0.104269 5.894208 0.000000 0.000000 0.000000 -0.068548 -0.049849 0.506569 -1.236062 0.124674 -0.241573 4.767362 8.101145 6.058680 0.000000 0.000000 0.000000 0.742304 -0.172152 3.472189 -0.241423 0.177856 -1.898417 -0.561237 -0.599678 0.515250 2.034794 -0.513786 -10.313848 0.000000 0.000000 0.000000 -24.127966 0.775820 -3.259818 -44.153394 -4.049712 -3.385271 -20.430890 -25.390541 5.477089 0.000000 0.000000 0.000000 23.300039 -1.087542 -2.778833 47.452735 5.187078 -2.317544 8.008463 22.748553 2.200690 0.000000 0.000000 0.000000 
0.568133 0.942281 2.996392 -0.747537 2.226325 0.823576 0.201309 0.142446 1.671222 -0.834213 0.199076 -4.226449 -1.277317 0.313894 5.976950 0.000000 0.000000 0.000000 -0.056152 0.031347 -0.294311 -1.061565 0.144222 0.567310 4.837109 8.186085 6.146001 0.000000 0.000000 0.000000 0.682945 -0.138727 2.805461 -0.151759 0.092878 -0.619249 -0.217890 -0.844393 0.140097 2.452645 -0.777195 -10.674760 0.000000 0.000000 0.000000 -23.702289 1.668184 -3.597900 -44.825263 -4.584106 -3.256185 -21.460203 -25.410956 5.744782 0.000000 0.000000 0.000000 21.360631 -0.895367 -2.588886 48.789106 6.311454 -1.852800 7.143954 22.054828 1.949575 0.000000 0.000000 0.000000 
0.568583 0.942925 2.995559 -0.588674 3.236685 0.414462 0.680302 0.132755 1.770978 -1.908346 0.261372 -3.858904 -1.846455 -0.556762 6.227289 0.000000 0.000000 0.000000 0.281290 -0.044059 0.371918 -1.883260 0.227135 0.296749 4.418148 7.310151 6.179519 0.000000 0.000000 0.000000 0.447345 -0.132140 2.863841 0.610710 -0.259247 -0.763105 -1.136549 -0.312723 0.575138 3.515970 -1.491903 -9.816427 0.000000 0.000000 0.000000 -23.203268 -0.124483 -2.866678 -44.559822 -4.019266 -3.363548 -20.597963 -25.632501 5.511143 0.000000 0.000000 0.000000 22.510123 -0.673303 -2.199685 47.616231 6.469817 -1.907789 6.251957 20.604910 1.713161 0.000000 0.000000 0.000000 
