HIERARCHY
ROOT Hips
{
	OFFSET -0.001795 -0.223333 0.028219
	CHANNELS 6 Xposition Yposition Zposition Zrotation Yrotation Xrotation 
	JOINT LeftUpLeg
	{
		OFFSET 0.069520 -0.091406 -0.006815
		CHANNELS 3 Zrotation Yrotation Xrotation
		JOINT LeftLeg
		{
			OFFSET 0.034277 -0.375199 -0.004496
			CHANNELS 3 Zrotation Yrotation Xrotation
			JOINT LeftFoot
			{
				OFFSET -0.013596 -0.397961 -0.043693
				CHANNELS 3 Zrotation Yrotation Xrotation
				JOINT LeftToe
				{
					OFFSET 0.026358 -0.055791 0.119288
					CHANNELS 3 Zrotation Yrotation Xrotation
					End Site
					{
						OFFSET 0.000000 0.000000 0.000000
					}
				}
			}
		}
	}
	JOINT RightUpLeg
	{
		OFFSET -0.067670 -0.090522 -0.004320
		CHANNELS 3 Zrotation Yrotation Xrotation
		JOINT RightLeg
		{
			OFFSET -0.038290 -0.382569 -0.008850
			CHANNELS 3 Zrotation Yrotation Xrotation
			JOINT RightFoot
			{
				OFFSET 0.015774 -0.398415 -0.042312
				CHANNELS 3 Zrotation Yrotation Xrotation
				JOINT RightToe
				{
					OFFSET -0.025372 -0.048144 0.123348
					CHANNELS 3 Zrotation Yrotation Xrotation
					End Site
					{
						OFFSET 0.000000 0.000000 0.000000
					}
				}
			}
		}
	}
	JOINT Spine
	{
		OFFSET -0.002533 0.108963 -0.026696
		CHANNELS 3 Zrotation Yrotation Xrotation
		JOINT Spine1
		{
			OFFSET 0.005487 0.135180 0.001092
			CHANNELS 3 Zrotation Yrotation Xrotation
			JOINT Spine2
			{
				OFFSET 0.001457 0.052922 0.025425
				CHANNELS 3 Zrotation Yrotation Xrotation
				JOINT Neck
				{
					OFFSET -0.002778 0.213870 -0.042857
					CHANNELS 3 Zrotation Yrotation Xrotation
					JOINT Head
					{
						OFFSET 0.005152 0.064970 0.051349
						CHANNELS 3 Zrotation Yrotation Xrotation
						End Site
						{
							OFFSET 0.000000 0.000000 0.000000
						}
					}
				}
				JOINT LeftShoulder
				{
					OFFSET 0.078845 0.121749 -0.034090
					CHANNELS 3 Zrotation Yrotation Xrotation
					JOINT LeftArm
					{
						OFFSET 0.090977 0.030469 -0.008868
						CHANNELS 3 Zrotation Yrotation Xrotation
						JOINT LeftForeArm
						{
							OFFSET 0.259612 -0.012772 -0.027456
							CHANNELS 3 Zrotation Yrotation Xrotation
							JOINT LeftHand
							{
								OFFSET 0.249234 0.008986 -0.001171
								CHANNELS 3 Zrotation Yrotation Xrotation
								End Site
								{
									OFFSET 0.000000 0.000000 0.000000
								}
							}
						}
					}
				}
				JOINT RightShoulder
				{
					OFFSET -0.081759 0.118833 -0.038615
					CHANNELS 3 Zrotation Yrotation Xrotation
					JOINT RightArm
					{
						OFFSET -0.096012 0.032551 -0.009143
						CHANNELS 3 Zrotation Yrotation Xrotation
						JOINT RightForeArm
						{
							OFFSET -0.253742 -0.013329 -0.021401
							CHANNELS 3 Zrotation Yrotation Xrotation
							JOINT RightHand
							{
								OFFSET -0.255298 0.007772 -0.005559
								CHANNELS 3 Zrotation Yrotation Xrotation
								End Site
								{
									OFFSET 0.000000 0.000000 0.000000
								}
							}
						}
					}
				}
			}
		}
	}
}
MOTION
Frames: 124
Frame Time: 0.050000
0.000000 0.986240 0.000000 -2.542754 4.314185 -1.912909 7.983856 -0.134822 0.791590 0.209950 0.007443 -0.782159 -2.800461 2.093718 15.559832 0.000000 0.000000 0.000000 -0.497189 -0.042890 0.468269 -1.783805 0.324164 2.239410 -3.451239 -11.215972 13.474041 0.000000 0.000000 0.000000 -1.273384 -0.136857 4.399663 -1.730234 0.981992 -7.211673 -0.855453 -0.593866 5.425610 2.440453 -0.823434 -9.707027 0.000000 0.000000 0.000000 19.826517 -1.453069 2.186165 0.443952 -23.615289 -1.388350 29.412034 2.032665 0.366576 0.000000 0.000000 0.000000 -21.090230 0.844010 1.352848 1.232697 21.863768 -1.033348 -18.688458 -3.192127 0.920334 0.000000 0.000000 0.000000 
-0.000671 0.986322 0.000320 -2.609264 4.805210 -1.867385 7.452639 -0.117956 1.336463 0.655191 0.029524 -2.402065 -3.320704 1.352033 15.537847 0.000000 0.000000 0.000000 -0.876314 -0.119875 1.300122 -1.711132 0.263963 1.245693 -3.967974 -12.004323 12.604144 0.000000 0.000000 0.000000 -1.399429 -0.113829 3.812037 -1.902163 1.019025 -4.706179 0.473677 -2.780713 3.480421 -1.463725 1.798175 -12.020243 0.000000 0.000000 0.000000 16.680559 0.980471 1.190348 -4.194027 -21.398295 -0.785039 26.744506 -3.128686 -0.487195 0.000000 0.000000 0.000000 -19.161404 -0.364011 1.564918 4.033200 19.856669 -0.754541 -16.876580 1.928870 0.126356 0.000000 0.000000 0.000000 
-0.001094 0.984897 0.000856 -2.617046 4.085798 -1.743203 7.356235 -0.109109 1.120646 1.243853 -0.052565 -1.656103 -2.836517 1.628589 14.624540 0.000000 0.000000 0.000000 -0.679748 -0.175538 1.843974 -1.299957 0.165565 0.322266 -4.180084 -12.524698 12.941275 0.000000 0.000000 0.000000 -1.015945 -0.111104 3.410743 -1.528957 0.878972 -6.291406 -1.132675 -1.093425 6.609572 0.220891 0.919731 -13.034386 0.000000 0.000000 0.000000 15.833966 1.531672 1.180546 -8.994954 -21.206510 -0.518566 22.695360 -4.125467 -0.667689 0.000000 0.000000 0.000000 -15.353160 -1.772278 0.584113 11.040963 16.994478 -0.349570 -20.263737 5.208812 -0.242819 0.000000 0.000000 0.000000 
-0.001291 0.983860 0.001177 -2.879384 5.045898 -2.198486 7.358474 -0.098945 2.137888 1.900625 -0.062819 -2.570723 -3.485274 0.797559 14.725945 0.000000 0.000000 0.000000 -0.474676 -0.278332 2.753406 -0.797889 0.063331 -0.669875 -4.720279 -13.617056 15.115420 0.000000 0.000000 0.000000 -0.656526 -0.129768 3.571246 -1.744784 0.966452 -5.234668 -0.237866 -3.081093 7.085246 -1.211729 1.745262 -14.142639 0.000000 0.000000 0.000000 11.424925 1.808124 0.444323 -14.713171 -18.352453 -0.341850 21.218570 -7.513231 -1.006009 0.000000 0.000000 0.000000 -11.556524 -1.808971 0.484783 14.666056 16.199215 -0.241741 -18.064607 5.420911 -0.306126 0.000000 0.000000 0.000000 
-0.001702 0.981259 0.000924 -2.750039 5.103609 -2.475293 7.802372 -0.118642 1.842565 1.191455 -0.050611 -1.550742 -3.557172 0.316652 13.875085 0.000000 0.000000 0.000000 -0.036792 -0.312991 2.943181 -0.848263 0.054825 -0.981364 -4.801063 -13.706549 14.550784 0.000000 0.000000 0.000000 -1.113684 -0.124361 3.778907 -1.301739 0.763578 -4.587321 -0.399059 -2.361444 7.019850 -1.214339 1.824672 -14.113130 0.000000 0.000000 0.000000 8.003013 2.159850 0.119788 -19.911854 -17.290543 -0.241336 20.489577 -9.699320 -1.317995 0.000000 0.000000 0.000000 -7.270150 -1.515240 0.107245 21.019419 12.685051 -0.418157 -16.057553 7.385518 -0.430942 0.000000 0.000000 0.000000 
-0.001992 0.980256 0.000254 -2.287216 5.837938 -2.821453 7.531922 -0.117089 1.736860 0.913206 -0.034460 -1.323370 -3.540207 0.313314 13.584744 0.000000 0.000000 0.000000 -0.478177 -0.292603 2.851773 -0.528491 0.029950 -0.775978 -4.613588 -13.293342 14.614969 0.000000 0.000000 0.000000 -1.596234 -0.128600 4.300036 -0.889369 0.578211 -4.054695 -0.264015 -2.836124 7.252370 -0.948757 1.727859 -15.751989 0.000000 0.000000 0.000000 4.694904 2.579549 -0.356503 -26.058053 -15.600946 -0.353859 17.697847 -12.592183 -1.413803 0.000000 0.000000 0.000000 -4.437516 -1.004034 0.027531 28.243698 11.497938 -0.567010 -13.268266 6.412633 -0.230671 0.000000 0.000000 0.000000 
-0.002114 0.979184 -0.000816 -2.327411 5.528307 -3.231641 7.726712 -0.112759 1.620437 0.784376 -0.060534 -0.431903 -3.032317 0.913856 13.173959 0.000000 0.000000 0.000000 -0.429389 -0.303675 2.947680 -0.467615 0.021806 -0.802216 -4.272685 -12.679953 14.204527 0.000000 0.000000 0.000000 -1.531939 -0.154359 4.986258 -0.767194 0.512448 -3.767769 -0.071862 -2.149652 7.729283 -0.194331 1.382425 -16.851548 0.000000 0.000000 0.000000 0.815094 2.831925 -0.853980 -31.357100 -14.220678 -0.606929 15.788896 -13.556419 -1.321298 0.000000 0.000000 0.000000 -0.891111 -0.634456 -0.150133 34.764497 9.375971 -1.131569 -10.918504 6.883046 -0.168308 0.000000 0.000000 0.000000 
-0.001849 0.979017 -0.001723 -2.013285 4.910816 -3.101486 7.373413 -0.092252 1.475505 0.627070 -0.055571 -0.195777 -2.411026 1.647159 12.740648 0.000000 0.000000 0.000000 -0.943923 -0.214121 2.232446 0.061913 -0.011623 -0.117711 -3.736534 -11.667352 13.282191 0.000000 0.000000 0.000000 -1.376058 -0.180870 5.664604 -0.776025 0.520622 -4.157653 0.222240 -1.924599 8.509137 0.646706 0.905497 -17.676322 0.000000 0.000000 0.000000 -2.295571 3.369712 -1.413050 -36.506399 -11.477424 -1.408376 12.160699 -15.638277 -1.024546 0.000000 0.000000 0.000000 2.152405 -0.263478 -0.244480 40.313060 8.018111 -1.712407 -8.658428 8.549391 -0.158150 0.000000 0.000000 0.000000 
-0.001162 0.979553 -0.001898 -1.693795 4.482959 -2.671287 6.909025 -0.092126 0.818182 0.484645 -0.059736 0.257467 -2.101611 2.049021 12.651314 0.000000 0.000000 0.000000 -1.479698 -0.150987 1.738424 0.087577 -0.002074 0.217477 -3.358041 -10.929619 12.673297 0.000000 0.000000 0.000000 -1.273439 -0.189490 5.876146 -0.717972 0.479642 -3.875864 0.315113 -1.922324 8.622223 0.184868 1.206112 -18.467457 0.000000 0.000000 0.000000 -4.795235 4.392766 -2.105028 -41.977700 -8.487932 -2.519027 10.656070 -18.420795 -0.950640 0.000000 0.000000 0.000000 4.249039 -0.299385 -0.426634 45.603113 6.639853 -2.369226 -7.823091 10.698520 -0.191099 0.000000 0.000000 0.000000 
0.000011 0.979490 -0.001273 -1.346536 4.082681 -2.336181 6.304206 -0.084772 0.483597 0.544340 -0.053477 -0.061344 -1.648247 2.948529 13.215762 0.000000 0.000000 0.000000 -2.084916 -0.090703 1.243062 0.219673 -0.001424 0.664814 -3.034589 -10.232529 11.843037 0.000000 0.000000 0.000000 -1.182888 -0.196412 6.031360 -0.610483 0.418699 -3.636854 0.512595 -2.226655 8.343441 0.594165 0.888535 -18.364535 0.000000 0.000000 0.000000 -6.393924 4.787088 -2.442836 -46.127283 -5.498860 -3.792252 8.206541 -19.825737 -0.573485 0.000000 0.000000 0.000000 4.849579 -0.065983 -0.420099 49.143016 5.905607 -2.787174 -7.037600 13.067069 -0.213457 0.000000 0.000000 0.000000 
0.001324 0.979043 -0.000121 -1.055872 3.991785 -2.106015 5.519824 -0.077841 0.243724 0.934123 -0.089413 -0.160754 -1.627127 2.880971 12.996212 0.000000 0.000000 0.000000 -2.259235 -0.059822 0.940610 0.063633 0.029194 0.977896 -3.433756 -10.910805 11.267223 0.000000 0.000000 0.000000 -0.860983 -0.224113 6.367863 -0.665898 0.456198 -4.124839 0.608777 -2.887403 8.755454 0.160082 1.052074 -18.303556 0.000000 0.000000 0.000000 -7.980378 5.423403 -2.855709 -48.776371 -2.679040 -5.127778 6.721960 -22.323287 -0.307696 0.000000 0.000000 0.000000 5.481687 -0.074263 -0.521137 51.294792 5.230621 -3.241215 -7.406092 16.244563 -0.362610 0.000000 0.000000 0.000000 
0.002390 0.978563 0.001310 -0.867348 3.692737 -2.217885 5.100075 -0.069236 0.124144 1.150151 -0.140517 0.457477 -1.459197 3.001073 12.707642 0.000000 0.000000 0.000000 -2.738019 -0.019461 0.544486 0.173087 0.042458 1.718747 -3.299292 -10.496641 10.148159 0.000000 0.000000 0.000000 -0.525777 -0.253216 6.661563 -0.515142 0.390422 -4.251371 0.290462 -2.843189 9.060612 0.673849 0.772145 -18.860197 0.000000 0.000000 0.000000 -8.280795 5.816410 -3.051965 -51.822889 -0.927011 -6.197225 5.360133 -24.395851 -0.029418 0.000000 0.000000 0.000000 6.322771 -0.448052 -0.753454 52.304595 5.219516 -3.333419 -8.323544 20.881504 -0.657851 0.000000 0.000000 0.000000 
0.002676 0.978049 0.003219 -0.783357 3.364830 -2.385996 4.813581 -0.056852 0.159086 1.686839 -0.231700 1.079861 -1.442831 2.844149 12.337466 0.000000 0.000000 0.000000 -2.675937 0.001802 0.278042 0.112015 0.075888 2.411728 -3.475021 -10.853491 10.028414 0.000000 0.000000 0.000000 -0.369639 -0.268013 6.827589 -0.263993 0.274504 -4.200778 0.081809 -2.659241 9.225668 0.378484 0.937223 -18.626466 0.000000 0.000000 0.000000 -9.151362 6.088729 -3.288685 -52.973935 -0.535111 -6.525410 3.259850 -26.094397 0.448926 0.000000 0.000000 0.000000 6.864560 -0.665877 -0.890811 52.935204 5.662526 -3.194762 -7.725084 26.176027 -0.737707 0.000000 0.000000 0.000000 
0.002057 0.977299 0.005800 -0.812376 3.171385 -2.745776 4.783129 -0.045510 0.252951 1.780590 -0.319414 2.527997 -1.429294 2.514898 11.494605 0.000000 0.000000 0.000000 -2.442003 0.015196 0.063739 0.326711 0.087603 3.604672 -3.612823 -10.955701 8.906735 0.000000 0.000000 0.000000 -0.183093 -0.284104 6.959554 -0.152778 0.222219 -4.160723 -0.147527 -2.656305 9.589537 0.610574 0.765176 -18.269192 0.000000 0.000000 0.000000 -9.592642 5.896033 -3.254089 -54.528694 0.066408 -7.021414 1.316286 -28.365921 0.994463 0.000000 0.000000 0.000000 7.340760 -0.606150 -0.914552 53.870418 5.833213 -3.210693 -7.361605 32.123222 -0.839050 0.000000 0.000000 0.000000 
0.000969 0.975669 0.009193 -0.997617 2.747824 -3.222315 4.989007 -0.056043 -0.141839 2.122315 -0.500361 4.913685 -1.419861 2.017274 10.327169 0.000000 0.000000 0.000000 -2.046548 -0.003375 0.231810 0.409511 0.120123 4.912370 -3.460093 -10.475093 7.761364 0.000000 0.000000 0.000000 0.036478 -0.298642 7.029770 -0.363972 0.305673 -3.983248 0.034997 -2.823891 9.712617 0.209135 0.948209 -18.136940 0.000000 0.000000 0.000000 -10.268557 5.392295 -3.072839 -54.945880 0.133276 -7.116646 -0.693291 -29.609024 1.602602 0.000000 0.000000 0.000000 7.419111 -0.541496 -0.930121 55.076331 6.324667 -3.096025 -6.663261 38.121996 -0.838618 0.000000 0.000000 0.000000 
0.000100 0.972309 0.013156 -1.125566 2.202364 -4.023878 5.119074 -0.041414 -0.158600 2.315156 -0.686264 7.510975 -1.108982 1.626711 8.198726 0.000000 0.000000 0.000000 -1.659760 0.002602 0.098855 0.420140 0.202031 7.367188 -3.373602 -9.942492 5.843960 0.000000 0.000000 0.000000 0.068316 -0.314222 7.380236 -0.392308 0.301667 -3.612004 -0.057925 -3.108228 9.876308 0.082369 0.946844 -17.942421 0.000000 0.000000 0.000000 -10.094966 4.691254 -2.674657 -55.756665 0.026272 -7.173682 -2.121523 -30.749780 2.112255 0.000000 0.000000 0.000000 7.250676 -0.230109 -0.829800 55.820090 7.286398 -2.743576 -4.901047 43.317006 -0.387869 0.000000 0.000000 0.000000 
-0.000162 0.965717 0.017126 -1.095822 1.479767 -5.015341 5.286666 -0.025149 -0.272945 1.796875 -0.778662 10.821363 -0.243155 1.951345 5.326125 0.000000 0.000000 0.000000 -1.380056 0.060385 -0.592397 0.390996 0.350274 11.391155 -3.373930 -9.421503 3.432394 0.000000 0.000000 0.000000 -0.089864 -0.327861 7.990939 -0.668379 0.408527 -3.169723 0.228105 -3.298949 10.118107 -0.545456 1.231649 -17.509320 0.000000 0.000000 0.000000 -10.273716 4.158461 -2.377776 -55.721907 -0.096047 -7.134077 -4.079881 -31.507751 2.778204 0.000000 0.000000 0.000000 7.377597 0.266816 -0.692615 55.347245 8.342625 -2.303783 -2.409773 48.218622 0.497080 0.000000 0.000000 0.000000 
0.000448 0.957529 0.020631 -1.132140 1.066909 -5.854863 5.477543 -0.032258 -0.832231 1.482571 -0.948108 15.183505 0.207331 1.704486 2.755108 0.000000 0.000000 0.000000 -1.186062 0.153636 -1.644987 0.631712 0.439477 15.502768 -3.792988 -9.871135 1.293378 0.000000 0.000000 0.000000 -0.323009 -0.342221 8.726668 -0.635007 0.391310 -3.231472 0.392383 -3.976876 10.791773 -1.284602 1.607389 -18.408344 0.000000 0.000000 0.000000 -10.463112 4.226166 -2.305573 -55.572945 -0.375643 -7.035450 -5.850276 -32.253556 3.465914 0.000000 0.000000 0.000000 7.187016 0.545546 -0.630532 55.114616 9.015818 -2.108079 -0.733606 52.948257 1.158074 0.000000 0.000000 0.000000 
0.001770 0.954078 0.024620 -1.301421 0.883814 -6.281206 5.624972 -0.039236 -1.231142 1.372106 -1.034396 17.297558 0.211382 1.180705 1.567674 0.000000 0.000000 0.000000 -1.016275 0.187043 -2.001032 0.848420 0.454508 17.582298 -3.912281 -9.965089 0.534683 0.000000 0.000000 0.000000 -0.567948 -0.341786 9.119286 -0.582488 0.365738 -3.223700 0.441514 -4.392168 11.194367 -1.107982 1.439831 -18.594143 0.000000 0.000000 0.000000 -10.234828 3.419219 -1.856557 -55.932018 -0.730732 -6.939763 -6.750619 -33.167050 3.905730 0.000000 0.000000 0.000000 7.136148 0.679714 -0.609577 54.847589 9.332296 -2.024020 -1.519313 55.885225 0.700529 0.000000 0.000000 0.000000 
0.003777 0.962102 0.030404 -1.541702 1.426176 -6.122865 5.708569 -0.042851 -1.114427 1.518175 -1.050192 16.580333 -0.822455 0.177985 3.839677 0.000000 0.000000 0.000000 -0.706492 0.091477 -0.951141 1.017348 0.337590 15.814408 -3.565104 -9.760737 3.036941 0.000000 0.000000 0.000000 -0.731244 -0.312015 8.483766 -0.466327 0.317907 -3.203173 0.562045 -5.337898 11.184598 -1.431134 1.545672 -18.408067 0.000000 0.000000 0.000000 -9.339647 3.946781 -1.964229 -56.863746 -0.081670 -7.261596 -10.443768 -35.293184 5.469341 0.000000 0.000000 0.000000 6.059347 -0.613117 -1.031538 55.865038 7.718426 -2.884357 2.073604 60.715718 2.619198 0.000000 0.000000 0.000000 
0.007154 0.979295 0.037820 -1.988150 2.063248 -5.378090 5.766059 -0.044779 -0.667239 2.165835 -1.055474 13.837720 -3.004468 -1.811646 8.132420 0.000000 0.000000 0.000000 -0.692340 -0.019450 0.214995 1.385864 0.150503 12.623669 -3.025470 -9.629085 7.775601 0.000000 0.000000 0.000000 -1.071294 -0.250074 7.228755 0.274964 -0.003531 -3.486706 0.512782 -5.661849 11.027830 -1.322117 1.458053 -17.709453 0.000000 0.000000 0.000000 -8.142108 4.474795 -2.122611 -57.512088 1.441490 -7.968960 -15.866715 -38.060502 7.903022 0.000000 0.000000 0.000000 4.685861 -2.388191 -1.507818 56.419418 5.387486 -4.029748 8.983222 64.148062 7.044445 0.000000 0.000000 0.000000 
0.012499 0.996334 0.045942 -2.467829 2.996681 -4.650878 6.225354 -0.055267 -0.216930 2.178253 -0.888284 11.007813 -4.777526 -2.256027 13.226289 0.000000 0.000000 0.000000 -0.953256 -0.179225 1.904942 1.506461 0.024697 8.706651 -2.083218 -8.822348 13.074395 0.000000 0.000000 0.000000 -1.220874 -0.187551 5.578613 0.609344 -0.148338 -3.353793 0.944955 -6.235297 10.371602 -1.679315 1.617002 -16.076862 0.000000 0.000000 0.000000 -6.968255 4.769339 -2.164315 -58.201028 2.896168 -8.620944 -22.415836 -41.866579 11.480580 0.000000 0.000000 0.000000 3.156170 -4.095619 -1.898535 57.402711 2.353676 -5.560724 20.041582 68.075379 14.941172 0.000000 0.000000 0.000000 
0.020137 1.006902 0.053958 -2.741939 3.198317 -4.430392 6.061174 -0.043274 0.279225 2.221072 -0.794244 9.393982 -5.650939 -2.686577 15.174629 0.000000 0.000000 0.000000 -1.049070 -0.342765 3.626038 1.198922 0.015942 5.906314 -1.297797 -8.031289 16.095689 0.000000 0.000000 0.000000 -1.170706 -0.153589 4.519876 0.460512 -0.072292 -3.503872 1.352887 -6.257358 10.313105 -1.666579 1.596883 -15.539081 0.000000 0.000000 0.000000 -5.978259 5.344334 -2.333988 -57.710354 4.015705 -9.025503 -29.663268 -45.138751 15.786198 0.000000 0.000000 0.000000 2.241224 -5.064072 -2.084952 56.865083 0.502316 -6.384801 32.153971 70.631769 24.379523 0.000000 0.000000 0.000000 
0.030043 1.005966 0.061302 -2.916512 3.453683 -4.599104 5.694382 -0.031789 0.496565 2.417377 -0.855188 9.707114 -5.633008 -2.903317 14.594633 0.000000 0.000000 0.000000 -1.457108 -0.442206 4.808580 1.429015 -0.045243 4.994084 -1.475906 -8.301183 16.040824 0.000000 0.000000 0.000000 -1.051504 -0.141650 4.040990 0.656506 -0.147420 -3.736009 1.473992 -5.649329 10.389879 -1.316555 1.424016 -14.599903 0.000000 0.000000 0.000000 -5.940362 5.045422 -2.248646 -56.902089 3.288680 -8.650602 -33.763482 -47.524718 18.590970 0.000000 0.000000 0.000000 2.183699 -5.125272 -2.083809 56.205018 -0.636559 -6.757980 38.096185 71.906729 29.741527 0.000000 0.000000 0.000000 
0.041616 0.997112 0.068001 -2.950694 3.324597 -5.265350 5.272848 0.010856 1.128523 2.026229 -0.851692 10.836870 -4.475496 -2.442031 11.720273 0.000000 0.000000 0.000000 -2.321721 -0.494718 5.819444 1.675696 -0.070770 5.646097 -1.973076 -8.835356 14.190235 0.000000 0.000000 0.000000 -0.900999 -0.150582 4.133444 0.659635 -0.164979 -3.388301 1.783233 -5.103482 10.078979 -1.220338 1.419116 -14.805157 0.000000 0.000000 0.000000 -6.417169 4.863524 -2.241435 -56.279792 2.420737 -8.199610 -36.563974 -49.511172 20.812315 0.000000 0.000000 0.000000 2.781380 -4.732495 -2.032513 54.685743 -0.725202 -6.509373 41.178057 72.703326 32.666972 0.000000 0.000000 0.000000 
0.054125 0.986454 0.074325 -3.040701 3.377587 -6.261219 4.669027 0.052291 1.546886 1.654351 -0.892516 12.661876 -3.675034 -2.334090 9.182112 0.000000 0.000000 0.000000 -3.238772 -0.524047 6.642973 1.804093 -0.064364 7.174767 -2.294832 -8.924534 11.678237 0.000000 0.000000 0.000000 -0.773152 -0.187101 4.958422 0.744720 -0.202485 -3.395714 1.947651 -4.537211 10.087807 -1.202330 1.491778 -15.259592 0.000000 0.000000 0.000000 -7.825677 5.163967 -2.536475 -55.230123 1.286257 -7.639613 -36.754585 -49.834234 20.913330 0.000000 0.000000 0.000000 4.295387 -4.323305 -2.101736 53.411556 -0.303235 -6.098738 41.035240 72.659304 32.757928 0.000000 0.000000 0.000000 
0.066731 0.983254 0.080708 -2.749090 3.143101 -6.789636 3.933270 0.131349 2.641123 1.005545 -0.723232 12.273608 -3.300445 -1.732604 9.103131 0.000000 0.000000 0.000000 -4.056131 -0.499553 6.912627 1.888023 -0.053592 8.448994 -2.718862 -9.624174 10.897352 0.000000 0.000000 0.000000 -0.516342 -0.195136 4.973987 0.516043 -0.110122 -3.187253 1.975721 -4.236907 9.962600 -1.746387 1.862895 -15.196457 0.000000 0.000000 0.000000 -8.627736 5.411024 -2.737349 -55.452517 0.369859 -7.278378 -36.028610 -49.855240 20.503727 0.000000 0.000000 0.000000 5.200597 -3.883131 -2.065128 53.997141 -0.116576 -6.065584 42.690235 72.513157 34.043059 0.000000 0.000000 0.000000 
0.078791 0.990167 0.087236 -2.435262 2.963436 -6.650577 3.269113 0.207831 3.649976 0.444269 -0.493595 10.198529 -3.535204 -0.944113 11.616821 0.000000 0.000000 0.000000 -4.795997 -0.407649 6.239031 1.778381 0.000622 10.058536 -2.264937 -9.076251 12.347632 0.000000 0.000000 0.000000 -0.399978 -0.173353 4.377281 0.275165 -0.014154 -2.874970 2.147647 -3.866577 9.135503 -1.464640 1.679657 -14.439855 0.000000 0.000000 0.000000 -8.312406 4.906898 -2.518197 -55.594292 1.185058 -7.589351 -36.743550 -49.808735 20.743135 0.000000 0.000000 0.000000 4.556111 -3.832661 -1.944587 54.690737 -0.568538 -6.271423 52.562203 72.325957 41.755762 0.000000 0.000000 0.000000 
0.089757 1.002475 0.092677 -2.203899 2.698183 -6.472108 2.414280 0.326069 5.004719 0.377483 -0.355148 7.566778 -4.044155 -0.378928 14.781710 0.000000 0.000000 0.000000 -5.223619 -0.274032 4.521443 1.822977 0.051504 13.187332 -1.987440 -9.145497 14.956999 0.000000 0.000000 0.000000 -0.057118 -0.161387 3.940744 0.076467 0.062680 -2.537350 2.144379 -3.668876 8.133684 -2.089785 2.044553 -12.815118 0.000000 0.000000 0.000000 -8.223270 5.454948 -2.758259 -55.671613 1.898390 -7.820064 -38.010385 -49.634531 21.252084 0.000000 0.000000 0.000000 3.376408 -3.681083 -1.716454 55.566105 -0.860480 -6.440248 62.025157 71.768581 48.976800 0.000000 0.000000 0.000000 
0.099108 1.011755 0.096632 -1.817931 2.524050 -6.546704 1.478999 0.447815 6.068386 0.359631 -0.277407 5.890820 -4.046606 -0.077968 15.563236 0.000000 0.000000 0.000000 -5.597168 -0.150151 2.574357 2.198233 0.019065 16.878481 -2.459392 -10.234422 16.132894 0.000000 0.000000 0.000000 0.218301 -0.170043 4.036149 -0.195369 0.192394 -2.703152 1.701742 -3.275924 7.960051 -1.520572 1.682866 -12.318282 0.000000 0.000000 0.000000 -7.829504 5.028931 -2.565168 -56.341180 2.079020 -7.998822 -37.852449 -50.548368 21.515065 0.000000 0.000000 0.000000 2.105519 -2.958461 -1.265750 56.873641 -0.456163 -6.388269 69.306235 71.585004 55.156644 0.000000 0.000000 0.000000 
0.106119 1.010630 0.098764 -1.702611 2.898985 -6.772520 0.961381 0.511567 6.596629 0.392745 -0.280596 5.804629 -3.952507 -0.109341 15.028002 0.000000 0.000000 0.000000 -5.151631 -0.009060 -0.161157 2.476529 -0.038317 21.402011 -3.057609 -10.925287 14.448673 0.000000 0.000000 0.000000 0.615252 -0.205340 4.624236 -0.447982 0.295055 -2.097504 1.167991 -3.308921 7.199381 -1.328639 1.566080 -12.008921 0.000000 0.000000 0.000000 -7.872986 4.788563 -2.497981 -56.337940 2.155121 -7.986597 -35.274388 -53.422787 21.343730 0.000000 0.000000 0.000000 1.893820 -2.348154 -1.017776 55.753477 0.531192 -5.697799 71.789303 73.304366 58.906354 0.000000 0.000000 0.000000 
0.110118 0.999931 0.100464 -1.498874 3.579323 -7.579480 0.454364 0.572707 7.097619 0.181592 -0.328992 7.603805 -3.347220 -0.296820 12.206203 0.000000 0.000000 0.000000 -4.725552 0.036928 -1.192367 3.078414 -0.275688 23.920727 -4.230570 -12.493124 11.059479 0.000000 0.000000 0.000000 0.832076 -0.278656 5.996346 -0.637852 0.385163 -1.877916 0.718121 -3.684255 7.101785 -1.280317 1.585304 -13.112878 0.000000 0.000000 0.000000 -8.389885 5.724739 -2.956935 -55.848487 0.931910 -7.368904 -31.951155 -55.954554 20.567831 0.000000 0.000000 0.000000 2.116113 -2.427331 -1.069694 54.501476 2.510775 -4.662633 70.278491 75.535514 59.604842 0.000000 0.000000 0.000000 
0.110530 0.989758 0.102634 -1.512258 4.843266 -7.912330 0.514860 0.552173 7.094783 0.468954 -0.441339 8.675379 -3.231163 -0.829043 10.346739 0.000000 0.000000 0.000000 -3.459478 0.013690 -0.743139 2.630110 -0.215102 22.395009 -4.963996 -13.612562 9.386014 0.000000 0.000000 0.000000 0.873888 -0.302672 6.386444 -0.480789 0.315487 -1.712212 0.334574 -4.112387 7.509244 -1.103187 1.526676 -13.831151 0.000000 0.000000 0.000000 -8.673918 5.669770 -2.989682 -54.579044 -0.746621 -6.512038 -27.003255 -57.966777 18.432840 0.000000 0.000000 0.000000 2.014089 -2.418630 -1.045335 54.085654 3.520602 -4.192942 70.250598 77.604398 61.713688 0.000000 0.000000 0.000000 
0.107611 0.987473 0.105990 -1.870299 6.343262 -7.869428 1.347620 0.451801 6.700151 0.918950 -0.566917 9.213897 -3.987204 -1.794831 10.653522 0.000000 0.000000 0.000000 -1.914913 -0.089984 0.659113 2.029684 -0.107002 18.868507 -5.165400 -13.978571 10.311228 0.000000 0.000000 0.000000 0.684186 -0.320979 6.762183 -0.173837 0.183617 -1.766065 -0.080291 -4.567830 7.197142 -0.853261 1.392613 -13.663339 0.000000 0.000000 0.000000 -7.982534 5.569344 -2.897067 -54.464692 -1.135167 -6.304472 -24.186430 -59.244581 17.087798 0.000000 0.000000 0.000000 0.805504 -3.251567 -1.181932 54.819685 4.327323 -3.830297 70.973067 78.232685 63.161796 0.000000 0.000000 0.000000 
0.102864 0.993667 0.108793 -2.475408 7.239005 -7.185207 2.674329 0.300541 5.787248 1.006174 -0.587171 9.149828 -4.497338 -1.660216 12.333771 0.000000 0.000000 0.000000 -0.285261 -0.297627 2.715131 1.362792 0.032011 13.661106 -4.887107 -13.493089 12.058485 0.000000 0.000000 0.000000 0.509605 -0.251548 5.481360 0.078683 0.054122 -1.477161 -0.208612 -4.461340 7.112570 -0.567178 1.210943 -12.668176 0.000000 0.000000 0.000000 -6.743397 6.519282 -3.161950 -55.741116 -0.470284 -6.761621 -25.045475 -58.471515 17.147028 0.000000 0.000000 0.000000 0.074724 -4.615932 -1.562490 55.964261 4.204289 -3.881153 82.530082 78.773848 75.021512 0.000000 0.000000 0.000000 
0.098384 1.000611 0.109631 -3.106010 7.937188 -6.633123 3.641441 0.149203 4.084235 1.112686 -0.712990 10.679553 -5.075440 -2.359900 12.649730 0.000000 0.000000 0.000000 0.991807 -0.482273 4.068590 1.089655 0.043652 9.531942 -4.709921 -13.193463 13.614695 0.000000 0.000000 0.000000 0.300271 -0.217793 4.879595 0.462846 -0.120671 -1.555645 -0.151143 -4.326895 7.452734 -0.487992 1.184996 -12.322080 0.000000 0.000000 0.000000 -5.422064 6.984763 -3.173855 -57.406556 0.790760 -7.635752 -25.316059 -57.304311 16.793454 0.000000 0.000000 0.000000 -1.001868 -4.826451 -1.509791 56.794464 4.441106 -3.783385 101.685110 79.757749 95.643534 0.000000 0.000000 0.000000 
0.095738 1.001439 0.108681 -3.246332 7.585059 -6.309624 4.111779 0.014479 1.486033 1.257137 -1.007986 14.454535 -4.278261 -1.850425 11.212862 0.000000 0.000000 0.000000 1.392149 -0.528056 4.343325 0.871902 0.073944 8.127802 -3.729247 -11.325407 12.851098 0.000000 0.000000 0.000000 -0.225548 -0.216072 5.136921 0.487008 -0.129207 -1.655232 0.325340 -3.959051 7.860159 -0.213280 1.031433 -12.660957 0.000000 0.000000 0.000000 -4.483140 6.598382 -2.883258 -58.599789 2.011743 -8.453091 -23.106793 -55.261891 14.905211 0.000000 0.000000 0.000000 -0.743568 -4.211337 -1.341629 55.599486 5.633871 -3.191871 125.763384 80.488050 122.314285 0.000000 0.000000 0.000000 
0.095559 0.994460 0.107396 -3.384830 7.357712 -6.235782 4.385808 -0.050049 0.175727 1.594160 -1.282404 16.955248 -3.441711 -2.078998 8.170511 0.000000 0.000000 0.000000 1.402167 -0.487037 4.017655 0.961092 0.061587 8.302249 -3.281960 -10.260546 11.056559 0.000000 0.000000 0.000000 -0.448619 -0.238313 5.777873 0.523722 -0.170004 -1.267117 0.808537 -3.698157 7.924746 -0.632084 1.389216 -13.904675 0.000000 0.000000 0.000000 -3.695220 7.222593 -2.996857 -60.275229 2.888232 -9.172738 -22.357831 -53.184361 13.883302 0.000000 0.000000 0.000000 -0.224737 -3.853966 -1.281868 54.693155 6.618312 -2.715969 145.636450 79.071069 143.991143 0.000000 0.000000 0.000000 
0.098217 0.985233 0.107108 -3.361176 6.826589 -5.992603 4.440894 -0.086884 -0.667605 1.545337 -1.342408 18.056654 -2.362125 -1.638190 5.472805 0.000000 0.000000 0.000000 1.328005 -0.467066 3.882733 0.263565 0.202744 8.099861 -3.069822 -9.622162 9.278656 0.000000 0.000000 0.000000 -0.353870 -0.273833 6.507549 0.434103 -0.109648 -1.658081 0.990928 -3.586520 8.119726 -0.609225 1.402116 -14.714328 0.000000 0.000000 0.000000 -4.033671 7.507626 -3.151428 -60.317403 4.047163 -9.755699 -21.435754 -49.804091 12.475548 0.000000 0.000000 0.000000 0.837028 -3.085003 -1.134995 54.119850 6.927464 -2.596236 146.495802 78.746244 144.678532 0.000000 0.000000 0.000000 
0.104164 0.980519 0.107764 -3.237264 6.327435 -5.907359 3.977805 -0.069661 -0.487017 1.606139 -1.280950 17.322412 -1.635087 -0.117098 5.810923 0.000000 0.000000 0.000000 0.732075 -0.366123 3.188288 -0.158147 0.322464 9.238068 -2.811845 -8.961361 8.288689 0.000000 0.000000 0.000000 -0.396040 -0.287920 6.892619 0.543498 -0.188808 -1.211788 1.233509 -3.285605 7.602885 -0.942729 1.648797 -15.361279 0.000000 0.000000 0.000000 -4.415942 7.583178 -3.239925 -60.414756 4.368322 -9.880518 -21.341051 -46.238633 11.398697 0.000000 0.000000 0.000000 1.539305 -3.083305 -1.212780 54.667138 6.454332 -2.789952 127.448965 79.196672 122.843139 0.000000 0.000000 0.000000 
0.113106 0.979540 0.109470 -2.925719 5.982335 -5.857363 2.906678 -0.014936 0.243307 1.597685 -1.106680 15.224560 -1.394923 0.592787 6.375012 0.000000 0.000000 0.000000 -0.311598 -0.199036 1.855059 -0.186137 0.397786 11.642558 -2.947967 -9.249092 8.177518 0.000000 0.000000 0.000000 -0.253439 -0.316129 7.388208 0.449023 -0.115794 -1.802448 1.228992 -3.395346 7.924214 -1.688514 2.097045 -15.506536 0.000000 0.000000 0.000000 -4.741087 7.563346 -3.272758 -61.183464 3.843437 -9.747819 -21.406647 -44.113074 10.910383 0.000000 0.000000 0.000000 1.290690 -2.625216 -1.024869 56.797620 5.532045 -3.378571 94.851329 77.633186 86.243769 0.000000 0.000000 0.000000 
0.123606 0.979826 0.111254 -2.330408 5.817072 -6.073386 1.434705 0.064759 1.085341 1.909048 -1.009799 12.994384 -1.268518 0.904167 6.561978 0.000000 0.000000 0.000000 -1.759546 -0.034713 0.206483 -0.070288 0.460805 15.245107 -2.882457 -9.134944 8.221399 0.000000 0.000000 0.000000 -0.190466 -0.339518 7.854078 0.251579 -0.037385 -1.515159 1.409594 -3.754834 7.633540 -2.069304 2.312968 -16.400452 0.000000 0.000000 0.000000 -5.855377 7.430803 -3.368385 -60.976804 3.330954 -9.375378 -22.657932 -43.073298 11.219103 0.000000 0.000000 0.000000 1.395091 -2.145656 -0.871452 58.251770 3.767054 -4.359933 77.003579 74.125822 65.072526 0.000000 0.000000 0.000000 
0.132750 0.979870 0.113424 -1.869925 5.874301 -6.598123 0.385708 0.184760 2.367676 1.551954 -0.830401 11.512446 -0.698131 2.265130 7.254251 0.000000 0.000000 0.000000 -3.341260 0.144746 -2.432776 0.738189 0.318904 21.366765 -3.450682 -10.424303 8.984379 0.000000 0.000000 0.000000 -0.200846 -0.381987 8.750253 0.130382 0.020065 -1.488656 1.323197 -4.094721 7.260783 -2.771975 2.709140 -16.217112 0.000000 0.000000 0.000000 -6.491439 6.907374 -3.234706 -61.069399 3.124499 -9.236542 -23.806348 -45.436751 12.468657 0.000000 0.000000 0.000000 1.702768 -1.877010 -0.813925 58.801103 1.722568 -5.422713 65.934057 70.449213 51.743219 0.000000 0.000000 0.000000 
0.138407 0.980192 0.116067 -1.406672 6.301412 -7.152413 -0.440482 0.326047 3.810438 1.433695 -0.703016 9.867082 -0.955053 1.608674 6.769669 0.000000 0.000000 0.000000 -4.431605 0.179868 -3.772022 1.141782 0.174499 25.488384 -3.808838 -11.039289 8.411215 0.000000 0.000000 0.000000 0.104003 -0.455913 9.792084 -0.264190 0.234870 -2.008246 1.018604 -4.873239 7.080514 -3.205374 2.959747 -18.094554 0.000000 0.000000 0.000000 -6.947115 6.723912 -3.191970 -60.786185 2.242457 -8.692748 -24.648967 -46.849184 13.392794 0.000000 0.000000 0.000000 1.940760 -1.447984 -0.695452 59.105032 -0.211404 -6.466146 59.229927 68.072332 44.095697 0.000000 0.000000 0.000000 
0.139480 0.980873 0.119447 -1.299834 6.868426 -7.757435 -0.359054 0.494053 5.973709 1.307407 -0.548514 7.695318 -1.815861 0.836721 8.270482 0.000000 0.000000 0.000000 -4.531876 0.187218 -4.220170 1.249535 0.086584 26.486477 -4.397147 -12.124577 7.788843 0.000000 0.000000 0.000000 0.278434 -0.514079 10.568425 0.032914 0.102635 -2.039828 0.482775 -5.521464 6.508481 -3.727204 3.247700 -18.735282 0.000000 0.000000 0.000000 -7.980644 6.765684 -3.332557 -59.246556 1.600002 -8.093907 -25.914148 -48.720874 14.630179 0.000000 0.000000 0.000000 2.070887 -1.734118 -0.815593 59.167737 -1.097782 -6.899527 54.030318 65.656725 38.159968 0.000000 0.000000 0.000000 
0.135753 0.981025 0.123728 -1.269033 7.748077 -8.001076 0.355439 0.513681 6.937584 0.928134 -0.408766 6.298037 -2.182885 0.656290 9.040619 0.000000 0.000000 0.000000 -3.808424 0.171304 -3.560896 1.130870 0.067058 24.935409 -4.876193 -12.994435 7.012478 0.000000 0.000000 0.000000 0.223762 -0.560748 11.300533 0.113682 0.075002 -2.093135 0.219496 -6.457404 5.320468 -4.272568 3.513616 -19.402808 0.000000 0.000000 0.000000 -8.219988 6.520776 -3.239993 -58.381222 1.274566 -7.679996 -25.952094 -50.380236 15.247586 0.000000 0.000000 0.000000 1.741608 -1.914267 -0.843791 59.375187 -1.772898 -7.223282 49.218115 62.627535 32.421996 0.000000 0.000000 0.000000 
0.127797 0.980802 0.129096 -1.302331 8.540150 -7.756211 1.314835 0.479424 7.626026 1.115275 -0.370752 5.093538 -2.479152 0.521062 9.632741 0.000000 0.000000 0.000000 -2.625795 0.084940 -1.733419 0.232363 0.327353 19.988753 -4.986241 -13.256144 7.888722 0.000000 0.000000 0.000000 0.099997 -0.518474 10.600582 0.261992 -0.005602 -1.796041 -0.085178 -6.973339 4.700956 -4.433570 3.591531 -19.089866 0.000000 0.000000 0.000000 -8.288262 6.555276 -3.268728 -57.592603 1.000525 -7.373741 -26.884090 -50.343808 15.663724 0.000000 0.000000 0.000000 1.450176 -1.863091 -0.789518 60.074409 -2.139700 -7.461328 45.003556 60.599343 28.361414 0.000000 0.000000 0.000000 
0.116630 0.979584 0.135143 -1.488199 9.276202 -7.911851 2.466433 0.383048 7.712374 0.884125 -0.362281 5.523206 -2.478698 0.192420 8.833235 0.000000 0.000000 0.000000 -1.078917 -0.141063 1.112192 -0.518409 0.475384 15.309717 -5.395913 -14.133960 8.807750 0.000000 0.000000 0.000000 -0.248067 -0.497141 10.522178 0.552913 -0.134093 -1.864796 -0.749299 -6.913258 4.368346 -4.988556 3.972883 -19.412422 0.000000 0.000000 0.000000 -8.124388 6.612945 -3.318948 -57.032890 0.966558 -7.287645 -26.547110 -49.920631 15.184965 0.000000 0.000000 0.000000 1.805081 -2.102352 -0.912141 60.153420 -1.863358 -7.223285 41.219663 58.206405 24.876365 0.000000 0.000000 0.000000 
0.104254 0.978087 0.140958 -1.874529 9.687069 -7.989132 3.924431 0.249076 7.478152 0.719500 -0.380267 6.256406 -2.029218 0.606872 8.027209 0.000000 0.000000 0.000000 0.418745 -0.381923 3.290351 -1.227744 0.563430 11.340491 -5.511202 -14.378762 8.981723 0.000000 0.000000 0.000000 -0.515709 -0.465721 10.191873 0.279357 -0.008432 -1.724947 -0.488563 -6.681478 4.130280 -4.546539 3.759761 -19.156445 0.000000 0.000000 0.000000 -8.404593 5.861178 -3.076072 -56.249415 1.213933 -7.317866 -24.678099 -48.372087 13.655237 0.000000 0.000000 0.000000 2.340305 -1.639991 -0.811558 59.811061 -1.851991 -7.098739 38.129722 56.129239 22.150814 0.000000 0.000000 0.000000 
0.092526 0.976444 0.145674 -2.519976 9.911868 -8.511375 5.456474 0.105936 6.716166 0.912551 -0.525573 8.119424 -2.503123 -0.474227 7.524042 0.000000 0.000000 0.000000 1.523749 -0.701538 5.623466 -1.007349 0.430526 8.259037 -5.233631 -13.845040 9.286845 0.000000 0.000000 0.000000 -0.733749 -0.455478 10.162381 0.569714 -0.198914 -0.862412 -0.861700 -5.997562 3.699517 -4.526030 3.844668 -19.497953 0.000000 0.000000 0.000000 -7.957928 6.226382 -3.235134 -56.175659 1.201924 -7.311567 -21.510789 -45.268641 11.088229 0.000000 0.000000 0.000000 2.452769 -1.846865 -0.880669 59.930987 -1.459644 -6.774437 34.211125 53.758225 19.145198 0.000000 0.000000 0.000000 
0.083207 0.975729 0.149231 -2.980775 9.954640 -8.746088 6.543171 0.007531 5.456453 1.249450 -0.726684 10.170147 -2.375818 -0.640525 6.799172 0.000000 0.000000 0.000000 2.174930 -0.927495 7.065575 -0.718679 0.328116 6.652666 -4.896417 -13.160909 8.889425 0.000000 0.000000 0.000000 -1.028036 -0.445072 10.248678 0.465911 -0.133287 -1.089636 -0.507356 -5.416690 4.363098 -3.794935 3.502077 -19.692342 0.000000 0.000000 0.000000 -7.692414 6.114885 -3.181197 -56.078375 2.470382 -7.989596 -19.534204 -42.188290 9.396073 0.000000 0.000000 0.000000 3.058333 -1.909701 -0.953917 59.347789 -0.946014 -6.448919 30.850441 52.111300 16.922067 0.000000 0.000000 0.000000 
0.077567 0.975569 0.151608 -3.265947 9.626101 -8.447676 7.016855 -0.037435 4.171630 1.617725 -0.875645 11.242198 -2.542689 -1.040491 6.678980 0.000000 0.000000 0.000000 2.402632 -0.987065 7.399558 -0.432016 0.246463 5.586423 -4.488370 -12.342200 9.008087 0.000000 0.000000 0.000000 -1.201005 -0.387575 9.365862 0.346101 -0.122257 -0.374352 -0.430904 -4.476585 4.538397 -3.887765 3.636490 -19.528112 0.000000 0.000000 0.000000 -6.573622 7.107636 -3.443904 -56.797641 2.790968 -8.314318 -18.552063 -38.557033 8.054374 0.000000 0.000000 0.000000 3.073424 -1.983520 -0.962899 59.240286 -1.116304 -6.441535 28.132301 50.778233 15.270222 0.000000 0.000000 0.000000 
0.076184 0.976885 0.153418 -3.153505 9.058152 -8.167293 6.560621 -0.013144 3.521787 1.949725 -0.977367 11.764472 -2.737739 -1.602295 6.415756 0.000000 0.000000 0.000000 1.721746 -0.984553 7.671219 -0.230465 0.194962 4.910204 -3.760874 -10.921257 9.420827 0.000000 0.000000 0.000000 -1.220954 -0.378200 9.294398 -0.189975 0.170621 -0.969170 -0.424065 -3.634823 5.365025 -3.612558 3.570956 -20.297803 0.000000 0.000000 0.000000 -5.415472 7.783196 -3.525483 -58.237396 4.027481 -9.284915 -17.151069 -35.500475 6.866769 0.000000 0.000000 0.000000 3.281100 -2.243923 -1.059317 59.672679 -0.865880 -6.374494 25.014118 48.936311 13.338799 0.000000 0.000000 0.000000 
0.079353 0.980030 0.154705 -2.805365 8.174495 -7.500909 5.982593 0.020731 3.369509 2.141236 -0.922974 10.724723 -3.131824 -1.554351 7.911568 0.000000 0.000000 0.000000 0.637864 -0.900339 7.552120 0.011972 0.134433 4.093427 -2.967114 -9.505437 10.382091 0.000000 0.000000 0.000000 -1.219932 -0.331974 8.476451 -0.593581 0.377870 -1.391639 -0.471712 -2.587721 5.772793 -3.580821 3.617676 -20.033527 0.000000 0.000000 0.000000 -4.446923 8.927712 -3.797088 -59.210022 5.172567 -10.123801 -18.205214 -33.436562 6.700810 0.000000 0.000000 0.000000 2.671445 -2.722615 -1.166323 60.421072 -1.142891 -6.524538 23.740569 47.850216 12.565396 0.000000 0.000000 0.000000 
0.086443 0.984698 0.156227 -2.544077 7.618893 -6.841229 4.846400 0.078352 3.492025 2.545769 -0.858916 8.963675 -3.846050 -2.083033 9.362864 0.000000 0.000000 0.000000 -0.859160 -0.721391 6.756353 0.538083 0.051184 4.072479 -2.615785 -9.113744 11.957734 0.000000 0.000000 0.000000 -0.765804 -0.333647 8.131321 -1.189748 0.687360 -2.257045 -0.225889 -2.025198 6.169798 -3.756726 3.755528 -20.375482 0.000000 0.000000 0.000000 -3.991155 9.545847 -3.945292 -59.637454 5.494519 -10.431238 -18.659026 -32.360190 6.586289 0.000000 0.000000 0.000000 1.535994 -2.938370 -1.141409 61.217134 -1.384082 -6.699099 22.215902 46.487527 11.547118 0.000000 0.000000 0.000000 
0.096488 0.991391 0.158173 -2.164485 7.713308 -6.414236 3.413167 0.173832 4.252995 2.953940 -0.758672 6.713932 -4.963359 -2.627798 11.863794 0.000000 0.000000 0.000000 -2.374119 -0.568870 5.934017 0.764674 0.041647 5.249119 -1.901383 -8.112219 14.058799 0.000000 0.000000 0.000000 -0.500156 -0.311121 7.406684 -1.082160 0.635542 -2.251431 -0.124344 -2.254478 5.758899 -4.331308 4.024032 -19.165597 0.000000 0.000000 0.000000 -3.970635 9.774172 -4.024049 -59.572294 6.877274 -11.033382 -20.104680 -32.221989 6.994711 0.000000 0.000000 0.000000 0.306512 -3.298995 -1.158871 61.839999 -2.719828 -7.414156 23.478416 45.956915 11.864746 0.000000 0.000000 0.000000 
0.107889 0.997790 0.161273 -1.896096 7.923108 -6.181415 2.062367 0.309011 5.494943 3.044574 -0.612022 4.540192 -5.647574 -2.881197 13.439666 0.000000 0.000000 0.000000 -3.606074 -0.465269 5.257664 1.052861 0.021497 6.953847 -1.693974 -7.923933 15.219946 0.000000 0.000000 0.000000 -0.062888 -0.296928 6.726116 -0.903602 0.557831 -2.356201 -0.489962 -2.184151 5.469903 -4.464493 4.106031 -18.281546 0.000000 0.000000 0.000000 -3.312551 9.696212 -3.866331 -60.107798 7.230125 -11.338456 -21.988169 -32.286181 7.530883 0.000000 0.000000 0.000000 -0.829248 -3.972247 -1.284477 62.365637 -4.092043 -8.091449 24.992903 45.979808 12.563469 0.000000 0.000000 0.000000 
0.118809 0.997178 0.164412 -1.364678 7.901750 -6.467287 0.543637 0.479698 6.656061 2.946869 -0.548365 3.823367 -5.578172 -3.105752 12.845125 0.000000 0.000000 0.000000 -4.738407 -0.378434 4.491480 1.041765 0.071614 10.125988 -1.507186 -7.435930 14.322722 0.000000 0.000000 0.000000 0.568979 -0.309347 6.496779 -1.194457 0.708872 -2.770814 -0.669278 -2.909161 5.949815 -4.983541 4.344701 -18.284525 0.000000 0.000000 0.000000 -3.441790 9.099370 -3.666664 -59.966803 7.036399 -11.164362 -22.603021 -32.191845 7.788173 0.000000 0.000000 0.000000 -1.756704 -4.244950 -1.263104 63.198812 -5.386724 -9.051256 28.183621 46.521772 14.047995 0.000000 0.000000 0.000000 
0.127230 0.986854 0.166509 -0.933576 7.808969 -7.564313 -0.160368 0.604295 7.718267 2.046506 -0.535233 5.539810 -4.375851 -2.629531 10.051741 0.000000 0.000000 0.000000 -5.237855 -0.306150 3.334451 0.984851 0.138852 15.568360 -2.214740 -8.259701 11.397434 0.000000 0.000000 0.000000 0.827206 -0.395772 7.877481 -1.015951 0.636244 -2.916990 -1.106186 -3.499606 5.966758 -5.466397 4.576183 -19.025088 0.000000 0.000000 0.000000 -3.892876 8.916555 -3.668212 -59.362581 6.572857 -10.748919 -22.938384 -33.907130 8.409110 0.000000 0.000000 0.000000 -1.600759 -4.643398 -1.386781 62.535875 -5.810371 -9.298257 30.926633 48.921778 16.093596 0.000000 0.000000 0.000000 
0.132124 0.969236 0.166727 -0.389952 7.543691 -8.898491 -1.350247 0.692475 7.787780 1.899333 -0.764248 9.299535 -2.490850 -1.908673 5.330228 0.000000 0.000000 0.000000 -5.933122 -0.220831 1.625055 1.215433 0.098522 22.210049 -2.905919 -8.884804 6.847399 0.000000 0.000000 0.000000 0.656587 -0.498792 9.873296 -0.910611 0.599077 -3.155105 -1.061326 -4.667592 6.786125 -6.124265 4.814405 -20.944709 0.000000 0.000000 0.000000 -5.447534 9.051129 -3.945715 -58.402954 5.228313 -9.852944 -21.760508 -35.124858 8.562195 0.000000 0.000000 0.000000 -0.193018 -4.342680 -1.420884 61.424272 -5.210378 -9.156659 30.795884 52.605447 17.183508 0.000000 0.000000 0.000000 
0.132955 0.959463 0.166304 0.127369 7.265377 -9.575839 -1.835142 0.754727 8.119371 1.073722 -0.710114 10.910431 -1.210164 -0.397841 3.669643 0.000000 0.000000 0.000000 -6.013026 -0.116435 -0.457467 1.083281 0.149830 27.240862 -3.850964 -10.695652 5.387509 0.000000 0.000000 0.000000 0.557366 -0.535526 10.681818 -0.618283 0.446387 -2.748090 -1.105232 -5.739886 7.024685 -7.143994 5.216053 -22.591103 0.000000 0.000000 0.000000 -6.647383 8.242983 -3.756471 -57.707893 3.764128 -8.959629 -20.307401 -35.390608 8.320530 0.000000 0.000000 0.000000 0.712622 -4.879865 -1.708232 61.526009 -4.903601 -9.250259 33.990380 55.561451 19.771617 0.000000 0.000000 0.000000 
0.130074 0.963238 0.167203 0.275806 6.772735 -9.310445 -1.743945 0.801368 8.612374 0.755365 -0.526271 8.990311 -1.239049 0.548263 5.630523 0.000000 0.000000 0.000000 -5.449862 -0.049446 -1.152428 0.518019 0.402237 26.857888 -3.974788 -11.162984 6.687438 0.000000 0.000000 0.000000 0.478257 -0.543918 10.994949 -0.438146 0.367929 -3.056277 -0.874885 -6.852397 7.006829 -7.768748 5.367398 -23.337628 0.000000 0.000000 0.000000 -6.999620 7.990431 -3.627069 -57.802531 3.801127 -8.869375 -19.935198 -34.899018 8.248758 0.000000 0.000000 0.000000 0.484098 -5.224846 -1.778163 62.527006 -5.316501 -9.883540 40.349770 57.839766 24.052749 0.000000 0.000000 0.000000 
0.124286 0.981614 0.169031 0.087097 6.792675 -8.282243 -1.008139 0.828442 9.548440 1.163191 -0.335626 4.356922 -3.528239 -0.591709 11.438148 0.000000 0.000000 0.000000 -4.337868 -0.058534 -0.282904 0.235695 0.462922 22.599072 -3.604331 -10.850191 9.922073 0.000000 0.000000 0.000000 0.679980 -0.487440 9.744922 0.085610 0.094033 -2.438222 -0.651129 -8.213307 6.069572 -8.300317 5.494607 -22.744827 0.000000 0.000000 0.000000 -6.614865 8.197286 -3.605067 -58.063571 5.724130 -9.567487 -22.497142 -34.360668 9.082045 0.000000 0.000000 0.000000 -0.843622 -5.646571 -1.661917 64.171423 -6.553934 -11.078454 48.650605 60.092052 29.910391 0.000000 0.000000 0.000000 
0.116003 1.000005 0.171112 -0.257257 6.881715 -6.824297 -0.512630 0.777706 9.408714 1.782411 -0.238617 1.097265 -4.582398 0.127614 16.485634 0.000000 0.000000 0.000000 -3.081893 -0.134268 1.177815 0.267688 0.373763 16.833979 -3.570090 -11.238380 13.529656 0.000000 0.000000 0.000000 0.966775 -0.409765 8.051346 0.667027 -0.215300 -1.756304 -0.556446 -8.908683 4.981954 -8.881143 5.758024 -21.710788 0.000000 0.000000 0.000000 -6.268520 7.075768 -3.088129 -58.747452 7.814383 -10.492075 -24.343135 -34.564937 9.799646 0.000000 0.000000 0.000000 -1.656752 -5.994801 -1.601204 65.471471 -7.748835 -12.082681 55.907212 61.478321 35.295028 0.000000 0.000000 0.000000 
0.106347 1.009406 0.172465 -0.426386 6.830760 -6.273243 0.287131 0.665089 8.781904 2.111222 -0.253286 0.705191 -4.829771 0.354711 17.827770 0.000000 0.000000 0.000000 -1.724654 -0.289534 2.917563 -0.423176 0.472234 12.817472 -3.149874 -10.637043 14.809115 0.000000 0.000000 0.000000 0.580189 -0.337599 7.080992 0.907984 -0.361853 -1.214282 -0.211174 -9.234255 4.731022 -9.024868 5.781353 -21.731980 0.000000 0.000000 0.000000 -4.735528 6.495150 -2.697585 -60.029657 9.236705 -11.272172 -25.435441 -34.511484 10.187127 0.000000 0.000000 0.000000 -2.524044 -6.029432 -1.424493 66.474391 -8.779613 -13.025993 61.804359 62.438823 39.970446 0.000000 0.000000 0.000000 
0.096174 1.000097 0.172627 -0.475506 6.463009 -6.777432 1.345869 0.520360 7.762200 1.865399 -0.443408 4.511669 -4.093069 -0.538922 13.516404 0.000000 0.000000 0.000000 -0.967525 -0.407296 3.959257 -0.416192 0.451320 11.752325 -3.786498 -11.508470 12.037124 0.000000 0.000000 0.000000 0.498170 -0.372030 7.828536 0.710675 -0.273679 -1.130448 -0.302910 -8.948201 5.557000 -9.482205 5.997939 -23.012039 0.000000 0.000000 0.000000 -4.394218 6.648853 -2.726501 -59.853397 8.888152 -11.145771 -25.944395 -35.290189 10.635154 0.000000 0.000000 0.000000 -1.625420 -5.580564 -1.472340 66.343427 -8.600381 -12.903333 63.664747 63.696035 42.424251 0.000000 0.000000 0.000000 
0.086696 0.976449 0.170306 -0.550972 6.199892 -8.112918 2.976940 0.299101 5.532004 1.100705 -0.809585 12.550742 -1.941206 -0.579073 6.041198 0.000000 0.000000 0.000000 -0.519219 -0.542445 5.110091 0.038767 0.383225 12.996511 -4.666799 -12.709623 6.574720 0.000000 0.000000 0.000000 0.274429 -0.490286 10.290648 0.583418 -0.210068 -1.184801 -0.303437 -8.191230 6.474909 -9.515351 5.992667 -25.405535 0.000000 0.000000 0.000000 -5.021955 7.194604 -3.010790 -58.713382 7.424427 -10.437116 -24.199987 -38.022973 10.856489 0.000000 0.000000 0.000000 0.017182 -4.353414 -1.396398 64.888745 -7.637126 -11.912284 59.145589 65.115435 40.484689 0.000000 0.000000 0.000000 
0.080432 0.954964 0.165917 -0.805874 5.677036 -8.999235 3.998765 0.131007 2.696638 1.071026 -1.318141 19.961822 -0.626040 -0.572949 1.325045 0.000000 0.000000 0.000000 -0.230117 -0.438828 4.082329 1.281602 0.132542 16.267094 -5.497605 -14.089786 1.232932 0.000000 0.000000 0.000000 0.348207 -0.613554 12.489040 0.234382 -0.100905 0.030307 0.131291 -7.261861 5.922776 -9.431157 5.945983 -26.871119 0.000000 0.000000 0.000000 -6.437030 7.911155 -3.471265 -56.637647 5.405100 -9.208993 -24.115348 -41.837320 11.944443 0.000000 0.000000 0.000000 2.748718 -3.880000 -1.712903 61.677655 -6.723963 -10.467132 49.506432 64.628775 33.291676 0.000000 0.000000 0.000000 
0.078861 0.951818 0.163436 -0.752926 5.730012 -8.793135 3.743500 0.032113 0.687224 1.480897 -1.679870 22.900523 -0.729274 -1.325550 0.378783 0.000000 0.000000 0.000000 -0.369962 -0.318024 2.964982 1.425693 0.097325 17.069356 -5.406016 -13.763343 0.240035 0.000000 0.000000 0.000000 0.140729 -0.645133 13.336719 0.137181 -0.028076 -0.486284 0.174054 -6.883786 6.849120 -8.935386 5.735070 -27.384434 0.000000 0.000000 0.000000 -5.807669 8.094903 -3.480022 -57.503016 4.572964 -9.059653 -25.653080 -47.859487 14.652534 0.000000 0.000000 0.000000 2.789547 -4.202941 -1.823500 60.964518 -6.804803 -10.385685 45.840831 62.951894 29.977363 0.000000 0.000000 0.000000 
0.082741 0.965741 0.164229 -0.549611 5.856904 -6.997306 3.729475 -0.018265 0.072876 1.722616 -1.462550 19.462311 -1.606814 -0.623936 4.837529 0.000000 0.000000 0.000000 -0.724650 -0.307652 2.957505 0.423437 0.296619 12.965068 -4.121417 -11.220372 4.356591 0.000000 0.000000 0.000000 -0.303318 -0.483516 10.991066 0.398239 -0.162239 -0.422102 0.119864 -6.720488 7.131409 -8.661157 5.662625 -25.940210 0.000000 0.000000 0.000000 -4.072627 9.553166 -3.846342 -57.897227 5.341697 -9.408814 -33.862477 -51.444125 20.187187 0.000000 0.000000 0.000000 1.782428 -5.062162 -1.961327 60.239292 -8.255427 -10.935130 48.558072 60.758238 30.540399 0.000000 0.000000 0.000000 
0.090732 0.986768 0.166742 -0.369293 5.943421 -5.341135 2.882181 0.015779 0.739625 1.948998 -1.108849 14.243611 -3.417046 -1.177694 10.117840 0.000000 0.000000 0.000000 -1.673319 -0.242098 2.522155 0.147449 0.268141 9.167692 -2.978805 -9.751246 10.519052 0.000000 0.000000 0.000000 -0.207843 -0.415701 9.498445 0.285489 -0.071404 -1.198023 0.290929 -6.737239 7.162786 -8.108847 5.404342 -24.786232 0.000000 0.000000 0.000000 -2.727122 10.389839 -3.984976 -57.989626 5.792949 -9.557071 -43.852972 -52.861398 26.471130 0.000000 0.000000 0.000000 -0.635590 -6.396872 -1.987713 60.777344 -9.485295 -11.709418 52.817008 58.123684 31.619440 0.000000 0.000000 0.000000 
0.101328 1.003387 0.169778 -0.357249 5.780203 -3.888479 1.897080 0.107471 1.932948 2.412955 -0.775564 8.363687 -4.606760 -1.111705 14.294948 0.000000 0.000000 0.000000 -3.164535 -0.116395 1.440086 0.512591 0.168021 7.991698 -1.376288 -7.363788 13.974020 0.000000 0.000000 0.000000 -0.403638 -0.315446 7.710368 0.806673 -0.316142 -1.297382 0.445630 -7.005985 6.366111 -7.851149 5.281769 -22.414855 0.000000 0.000000 0.000000 -2.408517 9.864840 -3.751902 -58.234204 6.305495 -9.700188 -48.906214 -51.739221 28.835904 0.000000 0.000000 0.000000 -2.327885 -6.077279 -1.568572 61.343631 -9.690357 -11.965554 52.727582 56.649019 30.422075 0.000000 0.000000 0.000000 
0.113023 1.011399 0.173461 -0.262329 5.651114 -3.275364 0.579114 0.308335 4.017885 2.692704 -0.493122 3.498709 -4.374399 0.209514 16.400389 0.000000 0.000000 0.000000 -4.175164 -0.013945 0.222448 0.742749 0.141982 8.745559 -0.777303 -6.662646 15.639715 0.000000 0.000000 0.000000 -0.414992 -0.282990 7.035111 1.104702 -0.450177 -1.440588 0.659179 -7.236039 5.336421 -8.606868 5.689939 -21.197422 0.000000 0.000000 0.000000 -3.024524 9.753647 -3.792830 -57.334221 6.243826 -9.399409 -50.162210 -49.492519 28.195426 0.000000 0.000000 0.000000 -2.548063 -5.908915 -1.456502 60.340718 -8.884380 -11.271555 51.411686 55.160042 28.459191 0.000000 0.000000 0.000000 
0.124452 1.006601 0.177160 0.343649 5.397296 -3.537281 -1.076479 0.587777 6.233262 2.845626 -0.304998 0.185545 -4.003861 0.768337 16.497450 0.000000 0.000000 0.000000 -5.297436 0.033061 -0.611540 0.844553 0.172008 10.966899 -0.674822 -6.181138 14.165117 0.000000 0.000000 0.000000 -0.430820 -0.278990 7.004574 1.005079 -0.448557 -0.638946 0.852261 -8.221893 4.451470 -9.309396 5.960345 -20.863101 0.000000 0.000000 0.000000 -4.469418 9.498191 -3.857519 -56.672663 6.111945 -9.086813 -44.161460 -46.455841 23.436074 0.000000 0.000000 0.000000 -2.271243 -3.861283 -0.826415 60.057932 -7.091930 -10.406881 45.716193 55.652971 24.951970 0.000000 0.000000 0.000000 
0.132976 0.997790 0.181104 0.716464 5.061359 -4.616427 -1.681289 0.851441 8.639530 2.117215 -0.155569 -1.196236 -3.562494 0.821710 15.176246 0.000000 0.000000 0.000000 -5.949830 0.036351 -1.039015 0.739516 0.246411 13.027006 -1.151012 -6.445673 11.342800 0.000000 0.000000 0.000000 -0.601297 -0.307169 7.906929 0.876423 -0.383633 -0.714543 0.897119 -8.303602 4.544630 -9.841320 6.168979 -22.064385 0.000000 0.000000 0.000000 -6.095160 8.280782 -3.532438 -55.803468 6.305056 -9.129176 -38.587823 -44.474089 19.692282 0.000000 0.000000 0.000000 -0.641447 -2.899909 -0.813044 58.894944 -4.834788 -9.023512 39.359629 56.631004 21.716019 0.000000 0.000000 0.000000 
0.136126 0.990842 0.185645 0.878379 5.459105 -5.504774 -1.682310 0.981615 10.172346 1.702650 -0.078046 -1.972219 -3.542040 0.549605 14.356074 0.000000 0.000000 0.000000 -5.876110 -0.015020 -0.429874 0.006468 0.423657 13.462837 -1.185756 -5.958067 9.309979 0.000000 0.000000 0.000000 -0.268657 -0.358150 8.549336 0.572009 -0.229724 -0.812104 0.373845 -8.931282 4.544164 -9.566681 5.973263 -22.358026 0.000000 0.000000 0.000000 -6.984903 8.172664 -3.559752 -55.235832 6.302173 -9.065793 -32.033388 -40.998306 15.219070 0.000000 0.000000 0.000000 0.641747 -1.956770 -0.732415 58.903919 -2.746584 -7.985671 32.276716 55.845368 17.373009 0.000000 0.000000 0.000000 
0.133133 0.989527 0.190654 0.496142 6.480286 -6.182986 -0.756641 0.997972 11.790937 1.888035 -0.035788 -3.111893 -3.948802 0.146709 14.555827 0.000000 0.000000 0.000000 -4.741081 -0.099589 0.773703 -0.634544 0.508097 11.889840 -1.554367 -6.850884 10.375137 0.000000 0.000000 0.000000 -0.329537 -0.349337 8.276133 0.880096 -0.385318 -0.620602 -0.028068 -8.909431 4.704477 -8.715067 5.626800 -21.425469 0.000000 0.000000 0.000000 -6.802139 7.390203 -3.248930 -55.147370 6.086273 -9.029896 -26.454710 -37.756626 11.646470 0.000000 0.000000 0.000000 0.338868 -1.679883 -0.583611 61.222728 -1.806532 -7.879141 26.554019 52.823624 13.610517 0.000000 0.000000 0.000000 
0.124319 0.988866 0.195104 -0.548773 8.028706 -6.614156 1.413996 0.681915 11.252712 1.892492 -0.107542 -1.563468 -4.315640 -1.127126 12.640543 0.000000 0.000000 0.000000 -2.695896 -0.240640 2.350375 -0.697968 0.433752 9.777381 -2.173045 -7.952664 10.635378 0.000000 0.000000 0.000000 -0.724096 -0.332204 8.112533 1.241529 -0.518473 -1.180603 -0.627231 -8.823317 5.182613 -6.873412 4.740892 -20.735362 0.000000 0.000000 0.000000 -5.024007 7.181369 -3.029136 -55.307460 5.681501 -8.948252 -23.099772 -35.753339 9.654217 0.000000 0.000000 0.000000 0.021572 -2.414071 -0.772685 63.577856 -1.256929 -7.895998 23.212996 48.343257 11.086738 0.000000 0.000000 0.000000 
0.112821 0.986739 0.197980 -1.643193 9.737122 -6.493764 3.978128 0.265608 8.673250 1.798185 -0.268089 1.760068 -4.277444 -1.903246 10.612498 0.000000 0.000000 0.000000 -0.535386 -0.410568 3.691883 -0.727331 0.355984 7.535233 -2.617950 -8.533307 9.899611 0.000000 0.000000 0.000000 -1.083665 -0.296716 7.502810 1.271012 -0.526066 -1.132545 -0.588556 -8.709899 5.768381 -5.898008 4.305985 -20.975237 0.000000 0.000000 0.000000 -3.865974 6.862495 -2.806689 -55.362539 5.265601 -8.889243 -19.316050 -33.920963 7.772377 0.000000 0.000000 0.000000 0.088457 -2.409596 -0.790269 65.135395 -1.882650 -8.381335 19.493298 44.937678 8.943559 0.000000 0.000000 0.000000 
0.103069 0.983765 0.200292 -2.646876 11.408991 -7.181749 5.873616 0.020083 7.141711 1.860419 -0.451322 4.691388 -4.566493 -3.641061 8.214099 0.000000 0.000000 0.000000 1.457262 -0.722062 5.701026 -0.705996 0.277962 5.323958 -3.360616 -9.909034 9.950847 0.000000 0.000000 0.000000 -1.507928 -0.303127 7.783522 1.388574 -0.599931 -0.795369 -0.634159 -7.901679 5.806537 -5.330997 4.183813 -21.210273 0.000000 0.000000 0.000000 -3.235467 7.213235 -2.890402 -55.258069 3.562554 -8.269409 -16.117536 -33.682435 6.516553 0.000000 0.000000 0.000000 0.651803 -2.980225 -1.063062 65.548086 -2.408610 -8.447794 17.381404 40.909641 7.538835 0.000000 0.000000 0.000000 
0.098905 0.981228 0.202764 -2.842952 12.102209 -7.565786 6.565204 -0.059650 6.320971 1.995989 -0.539005 5.697366 -5.052241 -4.452277 8.212356 0.000000 0.000000 0.000000 1.961368 -0.948098 7.132184 -1.069709 0.306454 4.268712 -2.854875 -8.769629 9.514504 0.000000 0.000000 0.000000 -1.591990 -0.313779 7.959212 0.682010 -0.252023 -0.804345 -0.735675 -7.123967 6.053174 -4.891064 4.075070 -20.852330 0.000000 0.000000 0.000000 -3.342865 7.631294 -3.075357 -55.762031 1.889359 -7.729528 -12.758246 -32.943277 5.232899 0.000000 0.000000 0.000000 1.394937 -3.470370 -1.324045 65.641188 -2.933177 -8.576521 16.107285 39.067005 6.886246 0.000000 0.000000 0.000000 
0.101607 0.980654 0.205164 -2.764775 12.326452 -7.570235 6.739558 -0.077948 6.679173 1.721211 -0.420483 4.510336 -4.925045 -4.069923 8.409038 0.000000 0.000000 0.000000 1.564178 -1.058319 8.021315 -1.218237 0.291834 3.165653 -3.060217 -9.240714 9.965464 0.000000 0.000000 0.000000 -1.335876 -0.289404 7.194191 0.351104 -0.107378 -0.560120 -1.135375 -6.031049 5.811525 -5.342011 4.466725 -20.432152 0.000000 0.000000 0.000000 -3.341877 8.009444 -3.233851 -56.716465 0.645400 -7.387375 -11.671069 -31.667525 4.566674 0.000000 0.000000 0.000000 1.916229 -3.491255 -1.384557 65.029610 -3.174926 -8.364800 14.616530 36.758829 6.076619 0.000000 0.000000 0.000000 
0.109915 0.981265 0.206619 -2.061018 12.197177 -7.401648 5.807603 0.018545 7.607477 1.165011 -0.231859 2.492672 -4.824737 -3.085709 9.713176 0.000000 0.000000 0.000000 0.248083 -1.028671 8.349687 -1.510055 0.297836 2.175996 -2.941777 -9.135326 10.980519 0.000000 0.000000 0.000000 -0.777593 -0.294577 6.916998 -0.300320 0.258051 -1.357535 -1.616874 -5.369928 6.162145 -5.659286 4.727878 -20.583986 0.000000 0.000000 0.000000 -3.468819 8.470114 -3.436613 -57.806319 0.357396 -7.508825 -11.663986 -31.080934 4.412132 0.000000 0.000000 0.000000 1.343447 -4.039816 -1.513504 65.153492 -3.335290 -8.357114 14.696283 35.009549 5.857840 0.000000 0.000000 0.000000 
0.121975 0.981901 0.206229 -1.439418 11.515481 -6.685560 4.463498 0.165353 8.127585 1.605635 -0.127738 -0.425849 -4.924317 -2.459920 11.195092 0.000000 0.000000 0.000000 -1.490611 -0.876819 7.968955 -1.375834 0.254052 1.643355 -2.803725 -8.972062 11.282013 0.000000 0.000000 0.000000 -0.270337 -0.267241 6.111867 -0.629007 0.418433 -1.553934 -1.787482 -4.677605 6.128171 -6.496975 5.235901 -19.782743 0.000000 0.000000 0.000000 -4.754874 8.135383 -3.566865 -57.684530 0.763023 -7.695414 -11.691446 -29.297713 4.112685 0.000000 0.000000 0.000000 1.616177 -3.854595 -1.478851 64.826090 -3.367872 -8.242456 14.176475 34.265565 5.591313 0.000000 0.000000 0.000000 
0.135218 0.982418 0.204556 -0.909829 11.266409 -5.953825 3.206687 0.299291 8.548387 1.259120 0.005234 -2.759220 -4.521478 -1.127469 12.456836 0.000000 0.000000 0.000000 -3.450144 -0.696067 7.198308 -0.987599 0.192775 1.522831 -2.468550 -8.375942 11.592477 0.000000 0.000000 0.000000 0.073694 -0.275981 6.075431 -0.548125 0.397898 -1.961576 -2.109343 -4.578325 5.766803 -6.673192 5.316414 -20.582391 0.000000 0.000000 0.000000 -4.480864 7.914866 -3.437870 -58.835448 1.058625 -7.979152 -11.559355 -27.895228 3.864008 0.000000 0.000000 0.000000 2.231695 -3.952013 -1.579749 64.061839 -2.420091 -7.575674 12.789779 33.040907 4.952381 0.000000 0.000000 0.000000 
0.148650 0.981776 0.202220 -0.564104 11.482118 -5.123929 2.062418 0.392166 8.316126 1.044316 0.087847 -4.592456 -4.898132 -1.015104 13.785273 0.000000 0.000000 0.000000 -4.905499 -0.543322 6.119120 -0.915821 0.200777 1.999601 -2.191526 -7.876735 12.160052 0.000000 0.000000 0.000000 0.506082 -0.287932 5.971186 -0.491585 0.385705 -2.259706 -2.277973 -4.740712 5.399668 -6.698435 5.316256 -20.447067 0.000000 0.000000 0.000000 -5.191539 7.637831 -3.470757 -58.644481 0.877529 -7.806308 -11.323594 -25.338937 3.433351 0.000000 0.000000 0.000000 3.040882 -4.052423 -1.705821 63.439875 -1.728604 -7.090747 12.239321 32.014431 4.608997 0.000000 0.000000 0.000000 
0.161587 0.981368 0.200493 -0.626447 11.708464 -4.822341 1.549415 0.428331 8.184669 0.578580 0.129995 -5.206187 -4.849467 -0.835472 13.924627 0.000000 0.000000 0.000000 -6.023976 -0.442729 5.111306 -0.585469 0.192225 3.176399 -2.326745 -8.177346 12.669367 0.000000 0.000000 0.000000 0.705784 -0.305906 6.117811 -0.221225 0.286221 -2.685642 -2.165853 -5.279348 5.279608 -6.740621 5.290164 -20.569054 0.000000 0.000000 0.000000 -6.114965 7.387882 -3.526949 -58.430628 1.165122 -7.855140 -11.373546 -24.171691 3.304143 0.000000 0.000000 0.000000 3.954159 -3.583626 -1.639567 62.858446 -1.175519 -6.788660 11.314388 31.193563 4.184484 0.000000 0.000000 0.000000 
0.174262 0.980482 0.199280 -0.704998 11.721645 -4.452449 0.814833 0.470669 7.727932 0.670038 0.122648 -5.097302 -4.768319 -0.724378 13.885559 0.000000 0.000000 0.000000 -7.089728 -0.371114 4.299116 -0.512778 0.205015 3.954428 -2.170464 -7.984150 13.468785 0.000000 0.000000 0.000000 1.026205 -0.331609 6.280521 -0.240249 0.343961 -3.586454 -1.840744 -5.448536 5.475571 -5.676427 4.685642 -21.180982 0.000000 0.000000 0.000000 -6.182327 6.510472 -3.186290 -58.428429 1.156535 -7.853242 -11.143100 -22.383651 3.017392 0.000000 0.000000 0.000000 4.695270 -3.649546 -1.752427 62.627087 -0.622846 -6.518792 9.890132 30.045301 3.635976 0.000000 0.000000 0.000000 
0.186455 0.980275 0.198359 -0.880144 11.258570 -4.246344 0.256241 0.515058 7.545045 0.584133 0.121065 -4.885096 -4.907807 -1.146084 13.627226 0.000000 0.000000 0.000000 -7.948283 -0.317394 3.676091 -0.286953 0.198147 4.989520 -1.952838 -7.676245 13.774504 0.000000 0.000000 0.000000 1.370281 -0.335670 6.090273 -0.092923 0.316398 -4.399682 -1.660676 -5.059460 5.870921 -4.641484 4.138850 -20.707798 0.000000 0.000000 0.000000 -6.588297 5.865333 -3.008714 -58.239861 1.301751 -7.941359 -11.277696 -21.590226 2.926673 0.000000 0.000000 0.000000 5.218174 -3.943498 -1.914911 62.518035 0.110074 -6.136675 8.392301 28.326407 3.064731 0.000000 0.000000 0.000000 
0.197898 0.979418 0.197284 -1.077587 10.985896 -3.909147 -0.407071 0.560228 7.321462 0.806792 0.100966 -4.591414 -4.409492 -0.649558 13.109935 0.000000 0.000000 0.000000 -8.690812 -0.267008 2.852896 -0.098932 0.196659 6.224756 -1.752680 -7.347125 13.864526 0.000000 0.000000 0.000000 1.814073 -0.358219 6.077294 -0.070620 0.317306 -4.700870 -1.307434 -4.845700 5.626403 -3.348135 3.408430 -20.156852 0.000000 0.000000 0.000000 -6.970462 5.243974 -2.828659 -58.034290 1.375757 -7.915793 -10.953516 -20.847001 2.757060 0.000000 0.000000 0.000000 5.183698 -4.106723 -1.977966 62.948352 0.926803 -5.708633 6.413930 26.981287 2.454618 0.000000 0.000000 0.000000 
0.207927 0.978980 0.195877 -1.108585 10.626645 -3.610373 -0.855901 0.576702 6.967858 0.859898 0.077619 -3.980310 -4.223033 -0.521494 12.864896 0.000000 0.000000 0.000000 -9.427507 -0.223290 1.933011 -0.147258 0.233600 7.345089 -1.331085 -6.612730 13.935905 0.000000 0.000000 0.000000 2.349440 -0.383510 6.036876 -0.136205 0.361088 -5.110845 -1.073840 -4.741471 5.790291 -3.248423 3.337113 -20.055658 0.000000 0.000000 0.000000 -7.549917 4.770876 -2.719918 -57.528816 1.393252 -7.846245 -11.101330 -20.777151 2.781953 0.000000 0.000000 0.000000 5.186632 -3.640210 -1.799611 62.874316 1.655123 -5.343330 4.655623 25.934643 1.967706 0.000000 0.000000 0.000000 
0.215526 0.978156 0.193994 -1.277335 10.047716 -3.377059 -0.978155 0.545624 6.343196 0.519721 0.079146 -3.420043 -3.987034 -0.450012 12.398653 0.000000 0.000000 0.000000 -9.791852 -0.179821 0.972354 -0.394564 0.322979 8.914322 -1.005514 -5.928043 13.223910 0.000000 0.000000 0.000000 2.554100 -0.385754 5.905137 -0.059360 0.329341 -5.322164 -0.957136 -4.254637 6.079117 -1.607983 2.449349 -20.319635 0.000000 0.000000 0.000000 -7.824736 4.294923 -2.581138 -57.632661 1.189390 -7.794056 -10.001330 -20.697710 2.565658 0.000000 0.000000 0.000000 5.247490 -3.061050 -1.565851 63.165539 2.645843 -4.831655 2.613147 24.994042 1.486425 0.000000 0.000000 0.000000 
0.219390 0.977929 0.191564 -1.397996 9.661717 -3.291711 -0.697559 0.507989 6.064702 -0.016325 0.097541 -2.896497 -3.764351 -0.444752 11.792184 0.000000 0.000000 0.000000 -9.954747 -0.140669 -0.397368 -0.340687 0.357931 10.979835 -1.145735 -6.162453 12.837794 0.000000 0.000000 0.000000 2.781819 -0.402144 5.964144 -0.137109 0.368326 -5.566858 -0.705782 -3.965432 6.552841 -0.869663 2.067927 -20.811291 0.000000 0.000000 0.000000 -8.155762 4.059559 -2.533344 -57.576638 0.836697 -7.663164 -9.425663 -21.214349 2.529593 0.000000 0.000000 0.000000 5.703301 -3.068337 -1.606790 62.824361 3.383351 -4.458705 2.249194 24.880250 1.416666 0.000000 0.000000 0.000000 
0.218683 0.977910 0.189366 -1.571251 8.728992 -3.076344 -0.304955 0.452705 5.578432 -0.394193 0.104137 -2.188106 -3.106586 0.306195 11.334256 0.000000 0.000000 0.000000 -9.725701 -0.085067 -1.237175 -0.315986 0.387274 11.990963 -1.017519 -5.902870 12.245540 0.000000 0.000000 0.000000 2.686625 -0.390459 5.864491 0.223875 0.216700 -5.936864 -0.511466 -3.755103 7.125217 -0.048307 1.639632 -21.884789 0.000000 0.000000 0.000000 -8.786718 4.488766 -2.773326 -57.733185 0.781126 -7.686315 -8.164478 -21.634419 2.366703 0.000000 0.000000 0.000000 6.048919 -2.514396 -1.431940 62.426406 4.881669 -3.721744 1.217787 24.026302 1.151614 0.000000 0.000000 0.000000 
0.213330 0.978727 0.187844 -1.880343 8.589825 -2.972234 0.417036 0.368132 5.054813 -0.410129 0.094171 -1.801974 -3.274911 0.005331 11.318308 0.000000 0.000000 0.000000 -8.839826 -0.041098 -1.666580 -0.239935 0.376685 12.355319 -1.290507 -6.515751 12.639261 0.000000 0.000000 0.000000 2.400045 -0.365805 5.702122 0.300909 0.174226 -5.777683 -0.386057 -3.778054 7.244882 0.870065 1.099056 -21.578881 0.000000 0.000000 0.000000 -8.566626 4.301710 -2.650127 -57.813272 0.579710 -7.607645 -7.533322 -21.330136 2.221467 0.000000 0.000000 0.000000 6.105007 -2.489889 -1.434183 61.935590 5.250548 -3.524531 2.089851 24.296896 1.330129 0.000000 0.000000 0.000000 
0.203746 0.980003 0.187223 -2.203349 7.916788 -2.528228 1.429794 0.260652 4.311104 -0.467817 0.087140 -1.392046 -2.708937 0.664750 10.888081 0.000000 0.000000 0.000000 -7.603021 0.016662 -1.549012 -0.215441 0.349508 10.739331 -1.251089 -6.468157 12.452848 0.000000 0.000000 0.000000 1.700831 -0.296711 5.119641 0.649424 -0.003261 -5.438620 -0.260031 -3.683759 7.111726 1.285228 0.802660 -21.130744 0.000000 0.000000 0.000000 -8.670361 5.231072 -3.032795 -57.936638 0.837959 -7.704067 -6.821630 -21.925561 2.162237 0.000000 0.000000 0.000000 5.925954 -2.316530 -1.369046 62.343098 6.279300 -2.997603 2.225487 24.281273 1.338044 0.000000 0.000000 0.000000 
0.191327 0.981043 0.186583 -2.562841 7.645342 -2.273613 2.239628 0.173786 3.634922 -0.127164 0.056438 -1.314066 -2.794058 0.719809 11.356920 0.000000 0.000000 0.000000 -6.494056 0.026877 -0.982357 -0.087639 0.277734 8.673700 -1.768706 -7.566207 12.898433 0.000000 0.000000 0.000000 1.197451 -0.229288 4.320744 0.584059 0.017159 -5.362304 0.011313 -3.771489 7.582872 1.775888 0.501924 -21.289204 0.000000 0.000000 0.000000 -8.477641 5.267491 -2.989642 -57.982111 1.494643 -8.052586 -7.440177 -21.726432 2.278597 0.000000 0.000000 0.000000 5.936944 -1.710751 -1.139914 62.345115 6.578669 -2.914364 2.226798 25.364844 1.398389 0.000000 0.000000 0.000000 
0.177020 0.982088 0.185707 -2.736700 6.917234 -1.946425 2.971395 0.103657 2.987962 0.345231 0.017355 -1.344908 -2.663827 0.965524 11.600716 0.000000 0.000000 0.000000 -5.345180 0.047846 -0.775253 -0.331837 0.291038 7.186616 -1.941660 -7.929973 12.653066 0.000000 0.000000 0.000000 0.694392 -0.193573 3.989467 0.636255 -0.003706 -5.634865 -0.145290 -3.406334 8.014714 2.211212 0.259186 -21.308441 0.000000 0.000000 0.000000 -8.293726 5.593960 -3.097410 -58.824415 2.302754 -8.609181 -7.445725 -22.871790 2.414240 0.000000 0.000000 0.000000 5.731503 -1.150806 -0.891064 62.769915 6.890238 -2.791463 2.762133 27.041430 1.632584 0.000000 0.000000 0.000000 
0.161625 0.982589 0.184236 -2.852287 6.585226 -1.712631 3.821515 0.013614 1.970636 0.469844 -0.031488 -0.367486 -2.198358 1.651804 11.499392 0.000000 0.000000 0.000000 -4.418452 0.060559 -0.736073 -0.146159 0.229710 6.190932 -2.270760 -8.621440 12.813454 0.000000 0.000000 0.000000 0.392038 -0.165749 3.631389 0.509757 0.033189 -5.393905 -0.147489 -2.907171 8.112361 2.610698 0.108681 -21.677187 0.000000 0.000000 0.000000 -7.908341 5.798083 -3.149729 -59.021802 2.580716 -8.805989 -7.644106 -23.573219 2.517410 0.000000 0.000000 0.000000 5.432656 -0.989202 -0.779898 62.669808 7.121249 -2.628640 3.156913 29.553062 1.931798 0.000000 0.000000 0.000000 
0.145284 0.982270 0.183322 -2.799997 6.256873 -1.644253 4.671701 -0.048289 1.278113 0.577303 -0.071709 0.356909 -2.205331 1.575122 11.443593 0.000000 0.000000 0.000000 -3.608428 0.029877 -0.201091 -0.311544 0.211332 4.699590 -2.319862 -8.744723 12.746756 0.000000 0.000000 0.000000 0.276458 -0.145873 3.291016 0.180460 0.150875 -4.985103 -0.253319 -2.720569 8.164569 2.018363 0.478453 -22.134038 0.000000 0.000000 0.000000 -7.841075 6.269252 -3.335555 -59.763120 3.425694 -9.355817 -8.332082 -25.239306 2.862765 0.000000 0.000000 0.000000 5.323952 -0.464718 -0.561197 62.541665 7.191107 -2.587887 3.872915 31.984500 2.313575 0.000000 0.000000 0.000000 
0.127981 0.981095 0.183656 -2.717448 6.012031 -1.654088 5.461925 -0.096626 0.653586 1.222683 -0.185733 1.346979 -2.012131 1.832266 11.361696 0.000000 0.000000 0.000000 -2.510956 -0.004564 0.215693 -0.457492 0.182825 3.254171 -2.486381 -9.138267 13.013950 0.000000 0.000000 0.000000 -0.086327 -0.110738 2.730908 -0.118799 0.271530 -4.874573 -0.404702 -2.234070 8.494252 2.099641 0.445670 -21.758419 0.000000 0.000000 0.000000 -7.747852 6.262928 -3.344487 -59.809408 3.554763 -9.493073 -8.011213 -26.648880 2.938606 0.000000 0.000000 0.000000 5.298019 -0.394933 -0.504102 62.592013 6.759232 -2.810686 5.464857 34.098773 3.002705 0.000000 0.000000 0.000000 
0.110030 0.979422 0.185400 -2.894084 6.335768 -1.728163 6.500900 -0.159167 -0.226743 1.628869 -0.325069 3.106054 -2.459424 0.321387 9.652001 0.000000 0.000000 0.000000 -1.001185 -0.108142 1.159634 -0.430303 0.127888 1.919351 -2.571773 -9.125489 12.219032 0.000000 0.000000 0.000000 -0.239102 -0.072845 1.892138 -0.608835 0.473706 -4.488192 -0.571509 -1.851288 8.804043 1.941007 0.550515 -21.131675 0.000000 0.000000 0.000000 -7.404569 6.324629 -3.354520 -59.426996 3.362457 -9.414613 -8.780696 -27.661311 3.205898 0.000000 0.000000 0.000000 5.815955 -0.560706 -0.563033 62.361788 6.171071 -3.093249 7.119016 35.559252 3.733848 0.000000 0.000000 0.000000 
0.093623 0.978284 0.187281 -2.978793 6.052173 -2.132895 7.384686 -0.183680 -0.855895 2.144840 -0.515624 5.130937 -2.551679 -0.289210 8.795252 0.000000 0.000000 0.000000 -0.061670 -0.255779 2.395356 -0.336066 0.059099 0.472494 -2.232834 -8.416251 11.662273 0.000000 0.000000 0.000000 -0.353894 -0.061751 1.646976 -0.928564 0.597634 -4.095400 -0.653365 -1.211192 8.606296 1.906957 0.579252 -20.490701 0.000000 0.000000 0.000000 -7.530256 6.264031 -3.389739 -59.147167 3.544654 -9.481069 -8.170986 -28.658483 3.128880 0.000000 0.000000 0.000000 6.005803 -0.552044 -0.538962 63.227246 5.657447 -3.327300 7.366779 35.663022 3.870081 0.000000 0.000000 0.000000 
0.081597 0.977224 0.188601 -2.810599 6.169302 -2.411237 7.728366 -0.202643 -1.655931 2.451261 -0.668929 6.743111 -2.914176 -1.368936 7.942011 0.000000 0.000000 0.000000 0.612606 -0.355181 3.101338 -0.414592 0.035312 -0.348212 -2.309705 -8.550465 11.626493 0.000000 0.000000 0.000000 -0.560513 -0.063734 1.762033 -1.381238 0.795800 -4.000610 -0.443315 -0.817455 8.638269 1.576224 0.777229 -20.009232 0.000000 0.000000 0.000000 -7.774041 5.523417 -3.161584 -58.860863 2.508782 -8.958703 -8.571627 -27.882869 3.107340 0.000000 0.000000 0.000000 6.223691 -0.964042 -0.689296 63.733834 5.112325 -3.611393 7.499271 34.644808 3.824085 0.000000 0.000000 0.000000 
0.075225 0.977354 0.189474 -2.399351 6.041007 -2.225575 6.995069 -0.209354 -2.236103 2.250677 -0.696749 7.652442 -2.952550 -1.878164 7.161899 0.000000 0.000000 0.000000 0.531258 -0.352376 3.104942 -0.421035 0.023161 -0.652868 -1.977689 -7.929893 11.656879 0.000000 0.000000 0.000000 -0.559176 -0.051302 1.434432 -1.657718 0.910305 -3.835008 -0.485331 -1.147315 8.217557 1.123545 0.988230 -19.989735 0.000000 0.000000 0.000000 -7.696368 5.119382 -2.953661 -59.456279 2.500184 -8.986103 -8.087700 -27.761568 2.999981 0.000000 0.000000 0.000000 6.120476 -0.688427 -0.605507 64.173743 4.462497 -3.989493 6.790947 33.122432 3.368976 0.000000 0.000000 0.000000 
0.074104 0.977833 0.189980 -1.692161 6.036650 -1.770194 6.031463 -0.205367 -2.131996 2.120979 -0.621923 6.858684 -3.221929 -1.966262 7.921933 0.000000 0.000000 0.000000 -0.002023 -0.314008 2.925553 -0.517140 0.016679 -1.051266 -1.868694 -7.796990 12.019051 0.000000 0.000000 0.000000 -0.628597 -0.026007 0.769210 -2.065629 1.086737 -3.828301 -0.279928 -1.515215 7.920581 0.475751 1.273113 -19.521242 0.000000 0.000000 0.000000 -7.914361 4.275257 -2.609639 -59.405885 2.130848 -8.720437 -8.299101 -26.646085 2.947721 0.000000 0.000000 0.000000 5.764394 -0.332397 -0.473180 64.475769 4.045870 -4.250072 5.117883 30.739879 2.603523 0.000000 0.000000 0.000000 
0.076560 0.977844 0.190504 -1.050417 6.245174 -1.340506 4.900558 -0.158671 -1.116431 1.838299 -0.405392 4.029821 -3.440152 -1.414846 9.658767 0.000000 0.000000 0.000000 -0.826519 -0.214109 2.208461 -0.710415 0.044549 -0.903558 -2.131301 -8.330922 12.307598 0.000000 0.000000 0.000000 -0.502286 -0.019995 0.598047 -1.930220 1.039022 -4.347039 -0.535468 -1.821695 8.023692 0.222104 1.422572 -19.862937 0.000000 0.000000 0.000000 -8.075648 3.564829 -2.326949 -59.615525 1.322819 -8.340052 -8.384386 -25.484529 2.843413 0.000000 0.000000 0.000000 5.588398 -0.170489 -0.406723 63.886922 4.247972 -4.125981 3.749792 27.061817 1.919257 0.000000 0.000000 0.000000 
0.080584 0.977323 0.190877 -0.526206 6.903602 -0.761241 4.069779 -0.098574 0.022178 2.001204 -0.237164 0.737603 -3.880469 -1.306475 11.193669 0.000000 0.000000 0.000000 -1.711257 -0.191952 2.209477 -0.694550 -0.004783 -1.974664 -2.404319 -8.786173 12.397941 0.000000 0.000000 0.000000 -0.267179 -0.006248 0.200546 -1.867347 1.017218 -4.354318 -0.646507 -2.548588 7.590461 -0.119644 1.526355 -19.122122 0.000000 0.000000 0.000000 -8.517314 2.403676 -1.875893 -59.176655 0.152780 -7.613344 -7.490247 -23.315076 2.418795 0.000000 0.000000 0.000000 5.465579 0.218907 -0.271947 63.335731 4.372292 -4.022571 2.021221 22.601344 1.215075 0.000000 0.000000 0.000000 
0.084516 0.976873 0.191183 -0.291583 7.473389 -0.455480 3.817033 -0.051933 0.944243 1.714645 -0.074923 -1.842606 -4.033523 -0.740144 12.672844 0.000000 0.000000 0.000000 -2.089787 -0.192786 2.302028 -0.959697 -0.016480 -2.790697 -2.600679 -9.194960 13.080987 0.000000 0.000000 0.000000 -0.022813 -0.011494 0.301824 -1.568695 0.895492 -4.415103 -0.781254 -3.092553 7.209226 -0.189243 1.547586 -19.192184 0.000000 0.000000 0.000000 -8.465569 1.883040 -1.637559 -59.259112 -1.393185 -6.799738 -6.302511 -21.618074 2.013990 0.000000 0.000000 0.000000 5.476580 0.399612 -0.218127 62.906118 4.647986 -3.832402 0.129942 18.394309 0.680953 0.000000 0.000000 0.000000 
0.087332 0.976311 0.191255 -0.111778 7.868054 -0.162245 3.511985 -0.034381 1.169165 1.866537 -0.016889 -3.275474 -4.466875 -0.860772 13.740566 0.000000 0.000000 0.000000 -2.420285 -0.200422 2.470167 -1.062840 -0.041075 -3.480830 -2.653766 -9.297371 13.439568 0.000000 0.000000 0.000000 0.022326 -0.013099 0.331944 -1.262268 0.774908 -4.653004 -0.796251 -3.447858 7.133472 -0.414499 1.657903 -19.123430 0.000000 0.000000 0.000000 -8.542634 1.001861 -1.265598 -58.793150 -3.003564 -5.926073 -4.734100 -18.690973 1.478102 0.000000 0.000000 0.000000 5.594399 0.637802 -0.140310 62.490753 5.148813 -3.547586 -0.276873 14.504451 0.474224 0.000000 0.000000 0.000000 
0.088837 0.975642 0.191258 -0.254758 8.271793 -0.056261 3.717206 -0.031966 1.486343 1.790239 0.029646 -4.165312 -4.578086 -0.859803 13.984139 0.000000 0.000000 0.000000 -2.201504 -0.230836 2.717730 -1.293861 -0.051866 -4.081099 -2.626571 -9.194786 13.474829 0.000000 0.000000 0.000000 0.032561 -0.024728 0.622318 -1.124539 0.728556 -4.883864 -0.624425 -3.670138 7.102823 -0.437974 1.677040 -19.261400 0.000000 0.000000 0.000000 -8.208118 0.254490 -0.915032 -58.593153 -4.426232 -5.200064 -3.356587 -15.962764 1.064733 0.000000 0.000000 0.000000 5.924999 1.146552 0.042196 62.211152 5.561076 -3.319055 -0.583667 11.366214 0.339146 0.000000 0.000000 0.000000 
0.089754 0.975186 0.191184 -0.336778 8.397379 0.237616 3.910983 -0.046223 1.458522 1.757897 0.068886 -5.018532 -4.387077 -0.284688 14.495607 0.000000 0.000000 0.000000 -2.290513 -0.214301 2.574591 -1.193735 -0.082132 -4.486110 -2.479552 -8.948933 13.819029 0.000000 0.000000 0.000000 0.016236 -0.038192 0.959469 -0.820225 0.619122 -5.412837 -0.763216 -3.766073 7.053434 -0.221713 1.575965 -19.586457 0.000000 0.000000 0.000000 -8.068445 -0.461123 -0.606909 -58.120911 -5.561550 -4.590186 -1.787333 -13.333324 0.704305 0.000000 0.000000 0.000000 5.917872 1.520657 0.195388 62.075305 6.270342 -2.922075 -0.797778 8.646712 0.243646 0.000000 0.000000 0.000000 
0.090388 0.974990 0.191115 -0.390772 8.451346 0.467790 4.018059 -0.050762 1.530025 1.704331 0.103360 -5.782937 -4.431912 -0.131603 14.949399 0.000000 0.000000 0.000000 -2.352320 -0.202880 2.480513 -1.219799 -0.103342 -4.908733 -2.446694 -8.909784 14.036370 0.000000 0.000000 0.000000 0.028030 -0.044398 1.104380 -0.788487 0.612114 -5.588554 -0.667967 -3.993057 7.081237 -0.016320 1.441443 -19.715097 0.000000 0.000000 0.000000 -8.391157 -1.018550 -0.382224 -57.531038 -6.231009 -4.204627 -0.999922 -10.758609 0.495645 0.000000 0.000000 0.000000 6.296286 2.118472 0.401057 61.873312 6.976877 -2.567248 -0.931046 6.577737 0.180671 0.000000 0.000000 0.000000 
0.091063 0.974866 0.191186 -0.529132 8.360419 0.526455 4.086292 -0.046187 1.705424 1.633921 0.139612 -6.627397 -4.292870 0.401916 15.646986 0.000000 0.000000 0.000000 -2.386029 -0.212028 2.604045 -1.022575 -0.150625 -5.494192 -2.451124 -9.004847 14.526502 0.000000 0.000000 0.000000 0.065026 -0.053490 1.306893 -0.586623 0.529751 -5.680317 -0.792998 -3.985478 7.037487 0.196007 1.298529 -19.383757 0.000000 0.000000 0.000000 -8.864307 -1.590539 -0.182544 -57.220106 -7.157727 -3.725417 0.301080 -8.101819 0.284325 0.000000 0.000000 0.000000 6.825627 2.573231 0.559050 61.591329 7.863305 -2.089896 -1.339066 4.909280 0.130629 0.000000 0.000000 0.000000 
0.091579 0.974725 0.191391 -0.415648 8.211290 0.827217 3.930376 -0.049297 1.500427 1.716079 0.155550 -7.106719 -4.169772 0.790355 16.137155 0.000000 0.000000 0.000000 -2.563850 -0.182776 2.367335 -1.028830 -0.159418 -5.656740 -2.466908 -9.085017 14.746963 0.000000 0.000000 0.000000 0.034932 -0.043468 1.072807 -0.634664 0.548043 -5.718471 -0.767350 -3.869435 7.186682 0.255147 1.282847 -19.620298 0.000000 0.000000 0.000000 -9.179700 -1.918913 -0.068990 -57.285200 -7.711116 -3.472609 1.032491 -5.814884 0.170517 0.000000 0.000000 0.000000 7.226188 2.757896 0.621257 61.178454 8.629710 -1.693083 -1.848098 3.524287 0.098597 0.000000 0.000000 0.000000 
0.091896 0.974584 0.191768 -0.527514 7.954291 0.853511 3.881605 -0.038710 1.632865 1.665505 0.175600 -7.580870 -3.950462 1.206369 16.408699 0.000000 0.000000 0.000000 -2.515768 -0.175137 2.290244 -1.206567 -0.161513 -5.908573 -2.440302 -9.128373 15.126293 0.000000 0.000000 0.000000 0.137571 -0.045109 1.064396 -0.566507 0.517649 -5.771407 -0.927956 -3.578249 7.307050 0.468160 1.146657 -19.090839 0.000000 0.000000 0.000000 -9.585456 -2.280600 0.032140 -57.384451 -7.996783 -3.354465 2.138540 -3.915059 0.084249 0.000000 0.000000 0.000000 7.714154 3.203606 0.807523 60.947880 9.260012 -1.357392 -2.377633 2.299064 0.082134 0.000000 0.000000 0.000000 
0.091780 0.974600 0.192241 -0.454078 8.009234 0.873848 3.950932 -0.034150 1.815118 1.492274 0.194313 -7.963262 -3.885791 1.401238 16.618927 0.000000 0.000000 0.000000 -2.589990 -0.168657 2.234767 -1.355487 -0.163386 -6.114902 -2.456056 -9.201853 15.479725 0.000000 0.000000 0.000000 0.206593 -0.046463 1.065894 -0.705956 0.568891 -5.563689 -0.990741 -3.471150 7.317569 0.711009 1.003972 -18.843527 0.000000 0.000000 0.000000 -10.212626 -2.713901 0.152909 -57.481207 -8.207110 -3.260403 3.234974 -2.250420 0.037965 0.000000 0.000000 0.000000 8.209272 3.254083 0.823865 60.726053 9.689293 -1.127635 -2.845445 1.210249 0.077871 0.000000 0.000000 0.000000 
0.091329 0.974717 0.192850 -0.445808 8.032871 0.966855 4.272129 -0.046632 1.927279 1.010923 0.214428 -8.210810 -3.772505 1.685417 16.886915 0.000000 0.000000 0.000000 -2.538456 -0.171243 2.254936 -1.471864 -0.175551 -6.445835 -2.318192 -9.004751 15.839804 0.000000 0.000000 0.000000 0.274743 -0.039087 0.860254 -0.572468 0.508627 -5.443159 -1.375134 -3.274230 7.242648 0.891340 0.864759 -17.955870 0.000000 0.000000 0.000000 -10.720739 -2.493093 -0.027870 -57.646294 -8.095838 -3.319069 3.945065 -1.588086 0.024997 0.000000 0.000000 0.000000 8.805568 3.219502 0.816675 60.612087 9.766921 -1.061082 -3.301858 0.562085 0.084253 0.000000 0.000000 0.000000 
0.090616 0.974832 0.193502 -0.302757 8.088559 1.026086 4.232692 -0.048243 1.864191 0.985592 0.213338 -8.158339 -4.009916 1.210091 16.600651 0.000000 0.000000 0.000000 -2.675248 -0.177213 2.364741 -1.534801 -0.182544 -6.626172 -2.364454 -9.081168 15.841108 0.000000 0.000000 0.000000 0.076181 -0.021870 0.519214 -0.663360 0.537377 -5.175520 -1.279934 -3.381264 7.158039 1.105135 0.689481 -17.499668 0.000000 0.000000 0.000000 -11.033695 -2.625663 0.018819 -57.932764 -7.528952 -3.600543 4.492419 -1.673906 0.020899 0.000000 0.000000 0.000000 9.013971 3.228256 0.797987 60.719641 9.753739 -1.069626 -3.455909 0.320804 0.087041 0.000000 0.000000 0.000000 
0.089955 0.974243 0.194274 -0.266571 8.148325 1.061788 4.599316 -0.065293 1.936255 0.179238 0.234442 -8.279670 -3.881581 1.431881 16.661367 0.000000 0.000000 0.000000 -2.829219 -0.201506 2.692624 -1.319523 -0.228882 -7.182319 -2.196394 -8.798109 15.971006 0.000000 0.000000 0.000000 0.237592 -0.020168 0.420974 -0.807775 0.609944 -5.471121 -1.699292 -3.645338 7.457471 1.157474 0.566959 -16.613826 0.000000 0.000000 0.000000 -10.630367 -2.374516 -0.033238 -57.970769 -7.227405 -3.775536 4.370207 -2.125857 0.022775 0.000000 0.000000 0.000000 9.270225 3.356559 0.833177 60.982438 9.314858 -1.341999 -3.492640 1.177093 0.088008 0.000000 0.000000 0.000000 
0.089536 0.973120 0.195079 -0.075986 7.741427 1.036697 4.737066 -0.052824 2.284180 -0.458018 0.251582 -8.322450 -3.721911 1.468364 16.356628 0.000000 0.000000 0.000000 -3.310626 -0.196652 2.850938 -1.087754 -0.250197 -7.324023 -1.778468 -8.051832 15.562608 0.000000 0.000000 0.000000 0.376785 -0.013146 0.210127 -1.239959 0.759891 -4.681371 -1.287663 -3.545920 6.959436 1.271555 0.425310 -16.012475 0.000000 0.000000 0.000000 -11.042717 -2.039700 -0.190191 -57.158082 -6.039259 -4.242299 3.690308 -3.668666 0.039348 0.000000 0.000000 0.000000 8.749577 2.678382 0.519728 61.617646 8.153173 -1.922845 -3.138445 3.559292 0.091798 0.000000 0.000000 0.000000 
0.089583 0.971353 0.195786 -0.000330 7.732976 1.184183 4.610953 -0.037598 2.517939 -0.815162 0.258194 -8.260792 -3.270317 2.014169 16.043012 0.000000 0.000000 0.000000 -3.642018 -0.168262 2.638246 -0.655382 -0.257224 -7.009240 -1.705130 -7.837519 15.097704 0.000000 0.000000 0.000000 0.551331 -0.006751 0.005390 -1.131350 0.723298 -4.994286 -1.626948 -3.476714 7.515574 1.062049 0.476738 -14.951650 0.000000 0.000000 0.000000 -12.517876 -1.605661 -0.526596 -55.641608 -5.005891 -4.654643 1.966456 -5.203170 0.115142 0.000000 0.000000 0.000000 10.104632 1.770528 0.074712 60.904199 7.376048 -2.380144 -2.730292 6.025581 0.119008 0.000000 0.000000 0.000000 
0.090028 0.970578 0.196275 -0.188451 6.895868 0.882612 4.778619 -0.023236 2.760623 -0.855374 0.261178 -7.984357 -2.760942 2.901766 16.647518 0.000000 0.000000 0.000000 -3.296737 -0.121436 1.998617 -0.730203 -0.184193 -5.711604 -0.979123 -6.543613 14.630507 0.000000 0.000000 0.000000 0.860209 -0.005171 -0.085501 -1.327375 0.773966 -4.265117 -1.227685 -2.371786 6.824931 2.125354 -0.089838 -15.306933 0.000000 0.000000 0.000000 -12.055338 -1.050984 -0.837342 -55.776440 -4.425305 -4.880194 0.982171 -7.300264 0.208739 0.000000 0.000000 0.000000 7.614855 0.712105 -0.192071 63.692567 6.791340 -2.603441 -3.384379 6.583947 0.107133 0.000000 0.000000 0.000000 
0.090839 0.972496 0.196488 -0.312067 7.024685 0.562412 4.974326 -0.002548 3.575595 -0.927145 0.270422 -8.536004 -2.620264 3.689302 18.105775 0.000000 0.000000 0.000000 -2.813838 -0.166240 2.341432 -1.363729 -0.146130 -5.804209 -0.176116 -5.374015 15.985613 0.000000 0.000000 0.000000 1.244747 -0.012918 0.020592 -1.064811 0.698382 -5.351252 -1.524560 -1.675033 8.747877 2.739227 -0.389792 -15.482762 0.000000 0.000000 0.000000 -12.749980 -1.683766 -0.715825 -55.274239 -4.523728 -4.984184 -0.191507 -7.516141 0.283579 0.000000 0.000000 0.000000 9.093017 -0.240466 -0.566008 62.814833 6.719823 -2.778338 -3.408792 7.270854 0.122927 0.000000 0.000000 0.000000 
