HIERARCHY
ROOT Hips
{
	OFFSET -0.001795 -0.223333 0.028219
	CHANNELS 6 Xposition Yposition Zposition Zrotation Yrotation Xrotation 
	JOINT LeftUpLeg
	{
		OFFSET 0.069520 -0.091406 -0.006815
		CHANNELS 3 Zrotation Yrotation Xrotation
		JOINT LeftLeg
		{
			OFFSET 0.034277 -0.375199 -0.004496
			CHANNELS 3 Zrotation Yrotation Xrotation
			JOINT LeftFoot
			{
				OFFSET -0.013596 -0.397961 -0.043693
				CHANNELS 3 Zrotation Yrotation Xrotation
				JOINT LeftToe
				{
					OFFSET 0.026358 -0.055791 0.119288
					CHANNELS 3 Zrotation Yrotation Xrotation
					End Site
					{
						OFFSET 0.000000 0.000000 0.000000
					}
				}
			}
		}
	}
	JOINT RightUpLeg
	{
		OFFSET -0.067670 -0.090522 -0.004320
		CHANNELS 3 Zrotation Yrotation Xrotation
		JOINT RightLeg
		{
			OFFSET -0.038290 -0.382569 -0.008850
			CHANNELS 3 Zrotation Yrotation Xrotation
			JOINT RightFoot
			{
				OFFSET 0.015774 -0.398415 -0.042312
				CHANNELS 3 Zrotation Yrotation Xrotation
				JOINT RightToe
				{
					OFFSET -0.025372 -0.048144 0.123348
					CHANNELS 3 Zrotation Yrotation Xrotation
					End Site
					{
						OFFSET 0.000000 0.000000 0.000000
					}
				}
			}
		}
	}
	JOINT Spine
	{
		OFFSET -0.002533 0.108963 -0.026696
		CHANNELS 3 Zrotation Yrotation Xrotation
		JOINT Spine1
		{
			OFFSET 0.005487 0.135180 0.001092
			CHANNELS 3 Zrotation Yrotation Xrotation
			JOINT Spine2
			{
				OFFSET 0.001457 0.052922 0.025425
				CHANNELS 3 Zrotation Yrotation Xrotation
				JOINT Neck
				{
					OFFSET -0.002778 0.213870 -0.042857
					CHANNELS 3 Zrotation Yrotation Xrotation
					JOINT Head
					{
						OFFSET 0.005152 0.064970 0.051349
						CHANNELS 3 Zrotation Yrotation Xrotation
						End Site
						{
							OFFSET 0.000000 0.000000 0.000000
						}
					}
				}
				JOINT LeftShoulder
				{
					OFFSET 0.078845 0.121749 -0.034090
					CHANNELS 3 Zrotation Yrotation Xrotation
					JOINT LeftArm
					{
						OFFSET 0.090977 0.030469 -0.008868
						CHANNELS 3 Zrotation Yrotation Xrotation
						JOINT LeftForeArm
						{
							OFFSET 0.259612 -0.012772 -0.027456
							CHANNELS 3 Zrotation Yrotation Xrotation
							JOINT LeftHand
							{
								OFFSET 0.249234 0.008986 -0.001171
								CHANNELS 3 Zrotation Yrotation Xrotation
								End Site
								{
									OFFSET 0.000000 0.000000 0.000000
								}
							}
						}
					}
				}
				JOINT RightShoulder
				{
					OFFSET -0.081759 0.118833 -0.038615
					CHANNELS 3 Zrotation Yrotation Xrotation
					JOINT RightArm
					{
						OFFSET -0.096012 0.032551 -0.009143
						CHANNELS 3 Zrotation Yrotation Xrotation
						JOINT RightForeArm
						{
							OFFSET -0.253742 -0.013329 -0.021401
							CHANNELS 3 Zrotation Yrotation Xrotation
							JOINT RightHand
							{
								OFFSET -0.255298 0.007772 -0.005559
								CHANNELS 3 Zrotation Yrotation Xrotation
								End Site
								{
									OFFSET 0.000000 0.000000 0.000000
								}
							}
						}
					}
				}
			}
		}
	}
}
MOTION
Frames: 120
Frame Time: 0.050000
0.000000 0.945951 0.000000 -0.477405 -9.305304 0.287378 2.164888 0.477236 5.532194 -1.652713 0.280959 -3.626510 -1.685635 -0.579851 8.137949 0.000000 0.000000 0.000000 -5.567506 0.128891 3.240166 1.515813 -0.103062 0.916019 -1.851940 -9.686993 12.361508 0.000000 0.000000 0.000000 5.530766 -0.427042 4.477989 -5.887339 2.183866 -12.100202 -1.587729 5.516112 15.319821 5.284844 -1.851764 -19.701967 0.000000 0.000000 0.000000 -16.196032 -6.887454 2.311891 -10.874120 -2.605125 -1.391088 18.061781 -5.891460 -0.666264 0.000000 0.000000 0.000000 20.564704 -3.520115 -3.511020 14.399744 -3.196590 -1.911461 -18.793609 12.628765 -1.330533 0.000000 0.000000 0.000000 
0.001521 0.944892 -0.000039 -0.649615 -10.335067 0.045980 1.951695 0.615024 6.765355 -1.353647 0.292110 -5.075558 -1.253178 0.103002 8.080499 0.000000 0.000000 0.000000 -5.693536 0.146445 3.489004 1.638890 -0.127376 0.322318 -1.457224 -9.212098 12.718926 0.000000 0.000000 0.000000 6.018234 -0.481038 4.973868 -6.284660 2.356728 -11.062850 -2.027994 7.068961 13.611741 4.632107 -1.125610 -20.852328 0.000000 0.000000 0.000000 -14.666727 -7.098340 2.146263 -9.527160 -2.832319 -1.157563 16.584619 -4.174976 -0.429178 0.000000 0.000000 0.000000 20.021070 -5.692717 -4.406024 13.822939 -4.195509 -1.900314 -17.742619 12.937901 -1.234542 0.000000 0.000000 0.000000 
0.003291 0.943485 -0.000916 -0.781585 -10.723044 -0.082051 1.942097 0.602406 6.571747 -1.373498 0.278498 -4.464402 -0.928820 0.445078 7.351571 0.000000 0.000000 0.000000 -6.255673 0.215234 2.966271 2.345914 -0.171640 0.908682 -1.013175 -8.620583 13.149354 0.000000 0.000000 0.000000 6.922259 -0.558671 5.466889 -6.496759 2.286706 -14.133254 -2.131751 8.525957 16.845958 6.350853 -2.073288 -20.979087 0.000000 0.000000 0.000000 -12.656837 -7.164084 2.144435 -9.220100 -3.311532 -1.149106 16.850701 -2.297403 -0.255752 0.000000 0.000000 0.000000 19.414635 -5.991662 -4.153305 13.127026 -4.399282 -1.928150 -18.260981 10.171964 -0.902665 0.000000 0.000000 0.000000 
0.005452 0.942848 -0.002799 -0.667955 -11.722330 -0.501523 1.146310 0.720168 7.202869 -0.621774 0.223034 -4.864547 -0.431619 1.252838 7.227776 0.000000 0.000000 0.000000 -6.760239 0.280692 2.650990 2.480870 -0.157936 1.767973 -0.431484 -7.493961 12.554159 0.000000 0.000000 0.000000 6.731862 -0.551702 5.632093 -6.329224 2.219295 -13.830661 -2.078128 9.336421 17.046386 5.772520 -1.564032 -21.923480 0.000000 0.000000 0.000000 -12.857209 -7.545248 2.284073 -7.679750 -2.919644 -0.982173 17.886216 -0.335677 -0.050486 0.000000 0.000000 0.000000 19.756794 -5.203667 -3.683237 11.472734 -5.661363 -1.722812 -20.112509 10.329268 -1.066029 0.000000 0.000000 0.000000 
0.008174 0.942756 -0.005849 -0.472749 -12.389795 -1.016258 0.471899 0.759768 7.159325 -0.197554 0.158128 -4.151809 -0.051677 1.857637 7.031037 0.000000 0.000000 0.000000 -7.505862 0.359362 2.266895 2.510084 -0.137132 2.538258 0.710588 -5.707798 12.968489 0.000000 0.000000 0.000000 6.569150 -0.632566 6.821399 -6.217443 2.153519 -14.121621 -2.021302 9.839593 16.763705 6.684046 -2.100269 -21.835197 0.000000 0.000000 0.000000 -12.943100 -8.034011 2.484319 -6.671927 -2.355037 -0.864874 17.362338 -0.089395 -0.023080 0.000000 0.000000 0.000000 20.010745 -5.044201 -3.599390 9.633179 -4.604788 -1.372268 -20.828538 8.742829 -0.882322 0.000000 0.000000 0.000000 
0.011436 0.942327 -0.009756 -0.413154 -12.855405 -1.232249 -0.110799 0.746942 6.765847 0.313407 0.081631 -3.499694 0.284454 2.372889 6.702610 0.000000 0.000000 0.000000 -7.654118 0.385773 1.816986 2.298717 -0.102345 2.936903 0.884821 -5.507600 13.067024 0.000000 0.000000 0.000000 6.440451 -0.676318 7.522103 -6.399090 2.173568 -14.895562 -1.672726 10.228422 17.901059 7.565698 -2.569576 -22.418303 0.000000 0.000000 0.000000 -12.918803 -8.678372 2.817742 -6.099500 -2.289967 -0.812607 17.939993 1.430329 0.155752 0.000000 0.000000 0.000000 19.649013 -4.218253 -3.054483 8.586286 -4.258727 -1.211024 -21.687398 7.440631 -0.736081 0.000000 0.000000 0.000000 
0.014782 0.941931 -0.014262 -0.368816 -13.387791 -1.219892 -0.665088 0.730542 6.387129 0.795926 0.026050 -3.382036 0.607798 2.911884 6.569754 0.000000 0.000000 0.000000 -7.533663 0.397869 1.281123 1.785752 -0.025699 3.552582 0.846377 -5.117139 11.871858 0.000000 0.000000 0.000000 6.330938 -0.718363 8.190807 -6.340989 2.166046 -14.235702 -1.491897 10.372943 17.167227 8.250514 -2.967737 -22.487202 0.000000 0.000000 0.000000 -12.907182 -8.796570 2.874860 -6.239674 -1.546620 -0.819819 17.747414 1.289899 0.142236 0.000000 0.000000 0.000000 19.471810 -3.462435 -2.671534 7.233093 -3.620098 -0.966415 -22.103107 6.597406 -0.627288 0.000000 0.000000 0.000000 
0.017906 0.940939 -0.018501 -0.399040 -13.891013 -1.220485 -0.883953 0.614490 5.361948 0.839191 -0.037380 -2.009127 1.013974 3.514203 5.916570 0.000000 0.000000 0.000000 -7.008154 0.387709 0.390814 0.863397 0.142331 4.978694 0.485195 -5.109760 10.276533 0.000000 0.000000 0.000000 6.108933 -0.736977 8.701991 -6.150990 2.175255 -12.194142 -1.334647 10.372950 15.638716 9.928427 -3.883524 -22.803571 0.000000 0.000000 0.000000 -12.730775 -8.538898 2.739247 -7.380614 -0.888130 -0.945240 17.944291 1.335972 0.157415 0.000000 0.000000 0.000000 19.054030 -2.647758 -2.276896 6.851284 -2.681033 -0.879090 -22.756615 6.139662 -0.570733 0.000000 0.000000 0.000000 
0.019931 0.939894 -0.022068 -0.220948 -14.914014 -1.487642 -1.663858 0.551554 4.643912 1.494179 -0.177965 -0.583283 1.661048 4.616064 5.421609 0.000000 0.000000 0.000000 -6.989186 0.414520 -0.130732 0.382065 0.297559 6.605321 0.414707 -3.996799 7.658518 0.000000 0.000000 0.000000 5.819682 -0.748994 9.370911 -6.379084 2.278657 -11.371482 -0.838276 10.444480 15.391338 10.120131 -3.986321 -23.182448 0.000000 0.000000 0.000000 -13.196814 -7.862368 2.496982 -8.697142 -0.474239 -1.127468 18.506935 0.839974 0.115810 0.000000 0.000000 0.000000 18.528166 -2.393688 -2.228983 7.329788 -1.352057 -0.928255 -24.183276 7.212058 -0.828437 0.000000 0.000000 0.000000 
0.020514 0.938778 -0.024887 -0.243786 -15.781606 -1.706279 -1.620069 0.483014 4.114909 1.269893 -0.194482 0.620544 2.147331 5.453014 4.917586 0.000000 0.000000 0.000000 -6.500080 0.414024 -0.839582 -0.453595 0.550070 8.479685 0.333583 -3.068321 5.640523 0.000000 0.000000 0.000000 5.718273 -0.805565 10.605249 -6.310772 2.267814 -10.693801 -0.539258 10.588570 14.195282 10.198892 -3.847093 -24.160715 0.000000 0.000000 0.000000 -13.315087 -7.302159 2.239171 -10.024837 0.651462 -1.320011 17.954695 0.062697 0.030225 0.000000 0.000000 0.000000 18.884218 -2.224249 -2.280291 7.114507 -0.041167 -0.868215 -25.376405 8.427698 -1.125402 0.000000 0.000000 0.000000 
0.019696 0.938644 -0.027248 -0.440422 -16.863346 -1.799145 -1.312041 0.380714 3.341983 1.009047 -0.202332 2.226869 2.695755 6.470243 4.749976 0.000000 0.000000 0.000000 -6.195374 0.455577 -2.152539 -0.568547 0.833622 11.547244 0.401617 -1.626551 3.556373 0.000000 0.000000 0.000000 5.962068 -0.860428 11.465419 -6.671462 2.392197 -10.580885 0.073254 11.211388 13.860959 9.639640 -3.487049 -24.322672 0.000000 0.000000 0.000000 -14.124904 -6.755732 1.942901 -11.135323 0.833425 -1.473523 18.838629 -0.979428 -0.104068 0.000000 0.000000 0.000000 19.135472 -1.757679 -2.062376 7.544218 0.789325 -0.910028 -26.511287 9.985095 -1.506766 0.000000 0.000000 0.000000 
0.017164 0.939359 -0.029870 -0.175040 -16.922233 -2.552211 -1.005058 0.302616 2.726050 0.333383 -0.126529 4.428856 2.703369 6.503360 4.958638 0.000000 0.000000 0.000000 -6.723223 0.529930 -3.682264 -1.146062 1.410248 16.070716 1.878393 2.562702 2.537432 0.000000 0.000000 0.000000 5.092459 -0.858495 13.429511 -5.343634 1.848016 -11.142941 -0.262384 12.347913 13.870863 10.263679 -3.551897 -25.074166 0.000000 0.000000 0.000000 -13.257987 -5.338443 1.084828 -12.613325 -0.032142 -1.591479 18.632451 -2.403262 -0.317083 0.000000 0.000000 0.000000 20.293407 -2.326818 -2.169053 7.311275 1.876981 -0.921664 -27.512378 11.811415 -1.923674 0.000000 0.000000 0.000000 
0.011752 0.940337 -0.034093 -0.512366 -16.719440 -3.280850 -0.087351 0.197889 1.780868 0.143606 -0.106150 7.372437 2.621355 6.372906 5.178092 0.000000 0.000000 0.000000 -6.084087 0.558048 -5.109908 -1.094882 2.018197 21.186802 1.921049 3.984504 1.012362 0.000000 0.000000 0.000000 4.723246 -0.859680 14.771384 -5.257737 1.915652 -9.373151 0.449502 12.090325 12.622531 10.625936 -3.606387 -25.602115 0.000000 0.000000 0.000000 -12.700708 -4.656273 0.754036 -13.571713 -0.292200 -1.659238 19.570165 -3.790830 -0.533178 0.000000 0.000000 0.000000 20.268916 -2.685101 -2.409992 8.053794 3.182782 -0.963215 -28.108022 13.003599 -2.215029 0.000000 0.000000 0.000000 
0.003159 0.939040 -0.040695 -0.720291 -16.486481 -4.452277 0.957489 0.078501 0.364537 -0.045631 -0.029969 11.770533 2.540193 6.218124 5.066791 0.000000 0.000000 0.000000 -8.036710 0.656678 -7.241906 0.881130 2.465935 29.189843 3.458579 9.233824 -0.268397 0.000000 0.000000 0.000000 3.674110 -0.768876 16.842516 -3.495325 1.269620 -8.123271 0.980861 11.780583 11.942885 10.946111 -3.574344 -26.595405 0.000000 0.000000 0.000000 -11.617347 -3.459879 0.269705 -14.106818 -0.221615 -1.707261 20.425658 -5.625274 -0.837778 0.000000 0.000000 0.000000 18.632195 -2.514581 -2.214583 10.106363 4.431623 -1.094948 -29.892838 14.554229 -2.716190 0.000000 0.000000 0.000000 
-0.008635 0.935097 -0.049920 -1.379040 -17.057234 -4.460389 3.040869 0.017213 -1.495887 -0.826276 0.279824 14.984532 2.756028 6.532970 4.370851 0.000000 0.000000 0.000000 -10.136587 0.798042 -10.976985 -0.018666 4.169153 37.351139 6.237811 16.859248 -0.167738 0.000000 0.000000 0.000000 3.712118 -0.778678 17.789536 -2.929512 1.084341 -6.440193 2.174667 11.986841 10.969030 9.960955 -3.004921 -26.571766 0.000000 0.000000 0.000000 -10.365606 -3.112747 0.198767 -15.367417 -0.278107 -1.824077 20.893990 -5.420306 -0.830340 0.000000 0.000000 0.000000 17.714050 -2.202564 -2.021201 12.021790 4.763551 -1.196262 -32.448168 15.810055 -3.287883 0.000000 0.000000 0.000000 
-0.025190 0.925735 -0.062028 -1.208708 -16.318374 -5.366980 4.516841 -0.000199 -3.456997 -1.132330 0.518392 19.232886 2.518451 5.840139 2.508248 0.000000 0.000000 0.000000 -12.951395 0.730714 -12.665535 -1.007132 5.868232 44.340030 5.783549 15.205978 0.185328 0.000000 0.000000 0.000000 3.594986 -0.796156 19.756445 -1.327948 0.401372 -7.525519 2.218365 11.250623 12.475101 10.478325 -2.945075 -29.183193 0.000000 0.000000 0.000000 -9.405595 -3.682434 0.603506 -15.132368 1.485698 -2.006185 20.896329 -6.087189 -0.921515 0.000000 0.000000 0.000000 17.150567 -1.041925 -1.405468 13.050937 4.960934 -1.284215 -35.721584 15.544393 -3.642596 0.000000 0.000000 0.000000 
-0.049489 0.915021 -0.077014 -0.945389 -15.549951 -6.497198 5.842524 0.057959 -4.864603 -0.344348 0.370602 22.739199 2.265234 5.053593 0.817758 0.000000 0.000000 0.000000 -15.832548 0.584813 -13.249227 -2.639762 7.807323 49.635657 2.816900 3.856511 4.299381 0.000000 0.000000 0.000000 4.612366 -0.985809 20.968289 -1.063873 0.329253 -5.893029 2.050229 10.725751 11.025584 9.835934 -2.601712 -28.920168 0.000000 0.000000 0.000000 -8.550089 -3.469996 0.535338 -14.091225 1.144727 -1.789642 22.538654 -5.362536 -0.912274 0.000000 0.000000 0.000000 16.352217 -0.862865 -1.278993 14.053551 4.799841 -1.327239 -38.546289 16.821224 -4.356761 0.000000 0.000000 0.000000 
-0.084744 0.909949 -0.095004 0.105459 -15.516756 -6.971530 8.109408 0.268971 -6.367687 -1.227229 0.839990 25.601471 1.462745 3.354438 0.811825 0.000000 0.000000 0.000000 -18.300968 0.448046 -15.536101 -3.267613 9.377118 54.504714 0.892733 -2.468219 7.667077 0.000000 0.000000 0.000000 3.707514 -0.839577 22.721297 -0.332169 0.018512 -5.484437 2.173094 11.005109 9.594665 10.547907 -2.908195 -28.594990 0.000000 0.000000 0.000000 -8.168275 -3.164440 0.369506 -12.928873 0.787587 -1.559118 24.225304 -4.642581 -0.901962 0.000000 0.000000 0.000000 15.687782 0.098680 -0.718527 14.486328 3.886470 -1.396679 -39.546640 17.638644 -4.703207 0.000000 0.000000 0.000000 
-0.133673 0.911532 -0.117593 1.112440 -14.235009 -6.518400 9.192306 0.347741 -6.236827 0.132557 0.095451 22.772632 1.681505 4.266410 3.022470 0.000000 0.000000 0.000000 -19.170776 0.361723 -14.809979 -4.649171 9.334960 52.207656 1.397998 -2.718769 10.241925 0.000000 0.000000 0.000000 3.828881 -0.913164 22.439076 0.434626 -0.285087 -6.073392 1.893215 10.200781 10.166402 9.416904 -2.538914 -27.691770 0.000000 0.000000 0.000000 -9.476792 -1.080758 -0.590645 -9.832661 1.191081 -1.198010 24.760738 -5.654023 -1.109467 0.000000 0.000000 0.000000 14.482618 2.331644 0.419030 14.934143 2.176037 -1.573419 -39.277499 17.732568 -4.712316 0.000000 0.000000 0.000000 
-0.195558 0.914777 -0.145647 1.557577 -14.455394 -4.985445 12.394751 0.700605 -6.860427 0.106893 -0.019498 18.594784 2.262701 6.527726 10.100981 0.000000 0.000000 0.000000 -17.626976 0.503959 -14.809572 -4.105263 8.080864 48.429740 1.865322 -2.114479 10.670538 0.000000 0.000000 0.000000 4.260533 -0.983774 21.209918 -0.129388 -0.043810 -5.411542 2.687527 11.500768 8.567533 6.826133 -1.258956 -25.955419 0.000000 0.000000 0.000000 -10.389141 0.055604 -1.356048 -6.588026 1.674737 -0.738493 23.927476 -5.597751 -1.090712 0.000000 0.000000 0.000000 13.386721 2.738420 0.799258 14.007640 2.191032 -1.482215 -36.956938 17.699441 -4.246573 0.000000 0.000000 0.000000 
-0.265601 0.917452 -0.176682 2.898733 -11.796966 -3.023966 13.428221 0.743840 -9.552414 0.393057 -0.253886 15.328668 -0.224446 3.439457 14.181876 0.000000 0.000000 0.000000 -15.052050 0.525261 -15.128112 -2.125264 5.657441 44.934675 0.690896 -4.681379 11.556492 0.000000 0.000000 0.000000 5.100938 -1.229488 20.180687 -0.036154 -0.028029 -7.258927 0.140299 10.999224 8.602545 7.652573 -1.702959 -24.999882 0.000000 0.000000 0.000000 -8.821426 -0.029526 -1.227719 -4.461294 2.551970 -0.455960 24.552815 -5.009152 -1.074496 0.000000 0.000000 0.000000 12.098289 1.859568 0.599313 15.758793 1.922076 -1.721102 -35.399034 19.007735 -4.248649 0.000000 0.000000 0.000000 
-0.336697 0.914762 -0.207320 4.333546 -8.875121 -3.705055 10.495329 0.277800 -9.934964 -4.663594 1.173120 18.672902 -9.227469 -14.705012 7.039740 0.000000 0.000000 0.000000 -10.953754 0.597679 -13.486872 0.430827 3.570884 43.280237 -5.608202 -15.758704 9.510533 0.000000 0.000000 0.000000 5.474270 -1.422469 20.921361 0.365259 -0.086153 -10.494453 -1.224179 11.593262 11.607473 7.222664 -1.066967 -26.359712 0.000000 0.000000 0.000000 -8.876533 -1.386100 -0.861754 -1.394004 3.370172 -0.029244 26.670683 -6.941377 -1.736894 0.000000 0.000000 0.000000 13.061967 0.462151 0.356231 12.900011 1.071585 -1.684114 -32.830483 20.492629 -4.154435 0.000000 0.000000 0.000000 
-0.408156 0.914887 -0.238173 5.756129 -7.600162 -4.937601 5.413505 -0.294371 -9.323263 -11.021794 3.897648 25.825203 -62.859347 -48.317124 50.511050 0.000000 0.000000 0.000000 -8.003692 0.623646 -10.867833 4.738394 0.854986 38.289893 -12.712052 -28.364850 7.975384 0.000000 0.000000 0.000000 6.035776 -1.582400 21.740994 -1.758653 0.751924 -11.009562 -1.255696 10.255923 12.263437 5.942427 -0.310844 -27.923076 0.000000 0.000000 0.000000 -7.614571 -0.554731 -0.916260 -1.680815 2.432121 -0.097878 28.853211 -7.644254 -2.074097 0.000000 0.000000 0.000000 9.787475 2.270070 1.041573 13.968650 -0.377387 -1.870106 -28.434028 19.225711 -3.236967 0.000000 0.000000 0.000000 
-0.482742 0.922121 -0.270176 7.055526 -6.425503 -4.957692 -3.758976 -1.001041 -7.736659 -17.713551 6.664355 27.062583 -58.064878 -33.231751 59.645703 0.000000 0.000000 0.000000 -4.041108 0.781737 -10.192352 6.047952 -0.035796 35.012122 -16.224439 -34.339093 7.686174 0.000000 0.000000 0.000000 4.725784 -1.293348 20.079034 -1.077227 0.542574 -12.814888 0.090169 12.173271 17.305030 2.453535 2.058617 -31.745464 0.000000 0.000000 0.000000 -7.878406 -0.922674 -0.959782 -3.766627 0.916333 -0.390761 34.213171 -10.655331 -3.678961 0.000000 0.000000 0.000000 11.283332 -0.647043 0.131880 11.287769 0.616264 -1.723041 -27.819216 20.855908 -3.403865 0.000000 0.000000 0.000000 
-0.564277 0.929345 -0.305577 4.071310 -5.381968 -4.047170 -8.598113 -0.935423 -5.453538 -18.568613 6.430625 25.141069 -37.478611 -20.561165 51.297068 0.000000 0.000000 0.000000 2.642737 1.003125 -8.598767 7.636421 -0.968002 28.952714 -12.397774 -28.198621 4.410624 0.000000 0.000000 0.000000 4.845470 -1.370135 19.497389 1.462849 -0.300823 -13.464889 -0.480774 13.393546 18.762460 4.046358 1.608638 -31.887932 0.000000 0.000000 0.000000 -5.441832 1.924624 -1.794429 -6.725464 -2.490867 -0.700018 36.857002 -12.062962 -4.781581 0.000000 0.000000 0.000000 10.069587 -0.851280 0.266046 15.052330 2.189636 -2.274072 -29.081609 20.244812 -3.136259 0.000000 0.000000 0.000000 
-0.653057 0.926666 -0.344519 0.609511 -5.535983 -4.937855 -8.518386 -0.209207 -1.047661 -14.998662 4.614946 22.023916 -15.091101 -10.962526 28.202598 0.000000 0.000000 0.000000 3.614219 1.178667 -9.342728 13.668404 -3.083616 28.474284 1.200850 -2.366941 9.785515 0.000000 0.000000 0.000000 3.690938 -1.330750 22.034213 -0.454346 0.347183 -12.657297 3.964574 14.597912 18.036637 0.860675 3.306501 -32.794696 0.000000 0.000000 0.000000 -8.368254 0.094624 -1.815825 -4.691393 -4.862570 -0.474716 42.210736 -8.920881 -4.569518 0.000000 0.000000 0.000000 7.560171 -2.470554 -0.574653 18.654240 0.994636 -2.793822 -32.914558 23.586568 -4.122410 0.000000 0.000000 0.000000 
-0.743865 0.912599 -0.385815 -1.577180 -5.164307 -5.202129 -6.488428 -0.173617 -0.947411 -11.526865 3.294263 21.467766 0.788952 4.305140 7.857864 0.000000 0.000000 0.000000 1.185485 1.507737 -13.295946 17.105924 -4.881048 34.123018 15.276187 24.008916 13.496745 0.000000 0.000000 0.000000 3.509868 -1.469740 24.589838 0.577862 0.032694 -14.050280 2.698001 14.802407 20.320295 2.702011 2.727165 -35.732938 0.000000 0.000000 0.000000 -7.322265 1.268832 -2.095829 -3.174479 -6.545314 -0.432641 41.003859 -6.398562 -3.679216 0.000000 0.000000 0.000000 6.488803 -3.821949 -1.155659 23.604271 2.912672 -3.320550 -42.520498 25.574303 -5.674861 0.000000 0.000000 0.000000 
-0.831671 0.892338 -0.426766 -3.377683 -5.223323 -5.937234 -2.117543 -0.320215 -2.752116 -9.877382 3.142101 26.333676 8.021442 16.198477 -11.633003 0.000000 0.000000 0.000000 -4.612966 1.093219 -15.225451 18.310881 -5.779753 37.936401 20.783666 39.995364 9.995713 0.000000 0.000000 0.000000 4.168823 -1.836341 28.445809 -0.507673 0.401769 -13.630052 1.877478 14.777315 19.121018 2.565098 2.931399 -38.750077 0.000000 0.000000 0.000000 -7.987672 0.473229 -1.954801 -0.281303 -6.794517 -0.294269 38.960183 -5.500784 -3.106262 0.000000 0.000000 0.000000 8.994580 -3.642028 -0.933162 21.964588 3.397122 -3.088765 -47.740767 23.622212 -5.904114 0.000000 0.000000 0.000000 
-0.913651 0.879879 -0.465733 -4.348996 -5.852164 -6.742123 2.583906 -0.366600 -6.047803 -9.547517 3.574149 31.996220 11.204936 25.371575 -16.951769 0.000000 0.000000 0.000000 -12.048506 0.316942 -15.422111 14.907740 -4.286949 40.134806 3.798437 12.243165 -2.534570 0.000000 0.000000 0.000000 3.553629 -1.734350 30.412407 -0.098541 0.232258 -13.097833 2.640719 15.318509 19.546991 2.490600 3.009749 -39.079697 0.000000 0.000000 0.000000 -9.990471 0.451114 -2.437348 1.977369 -7.101906 -0.223178 38.093311 -4.797022 -2.742277 0.000000 0.000000 0.000000 10.178351 -2.269822 -0.188293 20.501975 3.145015 -3.012894 -50.959186 20.048857 -4.962302 0.000000 0.000000 0.000000 
-0.991762 0.874615 -0.502050 -5.271399 -6.678135 -5.969132 8.776590 0.054267 -11.984343 -9.725387 4.429041 38.642063 12.379945 27.803315 -14.281139 0.000000 0.000000 0.000000 -18.670570 -0.185557 -14.331119 9.679659 -1.692530 35.956634 -6.517281 -17.740826 13.756256 0.000000 0.000000 0.000000 3.411222 -1.648893 30.420272 -1.374589 0.659123 -12.624845 4.329741 16.389497 19.100694 2.575655 3.015615 -38.441845 0.000000 0.000000 0.000000 -11.137771 -0.393162 -2.460508 2.360595 -7.750096 -0.270347 37.589669 -4.836184 -2.681522 0.000000 0.000000 0.000000 11.680368 -0.862014 0.688836 19.914556 1.957992 -3.099504 -54.090133 17.279789 -4.088881 0.000000 0.000000 0.000000 
-1.070821 0.872196 -0.536894 -5.906857 -7.953539 -5.058723 14.111216 0.966019 -15.059167 -9.371941 4.598087 39.995444 13.805416 30.179931 -10.024295 0.000000 0.000000 0.000000 -22.911815 -0.148833 -12.034986 6.192193 -0.198471 32.010695 -8.454844 -21.382500 32.953970 0.000000 0.000000 0.000000 3.000281 -1.416788 29.491029 -1.054386 0.495220 -11.282046 4.960474 18.543383 18.692685 4.054280 2.495181 -36.246487 0.000000 0.000000 0.000000 -13.166584 -1.018735 -2.992649 2.562001 -5.982891 -0.151066 37.984313 -8.430330 -3.857653 0.000000 0.000000 0.000000 13.634640 0.286183 1.700328 17.373515 0.825253 -2.921773 -54.276090 14.816783 -3.051520 0.000000 0.000000 0.000000 
-1.153178 0.865588 -0.572218 -5.276372 -8.114235 -3.333407 19.287056 2.286881 -19.668341 -9.661497 4.905522 41.416198 14.012563 28.951721 -4.282883 0.000000 0.000000 0.000000 -25.532492 0.116749 -9.659310 4.315832 0.328098 28.275809 1.514896 -11.494440 43.450552 0.000000 0.000000 0.000000 2.480706 -1.188593 26.176379 -2.149521 0.931001 -6.298920 4.445659 19.214788 15.093291 4.443832 2.231982 -34.116034 0.000000 0.000000 0.000000 -13.690507 -1.368936 -3.174486 1.209529 -6.138532 -0.218503 40.448889 -8.705721 -4.230777 0.000000 0.000000 0.000000 16.797862 1.650990 2.909119 15.062041 0.620052 -2.520750 -54.628235 15.108056 -3.596850 0.000000 0.000000 0.000000 
-1.235990 0.849646 -0.608641 -5.052178 -8.443748 -2.282376 24.694111 4.062944 -23.229360 -7.048326 3.531930 41.958213 11.609467 23.158473 2.104955 0.000000 0.000000 0.000000 -25.260198 0.322256 -8.710775 3.005341 0.827214 28.657131 18.777266 12.214942 35.283517 0.000000 0.000000 0.000000 1.459454 -0.926311 25.846591 -3.077529 1.316896 -6.272424 4.793194 19.618659 14.066584 4.925972 1.910241 -32.819628 0.000000 0.000000 0.000000 -14.313041 -3.272219 -2.540948 0.095057 -0.997485 -0.014766 44.275101 -11.389378 -5.692495 0.000000 0.000000 0.000000 17.273248 0.775115 2.433007 16.276019 0.067179 -2.641178 -56.593451 22.362063 -7.364389 0.000000 0.000000 0.000000 
-1.311355 0.832574 -0.644964 -4.307342 -6.613006 -2.191411 27.904522 5.150884 -26.333490 -3.578100 1.259870 41.480799 6.590671 14.251737 6.845771 0.000000 0.000000 0.000000 -23.868538 0.281761 -7.438882 2.866256 0.879283 31.368728 23.108218 40.989665 13.091354 0.000000 0.000000 0.000000 0.876695 -0.945805 28.462732 -3.176700 1.344684 -8.847260 4.132384 16.487008 14.875355 5.355613 1.493323 -33.806852 0.000000 0.000000 0.000000 -16.252998 -1.274868 -3.459220 -0.620252 -1.186713 -0.078958 47.387690 -9.551317 -5.197319 0.000000 0.000000 0.000000 18.842018 -1.189858 1.045272 15.657031 2.788739 -2.354056 -56.724014 28.043183 -10.696740 0.000000 0.000000 0.000000 
-1.369716 0.822409 -0.677183 -4.280055 -4.524881 -3.817827 27.942137 4.818277 -26.441261 -1.203467 -0.393967 40.733254 5.628449 12.579931 6.091973 0.000000 0.000000 0.000000 -20.670053 -0.010177 -8.148828 3.954950 0.451183 36.536976 13.904100 44.726253 -4.404614 0.000000 0.000000 0.000000 1.945577 -1.491575 31.596960 -4.305130 1.923673 -6.112969 3.327131 14.398299 11.448587 3.662860 2.143495 -33.918211 0.000000 0.000000 0.000000 -18.257123 -2.317814 -3.293015 -2.573616 -1.027408 -0.203657 51.410942 -8.711833 -5.153615 0.000000 0.000000 0.000000 20.612019 -2.864527 -0.206003 15.035129 1.943967 -2.173467 -56.281484 32.364177 -13.132457 0.000000 0.000000 0.000000 
-1.408511 0.821913 -0.702911 -3.761456 -5.180019 -4.117240 28.758667 4.957867 -25.231140 -2.908643 0.564826 40.415817 4.933965 10.845508 3.354908 0.000000 0.000000 0.000000 -18.369906 -0.057160 -11.028041 3.446004 1.027819 41.210819 8.611090 45.336439 -13.470343 0.000000 0.000000 0.000000 1.607999 -1.350936 32.347681 -5.577987 2.485085 -5.582913 3.068658 11.577604 11.296936 3.099911 1.619472 -29.048800 0.000000 0.000000 0.000000 -22.663563 -1.958885 -3.601521 -1.959089 1.070187 -0.132617 56.335465 -8.250367 -4.997540 0.000000 0.000000 0.000000 22.781830 -1.028147 0.129366 11.942434 -0.064621 -1.742372 -51.839823 33.006846 -13.050530 0.000000 0.000000 0.000000 
-1.431382 0.829043 -0.722399 -3.247958 -3.983401 -3.980682 28.868283 4.407024 -23.387709 -6.453333 2.075061 37.942670 4.326853 8.733735 -1.020165 0.000000 0.000000 0.000000 -16.916119 -0.043496 -10.997643 2.754886 1.124992 40.543952 6.024571 44.786702 -17.830305 0.000000 0.000000 0.000000 1.868989 -1.561307 32.774148 -5.214151 2.377906 -4.640558 0.772965 11.216825 8.947183 1.254710 2.421075 -26.800908 0.000000 0.000000 0.000000 -24.871776 -3.948360 -3.177460 1.377522 0.226484 0.142631 56.659979 -7.939263 -4.629121 0.000000 0.000000 0.000000 24.662153 -4.220884 -1.791230 9.330801 -1.995623 -1.385389 -45.002340 32.303099 -10.815365 0.000000 0.000000 0.000000 
-1.442578 0.843329 -0.738026 -2.799226 -2.753638 -4.249396 28.814773 3.734504 -20.867166 -9.377285 3.028744 34.002925 4.333081 9.339948 1.421150 0.000000 0.000000 0.000000 -15.859944 0.034159 -8.347405 2.411125 0.915832 36.765257 4.018535 40.384775 -19.930893 0.000000 0.000000 0.000000 1.617899 -1.541827 31.426349 -5.860979 2.824052 -1.300019 -0.096270 8.949502 7.677476 3.025259 0.860148 -22.230821 0.000000 0.000000 0.000000 -23.490827 -2.165635 -3.432496 2.094331 -3.084683 0.012064 56.630794 -8.830318 -5.020011 0.000000 0.000000 0.000000 23.302384 -5.136590 -2.812009 9.373355 -4.076967 -1.346470 -40.098417 29.969772 -8.668791 0.000000 0.000000 0.000000 
-1.444351 0.864388 -0.751702 -3.102398 -2.709067 -2.355496 28.067136 3.176833 -19.058222 -10.652140 3.498004 32.251717 6.120095 13.068921 2.737632 0.000000 0.000000 0.000000 -14.546079 0.162954 -8.144252 3.469260 0.231399 30.845056 5.383656 34.281613 -14.607367 0.000000 0.000000 0.000000 1.578822 -1.467587 29.609278 -5.863257 2.781666 -1.700866 -0.781767 8.150377 8.517240 1.475295 1.557481 -21.409648 0.000000 0.000000 0.000000 -23.750217 -1.767143 -3.456858 4.244290 -4.775840 0.003553 57.155333 -11.259717 -6.231874 0.000000 0.000000 0.000000 22.964629 -5.904369 -3.401994 6.412289 -6.645414 -0.808042 -34.288066 27.719655 -6.699509 0.000000 0.000000 0.000000 
-1.438087 0.880635 -0.765834 -3.250698 -2.805081 -0.793144 27.316208 2.719129 -17.448375 -9.218926 2.931066 31.944596 7.847135 16.584210 6.396122 0.000000 0.000000 0.000000 -12.105257 0.311155 -9.187682 4.115158 -0.103289 26.546117 4.175931 20.458430 -8.930513 0.000000 0.000000 0.000000 0.038224 -1.020787 28.650803 -5.230963 2.470733 -1.537385 -0.836158 7.320553 9.182677 0.527263 1.868395 -20.127744 0.000000 0.000000 0.000000 -24.005391 -2.455974 -2.799653 6.890698 -4.573182 0.169599 60.427177 -11.022188 -6.459676 0.000000 0.000000 0.000000 20.570377 -6.280451 -3.665425 6.003324 -10.064141 -0.649330 -29.666722 29.378172 -6.088388 0.000000 0.000000 0.000000 
-1.424212 0.888843 -0.780681 -4.109910 -1.979355 1.100159 29.032976 2.455894 -15.657738 -8.433094 2.408577 29.703072 13.016784 24.329182 17.001779 0.000000 0.000000 0.000000 -10.649328 0.418441 -10.833720 7.818899 -1.376621 22.833535 -0.302422 1.459903 -3.851740 0.000000 0.000000 0.000000 -0.301652 -0.984953 28.026165 -4.719577 2.182985 -2.606436 -2.074319 6.292079 9.270164 1.892522 0.849203 -18.348402 0.000000 0.000000 0.000000 -21.970637 -4.064873 -1.403833 8.377335 -4.868442 0.223060 64.624012 -8.554421 -5.620857 0.000000 0.000000 0.000000 22.156177 -5.337706 -3.332505 3.473781 -14.164433 0.071046 -28.676147 29.876161 -6.128395 0.000000 0.000000 0.000000 
-1.403760 0.885825 -0.796382 -4.827328 -0.650747 2.272923 31.145289 2.286256 -14.757685 -3.357381 0.317469 26.840851 15.585400 26.419311 28.452174 0.000000 0.000000 0.000000 -10.005376 0.485018 -13.936968 11.476387 -2.657450 23.129429 -6.907892 -17.057095 -0.457772 0.000000 0.000000 0.000000 -0.899923 -0.925527 27.901776 -5.220279 2.397643 -2.737628 -2.246680 5.115879 9.769482 2.071106 0.373126 -15.545488 0.000000 0.000000 0.000000 -19.908410 -4.650083 -0.629765 9.565745 -6.087300 0.139899 70.887813 -4.532637 -3.763190 0.000000 0.000000 0.000000 20.647977 -6.529847 -4.033252 4.879635 -16.287705 -0.198507 -31.093322 34.205614 -7.884355 0.000000 0.000000 0.000000 
-1.375956 0.871064 -0.812692 -6.540963 0.578221 2.292210 35.244702 2.701837 -15.582980 3.497607 -2.102072 25.235690 8.995352 19.481305 36.793029 0.000000 0.000000 0.000000 -9.788361 0.500846 -17.111805 14.759088 -4.109479 25.560991 -12.511267 -29.406927 2.105908 0.000000 0.000000 0.000000 -0.581544 -1.217982 30.056007 -4.263468 1.966082 -3.383703 -3.605542 4.740316 10.698991 3.607663 -0.356005 -17.192998 0.000000 0.000000 0.000000 -17.524577 -5.063242 -0.207886 8.399420 -5.580898 0.147882 75.148201 -4.933115 -4.621683 0.000000 0.000000 0.000000 19.281648 -7.635320 -4.394742 7.197129 -18.003731 -0.789848 -35.118534 37.734106 -10.085323 0.000000 0.000000 0.000000 
-1.339543 0.849400 -0.829273 -7.848735 0.677799 2.181031 37.470979 3.079079 -16.157524 9.524356 -4.026315 24.110242 4.070517 15.185705 42.000168 0.000000 0.000000 0.000000 -9.802746 0.529391 -20.236371 15.465660 -4.720234 28.511022 -16.639193 -37.417688 2.812435 0.000000 0.000000 0.000000 -1.638275 -1.012112 31.956663 -4.010639 1.849120 -3.948694 -2.604344 4.006544 12.003456 5.040604 -1.308642 -17.696049 0.000000 0.000000 0.000000 -16.801768 -5.539823 0.370835 5.743678 -3.862452 0.220408 80.413530 -3.097804 -3.735101 0.000000 0.000000 0.000000 20.424150 -7.079462 -4.327174 7.714260 -17.865839 -0.964683 -43.930653 39.201278 -13.886156 0.000000 0.000000 0.000000 
-1.293823 0.825716 -0.845564 -9.106235 1.188931 1.715957 39.066494 3.811748 -18.704634 12.920787 -5.586996 26.382871 1.864469 13.417467 43.304892 0.000000 0.000000 0.000000 -11.330141 0.228990 -23.752628 14.134968 -4.919207 34.112288 -16.752546 -36.997496 4.392993 0.000000 0.000000 0.000000 -2.478786 -0.946006 35.391870 -3.618508 1.690665 -3.558677 -2.267935 4.746155 10.952640 6.368827 -1.579571 -20.467680 0.000000 0.000000 0.000000 -17.048887 -5.982960 0.292075 2.885052 -4.475199 -0.051629 87.634538 -3.150014 -4.304542 0.000000 0.000000 0.000000 20.800996 -7.891325 -4.643140 10.853657 -16.161213 -1.805913 -51.100170 36.616016 -15.000458 0.000000 0.000000 0.000000 
-1.239161 0.806252 -0.860870 -10.176486 1.136728 1.479664 39.527358 4.804496 -22.202965 16.198824 -7.627597 30.477527 -6.095542 5.787670 42.070888 0.000000 0.000000 0.000000 -12.709882 -0.085582 -26.436063 11.156928 -3.920348 37.727669 -16.196564 -34.662246 8.203185 0.000000 0.000000 0.000000 -3.168698 -0.790890 37.545147 -3.623717 1.699841 -2.912646 -1.572830 4.832427 11.092930 6.862088 -1.749927 -21.358693 0.000000 0.000000 0.000000 -17.333720 -5.919002 0.252219 -1.390616 -3.561920 -0.289572 91.621730 -4.043844 -5.456537 0.000000 0.000000 0.000000 22.994726 -6.744886 -4.164602 12.662551 -14.804646 -2.265721 -57.373295 35.148382 -16.435441 0.000000 0.000000 0.000000 
-1.178400 0.793790 -0.874405 -10.772856 1.882449 1.990051 38.542245 5.731348 -27.483540 14.371432 -8.220967 36.958200 -5.042113 5.561347 37.075190 0.000000 0.000000 0.000000 -14.640205 -0.612523 -27.658396 7.761205 -2.450391 37.728103 -15.294727 -31.495321 14.200172 0.000000 0.000000 0.000000 -3.298273 -0.898809 39.017572 -3.975352 1.849771 -3.284551 -0.929069 6.058688 11.936314 7.967301 -1.930023 -23.165437 0.000000 0.000000 0.000000 -19.027781 -6.553883 0.034360 -5.173720 -2.853250 -0.548744 93.364642 -7.875725 -9.628989 0.000000 0.000000 0.000000 26.460141 -6.129420 -3.531764 14.257349 -13.557065 -2.697515 -58.704945 33.395180 -15.732954 0.000000 0.000000 0.000000 
-1.115339 0.789705 -0.885419 -11.560308 2.201435 2.370490 37.824806 6.128980 -30.214257 11.627457 -7.680177 41.021741 -3.129569 6.011686 30.814745 0.000000 0.000000 0.000000 -16.144306 -0.996394 -27.935761 4.405414 -0.886555 36.045924 -13.425807 -27.183980 22.191693 0.000000 0.000000 0.000000 -3.119014 -1.033289 39.399174 -3.922995 1.828506 -2.726669 -1.201047 8.688151 11.583409 8.930086 -2.347818 -21.732884 0.000000 0.000000 0.000000 -20.239170 -8.062978 -0.122327 -7.673864 -1.846372 -0.677919 91.321825 -14.550025 -16.090180 0.000000 0.000000 0.000000 29.731829 -5.502289 -2.221643 15.949396 -13.631248 -3.253713 -60.181669 33.337392 -15.886254 0.000000 0.000000 0.000000 
-1.053079 0.794800 -0.893571 -11.871717 3.712484 3.211028 35.324270 5.676330 -33.002577 9.790991 -7.284494 43.187850 -1.072226 6.966731 24.275424 0.000000 0.000000 0.000000 -17.194933 -1.304832 -26.616995 0.302254 0.702379 31.861938 -11.373474 -23.366515 30.935185 0.000000 0.000000 0.000000 -3.462882 -1.146991 39.891784 -2.907215 1.391398 -5.120711 -0.726840 10.298240 14.360850 10.629709 -2.499188 -24.905288 0.000000 0.000000 0.000000 -21.043877 -8.400996 -0.640927 -10.157735 -0.761575 -0.893382 87.792233 -20.497882 -21.063451 0.000000 0.000000 0.000000 30.666574 -5.674994 -1.330127 19.037730 -12.460612 -4.174682 -59.606747 33.316605 -15.212243 0.000000 0.000000 0.000000 
-0.993150 0.806517 -0.899133 -12.842586 4.443832 3.021875 33.253354 4.988752 -33.257330 8.293729 -6.727052 43.762672 1.003441 8.310923 17.955411 0.000000 0.000000 0.000000 -17.787298 -1.432582 -25.317606 -2.130149 1.520786 29.199405 -8.506537 -19.653156 38.798146 0.000000 0.000000 0.000000 -3.637063 -1.216082 39.942305 -2.503241 1.218521 -3.886042 0.035695 12.376581 13.270314 12.237334 -3.056714 -24.985294 0.000000 0.000000 0.000000 -20.339044 -9.828805 -0.473107 -11.213560 0.195337 -0.931449 81.864226 -22.914015 -21.472752 0.000000 0.000000 0.000000 29.966856 -5.813572 -0.693278 22.705135 -11.594779 -5.079780 -59.101884 33.414280 -14.411709 0.000000 0.000000 0.000000 
-0.934809 0.822030 -0.902124 -12.909875 4.877283 4.006294 30.861193 4.115572 -32.354095 5.790589 -5.129084 41.557278 3.575440 10.688892 10.975434 0.000000 0.000000 0.000000 -18.344541 -1.519144 -24.815307 -3.340505 1.815148 26.308388 -9.013346 -20.094226 44.283984 0.000000 0.000000 0.000000 -3.639904 -1.200875 38.877911 -1.648048 0.856724 -4.188854 -0.050861 13.187164 13.200360 12.762386 -3.382670 -24.197286 0.000000 0.000000 0.000000 -19.848129 -9.521922 -0.829784 -9.671577 0.043507 -0.772666 76.196814 -22.400824 -19.180951 0.000000 0.000000 0.000000 30.675239 -4.543211 0.678985 24.533200 -10.558213 -5.470800 -60.495632 31.081783 -13.306554 0.000000 0.000000 0.000000 
-0.876913 0.838413 -0.902714 -13.501476 5.638118 2.967003 28.534169 3.142092 -30.383662 3.809052 -4.143307 40.069933 5.104427 12.164417 5.357064 0.000000 0.000000 0.000000 -19.495102 -1.759000 -23.263131 -1.823436 1.188714 25.172286 -10.580433 -21.408426 48.984724 0.000000 0.000000 0.000000 -3.225635 -1.432434 37.728493 -0.782034 0.494796 -4.012142 1.418458 14.329650 14.280412 12.763563 -2.844459 -25.869856 0.000000 0.000000 0.000000 -20.097545 -11.310718 -0.357477 -6.411620 -1.019376 -0.464763 69.440132 -20.550402 -15.770270 0.000000 0.000000 0.000000 29.911532 -4.203845 1.368469 25.471420 -8.599946 -5.550208 -59.432526 27.678424 -10.796728 0.000000 0.000000 0.000000 
-0.819533 0.851798 -0.900410 -13.475621 4.274850 1.451023 26.915062 2.658137 -26.869322 -0.231554 -2.022785 39.326698 6.884965 14.532760 0.798665 0.000000 0.000000 0.000000 -20.349665 -1.783810 -22.581755 0.100093 0.623609 24.935741 -10.162380 -21.200412 49.238639 0.000000 0.000000 0.000000 -3.378539 -1.199811 37.279985 0.588883 -0.102561 -4.052168 1.342038 14.807051 14.501682 13.650175 -3.971442 -23.339201 0.000000 0.000000 0.000000 -20.366452 -12.754187 0.374567 -3.155944 -0.927064 -0.243402 64.605830 -18.360608 -12.877798 0.000000 0.000000 0.000000 30.277233 -1.800799 3.072740 25.063649 -8.092501 -5.431489 -60.562101 24.677694 -9.650539 0.000000 0.000000 0.000000 
-0.763771 0.862975 -0.894917 -13.271704 2.888251 0.634959 24.477560 2.131238 -24.057013 -3.185167 -0.439735 38.474931 8.300127 16.878360 -2.268250 0.000000 0.000000 0.000000 -20.207808 -1.715634 -23.458110 3.845303 -0.597908 27.632405 -12.805052 -23.922862 45.954626 0.000000 0.000000 0.000000 -2.855258 -1.110255 35.216244 0.914251 -0.376367 -1.349621 1.947257 15.161267 12.230626 12.216454 -3.472425 -21.674053 0.000000 0.000000 0.000000 -19.767131 -13.702575 0.958921 -3.180906 -1.516562 -0.233141 62.572871 -18.109233 -12.153445 0.000000 0.000000 0.000000 27.463472 -1.337870 2.770988 26.870520 -7.783960 -5.532693 -60.287809 23.074738 -8.376559 0.000000 0.000000 0.000000 
-0.711565 0.873581 -0.886998 -12.482381 0.861538 -1.518915 21.894668 1.569735 -19.376977 -6.488933 1.311023 37.030598 9.346557 18.860983 -3.461521 0.000000 0.000000 0.000000 -19.992652 -1.395193 -21.692155 5.671086 -1.161751 31.658978 -10.172507 -21.944485 38.969307 0.000000 0.000000 0.000000 -1.098525 -1.394280 33.954084 0.074674 -0.002152 -1.026753 2.231313 13.765169 12.337270 11.758119 -3.934585 -19.870616 0.000000 0.000000 0.000000 -20.115069 -14.191383 1.875493 -2.436517 -1.111120 -0.193116 59.594166 -18.300134 -11.279962 0.000000 0.000000 0.000000 27.884535 -0.391428 2.592314 25.196984 -7.779601 -5.096524 -62.901619 22.972637 -9.364818 0.000000 0.000000 0.000000 
-0.664502 0.884259 -0.878807 -11.235378 -1.725110 -3.002860 18.645884 1.010017 -14.338394 -9.090385 2.702377 33.518005 10.373979 21.045103 -3.429558 0.000000 0.000000 0.000000 -18.041075 -0.839035 -21.592569 5.574566 -0.819068 37.206277 -4.162418 -15.417927 33.352759 0.000000 0.000000 0.000000 -0.265019 -1.288128 32.436295 0.065619 -0.065034 1.320701 0.665800 13.007580 8.853035 12.937428 -4.937462 -19.360116 0.000000 0.000000 0.000000 -20.337396 -13.440420 1.822135 -2.837782 -0.819717 -0.206103 58.495500 -21.138140 -12.266518 0.000000 0.000000 0.000000 28.912793 0.658356 2.606237 24.292537 -9.049336 -4.867365 -66.335343 24.795695 -11.653558 0.000000 0.000000 0.000000 
-0.623764 0.894894 -0.872207 -9.444610 -2.578866 -4.380501 15.065378 0.474682 -9.944543 -11.458718 3.479889 29.056238 10.562686 21.444624 -2.165534 0.000000 0.000000 0.000000 -16.762983 -0.512057 -19.394727 5.415699 -0.561612 39.387525 -0.280057 -10.313560 30.474396 0.000000 0.000000 0.000000 0.853413 -1.459612 31.513247 -0.847942 0.389493 2.026448 0.345618 11.217994 7.112280 11.682256 -4.463279 -18.910678 0.000000 0.000000 0.000000 -23.030332 -13.477155 2.179813 -1.601370 -0.346542 -0.118561 58.362761 -22.757604 -12.593457 0.000000 0.000000 0.000000 30.112456 0.916464 1.885873 24.403218 -8.997013 -4.691999 -70.453192 27.222766 -14.753337 0.000000 0.000000 0.000000 
-0.589149 0.904567 -0.868056 -7.994943 -4.552419 -5.648416 12.219552 0.235182 -4.874147 -13.761979 4.003197 23.132407 10.858471 22.114224 -0.217855 0.000000 0.000000 0.000000 -16.044929 -0.252289 -18.046248 4.052371 0.445878 38.709217 -1.446656 -12.065485 29.917700 0.000000 0.000000 0.000000 1.530411 -1.392443 30.561886 -1.051550 0.505447 1.859332 -0.277331 9.780714 6.079307 12.859519 -5.692676 -17.787248 0.000000 0.000000 0.000000 -24.993159 -12.623886 2.211163 -2.291585 1.386566 -0.152050 57.050091 -26.166409 -13.754055 0.000000 0.000000 0.000000 32.083947 1.588429 1.433332 23.219868 -8.969523 -4.291209 -73.337670 30.371817 -18.487439 0.000000 0.000000 0.000000 
-0.560358 0.911513 -0.866043 -7.040167 -6.320676 -6.195096 9.574026 0.170009 -1.186700 -14.837072 3.916706 17.754773 11.185050 22.794460 1.600423 0.000000 0.000000 0.000000 -14.885525 0.010133 -17.444215 4.269353 0.633717 38.102151 -2.696787 -13.889436 29.369157 0.000000 0.000000 0.000000 2.205027 -1.302799 27.985871 -1.954504 0.996966 3.002943 -0.131593 8.330088 5.146741 11.943144 -5.577053 -16.610743 0.000000 0.000000 0.000000 -26.771798 -12.228083 2.645294 -3.178729 2.772067 -0.245366 56.318515 -27.844530 -14.170549 0.000000 0.000000 0.000000 32.750627 2.572558 1.099399 24.025800 -9.717836 -4.360372 -72.779977 35.437573 -22.372032 0.000000 0.000000 0.000000 
-0.537500 0.917518 -0.865461 -6.327979 -7.481497 -6.172968 7.643148 0.201084 1.269790 -15.793776 3.701898 13.009138 11.228219 22.786189 3.904443 0.000000 0.000000 0.000000 -13.561985 0.239713 -16.779617 3.788370 0.934502 36.143107 -3.546229 -15.064600 28.273270 0.000000 0.000000 0.000000 2.649348 -1.248029 26.197325 -2.147624 1.104410 2.772463 -0.219832 7.452750 4.295125 10.540879 -5.043034 -15.410914 0.000000 0.000000 0.000000 -28.372823 -12.038265 2.973442 -3.566662 3.724471 -0.293905 54.086539 -28.981815 -13.899002 0.000000 0.000000 0.000000 34.707187 2.919235 0.611707 23.003070 -9.406252 -3.972517 -66.447266 38.363205 -22.113628 0.000000 0.000000 0.000000 
-0.520140 0.920572 -0.865534 -5.608337 -8.780659 -6.830205 6.239001 0.308733 3.315276 -16.867345 3.716005 10.231678 11.337597 22.852514 6.093914 0.000000 0.000000 0.000000 -13.079448 0.336463 -15.670626 3.684935 1.094342 34.829810 -3.998157 -15.740246 27.112560 0.000000 0.000000 0.000000 3.041637 -1.184515 24.759443 -2.995035 1.607078 3.851877 -0.106994 6.283602 3.215199 9.410156 -4.496292 -15.131981 0.000000 0.000000 0.000000 -28.823705 -11.994894 3.573512 -4.114670 3.979154 -0.381551 53.275889 -27.432656 -12.789683 0.000000 0.000000 0.000000 35.784032 3.423128 0.046135 23.308746 -10.416598 -4.004173 -58.907102 39.870233 -20.092938 0.000000 0.000000 0.000000 
-0.507529 0.921607 -0.865904 -4.655269 -10.038349 -7.706397 4.892007 0.501876 5.839784 -17.933170 3.613666 6.979778 11.383796 22.880554 7.540925 0.000000 0.000000 0.000000 -12.990207 0.372055 -13.841674 3.369778 1.246960 32.722671 -3.778333 -15.303597 24.230521 0.000000 0.000000 0.000000 2.805254 -1.022177 23.882916 -2.857040 1.543847 3.708357 -0.546322 6.496882 2.581496 8.574256 -3.987171 -15.058758 0.000000 0.000000 0.000000 -28.515345 -12.102754 3.720330 -3.634941 3.784857 -0.319974 50.693505 -25.069177 -10.953777 0.000000 0.000000 0.000000 37.156719 3.599090 -0.077611 23.054484 -11.155421 -4.030818 -52.328624 38.398000 -16.706554 0.000000 0.000000 0.000000 
-0.499803 0.920954 -0.866944 -4.024286 -10.598231 -8.468003 4.010715 0.668799 7.542999 -18.535903 3.508282 5.016512 11.311235 22.780521 7.963858 0.000000 0.000000 0.000000 -13.080345 0.367144 -12.912607 2.913003 1.378112 31.251589 -3.872508 -15.309100 22.589782 0.000000 0.000000 0.000000 2.960573 -0.980770 22.763155 -2.857590 1.556243 3.792318 -0.489845 5.763283 2.948923 8.086974 -3.885142 -14.516054 0.000000 0.000000 0.000000 -28.846361 -12.439827 4.373397 -2.135025 3.069493 -0.145799 49.488953 -21.805264 -9.201733 0.000000 0.000000 0.000000 37.578996 3.895863 -0.406757 22.829584 -11.376207 -3.952815 -47.376122 36.845187 -14.232674 0.000000 0.000000 0.000000 
-0.496880 0.920475 -0.868875 -3.291010 -11.105822 -8.955113 3.294979 0.802990 8.621613 -19.037050 3.441881 3.531987 11.296076 22.749969 8.455301 0.000000 0.000000 0.000000 -13.324096 0.368914 -12.448833 2.401261 1.526239 30.044363 -3.311193 -14.286179 20.679801 0.000000 0.000000 0.000000 2.829356 -0.908266 22.154439 -2.710416 1.501208 4.153471 -0.353526 5.893631 1.837886 7.735136 -3.623600 -14.572936 0.000000 0.000000 0.000000 -28.268490 -12.232617 4.226638 -1.480749 1.837994 -0.093525 47.368485 -19.294054 -7.670910 0.000000 0.000000 0.000000 37.386892 3.211116 -1.046702 23.444902 -10.801500 -3.927314 -45.987116 34.257736 -12.636942 0.000000 0.000000 0.000000 
-0.498732 0.921870 -0.871986 -2.697748 -10.694250 -9.301185 2.729818 0.864719 9.080275 -18.811333 3.273412 2.878550 11.041799 22.262848 9.016553 0.000000 0.000000 0.000000 -13.632319 0.326608 -11.813510 1.623678 1.627363 28.491605 -3.255669 -14.240376 20.966607 0.000000 0.000000 0.000000 2.940189 -0.905600 20.844125 -2.551143 1.391595 3.760103 0.071463 4.816594 2.940780 6.864830 -3.150201 -14.978718 0.000000 0.000000 0.000000 -28.150931 -12.119680 4.659962 -0.237711 1.347195 0.033610 45.723160 -16.098481 -6.112248 0.000000 0.000000 0.000000 38.040595 3.565964 -1.365806 23.205086 -9.909048 -3.684710 -46.576622 32.254222 -12.067722 0.000000 0.000000 0.000000 
-0.505293 0.923792 -0.876141 -2.212569 -10.245354 -9.530450 2.846323 0.859624 9.154373 -18.962763 3.247655 2.697873 10.740605 21.675485 9.756528 0.000000 0.000000 0.000000 -14.035972 0.283346 -11.449468 1.383648 1.477136 26.343067 -2.615469 -13.343950 21.314163 0.000000 0.000000 0.000000 2.741254 -0.881773 20.593301 -2.025891 1.095085 3.612333 0.009024 4.782496 2.375226 6.638494 -2.979366 -14.959264 0.000000 0.000000 0.000000 -28.253130 -12.188903 4.613590 1.422849 0.228474 0.171718 42.349048 -13.860800 -4.774370 0.000000 0.000000 0.000000 38.887503 3.156819 -1.703346 23.399440 -9.112430 -3.584988 -45.852325 30.454932 -11.086494 0.000000 0.000000 0.000000 
-0.515901 0.926284 -0.881413 -1.831967 -9.472613 -9.496840 3.045086 0.854534 9.387924 -18.618331 2.991974 1.759674 10.324351 20.946064 10.237339 0.000000 0.000000 0.000000 -13.957141 0.255329 -11.130817 1.240010 1.351799 24.998691 -2.948308 -13.710453 21.130189 0.000000 0.000000 0.000000 2.677345 -0.894416 20.426467 -1.393195 0.744447 3.648358 -0.168503 4.406090 2.750251 6.916049 -3.137410 -15.164598 0.000000 0.000000 0.000000 -27.107692 -11.813906 4.387820 1.820063 -0.034761 0.201449 39.250604 -13.152139 -4.137632 0.000000 0.000000 0.000000 38.996010 3.360067 -1.551785 24.148310 -7.858356 -3.522645 -46.110757 29.086792 -10.590247 0.000000 0.000000 0.000000 
-0.529764 0.927100 -0.887820 -1.411013 -8.696073 -9.395286 3.327158 0.798902 9.110251 -18.179988 2.822655 1.473820 10.070569 20.529913 10.087025 0.000000 0.000000 0.000000 -14.061060 0.210065 -11.739734 1.486514 1.132591 23.887962 -3.158928 -13.801957 20.459016 0.000000 0.000000 0.000000 2.690227 -0.939498 20.906991 -0.625370 0.325381 3.983534 -0.138102 4.546536 2.314196 7.002161 -3.065189 -15.590381 0.000000 0.000000 0.000000 -26.776453 -11.751955 4.126322 1.646346 -0.209291 0.168642 35.880750 -12.585360 -3.548144 0.000000 0.000000 0.000000 38.642248 4.004083 -0.765963 25.743399 -6.434433 -3.567409 -46.081421 27.338983 -9.811698 0.000000 0.000000 0.000000 
-0.545962 0.927090 -0.895037 -0.904249 -8.196255 -8.952222 3.700603 0.684305 8.078470 -17.855337 2.766342 1.707603 10.038485 20.460690 9.901332 0.000000 0.000000 0.000000 -13.914333 0.202753 -13.031873 1.368127 1.120932 23.664768 -3.276909 -13.656155 19.052897 0.000000 0.000000 0.000000 2.600313 -0.956159 21.254605 0.010216 -0.022280 4.307906 -0.132671 4.550228 2.042622 7.142588 -3.083071 -15.829607 0.000000 0.000000 0.000000 -25.806918 -10.917146 3.517151 0.806819 0.107886 0.095316 32.151615 -13.496135 -3.337753 0.000000 0.000000 0.000000 39.100540 4.491172 -0.304584 26.376126 -4.272032 -3.279701 -43.899363 26.308087 -8.848843 0.000000 0.000000 0.000000 
-0.564018 0.925972 -0.902127 -0.520079 -7.292241 -8.098362 4.397420 0.543147 6.873864 -17.680712 2.650459 1.516880 9.824102 20.108626 9.311273 0.000000 0.000000 0.000000 -13.794137 0.184318 -14.891126 1.658609 0.948417 23.347921 -4.349316 -15.137556 18.743207 0.000000 0.000000 0.000000 2.914626 -1.089169 22.294107 0.643224 -0.373672 3.787800 0.217302 4.662783 2.321375 7.301912 -2.906517 -17.367083 0.000000 0.000000 0.000000 -26.056042 -10.852031 3.343496 0.012633 0.012700 0.007687 29.556650 -13.611293 -3.048523 0.000000 0.000000 0.000000 38.271033 5.471701 0.753326 27.550844 -2.191897 -3.097344 -42.625364 25.005239 -8.012562 0.000000 0.000000 0.000000 
-0.583524 0.924314 -0.908141 0.131396 -6.974719 -7.628026 4.525905 0.482141 6.165694 -16.899414 2.474987 1.267465 9.927420 20.290576 8.764304 0.000000 0.000000 0.000000 -14.099426 0.150314 -16.115554 1.393267 0.916969 21.951495 -5.396072 -16.734237 18.851092 0.000000 0.000000 0.000000 3.269838 -1.212966 23.552135 0.894757 -0.514120 4.202363 0.599376 4.717092 1.784950 7.225157 -2.698687 -18.214185 0.000000 0.000000 0.000000 -26.070257 -10.597541 3.115228 -1.715065 0.337042 -0.160617 27.942015 -14.603300 -3.055986 0.000000 0.000000 0.000000 37.435160 6.483632 1.607460 28.534981 0.225815 -2.710391 -41.917020 24.613995 -7.704066 0.000000 0.000000 0.000000 
-0.604162 0.921654 -0.911967 0.792421 -6.540835 -6.918593 5.001911 0.403265 5.348903 -16.616582 2.372279 1.000423 9.917650 20.284354 8.146330 0.000000 0.000000 0.000000 -14.352791 0.112645 -17.671614 1.730802 0.751885 21.281224 -7.339782 -19.631948 19.157682 0.000000 0.000000 0.000000 4.008638 -1.455474 25.273491 1.451627 -0.816789 4.131765 0.629984 5.317791 1.292797 8.113874 -3.038284 -18.701160 0.000000 0.000000 0.000000 -26.188089 -10.367372 2.651408 -3.664087 0.612606 -0.346417 26.458528 -15.810782 -3.116647 0.000000 0.000000 0.000000 36.517754 7.572455 2.852609 28.638232 2.801858 -2.267312 -41.712224 24.234138 -7.457669 0.000000 0.000000 0.000000 
-0.625596 0.918731 -0.913015 1.728343 -6.658917 -6.232438 4.846328 0.383291 5.024621 -15.720275 2.157441 0.218162 10.163025 20.720804 7.704935 0.000000 0.000000 0.000000 -14.997695 0.065599 -18.500897 1.685122 0.654709 19.302219 -8.677620 -21.675100 21.230676 0.000000 0.000000 0.000000 4.952026 -1.659049 25.627248 1.484804 -0.831430 4.317280 0.509776 6.155630 1.702215 8.537155 -3.117563 -19.261055 0.000000 0.000000 0.000000 -26.018017 -10.260913 2.328270 -6.025051 0.512195 -0.574487 25.288594 -17.930251 -3.388082 0.000000 0.000000 0.000000 35.298537 8.298706 3.816446 28.226147 5.662142 -1.784085 -42.365164 24.189743 -7.496505 0.000000 0.000000 0.000000 
-0.647493 0.915626 -0.911105 2.398334 -5.990141 -5.528472 5.108610 0.355805 4.990688 -14.930643 1.909175 -0.751954 9.973694 20.425641 7.110785 0.000000 0.000000 0.000000 -15.590096 -0.046511 -19.714326 2.192405 0.528499 20.120958 -9.794512 -23.146122 21.962829 0.000000 0.000000 0.000000 6.538776 -2.109083 26.587765 1.902124 -1.065647 4.458748 0.227882 7.043862 1.577436 9.894044 -3.684567 -19.688097 0.000000 0.000000 0.000000 -26.207887 -10.535059 2.008986 -8.193779 0.597271 -0.748382 24.777327 -20.814303 -3.898309 0.000000 0.000000 0.000000 34.183918 8.703052 4.701471 26.537777 8.317821 -1.344754 -43.491123 23.740037 -7.454244 0.000000 0.000000 0.000000 
-0.669629 0.913074 -0.906462 3.424763 -6.036921 -5.105797 5.189801 0.365196 5.226301 -14.471717 1.795629 -1.348029 9.989325 20.450546 7.304331 0.000000 0.000000 0.000000 -16.740908 -0.197418 -20.814150 3.087053 0.316910 20.862626 -10.210068 -23.707546 22.827230 0.000000 0.000000 0.000000 8.014345 -2.486771 27.318499 2.371109 -1.331469 5.028056 -0.400891 8.086916 1.602327 10.318690 -3.601391 -20.737893 0.000000 0.000000 0.000000 -26.597600 -11.487801 2.115217 -10.605665 1.713273 -0.987256 25.516177 -24.347138 -4.801322 0.000000 0.000000 0.000000 32.467227 9.947009 6.058545 24.749928 10.512476 -1.034547 -45.514786 23.221165 -7.559768 0.000000 0.000000 0.000000 
-0.691998 0.911181 -0.899700 4.415514 -4.942687 -4.700072 5.985125 0.348509 5.852784 -15.043999 1.705697 -2.467597 9.250765 19.173972 8.024106 0.000000 0.000000 0.000000 -17.908605 -0.488049 -22.142452 4.085667 0.057523 23.497719 -9.866783 -23.133772 22.186923 0.000000 0.000000 0.000000 10.114756 -3.237355 29.081235 2.675368 -1.492970 4.413398 -0.941681 8.200408 1.990046 11.773265 -4.337247 -20.883351 0.000000 0.000000 0.000000 -26.988590 -12.092628 2.193473 -13.299544 2.125059 -1.261844 26.839268 -28.891313 -6.157599 0.000000 0.000000 0.000000 31.051023 10.312086 6.533552 21.999522 12.571563 -0.776901 -46.514473 22.166428 -7.286883 0.000000 0.000000 0.000000 
-0.714580 0.909979 -0.890961 5.748841 -4.644135 -4.656241 6.035658 0.401901 7.014132 -14.972119 1.580929 -3.567534 8.810839 18.446120 9.349371 0.000000 0.000000 0.000000 -19.273932 -0.734412 -22.544473 4.717214 -0.125122 24.505468 -8.817749 -21.663821 21.964811 0.000000 0.000000 0.000000 11.821484 -3.814756 30.326328 3.507051 -1.968162 4.901416 -2.258605 8.377970 2.015040 12.157593 -4.472802 -20.983703 0.000000 0.000000 0.000000 -26.339375 -12.843399 2.452435 -17.205663 3.494302 -1.797084 29.482854 -34.377187 -8.367363 0.000000 0.000000 0.000000 28.902585 11.782304 7.571668 20.406498 13.620596 -0.667970 -47.979686 20.228421 -6.693861 0.000000 0.000000 0.000000 
-0.737634 0.908949 -0.880843 7.185037 -3.838172 -4.700245 6.739111 0.407487 8.246233 -13.365515 1.556976 -1.495000 2.584966 6.916422 5.033351 0.000000 0.000000 0.000000 -20.314392 -0.995848 -22.882554 5.229376 -0.281196 27.431235 -7.911318 -20.199930 18.794233 0.000000 0.000000 0.000000 14.089078 -4.702755 31.994987 3.543677 -1.950514 3.873599 -3.232492 7.880863 2.727888 13.400674 -5.409478 -20.168220 0.000000 0.000000 0.000000 -27.286683 -13.712502 2.952331 -19.615033 4.661844 -2.255477 31.040924 -40.943021 -10.732126 0.000000 0.000000 0.000000 28.176013 12.266503 7.840352 17.792403 14.406951 -0.633809 -47.640243 19.100978 -6.221113 0.000000 0.000000 0.000000 
-0.761105 0.908396 -0.870484 8.635792 -3.110184 -4.296778 7.083302 0.384589 8.769512 -11.070600 1.409984 0.757766 -1.788373 -2.848498 2.065217 0.000000 0.000000 0.000000 -21.762314 -1.319158 -23.238664 5.776449 -0.509741 29.233444 -6.219986 -17.368749 16.656764 0.000000 0.000000 0.000000 15.730394 -5.410311 33.037351 3.979752 -2.177156 3.681664 -4.375777 7.380287 3.157236 13.700835 -5.501901 -20.597399 0.000000 0.000000 0.000000 -28.310655 -15.148209 3.854353 -22.947226 6.126192 -2.944943 34.484140 -46.903876 -14.065976 0.000000 0.000000 0.000000 27.654280 13.784116 8.793903 15.957454 14.116778 -0.689462 -47.706972 15.476885 -4.782068 0.000000 0.000000 0.000000 
-0.784622 0.906156 -0.861608 9.967522 -2.067356 -3.965924 7.855629 0.318430 9.436375 -8.648131 1.176066 3.317529 -5.177245 -12.549638 -1.671051 0.000000 0.000000 0.000000 -22.608523 -1.637506 -23.953580 6.261461 -0.774244 32.477474 -5.477140 -15.660013 13.245769 0.000000 0.000000 0.000000 17.568989 -6.358895 34.510692 3.943740 -2.068423 2.131214 -5.391864 6.245362 4.378882 14.767281 -5.915314 -21.968050 0.000000 0.000000 0.000000 -28.908607 -15.597596 4.467878 -25.860066 6.422190 -3.550365 34.016303 -53.293716 -15.946551 0.000000 0.000000 0.000000 28.489780 14.396658 9.146115 13.090097 14.028222 -0.739127 -46.545428 13.045269 -3.807230 0.000000 0.000000 0.000000 
-0.807225 0.900765 -0.854702 11.192337 -1.593585 -3.247619 8.619616 0.217503 8.858502 -6.465933 0.919798 6.472571 -6.802121 -19.403406 -5.123057 0.000000 0.000000 0.000000 -23.535661 -1.984039 -25.493991 7.064192 -1.177473 34.953033 -4.961573 -14.431797 11.284441 0.000000 0.000000 0.000000 18.774706 -7.242864 36.504306 4.119857 -2.081702 1.069689 -6.507689 5.722545 5.579356 15.915531 -6.240554 -23.624192 0.000000 0.000000 0.000000 -30.364949 -17.168335 5.674633 -28.590864 6.264342 -4.013989 34.312224 -57.107126 -17.388734 0.000000 0.000000 0.000000 28.001943 16.077411 10.172911 11.297983 13.972771 -0.773588 -44.129847 8.421540 -1.896987 0.000000 0.000000 0.000000 
-0.827965 0.894700 -0.849435 12.530276 -1.367596 -2.179671 9.161692 0.133249 8.113447 -5.553550 0.772501 7.510199 -6.745982 -16.618858 -2.204800 0.000000 0.000000 0.000000 -24.422709 -2.375968 -27.690118 7.935743 -1.661617 38.216261 -4.724745 -13.460927 8.124529 0.000000 0.000000 0.000000 20.035643 -8.138877 38.213067 3.602373 -1.733896 -0.206666 -7.086151 5.222760 6.854599 16.580186 -6.186781 -25.726280 0.000000 0.000000 0.000000 -32.143927 -18.597843 6.989893 -30.906558 4.617947 -4.099303 30.597323 -60.371888 -16.201128 0.000000 0.000000 0.000000 28.169146 16.901552 10.666984 8.420649 14.362116 -0.807516 -41.076749 3.581234 -0.152235 0.000000 0.000000 0.000000 
-0.846408 0.885910 -0.844833 13.387487 -1.147467 -1.143611 9.651092 0.059099 7.585544 -5.198400 0.705417 7.822436 -5.032539 -9.952029 1.527685 0.000000 0.000000 0.000000 -25.143660 -2.845670 -30.421160 9.352277 -2.510505 41.629733 -4.988939 -13.743701 6.709243 0.000000 0.000000 0.000000 20.706207 -8.863596 39.823579 3.109459 -1.411817 -1.535600 -7.175795 4.773243 8.590051 16.272309 -5.503566 -28.426533 0.000000 0.000000 0.000000 -34.587448 -19.466241 8.095690 -32.508673 3.079397 -4.090206 25.125377 -61.661438 -13.089510 0.000000 0.000000 0.000000 27.708300 18.534742 11.558523 7.188884 15.451051 -0.835395 -37.197794 -1.906413 1.512668 0.000000 0.000000 0.000000 
-0.862425 0.877333 -0.840033 14.176215 -2.546439 -0.548907 10.065570 0.081332 8.509822 -5.200834 0.725462 7.272294 -2.357440 -1.278666 8.004288 0.000000 0.000000 0.000000 -24.883615 -2.740872 -32.765450 9.881214 -2.640260 44.133660 -5.392375 -14.251272 4.056007 0.000000 0.000000 0.000000 21.130260 -9.023884 40.923128 2.473287 -1.096223 -1.951111 -8.130289 4.952298 9.009002 15.834318 -5.187876 -28.972059 0.000000 0.000000 0.000000 -35.523841 -20.509383 9.074558 -34.583152 1.754333 -4.072463 21.524643 -61.217343 -10.747440 0.000000 0.000000 0.000000 28.544075 19.959781 12.649906 6.684336 15.917303 -0.858278 -35.461321 -5.780688 2.538123 0.000000 0.000000 0.000000 
-0.876485 0.869965 -0.835128 14.628765 -2.446499 -0.149029 10.855341 0.014587 9.149580 -4.651827 0.618671 7.088308 0.215878 5.321809 14.465400 0.000000 0.000000 0.000000 -25.305054 -2.959043 -33.736516 11.431638 -3.587038 45.893056 -5.965183 -15.174748 1.784907 0.000000 0.000000 0.000000 21.518794 -9.406937 41.712030 2.236701 -0.959079 -2.528270 -8.400150 4.962620 9.352403 16.708568 -5.568877 -29.262693 0.000000 0.000000 0.000000 -37.575262 -21.384949 9.922593 -35.071846 1.324569 -3.993799 18.699948 -59.601166 -8.705781 0.000000 0.000000 0.000000 29.434945 20.689878 13.386188 6.642255 16.319595 -0.877922 -31.592802 -8.499598 2.917514 0.000000 0.000000 0.000000 
-0.888655 0.863596 -0.830776 14.851143 -2.831708 -0.341899 11.830072 -0.034845 10.137553 -4.583091 0.609431 6.802791 0.947530 6.803075 15.989717 0.000000 0.000000 0.000000 -25.163321 -2.923603 -34.469965 12.306828 -4.083659 47.733016 -6.159239 -15.409900 0.213128 0.000000 0.000000 0.000000 21.552364 -9.558489 42.780774 2.252103 -0.988853 -2.069144 -9.239655 4.811997 8.643348 17.166423 -6.045601 -28.181349 0.000000 0.000000 0.000000 -38.317315 -21.510244 10.081081 -34.554717 0.997965 -3.800759 18.022658 -58.644921 -8.138916 0.000000 0.000000 0.000000 30.100845 21.304939 13.920663 8.495247 16.401442 -0.810583 -30.221229 -9.339447 2.994288 0.000000 0.000000 0.000000 
-0.898192 0.857608 -0.828148 14.838398 -3.042777 -0.359577 12.907254 -0.121220 11.122453 -4.419581 0.583779 6.912498 0.403368 5.772695 15.295564 0.000000 0.000000 0.000000 -24.831171 -2.871962 -35.236649 12.972219 -4.518029 49.257707 -6.377960 -15.761486 -1.089504 0.000000 0.000000 0.000000 21.516669 -9.425828 42.472657 2.355848 -1.034989 -2.116487 -9.853237 4.815760 8.972844 17.561929 -6.448988 -27.503630 0.000000 0.000000 0.000000 -38.459585 -21.464353 10.071868 -34.461427 1.348532 -3.898670 17.407539 -57.626494 -7.612527 0.000000 0.000000 0.000000 31.299722 21.718476 14.495357 10.047893 17.236660 -0.759201 -28.373231 -9.387391 2.807872 0.000000 0.000000 0.000000 
-0.903963 0.851785 -0.828107 14.639680 -3.946012 -0.545947 13.449927 -0.117807 11.942470 -4.474412 0.615944 7.413156 0.366226 4.836985 12.351694 0.000000 0.000000 0.000000 -24.265261 -2.624767 -36.169225 13.409162 -4.645485 50.556369 -6.407445 -15.685086 -2.292783 0.000000 0.000000 0.000000 21.119124 -9.088581 42.635710 2.139148 -0.946653 -1.963060 -9.768147 5.442952 8.673813 18.792818 -7.344877 -26.454536 0.000000 0.000000 0.000000 -38.240531 -22.275145 10.488445 -34.702984 2.928745 -4.273441 19.295646 -57.323920 -8.643036 0.000000 0.000000 0.000000 31.187670 21.773958 14.644564 11.578067 18.385175 -0.665617 -28.086530 -8.382703 2.578655 0.000000 0.000000 0.000000 
-0.905077 0.848307 -0.831485 14.668352 -4.738431 -0.740737 13.505301 -0.064150 11.675905 -4.712544 0.711748 9.239781 0.043750 3.532728 9.967096 0.000000 0.000000 0.000000 -24.217467 -2.519777 -37.050489 13.727004 -4.694429 51.354281 -6.291256 -15.364746 -2.587824 0.000000 0.000000 0.000000 20.800402 -8.738436 42.485315 2.540434 -1.147796 -1.659014 -10.294989 5.527209 8.376860 19.107756 -7.806528 -25.379194 0.000000 0.000000 0.000000 -36.460574 -21.903427 10.019476 -35.670731 3.870004 -4.680886 20.778780 -57.414426 -9.534819 0.000000 0.000000 0.000000 31.375297 22.621926 15.257517 13.102845 18.763393 -0.556526 -29.436947 -6.820556 2.362632 0.000000 0.000000 0.000000 
-0.900563 0.845622 -0.838723 14.568494 -5.777403 -0.715717 12.772028 0.060115 11.560261 -4.349802 0.689706 10.680743 -0.056435 2.649082 7.938450 0.000000 0.000000 0.000000 -24.332573 -2.422565 -38.270137 13.991569 -4.646851 51.631139 -6.053483 -14.820333 -2.431883 0.000000 0.000000 0.000000 20.389489 -8.330514 42.343441 2.305433 -1.038408 -1.761210 -9.576095 6.363242 8.519206 19.379911 -7.906352 -25.443523 0.000000 0.000000 0.000000 -35.400802 -22.527354 10.214520 -36.927935 5.142942 -5.196710 22.461189 -56.533617 -10.346088 0.000000 0.000000 0.000000 30.073579 23.035132 15.384693 14.052808 19.613982 -0.470063 -29.890334 -5.153924 2.034281 0.000000 0.000000 0.000000 
-0.890915 0.845393 -0.850036 14.833477 -6.729304 -0.770755 11.230346 0.217495 10.261945 -4.585959 0.828896 12.639136 0.444979 3.539163 8.123934 0.000000 0.000000 0.000000 -24.662465 -2.348439 -39.051174 13.411663 -4.051252 50.912563 -5.728605 -14.044994 -2.293657 0.000000 0.000000 0.000000 20.187084 -8.086189 42.586075 2.457427 -1.121535 -1.488079 -9.293543 7.405979 8.187212 19.114006 -7.411036 -26.327165 0.000000 0.000000 0.000000 -33.581166 -22.924473 9.949022 -38.142662 5.366552 -5.377817 23.596471 -56.371911 -11.091482 0.000000 0.000000 0.000000 29.048657 23.819040 15.935427 12.996989 20.380613 -0.499299 -31.009665 -5.222080 2.150416 0.000000 0.000000 0.000000 
-0.876926 0.844603 -0.864811 15.339568 -6.327597 -0.835308 10.099234 0.243905 8.679887 -4.442882 0.834117 14.323619 -0.131384 3.538312 11.651665 0.000000 0.000000 0.000000 -25.628067 -2.729302 -39.327405 12.496556 -3.574086 49.903697 -5.571879 -13.698917 -1.999909 0.000000 0.000000 0.000000 20.469344 -8.219148 42.374444 2.685292 -1.208877 -1.911234 -8.543011 8.249686 8.842871 18.582024 -6.724904 -27.602611 0.000000 0.000000 0.000000 -33.372505 -23.532914 10.003776 -37.628562 5.614131 -5.295621 24.599898 -55.682760 -11.573841 0.000000 0.000000 0.000000 27.141892 24.016110 15.846675 12.100703 19.936102 -0.604657 -31.333507 -4.702621 2.070253 0.000000 0.000000 0.000000 
-0.860105 0.842742 -0.882249 15.690577 -6.087258 -1.086960 8.917855 0.248921 6.710284 -4.608625 0.935878 16.169323 0.238891 5.306903 16.080902 0.000000 0.000000 0.000000 -26.361028 -3.014682 -39.618433 11.254285 -2.870058 48.807358 -5.329163 -13.168997 -1.571795 0.000000 0.000000 0.000000 20.989444 -8.429811 42.363173 3.304341 -1.508962 -1.583582 -8.202968 9.821481 9.169237 18.505295 -6.065453 -29.354193 0.000000 0.000000 0.000000 -31.876179 -24.452541 9.764400 -37.046596 5.736002 -5.086987 23.057291 -55.685237 -10.988073 0.000000 0.000000 0.000000 25.010681 23.845334 15.654621 10.855291 19.681343 -0.709477 -31.668378 -5.243064 2.283241 0.000000 0.000000 0.000000 
-0.841348 0.838817 -0.901110 16.077523 -6.158880 -1.396680 7.671110 0.229014 4.639690 -4.798396 1.090079 18.472290 0.253138 5.996637 18.996269 0.000000 0.000000 0.000000 -27.172076 -3.265235 -40.009926 9.970849 -2.107682 47.503994 -5.017551 -12.413296 -1.411853 0.000000 0.000000 0.000000 21.334756 -8.578987 42.744571 3.411937 -1.558776 -1.631916 -7.467709 10.974256 9.411483 17.977937 -5.606057 -29.693669 0.000000 0.000000 0.000000 -30.874972 -24.873002 9.488379 -35.780640 6.067431 -4.879999 22.853653 -54.882750 -10.854550 0.000000 0.000000 0.000000 24.013913 23.591827 15.503261 9.657727 18.624768 -0.811956 -32.308953 -4.342953 2.116442 0.000000 0.000000 0.000000 
-0.821609 0.834491 -0.920748 16.274204 -5.868903 -1.815940 6.695488 0.165123 2.625056 -5.094825 1.291506 21.136398 0.140607 6.346046 21.069797 0.000000 0.000000 0.000000 -27.647300 -3.502554 -40.283484 8.229857 -1.186625 46.346444 -4.664195 -11.702140 -0.666245 0.000000 0.000000 0.000000 21.769869 -8.997193 43.911532 3.823615 -1.695143 -2.659939 -6.908672 11.780919 9.943921 17.491104 -5.130512 -30.355517 0.000000 0.000000 0.000000 -29.307167 -24.579229 8.824312 -34.843586 5.996534 -4.696176 21.044623 -53.988903 -9.851779 0.000000 0.000000 0.000000 23.599538 22.800078 15.117588 8.519783 17.927108 -0.888460 -33.565439 -3.722697 2.048785 0.000000 0.000000 0.000000 
-0.801198 0.828825 -0.940434 16.295964 -5.060316 -2.256871 5.848631 0.048815 0.201502 -5.564361 1.566688 24.552213 1.417269 7.043374 15.170590 0.000000 0.000000 0.000000 -28.716903 -4.068385 -40.557207 7.449119 -0.903985 45.573384 -4.295013 -11.184782 0.864936 0.000000 0.000000 0.000000 22.826242 -9.756127 44.799264 3.933156 -1.706917 -3.315870 -6.323349 12.877348 10.060280 16.081561 -4.229433 -30.453696 0.000000 0.000000 0.000000 -29.194647 -24.647286 8.247334 -32.263254 5.994384 -4.130926 19.446274 -51.263900 -8.605708 0.000000 0.000000 0.000000 24.239486 21.476389 14.879160 7.235165 16.566577 -0.976805 -34.037051 -3.067715 1.897171 0.000000 0.000000 0.000000 
-0.780120 0.823541 -0.960275 16.005752 -5.018631 -2.696878 4.769848 -0.080534 -2.034539 -5.902388 1.897107 28.026106 3.576225 9.343114 8.719574 0.000000 0.000000 0.000000 -29.166678 -4.261804 -40.850334 6.429104 -0.385836 44.146046 -3.753527 -10.366765 2.508226 0.000000 0.000000 0.000000 23.574331 -10.242397 45.720483 4.064824 -1.747627 -3.669266 -5.442042 13.690703 9.929588 15.429764 -3.932601 -29.884528 0.000000 0.000000 0.000000 -28.725614 -24.633318 7.876215 -30.575480 5.499288 -3.684927 18.576403 -47.299361 -7.504013 0.000000 0.000000 0.000000 25.408225 20.454858 14.773673 6.115910 15.047852 -1.002637 -35.982722 -2.759610 1.883767 0.000000 0.000000 0.000000 
-0.758121 0.817114 -0.979548 15.705307 -4.439043 -3.281619 3.709645 -0.283611 -4.886703 -6.201205 2.265505 32.824325 5.200058 11.391683 2.714039 0.000000 0.000000 0.000000 -30.142063 -4.748501 -40.938871 5.942116 -0.232516 43.134080 -3.203508 -9.707279 4.628327 0.000000 0.000000 0.000000 25.143980 -11.213798 46.593382 4.178764 -1.753784 -4.393596 -5.312800 13.848474 10.387490 14.771188 -3.525599 -30.089500 0.000000 0.000000 0.000000 -28.469657 -24.225804 7.431014 -29.242136 4.990624 -3.370105 16.278552 -45.909555 -6.278556 0.000000 0.000000 0.000000 26.301146 18.951515 14.170654 6.112709 14.387836 -1.025581 -37.346097 -1.728458 1.618156 0.000000 0.000000 0.000000 
-0.735748 0.812981 -0.997952 15.452234 -3.733793 -3.761631 2.816219 -0.530026 -7.913815 -7.125698 2.917228 37.466154 6.535193 13.554655 -1.132757 0.000000 0.000000 0.000000 -31.037504 -5.232886 -40.804342 5.127691 0.055311 41.801811 -3.011388 -10.163014 7.825202 0.000000 0.000000 0.000000 26.534594 -12.280641 47.747412 4.421173 -1.830182 -4.813497 -5.366978 13.987159 9.871660 15.582723 -4.136725 -28.982495 0.000000 0.000000 0.000000 -29.813186 -23.999755 7.005768 -27.340771 5.652933 -3.115485 13.805998 -45.346395 -5.092895 0.000000 0.000000 0.000000 27.176022 18.048884 13.950312 6.206906 13.625800 -1.030222 -38.734363 -1.797632 1.687411 0.000000 0.000000 0.000000 
-0.713491 0.809485 -1.015913 15.447984 -4.306978 -4.079254 1.929815 -0.836654 -11.406112 -8.070214 4.062274 43.128925 6.571955 13.309265 -3.659833 0.000000 0.000000 0.000000 -31.457125 -5.314365 -41.649479 3.818550 0.724238 40.496426 -2.098457 -9.637261 12.265265 0.000000 0.000000 0.000000 27.164088 -12.760671 49.207725 4.299591 -1.727973 -5.648151 -5.178317 14.746426 10.612773 15.730031 -4.021917 -29.688550 0.000000 0.000000 0.000000 -29.689792 -23.180654 6.220918 -27.362238 5.023122 -2.983419 11.169363 -45.477550 -4.054881 0.000000 0.000000 0.000000 27.727889 17.059814 13.650292 6.266047 13.220485 -1.060113 -40.463811 -1.743476 1.733091 0.000000 0.000000 0.000000 
-0.692179 0.807202 -1.034189 15.169497 -4.243787 -3.656375 1.451749 -1.164577 -15.325008 -9.260564 5.235554 47.810097 6.870709 13.659715 -5.742552 0.000000 0.000000 0.000000 -31.690494 -5.519900 -42.332341 3.653673 0.789112 40.986105 -2.762843 -10.949001 12.519062 0.000000 0.000000 0.000000 28.077220 -13.342420 49.521021 3.688594 -1.404087 -6.609065 -4.393270 15.289410 11.601083 15.488197 -3.482273 -31.463523 0.000000 0.000000 0.000000 -30.121113 -22.520350 5.642479 -27.575213 5.221387 -3.056924 7.507513 -46.547226 -2.590615 0.000000 0.000000 0.000000 27.390244 16.396991 13.254418 6.995189 13.849203 -1.095192 -40.686934 -2.012118 1.868847 0.000000 0.000000 0.000000 
-0.672391 0.804638 -1.053169 14.710310 -5.318763 -3.574790 1.583676 -1.321044 -18.557286 -10.885901 7.131789 51.684111 7.480291 14.917401 -7.023554 0.000000 0.000000 0.000000 -31.661724 -5.337895 -43.425477 5.744628 0.007819 45.200405 -3.981825 -11.905781 6.085041 0.000000 0.000000 0.000000 27.963890 -13.469995 51.235947 3.189008 -1.158896 -7.495929 -3.750891 16.176028 12.120661 15.680335 -3.398807 -32.107719 0.000000 0.000000 0.000000 -30.808629 -21.682476 4.829674 -26.752708 5.336158 -2.935721 3.443523 -46.539629 -0.820417 0.000000 0.000000 0.000000 27.150701 16.063598 13.169250 7.429303 13.629050 -1.125246 -41.617650 -1.535493 1.778986 0.000000 0.000000 0.000000 
-0.653525 0.800328 -1.072724 14.371432 -6.440279 -2.996070 1.409938 -1.492696 -21.762826 -11.423976 8.344765 54.612529 7.395390 14.442225 -9.572985 0.000000 0.000000 0.000000 -31.246872 -5.091088 -45.157382 8.691599 -1.428570 51.696498 -6.253392 -15.512065 -2.050864 0.000000 0.000000 0.000000 27.283862 -13.228310 52.577486 3.029000 -1.103179 -7.511872 -3.995769 16.776199 11.625039 16.433124 -3.896776 -31.290949 0.000000 0.000000 0.000000 -32.700729 -21.014336 4.043933 -25.136840 6.624299 -2.845936 -0.048600 -47.327158 0.805669 0.000000 0.000000 0.000000 27.691372 16.284968 13.611925 6.725669 14.190291 -1.127135 -41.078852 -0.731258 1.446072 0.000000 0.000000 0.000000 
-0.634572 0.794190 -1.092871 13.860492 -7.765719 -3.180972 1.607597 -1.498771 -24.246624 -12.144354 9.902238 57.526288 7.579994 14.637316 -11.896948 0.000000 0.000000 0.000000 -30.466553 -4.529733 -46.057443 14.125320 -4.906014 59.852390 -8.836614 -22.098499 -11.988969 0.000000 0.000000 0.000000 26.781011 -12.957617 54.186136 2.659139 -0.970072 -7.427507 -4.030790 17.408012 10.927201 17.645087 -4.608105 -30.699054 0.000000 0.000000 0.000000 -33.178083 -20.930910 3.682552 -24.224900 7.705405 -2.827817 -3.395581 -48.097970 2.334828 0.000000 0.000000 0.000000 27.569588 16.639652 13.942460 6.076308 14.389005 -1.112818 -40.470105 -0.516706 1.351860 0.000000 0.000000 0.000000 
-0.614614 0.787873 -1.113664 13.618163 -9.359261 -3.110016 1.768652 -1.437614 -26.600940 -12.648066 11.373478 59.656380 7.208406 13.196476 -14.850001 0.000000 0.000000 0.000000 -30.375054 -4.063582 -46.708503 20.628956 -9.925052 65.779146 -10.337464 -28.399437 -16.792226 0.000000 0.000000 0.000000 26.205936 -12.395662 55.214869 2.131362 -0.808680 -6.500757 -4.402078 17.545816 9.509665 18.047253 -5.134428 -29.277334 0.000000 0.000000 0.000000 -34.704626 -21.191756 3.694800 -22.970007 8.538161 -2.688848 -2.505503 -47.986441 2.074027 0.000000 0.000000 0.000000 27.725442 17.632149 14.598076 4.356762 14.011339 -1.050512 -39.892172 -1.199966 1.501057 0.000000 0.000000 0.000000 
-0.593198 0.784509 -1.135331 13.180056 -12.070717 -2.847582 1.506681 -1.347797 -29.662952 -13.043281 13.095709 60.983935 8.288141 16.331042 -14.377165 0.000000 0.000000 0.000000 -29.878413 -3.107782 -47.361412 26.663268 -14.336213 68.250291 -12.023179 -34.273466 -15.202078 0.000000 0.000000 0.000000 25.154853 -11.314890 56.822027 1.743634 -0.669681 -6.616042 -4.487089 18.615084 9.644945 18.585608 -5.295594 -29.596198 0.000000 0.000000 0.000000 -36.038348 -22.333433 4.090640 -22.894835 9.367464 -2.706092 0.262650 -48.650027 0.885555 0.000000 0.000000 0.000000 27.108589 19.345927 15.721792 2.672681 13.246086 -0.979702 -38.707258 -2.855572 1.953624 0.000000 0.000000 0.000000 
-0.570737 0.785088 -1.157808 13.173477 -13.848901 -2.710704 0.360226 -1.524973 -31.655079 -13.481083 14.133127 60.914710 9.169676 18.832450 -15.366716 0.000000 0.000000 0.000000 -30.396764 -2.659304 -46.537432 30.699694 -16.480168 66.613029 -14.397981 -37.196328 -6.599853 0.000000 0.000000 0.000000 24.250476 -10.387023 57.495956 1.546982 -0.643743 -5.217749 -4.976720 19.228006 8.065849 19.817114 -6.405788 -27.695189 0.000000 0.000000 0.000000 -37.139788 -23.424486 4.500274 -22.241059 10.366918 -2.626021 1.140164 -49.889920 0.568232 0.000000 0.000000 0.000000 27.380562 20.294072 16.561592 0.525131 12.477412 -0.871108 -39.032630 -4.253539 2.364717 0.000000 0.000000 0.000000 
-0.547684 0.787607 -1.180407 13.280635 -15.462809 -3.027799 -0.620698 -1.648970 -33.379036 -13.443759 14.654014 60.640662 9.223752 19.016267 -14.863381 0.000000 0.000000 0.000000 -31.315816 -2.360584 -45.509838 31.034677 -15.006231 62.431427 -16.718123 -35.381146 11.459888 0.000000 0.000000 0.000000 23.569462 -9.608202 58.528321 0.838187 -0.349160 -5.486402 -4.570947 19.113562 8.521102 20.163128 -6.870328 -27.196917 0.000000 0.000000 0.000000 -37.859199 -24.410203 5.556643 -23.367975 9.911475 -2.768990 4.546422 -52.194090 -1.079560 0.000000 0.000000 0.000000 26.598768 21.683922 16.963932 -1.077506 11.175795 -0.705111 -37.617998 -5.013841 2.459940 0.000000 0.000000 0.000000 
-0.524205 0.793110 -1.203088 13.137728 -17.402287 -3.105738 -0.617615 -1.415059 -34.301857 -14.521015 15.583845 58.431840 9.167206 18.960980 -14.597570 0.000000 0.000000 0.000000 -31.278939 -1.698652 -44.155469 30.483034 -12.683614 57.282334 -15.823234 -29.528718 36.225325 0.000000 0.000000 0.000000 23.341206 -8.812241 58.597705 0.493534 -0.228250 -4.668848 -4.846585 19.507350 7.686724 19.217793 -6.373778 -26.820621 0.000000 0.000000 0.000000 -39.077438 -25.426696 6.280730 -23.824309 9.862139 -2.760820 5.016290 -55.571906 -1.372620 0.000000 0.000000 0.000000 26.559385 22.350420 17.358204 -2.543715 10.646733 -0.596488 -36.656845 -6.001981 2.656702 0.000000 0.000000 0.000000 
-0.500381 0.797508 -1.225878 13.114126 -17.940676 -4.073495 -1.553373 -1.647580 -34.560300 -14.786928 15.622523 57.178962 8.929519 18.370487 -14.643645 0.000000 0.000000 0.000000 -31.084960 -1.463817 -43.310979 28.695253 -10.766939 54.797685 -15.591237 -30.384491 31.624288 0.000000 0.000000 0.000000 23.307611 -8.551436 58.851051 1.476015 -0.688172 -3.436217 -6.630814 19.379238 6.205387 20.572471 -7.444664 -25.749985 0.000000 0.000000 0.000000 -38.237232 -25.818438 6.208890 -25.107919 10.074072 -2.887763 6.826124 -58.599531 -2.769393 0.000000 0.000000 0.000000 29.058029 22.448983 18.341907 -4.861597 9.921775 -0.428609 -34.893792 -4.278972 1.886785 0.000000 0.000000 0.000000 
-0.475729 0.800803 -1.249235 12.416981 -20.316576 -4.698058 -0.572111 -1.023030 -34.690935 -16.332411 16.748923 54.293652 9.161946 19.123423 -13.920411 0.000000 0.000000 0.000000 -29.713271 -0.508331 -42.849422 26.908937 -8.386602 51.177753 -14.816321 -31.220888 25.318588 0.000000 0.000000 0.000000 23.282089 -7.728026 59.454368 0.206863 -0.134487 -3.724784 -4.332819 19.995567 6.548397 15.616554 -4.840572 -24.459846 0.000000 0.000000 0.000000 -40.343767 -27.700534 7.835431 -24.666290 9.918502 -2.756604 7.595544 -59.798583 -3.063321 0.000000 0.000000 0.000000 25.702735 22.392531 16.978363 -2.844292 10.066882 -0.512884 -33.466889 -1.461884 1.189523 0.000000 0.000000 0.000000 
-0.449403 0.802926 -1.273213 12.846602 -21.503346 -4.350726 -0.625916 -0.779813 -36.305192 -17.450125 17.056652 51.888178 7.988099 16.024169 -13.238706 0.000000 0.000000 0.000000 -28.073386 0.199284 -43.006737 21.630494 -5.000090 47.765713 -13.927440 -32.270783 16.694068 0.000000 0.000000 0.000000 23.619211 -7.482304 59.815148 -3.089127 1.246341 -6.466660 -1.383217 15.935561 9.281252 13.247182 -3.525402 -27.646440 0.000000 0.000000 0.000000 -42.053023 -23.224746 7.456692 -24.704846 6.184780 -2.765199 12.764881 -58.668530 -5.593939 0.000000 0.000000 0.000000 27.458873 24.895272 17.469720 -4.256320 9.609783 -0.406718 -32.904583 0.117221 0.573339 0.000000 0.000000 0.000000 
-0.420682 0.803244 -1.297405 13.083950 -23.271963 -4.811819 0.317097 -0.124400 -37.127587 -19.481688 17.668844 48.191257 6.864936 13.269252 -10.345135 0.000000 0.000000 0.000000 -26.560997 0.945256 -42.940136 16.785934 -2.217326 44.046693 -12.297770 -31.125601 11.482444 0.000000 0.000000 0.000000 24.649454 -7.275756 59.650375 -1.777760 0.707151 -4.980419 -5.895509 16.090337 8.273615 14.612281 -3.861380 -28.998850 0.000000 0.000000 0.000000 -40.340812 -25.197127 8.613614 -24.893217 5.406242 -2.591208 14.997880 -55.443701 -6.483242 0.000000 0.000000 0.000000 29.749156 22.384123 16.731475 -5.406592 12.240194 -0.653523 -31.961023 1.870784 0.063245 0.000000 0.000000 0.000000 
-0.389292 0.806520 -1.321261 13.671298 -24.927522 -5.067726 1.194708 0.499894 -37.564924 -22.628746 18.694441 43.963645 5.561358 10.362738 -7.631585 0.000000 0.000000 0.000000 -26.076513 1.367749 -41.303624 12.166742 -0.296388 36.365651 -10.580889 -28.925130 7.502116 0.000000 0.000000 0.000000 24.922348 -6.808229 59.918229 -2.096408 0.836770 -4.861449 -5.767315 12.954191 7.526172 10.378709 -2.143595 -28.473931 0.000000 0.000000 0.000000 -43.392259 -23.130439 9.150636 -23.865849 4.464731 -2.627211 15.793433 -53.911234 -6.346767 0.000000 0.000000 0.000000 29.505909 23.638413 16.192876 -5.031550 12.891195 -0.725620 -30.696250 3.790811 -0.401276 0.000000 0.000000 0.000000 
-0.355582 0.810190 -1.345715 14.561736 -26.947127 -4.919789 2.869383 1.489941 -37.475998 -23.105141 19.748241 43.963882 -0.093840 -4.534518 -11.148857 0.000000 0.000000 0.000000 -26.092348 1.871887 -41.977761 7.953087 0.856389 30.406216 -8.302102 -25.531424 12.656091 0.000000 0.000000 0.000000 25.317809 -6.262324 60.149536 -3.521273 1.322289 -7.579368 -5.446506 10.282728 10.465160 8.601423 -1.508486 -30.449839 0.000000 0.000000 0.000000 -46.159447 -23.172442 11.982528 -23.724530 3.072444 -2.894903 19.175782 -50.592924 -7.305286 0.000000 0.000000 0.000000 29.987961 23.209591 14.726011 -4.168881 13.049515 -0.729408 -31.722983 9.447789 -1.934981 0.000000 0.000000 0.000000 
-0.320105 0.814590 -1.371623 15.081561 -28.488534 -6.094206 5.727965 2.660662 -35.618663 -21.805657 21.406501 47.958906 -2.810159 -14.928528 -15.193910 0.000000 0.000000 0.000000 -25.378291 2.335326 -41.892093 3.790998 1.708531 25.808045 -5.205587 -21.761739 21.455337 0.000000 0.000000 0.000000 27.155723 -6.437358 60.860556 -3.318650 1.207510 -8.628749 -7.043242 6.648292 11.855304 8.688135 -1.897257 -32.214439 0.000000 0.000000 0.000000 -50.142284 -21.950695 13.909899 -21.625784 2.066848 -2.892316 16.938816 -51.310994 -6.295614 0.000000 0.000000 0.000000 30.215699 23.474766 13.452299 -2.641372 14.750166 -0.819209 -32.746083 12.410905 -2.845003 0.000000 0.000000 0.000000 
-0.283517 0.820810 -1.398463 15.371661 -29.282631 -6.195056 7.746092 3.018088 -32.244295 -16.822531 21.079225 54.330002 -2.579460 -22.312067 -22.570246 0.000000 0.000000 0.000000 -27.060391 2.283588 -42.891596 3.676326 1.241042 21.764707 -2.733066 -19.635162 32.635139 0.000000 0.000000 0.000000 27.275645 -6.185478 61.013806 -3.425801 1.254324 -8.201598 -7.996211 3.854556 11.507859 7.856010 -1.725891 -33.523139 0.000000 0.000000 0.000000 -54.222212 -22.316504 17.097688 -20.346778 2.531108 -3.039234 19.064799 -50.536241 -7.259332 0.000000 0.000000 0.000000 31.697066 23.759221 12.743486 -0.909160 15.155758 -0.758588 -34.655165 13.466056 -3.351662 0.000000 0.000000 0.000000 
-0.245106 0.821890 -1.424894 14.208562 -30.979473 -3.361784 9.859126 3.932186 -31.829528 -9.283059 18.467451 62.420622 -1.088002 -21.156758 -25.828143 0.000000 0.000000 0.000000 -27.673693 2.700814 -46.472199 7.433176 0.570442 24.386969 -4.664139 -19.723549 21.065338 0.000000 0.000000 0.000000 25.291865 -5.001135 60.247702 -1.944700 0.601679 -8.683776 -8.005918 4.906137 11.306650 8.845921 -2.197391 -33.210023 0.000000 0.000000 0.000000 -56.089212 -22.926894 18.155548 -20.747092 1.774067 -2.956444 18.013637 -49.241971 -6.515298 0.000000 0.000000 0.000000 30.854085 22.555856 11.985805 1.821561 15.382774 -0.723324 -37.104465 13.434025 -3.584955 0.000000 0.000000 0.000000 
-0.204966 0.819948 -1.449928 12.417979 -33.442187 -1.396213 12.468324 4.445881 -28.141579 -1.035387 14.220809 67.808915 -1.758069 -13.614550 -17.028819 0.000000 0.000000 0.000000 -25.813937 3.974264 -50.087739 10.134138 0.378914 29.625382 -7.170871 -22.942577 15.261705 0.000000 0.000000 0.000000 25.470720 -4.476253 57.827233 -6.034838 2.318011 -6.678949 -6.228168 4.396486 10.591836 6.929991 -1.907497 -30.337317 0.000000 0.000000 0.000000 -58.200062 -20.408691 17.418949 -18.599990 0.252257 -2.636423 16.825990 -47.854423 -5.877711 0.000000 0.000000 0.000000 33.989217 20.903283 10.470674 4.002781 13.587364 -0.580908 -39.584981 11.487695 -3.194989 0.000000 0.000000 0.000000 
-0.162109 0.812736 -1.473208 12.135298 -31.017869 0.146435 10.581703 2.496860 -22.984001 4.709053 8.157300 65.666970 -1.531837 -6.886745 -8.624416 0.000000 0.000000 0.000000 -31.517575 2.149856 -52.676772 19.843079 -3.081830 35.492291 -10.561555 -27.892077 10.554658 0.000000 0.000000 0.000000 26.760835 -5.910509 55.971152 -5.372712 1.749920 -9.975688 -7.353610 1.316675 10.447468 16.833154 -10.052507 -20.686631 0.000000 0.000000 0.000000 -60.642240 -22.188047 22.201172 -19.750230 -0.730494 -2.982932 15.413704 -41.929167 -4.646974 0.000000 0.000000 0.000000 41.612004 21.095685 10.237051 3.118827 9.728257 -0.465001 -39.714221 12.733802 -3.525172 0.000000 0.000000 0.000000 
