HIERARCHY
ROOT Hips
{
	OFFSET -0.001795 -0.223333 0.028219
	CHANNELS 6 Xposition Yposition Zposition Zrotation Yrotation Xrotation 
	JOINT LeftUpLeg
	{
		OFFSET 0.069520 -0.091406 -0.006815
		CHANNELS 3 Zrotation Yrotation Xrotation
		JOINT LeftLeg
		{
			OFFSET 0.034277 -0.375199 -0.004496
			CHANNELS 3 Zrotation Yrotation Xrotation
			JOINT LeftFoot
			{
				OFFSET -0.013596 -0.397961 -0.043693
				CHANNELS 3 Zrotation Yrotation Xrotation
				JOINT LeftToe
				{
					OFFSET 0.026358 -0.055791 0.119288
					CHANNELS 3 Zrotation Yrotation Xrotation
					End Site
					{
						OFFSET 0.000000 0.000000 0.000000
					}
				}
			}
		}
	}
	JOINT RightUpLeg
	{
		OFFSET -0.067670 -0.090522 -0.004320
		CHANNELS 3 Zrotation Yrotation Xrotation
		JOINT RightLeg
		{
			OFFSET -0.038290 -0.382569 -0.008850
			CHANNELS 3 Zrotation Yrotation Xrotation
			JOINT RightFoot
			{
				OFFSET 0.015774 -0.398415 -0.042312
				CHANNELS 3 Zrotation Yrotation Xrotation
				JOINT RightToe
				{
					OFFSET -0.025372 -0.048144 0.123348
					CHANNELS 3 Zrotation Yrotation Xrotation
					End Site
					{
						OFFSET 0.000000 0.000000 0.000000
					}
				}
			}
		}
	}
	JOINT Spine
	{
		OFFSET -0.002533 0.108963 -0.026696
		CHANNELS 3 Zrotation Yrotation Xrotation
		JOINT Spine1
		{
			OFFSET 0.005487 0.135180 0.001092
			CHANNELS 3 Zrotation Yrotation Xrotation
			JOINT Spine2
			{
				OFFSET 0.001457 0.052922 0.025425
				CHANNELS 3 Zrotation Yrotation Xrotation
				JOINT Neck
				{
					OFFSET -0.002778 0.213870 -0.042857
					CHANNELS 3 Zrotation Yrotation Xrotation
					JOINT Head
					{
						OFFSET 0.005152 0.064970 0.051349
						CHANNELS 3 Zrotation Yrotation Xrotation
						End Site
						{
							OFFSET 0.000000 0.000000 0.000000
						}
					}
				}
				JOINT LeftShoulder
				{
					OFFSET 0.078845 0.121749 -0.034090
					CHANNELS 3 Zrotation Yrotation Xrotation
					JOINT LeftArm
					{
						OFFSET 0.090977 0.030469 -0.008868
						CHANNELS 3 Zrotation Yrotation Xrotation
						JOINT LeftForeArm
						{
							OFFSET 0.259612 -0.012772 -0.027456
							CHANNELS 3 Zrotation Yrotation Xrotation
							JOINT LeftHand
							{
								OFFSET 0.249234 0.008986 -0.001171
								CHANNELS 3 Zrotation Yrotation Xrotation
								End Site
								{
									OFFSET 0.000000 0.000000 0.000000
								}
							}
						}
					}
				}
				JOINT RightShoulder
				{
					OFFSET -0.081759 0.118833 -0.038615
					CHANNELS 3 Zrotation Yrotation Xrotation
					JOINT RightArm
					{
						OFFSET -0.096012 0.032551 -0.009143
						CHANNELS 3 Zrotation Yrotation Xrotation
						JOINT RightForeArm
						{
							OFFSET -0.253742 -0.013329 -0.021401
							CHANNELS 3 Zrotation Yrotation Xrotation
							JOINT RightHand
							{
								OFFSET -0.255298 0.007772 -0.005559
								CHANNELS 3 Zrotation Yrotation Xrotation
								End Site
								{
									OFFSET 0.000000 0.000000 0.000000
								}
							}
						}
					}
				}
			}
		}
	}
}
MOTION
Frames: 116
Frame Time: 0.050000
0.000000 0.950949 0.000000 -0.337658 -5.658299 -0.376706 1.182298 0.367260 4.198375 -1.819505 0.258739 -2.200190 -4.619434 -5.164282 9.038267 0.000000 0.000000 0.000000 0.739106 -0.327384 3.042120 -1.214228 0.011129 -2.093323 4.424959 4.342391 9.315009 0.000000 0.000000 0.000000 4.920139 -0.074936 0.585040 -3.251142 1.528296 -1.496395 -3.197190 6.095278 4.318265 8.290256 -3.419611 -16.602747 0.000000 0.000000 0.000000 -24.442360 -5.076380 -0.688983 -47.315256 -3.965021 -3.731866 -7.983535 -19.391009 1.950163 0.000000 0.000000 0.000000 23.604298 -1.715439 -2.124414 55.406739 4.739767 -3.472756 7.291765 22.641199 2.246016 0.000000 0.000000 0.000000 
-0.000048 0.950709 0.000526 -0.595531 -6.759998 0.040670 1.684544 0.388510 4.576131 -2.438786 0.343284 -3.351016 -4.205561 -4.449920 9.216795 0.000000 0.000000 0.000000 0.683401 -0.221938 2.004192 -0.784860 0.020121 -1.128623 4.851036 5.181168 9.189213 0.000000 0.000000 0.000000 5.637124 -0.021170 -0.114602 -3.490497 1.668150 -0.461628 -3.999403 7.123567 3.304847 9.673192 -3.918942 -17.866442 0.000000 0.000000 0.000000 -25.042157 -5.273795 -0.930860 -46.629185 -3.767141 -3.564465 -8.650418 -19.280705 2.017611 0.000000 0.000000 0.000000 23.295355 -2.533200 -2.407088 56.862932 4.252873 -3.691184 7.122676 23.082375 2.295184 0.000000 0.000000 0.000000 
-0.000055 0.950138 0.000825 -0.344236 -6.362416 0.118878 1.623312 0.369081 4.367479 -2.739418 0.368891 -3.222576 -4.390921 -4.771121 9.158078 0.000000 0.000000 0.000000 0.876814 -0.248006 2.159422 -1.554369 0.066230 -1.504172 4.576526 4.841473 8.890527 0.000000 0.000000 0.000000 5.552814 -0.012472 -0.237605 -3.176330 1.481428 -1.773563 -4.432353 7.100435 4.037736 9.098438 -3.794416 -16.716930 0.000000 0.000000 0.000000 -23.783099 -5.011684 -0.959115 -47.636128 -3.573728 -3.820015 -7.905809 -18.838942 1.849769 0.000000 0.000000 0.000000 23.929659 -2.019999 -2.063817 56.072516 3.827136 -3.956311 6.938732 22.712307 2.227301 0.000000 0.000000 0.000000 
-0.000070 0.949932 0.001051 -0.260167 -6.254909 0.043293 1.848221 0.405368 4.892442 -3.266068 0.425086 -4.004594 -4.570561 -4.954570 9.430067 0.000000 0.000000 0.000000 0.635719 -0.241303 2.222547 -1.270149 0.046694 -1.434555 4.510858 4.785290 8.787272 0.000000 0.000000 0.000000 5.467597 0.009968 -0.471009 -3.043923 1.440525 -0.990471 -4.654437 7.212346 3.294515 9.587473 -3.951260 -17.182105 0.000000 0.000000 0.000000 -23.990164 -4.544060 -1.385638 -47.578955 -3.951297 -3.567742 -8.181887 -18.821326 1.874172 0.000000 0.000000 0.000000 23.601153 -2.360450 -2.186510 56.040389 3.742230 -3.922765 7.754668 22.647254 2.375196 0.000000 0.000000 0.000000 
0.000043 0.949947 0.001117 -0.231926 -6.020164 -0.086247 1.721623 0.407995 4.877450 -3.059890 0.403008 -3.768919 -4.647461 -5.106566 9.347731 0.000000 0.000000 0.000000 0.564697 -0.247848 2.328088 -1.173099 0.044668 -1.324277 4.401561 4.610631 8.743513 0.000000 0.000000 0.000000 5.429746 0.005579 -0.401567 -3.060853 1.452723 -0.866020 -4.606055 7.339330 3.065443 9.364324 -3.888460 -16.639327 0.000000 0.000000 0.000000 -23.725330 -4.731610 -1.336085 -47.533555 -4.173338 -3.440858 -8.318703 -18.958411 1.899196 0.000000 0.000000 0.000000 23.461585 -2.315407 -2.081198 56.042941 3.465274 -4.038098 7.787103 22.314110 2.346356 0.000000 0.000000 0.000000 
0.000205 0.949838 0.001228 -0.245645 -5.660543 -0.232504 1.746295 0.421403 5.074898 -3.017108 0.397912 -3.879486 -4.823121 -5.385472 9.341012 0.000000 0.000000 0.000000 0.499197 -0.272293 2.612949 -0.991421 0.023394 -1.465838 4.262507 4.360476 8.745781 0.000000 0.000000 0.000000 5.464786 0.004145 -0.362195 -2.990141 1.412338 -1.214278 -4.575453 7.148592 3.524721 9.082693 -3.728888 -16.664968 0.000000 0.000000 0.000000 -24.274841 -4.705768 -1.395296 -47.126097 -4.419242 -3.338912 -8.336141 -19.604365 1.971737 0.000000 0.000000 0.000000 23.553139 -2.139476 -1.972667 55.968953 3.570244 -4.038080 7.598756 21.929973 2.267849 0.000000 0.000000 0.000000 
0.000414 0.949682 0.001303 -0.284040 -5.452743 -0.362095 1.700661 0.431707 5.186423 -2.842150 0.380703 -3.844970 -4.891084 -5.535319 9.236804 0.000000 0.000000 0.000000 0.552512 -0.284976 2.711015 -1.002030 0.031099 -1.333024 4.150044 4.204606 8.655832 0.000000 0.000000 0.000000 5.495675 -0.005357 -0.234493 -3.082702 1.456360 -1.249759 -4.623457 6.985130 3.609219 9.165330 -3.718156 -17.025402 0.000000 0.000000 0.000000 -24.264141 -4.713762 -1.372450 -47.163642 -4.642448 -3.268496 -8.333818 -20.147503 2.026907 0.000000 0.000000 0.000000 23.428093 -2.037790 -1.913340 56.310072 3.592347 -4.048223 7.551046 22.000303 2.267772 0.000000 0.000000 0.000000 
0.000552 0.949611 0.001451 -0.271702 -4.901210 -0.381063 1.653874 0.429115 5.192728 -2.688460 0.364552 -3.904559 -5.140474 -5.924407 9.240011 0.000000 0.000000 0.000000 0.649576 -0.300824 2.805093 -1.119067 0.041289 -1.351280 3.889541 3.760087 8.591452 0.000000 0.000000 0.000000 5.343449 0.002529 -0.331789 -2.985312 1.410864 -1.329171 -4.662564 6.605832 3.828314 8.985256 -3.689613 -16.678880 0.000000 0.000000 0.000000 -24.536238 -4.980076 -1.212622 -46.885231 -4.987241 -3.133383 -8.393505 -20.722302 2.101875 0.000000 0.000000 0.000000 23.379567 -2.062283 -1.945802 56.310646 3.663144 -4.027802 7.706928 22.160666 2.314346 0.000000 0.000000 0.000000 
0.000522 0.949628 0.001641 -0.314599 -4.912447 -0.462662 1.626737 0.431627 5.201813 -2.556225 0.350819 -3.730637 -5.105422 -5.906963 9.149790 0.000000 0.000000 0.000000 0.636101 -0.312205 2.930049 -1.014990 0.030645 -1.387071 3.913332 3.787500 8.627101 0.000000 0.000000 0.000000 5.281641 0.001789 -0.307930 -2.918116 1.378827 -1.347171 -4.670149 6.387743 3.855577 8.799076 -3.647271 -16.421588 0.000000 0.000000 0.000000 -24.597407 -4.939571 -1.167319 -46.859639 -5.275377 -3.046896 -8.516294 -20.919156 2.152508 0.000000 0.000000 0.000000 23.114431 -1.986770 -1.949139 56.372912 3.687484 -4.004146 7.797789 22.651549 2.383785 0.000000 0.000000 0.000000 
0.000286 0.949446 0.001957 -0.358505 -4.961976 -0.510878 1.594513 0.430210 5.160830 -2.400884 0.334034 -3.506895 -5.028872 -5.860027 8.975148 0.000000 0.000000 0.000000 0.671561 -0.315620 2.946741 -0.977179 0.032417 -1.281221 3.916727 3.837736 8.547762 0.000000 0.000000 0.000000 5.267674 0.011791 -0.408879 -2.947410 1.393437 -1.315635 -4.639874 6.174857 3.962329 8.750085 -3.673884 -16.260710 0.000000 0.000000 0.000000 -24.491564 -4.990390 -1.036462 -46.816728 -5.600687 -2.956590 -8.794790 -21.267495 2.250238 0.000000 0.000000 0.000000 23.004654 -1.865322 -1.940195 56.311745 3.730268 -3.974371 8.042079 22.970607 2.459532 0.000000 0.000000 0.000000 
-0.000115 0.949453 0.002235 -0.366790 -5.203133 -0.560404 1.593322 0.442659 5.274050 -2.385218 0.334129 -3.528306 -4.917688 -5.691033 8.960347 0.000000 0.000000 0.000000 0.732785 -0.321961 2.983516 -1.071705 0.041463 -1.254118 4.017792 4.030331 8.534951 0.000000 0.000000 0.000000 5.215667 0.013270 -0.411213 -2.922113 1.380954 -1.310194 -4.654916 6.153534 3.961297 8.761709 -3.710878 -16.177970 0.000000 0.000000 0.000000 -24.619470 -5.092823 -0.942175 -46.657597 -5.779928 -2.888457 -9.048323 -21.346500 2.311618 0.000000 0.000000 0.000000 22.991864 -1.913839 -2.011598 56.164616 3.628224 -4.006858 8.352428 23.329489 2.558231 0.000000 0.000000 0.000000 
-0.000516 0.949414 0.002440 -0.404089 -5.451946 -0.531704 1.582835 0.440494 5.218150 -2.303885 0.325946 -3.404947 -4.771970 -5.495708 8.872435 0.000000 0.000000 0.000000 0.888342 -0.320860 2.889479 -1.275029 0.063650 -1.150855 4.103317 4.210625 8.487703 0.000000 0.000000 0.000000 5.223983 0.024536 -0.538307 -2.907167 1.376954 -1.118762 -4.620734 5.975218 3.807244 8.732237 -3.741486 -16.046362 0.000000 0.000000 0.000000 -24.767328 -5.036421 -0.895937 -46.560241 -5.911770 -2.844059 -9.079449 -21.354224 2.328898 0.000000 0.000000 0.000000 22.913489 -1.968857 -2.135291 56.050912 3.503217 -4.022626 8.466680 23.520115 2.588900 0.000000 0.000000 0.000000 
-0.000841 0.949526 0.002459 -0.437703 -5.630806 -0.521144 1.533564 0.438533 5.152595 -2.153471 0.310435 -3.267107 -4.663150 -5.338763 8.827022 0.000000 0.000000 0.000000 0.866182 -0.308234 2.778698 -1.162144 0.061326 -0.992801 4.187038 4.352811 8.511369 0.000000 0.000000 0.000000 5.232499 0.027338 -0.567699 -2.876817 1.360939 -1.165675 -4.499086 5.845601 3.880986 8.726531 -3.779304 -15.968513 0.000000 0.000000 0.000000 -24.933441 -5.132147 -0.766349 -46.453130 -6.054697 -2.811993 -9.205005 -21.152663 2.341356 0.000000 0.000000 0.000000 22.924074 -2.102143 -2.289152 55.808655 3.380449 -4.057835 8.542519 23.640346 2.607928 0.000000 0.000000 0.000000 
-0.001031 0.949679 0.002349 -0.534768 -5.752731 -0.475572 1.586779 0.425775 5.025269 -2.065222 0.299685 -3.101784 -4.580628 -5.223258 8.780123 0.000000 0.000000 0.000000 0.926849 -0.290087 2.564399 -1.075021 0.067163 -0.714202 4.242664 4.437308 8.543348 0.000000 0.000000 0.000000 5.245020 0.031719 -0.622228 -2.823655 1.336458 -1.112596 -4.386977 5.696777 3.833496 8.694294 -3.823150 -15.732466 0.000000 0.000000 0.000000 -25.138108 -5.135906 -0.707666 -46.453730 -6.224777 -2.763379 -9.133764 -20.946786 2.314470 0.000000 0.000000 0.000000 22.827066 -2.046859 -2.320515 55.626886 3.180594 -4.116610 8.528876 23.750936 2.606348 0.000000 0.000000 0.000000 
-0.001114 0.949802 0.002167 -0.562542 -5.863670 -0.416850 1.522013 0.413181 4.843585 -1.914050 0.281684 -2.892050 -4.496229 -5.105160 8.730645 0.000000 0.000000 0.000000 0.863775 -0.267769 2.374487 -0.912367 0.061479 -0.524578 4.297230 4.520136 8.576074 0.000000 0.000000 0.000000 5.368930 0.041618 -0.734964 -2.739573 1.295540 -1.144643 -4.366847 5.656592 3.936870 8.738162 -3.857687 -15.767622 0.000000 0.000000 0.000000 -25.257636 -5.096575 -0.700224 -46.468637 -6.325610 -2.745844 -9.010166 -20.734991 2.274195 0.000000 0.000000 0.000000 22.824709 -2.251645 -2.471493 55.391809 3.011928 -4.180486 8.430704 23.583259 2.561512 0.000000 0.000000 0.000000 
-0.001167 0.949945 0.001999 -0.573532 -6.116654 -0.400912 1.471192 0.411885 4.781617 -1.849861 0.274264 -2.785197 -4.368524 -4.901007 8.727273 0.000000 0.000000 0.000000 0.828947 -0.255770 2.275456 -0.864449 0.060771 -0.439654 4.419297 4.714518 8.628939 0.000000 0.000000 0.000000 5.410605 0.052179 -0.847167 -2.769859 1.311151 -1.033065 -4.195980 5.641753 3.963984 8.633651 -3.844013 -15.595334 0.000000 0.000000 0.000000 -25.372682 -4.951883 -0.730025 -46.559332 -6.285973 -2.789229 -8.755897 -20.785142 2.242041 0.000000 0.000000 0.000000 22.738022 -2.230212 -2.507938 55.221941 2.798034 -4.256286 8.220809 23.449105 2.493349 0.000000 0.000000 0.000000 
-0.001197 0.950078 0.001919 -0.573959 -6.232250 -0.384988 1.431612 0.410898 4.742533 -1.800076 0.268767 -2.736780 -4.313031 -4.802779 8.748292 0.000000 0.000000 0.000000 0.870875 -0.244755 2.144105 -0.951893 0.077071 -0.265954 4.459553 4.785925 8.628210 0.000000 0.000000 0.000000 5.497027 0.063238 -0.961381 -2.735745 1.296513 -0.948532 -4.192996 5.680597 4.036232 8.660935 -3.875744 -15.539933 0.000000 0.000000 0.000000 -25.380013 -4.853775 -0.777648 -46.718502 -6.278309 -2.812362 -8.590753 -20.778491 2.213068 0.000000 0.000000 0.000000 22.755592 -2.382970 -2.605053 55.018465 2.668067 -4.306500 8.258509 23.106255 2.457160 0.000000 0.000000 0.000000 
-0.001260 0.950339 0.001915 -0.526392 -6.466068 -0.411674 1.400953 0.418318 4.787559 -1.876443 0.277195 -2.735010 -4.234875 -4.636377 8.855123 0.000000 0.000000 0.000000 0.829228 -0.246517 2.187546 -1.006741 0.077886 -0.343800 4.586840 4.964669 8.722330 0.000000 0.000000 0.000000 5.542371 0.067381 -0.991639 -2.727057 1.292055 -0.935926 -4.165638 5.796670 4.117532 8.618206 -3.798371 -15.843845 0.000000 0.000000 0.000000 -25.482578 -4.623684 -0.917312 -46.817257 -6.227143 -2.846556 -8.226185 -20.759942 2.146608 0.000000 0.000000 0.000000 22.640014 -2.523683 -2.680295 55.055827 2.554384 -4.364546 8.126916 22.865662 2.403393 0.000000 0.000000 0.000000 
-0.001341 0.950495 0.001973 -0.531150 -6.506471 -0.402675 1.493898 0.410786 4.741527 -2.029289 0.291404 -2.656700 -4.235633 -4.616485 8.909365 0.000000 0.000000 0.000000 0.943344 -0.256100 2.224699 -1.200900 0.091292 -0.429362 4.614410 4.981592 8.776062 0.000000 0.000000 0.000000 5.599138 0.073905 -1.057116 -2.748417 1.303191 -0.888782 -4.199891 5.793339 4.118118 8.660967 -3.794407 -16.021624 0.000000 0.000000 0.000000 -25.469543 -4.462364 -1.006986 -46.902717 -6.031288 -2.929037 -7.940731 -20.656308 2.085205 0.000000 0.000000 0.000000 22.700271 -2.611039 -2.742714 55.083728 2.275638 -4.490955 8.116107 22.672679 2.376718 0.000000 0.000000 0.000000 
-0.001421 0.950724 0.002055 -0.506687 -6.750956 -0.370832 1.465670 0.419557 4.804151 -2.068236 0.298545 -2.783345 -4.154514 -4.442187 9.028372 0.000000 0.000000 0.000000 0.911791 -0.253799 2.220205 -1.228534 0.088398 -0.523797 4.749172 5.167977 8.878350 0.000000 0.000000 0.000000 5.613662 0.071106 -1.026253 -2.742253 1.295153 -1.067376 -4.204501 5.937303 4.274338 8.760604 -3.774770 -16.498057 0.000000 0.000000 0.000000 -25.473753 -4.290679 -1.103324 -47.081017 -5.888924 -3.010867 -7.555300 -20.369843 1.989484 0.000000 0.000000 0.000000 22.738541 -2.754931 -2.825959 55.165389 2.172667 -4.558925 8.086709 22.292709 2.327167 0.000000 0.000000 0.000000 
-0.001462 0.950763 0.002183 -0.491222 -6.914710 -0.315687 1.464068 0.424539 4.845544 -2.127169 0.307407 -2.922381 -4.097287 -4.330450 9.087286 0.000000 0.000000 0.000000 0.993440 -0.266802 2.307825 -1.433068 0.091443 -0.807187 4.838589 5.290431 8.944811 0.000000 0.000000 0.000000 5.609615 0.073599 -1.060455 -2.779946 1.309090 -1.195832 -4.178869 5.988783 4.322925 8.776527 -3.757392 -16.682279 0.000000 0.000000 0.000000 -25.466000 -4.199041 -1.138122 -47.137726 -5.756387 -3.074608 -7.194287 -20.024973 1.895165 0.000000 0.000000 0.000000 22.725019 -2.771603 -2.846679 55.345864 1.904873 -4.695143 8.028860 22.053928 2.286699 0.000000 0.000000 0.000000 
-0.001437 0.950749 0.002330 -0.489235 -7.240691 -0.332378 1.433306 0.449464 5.072856 -2.147860 0.315641 -3.214552 -3.972158 -4.113023 9.147700 0.000000 0.000000 0.000000 0.957850 -0.275133 2.416875 -1.438964 0.080468 -1.009147 5.004412 5.556717 9.006720 0.000000 0.000000 0.000000 5.641410 0.069133 -0.997772 -2.786950 1.310295 -1.230945 -4.149201 6.097446 4.206001 8.781823 -3.700500 -17.033336 0.000000 0.000000 0.000000 -25.419608 -3.999080 -1.234993 -47.390712 -5.461268 -3.204146 -7.009625 -19.832083 1.846082 0.000000 0.000000 0.000000 22.738128 -2.814689 -2.896391 55.409088 1.781703 -4.741725 8.119977 21.749783 2.261904 0.000000 0.000000 0.000000 
-0.001331 0.950650 0.002468 -0.482668 -7.422925 -0.301639 1.418735 0.477069 5.348715 -2.185880 0.328499 -3.712922 -3.928433 -4.010295 9.248371 0.000000 0.000000 0.000000 0.967581 -0.292464 2.589606 -1.519949 0.066426 -1.397824 5.112416 5.710888 9.080096 0.000000 0.000000 0.000000 5.605092 0.065979 -0.969602 -2.791744 1.309075 -1.332802 -4.079239 6.077996 4.171222 8.739830 -3.671958 -17.116613 0.000000 0.000000 0.000000 -25.473944 -3.838430 -1.293039 -47.518332 -5.422675 -3.237861 -6.756008 -19.616904 1.787093 0.000000 0.000000 0.000000 22.785043 -2.735889 -2.893884 55.473466 1.743162 -4.755259 8.021265 21.698535 2.232675 0.000000 0.000000 0.000000 
-0.001159 0.950470 0.002497 -0.483964 -7.610266 -0.330785 1.415152 0.507533 5.652888 -2.233908 0.341441 -4.153994 -3.875735 -3.909994 9.307543 0.000000 0.000000 0.000000 0.960320 -0.304881 2.725742 -1.560979 0.057958 -1.614173 5.203175 5.871299 9.089576 0.000000 0.000000 0.000000 5.591405 0.056626 -0.860024 -2.733063 1.281015 -1.321750 -4.132046 6.072407 4.015320 8.876593 -3.718253 -17.340436 0.000000 0.000000 0.000000 -25.606665 -3.716401 -1.358753 -47.595927 -5.280804 -3.291556 -6.572456 -19.570275 1.753322 0.000000 0.000000 0.000000 22.973513 -2.642581 -2.887127 55.511449 1.795862 -4.719552 7.800899 21.665598 2.184923 0.000000 0.000000 0.000000 
-0.000898 0.950278 0.002396 -0.531527 -7.661954 -0.359532 1.351078 0.530663 5.860653 -2.068803 0.332427 -4.455902 -3.846761 -3.874895 9.281281 0.000000 0.000000 0.000000 1.012255 -0.309682 2.745845 -1.599676 0.061443 -1.604245 5.213102 5.917338 9.044074 0.000000 0.000000 0.000000 5.604834 0.053264 -0.814918 -2.707623 1.272262 -1.195046 -4.077456 6.048759 3.860296 8.909288 -3.736177 -17.348348 0.000000 0.000000 0.000000 -25.694155 -3.760491 -1.332686 -47.623582 -5.291243 -3.278672 -6.587447 -19.440578 1.744372 0.000000 0.000000 0.000000 23.057459 -2.575520 -2.874976 55.571981 1.915524 -4.653851 7.684570 21.566257 2.149299 0.000000 0.000000 0.000000 
-0.000549 0.950201 0.002144 -0.579614 -7.726260 -0.433602 1.257640 0.549929 6.006176 -1.860294 0.316926 -4.578464 -3.800033 -3.817752 9.234957 0.000000 0.000000 0.000000 1.001248 -0.307592 2.735130 -1.534356 0.063065 -1.471429 5.234552 5.973477 9.017799 0.000000 0.000000 0.000000 5.626661 0.045204 -0.709482 -2.645927 1.245297 -1.109464 -4.084910 6.038165 3.783268 8.941619 -3.765900 -17.296576 0.000000 0.000000 0.000000 -25.836019 -3.704654 -1.374922 -47.597892 -5.320489 -3.260181 -6.750700 -19.486703 1.776271 0.000000 0.000000 0.000000 23.046868 -2.531764 -2.860641 55.711662 2.089287 -4.576066 7.490417 21.525905 2.108888 0.000000 0.000000 0.000000 
-0.000064 0.950209 0.001712 -0.569080 -7.652524 -0.543028 1.216580 0.556763 6.059332 -1.838753 0.313869 -4.532627 -3.833672 -3.875353 9.221616 0.000000 0.000000 0.000000 0.967634 -0.310066 2.783388 -1.532941 0.067509 -1.389746 5.196361 5.915019 8.999249 0.000000 0.000000 0.000000 5.648050 0.033713 -0.563751 -2.620150 1.235697 -1.027935 -4.115202 6.076931 3.709042 8.957945 -3.770325 -17.262052 0.000000 0.000000 0.000000 -25.912459 -3.827100 -1.347133 -47.627173 -5.365945 -3.227092 -7.007988 -19.524071 1.819091 0.000000 0.000000 0.000000 23.030785 -2.529311 -2.831682 55.770616 2.295912 -4.484773 7.467379 21.465238 2.101214 0.000000 0.000000 0.000000 
0.000513 0.950293 0.001096 -0.540620 -7.646123 -0.656588 1.167166 0.564565 6.110398 -1.858905 0.314801 -4.490848 -3.846795 -3.886974 9.246690 0.000000 0.000000 0.000000 0.862448 -0.314298 2.895131 -1.459810 0.058358 -1.453531 5.215091 5.914671 9.058158 0.000000 0.000000 0.000000 5.688333 0.025929 -0.453888 -2.668718 1.261180 -0.945102 -4.046110 6.127510 3.764583 8.921098 -3.725177 -17.379801 0.000000 0.000000 0.000000 -26.031934 -3.953601 -1.297362 -47.591020 -5.527811 -3.160438 -7.166853 -19.638827 1.855742 0.000000 0.000000 0.000000 22.950646 -2.360002 -2.709603 55.800623 2.565523 -4.371798 7.471475 21.612139 2.120669 0.000000 0.000000 0.000000 
0.001115 0.950442 0.000390 -0.519094 -7.648506 -0.767982 1.103915 0.583137 6.264094 -1.843323 0.316798 -4.642929 -3.874643 -3.896154 9.342543 0.000000 0.000000 0.000000 0.784400 -0.321634 3.024328 -1.425311 0.049934 -1.564944 5.247734 5.916825 9.153729 0.000000 0.000000 0.000000 5.751461 0.017005 -0.331582 -2.696680 1.278721 -0.795582 -4.110589 6.281486 3.688456 8.987244 -3.731448 -17.454648 0.000000 0.000000 0.000000 -25.902348 -4.121540 -1.249160 -47.808619 -5.594592 -3.127261 -7.191073 -19.669821 1.855615 0.000000 0.000000 0.000000 22.986831 -2.341477 -2.651396 55.794164 2.766995 -4.283741 7.450146 21.607102 2.122762 0.000000 0.000000 0.000000 
0.001591 0.950457 -0.000252 -0.531804 -7.609473 -0.829692 1.141251 0.594461 6.401589 -1.918992 0.327617 -4.848910 -3.922696 -3.946196 9.414839 0.000000 0.000000 0.000000 0.787432 -0.330117 3.112239 -1.447021 0.046234 -1.673676 5.247608 5.885555 9.205668 0.000000 0.000000 0.000000 5.838778 0.016177 -0.304922 -2.687640 1.278949 -0.637040 -4.089189 6.365975 3.685285 9.029655 -3.733230 -17.526119 0.000000 0.000000 0.000000 -26.132348 -4.328999 -1.189808 -47.695075 -5.654813 -3.078313 -7.200742 -19.596912 1.846681 0.000000 0.000000 0.000000 23.095326 -2.220012 -2.556789 55.668195 2.897905 -4.225361 7.376026 21.837998 2.140142 0.000000 0.000000 0.000000 
0.001889 0.950393 -0.000781 -0.533793 -7.712858 -0.878407 1.122752 0.609347 6.530585 -1.928834 0.332733 -5.027170 -3.889489 -3.884592 9.445059 0.000000 0.000000 0.000000 0.769933 -0.340024 3.232776 -1.458483 0.036501 -1.877809 5.314289 5.972907 9.262484 0.000000 0.000000 0.000000 5.876282 0.015352 -0.280860 -2.687447 1.283443 -0.466948 -4.039452 6.426281 3.523897 9.016167 -3.728603 -17.473418 0.000000 0.000000 0.000000 -26.146814 -4.399745 -1.159771 -47.751268 -5.633247 -3.074757 -7.105950 -19.465026 1.816478 0.000000 0.000000 0.000000 23.204700 -2.120602 -2.509727 55.512486 3.013386 -4.151421 7.325128 22.007822 2.148665 0.000000 0.000000 0.000000 
0.002040 0.950085 -0.001261 -0.594160 -7.744394 -0.976018 1.163935 0.615144 6.604820 -1.900897 0.329977 -4.998982 -3.846929 -3.868857 9.305943 0.000000 0.000000 0.000000 0.838360 -0.361140 3.414697 -1.482414 0.029263 -2.056863 5.329628 6.017276 9.240056 0.000000 0.000000 0.000000 5.890865 0.002722 -0.122572 -2.686672 1.294892 -0.055003 -4.031695 6.556689 2.990412 9.105669 -3.735141 -17.549082 0.000000 0.000000 0.000000 -26.153757 -4.264651 -1.326669 -47.733998 -5.716294 -2.975540 -6.923634 -18.985131 1.731106 0.000000 0.000000 0.000000 23.211629 -2.345962 -2.615109 55.520340 2.878738 -4.168355 7.504497 22.110696 2.193425 0.000000 0.000000 0.000000 
0.002049 0.949822 -0.001733 -0.603449 -7.763308 -1.026922 1.126239 0.622501 6.655298 -1.814937 0.323709 -5.034736 -3.815863 -3.852865 9.215963 0.000000 0.000000 0.000000 0.905756 -0.371337 3.479858 -1.582540 0.033262 -2.126857 5.318662 6.038425 9.172475 0.000000 0.000000 0.000000 5.892722 -0.007718 0.000663 -2.645645 1.277105 0.016367 -4.025662 6.700850 2.762268 9.089107 -3.708456 -17.520798 0.000000 0.000000 0.000000 -26.298007 -4.208783 -1.442005 -47.546528 -5.641746 -2.952361 -6.750629 -18.593723 1.661301 0.000000 0.000000 0.000000 23.357575 -2.461310 -2.659341 55.435704 2.775387 -4.200323 7.514082 22.412653 2.234519 0.000000 0.000000 0.000000 
0.002025 0.949323 -0.002204 -0.669220 -7.672388 -1.072469 1.182444 0.633306 6.806138 -1.759333 0.323974 -5.258122 -3.837332 -3.933878 9.091611 0.000000 0.000000 0.000000 1.030287 -0.379688 3.483183 -1.650837 0.042245 -2.059094 5.229277 5.980779 9.000997 0.000000 0.000000 0.000000 5.824192 -0.015701 0.092536 -2.572815 1.244911 0.130717 -4.065936 6.793356 2.555723 9.163107 -3.678352 -17.799328 0.000000 0.000000 0.000000 -26.106496 -4.162799 -1.517213 -47.632840 -5.677286 -2.912394 -6.697202 -18.061821 1.598456 0.000000 0.000000 0.000000 23.655184 -2.595195 -2.721177 55.399174 2.613728 -4.268750 7.516177 22.708452 2.275153 0.000000 0.000000 0.000000 
0.002078 0.949304 -0.002631 -0.700301 -7.731014 -1.075249 1.149501 0.638100 6.830138 -1.654292 0.317351 -5.327013 -3.801606 -3.879558 9.082129 0.000000 0.000000 0.000000 1.038536 -0.388415 3.570089 -1.616012 0.028925 -2.263019 5.284503 6.033056 9.084174 0.000000 0.000000 0.000000 5.838309 -0.008652 0.020328 -2.701088 1.308925 0.180434 -4.024438 6.918935 2.406070 9.157857 -3.661365 -17.795528 0.000000 0.000000 0.000000 -26.020583 -3.957236 -1.672021 -47.598285 -5.610148 -2.915001 -6.570876 -17.421516 1.519079 0.000000 0.000000 0.000000 23.820847 -2.881455 -2.883249 55.386190 2.399539 -4.358970 7.866944 23.000134 2.378979 0.000000 0.000000 0.000000 
0.002294 0.948991 -0.003079 -0.713921 -7.898266 -1.080547 1.082722 0.640367 6.796651 -1.566603 0.309569 -5.275391 -3.685563 -3.746814 8.942415 0.000000 0.000000 0.000000 1.191203 -0.386163 3.453976 -1.905585 0.057565 -2.123151 5.301215 6.149894 8.934917 0.000000 0.000000 0.000000 5.809190 -0.019715 0.143880 -2.631481 1.275230 0.185475 -4.098745 7.280845 2.305452 9.484196 -3.767721 -18.087975 0.000000 0.000000 0.000000 -26.183855 -3.869724 -1.855832 -47.297013 -5.622869 -2.847435 -6.621863 -16.762924 1.461191 0.000000 0.000000 0.000000 24.120038 -3.147798 -2.982479 55.169788 2.213037 -4.445792 8.094141 23.295489 2.471601 0.000000 0.000000 0.000000 
0.002730 0.948797 -0.003550 -0.782915 -7.946260 -1.041567 0.892739 0.648620 6.774290 -1.157287 0.278663 -5.347556 -3.606757 -3.662420 8.820967 0.000000 0.000000 0.000000 1.413750 -0.406920 3.521759 -2.222714 0.067133 -2.375617 5.324434 6.173873 8.960001 0.000000 0.000000 0.000000 5.861525 -0.019710 0.138934 -2.652224 1.279760 -0.006708 -4.104702 7.386198 2.482345 9.620491 -3.734475 -18.688118 0.000000 0.000000 0.000000 -26.172844 -3.752597 -1.940749 -47.159406 -5.690494 -2.822132 -6.683009 -16.196298 1.420342 0.000000 0.000000 0.000000 24.362322 -3.264291 -3.046627 55.159651 2.175033 -4.491522 8.001679 23.099625 2.436043 0.000000 0.000000 0.000000 
0.003313 0.948405 -0.004023 -0.808083 -8.138815 -1.081121 0.700675 0.658895 6.751923 -0.873073 0.253363 -5.250687 -3.450312 -3.488257 8.608286 0.000000 0.000000 0.000000 1.415156 -0.394284 3.401480 -2.265152 0.081482 -2.167868 5.357164 6.329179 8.803204 0.000000 0.000000 0.000000 5.868492 -0.023877 0.197177 -2.651427 1.282748 0.104785 -4.133901 7.592939 2.306992 9.888302 -3.784431 -19.153532 0.000000 0.000000 0.000000 -26.030033 -3.572811 -2.082366 -47.280690 -5.622919 -2.832887 -6.791611 -15.629935 1.380759 0.000000 0.000000 0.000000 24.465037 -3.578445 -3.213521 54.972676 1.845847 -4.621032 8.675150 23.111815 2.569799 0.000000 0.000000 0.000000 
0.004005 0.948376 -0.004498 -0.850277 -8.259105 -1.026094 0.544260 0.670836 6.775892 -0.616602 0.239165 -5.435924 -3.379045 -3.371411 8.609607 0.000000 0.000000 0.000000 1.469499 -0.390421 3.329183 -2.371461 0.085737 -2.224705 5.417677 6.409651 8.849924 0.000000 0.000000 0.000000 5.757525 -0.027657 0.225799 -2.539682 1.224581 -0.020795 -4.029716 7.557694 2.306303 9.773370 -3.701628 -19.306833 0.000000 0.000000 0.000000 -26.084392 -3.121416 -2.316518 -47.223282 -5.524228 -2.879550 -6.925454 -15.322106 1.373430 0.000000 0.000000 0.000000 24.442082 -3.820234 -3.399385 54.919020 1.815256 -4.618391 8.657281 22.686177 2.505826 0.000000 0.000000 0.000000 
0.004603 0.948316 -0.004990 -0.825459 -8.293163 -0.992454 0.434955 0.678397 6.788508 -0.542389 0.238827 -5.592532 -3.367423 -3.341640 8.642087 0.000000 0.000000 0.000000 1.473250 -0.378589 3.207807 -2.491068 0.098729 -2.153367 5.412665 6.420263 8.812688 0.000000 0.000000 0.000000 5.606884 -0.046103 0.417365 -2.373090 1.133266 -0.407985 -3.901740 7.431204 2.555245 9.692952 -3.546818 -20.050748 0.000000 0.000000 0.000000 -26.064698 -2.604160 -2.541845 -47.218665 -5.340694 -2.994456 -7.301160 -15.512685 1.445342 0.000000 0.000000 0.000000 24.399883 -3.915541 -3.508338 54.733655 1.833988 -4.605239 8.766406 22.290988 2.468487 0.000000 0.000000 0.000000 
0.005053 0.948206 -0.005429 -0.807468 -8.451642 -0.949170 0.354702 0.683037 6.776482 -0.516069 0.240472 -5.690424 -3.292439 -3.222045 8.641724 0.000000 0.000000 0.000000 1.407860 -0.365042 3.113347 -2.477152 0.096615 -2.159829 5.476757 6.542535 8.804829 0.000000 0.000000 0.000000 5.554232 -0.058714 0.550716 -2.315995 1.110641 -0.213300 -3.937289 7.439519 2.158431 9.868734 -3.603402 -20.235489 0.000000 0.000000 0.000000 -26.057449 -2.402430 -2.662821 -47.123178 -4.825664 -3.154477 -7.337269 -16.064298 1.499907 0.000000 0.000000 0.000000 24.459353 -4.046179 -3.622726 54.511155 1.565655 -4.665196 8.729947 22.033226 2.420974 0.000000 0.000000 0.000000 
0.005357 0.947996 -0.005855 -0.840564 -8.707743 -0.996185 0.156071 0.691084 6.727769 -0.183794 0.208442 -5.512575 -3.108650 -2.985101 8.464296 0.000000 0.000000 0.000000 1.328655 -0.369667 3.217796 -2.341359 0.074975 -2.343490 5.611328 6.765269 8.850179 0.000000 0.000000 0.000000 5.547542 -0.082584 0.832359 -2.313403 1.105122 -0.364930 -3.829367 7.528188 2.120656 9.866743 -3.469595 -20.991605 0.000000 0.000000 0.000000 -25.994933 -2.098362 -2.813369 -47.050301 -4.638671 -3.226978 -7.495093 -16.312944 1.545956 0.000000 0.000000 0.000000 24.396760 -4.280641 -3.782244 54.423509 1.609372 -4.627714 8.491114 21.320275 2.285344 0.000000 0.000000 0.000000 
0.005496 0.947794 -0.006297 -0.866027 -8.803171 -0.917863 0.080231 0.703277 6.794802 -0.032010 0.208679 -5.813033 -3.062232 -2.906780 8.475294 0.000000 0.000000 0.000000 1.308531 -0.360350 3.133732 -2.276517 0.066084 -2.408824 5.651680 6.845138 8.842750 0.000000 0.000000 0.000000 5.523537 -0.090823 0.910471 -2.364889 1.129691 -0.365261 -3.730548 7.469296 2.141507 9.850929 -3.427692 -21.252521 0.000000 0.000000 0.000000 -25.855508 -2.084578 -2.753354 -47.109380 -4.493890 -3.304297 -7.443720 -16.726203 1.581499 0.000000 0.000000 0.000000 24.306183 -4.251279 -3.795924 54.333522 1.755464 -4.545334 8.159287 20.990819 2.182283 0.000000 0.000000 0.000000 
0.005620 0.947393 -0.006769 -0.905989 -9.036892 -0.833032 -0.031682 0.700534 6.696915 0.181344 0.192385 -5.805779 -2.899880 -2.698506 8.311267 0.000000 0.000000 0.000000 1.353695 -0.342530 2.925541 -2.316858 0.075165 -2.285016 5.709500 7.031658 8.718188 0.000000 0.000000 0.000000 5.547953 -0.112791 1.142219 -2.392764 1.141732 -0.400487 -3.745742 7.485675 1.981903 9.591266 -3.283999 -21.280010 0.000000 0.000000 0.000000 -25.670532 -1.957356 -2.775235 -47.135220 -4.397219 -3.343842 -7.360115 -16.901175 1.587393 0.000000 0.000000 0.000000 24.247910 -4.191371 -3.787301 54.092094 1.794962 -4.487330 7.925068 20.757646 2.109067 0.000000 0.000000 0.000000 
0.005693 0.947329 -0.007281 -0.902210 -9.202190 -0.882483 -0.228742 0.716225 6.728607 0.490474 0.168867 -5.800891 -2.793870 -2.539145 8.266214 0.000000 0.000000 0.000000 1.385764 -0.336828 2.854190 -2.404702 0.088888 -2.149879 5.760699 7.156228 8.669980 0.000000 0.000000 0.000000 5.471308 -0.145183 1.528381 -2.381469 1.131273 -0.565012 -3.655143 7.391182 1.996952 9.481629 -3.194365 -21.575066 0.000000 0.000000 0.000000 -25.715891 -2.018108 -2.674634 -47.083709 -4.547280 -3.303319 -6.948381 -16.804602 1.525103 0.000000 0.000000 0.000000 24.196309 -4.026493 -3.743698 53.821695 2.047723 -4.346428 7.585887 20.572122 2.022981 0.000000 0.000000 0.000000 
0.005748 0.947124 -0.007836 -0.927525 -9.272480 -0.926579 -0.231810 0.725472 6.803043 0.534988 0.169526 -5.889177 -2.753049 -2.489102 8.217744 0.000000 0.000000 0.000000 1.464208 -0.339526 2.838351 -2.502342 0.098736 -2.102985 5.768101 7.212880 8.603386 0.000000 0.000000 0.000000 5.457007 -0.179470 1.934029 -2.280516 1.080057 -0.661682 -3.727624 7.271531 1.899568 9.445818 -3.154102 -21.759272 0.000000 0.000000 0.000000 -25.893042 -2.067357 -2.628860 -46.768519 -4.524665 -3.287735 -6.630010 -16.862877 1.487724 0.000000 0.000000 0.000000 24.463163 -3.851343 -3.711620 53.341448 2.130736 -4.265765 7.351071 20.598059 1.980119 0.000000 0.000000 0.000000 
0.005782 0.947197 -0.008448 -0.964371 -9.415950 -0.832663 -0.379508 0.720037 6.675727 0.839777 0.146628 -5.885550 -2.657772 -2.330551 8.216916 0.000000 0.000000 0.000000 1.477888 -0.318094 2.611899 -2.463818 0.103103 -1.968257 5.833866 7.311151 8.638610 0.000000 0.000000 0.000000 5.461916 -0.184976 1.980240 -2.240189 1.062580 -0.583981 -3.748183 7.337417 1.808748 9.380307 -3.108591 -21.795447 0.000000 0.000000 0.000000 -25.844016 -2.253939 -2.515644 -46.708354 -4.780545 -3.177204 -6.190217 -16.776008 1.416438 0.000000 0.000000 0.000000 24.447118 -3.680679 -3.607506 53.077582 2.190508 -4.214047 7.288234 20.584631 1.967012 0.000000 0.000000 0.000000 
0.005806 0.947243 -0.009138 -1.012671 -9.479951 -0.749401 -0.474076 0.708636 6.529428 1.091275 0.125927 -5.845135 -2.598177 -2.236355 8.197865 0.000000 0.000000 0.000000 1.548308 -0.304788 2.435208 -2.491283 0.109282 -1.893513 5.865770 7.345310 8.674461 0.000000 0.000000 0.000000 5.467287 -0.195812 2.088059 -2.216810 1.053947 -0.487256 -3.730214 7.323457 1.594536 9.323715 -3.108603 -21.596987 0.000000 0.000000 0.000000 -26.115657 -2.475768 -2.416884 -46.426297 -4.947115 -3.070516 -5.879542 -16.751544 1.370058 0.000000 0.000000 0.000000 24.561151 -3.478821 -3.515961 52.646439 2.182377 -4.166644 7.183041 20.846596 1.973950 0.000000 0.000000 0.000000 
0.005815 0.947317 -0.009882 -1.029515 -9.424082 -0.731219 -0.482271 0.696789 6.427256 1.159207 0.118244 -5.791628 -2.615238 -2.259318 8.206141 0.000000 0.000000 0.000000 1.571683 -0.276089 2.136917 -2.471708 0.133617 -1.464508 5.804155 7.281131 8.595820 0.000000 0.000000 0.000000 5.431903 -0.207332 2.223784 -2.100333 1.002549 -0.326350 -3.792590 7.241116 1.441910 9.163801 -3.044336 -21.448552 0.000000 0.000000 0.000000 -26.348408 -2.717022 -2.302368 -46.138768 -5.308813 -2.897407 -5.634166 -16.793188 1.338266 0.000000 0.000000 0.000000 24.526170 -3.227820 -3.370951 52.397376 2.265428 -4.099340 7.117829 21.102006 1.988007 0.000000 0.000000 0.000000 
0.005756 0.947320 -0.010651 -1.037449 -9.306688 -0.671305 -0.457561 0.667562 6.191881 1.168079 0.107839 -5.597385 -2.645140 -2.322167 8.155741 0.000000 0.000000 0.000000 1.632982 -0.241754 1.766123 -2.518237 0.167302 -0.980992 5.696236 7.161590 8.467458 0.000000 0.000000 0.000000 5.408281 -0.211078 2.256712 -2.104892 1.013917 0.004773 -3.740913 7.149471 1.204374 9.025274 -3.028280 -21.061779 0.000000 0.000000 0.000000 -26.624306 -2.865177 -2.254716 -45.944422 -5.548563 -2.768614 -5.381437 -16.946341 1.313004 0.000000 0.000000 0.000000 24.576763 -3.034727 -3.271152 52.133484 2.439291 -3.985697 6.977944 21.383970 1.991459 0.000000 0.000000 0.000000 
0.005625 0.947280 -0.011454 -1.115454 -9.170557 -0.682258 -0.364364 0.654086 6.123930 1.208291 0.102344 -5.544880 -2.690864 -2.411329 8.104963 0.000000 0.000000 0.000000 1.636748 -0.217354 1.528772 -2.315990 0.175303 -0.574591 5.610047 7.048296 8.397549 0.000000 0.000000 0.000000 5.479285 -0.222128 2.371438 -2.096319 1.013138 0.127348 -3.683845 6.967296 1.083415 8.831013 -2.942711 -20.981967 0.000000 0.000000 0.000000 -26.690416 -2.768666 -2.289075 -45.963809 -5.809466 -2.673254 -5.343393 -17.088737 1.320162 0.000000 0.000000 0.000000 24.695716 -2.936845 -3.261893 51.880416 2.568863 -3.897691 7.059328 21.623135 2.025434 0.000000 0.000000 0.000000 
0.005430 0.947220 -0.012299 -1.160543 -8.915606 -0.647310 -0.301649 0.636661 6.014059 1.268221 0.098332 -5.545790 -2.795257 -2.587632 8.080597 0.000000 0.000000 0.000000 1.667032 -0.212569 1.468421 -2.204800 0.166566 -0.573417 5.502153 6.845373 8.402024 0.000000 0.000000 0.000000 5.444769 -0.218524 2.323533 -2.021869 0.981585 0.311188 -3.697495 6.898398 1.062898 8.776594 -2.911687 -20.932741 0.000000 0.000000 0.000000 -26.722591 -2.849388 -2.274295 -46.021524 -6.129734 -2.545544 -5.202854 -17.319663 1.314517 0.000000 0.000000 0.000000 24.821505 -3.032292 -3.307763 51.726553 2.792505 -3.800547 6.895556 21.767004 2.016150 0.000000 0.000000 0.000000 
0.005269 0.947071 -0.013155 -1.209029 -8.763332 -0.618809 -0.200052 0.624122 5.956385 1.242193 0.103721 -5.607402 -2.859385 -2.702013 8.050643 0.000000 0.000000 0.000000 1.661704 -0.202879 1.377420 -2.041534 0.155732 -0.521952 5.431203 6.729158 8.379958 0.000000 0.000000 0.000000 5.487282 -0.220433 2.327680 -2.030981 0.988306 0.406117 -3.687944 6.818337 0.964606 8.673901 -2.881893 -20.751213 0.000000 0.000000 0.000000 -26.770330 -2.741262 -2.352905 -46.104400 -6.341871 -2.462279 -5.350945 -17.346249 1.337510 0.000000 0.000000 0.000000 24.771352 -3.033902 -3.305325 51.809421 2.957056 -3.726122 6.748321 21.827543 1.996320 0.000000 0.000000 0.000000 
0.005185 0.947066 -0.014039 -1.259460 -8.459090 -0.662704 -0.114889 0.611301 5.897929 1.271426 0.099750 -5.562395 -2.990850 -2.922891 8.027679 0.000000 0.000000 0.000000 1.709820 -0.204621 1.377776 -1.959438 0.152325 -0.473967 5.302952 6.486777 8.385400 0.000000 0.000000 0.000000 5.501364 -0.229787 2.437648 -1.960057 0.956906 0.535308 -3.810085 6.906793 0.803701 8.723244 -2.881970 -20.696191 0.000000 0.000000 0.000000 -26.786260 -2.905157 -2.368965 -46.195893 -6.449011 -2.379127 -5.547387 -17.375342 1.359437 0.000000 0.000000 0.000000 24.836603 -3.198075 -3.325308 51.704569 3.130588 -3.654313 6.663349 21.781646 1.987010 0.000000 0.000000 0.000000 
0.005171 0.947253 -0.014944 -1.260092 -8.270765 -0.705244 -0.077622 0.601768 5.839275 1.258963 0.098761 -5.518577 -3.089422 -3.059513 8.091962 0.000000 0.000000 0.000000 1.706223 -0.220825 1.536823 -1.911266 0.132730 -0.754950 5.273622 6.338577 8.537195 0.000000 0.000000 0.000000 5.505380 -0.239673 2.555942 -1.990909 0.974178 0.639097 -3.924049 6.975614 0.619863 8.826258 -2.905725 -20.727692 0.000000 0.000000 0.000000 -26.642351 -2.924390 -2.421199 -46.381551 -6.487530 -2.340389 -5.703393 -17.405419 1.377391 0.000000 0.000000 0.000000 24.871012 -3.377740 -3.377493 51.851030 3.245400 -3.615146 6.435170 21.694542 1.945861 0.000000 0.000000 0.000000 
0.005142 0.947394 -0.015896 -1.312369 -8.016638 -0.779607 -0.008569 0.592562 5.801865 1.305112 0.092430 -5.453748 -3.205888 -3.240448 8.110796 0.000000 0.000000 0.000000 1.694202 -0.234844 1.680153 -1.735026 0.108880 -0.924295 5.211739 6.144901 8.668690 0.000000 0.000000 0.000000 5.656124 -0.254907 2.705796 -1.985029 0.968683 0.546884 -4.134134 7.176596 0.608153 9.026252 -2.965567 -20.787745 0.000000 0.000000 0.000000 -26.299942 -3.070913 -2.422623 -46.642131 -6.479802 -2.324410 -6.238783 -17.565119 1.458399 0.000000 0.000000 0.000000 24.885249 -3.515255 -3.339346 52.024694 3.388663 -3.597686 6.542442 21.428733 1.952832 0.000000 0.000000 0.000000 
0.005104 0.947685 -0.016951 -1.280757 -7.693906 -0.771773 0.038497 0.589821 5.820109 1.241342 0.110225 -5.700537 -3.410550 -3.492535 8.330396 0.000000 0.000000 0.000000 1.567058 -0.245450 1.838845 -1.505582 0.069806 -1.309468 5.147679 5.896199 8.888114 0.000000 0.000000 0.000000 5.613498 -0.257669 2.736606 -1.839262 0.894263 0.430744 -4.362655 7.229318 0.580206 9.107088 -2.986745 -20.753757 0.000000 0.000000 0.000000 -26.207980 -3.042657 -2.523438 -46.695592 -6.192055 -2.407554 -6.720111 -17.807898 1.542898 0.000000 0.000000 0.000000 24.935718 -3.590520 -3.303341 52.005075 3.324268 -3.645774 6.743290 21.238032 1.977618 0.000000 0.000000 0.000000 
0.005022 0.947875 -0.018141 -1.219892 -7.229997 -0.654162 0.155218 0.570774 5.727969 1.022240 0.141793 -6.014135 -3.691711 -3.854436 8.576085 0.000000 0.000000 0.000000 1.504619 -0.244609 1.853649 -1.420073 0.046221 -1.652317 4.990580 5.522091 9.035360 0.000000 0.000000 0.000000 5.650908 -0.260851 2.724082 -1.862667 0.903306 0.340811 -4.537591 7.106671 0.537445 9.301943 -3.064062 -20.818411 0.000000 0.000000 0.000000 -26.014342 -3.027048 -2.560577 -46.719687 -6.090578 -2.429982 -7.231528 -18.004644 1.632953 0.000000 0.000000 0.000000 24.770377 -3.728822 -3.325047 52.196377 3.278605 -3.675948 7.049533 20.997293 2.009220 0.000000 0.000000 0.000000 
0.004900 0.948088 -0.019440 -1.175517 -6.956022 -0.641755 0.269749 0.574102 5.835188 0.814552 0.176653 -6.445936 -3.904231 -4.086044 8.863804 0.000000 0.000000 0.000000 1.401800 -0.254857 1.998933 -1.254019 0.013454 -2.059112 4.938585 5.311524 9.239032 0.000000 0.000000 0.000000 5.654880 -0.256432 2.662009 -1.877302 0.909727 0.319305 -4.699390 7.296744 0.507097 9.496210 -3.137347 -20.786968 0.000000 0.000000 0.000000 -25.731372 -3.150297 -2.573878 -46.842345 -5.799330 -2.515346 -7.590504 -18.178572 1.692228 0.000000 0.000000 0.000000 24.841962 -3.997671 -3.381320 52.338741 3.154513 -3.761641 7.223576 20.932003 2.046023 0.000000 0.000000 0.000000 
0.004777 0.948274 -0.020783 -1.166718 -6.801534 -0.627369 0.143192 0.573650 5.782215 1.079745 0.165915 -6.573388 -3.985729 -4.165300 8.983943 0.000000 0.000000 0.000000 1.303055 -0.243202 1.931405 -1.038028 -0.004817 -2.101568 4.905576 5.185115 9.357878 0.000000 0.000000 0.000000 5.812140 -0.263592 2.695103 -1.982623 0.960137 0.277336 -4.885182 7.352770 0.536245 9.704646 -3.209644 -20.924126 0.000000 0.000000 0.000000 -25.563024 -3.265374 -2.539565 -46.707444 -5.638332 -2.556674 -8.196822 -18.233751 1.786868 0.000000 0.000000 0.000000 24.742080 -4.059427 -3.352638 52.659844 3.154206 -3.792399 7.431586 20.801341 2.073429 0.000000 0.000000 0.000000 
0.004702 0.948176 -0.022062 -1.123502 -6.633725 -0.486766 0.154862 0.559198 5.661688 1.022302 0.182158 -6.826588 -4.091454 -4.285690 9.103892 0.000000 0.000000 0.000000 1.229097 -0.216269 1.697747 -0.935692 -0.011951 -2.091420 4.822248 5.040050 9.347646 0.000000 0.000000 0.000000 5.933759 -0.250946 2.488011 -2.027048 0.983195 0.375164 -5.081497 7.466548 0.523109 9.780864 -3.264974 -20.706589 0.000000 0.000000 0.000000 -25.310120 -3.416351 -2.498359 -46.871680 -5.350736 -2.655418 -8.509651 -18.459878 1.849102 0.000000 0.000000 0.000000 24.558195 -4.114320 -3.291320 53.069798 3.098749 -3.848519 7.749156 20.757782 2.132063 0.000000 0.000000 0.000000 
0.004690 0.948162 -0.023201 -1.095831 -6.510814 -0.364230 -0.010850 0.571792 5.713652 1.295617 0.191845 -7.327275 -4.185106 -4.354419 9.302480 0.000000 0.000000 0.000000 1.025692 -0.197161 1.597894 -0.589666 -0.046112 -2.274612 4.804577 4.948779 9.458544 0.000000 0.000000 0.000000 6.006732 -0.243910 2.361092 -2.171671 1.050695 0.232970 -5.125817 7.557753 0.881707 9.887215 -3.286825 -20.884869 0.000000 0.000000 0.000000 -25.068379 -3.334432 -2.540518 -46.979142 -5.342792 -2.691683 -8.868187 -18.712591 1.928818 0.000000 0.000000 0.000000 24.566645 -4.243762 -3.314293 53.089151 3.361398 -3.780758 8.118398 20.467376 2.167428 0.000000 0.000000 0.000000 
0.004870 0.947795 -0.024087 -1.021199 -6.525747 -0.324535 -0.197470 0.596429 5.855216 1.467813 0.206736 -7.777355 -4.199152 -4.347402 9.382016 0.000000 0.000000 0.000000 0.900737 -0.191189 1.594722 -0.521040 -0.059473 -2.469498 4.800132 4.970108 9.408190 0.000000 0.000000 0.000000 6.087940 -0.243563 2.329684 -2.280132 1.101014 0.113811 -5.315181 7.746947 1.128239 10.017556 -3.324189 -20.999090 0.000000 0.000000 0.000000 -25.060005 -3.569189 -2.462672 -46.856579 -5.266598 -2.711424 -8.938552 -18.823825 1.947122 0.000000 0.000000 0.000000 24.602315 -4.080706 -3.141870 53.093636 3.406670 -3.805568 8.239631 20.587140 2.212250 0.000000 0.000000 0.000000 
0.005374 0.947280 -0.024581 -1.020717 -6.263698 -0.177350 -0.354991 0.617685 5.994472 1.731347 0.230635 -8.430509 -4.343570 -4.538901 9.469103 0.000000 0.000000 0.000000 0.700012 -0.157705 1.344952 -0.175874 -0.078887 -2.328765 4.640661 4.774939 9.251558 0.000000 0.000000 0.000000 6.136588 -0.217799 2.000093 -2.332824 1.124075 0.009373 -5.397671 7.747431 1.488308 10.124206 -3.403067 -20.877093 0.000000 0.000000 0.000000 -24.889929 -3.775266 -2.344732 -47.060149 -4.998750 -2.851178 -9.171991 -19.282348 2.031098 0.000000 0.000000 0.000000 24.439177 -3.976710 -3.009988 53.018471 3.391116 -3.846929 8.948339 20.789381 2.366096 0.000000 0.000000 0.000000 
0.006361 0.946462 -0.024453 -1.058410 -6.146683 -0.268572 -0.636427 0.660861 6.256725 2.210174 0.227723 -8.731074 -4.345187 -4.624230 9.260226 0.000000 0.000000 0.000000 0.505500 -0.155076 1.407951 0.144700 -0.098641 -2.223163 4.533480 4.725981 9.004722 0.000000 0.000000 0.000000 6.403891 -0.200613 1.789634 -2.600393 1.258605 0.227438 -5.493818 7.620293 1.495700 9.899025 -3.301166 -20.774633 0.000000 0.000000 0.000000 -24.707953 -4.010691 -2.166895 -47.285455 -5.093085 -2.843638 -8.951232 -18.988216 1.967014 0.000000 0.000000 0.000000 24.258487 -3.497527 -2.714456 52.940510 3.289877 -3.879867 9.176280 20.774443 2.397061 0.000000 0.000000 0.000000 
0.007940 0.945633 -0.023364 -1.159656 -5.958033 -0.284296 -0.888610 0.684181 6.349658 2.689669 0.210679 -8.772445 -4.336889 -4.752001 8.906810 0.000000 0.000000 0.000000 0.413939 -0.132546 1.216700 0.335405 -0.093622 -1.677711 4.340613 4.595484 8.612182 0.000000 0.000000 0.000000 6.594264 -0.168263 1.427295 -2.709089 1.313846 0.337230 -5.442618 7.675118 1.663468 9.735164 -3.354591 -19.950187 0.000000 0.000000 0.000000 -24.784262 -4.251704 -2.080372 -47.411104 -4.967623 -2.896435 -8.899749 -18.715037 1.927963 0.000000 0.000000 0.000000 24.228237 -3.752370 -2.819949 52.844785 3.336459 -3.878094 9.335330 20.604831 2.408829 0.000000 0.000000 0.000000 
0.010068 0.945100 -0.020951 -1.264977 -5.722179 -0.253980 -1.121704 0.708230 6.455757 3.073187 0.196716 -8.787995 -4.371947 -4.923967 8.620909 0.000000 0.000000 0.000000 0.189520 -0.091604 0.886974 0.697855 -0.094131 -0.819272 4.132632 4.417936 8.247202 0.000000 0.000000 0.000000 6.679252 -0.132667 1.044565 -2.657177 1.293298 0.578577 -5.382835 7.617437 1.506034 9.709207 -3.405010 -19.538441 0.000000 0.000000 0.000000 -24.593070 -4.174014 -2.126338 -47.576798 -4.744842 -2.980667 -9.038307 -18.427513 1.916333 0.000000 0.000000 0.000000 24.225743 -3.839579 -2.857459 52.512112 3.118410 -3.941315 9.449289 20.731270 2.446682 0.000000 0.000000 0.000000 
0.012400 0.944240 -0.017093 -1.415658 -4.958142 -0.388461 -1.043500 0.760210 7.019231 3.053581 0.226651 -9.215049 -4.704251 -5.567268 8.377715 0.000000 0.000000 0.000000 0.425344 -0.034600 0.219231 0.373962 0.011483 1.242434 3.515460 3.738217 7.350497 0.000000 0.000000 0.000000 6.603059 -0.097829 0.706618 -2.450397 1.195875 0.905932 -5.459475 7.306842 1.173245 10.044835 -3.769177 -18.536693 0.000000 0.000000 0.000000 -24.590066 -4.484764 -2.004828 -47.510290 -3.881283 -3.261406 -9.136118 -18.778899 1.961719 0.000000 0.000000 0.000000 24.699196 -4.219983 -3.096810 52.310116 2.709621 -4.094430 8.406740 21.126834 2.326260 0.000000 0.000000 0.000000 
0.014775 0.943325 -0.011955 -1.583472 -4.156493 -0.510828 -0.651717 0.783183 7.550634 2.507119 0.259568 -9.454261 -5.052837 -6.286666 8.056408 0.000000 0.000000 0.000000 0.570888 0.121146 -1.337978 0.284787 0.176309 5.028020 2.798503 2.881799 6.312891 0.000000 0.000000 0.000000 6.535414 -0.081792 0.550495 -2.185721 1.058364 0.541736 -5.467075 7.068344 1.345778 10.177618 -3.906855 -18.190865 0.000000 0.000000 0.000000 -24.106195 -4.055991 -2.221624 -47.090227 -3.416532 -3.421473 -10.958270 -19.288810 2.306910 0.000000 0.000000 0.000000 24.557807 -4.961953 -3.487155 52.686325 1.878476 -4.484639 8.194334 21.456793 2.346220 0.000000 0.000000 0.000000 
0.016903 0.941795 -0.006186 -1.584252 -3.075834 -0.848989 -0.481712 0.867028 8.595503 2.134704 0.311095 -10.185302 -5.567768 -7.258351 7.824531 0.000000 0.000000 0.000000 1.294217 0.401476 -3.929212 -1.470445 0.847752 12.013818 2.262602 3.316818 3.736889 0.000000 0.000000 0.000000 6.106391 -0.094020 0.755515 -2.014818 0.975461 0.895030 -5.482854 6.458209 1.297784 10.163000 -3.949222 -17.939783 0.000000 0.000000 0.000000 -23.849376 -4.055698 -2.171232 -46.798817 -3.168831 -3.492828 -10.854083 -18.986871 2.255782 0.000000 0.000000 0.000000 24.920638 -4.907838 -3.494685 52.902060 2.270597 -4.340238 7.115696 22.135446 2.240984 0.000000 0.000000 0.000000 
0.018500 0.940395 0.000244 -1.514801 -2.441135 -1.822926 0.041904 0.974650 10.216234 1.023311 0.350533 -10.505729 -5.923626 -8.022870 7.537619 0.000000 0.000000 0.000000 1.597629 0.804090 -7.330984 -2.511261 1.784013 21.726273 2.404295 4.455473 2.549464 0.000000 0.000000 0.000000 5.125111 -0.208067 2.386381 -1.389970 0.671466 -0.081015 -5.502875 6.808317 2.500961 10.138308 -3.766421 -18.687115 0.000000 0.000000 0.000000 -23.962782 -4.110367 -2.320127 -45.531401 -3.287472 -3.365924 -12.010196 -19.997805 2.554710 0.000000 0.000000 0.000000 25.274979 -5.041019 -3.361915 52.646003 3.300011 -4.086081 7.056904 22.784370 2.352354 0.000000 0.000000 0.000000 
0.019767 0.939798 0.008491 -1.939891 -0.874267 -2.647621 0.688206 0.930648 10.774150 0.904223 0.286106 -9.177631 -6.398314 -9.341221 6.600338 0.000000 0.000000 0.000000 2.200727 1.422286 -12.122691 -2.730532 2.599995 32.736130 3.511712 4.792202 6.329488 0.000000 0.000000 0.000000 4.597409 -0.323387 4.084838 -1.226674 0.598771 -0.364071 -4.773589 5.796264 3.527811 9.946015 -3.417582 -20.277584 0.000000 0.000000 0.000000 -25.081427 -4.660542 -2.027877 -43.997803 -4.615499 -2.824965 -11.838643 -20.408602 2.604517 0.000000 0.000000 0.000000 25.676633 -5.252518 -3.609078 52.004134 3.707249 -3.972544 7.647791 23.339095 2.529881 0.000000 0.000000 0.000000 
0.020505 0.939236 0.020922 -2.106046 0.503359 -2.803491 0.911680 0.966426 11.880405 1.092308 0.294591 -9.657114 -7.024063 -10.457526 6.548091 0.000000 0.000000 0.000000 2.101423 1.939879 -16.592617 -1.864953 2.149630 34.033794 4.157613 -1.345293 22.488274 0.000000 0.000000 0.000000 3.699603 -0.386061 5.343366 -0.206960 0.123682 -0.814626 -4.568745 4.737052 4.216833 9.550770 -3.080365 -21.241855 0.000000 0.000000 0.000000 -25.881390 -4.563675 -2.036107 -43.223820 -5.338174 -2.584207 -11.224110 -21.139795 2.610904 0.000000 0.000000 0.000000 24.364726 -4.846467 -3.362506 52.997377 3.806459 -3.958741 7.852702 23.140044 2.531189 0.000000 0.000000 0.000000 
0.020788 0.937195 0.038522 -2.419175 1.225213 -2.625162 1.183048 1.024888 13.318989 1.450281 0.325181 -10.630351 -7.246134 -11.117307 6.119694 0.000000 0.000000 0.000000 2.562354 2.407129 -20.048343 -1.276734 1.380766 25.447014 -2.180375 -13.711765 42.737327 0.000000 0.000000 0.000000 3.366560 -0.430668 6.108319 0.421786 -0.150921 -1.430038 -4.237756 4.466575 4.534269 9.057868 -2.741648 -21.611162 0.000000 0.000000 0.000000 -25.660962 -4.175493 -2.238827 -43.840337 -5.825630 -2.483422 -10.845408 -21.861750 2.624350 0.000000 0.000000 0.000000 23.254803 -5.160093 -3.453112 54.034786 3.273656 -4.209565 7.989247 23.019464 2.547629 0.000000 0.000000 0.000000 
0.020133 0.933777 0.061478 -2.772954 1.677758 -2.037165 0.950195 1.156528 14.881459 2.889325 0.373322 -11.944638 -7.157027 -11.437119 5.358957 0.000000 0.000000 0.000000 3.340242 2.752774 -21.912974 -0.548323 0.611361 13.124094 -12.110118 -22.936103 53.472472 0.000000 0.000000 0.000000 3.455875 -0.484930 6.644509 0.736067 -0.281093 -1.788507 -4.312487 4.074147 4.765194 9.714277 -2.890826 -22.925077 0.000000 0.000000 0.000000 -26.588637 -4.238142 -2.282192 -43.396999 -6.062619 -2.373820 -9.908267 -21.759415 2.451305 0.000000 0.000000 0.000000 23.486256 -5.376676 -3.636684 54.345616 3.279567 -4.233176 7.709656 22.710465 2.453900 0.000000 0.000000 0.000000 
0.018844 0.928089 0.090039 -3.144790 2.140215 -1.030231 0.720542 1.283466 16.372789 4.491585 0.456270 -13.266747 -6.884295 -11.725021 4.148271 0.000000 0.000000 0.000000 4.268440 3.074176 -23.289014 -0.402031 0.382274 8.295299 -0.307932 -8.671712 26.068023 0.000000 0.000000 0.000000 4.097310 -0.571791 7.006195 0.566869 -0.234971 -0.911924 -4.505438 3.267906 3.258628 9.630646 -2.730108 -23.559524 0.000000 0.000000 0.000000 -25.087377 -3.595275 -2.325153 -45.235941 -6.356193 -2.353946 -9.332001 -22.038035 2.371194 0.000000 0.000000 0.000000 23.146879 -5.556998 -3.905909 55.403524 3.097437 -4.158325 6.611100 21.718708 2.099933 0.000000 0.000000 0.000000 
0.016799 0.920820 0.125450 -3.249500 2.157868 -0.354721 0.686459 1.346819 17.144273 4.295277 0.184710 -9.187003 -3.493424 -9.756744 -3.104283 0.000000 0.000000 0.000000 5.015332 3.332967 -24.208254 -0.439447 0.433945 9.436931 2.466487 -1.645024 16.537522 0.000000 0.000000 0.000000 4.441685 -0.680337 7.883016 0.676148 -0.234291 -2.162895 -5.025215 3.192139 3.912634 10.865572 -3.376461 -23.719906 0.000000 0.000000 0.000000 -24.471121 -3.708839 -2.134979 -45.612864 -6.554184 -2.385509 -9.956870 -22.382774 2.537950 0.000000 0.000000 0.000000 24.759559 -5.591451 -4.057785 54.641107 3.047941 -4.252847 5.239326 21.898892 1.885750 0.000000 0.000000 0.000000 
0.014687 0.912844 0.169598 -3.551922 2.260194 0.589202 0.910196 1.330731 17.515327 4.031803 -0.127329 -4.361052 -0.963589 -7.517347 -8.375089 0.000000 0.000000 0.000000 6.186551 3.783376 -25.823896 -1.216663 0.860745 15.595571 3.386977 1.899080 12.038191 0.000000 0.000000 0.000000 5.183393 -0.730339 7.571565 0.607713 -0.260019 -0.758745 -5.370935 2.059985 2.293700 10.770204 -3.272049 -24.196482 0.000000 0.000000 0.000000 -24.533927 -2.210174 -2.739520 -46.037669 -5.879383 -2.629181 -8.955728 -21.889544 2.323978 0.000000 0.000000 0.000000 25.090988 -4.635327 -3.865920 54.453532 3.263231 -3.917525 3.215230 20.302108 1.341608 0.000000 0.000000 0.000000 
0.012847 0.907404 0.224454 -4.263221 2.317750 1.767808 1.524322 1.102996 15.862518 3.649023 -0.737381 5.135225 1.027565 -5.050945 -12.311071 0.000000 0.000000 0.000000 7.929224 4.292014 -26.866918 -2.035940 1.380100 21.793683 2.943374 3.022264 7.790867 0.000000 0.000000 0.000000 6.565016 -0.690364 5.802976 1.228520 -0.538157 -1.028099 -5.786743 2.177726 2.739443 9.407497 -2.503189 -24.476364 0.000000 0.000000 0.000000 -24.398764 -1.138306 -3.391733 -46.417807 -4.383083 -3.230766 -9.261049 -21.747918 2.359937 0.000000 0.000000 0.000000 24.440966 -4.757021 -3.799495 54.018842 3.113232 -3.972392 3.651672 19.404997 1.345926 0.000000 0.000000 0.000000 
0.011723 0.907943 0.286412 -5.308322 1.903983 1.281101 3.226603 0.519913 10.049745 2.244099 -1.773579 24.763191 -0.655854 -6.129249 -7.659928 0.000000 0.000000 0.000000 9.559064 4.137258 -23.887801 -1.678405 1.442206 25.007810 2.069807 3.486987 3.127370 0.000000 0.000000 0.000000 8.015908 -0.838194 6.335166 0.986306 -0.354130 -2.689193 -4.865111 3.028622 4.278433 8.713480 -2.048582 -25.101213 0.000000 0.000000 0.000000 -25.326762 -0.503757 -4.013464 -46.055107 -2.499179 -3.966732 -9.627126 -22.990027 2.562173 0.000000 0.000000 0.000000 22.263917 -5.713659 -3.988867 54.781857 3.164785 -4.087142 5.208717 19.373972 1.608622 0.000000 0.000000 0.000000 
0.012494 0.912605 0.348709 -6.102409 0.318005 0.169133 5.157597 -0.094807 -0.458840 -0.793312 -1.437113 45.445491 -5.005568 -4.831893 9.715344 0.000000 0.000000 0.000000 11.272987 3.432943 -18.347386 -2.278190 1.750098 25.070286 2.139164 5.263611 0.415502 0.000000 0.000000 0.000000 9.071731 -1.098574 8.240352 0.531673 -0.114196 -4.104093 -4.365032 5.797165 5.573256 9.267698 -2.128075 -25.285874 0.000000 0.000000 0.000000 -25.566457 -0.574608 -4.606122 -46.099149 -1.526906 -4.265728 -9.717601 -22.422998 2.438734 0.000000 0.000000 0.000000 21.964167 -5.156841 -3.089733 53.541838 5.125788 -3.402042 5.674815 19.763538 1.782076 0.000000 0.000000 0.000000 
0.015863 0.918261 0.410363 -5.578228 -1.835474 -0.830323 5.734012 -0.458665 -10.627081 -2.274425 -0.190007 54.576618 -5.944032 -2.186889 18.810527 0.000000 0.000000 0.000000 10.805537 1.984166 -11.202678 -2.824282 1.839215 21.884249 2.698355 8.328500 -1.739202 0.000000 0.000000 0.000000 8.156662 -1.169060 10.076844 -0.268112 0.234740 -5.311001 -3.462045 8.663445 7.044216 9.514688 -2.331124 -24.028783 0.000000 0.000000 0.000000 -25.640326 -1.849870 -4.351693 -45.403082 -0.577399 -4.495120 -9.655188 -22.379819 2.370187 0.000000 0.000000 0.000000 21.794283 -4.708603 -2.333852 53.055453 6.808886 -2.934146 5.396801 22.361033 2.104031 0.000000 0.000000 0.000000 
0.021710 0.924119 0.473092 -4.595779 -4.441903 -1.904379 6.012616 -0.614083 -19.261070 -2.944465 0.964997 50.672716 -0.871319 1.194321 7.116310 0.000000 0.000000 0.000000 9.405320 0.435495 -3.460250 -4.096479 1.926937 17.464993 3.831691 11.937759 -2.208254 0.000000 0.000000 0.000000 7.135472 -1.107102 11.117775 -1.042766 0.524850 -4.989801 -2.968361 12.371152 6.326597 10.768582 -2.764441 -23.817470 0.000000 0.000000 0.000000 -25.276159 -2.961899 -4.439060 -44.735164 1.548622 -4.899818 -10.160877 -21.441279 2.260453 0.000000 0.000000 0.000000 21.895853 -5.799512 -2.422229 51.294016 9.228800 -1.986278 6.408397 23.698030 2.551701 0.000000 0.000000 0.000000 
0.029608 0.923386 0.537474 -3.699907 -7.131711 -2.122730 6.828706 -0.370003 -24.821030 -3.428439 1.339157 38.234323 1.456596 3.052990 -0.016448 0.000000 0.000000 0.000000 7.228553 -0.576941 2.593796 -5.002137 1.877619 14.222814 4.872655 15.407987 -2.692363 0.000000 0.000000 0.000000 6.807381 -1.014145 10.968908 -2.170890 0.982876 -4.167913 -2.708079 14.496733 5.620110 10.639158 -2.761418 -22.974456 0.000000 0.000000 0.000000 -24.710925 -1.982143 -5.078004 -44.320850 3.767940 -5.586466 -11.783553 -21.108995 2.482096 0.000000 0.000000 0.000000 20.910266 -5.672716 -2.198445 51.220386 10.379196 -1.407386 6.645955 28.137362 3.272504 0.000000 0.000000 0.000000 
0.039302 0.916641 0.603442 -3.454532 -10.978698 -2.215703 8.201047 0.283783 -25.908464 -0.669336 -0.026645 15.703612 -1.390452 2.460481 16.535427 0.000000 0.000000 0.000000 5.725170 -1.279758 8.510067 -7.402899 2.015341 10.815404 6.096579 19.364853 -3.092714 0.000000 0.000000 0.000000 6.728839 -0.908996 10.490893 -3.514508 1.556649 -3.537389 -2.149796 15.828102 5.400109 10.564331 -2.856117 -22.730966 0.000000 0.000000 0.000000 -24.326988 -0.202732 -5.731628 -44.255633 4.859790 -6.051917 -11.544069 -19.556722 2.281565 0.000000 0.000000 0.000000 20.602478 -4.874369 -1.932257 51.004960 12.380651 -0.505929 6.480318 31.377261 3.662628 0.000000 0.000000 0.000000 
0.050373 0.905092 0.671832 -3.373943 -13.975782 -1.501976 9.424332 0.919441 -26.815505 3.804504 -0.353342 -2.110580 -7.198461 -0.551236 33.125110 0.000000 0.000000 0.000000 3.619862 -1.354749 12.036001 -8.090267 2.204439 11.109060 5.532256 19.651820 -4.641733 0.000000 0.000000 0.000000 6.239734 -0.790811 9.686153 -3.646153 1.575469 -3.667156 -1.843034 17.217855 5.609870 9.931511 -2.591986 -22.421274 0.000000 0.000000 0.000000 -24.230794 1.263305 -6.398523 -44.286809 5.303725 -6.298978 -11.240963 -18.925887 2.177312 0.000000 0.000000 0.000000 20.555761 -4.982331 -2.066740 50.714511 13.213627 -0.166938 8.554875 34.285651 4.719750 0.000000 0.000000 0.000000 
0.062189 0.894385 0.743704 -2.925421 -16.512801 -1.658228 11.050956 1.535670 -25.460234 4.183029 0.038396 -7.926958 -7.874314 -0.790005 35.804429 0.000000 0.000000 0.000000 0.867271 -1.045307 15.436260 -8.764729 2.680199 13.136047 5.950824 19.100528 -3.412782 0.000000 0.000000 0.000000 5.673445 -0.682745 9.086272 -4.195414 1.802562 -3.573687 -0.948585 17.845807 5.476694 8.763365 -2.502561 -19.873370 0.000000 0.000000 0.000000 -26.636106 0.779260 -6.468243 -41.063680 6.679307 -6.103515 -10.930498 -17.089444 1.969908 0.000000 0.000000 0.000000 21.318442 -4.620758 -2.113652 49.620299 12.413879 -0.556653 11.557289 37.236197 6.128691 0.000000 0.000000 0.000000 
0.074959 0.888926 0.819773 -2.155114 -17.710369 -1.904648 10.785426 1.634433 -26.044432 3.013215 -0.194773 -3.686465 -8.915452 -1.971928 36.046332 0.000000 0.000000 0.000000 -1.377953 -0.591773 16.815942 -9.221171 3.901743 19.098656 6.466407 14.357083 1.601230 0.000000 0.000000 0.000000 5.652076 -0.574375 7.590667 -4.307743 1.924850 -2.309086 -2.194903 17.343632 5.284455 9.170507 -2.718002 -20.515485 0.000000 0.000000 0.000000 -27.278249 0.127703 -5.945110 -40.197217 5.985295 -5.773954 -9.431148 -16.263455 1.702143 0.000000 0.000000 0.000000 22.819006 -5.099090 -2.682593 48.482042 12.159437 -0.731007 14.432844 37.679406 7.083359 0.000000 0.000000 0.000000 
0.088990 0.888490 0.897596 -0.631231 -18.374775 -2.181034 8.506229 1.061188 -26.470082 2.328039 -0.392794 1.854361 -8.649887 -2.645656 33.794148 0.000000 0.000000 0.000000 -5.297466 0.268454 16.392935 -7.934933 5.012143 26.303790 9.062279 12.120790 9.862615 0.000000 0.000000 0.000000 3.109805 -0.407498 7.137842 -3.253803 1.373706 -3.135367 -1.659777 17.765558 6.242488 8.863574 -2.795859 -19.366024 0.000000 0.000000 0.000000 -27.171770 -1.148498 -5.032544 -41.136146 4.822160 -5.636827 -8.372766 -15.370229 1.487414 0.000000 0.000000 0.000000 23.035709 -6.298063 -3.477234 49.444991 8.887873 -2.064658 15.555873 37.233639 7.375236 0.000000 0.000000 0.000000 
0.103249 0.889992 0.969669 0.498196 -17.936721 -2.372591 6.382819 0.484717 -27.883790 -0.048618 -0.046947 10.832225 -5.056406 -1.515057 24.079537 0.000000 0.000000 0.000000 -6.570493 0.378100 11.248925 -7.993366 8.138727 38.690179 11.474226 9.861699 18.869152 0.000000 0.000000 0.000000 1.949151 -0.355248 7.566631 -3.221829 1.371322 -2.957809 -1.364076 14.584361 5.781067 8.240587 -2.553970 -20.619913 0.000000 0.000000 0.000000 -27.075747 -0.743838 -4.184018 -41.883991 1.580808 -4.973252 -8.962405 -15.754760 1.672322 0.000000 0.000000 0.000000 20.976508 -5.506003 -3.666673 50.598128 5.683063 -3.041306 16.276897 35.403105 6.826895 0.000000 0.000000 0.000000 
0.116062 0.891337 1.030584 1.431211 -17.759331 -3.182592 4.046741 -0.268035 -26.194942 -1.129535 0.351284 15.133878 -3.453693 -1.459962 16.787016 0.000000 0.000000 0.000000 -6.010629 0.286318 3.215695 -6.106890 11.343460 52.588448 9.521340 4.947500 22.230959 0.000000 0.000000 0.000000 0.934243 -0.317246 9.226549 -2.625361 1.075590 -3.414599 -2.108173 12.684189 6.446822 7.863021 -2.382225 -21.802325 0.000000 0.000000 0.000000 -26.531698 -3.394882 -1.792798 -43.430950 -2.002594 -4.243566 -6.587286 -17.346675 1.547720 0.000000 0.000000 0.000000 22.111746 -4.460917 -3.619969 50.115222 4.149889 -3.651185 13.508480 33.491985 5.394786 0.000000 0.000000 0.000000 
0.126256 0.897964 1.081713 1.830815 -16.632671 -3.990891 2.076208 -0.888752 -23.602518 -1.858861 0.627341 17.230239 -2.974691 -1.900178 12.409907 0.000000 0.000000 0.000000 -3.720918 0.466155 -4.574601 -3.597626 11.856624 60.477247 3.970304 0.803205 13.168309 0.000000 0.000000 0.000000 0.451224 -0.305555 11.190653 -1.691082 0.667407 -3.284279 -2.670206 9.469592 6.037735 6.743792 -2.110067 -21.364816 0.000000 0.000000 0.000000 -26.026864 -4.697884 -0.060834 -43.233528 -6.677881 -2.899835 -6.203391 -20.182848 1.815211 0.000000 0.000000 0.000000 22.172579 -3.478576 -3.747816 50.061533 2.063364 -4.297007 12.495529 30.025751 4.269811 0.000000 0.000000 0.000000 
0.133792 0.907038 1.125817 1.089027 -15.919768 -4.747541 0.966172 -1.111640 -19.446820 -1.377275 0.437648 16.664710 -2.752764 -2.428008 9.404307 0.000000 0.000000 0.000000 -1.952036 0.867013 -9.243719 -1.513886 9.701837 59.233693 -0.397443 -1.075091 0.129609 0.000000 0.000000 0.000000 1.410308 -0.423696 12.673879 -1.197407 0.432500 -3.979522 -2.935375 6.629967 7.040058 5.869649 -1.802824 -22.494512 0.000000 0.000000 0.000000 -25.404720 -4.953974 1.041779 -43.513504 -10.528044 -1.962612 -4.840535 -23.557025 1.961608 0.000000 0.000000 0.000000 21.514050 -2.821746 -3.923606 50.283752 0.568653 -4.857419 11.508248 27.700692 3.503936 0.000000 0.000000 0.000000 
0.138864 0.919918 1.164213 0.186120 -16.324921 -4.512342 0.308480 -1.096279 -15.859454 -0.456209 0.130985 14.857397 -2.487024 -2.259254 8.741691 0.000000 0.000000 0.000000 -0.194873 1.301966 -12.250777 -1.505468 7.692497 51.001582 -2.733393 1.414127 -11.761209 0.000000 0.000000 0.000000 2.780770 -0.571970 13.183136 -1.268370 0.451099 -4.360422 -2.779137 5.461232 6.950749 6.407535 -2.218897 -22.803192 0.000000 0.000000 0.000000 -23.618263 -6.645580 2.540909 -44.142178 -12.562546 -1.377837 -4.682801 -27.750663 2.375512 0.000000 0.000000 0.000000 21.435227 -3.189153 -4.480650 50.555745 -1.173734 -5.505728 10.630234 25.922545 2.981008 0.000000 0.000000 0.000000 
0.141742 0.929181 1.197966 -0.879623 -16.461249 -4.435395 0.386733 -0.877560 -11.784642 -0.172577 -0.004588 11.983407 -2.376328 -2.351807 7.979364 0.000000 0.000000 0.000000 0.877485 1.425680 -12.585202 -1.870667 5.362332 39.591228 -2.285094 8.121158 -15.461753 0.000000 0.000000 0.000000 4.107929 -0.718585 13.504624 -1.323664 0.492486 -3.701994 -2.903201 4.349741 6.035897 5.543456 -2.105436 -20.472894 0.000000 0.000000 0.000000 -22.163677 -7.128426 3.050374 -44.744977 -14.899765 -0.494841 -3.214377 -30.879967 2.323548 0.000000 0.000000 0.000000 20.186203 -3.639924 -4.764960 51.394534 -2.216138 -5.934551 11.162116 25.114844 2.916668 0.000000 0.000000 0.000000 
0.142798 0.935934 1.227305 -0.527171 -16.208487 -4.632217 -1.185043 -0.812105 -8.211263 0.732050 -0.244333 9.185334 -2.421301 -2.511049 7.871424 0.000000 0.000000 0.000000 1.371853 1.434335 -12.373795 -2.996743 3.884836 29.499559 0.163270 11.279552 -10.601640 0.000000 0.000000 0.000000 3.831435 -0.670690 12.858554 -0.904059 0.288803 -4.439998 -3.542447 3.619162 6.413105 6.209925 -2.643234 -19.923783 0.000000 0.000000 0.000000 -22.289962 -7.663589 3.580558 -43.925009 -16.008997 -0.225527 -0.928561 -32.708447 1.869503 0.000000 0.000000 0.000000 20.813047 -3.317694 -4.857623 51.236841 -3.420843 -6.414195 10.455280 26.675769 2.930182 0.000000 0.000000 0.000000 
0.142156 0.939464 1.251872 -0.934466 -16.462424 -3.813760 -1.357202 -0.685267 -6.593923 1.063891 -0.305728 7.826411 -2.236625 -2.415042 7.242604 0.000000 0.000000 0.000000 2.576431 1.576778 -12.714153 -3.979989 3.040553 22.532639 3.566839 11.263365 -1.767169 0.000000 0.000000 0.000000 4.755819 -0.725494 11.863643 -1.546752 0.572873 -4.349416 -3.631996 3.533375 5.805649 5.793180 -2.631502 -17.975633 0.000000 0.000000 0.000000 -21.352415 -7.398472 3.438330 -44.373733 -16.990671 0.219437 -1.679272 -33.958970 2.200607 0.000000 0.000000 0.000000 21.700374 -3.374230 -5.157182 51.180222 -2.940034 -6.096077 9.915957 26.437331 2.758971 0.000000 0.000000 0.000000 
0.139884 0.941586 1.272300 -1.217346 -16.912525 -2.930789 -1.513463 -0.575084 -5.291911 1.452588 -0.364563 6.432868 -1.967839 -2.135779 6.686520 0.000000 0.000000 0.000000 2.757338 1.527341 -12.342256 -3.936488 2.246205 17.368394 6.500219 11.008108 5.580545 0.000000 0.000000 0.000000 4.833730 -0.665168 10.240071 -2.149952 0.861655 -3.643652 -2.711378 3.885900 5.678992 5.643596 -2.510081 -18.218063 0.000000 0.000000 0.000000 -22.490919 -7.567915 3.597561 -44.027773 -16.665724 0.076444 -1.340784 -34.999035 2.175916 0.000000 0.000000 0.000000 21.775509 -2.301424 -4.603467 51.087974 -2.051296 -5.680160 9.380114 27.713644 2.779933 0.000000 0.000000 0.000000 
0.136172 0.943216 1.289750 -1.221802 -15.918165 -2.444395 -1.607844 -0.487391 -4.352150 1.467246 -0.362323 5.763295 -2.399329 -2.983529 6.363281 0.000000 0.000000 0.000000 2.664865 1.308236 -10.962219 -3.885590 1.776975 14.179333 7.099171 9.467750 8.678340 0.000000 0.000000 0.000000 5.214875 -0.635904 8.887246 -2.307053 0.955502 -3.321472 -2.936848 3.847416 4.987754 6.161362 -2.879672 -16.982510 0.000000 0.000000 0.000000 -23.098845 -7.630687 3.452018 -43.445173 -15.456765 -0.266995 -3.400136 -34.930581 2.745928 0.000000 0.000000 0.000000 21.374276 -2.402246 -4.451421 52.645833 -0.317250 -5.120209 8.618799 28.820953 2.746236 0.000000 0.000000 0.000000 
0.131601 0.943016 1.305499 -1.333171 -15.307888 -2.137922 -1.308725 -0.401140 -3.652324 1.184141 -0.314850 5.835250 -2.577432 -3.566032 5.487336 0.000000 0.000000 0.000000 2.517227 1.057352 -9.282188 -3.258681 1.321573 11.535921 7.061466 8.335575 9.898722 0.000000 0.000000 0.000000 5.382006 -0.586630 7.800727 -2.543929 1.080538 -3.070638 -2.716466 3.816789 4.509857 6.186068 -3.037149 -15.489762 0.000000 0.000000 0.000000 -23.695846 -6.758306 2.841159 -44.075385 -13.825159 -0.776869 -4.166433 -34.295911 2.907256 0.000000 0.000000 0.000000 21.108032 -1.516921 -3.864153 52.358408 1.452075 -4.290249 8.934992 29.666666 2.920022 0.000000 0.000000 0.000000 
0.126453 0.943233 1.320884 -1.156125 -14.896084 -2.082362 -1.143619 -0.300841 -2.731784 0.708221 -0.228285 5.851686 -2.736548 -4.026811 4.984205 0.000000 0.000000 0.000000 2.529488 0.799201 -7.384637 -3.548235 1.198609 9.955044 6.711954 8.432723 8.900118 0.000000 0.000000 0.000000 5.448917 -0.505652 6.512715 -2.472096 1.038686 -3.397470 -3.009497 4.754596 4.922245 6.906365 -3.422540 -15.248747 0.000000 0.000000 0.000000 -23.752835 -6.755811 2.495389 -44.849445 -11.468561 -1.553061 -5.146747 -33.159215 3.016390 0.000000 0.000000 0.000000 21.149785 -1.572921 -3.586153 52.528054 3.149564 -3.682093 8.318014 30.489232 2.951100 0.000000 0.000000 0.000000 
0.121216 0.943688 1.336581 -1.096368 -14.411977 -2.020057 -1.430878 -0.212645 -1.794054 1.275902 -0.339474 5.911398 -2.868899 -4.437620 4.518006 0.000000 0.000000 0.000000 3.112465 0.543399 -5.337130 -4.608655 1.187713 8.191310 6.374914 8.372875 8.113566 0.000000 0.000000 0.000000 5.385864 -0.417069 5.279043 -2.425940 1.040120 -2.913596 -3.113684 5.305913 4.139934 7.028998 -3.470633 -14.686200 0.000000 0.000000 0.000000 -24.144797 -5.359958 1.323065 -45.212728 -8.629335 -2.430140 -7.431591 -31.722199 3.444702 0.000000 0.000000 0.000000 20.572267 -1.623636 -3.307744 52.728133 4.552745 -3.077879 8.041653 30.808821 2.974903 0.000000 0.000000 0.000000 
0.116589 0.943875 1.352412 -1.073125 -14.110097 -2.435545 -1.680703 -0.097256 -0.682343 1.777989 -0.452778 6.633423 -2.907324 -4.706056 3.977505 0.000000 0.000000 0.000000 3.448187 0.231266 -2.854872 -5.219454 1.106394 6.556076 6.155652 8.432511 7.466068 0.000000 0.000000 0.000000 5.809256 -0.342058 4.259031 -2.768488 1.216051 -2.536392 -3.065618 5.805538 3.825841 7.304882 -3.617478 -14.390552 0.000000 0.000000 0.000000 -24.699337 -4.820496 0.728137 -45.634363 -6.164623 -3.252212 -8.472477 -29.391645 3.391120 0.000000 0.000000 0.000000 20.523698 -1.920500 -3.288156 52.323691 5.236422 -2.774028 7.264834 31.267617 2.873021 0.000000 0.000000 0.000000 
0.112881 0.943699 1.367969 -0.939915 -13.689774 -2.481118 -1.707548 0.042521 0.536241 1.654385 -0.425364 6.308516 -3.081339 -5.177708 3.635959 0.000000 0.000000 0.000000 2.667874 -0.027046 -0.567342 -4.144096 0.738915 4.449324 6.008736 8.473747 7.057068 0.000000 0.000000 0.000000 5.881322 -0.234596 2.965218 -2.487132 1.098217 -2.321901 -3.545104 6.572160 3.136862 7.916013 -3.803281 -14.861120 0.000000 0.000000 0.000000 -24.417334 -3.992201 -0.164305 -46.468019 -3.643219 -4.064465 -9.379976 -26.085958 3.125197 0.000000 0.000000 0.000000 20.011297 -2.134839 -3.063843 52.565378 5.490091 -2.673397 6.789323 31.172128 2.823051 0.000000 0.000000 0.000000 
0.110185 0.943838 1.382152 -1.187028 -13.853154 -2.354821 -1.280097 0.097611 0.987546 1.272822 -0.367493 7.082807 -3.006059 -5.149834 3.333144 0.000000 0.000000 0.000000 2.869607 -0.141515 0.387706 -4.161375 0.724200 4.276881 6.032616 8.713665 6.812912 0.000000 0.000000 0.000000 6.324523 -0.079948 1.242724 -2.507186 1.131087 -1.711449 -3.521107 7.131216 2.332085 8.258712 -3.898486 -15.099453 0.000000 0.000000 0.000000 -25.370378 -2.019058 -1.659897 -46.101382 -0.303134 -5.120042 -10.394190 -24.678331 3.130349 0.000000 0.000000 0.000000 19.254222 -1.924177 -2.738202 53.095979 5.434415 -2.668847 6.066688 30.040741 2.557594 0.000000 0.000000 0.000000 
0.107902 0.943400 1.394519 -0.899809 -12.959586 -3.459576 -1.756751 0.343359 3.057382 1.741388 -0.461444 6.762400 -3.384951 -5.989429 3.123025 0.000000 0.000000 0.000000 2.007211 -0.338418 2.738336 -3.178297 0.558797 3.761866 5.607143 8.269087 6.296783 0.000000 0.000000 0.000000 6.106704 -0.052388 1.161442 -3.175915 1.427051 -2.305307 -2.719826 7.938393 2.984561 8.329624 -3.847927 -15.256052 0.000000 0.000000 0.000000 -24.982518 -3.182482 -1.245212 -46.758767 1.017547 -5.652589 -10.279204 -22.488731 2.778917 0.000000 0.000000 0.000000 18.826923 -3.829586 -3.449235 52.938683 5.539455 -2.720354 7.502273 30.083442 3.018025 0.000000 0.000000 0.000000 
0.106170 0.942533 1.404226 -1.294213 -12.174442 -3.460103 -1.140020 0.494937 4.398805 1.615449 -0.412152 5.606727 -3.719471 -6.847595 2.693149 0.000000 0.000000 0.000000 2.359502 -0.471865 3.859922 -3.004543 0.497686 3.217435 5.239948 7.750174 6.009730 0.000000 0.000000 0.000000 6.357718 0.033214 0.293329 -2.098035 0.927485 -2.383262 -3.712006 7.601939 3.124449 8.801794 -4.169689 -14.981118 0.000000 0.000000 0.000000 -24.189919 -0.936770 -2.571248 -47.400727 2.397258 -6.259247 -11.283823 -21.921346 2.884765 0.000000 0.000000 0.000000 19.069778 -2.340089 -2.594969 53.289544 5.480388 -2.800657 5.300385 29.745396 2.458275 0.000000 0.000000 0.000000 
0.104839 0.941400 1.410956 -1.128669 -11.513663 -3.612664 -1.360347 0.632202 5.487252 1.893414 -0.432400 4.616687 -3.966906 -7.483352 2.415209 0.000000 0.000000 0.000000 1.945757 -0.524945 4.670064 -2.496617 0.419275 2.941232 4.855648 7.367030 5.484184 0.000000 0.000000 0.000000 6.041179 0.084287 -0.276042 -2.561778 1.181569 -1.450765 -3.198853 8.043812 2.321287 8.960385 -4.342737 -14.063444 0.000000 0.000000 0.000000 -23.874397 -1.951396 -2.220289 -48.008293 2.815173 -6.371318 -11.102017 -21.007967 2.686948 0.000000 0.000000 0.000000 19.918801 -2.776545 -2.751491 52.732721 5.352042 -2.806086 4.761259 29.246592 2.324706 0.000000 0.000000 0.000000 
0.103983 0.941055 1.414991 -1.114062 -10.812228 -3.619077 -1.027337 0.737459 6.475973 1.535563 -0.326789 3.242947 -4.376477 -8.259590 2.540646 0.000000 0.000000 0.000000 1.767360 -0.549164 5.018227 -2.068192 0.370197 2.931423 4.546186 6.861566 5.312307 0.000000 0.000000 0.000000 5.908973 0.140795 -0.905535 -2.460327 1.135553 -1.503503 -3.208896 8.147489 2.303670 9.322097 -4.560881 -13.919226 0.000000 0.000000 0.000000 -23.034182 -1.665841 -2.411950 -48.169430 3.527162 -6.646758 -11.897612 -21.303740 2.851367 0.000000 0.000000 0.000000 20.072962 -3.159661 -2.864775 53.098553 4.395127 -3.252212 5.039772 29.041079 2.406089 0.000000 0.000000 0.000000 
0.103254 0.940899 1.416865 -1.040001 -9.769535 -3.298364 -0.819380 0.753831 6.753510 1.364539 -0.260560 2.152872 -4.908983 -9.205535 2.773918 0.000000 0.000000 0.000000 1.742551 -0.533316 4.788673 -1.886646 0.360777 3.087396 4.065812 5.990676 5.139071 0.000000 0.000000 0.000000 5.667202 0.207670 -1.756410 -2.271342 1.052265 -1.489106 -3.149644 7.917809 2.409742 9.400423 -4.459071 -14.572636 0.000000 0.000000 0.000000 -22.116706 -1.197102 -2.621724 -48.685634 3.779209 -6.831911 -13.210667 -21.702023 3.138896 0.000000 0.000000 0.000000 19.943785 -3.367959 -2.896458 53.625352 4.109925 -3.406681 5.029413 28.332381 2.354957 0.000000 0.000000 0.000000 
0.102897 0.941088 1.416863 -0.894285 -8.903532 -3.101679 -0.706051 0.730380 6.658973 1.150790 -0.213676 1.740072 -5.369472 -9.949460 3.079825 0.000000 0.000000 0.000000 1.665898 -0.516475 4.613069 -1.792705 0.352350 3.109882 3.702978 5.251156 5.118943 0.000000 0.000000 0.000000 5.521206 0.242003 -2.226098 -2.177674 1.016100 -1.355186 -3.248854 7.860784 2.427196 9.589611 -4.554237 -14.500746 0.000000 0.000000 0.000000 -21.459361 -1.620801 -2.410740 -48.968552 3.508420 -6.753305 -14.047983 -22.288938 3.365592 0.000000 0.000000 0.000000 19.562561 -3.564693 -2.867586 53.857176 3.402033 -3.728601 5.568979 28.206478 2.498054 0.000000 0.000000 0.000000 
0.102753 0.941280 1.415094 -0.616205 -8.146347 -2.651115 -0.928866 0.644980 5.875615 1.206220 -0.223921 1.826603 -5.713060 -10.479319 3.316876 0.000000 0.000000 0.000000 1.747970 -0.468457 4.019949 -2.240050 0.408962 3.122157 3.322441 4.515703 5.018860 0.000000 0.000000 0.000000 5.169342 0.257853 -2.631343 -1.937592 0.897766 -1.773148 -3.331282 7.854717 3.159527 9.347279 -4.297970 -14.975418 0.000000 0.000000 0.000000 -21.097130 -1.749655 -2.351920 -49.039939 2.830567 -6.543685 -14.885573 -22.758062 3.595396 0.000000 0.000000 0.000000 19.748608 -3.875338 -2.951198 53.763910 3.327534 -3.840539 5.631091 27.582449 2.482667 0.000000 0.000000 0.000000 
0.102595 0.941037 1.412053 -0.365201 -7.596134 -2.210111 -0.873649 0.571611 5.277328 0.801561 -0.155739 1.520960 -6.012372 -10.933172 3.530772 0.000000 0.000000 0.000000 1.594137 -0.351308 2.922141 -2.219402 0.460022 3.907487 2.964471 3.955178 4.715972 0.000000 0.000000 0.000000 5.174055 0.257259 -2.729854 -2.128739 0.988451 -1.869453 -3.643353 7.746870 3.541681 9.591577 -4.288445 -15.757589 0.000000 0.000000 0.000000 -20.712956 -2.223959 -2.084303 -49.247222 1.903745 -6.234076 -15.022245 -22.603183 3.591263 0.000000 0.000000 0.000000 19.862578 -3.981669 -2.957150 53.839728 3.418017 -3.845357 5.714361 27.620489 2.525395 0.000000 0.000000 0.000000 
0.102144 0.941635 1.408607 -0.189969 -7.458414 -1.979135 -0.818924 0.537360 4.995309 0.497249 -0.099527 1.095089 -6.200026 -11.023651 4.001337 0.000000 0.000000 0.000000 1.451704 -0.282820 2.311836 -2.149512 0.465319 4.122041 2.929866 3.782996 4.866095 0.000000 0.000000 0.000000 5.268507 0.223918 -2.396747 -2.439997 1.116879 -2.670558 -3.299031 7.994814 4.706884 9.219353 -4.073759 -15.771395 0.000000 0.000000 0.000000 -21.300501 -2.573949 -1.980535 -49.187167 1.817543 -6.265110 -13.850938 -23.382813 3.490779 0.000000 0.000000 0.000000 21.453052 -4.422561 -3.273177 52.381754 4.042522 -3.668540 5.202622 27.716605 2.445831 0.000000 0.000000 0.000000 
0.101132 0.942088 1.405725 -0.459834 -7.822213 -1.437487 -0.440783 0.454690 4.357328 0.403542 -0.082854 0.977124 -6.042175 -10.666341 4.084511 0.000000 0.000000 0.000000 1.879239 -0.223073 1.525281 -2.274436 0.481946 4.135532 3.135833 4.020565 5.169389 0.000000 0.000000 0.000000 5.275940 0.230380 -2.547227 -2.864774 1.346309 -1.266028 -2.917837 7.208926 3.804122 9.579506 -4.540816 -14.831939 0.000000 0.000000 0.000000 -21.693788 -1.590618 -2.338736 -49.076451 1.187084 -5.970159 -15.052769 -22.970252 3.705750 0.000000 0.000000 0.000000 20.625623 -3.757104 -3.085683 53.655193 5.487094 -2.945974 2.767917 26.388830 1.718732 0.000000 0.000000 0.000000 
0.099693 0.943366 1.403765 -0.104947 -7.018963 -1.755342 -1.034382 0.479009 4.416691 1.148747 -0.182933 1.025936 -6.478100 -11.155688 4.663506 0.000000 0.000000 0.000000 1.695710 -0.284046 2.195293 -2.306192 0.436016 3.375960 2.948952 3.375171 5.590347 0.000000 0.000000 0.000000 4.659954 0.191411 -2.263049 -2.589307 1.206630 -1.835559 -2.648465 6.595773 4.306263 8.791991 -4.170374 -14.397299 0.000000 0.000000 0.000000 -21.796754 -2.460937 -1.758132 -49.107016 1.486775 -6.155756 -14.390841 -22.852911 3.580376 0.000000 0.000000 0.000000 20.699339 -2.700013 -2.559668 53.483465 5.454081 -3.004574 1.988951 25.334714 1.462025 0.000000 0.000000 0.000000 
