HIERARCHY
ROOT Hips
{
	OFFSET -0.001795 -0.223333 0.028219
	CHANNELS 6 Xposition Yposition Zposition Zrotation Yrotation Xrotation 
	JOINT LeftUpLeg
	{
		OFFSET 0.069520 -0.091406 -0.006815
		CHANNELS 3 Zrotation Yrotation Xrotation
		JOINT LeftLeg
		{
			OFFSET 0.034277 -0.375199 -0.004496
			CHANNELS 3 Zrotation Yrotation Xrotation
			JOINT LeftFoot
			{
				OFFSET -0.013596 -0.397961 -0.043693
				CHANNELS 3 Zrotation Yrotation Xrotation
				JOINT LeftToe
				{
					OFFSET 0.026358 -0.055791 0.119288
					CHANNELS 3 Zrotation Yrotation Xrotation
					End Site
					{
						OFFSET 0.000000 0.000000 0.000000
					}
				}
			}
		}
	}
	JOINT RightUpLeg
	{
		OFFSET -0.067670 -0.090522 -0.004320
		CHANNELS 3 Zrotation Yrotation Xrotation
		JOINT RightLeg
		{
			OFFSET -0.038290 -0.382569 -0.008850
			CHANNELS 3 Zrotation Yrotation Xrotation
			JOINT RightFoot
			{
				OFFSET 0.015774 -0.398415 -0.042312
				CHANNELS 3 Zrotation Yrotation Xrotation
				JOINT RightToe
				{
					OFFSET -0.025372 -0.048144 0.123348
					CHANNELS 3 Zrotation Yrotation Xrotation
					End Site
					{
						OFFSET 0.000000 0.000000 0.000000
					}
				}
			}
		}
	}
	JOINT Spine
	{
		OFFSET -0.002533 0.108963 -0.026696
		CHANNELS 3 Zrotation Yrotation Xrotation
		JOINT Spine1
		{
			OFFSET 0.005487 0.135180 0.001092
			CHANNELS 3 Zrotation Yrotation Xrotation
			JOINT Spine2
			{
				OFFSET 0.001457 0.052922 0.025425
				CHANNELS 3 Zrotation Yrotation Xrotation
				JOINT Neck
				{
					OFFSET -0.002778 0.213870 -0.042857
					CHANNELS 3 Zrotation Yrotation Xrotation
					JOINT Head
					{
						OFFSET 0.005152 0.064970 0.051349
						CHANNELS 3 Zrotation Yrotation Xrotation
						End Site
						{
							OFFSET 0.000000 0.000000 0.000000
						}
					}
				}
				JOINT LeftShoulder
				{
					OFFSET 0.078845 0.121749 -0.034090
					CHANNELS 3 Zrotation Yrotation Xrotation
					JOINT LeftArm
					{
						OFFSET 0.090977 0.030469 -0.008868
						CHANNELS 3 Zrotation Yrotation Xrotation
						JOINT LeftForeArm
						{
							OFFSET 0.259612 -0.012772 -0.027456
							CHANNELS 3 Zrotation Yrotation Xrotation
							JOINT LeftHand
							{
								OFFSET 0.249234 0.008986 -0.001171
								CHANNELS 3 Zrotation Yrotation Xrotation
								End Site
								{
									OFFSET 0.000000 0.000000 0.000000
								}
							}
						}
					}
				}
				JOINT RightShoulder
				{
					OFFSET -0.081759 0.118833 -0.038615
					CHANNELS 3 Zrotation Yrotation Xrotation
					JOINT RightArm
					{
						OFFSET -0.096012 0.032551 -0.009143
						CHANNELS 3 Zrotation Yrotation Xrotation
						JOINT RightForeArm
						{
							OFFSET -0.253742 -0.013329 -0.021401
							CHANNELS 3 Zrotation Yrotation Xrotation
							JOINT RightHand
							{
								OFFSET -0.255298 0.007772 -0.005559
								CHANNELS 3 Zrotation Yrotation Xrotation
								End Site
								{
									OFFSET 0.000000 0.000000 0.000000
								}
							}
						}
					}
				}
			}
		}
	}
}
MOTION
Frames: 116
Frame Time: 0.050000
0.000000 0.950949 0.000000 -0.310366 -5.652881 -0.049972 1.219641 0.333596 3.852022 -0.606222 0.164879 -3.232510 -2.279597 -2.064387 6.258808 0.000000 0.000000 0.000000 0.640912 -0.288082 2.689922 -0.358326 -0.054262 -2.069080 3.328141 3.111960 7.560910 0.000000 0.000000 0.000000 4.807836 -0.032041 0.018419 -3.090058 1.425467 -2.701456 -3.009785 6.259015 6.508319 8.173187 -3.029868 -18.761833 0.000000 0.000000 0.000000 -22.801138 -4.830324 -0.582506 -49.038223 -5.002137 -3.703452 -7.845212 -19.496690 1.952041 0.000000 0.000000 0.000000 21.654975 -1.957059 -2.035591 57.311717 5.582097 -3.309256 7.215155 22.698402 2.273183 0.000000 0.000000 0.000000 
-0.000048 0.950709 0.000526 -0.564245 -6.744258 0.376791 1.722856 0.353865 4.220308 -1.173806 0.259574 -4.755899 -2.427679 -2.373339 6.395240 0.000000 0.000000 0.000000 0.576694 -0.181485 1.635224 -0.031552 -0.049669 -1.308232 3.408002 3.413256 7.177777 0.000000 0.000000 0.000000 5.504435 0.024517 -0.688666 -3.315437 1.545718 -1.728982 -3.750436 7.323702 5.566208 9.498142 -3.479716 -19.996210 0.000000 0.000000 0.000000 -23.457107 -5.044736 -0.805325 -48.335057 -4.814677 -3.543681 -8.488446 -19.391667 2.014913 0.000000 0.000000 0.000000 21.331374 -2.777352 -2.316538 58.758869 5.074171 -3.519957 7.061393 23.137898 2.328406 0.000000 0.000000 0.000000 
-0.000055 0.950138 0.000825 -0.314732 -6.356210 0.465889 1.664772 0.333803 4.001958 -1.589535 0.280999 -4.249512 -2.501994 -2.819736 5.606272 0.000000 0.000000 0.000000 0.777580 -0.206106 1.778442 -0.684951 -0.007432 -1.562164 3.000811 2.783749 6.819371 0.000000 0.000000 0.000000 5.417978 0.034313 -0.831159 -3.008648 1.375333 -2.965838 -4.173872 7.304900 6.236044 8.942260 -3.349285 -18.924714 0.000000 0.000000 0.000000 -22.202238 -4.772227 -0.835862 -49.334481 -4.623664 -3.798101 -7.766041 -18.943270 1.850328 0.000000 0.000000 0.000000 21.947240 -2.267886 -1.992728 57.978772 4.655099 -3.791637 6.875675 22.772765 2.257922 0.000000 0.000000 0.000000 
-0.000070 0.949932 0.001051 -0.227371 -6.247778 0.381832 1.888947 0.371593 4.542593 -2.146133 0.345354 -5.142428 -3.177238 -3.822135 6.252115 0.000000 0.000000 0.000000 0.529306 -0.200362 1.850048 -0.213914 -0.042555 -1.500411 2.971782 2.696954 6.877972 0.000000 0.000000 0.000000 5.326708 0.054186 -1.040505 -2.883985 1.336103 -2.227216 -4.377165 7.420235 5.523731 9.413888 -3.494338 -19.370527 0.000000 0.000000 0.000000 -22.426237 -4.303489 -1.245927 -49.277678 -5.000913 -3.543619 -8.033668 -18.922862 1.873518 0.000000 0.000000 0.000000 21.624118 -2.602580 -2.113810 57.935956 4.559081 -3.759386 7.695776 22.708554 2.406906 0.000000 0.000000 0.000000 
0.000043 0.949947 0.001117 -0.199392 -6.012999 0.251169 1.761623 0.374136 4.527301 -1.932141 0.328508 -5.181680 -2.975974 -3.491995 6.090581 0.000000 0.000000 0.000000 0.458037 -0.207072 1.956901 -0.083803 -0.057390 -1.611373 2.843777 2.629659 6.569369 0.000000 0.000000 0.000000 5.289264 0.049458 -0.967816 -2.899727 1.347614 -2.110598 -4.326194 7.547384 5.305462 9.199730 -3.429821 -18.850081 0.000000 0.000000 0.000000 -22.164095 -4.490710 -1.194666 -49.222209 -5.233060 -3.411998 -8.167486 -19.060891 1.897734 0.000000 0.000000 0.000000 21.488805 -2.553174 -2.013231 57.931047 4.282255 -3.875580 7.730912 22.375664 2.377875 0.000000 0.000000 0.000000 
0.000205 0.949838 0.001228 -0.213028 -5.652022 0.101884 1.784939 0.388325 4.730709 -2.074495 0.341865 -5.371585 -3.156476 -3.819080 6.066180 0.000000 0.000000 0.000000 0.391931 -0.231990 2.247980 0.158290 -0.079262 -1.675624 2.923930 2.691681 6.815149 0.000000 0.000000 0.000000 5.323262 0.047410 -0.919737 -2.830083 1.311798 -2.442299 -4.302838 7.346978 5.737475 8.921741 -3.276277 -18.879189 0.000000 0.000000 0.000000 -22.703701 -4.464131 -1.254904 -48.828972 -5.474485 -3.307704 -8.175689 -19.709431 1.968453 0.000000 0.000000 0.000000 21.563682 -2.381015 -1.910961 57.874708 4.385875 -3.873316 7.543775 21.989588 2.298089 0.000000 0.000000 0.000000 
0.000414 0.949682 0.001303 -0.252882 -5.443753 -0.029654 1.739995 0.398779 4.844542 -1.944862 0.335645 -5.584096 -3.187037 -3.725530 6.362136 0.000000 0.000000 0.000000 0.447364 -0.244784 2.348393 0.136666 -0.075270 -1.612781 3.065676 3.070816 6.738253 0.000000 0.000000 0.000000 5.356950 0.037811 -0.788118 -2.918798 1.353687 -2.474832 -4.359901 7.186736 5.813340 8.998600 -3.266062 -19.224786 0.000000 0.000000 0.000000 -22.689423 -4.472111 -1.234888 -48.870190 -5.694438 -3.233792 -8.169909 -20.252849 2.022732 0.000000 0.000000 0.000000 21.431295 -2.280815 -1.852224 58.220158 4.408487 -3.879070 7.497095 22.059457 2.298451 0.000000 0.000000 0.000000 
0.000552 0.949611 0.001451 -0.240852 -4.892419 -0.047597 1.693060 0.396324 4.849902 -1.961539 0.331827 -5.469284 -3.433413 -4.287376 6.072630 0.000000 0.000000 0.000000 0.547347 -0.260508 2.444348 0.045204 -0.068190 -1.619086 2.951422 3.055254 6.442731 0.000000 0.000000 0.000000 5.206419 0.044953 -0.885594 -2.819053 1.310797 -2.548274 -4.414711 6.800393 6.023944 8.822143 -3.239470 -18.894267 0.000000 0.000000 0.000000 -22.954932 -4.732863 -1.081934 -48.593516 -6.048029 -3.092089 -8.223117 -20.826537 2.096900 0.000000 0.000000 0.000000 21.380855 -2.300810 -1.881112 58.225126 4.479398 -3.859353 7.648025 22.220718 2.343641 0.000000 0.000000 0.000000 
0.000522 0.949628 0.001641 -0.284482 -4.902427 -0.131278 1.666130 0.398894 4.860280 -1.846888 0.323360 -5.458265 -3.427827 -4.187642 6.261627 0.000000 0.000000 0.000000 0.534235 -0.272230 2.572741 0.129493 -0.078535 -1.709803 3.012097 3.182082 6.453321 0.000000 0.000000 0.000000 5.148947 0.043518 -0.854034 -2.757173 1.282345 -2.574167 -4.427708 6.576591 6.050857 8.641672 -3.203713 -18.637662 0.000000 0.000000 0.000000 -23.013184 -4.692725 -1.038668 -48.568681 -6.333294 -2.999082 -8.344586 -21.025020 2.148249 0.000000 0.000000 0.000000 21.113538 -2.225428 -1.882500 58.286346 4.504945 -3.836342 7.740469 22.713201 2.414432 0.000000 0.000000 0.000000 
0.000286 0.949446 0.001957 -0.328851 -4.951483 -0.178846 1.633601 0.397253 4.817192 -1.770721 0.314422 -5.293221 -3.467234 -4.359280 6.066237 0.000000 0.000000 0.000000 0.570183 -0.275499 2.588280 0.111847 -0.075506 -1.667825 2.961753 3.223193 6.198824 0.000000 0.000000 0.000000 5.136869 0.053156 -0.953245 -2.784782 1.295240 -2.543195 -4.408256 6.363679 6.153503 8.595961 -3.233793 -18.484062 0.000000 0.000000 0.000000 -22.898810 -4.741858 -0.913883 -48.528601 -6.658379 -2.902907 -8.621484 -21.373640 2.246197 0.000000 0.000000 0.000000 21.004201 -2.106064 -1.870656 58.224629 4.553980 -3.809625 7.983831 23.032613 2.490713 0.000000 0.000000 0.000000 
-0.000115 0.949453 0.002235 -0.337444 -5.192611 -0.229773 1.632544 0.409695 4.932814 -1.770582 0.313761 -5.215217 -3.425129 -4.344630 5.965900 0.000000 0.000000 0.000000 0.631363 -0.281726 2.624632 0.137676 -0.075551 -1.615136 3.038906 3.300664 6.312724 0.000000 0.000000 0.000000 5.087611 0.054194 -0.952328 -2.763486 1.283960 -2.535756 -4.422821 6.341616 6.148464 8.608846 -3.271816 -18.404904 0.000000 0.000000 0.000000 -23.022077 -4.846644 -0.821450 -48.373061 -6.839951 -2.830812 -8.871081 -21.453749 2.307399 0.000000 0.000000 0.000000 20.989840 -2.157550 -1.939213 58.079189 4.453267 -3.848847 8.295874 23.391299 2.590802 0.000000 0.000000 0.000000 
-0.000516 0.949414 0.002440 -0.374230 -5.439790 -0.200921 1.621091 0.407315 4.875609 -1.705769 0.303111 -4.915726 -3.411514 -4.442843 5.743142 0.000000 0.000000 0.000000 0.787842 -0.280376 2.529639 0.129380 -0.066938 -1.407606 3.050785 3.412434 6.139673 0.000000 0.000000 0.000000 5.098117 0.065120 -1.074595 -2.757199 1.282287 -2.363972 -4.389176 6.162040 6.007782 8.585722 -3.309146 -18.270646 0.000000 0.000000 0.000000 -23.164673 -4.799888 -0.774094 -48.279706 -6.966362 -2.782842 -8.896151 -21.464121 2.323812 0.000000 0.000000 0.000000 20.922139 -2.217833 -2.056244 57.956699 4.332515 -3.873109 8.415632 23.582165 2.623894 0.000000 0.000000 0.000000 
-0.000841 0.949526 0.002459 -0.408709 -5.618322 -0.189192 1.571934 0.404982 4.807768 -1.654579 0.293649 -4.648285 -3.292419 -4.291272 5.603985 0.000000 0.000000 0.000000 0.765941 -0.267665 2.416112 0.161378 -0.061233 -1.188534 3.151571 3.573752 6.213825 0.000000 0.000000 0.000000 5.108738 0.068058 -1.105373 -2.728882 1.267199 -2.408568 -4.273614 6.026413 6.079019 8.582840 -3.350558 -18.197275 0.000000 0.000000 0.000000 -23.322066 -4.895791 -0.649031 -48.176528 -7.110871 -2.746510 -9.021368 -21.262861 2.336969 0.000000 0.000000 0.000000 20.939701 -2.351825 -2.202318 57.713005 4.210737 -3.918507 8.492333 23.702694 2.643167 0.000000 0.000000 0.000000 
-0.001031 0.949679 0.002349 -0.506762 -5.738050 -0.142604 1.626185 0.392047 4.677442 -1.594157 0.283304 -4.397468 -3.110172 -3.997977 5.493143 0.000000 0.000000 0.000000 0.827282 -0.249244 2.198805 0.128446 -0.050533 -0.982860 3.262832 3.830331 6.184545 0.000000 0.000000 0.000000 5.125118 0.072564 -1.160966 -2.679534 1.244579 -2.357547 -4.168258 5.869807 6.033837 8.556206 -3.398757 -17.968125 0.000000 0.000000 0.000000 -23.520483 -4.900847 -0.591649 -48.180856 -7.282331 -2.692917 -8.947978 -21.055817 2.310192 0.000000 0.000000 0.000000 20.852051 -2.295501 -2.230016 57.523804 4.015001 -3.986018 8.479788 23.813839 2.641502 0.000000 0.000000 0.000000 
-0.001114 0.949802 0.002167 -0.534322 -5.848366 -0.081487 1.560186 0.378994 4.490912 -1.542302 0.272935 -4.125316 -2.957817 -3.763339 5.377264 0.000000 0.000000 0.000000 0.762655 -0.226654 2.004314 0.232171 -0.051428 -0.772283 3.284987 3.871034 6.183526 0.000000 0.000000 0.000000 5.245694 0.082960 -1.276136 -2.597895 1.205702 -2.389060 -4.145321 5.825396 6.134570 8.599859 -3.434833 -17.999134 0.000000 0.000000 0.000000 -23.638645 -4.861404 -0.584373 -48.197366 -7.381231 -2.673546 -8.824900 -20.842903 2.270251 0.000000 0.000000 0.000000 20.855933 -2.501099 -2.376257 57.285634 3.840253 -4.060357 8.385502 23.646074 2.596521 0.000000 0.000000 0.000000 
-0.001167 0.949945 0.001999 -0.545337 -6.101225 -0.065260 1.509914 0.377142 4.426027 -1.528823 0.267948 -3.934300 -2.728094 -3.375989 5.285395 0.000000 0.000000 0.000000 0.727226 -0.214688 1.903719 0.265620 -0.050140 -0.664284 3.398099 4.062526 6.240418 0.000000 0.000000 0.000000 5.288895 0.093329 -1.383679 -2.634146 1.222243 -2.292028 -3.974401 5.809249 6.167853 8.505575 -3.429367 -17.823545 0.000000 0.000000 0.000000 -23.745431 -4.723893 -0.612394 -48.295326 -7.331736 -2.717757 -8.568915 -20.894607 2.237462 0.000000 0.000000 0.000000 20.781469 -2.486868 -2.412100 57.105497 3.626192 -4.145597 8.184661 23.511466 2.530319 0.000000 0.000000 0.000000 
-0.001197 0.950078 0.001919 -0.544983 -6.216417 -0.048344 1.468911 0.375916 4.385108 -1.515803 0.264580 -3.824170 -2.663910 -3.248557 5.309631 0.000000 0.000000 0.000000 0.768608 -0.203367 1.769561 0.165157 -0.030528 -0.387469 3.331894 3.939164 6.185877 0.000000 0.000000 0.000000 5.371328 0.104464 -1.496838 -2.600478 1.207407 -2.214170 -3.966967 5.847904 6.241884 8.533350 -3.461630 -17.763253 0.000000 0.000000 0.000000 -23.752332 -4.624094 -0.659055 -48.457164 -7.320553 -2.741946 -8.405855 -20.886549 2.208940 0.000000 0.000000 0.000000 20.802610 -2.640913 -2.507025 56.899913 3.489616 -4.204025 8.226868 23.168328 2.494013 0.000000 0.000000 0.000000 
-0.001260 0.950339 0.001915 -0.497607 -6.451806 -0.076013 1.438477 0.383270 4.431983 -1.487578 0.263436 -3.854535 -2.569709 -3.061738 5.355878 0.000000 0.000000 0.000000 0.727238 -0.205416 1.813961 0.088090 -0.022333 -0.357383 3.374759 3.964731 6.257023 0.000000 0.000000 0.000000 5.414605 0.108439 -1.523642 -2.592424 1.202418 -2.201984 -3.934222 5.965466 6.317729 8.488590 -3.388693 -18.051095 0.000000 0.000000 0.000000 -23.854005 -4.392616 -0.795650 -48.563052 -7.261894 -2.779138 -8.042270 -20.865425 2.142307 0.000000 0.000000 0.000000 20.686420 -2.784415 -2.581444 56.937677 3.368064 -4.267107 8.100798 22.926741 2.440319 0.000000 0.000000 0.000000 
-0.001341 0.950495 0.001973 -0.501830 -6.491729 -0.066840 1.531973 0.375858 4.385010 -1.414204 0.254799 -3.765213 -2.614806 -3.149553 5.361818 0.000000 0.000000 0.000000 0.842249 -0.214817 1.851503 -0.071254 -0.010763 -0.425023 3.308031 3.800988 6.272803 0.000000 0.000000 0.000000 5.466213 0.114990 -1.589963 -2.604313 1.208509 -2.151462 -3.972278 5.964179 6.315430 8.524780 -3.383490 -18.224589 0.000000 0.000000 0.000000 -23.846606 -4.222643 -0.886753 -48.647747 -7.064753 -2.866808 -7.763372 -20.756970 2.082193 0.000000 0.000000 0.000000 20.746524 -2.865618 -2.638857 56.966865 3.086934 -4.400961 8.087785 22.734099 2.411755 0.000000 0.000000 0.000000 
-0.001421 0.950724 0.002055 -0.477584 -6.737031 -0.033562 1.504989 0.384052 4.445502 -1.399158 0.259019 -3.971034 -2.519491 -2.920439 5.505458 0.000000 0.000000 0.000000 0.811917 -0.212768 1.847114 -0.080334 -0.012578 -0.489090 3.398213 3.860774 6.450894 0.000000 0.000000 0.000000 5.480187 0.112653 -1.563381 -2.598171 1.200658 -2.316357 -3.972165 6.108039 6.458048 8.617423 -3.363674 -18.683534 0.000000 0.000000 0.000000 -23.851324 -4.048873 -0.981830 -48.831064 -6.915745 -2.951888 -7.382192 -20.468007 1.986845 0.000000 0.000000 0.000000 20.780945 -3.011616 -2.721217 57.052936 2.976244 -4.472494 8.062577 22.353547 2.361845 0.000000 0.000000 0.000000 
-0.001462 0.950763 0.002183 -0.461544 -6.901049 0.022216 1.502794 0.388935 4.487250 -1.418381 0.261494 -3.984982 -2.381550 -2.724826 5.363984 0.000000 0.000000 0.000000 0.894295 -0.225733 1.935550 -0.196726 -0.012324 -0.727678 3.375179 3.704582 6.584735 0.000000 0.000000 0.000000 5.474865 0.115282 -1.599572 -2.633460 1.213052 -2.437233 -3.947275 6.160561 6.500404 8.631781 -3.347729 -18.860271 0.000000 0.000000 0.000000 -23.840144 -3.956904 -1.016511 -48.893507 -6.780630 -3.017921 -7.023386 -20.120437 1.892448 0.000000 0.000000 0.000000 20.763333 -3.029493 -2.740699 57.237704 2.708156 -4.613231 8.008056 22.113909 2.321285 0.000000 0.000000 0.000000 
-0.001437 0.950749 0.002330 -0.460374 -7.227481 0.005666 1.472359 0.413616 4.717174 -1.412765 0.268461 -4.252887 -2.310923 -2.541914 5.528700 0.000000 0.000000 0.000000 0.860486 -0.234619 2.047177 -0.167430 -0.021414 -0.884518 3.465526 3.772827 6.733819 0.000000 0.000000 0.000000 5.507140 0.111145 -1.538488 -2.640341 1.213135 -2.469104 -3.914283 6.269741 6.384537 8.632937 -3.293474 -19.202897 0.000000 0.000000 0.000000 -23.797706 -3.755978 -1.111025 -49.147075 -6.483155 -3.151610 -6.842743 -19.926280 1.844223 0.000000 0.000000 0.000000 20.778912 -3.070561 -2.787177 57.299308 2.587171 -4.662061 8.099253 21.809534 2.295700 0.000000 0.000000 0.000000 
-0.001331 0.950650 0.002468 -0.453981 -7.410403 0.037268 1.457502 0.441089 4.996060 -1.439572 0.281160 -4.647403 -2.293854 -2.525125 5.520316 0.000000 0.000000 0.000000 0.870884 -0.252127 2.221193 -0.195596 -0.034846 -1.267392 3.566266 3.850518 6.922801 0.000000 0.000000 0.000000 5.472204 0.108191 -1.513499 -2.645676 1.212092 -2.562552 -3.847824 6.249157 6.344271 8.593277 -3.269422 -19.283151 0.000000 0.000000 0.000000 -23.848714 -3.596624 -1.167824 -49.279807 -6.441451 -3.184749 -6.589597 -19.709119 1.785226 0.000000 0.000000 0.000000 20.824614 -2.991536 -2.782633 57.367668 2.553429 -4.676007 7.998339 21.757429 2.265655 0.000000 0.000000 0.000000 
-0.001159 0.950470 0.002497 -0.456643 -7.597784 0.005570 1.455199 0.471720 5.307066 -1.405195 0.286759 -4.955526 -2.289696 -2.449454 5.718289 0.000000 0.000000 0.000000 0.865377 -0.265157 2.361884 -0.183554 -0.038935 -1.343326 3.627527 3.973139 6.910905 0.000000 0.000000 0.000000 5.461330 0.098756 -1.401817 -2.590886 1.185946 -2.550399 -3.897751 6.242955 6.190331 8.725400 -3.314759 -19.501213 0.000000 0.000000 0.000000 -23.987273 -3.477137 -1.230312 -49.356800 -6.299337 -3.239694 -6.404013 -19.661844 1.751231 0.000000 0.000000 0.000000 21.012942 -2.895048 -2.773969 57.407391 2.612537 -4.638105 7.772439 21.724261 2.216444 0.000000 0.000000 0.000000 
-0.000898 0.950278 0.002396 -0.504458 -7.648422 -0.024227 1.389912 0.494831 5.518063 -1.302155 0.281726 -5.078316 -2.321535 -2.541259 5.652382 0.000000 0.000000 0.000000 0.917757 -0.270014 2.383313 -0.200597 -0.041517 -1.439844 3.578314 3.878469 6.883195 0.000000 0.000000 0.000000 5.476067 0.095363 -1.355258 -2.567419 1.177584 -2.429988 -3.844079 6.216648 6.042735 8.759012 -3.334333 -19.507089 0.000000 0.000000 0.000000 -24.074127 -3.523132 -1.203049 -49.383672 -6.313105 -3.225331 -6.417204 -19.531542 1.742105 0.000000 0.000000 0.000000 21.101909 -2.824572 -2.760297 57.465973 2.736716 -4.569082 7.651573 21.624531 2.179613 0.000000 0.000000 0.000000 
-0.000549 0.950201 0.002144 -0.553758 -7.712067 -0.101883 1.296134 0.514251 5.668830 -1.194192 0.272244 -5.047396 -2.301360 -2.569450 5.498415 0.000000 0.000000 0.000000 0.907490 -0.268366 2.376131 -0.222892 -0.035951 -1.345957 3.659177 4.054142 6.876654 0.000000 0.000000 0.000000 5.500717 0.087017 -1.244185 -2.509942 1.152745 -2.348411 -3.849595 6.203224 5.967509 8.791356 -3.364292 -19.453889 0.000000 0.000000 0.000000 -24.217760 -3.468138 -1.242848 -49.358618 -6.341956 -3.206628 -6.578697 -19.578418 1.774109 0.000000 0.000000 0.000000 21.093272 -2.779014 -2.746074 57.603894 2.911429 -4.486646 7.454929 21.583778 2.138290 0.000000 0.000000 0.000000 
-0.000064 0.950209 0.001712 -0.543315 -7.638543 -0.214395 1.254776 0.521348 5.725202 -1.211197 0.272478 -5.010563 -2.348606 -2.649081 5.513529 0.000000 0.000000 0.000000 0.873687 -0.271168 2.427427 -0.200870 -0.039281 -1.385407 3.737709 4.199319 6.929151 0.000000 0.000000 0.000000 5.521486 0.075327 -1.094245 -2.485465 1.143919 -2.271345 -3.875777 6.242081 5.896802 8.806799 -3.367725 -19.414830 0.000000 0.000000 0.000000 -24.297342 -3.592255 -1.213819 -49.384863 -6.391227 -3.171923 -6.833625 -19.617109 1.816719 0.000000 0.000000 0.000000 21.076732 -2.774322 -2.718497 57.662313 3.117022 -4.389272 7.429618 21.522784 2.130080 0.000000 0.000000 0.000000 
0.000513 0.950293 0.001096 -0.513988 -7.632271 -0.330826 1.203973 0.529353 5.778929 -1.226805 0.274890 -5.049413 -2.364818 -2.634546 5.623110 0.000000 0.000000 0.000000 0.766524 -0.275844 2.542603 -0.185364 -0.040933 -1.396123 3.807794 4.370107 6.905134 0.000000 0.000000 0.000000 5.558432 0.067313 -0.979583 -2.531056 1.166924 -2.191786 -3.806804 6.293795 5.949911 8.770267 -3.324959 -19.523075 0.000000 0.000000 0.000000 -24.410824 -3.719507 -1.165101 -49.352875 -6.553073 -3.103081 -6.990006 -19.732326 1.852930 0.000000 0.000000 0.000000 20.993968 -2.604728 -2.600469 57.692912 3.386375 -4.269501 7.431988 21.669696 2.149603 0.000000 0.000000 0.000000 
0.001115 0.950442 0.000390 -0.493511 -7.635427 -0.444855 1.141218 0.548063 5.936874 -1.224510 0.279035 -5.202197 -2.448250 -2.733619 5.773661 0.000000 0.000000 0.000000 0.689113 -0.283711 2.675284 -0.165965 -0.048480 -1.545833 3.927317 4.510302 7.084663 0.000000 0.000000 0.000000 5.621016 0.058302 -0.852780 -2.557850 1.182657 -2.050721 -3.863916 6.453369 5.879715 8.833003 -3.328028 -19.590219 0.000000 0.000000 0.000000 -24.284224 -3.888440 -1.116310 -49.566697 -6.623868 -3.067628 -7.013361 -19.762812 1.852389 0.000000 0.000000 0.000000 21.029104 -2.584863 -2.545785 57.684755 3.584732 -4.175289 7.408862 21.664735 2.151539 0.000000 0.000000 0.000000 
0.001591 0.950457 -0.000252 -0.505480 -7.595705 -0.508479 1.177905 0.559693 6.077375 -1.238368 0.281789 -5.263276 -2.576382 -2.973085 5.783868 0.000000 0.000000 0.000000 0.691188 -0.292364 2.765929 -0.160902 -0.056045 -1.725842 3.998038 4.602967 7.182661 0.000000 0.000000 0.000000 5.704817 0.057380 -0.821923 -2.548321 1.182017 -1.901725 -3.837635 6.537679 5.881821 8.873799 -3.328897 -19.654911 0.000000 0.000000 0.000000 -24.511145 -4.097729 -1.055994 -49.455853 -6.688389 -3.018345 -7.018624 -19.689529 1.842460 0.000000 0.000000 0.000000 21.137368 -2.460782 -2.454973 57.558648 3.714474 -4.114240 7.331663 21.896060 2.168884 0.000000 0.000000 0.000000 
0.001889 0.950393 -0.000781 -0.507996 -7.699006 -0.558276 1.159656 0.574581 6.208750 -1.177703 0.281830 -5.422450 -2.616693 -3.018097 5.880084 0.000000 0.000000 0.000000 0.674207 -0.302583 2.888738 -0.172990 -0.057493 -1.785365 3.998206 4.550385 7.243443 0.000000 0.000000 0.000000 5.743831 0.056488 -0.795505 -2.553393 1.187391 -1.742025 -3.782486 6.598735 5.732318 8.863754 -3.325609 -19.607010 0.000000 0.000000 0.000000 -24.524782 -4.175223 -1.022974 -49.511209 -6.669407 -3.013932 -6.918734 -19.558522 1.810768 0.000000 0.000000 0.000000 21.253350 -2.363526 -2.410137 57.397660 3.836758 -4.038185 7.279595 22.064380 2.178222 0.000000 0.000000 0.000000 
0.002040 0.950085 -0.001261 -0.566434 -7.728301 -0.661850 1.198528 0.581086 6.288893 -1.182041 0.283765 -5.473069 -2.665338 -3.191187 5.692778 0.000000 0.000000 0.000000 0.740699 -0.324226 3.079177 -0.289778 -0.052187 -1.872601 4.104852 4.754054 7.282270 0.000000 0.000000 0.000000 5.754729 0.043297 -0.628827 -2.548852 1.194741 -1.354599 -3.770537 6.730346 5.226793 8.948918 -3.330383 -19.676988 0.000000 0.000000 0.000000 -24.548004 -4.037420 -1.182867 -49.480043 -6.759290 -2.913901 -6.737619 -19.073352 1.725704 0.000000 0.000000 0.000000 21.276686 -2.575895 -2.508782 57.391841 3.699451 -4.056461 7.452427 22.170068 2.221747 0.000000 0.000000 0.000000 
0.002049 0.949822 -0.001733 -0.574350 -7.746455 -0.715980 1.158646 0.588768 6.342829 -1.061082 0.274971 -5.492270 -2.667847 -3.206482 5.670799 0.000000 0.000000 0.000000 0.807323 -0.334621 3.148419 -0.344721 -0.045629 -1.813573 4.084842 4.700968 7.292971 0.000000 0.000000 0.000000 5.754588 0.032688 -0.502531 -2.509639 1.177954 -1.287328 -3.757651 6.873619 5.007478 8.933434 -3.303371 -19.650582 0.000000 0.000000 0.000000 -24.702962 -3.985535 -1.291528 -49.284437 -6.687652 -2.892750 -6.561865 -18.680687 1.654948 0.000000 0.000000 0.000000 21.428584 -2.687840 -2.552562 57.304428 3.595341 -4.089437 7.458831 22.472706 2.263083 0.000000 0.000000 0.000000 
0.002025 0.949323 -0.002204 -0.638792 -7.653433 -0.761919 1.213193 0.599779 6.494621 -1.037163 0.274717 -5.552443 -2.652032 -3.252236 5.473332 0.000000 0.000000 0.000000 0.931187 -0.342653 3.151933 -0.501389 -0.029303 -1.711211 4.009821 4.641754 7.153688 0.000000 0.000000 0.000000 5.689371 0.024553 -0.408918 -2.446364 1.151197 -1.189053 -3.789133 6.964251 4.818445 9.006402 -3.273178 -19.920890 0.000000 0.000000 0.000000 -24.516833 -3.946854 -1.358891 -49.364143 -6.723940 -2.851738 -6.507998 -18.149693 1.591656 0.000000 0.000000 0.000000 21.735078 -2.823222 -2.615891 57.263479 3.431190 -4.160133 7.462695 22.769451 2.305991 0.000000 0.000000 0.000000 
0.002078 0.949304 -0.002631 -0.670625 -7.711749 -0.766839 1.180429 0.604723 6.521477 -0.933388 0.266598 -5.544648 -2.764622 -3.438339 5.558615 0.000000 0.000000 0.000000 0.940290 -0.351782 3.242652 -0.510991 -0.031689 -1.783534 4.071697 4.656930 7.321651 0.000000 0.000000 0.000000 5.705208 0.031076 -0.475066 -2.569560 1.210290 -1.145084 -3.749612 7.095317 4.673375 9.002231 -3.255821 -19.914921 0.000000 0.000000 0.000000 -24.438847 -3.743064 -1.510285 -49.324458 -6.652327 -2.857184 -6.386042 -17.506907 1.512498 0.000000 0.000000 0.000000 21.905285 -3.109227 -2.772103 57.251315 3.213482 -4.255392 7.813313 23.062259 2.411475 0.000000 0.000000 0.000000 
0.002294 0.948991 -0.003079 -0.683459 -7.877599 -0.773121 1.111849 0.606867 6.488010 -0.706909 0.248540 -5.516783 -2.803006 -3.537566 5.529458 0.000000 0.000000 0.000000 1.093691 -0.349329 3.126165 -0.680790 -0.010889 -1.603538 4.046527 4.665629 7.200748 0.000000 0.000000 0.000000 5.675868 0.020203 -0.353599 -2.502986 1.178378 -1.139476 -3.807499 7.455742 4.579515 9.317337 -3.351712 -20.198723 0.000000 0.000000 0.000000 -24.621339 -3.656413 -1.686466 -49.011250 -6.666421 -2.792037 -6.436832 -16.847800 1.454430 0.000000 0.000000 0.000000 22.204582 -3.372543 -2.872565 57.036648 3.017843 -4.346915 8.040405 23.358925 2.505238 0.000000 0.000000 0.000000 
0.002730 0.948797 -0.003550 -0.752405 -7.923781 -0.732908 0.918662 0.614685 6.463691 -0.447270 0.232720 -5.635042 -2.749169 -3.435543 5.533573 0.000000 0.000000 0.000000 1.318585 -0.369778 3.194011 -0.954282 0.005518 -1.708597 3.952449 4.655227 6.905627 0.000000 0.000000 0.000000 5.726421 0.020743 -0.364372 -2.515957 1.179768 -1.311283 -3.817186 7.560303 4.740480 9.443730 -3.317110 -20.787911 0.000000 0.000000 0.000000 -24.612716 -3.532743 -1.772284 -48.873836 -6.733190 -2.768188 -6.504783 -16.276703 1.414692 0.000000 0.000000 0.000000 22.436596 -3.487257 -2.934660 57.041161 2.975485 -4.394853 7.943510 23.161931 2.467527 0.000000 0.000000 0.000000 
0.003313 0.948405 -0.004023 -0.777696 -8.115310 -0.776089 0.724191 0.624934 6.444559 -0.361381 0.227915 -5.675976 -2.691554 -3.301140 5.620801 0.000000 0.000000 0.000000 1.319649 -0.357464 3.076170 -1.036435 0.024983 -1.426824 4.051015 5.034571 6.644214 0.000000 0.000000 0.000000 5.734159 0.016171 -0.300246 -2.516371 1.181940 -1.203364 -3.838426 7.767927 4.567931 9.701178 -3.362798 -21.237137 0.000000 0.000000 0.000000 -24.476829 -3.350332 -1.909957 -48.992516 -6.663672 -2.781138 -6.619169 -15.708879 1.376082 0.000000 0.000000 0.000000 22.538874 -3.801153 -3.098152 56.856957 2.637291 -4.534594 8.621773 23.174958 2.603078 0.000000 0.000000 0.000000 
0.004005 0.948376 -0.004498 -0.820666 -8.235294 -0.720654 0.566200 0.636589 6.468962 -0.208829 0.223527 -5.861142 -2.595712 -3.126496 5.616491 0.000000 0.000000 0.000000 1.375120 -0.353545 3.003160 -1.227865 0.034696 -1.534513 4.174973 5.373712 6.537459 0.000000 0.000000 0.000000 5.629188 0.012331 -0.274253 -2.412274 1.129408 -1.320125 -3.736634 7.722182 4.561487 9.589017 -3.287438 -21.385242 0.000000 0.000000 0.000000 -24.530912 -2.895278 -2.139030 -48.940064 -6.556870 -2.831744 -6.757869 -15.400772 1.369950 0.000000 0.000000 0.000000 22.522162 -4.042578 -3.278520 56.803483 2.602556 -4.536237 8.604841 22.748316 2.537656 0.000000 0.000000 0.000000 
0.004603 0.948316 -0.004990 -0.794976 -8.269834 -0.686760 0.454646 0.644047 6.481850 -0.198894 0.230034 -6.047790 -2.576241 -3.062947 5.686659 0.000000 0.000000 0.000000 1.377899 -0.341512 2.880085 -1.451851 0.046093 -1.655494 4.322945 5.688459 6.552393 0.000000 0.000000 0.000000 5.482923 -0.005919 -0.087174 -2.259020 1.049124 -1.691139 -3.610434 7.581935 4.794958 9.509499 -3.145635 -22.102342 0.000000 0.000000 0.000000 -24.501351 -2.378617 -2.358550 -48.947887 -6.357025 -2.952305 -7.137358 -15.597622 1.443203 0.000000 0.000000 0.000000 22.481834 -4.144797 -3.387156 56.621524 2.617311 -4.527454 8.720795 22.352003 2.500929 0.000000 0.000000 0.000000 
0.005053 0.948206 -0.005429 -0.776605 -8.428479 -0.644252 0.373138 0.648629 6.471057 -0.074372 0.225427 -6.154078 -2.452327 -2.812153 5.744381 0.000000 0.000000 0.000000 1.311295 -0.328123 2.785740 -1.596424 0.058260 -1.630639 4.447174 6.111891 6.331410 0.000000 0.000000 0.000000 5.430806 -0.018257 0.042091 -2.205640 1.027425 -1.503368 -3.641351 7.591151 4.415532 9.681244 -3.201502 -22.283676 0.000000 0.000000 0.000000 -24.508704 -2.179772 -2.474493 -48.841682 -5.840658 -3.121811 -7.172309 -16.152159 1.497954 0.000000 0.000000 0.000000 22.559548 -4.270198 -3.496222 56.383007 2.352057 -4.594812 8.683378 22.095113 2.452394 0.000000 0.000000 0.000000 
0.005357 0.947996 -0.005855 -0.809206 -8.683490 -0.694411 0.171207 0.656559 6.424369 0.065205 0.212854 -6.088017 -2.447200 -2.906242 5.532716 0.000000 0.000000 0.000000 1.230305 -0.333345 2.894741 -1.609168 0.043474 -1.922282 4.742665 6.595765 6.538228 0.000000 0.000000 0.000000 5.424437 -0.041847 0.322296 -2.202515 1.021732 -1.642310 -3.534387 7.674169 4.370191 9.673395 -3.076531 -23.008501 0.000000 0.000000 0.000000 -24.449712 -1.872801 -2.623078 -48.767358 -5.645782 -3.198985 -7.333398 -16.402703 1.544823 0.000000 0.000000 0.000000 22.502887 -4.502112 -3.649973 56.293057 2.391261 -4.558837 8.444554 21.380640 2.314443 0.000000 0.000000 0.000000 
0.005496 0.947794 -0.006297 -0.835173 -8.778074 -0.614975 0.093341 0.668856 6.493206 0.209471 0.214466 -6.361630 -2.443414 -2.836353 5.705647 0.000000 0.000000 0.000000 1.210217 -0.323997 2.809420 -1.670158 0.038870 -2.092579 4.908204 6.947233 6.552480 0.000000 0.000000 0.000000 5.402632 -0.049571 0.393872 -2.251821 1.044287 -1.636078 -3.443153 7.613722 4.387911 9.657904 -3.039530 -23.260158 0.000000 0.000000 0.000000 -24.304794 -1.857649 -2.566225 -48.827593 -5.497370 -3.278725 -7.284066 -16.817090 1.580798 0.000000 0.000000 0.000000 22.417683 -4.473654 -3.661897 56.198711 2.538682 -4.475666 8.112175 21.050090 2.210001 0.000000 0.000000 0.000000 
0.005620 0.947393 -0.006769 -0.874910 -9.010861 -0.529887 -0.020468 0.665811 6.394300 0.353432 0.202983 -6.327948 -2.329558 -2.701935 5.533119 0.000000 0.000000 0.000000 1.255014 -0.305990 2.599220 -1.881887 0.054492 -2.079635 5.169096 7.403097 6.691263 0.000000 0.000000 0.000000 5.427237 -0.070547 0.616018 -2.277839 1.054603 -1.661166 -3.459227 7.631313 4.228978 9.401798 -2.903911 -23.282199 0.000000 0.000000 0.000000 -24.127859 -1.730993 -2.588731 -48.845070 -5.396989 -3.319040 -7.202227 -16.992514 1.586992 0.000000 0.000000 0.000000 22.362690 -4.411403 -3.651329 55.951988 2.582351 -4.417881 7.875635 20.816177 2.135296 0.000000 0.000000 0.000000 
0.005693 0.947329 -0.007281 -0.872111 -9.176794 -0.579250 -0.218906 0.681068 6.425972 0.507690 0.188812 -6.256190 -2.238642 -2.564356 5.464877 0.000000 0.000000 0.000000 1.288554 -0.300216 2.526054 -2.073180 0.071830 -2.014013 5.326959 7.756138 6.671052 0.000000 0.000000 0.000000 5.354507 -0.102235 0.992485 -2.267295 1.045292 -1.807359 -3.376011 7.532206 4.235108 9.293030 -2.821505 -23.570101 0.000000 0.000000 0.000000 -24.166317 -1.791549 -2.491320 -48.796427 -5.548160 -3.273904 -6.788444 -16.893306 1.524064 0.000000 0.000000 0.000000 22.311947 -4.244253 -3.606120 55.681248 2.841211 -4.274121 7.531334 20.629780 2.047027 0.000000 0.000000 0.000000 
0.005748 0.947124 -0.007836 -0.898206 -9.246848 -0.625755 -0.221404 0.690550 6.503755 0.650675 0.177739 -6.236942 -2.174381 -2.458736 5.427978 0.000000 0.000000 0.000000 1.368634 -0.303092 2.512445 -2.305476 0.093700 -1.933756 5.520100 8.214625 6.632537 0.000000 0.000000 0.000000 5.342598 -0.135886 1.391823 -2.170221 0.997817 -1.892980 -3.449144 7.409797 4.137838 9.256285 -2.785041 -23.751237 0.000000 0.000000 0.000000 -24.345103 -1.844199 -2.444515 -48.480375 -5.528525 -3.258162 -6.464358 -16.950330 1.485606 0.000000 0.000000 0.000000 22.583397 -4.061465 -3.571862 55.197917 2.930052 -4.194251 7.285855 20.658883 2.001321 0.000000 0.000000 0.000000 
0.005782 0.947197 -0.008448 -0.934306 -9.389079 -0.531443 -0.372037 0.684818 6.374873 0.802162 0.162138 -6.139030 -2.101178 -2.325907 5.431178 0.000000 0.000000 0.000000 1.380883 -0.281406 2.283760 -2.340848 0.113664 -1.626354 5.590129 8.451000 6.518842 0.000000 0.000000 0.000000 5.347278 -0.140998 1.433372 -2.132033 0.981071 -1.813618 -3.465732 7.474029 4.048475 9.190824 -2.741981 -23.783538 0.000000 0.000000 0.000000 -24.291709 -2.031374 -2.331725 -48.420695 -5.789371 -3.142278 -6.020514 -16.859479 1.413113 0.000000 0.000000 0.000000 22.563645 -3.888594 -3.470687 54.934608 2.990764 -4.142431 7.221041 20.645090 1.987368 0.000000 0.000000 0.000000 
0.005806 0.947243 -0.009138 -0.982190 -9.451878 -0.449362 -0.468554 0.673424 6.228674 0.825328 0.153677 -6.000949 -2.098040 -2.374292 5.301984 0.000000 0.000000 0.000000 1.451003 -0.267997 2.107365 -2.504439 0.144980 -1.315187 5.747700 8.865433 6.442827 0.000000 0.000000 0.000000 5.353129 -0.151461 1.537415 -2.109574 0.972432 -1.719772 -3.447795 7.458976 3.845873 9.137928 -2.743100 -23.594620 0.000000 0.000000 0.000000 -24.564184 -2.259517 -2.231203 -48.135559 -5.964922 -3.030827 -5.700361 -16.832772 1.364877 0.000000 0.000000 0.000000 22.683471 -3.681800 -3.379878 54.497678 2.990508 -4.096030 7.109032 20.907815 1.993126 0.000000 0.000000 0.000000 
0.005815 0.947317 -0.009882 -0.997915 -9.394663 -0.432683 -0.478155 0.661762 6.126685 0.857484 0.141183 -5.791980 -2.200008 -2.638828 5.123745 0.000000 0.000000 0.000000 1.472713 -0.239008 1.807455 -2.544735 0.185701 -0.712636 5.706337 8.994781 6.181287 0.000000 0.000000 0.000000 5.317323 -0.162855 1.670870 -1.998400 0.924514 -1.563688 -3.507395 7.373768 3.702241 8.982198 -2.682879 -23.452441 0.000000 0.000000 0.000000 -24.795687 -2.505452 -2.114775 -47.845834 -6.335055 -2.850869 -5.445523 -16.871804 1.331353 0.000000 0.000000 0.000000 22.648158 -3.428647 -3.239159 54.245800 3.078691 -4.027488 7.040062 21.163138 2.006414 0.000000 0.000000 0.000000 
0.005756 0.947320 -0.010651 -1.004324 -9.276228 -0.372254 -0.454749 0.632511 5.887897 0.806326 0.131262 -5.502103 -2.122537 -2.576602 4.874851 0.000000 0.000000 0.000000 1.532317 -0.204003 1.432074 -2.711633 0.242738 -0.060853 5.602156 9.103882 5.778474 0.000000 0.000000 0.000000 5.292009 -0.166299 1.699587 -2.002793 0.934275 -1.248462 -3.457665 7.282194 3.486075 8.850595 -2.668791 -23.080813 0.000000 0.000000 0.000000 -25.074625 -2.657642 -2.065598 -47.645712 -6.581127 -2.717514 -5.184168 -17.023067 1.304466 0.000000 0.000000 0.000000 22.705184 -3.232277 -3.140328 53.976217 3.260364 -3.911274 6.893598 21.444550 2.008991 0.000000 0.000000 0.000000 
0.005625 0.947280 -0.011454 -1.082503 -9.138429 -0.384311 -0.359492 0.618996 5.818258 0.804552 0.124532 -5.356846 -2.102434 -2.574538 4.756799 0.000000 0.000000 0.000000 1.535023 -0.179383 1.193309 -2.764804 0.279294 0.406186 5.609921 9.220772 5.679546 0.000000 0.000000 0.000000 5.363327 -0.176962 1.813496 -1.993917 0.933406 -1.129925 -3.408053 7.097681 3.371532 8.663090 -2.589734 -23.006889 0.000000 0.000000 0.000000 -25.140571 -2.562078 -2.099301 -47.663103 -6.841926 -2.617110 -5.143438 -17.164649 1.311331 0.000000 0.000000 0.000000 22.828433 -3.133255 -3.128993 53.723062 3.395973 -3.822944 6.968963 21.683605 2.042223 0.000000 0.000000 0.000000 
0.005430 0.947220 -0.012299 -1.127272 -8.881953 -0.347964 -0.296728 0.601590 5.705353 0.677274 0.126587 -5.178203 -2.059966 -2.611959 4.409470 0.000000 0.000000 0.000000 1.564761 -0.174275 1.131408 -2.767652 0.304993 0.767727 5.477768 9.268188 5.285630 0.000000 0.000000 0.000000 5.330403 -0.173339 1.763615 -1.923374 0.904763 -0.956247 -3.421787 7.025611 3.360496 8.611369 -2.560320 -22.959557 0.000000 0.000000 0.000000 -25.170013 -2.643274 -2.082559 -47.720789 -7.166375 -2.483848 -4.997835 -17.393716 1.304712 0.000000 0.000000 0.000000 22.955618 -3.230017 -3.175553 53.571693 3.616114 -3.724058 6.802410 21.826157 2.032609 0.000000 0.000000 0.000000 
0.005269 0.947071 -0.013155 -1.175562 -8.728296 -0.320282 -0.194432 0.589370 5.647893 0.554406 0.138384 -5.220510 -2.144129 -2.807473 4.315710 0.000000 0.000000 0.000000 1.558465 -0.164574 1.041005 -2.684691 0.314729 1.028420 5.408334 9.324544 5.042847 0.000000 0.000000 0.000000 5.372617 -0.175092 1.768191 -1.931467 0.910981 -0.866297 -3.415528 6.945052 3.268622 8.512720 -2.532187 -22.784988 0.000000 0.000000 0.000000 -25.222213 -2.535964 -2.159368 -47.800059 -7.378338 -2.396660 -5.144498 -17.420702 1.327680 0.000000 0.000000 0.000000 22.909826 -3.231249 -3.172590 53.650803 3.783118 -3.645287 6.652821 21.885977 2.012414 0.000000 0.000000 0.000000 
0.005185 0.947066 -0.014039 -1.226421 -8.422333 -0.365425 -0.108097 0.576879 5.589442 0.460949 0.139732 -5.076563 -2.263590 -3.047383 4.265935 0.000000 0.000000 0.000000 1.606315 -0.166282 1.043114 -2.719236 0.330806 1.193011 5.289714 9.245895 4.834876 0.000000 0.000000 0.000000 5.388459 -0.184218 1.875103 -1.863833 0.882400 -0.735038 -3.530541 7.033565 3.116305 8.559655 -2.526912 -22.744173 0.000000 0.000000 0.000000 -25.247059 -2.699252 -2.171945 -47.883886 -7.500340 -2.310587 -5.337593 -17.446934 1.349009 0.000000 0.000000 0.000000 22.975243 -3.399548 -3.196921 53.545677 3.958213 -3.569481 6.568509 21.835453 2.003616 0.000000 0.000000 0.000000 
0.005171 0.947253 -0.014944 -1.226996 -8.233956 -0.408787 -0.070445 0.567544 5.530636 0.383500 0.144583 -5.042458 -2.319614 -3.134325 4.297677 0.000000 0.000000 0.000000 1.602493 -0.182470 1.202905 -2.757221 0.337791 1.223520 5.228331 9.405262 4.489406 0.000000 0.000000 0.000000 5.392324 -0.193922 1.992374 -1.892980 0.898669 -0.637243 -3.640290 7.108574 2.944219 8.658439 -2.544607 -22.782115 0.000000 0.000000 0.000000 -25.113600 -2.720817 -2.221515 -48.061076 -7.543034 -2.269986 -5.492391 -17.477492 1.366654 0.000000 0.000000 0.000000 23.011707 -3.579365 -3.249035 53.689790 4.071647 -3.525146 6.339263 21.746995 1.962439 0.000000 0.000000 0.000000 
0.005142 0.947394 -0.015896 -1.280818 -7.978737 -0.484250 0.000825 0.558554 5.493273 0.256960 0.155128 -5.050409 -2.306118 -3.081861 4.321575 0.000000 0.000000 0.000000 1.591699 -0.196746 1.349131 -2.717033 0.327912 1.123007 5.068162 9.177931 4.328050 0.000000 0.000000 0.000000 5.542618 -0.208474 2.142261 -1.885106 0.893901 -0.725608 -3.838863 7.314258 2.933276 8.848556 -2.592774 -22.844376 0.000000 0.000000 0.000000 -24.778921 -2.865068 -2.221717 -48.316081 -7.542854 -2.253043 -6.029115 -17.640712 1.448070 0.000000 0.000000 0.000000 23.013484 -3.717431 -3.216180 53.870655 4.209635 -3.499773 6.448597 21.480460 1.970001 0.000000 0.000000 0.000000 
0.005104 0.947685 -0.016951 -1.248722 -7.656849 -0.475667 0.048158 0.556059 5.511387 0.058556 0.176410 -5.188690 -2.370471 -3.173952 4.360996 0.000000 0.000000 0.000000 1.462910 -0.207540 1.509235 -2.638869 0.306575 0.905921 5.144009 9.467064 4.228367 0.000000 0.000000 0.000000 5.498236 -0.211003 2.169331 -1.741505 0.824507 -0.834242 -4.058588 7.367216 2.905268 8.922159 -2.605698 -22.822169 0.000000 0.000000 0.000000 -24.695507 -2.832346 -2.318748 -48.367803 -7.262359 -2.341600 -6.511857 -17.884587 1.533335 0.000000 0.000000 0.000000 23.052741 -3.791029 -3.184594 53.858628 4.142678 -3.546385 6.650700 21.289388 1.994835 0.000000 0.000000 0.000000 
0.005022 0.947875 -0.018141 -1.186382 -7.193459 -0.355103 0.163970 0.537540 5.417905 -0.068013 0.190909 -5.313645 -2.636263 -3.646003 4.426086 0.000000 0.000000 0.000000 1.397604 -0.206187 1.520572 -2.616226 0.294870 0.738785 5.085280 9.578158 3.967891 0.000000 0.000000 0.000000 5.531824 -0.213314 2.149446 -1.764768 0.835640 -0.918695 -4.231698 7.249527 2.862062 9.111909 -2.675117 -22.887946 0.000000 0.000000 0.000000 -24.508380 -2.819473 -2.355479 -48.387247 -7.158065 -2.365919 -7.024521 -18.087870 1.623819 0.000000 0.000000 0.000000 22.884153 -3.932857 -3.207390 54.049434 4.094165 -3.573702 6.962030 21.048996 2.027695 0.000000 0.000000 0.000000 
0.004900 0.948088 -0.019440 -1.141871 -6.920633 -0.341138 0.280090 0.541125 5.525289 -0.163940 0.204038 -5.473533 -2.764626 -3.880751 4.434012 0.000000 0.000000 0.000000 1.294034 -0.216500 1.666110 -2.521033 0.274794 0.562131 4.974793 9.391479 3.895192 0.000000 0.000000 0.000000 5.534572 -0.208630 2.082747 -1.778887 0.842508 -0.931533 -4.383708 7.446136 2.831187 9.299632 -2.737132 -22.866800 0.000000 0.000000 0.000000 -24.232956 -2.940244 -2.368142 -48.504819 -6.875100 -2.456634 -7.385480 -18.262055 1.683128 0.000000 0.000000 0.000000 22.952513 -4.207510 -3.267885 54.193602 3.966510 -3.658838 7.142086 20.980710 2.066470 0.000000 0.000000 0.000000 
0.004777 0.948274 -0.020783 -1.134126 -6.767317 -0.324794 0.151845 0.540652 5.471735 0.011600 0.184504 -5.305473 -2.988741 -4.379282 4.298598 0.000000 0.000000 0.000000 1.195230 -0.204721 1.595562 -2.343976 0.254606 0.517853 4.770976 9.032644 3.748541 0.000000 0.000000 0.000000 5.688854 -0.214739 2.111296 -1.877225 0.888953 -0.969745 -4.565479 7.513759 2.859841 9.498367 -2.799726 -23.004045 0.000000 0.000000 0.000000 -24.074770 -3.055653 -2.336948 -48.361697 -6.712904 -2.501975 -7.995328 -18.322253 1.778579 0.000000 0.000000 0.000000 22.845629 -4.272479 -3.241681 54.515256 3.964377 -3.684564 7.354310 20.850451 2.095111 0.000000 0.000000 0.000000 
0.004702 0.948176 -0.022062 -1.090395 -6.600150 -0.181011 0.163609 0.526041 5.347846 0.085225 0.179081 -5.310379 -3.082397 -4.618797 4.166031 0.000000 0.000000 0.000000 1.119893 -0.177400 1.356805 -2.283682 0.245880 0.468615 4.598985 8.686912 3.679226 0.000000 0.000000 0.000000 5.804530 -0.201359 1.900637 -1.916685 0.909273 -0.876663 -4.752611 7.637207 2.850355 9.570276 -2.846709 -22.787748 0.000000 0.000000 0.000000 -23.828389 -3.204402 -2.297419 -48.521491 -6.426598 -2.606047 -8.312644 -18.550689 1.841725 0.000000 0.000000 0.000000 22.650531 -4.329377 -3.185087 54.928885 3.902453 -3.735907 7.677324 20.807065 2.155232 0.000000 0.000000 0.000000 
0.004690 0.948162 -0.023201 -1.063071 -6.478996 -0.053793 -0.003675 0.538144 5.396992 0.043504 0.183845 -5.353624 -3.042560 -4.670228 3.876459 0.000000 0.000000 0.000000 0.914590 -0.158085 1.251475 -2.175262 0.239407 0.536120 4.244222 8.003859 3.473406 0.000000 0.000000 0.000000 5.875219 -0.193456 1.766125 -2.052978 0.971950 -1.007966 -4.798673 7.736964 3.194007 9.671450 -2.863658 -22.957421 0.000000 0.000000 0.000000 -23.585279 -3.118234 -2.343500 -48.631495 -6.408074 -2.645889 -8.678514 -18.806007 1.922670 0.000000 0.000000 0.000000 22.644993 -4.466677 -3.210839 54.960559 4.154606 -3.663909 8.051312 20.516383 2.191669 0.000000 0.000000 0.000000 
0.004870 0.947795 -0.024087 -0.988930 -6.496390 -0.011935 -0.191496 0.562444 5.539063 -0.102765 0.194403 -5.343246 -2.955596 -4.648664 3.556956 0.000000 0.000000 0.000000 0.789419 -0.152121 1.245707 -2.347486 0.243274 0.320821 4.145326 7.871596 3.336267 0.000000 0.000000 0.000000 5.952691 -0.192435 1.730744 -2.154237 1.017740 -1.124486 -4.979481 7.939855 3.438142 9.793048 -2.892759 -23.066972 0.000000 0.000000 0.000000 -23.580675 -3.354390 -2.268411 -48.508711 -6.332407 -2.668361 -8.747856 -18.918292 1.940261 0.000000 0.000000 0.000000 22.663869 -4.307284 -3.046645 54.972408 4.198023 -3.684711 8.174631 20.636842 2.237586 0.000000 0.000000 0.000000 
0.005374 0.947280 -0.024581 -0.988463 -6.234943 0.140880 -0.351186 0.583300 5.675445 -0.226159 0.201950 -5.303381 -2.661894 -4.364345 2.872989 0.000000 0.000000 0.000000 0.585771 -0.118180 0.987927 -2.387001 0.269485 0.661485 3.735689 7.488681 2.577642 0.000000 0.000000 0.000000 5.999767 -0.166422 1.397551 -2.203328 1.039972 -1.221970 -5.063510 7.943670 3.781224 9.897230 -2.964227 -22.945668 0.000000 0.000000 0.000000 -23.404736 -3.557914 -2.155870 -48.716201 -6.060035 -2.813332 -8.986611 -19.380308 2.025014 0.000000 0.000000 0.000000 22.483969 -4.210118 -2.923453 54.906820 4.173415 -3.726702 8.890955 20.840702 2.394159 0.000000 0.000000 0.000000 
0.006361 0.946462 -0.024453 -1.025721 -6.117658 0.049770 -0.637417 0.626351 5.939715 -0.403401 0.214466 -5.285316 -2.330651 -3.956917 2.280587 0.000000 0.000000 0.000000 0.387730 -0.115756 1.050613 -2.523296 0.295391 0.835947 3.601275 7.574426 2.057331 0.000000 0.000000 0.000000 6.259474 -0.149227 1.199362 -2.456405 1.163501 -1.029985 -5.166815 7.834493 3.793950 9.675912 -2.867491 -22.826470 0.000000 0.000000 0.000000 -23.225197 -3.801670 -1.984604 -48.934515 -6.144927 -2.803098 -8.768040 -19.087843 1.960352 0.000000 0.000000 0.000000 22.303978 -3.727448 -2.632076 54.815419 4.075637 -3.759263 9.120928 20.831997 2.426106 0.000000 0.000000 0.000000 
0.007940 0.945633 -0.023364 -1.127719 -5.927457 0.034580 -0.892988 0.649478 6.032801 -0.363688 0.197727 -4.893365 -1.960952 -3.419865 1.767111 0.000000 0.000000 0.000000 0.295494 -0.093390 0.858589 -2.470938 0.328572 1.423547 3.329974 7.302910 1.556016 0.000000 0.000000 0.000000 6.447904 -0.117418 0.847688 -2.558795 1.214267 -0.936188 -5.116718 7.890551 3.964579 9.520579 -2.913699 -22.027804 0.000000 0.000000 0.000000 -23.293830 -4.039498 -1.901599 -49.067085 -6.023268 -2.857836 -8.719206 -18.813795 1.921437 0.000000 0.000000 0.000000 22.270049 -3.985379 -2.736285 54.724574 4.113670 -3.759347 9.284403 20.661643 2.438919 0.000000 0.000000 0.000000 
0.010068 0.945100 -0.020951 -1.230471 -5.688135 0.064594 -1.131613 0.673389 6.138395 -0.456856 0.191713 -4.501068 -1.742975 -3.344690 0.930750 0.000000 0.000000 0.000000 0.063345 -0.052544 0.526354 -2.397280 0.377076 2.286179 3.103109 7.030439 1.188731 0.000000 0.000000 0.000000 6.528095 -0.082765 0.475030 -2.507188 1.194299 -0.717414 -5.057342 7.827811 3.822781 9.500752 -2.961004 -21.635640 0.000000 0.000000 0.000000 -23.103221 -3.958934 -1.945443 -49.229750 -5.803435 -2.945923 -8.863939 -18.526652 1.911316 0.000000 0.000000 0.000000 22.274688 -4.069607 -2.772146 54.387580 3.895520 -3.830440 9.398341 20.788824 2.477216 0.000000 0.000000 0.000000 
0.012400 0.944240 -0.017093 -1.384204 -4.921528 -0.068704 -1.049110 0.725807 6.704721 -0.567176 0.194419 -4.335515 -1.906040 -3.911824 0.461751 0.000000 0.000000 0.000000 0.303686 0.005351 -0.149793 -2.437542 0.552123 4.802406 2.191722 6.167008 -0.704293 0.000000 0.000000 0.000000 6.461342 -0.049556 0.146494 -2.308982 1.105578 -0.415301 -5.140399 7.506575 3.515279 9.842026 -3.306873 -20.680478 0.000000 0.000000 0.000000 -23.105892 -4.267085 -1.823390 -49.154001 -4.959237 -3.238226 -8.962196 -18.878987 1.957182 0.000000 0.000000 0.000000 22.757341 -4.440198 -3.000373 54.190227 3.489156 -3.995518 8.343892 21.182054 2.353929 0.000000 0.000000 0.000000 
0.014775 0.943325 -0.011955 -1.547872 -4.116790 -0.189881 -0.661041 0.750732 7.240521 -0.847203 0.206405 -4.003882 -2.134486 -4.995302 -0.667405 0.000000 0.000000 0.000000 0.439063 0.163164 -1.733017 -2.405640 0.827513 8.858892 1.409946 5.462236 -2.538210 0.000000 0.000000 0.000000 6.393992 -0.034555 -0.000955 -2.058257 0.984149 -0.770695 -5.150554 7.246116 3.668028 9.979481 -3.438040 -20.338396 0.000000 0.000000 0.000000 -22.619174 -3.831345 -2.034403 -48.735036 -4.481896 -3.411979 -10.797034 -19.404658 2.306944 0.000000 0.000000 0.000000 22.613569 -5.187773 -3.386104 54.577665 2.634779 -4.402941 8.146901 21.509724 2.377710 0.000000 0.000000 0.000000 
0.016903 0.941795 -0.006186 -1.546767 -3.039192 -0.538830 -0.493523 0.838416 8.310678 -1.018918 0.217227 -3.944617 -3.104214 -7.271076 -0.858522 0.000000 0.000000 0.000000 1.164843 0.445406 -4.345397 -2.957682 1.390842 14.990507 0.865107 4.763287 -3.692269 0.000000 0.000000 0.000000 5.973684 -0.049773 0.223772 -1.897938 0.912367 -0.434545 -5.188801 6.629487 3.625948 9.975385 -3.484447 -20.099570 0.000000 0.000000 0.000000 -22.357479 -3.827659 -1.985772 -48.436938 -4.234010 -3.491051 -10.702597 -19.099464 2.257128 0.000000 0.000000 0.000000 22.978735 -5.132939 -3.390912 54.804809 3.032282 -4.251285 7.052944 22.185568 2.269971 0.000000 0.000000 0.000000 
0.018500 0.940395 0.000244 -1.479272 -2.408210 -1.538509 0.042200 0.949678 9.970396 -1.710475 0.267598 -3.719952 -3.553284 -8.391343 -1.023212 0.000000 0.000000 0.000000 1.467402 0.848910 -7.778492 -3.660396 2.366402 24.349846 0.588661 4.178430 -4.034567 0.000000 0.000000 0.000000 5.025790 -0.167778 1.879934 -1.320475 0.644639 -1.351326 -5.188726 6.936701 4.760791 9.938212 -3.298203 -20.831976 0.000000 0.000000 0.000000 -22.433025 -3.862063 -2.123699 -47.208747 -4.353386 -3.377350 -11.855466 -20.119074 2.556129 0.000000 0.000000 0.000000 23.289534 -5.281531 -3.289332 54.593254 4.027906 -3.979611 7.003282 22.829458 2.385116 0.000000 0.000000 0.000000 
0.019767 0.939798 0.008491 -1.917000 -0.838845 -2.371383 0.707356 0.906884 10.536581 -1.901724 0.244745 -1.821019 -4.054065 -10.254334 -2.049176 0.000000 0.000000 0.000000 2.078565 1.471122 -12.629591 -2.944953 2.773613 33.839570 0.095968 2.951873 -4.489959 0.000000 0.000000 0.000000 4.548011 -0.283785 3.570158 -1.177950 0.590532 -1.615346 -4.520424 5.867153 5.763254 9.739896 -2.981413 -22.348106 0.000000 0.000000 0.000000 -23.496825 -4.399137 -1.842777 -45.702851 -5.677165 -2.820504 -11.665069 -20.534182 2.601894 0.000000 0.000000 0.000000 23.705160 -5.481001 -3.522744 53.964893 4.413658 -3.877789 7.587411 23.388385 2.562559 0.000000 0.000000 0.000000 
0.020505 0.939236 0.020922 -2.081321 0.542424 -2.524481 0.928402 0.945173 11.653181 -1.572235 0.212926 -2.012317 -5.317815 -12.650725 -1.366141 0.000000 0.000000 0.000000 1.962747 1.986463 -17.157323 -1.924764 2.342282 36.796736 -0.470178 1.878037 -5.564592 0.000000 0.000000 0.000000 3.679666 -0.347436 4.792489 -0.217171 0.160864 -2.011973 -4.335939 4.734065 6.415223 9.348203 -2.674712 -23.292276 0.000000 0.000000 0.000000 -24.258203 -4.283416 -1.845113 -44.955759 -6.401156 -2.574813 -11.038924 -21.260951 2.607600 0.000000 0.000000 0.000000 22.401889 -5.070838 -3.292632 54.946610 4.495481 -3.859067 7.806711 23.187326 2.562069 0.000000 0.000000 0.000000 
0.020788 0.937195 0.038522 -2.397493 1.266950 -2.344638 1.205582 1.004783 13.109372 -1.012887 0.168188 -2.332759 -5.468680 -13.683431 -2.201735 0.000000 0.000000 0.000000 2.422627 2.455267 -20.655507 -1.779058 2.006116 33.923186 0.293646 2.672389 -3.390035 0.000000 0.000000 0.000000 3.372146 -0.392111 5.528477 0.372664 -0.087421 -2.572265 -4.011637 4.410681 6.696752 8.867743 -2.363635 -23.623155 0.000000 0.000000 0.000000 -24.003986 -3.875915 -2.035860 -45.599110 -6.891521 -2.467040 -10.656680 -21.978623 2.621309 0.000000 0.000000 0.000000 21.319857 -5.375517 -3.388792 55.956212 3.932393 -4.114614 7.960051 23.068742 2.578562 0.000000 0.000000 0.000000 
0.020133 0.933777 0.061478 -2.745674 1.729608 -1.746961 0.957966 1.139561 14.687719 -0.208500 0.132493 -3.437403 -5.359419 -13.712110 -2.546177 0.000000 0.000000 0.000000 3.188582 2.801126 -22.542990 -1.913080 1.661384 27.368623 0.309193 2.182025 -2.543570 0.000000 0.000000 0.000000 3.464815 -0.442616 6.012932 0.664731 -0.205061 -2.874902 -4.089727 3.995900 6.907372 9.514110 -2.518616 -24.880821 0.000000 0.000000 0.000000 -24.932959 -3.957419 -2.069827 -45.158007 -7.121017 -2.353164 -9.699038 -21.877301 2.442528 0.000000 0.000000 0.000000 21.562708 -5.603589 -3.575096 56.266551 3.927858 -4.141630 7.687017 22.754707 2.484994 0.000000 0.000000 0.000000 
0.018844 0.928089 0.090039 -3.127080 2.197449 -0.723627 0.738390 1.264795 16.187628 0.511209 0.091549 -3.817080 -4.995043 -13.861990 -3.744489 0.000000 0.000000 0.000000 4.133161 3.130795 -23.943664 -1.690481 1.151429 19.102700 0.452240 1.367103 -0.404066 0.000000 0.000000 0.000000 4.110980 -0.521126 6.306676 0.527991 -0.172024 -2.021159 -4.319988 3.197853 5.489858 9.423355 -2.375131 -25.481681 0.000000 0.000000 0.000000 -23.478610 -3.300968 -2.123102 -46.942437 -7.420266 -2.316688 -9.143941 -22.139112 2.369722 0.000000 0.000000 0.000000 21.271122 -5.752256 -3.810070 57.280968 3.772445 -4.060582 6.565406 21.765033 2.122341 0.000000 0.000000 0.000000 
0.016799 0.920820 0.125450 -3.229790 2.219490 -0.042622 0.700534 1.329389 16.969643 1.280903 -0.062028 -1.611421 -4.142248 -13.726836 -5.985849 0.000000 0.000000 0.000000 4.880271 3.392966 -24.873493 -1.179463 0.833084 15.135648 0.064406 0.084427 0.164875 0.000000 0.000000 0.000000 4.452110 -0.623015 7.122998 0.625740 -0.170866 -3.167451 -4.827311 3.137953 6.101337 10.646288 -2.989373 -25.669502 0.000000 0.000000 0.000000 -22.877586 -3.436889 -1.934107 -47.299434 -7.618464 -2.339032 -9.767617 -22.494311 2.536878 0.000000 0.000000 0.000000 22.892499 -5.815336 -3.975381 56.524209 3.730891 -4.161253 5.191203 21.943976 1.909260 0.000000 0.000000 0.000000 
0.014687 0.912844 0.169598 -3.542802 2.331886 0.916854 0.939494 1.309670 17.333702 1.870130 -0.219451 0.435523 -3.354568 -12.129169 -6.463709 0.000000 0.000000 0.000000 6.067761 3.852382 -26.508331 -1.207014 0.926790 17.183038 0.026317 -0.625472 1.466433 0.000000 0.000000 0.000000 5.201013 -0.665802 6.762135 0.570946 -0.199401 -1.815199 -5.201534 2.011538 4.583970 10.547420 -2.904606 -26.130956 0.000000 0.000000 0.000000 -23.046646 -1.949299 -2.540300 -47.640882 -6.907046 -2.590281 -8.781302 -21.998982 2.326704 0.000000 0.000000 0.000000 23.271595 -4.830761 -3.759036 56.287473 4.011371 -3.819653 3.136884 20.339616 1.355377 0.000000 0.000000 0.000000 
0.012847 0.907404 0.224454 -4.261184 2.400020 2.123462 1.563898 1.077552 15.637660 2.440971 -0.720056 7.907503 -2.687682 -9.658675 -5.521011 0.000000 0.000000 0.000000 7.823708 4.375307 -27.583037 -1.533288 1.223865 21.793632 -0.762138 -2.518595 1.351957 0.000000 0.000000 0.000000 6.574650 -0.615221 4.956665 1.171770 -0.461789 -2.078198 -5.577537 2.109438 5.034567 9.196101 -2.167811 -26.397023 0.000000 0.000000 0.000000 -22.932934 -0.862749 -3.176091 -48.028095 -5.395323 -3.223855 -9.112603 -21.859124 2.370325 0.000000 0.000000 0.000000 22.618142 -4.955223 -3.709758 55.838113 3.844529 -3.880532 3.590586 19.444820 1.359558 0.000000 0.000000 0.000000 
0.011723 0.907943 0.286412 -5.321754 1.999153 1.633400 3.293589 0.490338 9.745083 1.898931 -1.741641 25.984882 -3.754075 -9.437536 -1.894044 0.000000 0.000000 0.000000 9.480940 4.233200 -24.571176 -1.059725 1.230884 25.036420 -0.465555 -0.913969 -0.585575 0.000000 0.000000 0.000000 8.041939 -0.756091 5.498433 0.940298 -0.292073 -3.658873 -4.659245 2.919955 6.456158 8.505996 -1.729444 -26.979008 0.000000 0.000000 0.000000 -23.817764 -0.199642 -3.790311 -47.725691 -3.473110 -4.007311 -9.501822 -23.109703 2.577765 0.000000 0.000000 0.000000 20.425008 -5.918008 -3.905248 56.602740 3.829740 -3.994456 5.183015 19.418301 1.626910 0.000000 0.000000 0.000000 
0.012494 0.912605 0.348709 -6.116114 0.429049 0.498755 5.234059 -0.120870 -0.897400 -0.902194 -1.417490 46.064960 -3.605794 -6.452537 2.124282 0.000000 0.000000 0.000000 11.218606 3.535046 -18.953701 -2.012323 1.684679 25.588808 -0.158321 1.163666 -2.909725 0.000000 0.000000 0.000000 9.093331 -1.011472 7.420457 0.514672 -0.075939 -4.994367 -4.105367 5.684564 7.667227 9.036821 -1.778456 -27.144605 0.000000 0.000000 0.000000 -24.052609 -0.261252 -4.360342 -47.799058 -2.497919 -4.336010 -9.600309 -22.542076 2.450883 0.000000 0.000000 0.000000 20.095010 -5.366350 -3.067467 55.362263 5.753902 -3.252311 5.649084 19.813325 1.801982 0.000000 0.000000 0.000000 
0.015863 0.918261 0.410363 -5.582423 -1.728800 -0.511886 5.802420 -0.481323 -11.202275 -2.402136 -0.141186 55.381558 -0.276079 -2.637715 -3.972433 0.000000 0.000000 0.000000 10.767090 2.075723 -11.720558 -2.913842 1.928914 22.772078 0.164384 3.750920 -5.262410 0.000000 0.000000 0.000000 8.176576 -1.089550 9.258746 -0.258643 0.248954 -6.116240 -3.164776 8.562189 9.050527 9.278820 -1.944396 -25.901749 0.000000 0.000000 0.000000 -24.103266 -1.533001 -4.107860 -47.124584 -1.549313 -4.589587 -9.537296 -22.506247 2.375021 0.000000 0.000000 0.000000 19.843945 -4.933543 -2.366332 54.941101 7.396158 -2.733153 5.367758 22.406610 2.130300 0.000000 0.000000 0.000000 
0.021710 0.924119 0.473092 -4.580246 -4.350187 -1.614147 6.064656 -0.631530 -19.919929 -3.082507 1.037034 51.529153 1.728218 1.105308 -6.316676 0.000000 0.000000 0.000000 9.364826 0.503617 -3.862320 -3.578746 1.840042 18.055139 1.342646 7.983531 -5.808801 0.000000 0.000000 0.000000 7.119451 -1.038787 10.355065 -0.994539 0.512671 -5.836847 -2.572718 12.311396 8.388534 10.484008 -2.310922 -25.709668 0.000000 0.000000 0.000000 -23.773159 -2.646390 -4.180537 -46.446264 0.541982 -5.027794 -10.038930 -21.571816 2.258060 0.000000 0.000000 0.000000 19.923768 -6.011027 -2.475265 53.187004 9.780860 -1.726526 6.354750 23.746954 2.580323 0.000000 0.000000 0.000000 
0.029608 0.923386 0.537474 -3.684028 -7.056822 -1.836171 6.899282 -0.369684 -25.538569 -3.589106 1.426655 39.039647 1.722464 3.120948 -1.479460 0.000000 0.000000 0.000000 7.188947 -0.529303 2.270979 -3.844941 1.737227 15.520602 1.571610 10.716723 -7.585755 0.000000 0.000000 0.000000 6.767883 -0.950802 10.228869 -2.058104 0.926393 -5.064217 -2.272295 14.512959 7.731025 10.352181 -2.286159 -24.880415 0.000000 0.000000 0.000000 -23.274211 -1.669493 -4.823203 -45.992583 2.813483 -5.758390 -11.704550 -21.244366 2.486993 0.000000 0.000000 0.000000 18.935222 -5.880712 -2.259374 53.086525 10.925120 -1.112093 6.561124 28.198411 3.307303 0.000000 0.000000 0.000000 
0.039302 0.916641 0.603442 -3.434074 -10.911055 -1.947709 8.278879 0.305552 -26.615124 -2.194131 0.516357 20.846119 1.034353 3.254384 3.893881 0.000000 0.000000 0.000000 5.672972 -1.251050 8.279409 -5.234288 1.887357 13.448165 2.867157 15.164359 -7.568771 0.000000 0.000000 0.000000 6.670243 -0.852750 9.804614 -3.331836 1.445096 -4.485818 -1.716828 15.905469 7.535009 10.270193 -2.375857 -24.627450 0.000000 0.000000 0.000000 -22.889561 0.136468 -5.489665 -45.951585 3.963554 -6.259077 -11.510848 -19.674534 2.294696 0.000000 0.000000 0.000000 18.605938 -5.078518 -1.980335 52.875376 12.957148 -0.169887 6.339871 31.444438 3.691895 0.000000 0.000000 0.000000 
0.050373 0.905092 0.671832 -3.344081 -13.902948 -1.221144 9.501008 0.957716 -27.539352 0.416036 -0.185913 5.598814 -0.351145 2.461148 11.711475 0.000000 0.000000 0.000000 3.539296 -1.333781 11.842734 -5.679156 2.173275 14.636010 3.301652 17.209027 -7.965316 0.000000 0.000000 0.000000 6.176912 -0.738465 8.980951 -3.461566 1.457078 -4.597489 -1.382936 17.297478 7.730951 9.652786 -2.129319 -24.313337 0.000000 0.000000 0.000000 -22.828374 1.598289 -6.152837 -45.959214 4.464127 -6.519622 -11.230283 -19.044950 2.195247 0.000000 0.000000 0.000000 18.548967 -5.197443 -2.115232 52.594262 13.776967 0.178946 8.394981 34.367209 4.752284 0.000000 0.000000 0.000000 
0.062189 0.894385 0.743704 -2.896862 -16.444657 -1.381446 11.152591 1.594480 -26.171776 0.305987 -0.015867 -0.807001 0.225841 3.010445 11.212681 0.000000 0.000000 0.000000 0.757219 -1.027699 15.288422 -7.204800 2.780815 16.073069 4.437922 19.973901 -7.357382 0.000000 0.000000 0.000000 5.616317 -0.637072 8.405299 -3.997962 1.664511 -4.522058 -0.493004 17.928315 7.623457 8.529251 -2.037281 -21.894559 0.000000 0.000000 0.000000 -25.200032 1.110657 -6.229635 -42.801432 5.833720 -6.346143 -10.885617 -17.213733 1.980556 0.000000 0.000000 0.000000 19.318548 -4.836403 -2.139775 51.501285 13.030241 -0.249944 11.385501 37.332167 6.174461 0.000000 0.000000 0.000000 
0.074959 0.888926 0.819773 -2.117032 -17.663723 -1.610190 10.888228 1.700455 -26.781677 -1.168983 0.138896 3.933760 -1.029560 0.458218 9.438483 0.000000 0.000000 0.000000 -1.521171 -0.569614 16.657462 -8.071090 3.969916 21.271947 4.964838 18.967160 -5.513597 0.000000 0.000000 0.000000 5.553185 -0.525655 6.918733 -4.090862 1.755884 -3.396241 -1.680201 17.501718 7.559218 8.882854 -2.225741 -22.572476 0.000000 0.000000 0.000000 -25.892470 0.457743 -5.729838 -41.910099 5.116861 -6.000088 -9.368567 -16.380337 1.711355 0.000000 0.000000 0.000000 20.815744 -5.312967 -2.668593 50.352694 12.803286 -0.465671 14.266288 37.792821 7.142133 0.000000 0.000000 0.000000 
0.088990 0.888490 0.897596 -0.568712 -18.349718 -1.896976 8.584587 1.111332 -27.196643 -2.618640 0.537752 9.581038 -2.691764 -1.102065 13.933728 0.000000 0.000000 0.000000 -5.503637 0.301248 16.231530 -7.459060 5.010243 27.197301 8.387420 16.803733 3.715080 0.000000 0.000000 0.000000 3.007904 -0.371647 6.484282 -3.115928 1.262085 -4.157349 -1.127766 17.863713 8.403537 8.616152 -2.323721 -21.416511 0.000000 0.000000 0.000000 -25.672836 -0.813876 -4.810282 -42.922915 3.923566 -5.848883 -8.295333 -15.481211 1.493687 0.000000 0.000000 0.000000 21.026438 -6.533005 -3.455047 51.352138 9.464177 -1.877239 15.487113 37.334213 7.459409 0.000000 0.000000 0.000000 
0.103249 0.889992 0.969669 0.583024 -17.930909 -2.088094 6.436266 0.519160 -28.616862 -2.661989 0.795590 15.686023 -4.234328 -2.929099 15.369150 0.000000 0.000000 0.000000 -6.813327 0.413299 11.007373 -7.820541 8.113430 39.070923 10.528326 15.206618 10.370568 0.000000 0.000000 0.000000 1.815105 -0.322137 6.883505 -3.088474 1.263092 -3.946367 -0.941557 14.694577 7.887880 8.036832 -2.166830 -22.592450 0.000000 0.000000 0.000000 -25.494676 -0.424624 -3.989085 -43.694901 0.691215 -5.126412 -8.879062 -15.854841 1.681959 0.000000 0.000000 0.000000 19.038679 -5.749000 -3.589745 52.438513 6.314548 -2.936698 16.250845 35.498594 6.906084 0.000000 0.000000 0.000000 
0.116062 0.891337 1.030584 1.507850 -17.774281 -2.913012 4.106555 -0.247851 -26.891484 -3.402719 1.326224 20.080406 -4.149453 -4.719743 9.494044 0.000000 0.000000 0.000000 -6.233979 0.313992 2.874990 -5.905971 11.332305 53.187379 7.688199 9.177762 11.062887 0.000000 0.000000 0.000000 0.817842 -0.292582 8.545048 -2.535452 0.999230 -4.354420 -1.720880 12.810559 8.475861 7.675340 -2.038530 -23.717449 0.000000 0.000000 0.000000 -24.871851 -3.111093 -1.649819 -45.253088 -2.936647 -4.309533 -6.468235 -17.438582 1.552194 0.000000 0.000000 0.000000 20.170245 -4.729575 -3.533606 51.970108 4.803707 -3.601359 13.509144 33.576501 5.465014 0.000000 0.000000 0.000000 
0.126256 0.897964 1.081713 1.909692 -16.663480 -3.729178 2.128222 -0.888061 -24.266864 -3.390721 1.461475 22.430913 -3.717357 -5.334345 5.616681 0.000000 0.000000 0.000000 -3.915420 0.498475 -5.019351 -3.363592 11.842532 61.238633 2.436114 2.664219 4.827754 0.000000 0.000000 0.000000 0.336407 -0.284914 10.485214 -1.661582 0.629368 -4.216516 -2.325629 9.587100 8.081548 6.603769 -1.825347 -23.299782 0.000000 0.000000 0.000000 -24.308640 -4.441557 0.040460 -45.048423 -7.658665 -2.860132 -6.031037 -20.268013 1.815488 0.000000 0.000000 0.000000 20.280555 -3.752099 -3.629546 51.884347 2.784017 -4.305083 12.505332 30.101013 4.323350 0.000000 0.000000 0.000000 
0.133792 0.907038 1.125817 1.155318 -15.937930 -4.491551 1.002078 -1.129977 -20.072537 -3.207606 1.258376 21.006801 -2.648530 -4.061254 3.698214 0.000000 0.000000 0.000000 -2.125351 0.908605 -9.744818 -1.247730 9.656470 60.049003 -0.753079 -1.170605 -1.162594 0.000000 0.000000 0.000000 1.304035 -0.399466 11.971901 -1.174833 0.409544 -4.854659 -2.673009 6.713498 8.999673 5.749315 -1.569463 -24.379716 0.000000 0.000000 0.000000 -23.638331 -4.686515 1.077646 -45.335700 -11.488454 -1.834709 -4.649085 -23.632596 1.964598 0.000000 0.000000 0.000000 19.637773 -3.099375 -3.769979 52.096697 1.310726 -4.915544 11.535430 27.775209 3.546566 0.000000 0.000000 0.000000 
0.138864 0.919918 1.164213 0.242833 -16.330241 -4.251889 0.330977 -1.124499 -16.448584 -2.355787 0.813599 17.908248 -2.142982 -3.259189 3.377597 0.000000 0.000000 0.000000 -0.355034 1.355982 -12.791129 -1.230097 7.655680 51.802005 -2.424901 -1.898832 -6.674326 0.000000 0.000000 0.000000 2.675470 -0.541060 12.461573 -1.232415 0.423685 -5.197273 -2.559243 5.533123 8.891844 6.289916 -1.986648 -24.689839 0.000000 0.000000 0.000000 -21.812973 -6.385281 2.509150 -45.935715 -13.543736 -1.177123 -4.453766 -27.828948 2.375768 0.000000 0.000000 0.000000 19.592891 -3.468976 -4.292325 52.357318 -0.416107 -5.607472 10.666393 25.991695 3.018393 0.000000 0.000000 0.000000 
0.141742 0.929181 1.197966 -0.842415 -16.451434 -4.175262 0.412785 -0.908348 -12.320987 -1.793805 0.508715 14.892662 -1.874925 -3.350427 1.622151 0.000000 0.000000 0.000000 0.736645 1.485316 -13.122482 -1.614932 5.346247 40.309118 -1.737340 1.974639 -8.324056 0.000000 0.000000 0.000000 4.022317 -0.682429 12.787484 -1.273949 0.455417 -4.562247 -2.722957 4.417618 8.009388 5.451899 -1.899285 -22.409843 0.000000 0.000000 0.000000 -20.379457 -6.864938 2.986788 -46.481608 -15.888153 -0.226977 -2.937008 -30.947988 2.314955 0.000000 0.000000 0.000000 18.386780 -3.911503 -4.548339 53.152074 -1.446695 -6.058675 11.211878 25.185622 2.953646 0.000000 0.000000 0.000000 
0.142798 0.935934 1.227305 -0.476325 -16.199201 -4.368939 -1.192440 -0.855966 -8.709269 -0.029825 -0.056466 11.326719 -2.563149 -4.485810 2.513453 0.000000 0.000000 0.000000 1.227051 1.496177 -12.916056 -2.828186 4.195933 31.701309 -0.760949 6.444168 -9.316134 0.000000 0.000000 0.000000 3.724234 -0.633498 12.151688 -0.873854 0.268103 -5.299639 -3.350052 3.685500 8.383700 6.109838 -2.415938 -21.951220 0.000000 0.000000 0.000000 -20.490141 -7.416944 3.502007 -45.666384 -17.019870 0.068456 -0.593131 -32.762380 1.846013 0.000000 0.000000 0.000000 19.011206 -3.602810 -4.641448 52.998931 -2.625609 -6.560459 10.512735 26.752203 2.970581 0.000000 0.000000 0.000000 
0.142156 0.939464 1.251872 -0.888249 -16.444172 -3.537497 -1.369226 -0.730929 -7.079874 0.761101 -0.246575 10.122688 -2.255756 -4.181095 1.689439 0.000000 0.000000 0.000000 2.444436 1.645775 -13.261467 -3.896439 3.665772 26.453890 1.066070 8.755465 -6.046121 0.000000 0.000000 0.000000 4.641013 -0.681695 11.145627 -1.475434 0.526931 -5.205430 -3.460713 3.624998 7.773690 5.705803 -2.410879 -20.022218 0.000000 0.000000 0.000000 -19.573480 -7.155459 3.351911 -46.094294 -17.984500 0.543226 -1.320810 -34.016604 2.168219 0.000000 0.000000 0.000000 19.882882 -3.651592 -4.919360 52.970594 -2.129532 -6.231381 9.943565 26.513092 2.792873 0.000000 0.000000 0.000000 
0.139884 0.941586 1.272300 -1.175740 -16.883850 -2.641124 -1.527499 -0.622085 -5.769356 1.388215 -0.377308 8.781113 -1.742661 -3.106343 1.836918 0.000000 0.000000 0.000000 2.628518 1.596714 -12.885695 -4.111529 2.919071 21.514531 1.859736 8.818080 -3.917919 0.000000 0.000000 0.000000 4.734868 -0.621108 9.521528 -2.060385 0.794362 -4.556927 -2.569893 3.979500 7.701854 5.578048 -2.300874 -20.299809 0.000000 0.000000 0.000000 -20.699186 -7.346839 3.516886 -45.749715 -17.669054 0.388004 -0.957340 -35.063149 2.134715 0.000000 0.000000 0.000000 20.000473 -2.583348 -4.386744 52.840132 -1.205622 -5.788004 9.390328 27.793542 2.814488 0.000000 0.000000 0.000000 
0.136172 0.943216 1.289750 -1.179055 -15.887024 -2.142060 -1.625627 -0.535790 -4.825444 1.570068 -0.413387 7.541278 -1.617251 -2.661444 2.428591 0.000000 0.000000 0.000000 2.537204 1.374774 -11.498203 -4.363643 2.468292 18.390540 2.415251 8.783356 -2.491241 0.000000 0.000000 0.000000 5.096355 -0.585659 8.173760 -2.183484 0.871405 -4.269681 -2.800617 3.947843 7.042077 6.074088 -2.641708 -19.083879 0.000000 0.000000 0.000000 -21.339636 -7.398597 3.384395 -45.142363 -16.483443 0.010431 -3.031433 -35.009141 2.711152 0.000000 0.000000 0.000000 19.574974 -2.658885 -4.227226 54.409428 0.542624 -5.179985 8.597119 28.904389 2.776413 0.000000 0.000000 0.000000 
0.131601 0.943016 1.305499 -1.286420 -15.270503 -1.837541 -1.330013 -0.448361 -4.113717 1.140272 -0.333437 7.584667 -1.187494 -2.201315 1.024934 0.000000 0.000000 0.000000 2.384978 1.118227 -9.790388 -4.445035 2.021638 15.213926 3.789271 10.048234 -0.161332 0.000000 0.000000 0.000000 5.254463 -0.535259 7.112719 -2.404854 0.985479 -4.050614 -2.593016 3.914889 6.583852 6.106799 -2.790124 -17.653037 0.000000 0.000000 0.000000 -21.937138 -6.521808 2.794950 -45.799650 -14.848997 -0.528440 -3.827292 -34.381763 2.883356 0.000000 0.000000 0.000000 19.288457 -1.766079 -3.650818 54.129912 2.347915 -4.302410 8.875813 29.750056 2.943802 0.000000 0.000000 0.000000 
0.126453 0.943233 1.320884 -1.113788 -14.864079 -1.780221 -1.155746 -0.346726 -3.179265 1.040555 -0.316420 7.509807 -0.796637 -1.588385 0.326354 0.000000 0.000000 0.000000 2.409988 0.856832 -7.869242 -3.990222 1.559084 12.416500 3.715323 9.164343 0.459122 0.000000 0.000000 0.000000 5.326098 -0.455650 5.855556 -2.351160 0.953524 -4.382842 -2.839959 4.860556 6.976462 6.818648 -3.137197 -17.441906 0.000000 0.000000 0.000000 -21.996419 -6.528772 2.474271 -46.596467 -12.498364 -1.348009 -4.835664 -33.260420 2.995394 0.000000 0.000000 0.000000 19.284113 -1.845115 -3.400622 54.329542 4.043388 -3.650733 8.251880 30.564017 2.978617 0.000000 0.000000 0.000000 
0.121216 0.943688 1.336581 -1.055264 -14.381439 -1.721299 -1.445205 -0.258668 -2.223337 1.313937 -0.379610 7.704177 -0.560435 -1.418407 -0.764539 0.000000 0.000000 0.000000 3.006945 0.598513 -5.790852 -4.267672 1.336989 10.092838 3.935824 9.069589 1.090620 0.000000 0.000000 0.000000 5.261087 -0.369055 4.663888 -2.301559 0.950701 -3.963412 -2.923916 5.414970 6.239802 6.933280 -3.164393 -16.915515 0.000000 0.000000 0.000000 -22.433392 -5.118947 1.349140 -46.958758 -9.655364 -2.290427 -7.176648 -31.838777 3.443848 0.000000 0.000000 0.000000 18.701159 -1.878172 -3.134090 54.516595 5.449585 -3.002694 7.948993 30.886902 2.996874 0.000000 0.000000 0.000000 
0.116589 0.943875 1.352412 -1.033148 -14.081816 -2.146094 -1.697773 -0.143005 -1.090204 1.263486 -0.381811 8.271505 -0.650341 -1.886935 -1.567501 0.000000 0.000000 0.000000 3.352952 0.281909 -3.271006 -4.219321 1.096559 7.977447 3.880608 8.771262 1.207409 0.000000 0.000000 0.000000 5.669675 -0.296107 3.705171 -2.618231 1.107196 -3.661226 -2.866051 5.936475 5.962168 7.201029 -3.286651 -16.651595 0.000000 0.000000 0.000000 -23.009784 -4.573676 0.776063 -47.388669 -7.192150 -3.163153 -8.265744 -29.513285 3.402200 0.000000 0.000000 0.000000 18.653657 -2.164343 -3.116300 54.104219 6.129552 -2.678566 7.150856 31.348690 2.891470 0.000000 0.000000 0.000000 
0.112881 0.943699 1.367969 -0.900525 -13.665216 -2.188308 -1.723734 -0.002980 0.141095 1.721865 -0.465050 7.412520 -1.334615 -3.472345 -1.633583 0.000000 0.000000 0.000000 2.568176 0.017888 -0.958818 -3.294669 0.793413 6.362613 3.962120 9.364500 0.787905 0.000000 0.000000 0.000000 5.737106 -0.191116 2.441915 -2.353793 0.998188 -3.487139 -3.293219 6.712117 5.304903 7.792695 -3.437395 -17.144059 0.000000 0.000000 0.000000 -22.764764 -3.743632 -0.074287 -48.225937 -4.682460 -4.024091 -9.207717 -26.204627 3.139718 0.000000 0.000000 0.000000 18.124115 -2.379980 -2.914078 54.342473 6.383637 -2.555204 6.675477 31.245694 2.843011 0.000000 0.000000 0.000000 
0.110185 0.943838 1.382152 -1.148225 -13.822071 -2.054638 -1.293314 0.052334 0.587180 1.308467 -0.384104 7.496021 -1.270089 -3.361535 -1.726170 0.000000 0.000000 0.000000 2.771400 -0.097050 0.001607 -3.151781 0.739520 6.000085 3.511348 8.278768 0.687304 0.000000 0.000000 0.000000 6.172677 -0.039116 0.757914 -2.371883 1.022966 -2.960074 -3.241696 7.272709 4.560892 8.122271 -3.514471 -17.387049 0.000000 0.000000 0.000000 -23.783213 -1.766222 -1.523893 -47.857127 -1.314340 -5.155801 -10.253806 -24.805673 3.152049 0.000000 0.000000 0.000000 17.379823 -2.160804 -2.604210 54.841618 6.341595 -2.532757 5.958576 30.110361 2.577867 0.000000 0.000000 0.000000 
0.107902 0.943400 1.394519 -0.855186 -12.932352 -3.176450 -1.782472 0.299006 2.692283 1.284541 -0.347925 5.551825 -1.998339 -5.193312 -2.045070 0.000000 0.000000 0.000000 1.896232 -0.299406 2.388822 -2.220630 0.554330 5.308699 3.571143 8.562061 0.538572 0.000000 0.000000 0.000000 5.944163 -0.017746 0.739483 -3.006294 1.300385 -3.565185 -2.455445 8.074923 5.175427 8.187284 -3.442729 -17.539412 0.000000 0.000000 0.000000 -23.362862 -2.918682 -1.125105 -48.524503 -0.007252 -5.707797 -10.163709 -22.615399 2.798414 0.000000 0.000000 0.000000 16.947801 -4.055767 -3.293904 54.708674 6.389162 -2.588750 7.405936 30.156443 3.047498 0.000000 0.000000 0.000000 
0.106170 0.942533 1.404226 -1.255578 -12.140223 -3.184601 -1.156734 0.454624 4.060513 1.642090 -0.339310 3.138924 -3.391436 -8.124479 -1.456071 0.000000 0.000000 0.000000 2.256791 -0.434756 3.537400 -2.077854 0.474913 4.479627 3.536241 8.047863 1.003366 0.000000 0.000000 0.000000 6.206279 0.064144 -0.086470 -1.982706 0.843798 -3.648216 -3.409019 7.720211 5.284812 8.659504 -3.748752 -17.280332 0.000000 0.000000 0.000000 -22.591508 -0.656595 -2.413015 -49.188395 1.411804 -6.354776 -11.207848 -22.041855 2.914698 0.000000 0.000000 0.000000 17.138255 -2.584955 -2.489210 55.087078 6.346561 -2.649635 5.209446 29.808205 2.482864 0.000000 0.000000 0.000000 
0.104839 0.941400 1.410956 -1.091036 -11.484035 -3.332285 -1.377951 0.591928 5.157846 2.285837 -0.381102 1.759688 -3.909871 -9.174681 -1.169898 0.000000 0.000000 0.000000 1.841886 -0.488690 4.350792 -1.812206 0.425850 4.252466 3.102153 7.505997 0.390411 0.000000 0.000000 0.000000 5.896731 0.112906 -0.642637 -2.432305 1.078913 -2.791982 -2.902554 8.179767 4.557828 8.834744 -3.906008 -16.406696 0.000000 0.000000 0.000000 -22.284505 -1.682469 -2.060722 -49.765968 1.790742 -6.462575 -11.019485 -21.129639 2.711840 0.000000 0.000000 0.000000 17.992187 -3.010209 -2.640203 54.553281 6.219918 -2.657112 4.653512 29.299373 2.347932 0.000000 0.000000 0.000000 
0.103983 0.941055 1.414991 -1.078453 -10.783434 -3.340036 -1.038846 0.699392 6.162411 2.158059 -0.276105 -0.070594 -4.142469 -9.137428 -0.103377 0.000000 0.000000 0.000000 1.664145 -0.513610 4.706216 -1.673807 0.370172 3.663716 2.963948 7.156933 0.400714 0.000000 0.000000 0.000000 5.771469 0.166692 -1.250127 -2.339413 1.041012 -2.853263 -2.909620 8.277732 4.529951 9.198111 -4.111123 -16.255447 0.000000 0.000000 0.000000 -21.454960 -1.391656 -2.247025 -49.911587 2.511013 -6.752718 -11.834528 -21.428896 2.880474 0.000000 0.000000 0.000000 18.155397 -3.391197 -2.756977 54.917453 5.245569 -3.116248 4.947650 29.097657 2.433812 0.000000 0.000000 0.000000 
0.103254 0.940899 1.416865 -1.002215 -9.741521 -3.016168 -0.830146 0.717320 6.444701 2.014180 -0.204438 -1.083094 -4.506626 -9.580484 0.532190 0.000000 0.000000 0.000000 1.638473 -0.497202 4.476271 -1.999716 0.401354 3.504149 3.178015 7.656548 0.489381 0.000000 0.000000 0.000000 5.531305 0.231343 -2.091450 -2.162258 0.969620 -2.845089 -2.856111 8.036427 4.625114 9.276678 -4.013338 -16.886932 0.000000 0.000000 0.000000 -20.536143 -0.914734 -2.452517 -50.417496 2.775916 -6.944431 -13.171439 -21.828066 3.174710 0.000000 0.000000 0.000000 18.042353 -3.600686 -2.794533 55.435152 4.946343 -3.269514 4.949574 28.390392 2.384338 0.000000 0.000000 0.000000 
0.102897 0.941088 1.416863 -0.858209 -8.877567 -2.815524 -0.708509 0.693716 6.345506 1.835851 -0.168613 -1.326100 -4.778004 -10.152027 0.542706 0.000000 0.000000 0.000000 1.565777 -0.480226 4.298818 -2.086231 0.408572 3.425324 2.732482 6.719749 0.272173 0.000000 0.000000 0.000000 5.385788 0.264763 -2.561492 -2.066704 0.936400 -2.711649 -2.956208 7.975125 4.636883 9.459115 -4.097172 -16.808073 0.000000 0.000000 0.000000 -19.881217 -1.324471 -2.247873 -50.683086 2.493121 -6.859049 -14.018699 -22.414236 3.405389 0.000000 0.000000 0.000000 17.661115 -3.788886 -2.769839 55.661731 4.220240 -3.601461 5.500806 28.268240 2.529171 0.000000 0.000000 0.000000 
0.102753 0.941280 1.415094 -0.574879 -8.126616 -2.356504 -0.936847 0.607647 5.549136 1.764196 -0.153183 -1.418593 -4.690694 -9.746878 0.883434 0.000000 0.000000 0.000000 1.645249 -0.430251 3.692399 -2.536247 0.476558 3.572179 2.331532 5.931958 -0.005791 0.000000 0.000000 0.000000 5.028932 0.280808 -2.984077 -1.837753 0.831757 -3.100071 -3.031737 7.963184 5.336463 9.218180 -3.846646 -17.270916 0.000000 0.000000 0.000000 -19.508384 -1.448903 -2.190004 -50.753206 1.820355 -6.640988 -14.863786 -22.887617 3.638549 0.000000 0.000000 0.000000 17.822694 -4.112689 -2.863406 55.598371 4.118977 -3.718000 5.579839 27.642172 2.516727 0.000000 0.000000 0.000000 
0.102595 0.941037 1.412053 -0.321649 -7.582615 -1.903688 -0.880379 0.533496 4.936271 1.641399 -0.131977 -1.533183 -5.055033 -10.539740 0.846618 0.000000 0.000000 0.000000 1.488454 -0.310931 2.570883 -2.675710 0.554077 4.389485 2.280225 5.949489 -0.174883 0.000000 0.000000 0.000000 5.023936 0.282351 -3.113338 -2.016156 0.916401 -3.172105 -3.344555 7.875359 5.700415 9.445347 -3.829391 -18.019810 0.000000 0.000000 0.000000 -19.123379 -1.921957 -1.933260 -50.952718 0.895123 -6.315830 -15.000906 -22.731480 3.632897 0.000000 0.000000 0.000000 17.926220 -4.226091 -2.873132 55.677478 4.193576 -3.720745 5.670646 27.682543 2.562841 0.000000 0.000000 0.000000 
0.102144 0.941635 1.408607 -0.150152 -7.452672 -1.665016 -0.818350 0.498601 4.647085 1.005387 -0.053756 -1.725238 -4.919951 -9.907595 1.411877 0.000000 0.000000 0.000000 1.350138 -0.241552 1.945444 -2.382409 0.506938 4.284362 1.875000 4.590546 0.230514 0.000000 0.000000 0.000000 5.118156 0.252180 -2.809577 -2.308020 1.036068 -3.918726 -3.015091 8.132334 6.821202 9.085352 -3.622151 -18.032358 0.000000 0.000000 0.000000 -19.685778 -2.273400 -1.837655 -50.913119 0.817048 -6.349761 -13.827313 -23.513487 3.529618 0.000000 0.000000 0.000000 19.500943 -4.680466 -3.185452 54.263336 4.800294 -3.551398 5.150206 27.778483 2.483992 0.000000 0.000000 0.000000 
0.101132 0.942088 1.405725 -0.418087 -7.804281 -1.105795 -0.439933 0.414129 3.981844 1.047538 -0.074772 -1.347778 -4.848838 -9.856223 1.241797 0.000000 0.000000 0.000000 1.775702 -0.178380 1.133928 -2.353402 0.513799 4.454838 2.289107 5.274319 0.707759 0.000000 0.000000 0.000000 5.127334 0.262056 -3.001749 -2.714523 1.242545 -2.575577 -2.677961 7.350857 6.003068 9.462178 -4.100215 -17.083015 0.000000 0.000000 0.000000 -20.099458 -1.294863 -2.197573 -50.784083 0.214181 -6.044795 -15.031173 -23.099985 3.748620 0.000000 0.000000 0.000000 18.680787 -4.015039 -2.981651 55.535167 6.288763 -2.794206 2.692460 26.428496 1.746694 0.000000 0.000000 0.000000 
0.099693 0.943366 1.403765 -0.069638 -7.013058 -1.439992 -1.030859 0.439951 4.065369 1.333765 -0.111413 -1.199359 -4.050413 -7.586263 2.249828 0.000000 0.000000 0.000000 1.602501 -0.242293 1.827994 -2.201563 0.445425 3.726909 3.159005 6.687305 1.720550 0.000000 0.000000 0.000000 4.529719 0.219855 -2.688809 -2.451848 1.118474 -3.134693 -2.436681 6.723325 6.486022 8.698752 -3.756561 -16.680609 0.000000 0.000000 0.000000 -20.150452 -2.161746 -1.630976 -50.839837 0.486180 -6.228777 -14.368586 -22.977599 3.622940 0.000000 0.000000 0.000000 18.738250 -2.954810 -2.468340 55.384554 6.286566 -2.849865 1.904638 25.369002 1.483676 0.000000 0.000000 0.000000 
