HIERARCHY
ROOT Hips
{
	OFFSET -0.001795 -0.223333 0.028219
	CHANNELS 6 Xposition Yposition Zposition Zrotation Yrotation Xrotation 
	JOINT LeftUpLeg
	{
		OFFSET 0.069520 -0.091406 -0.006815
		CHANNELS 3 Zrotation Yrotation Xrotation
		JOINT LeftLeg
		{
			OFFSET 0.034277 -0.375199 -0.004496
			CHANNELS 3 Zrotation Yrotation Xrotation
			JOINT LeftFoot
			{
				OFFSET -0.013596 -0.397961 -0.043693
				CHANNELS 3 Zrotation Yrotation Xrotation
				JOINT LeftToe
				{
					OFFSET 0.026358 -0.055791 0.119288
					CHANNELS 3 Zrotation Yrotation Xrotation
					End Site
					{
						OFFSET 0.000000 0.000000 0.000000
					}
				}
			}
		}
	}
	JOINT RightUpLeg
	{
		OFFSET -0.067670 -0.090522 -0.004320
		CHANNELS 3 Zrotation Yrotation Xrotation
		JOINT RightLeg
		{
			OFFSET -0.038290 -0.382569 -0.008850
			CHANNELS 3 Zrotation Yrotation Xrotation
			JOINT RightFoot
			{
				OFFSET 0.015774 -0.398415 -0.042312
				CHANNELS 3 Zrotation Yrotation Xrotation
				JOINT RightToe
				{
					OFFSET -0.025372 -0.048144 0.123348
					CHANNELS 3 Zrotation Yrotation Xrotation
					End Site
					{
						OFFSET 0.000000 0.000000 0.000000
					}
				}
			}
		}
	}
	JOINT Spine
	{
		OFFSET -0.002533 0.108963 -0.026696
		CHANNELS 3 Zrotation Yrotation Xrotation
		JOINT Spine1
		{
			OFFSET 0.005487 0.135180 0.001092
			CHANNELS 3 Zrotation Yrotation Xrotation
			JOINT Spine2
			{
				OFFSET 0.001457 0.052922 0.025425
				CHANNELS 3 Zrotation Yrotation Xrotation
				JOINT Neck
				{
					OFFSET -0.002778 0.213870 -0.042857
					CHANNELS 3 Zrotation Yrotation Xrotation
					JOINT Head
					{
						OFFSET 0.005152 0.064970 0.051349
						CHANNELS 3 Zrotation Yrotation Xrotation
						End Site
						{
							OFFSET 0.000000 0.000000 0.000000
						}
					}
				}
				JOINT LeftShoulder
				{
					OFFSET 0.078845 0.121749 -0.034090
					CHANNELS 3 Zrotation Yrotation Xrotation
					JOINT LeftArm
					{
						OFFSET 0.090977 0.030469 -0.008868
						CHANNELS 3 Zrotation Yrotation Xrotation
						JOINT LeftForeArm
						{
							OFFSET 0.259612 -0.012772 -0.027456
							CHANNELS 3 Zrotation Yrotation Xrotation
							JOINT LeftHand
							{
								OFFSET 0.249234 0.008986 -0.001171
								CHANNELS 3 Zrotation Yrotation Xrotation
								End Site
								{
									OFFSET 0.000000 0.000000 0.000000
								}
							}
						}
					}
				}
				JOINT RightShoulder
				{
					OFFSET -0.081759 0.118833 -0.038615
					CHANNELS 3 Zrotation Yrotation Xrotation
					JOINT RightArm
					{
						OFFSET -0.096012 0.032551 -0.009143
						CHANNELS 3 Zrotation Yrotation Xrotation
						JOINT RightForeArm
						{
							OFFSET -0.253742 -0.013329 -0.021401
							CHANNELS 3 Zrotation Yrotation Xrotation
							JOINT RightHand
							{
								OFFSET -0.255298 0.007772 -0.005559
								CHANNELS 3 Zrotation Yrotation Xrotation
								End Site
								{
									OFFSET 0.000000 0.000000 0.000000
								}
							}
						}
					}
				}
			}
		}
	}
}
MOTION
Frames: 100
Frame Time: 0.050000
0.000000 1.033956 0.000000 -1.693208 -1.870728 -2.679355 6.722146 0.418499 11.682343 1.817049 2.253800 -43.537557 1.880965 19.296101 105.908101 0.000000 0.000000 0.000000 -7.497802 0.092500 1.900950 4.640949 -0.291068 -28.389649 -34.990301 -25.684849 108.720993 0.000000 0.000000 0.000000 5.370342 -0.255950 3.078636 -2.600321 1.371723 -45.699489 0.166525 5.415843 51.537539 7.308306 2.216679 -78.758181 0.000000 0.000000 0.000000 7.616207 2.102241 -0.535516 -58.762317 -8.875364 -8.195274 -11.317147 50.549494 -5.343120 0.000000 0.000000 0.000000 -1.614636 -7.365171 -2.809988 60.384087 -0.260132 -10.286868 -15.169400 -44.200682 8.313218 0.000000 0.000000 0.000000 
0.000672 1.024341 -0.001620 -1.815537 -1.465730 -2.979632 8.217334 0.341460 15.338703 0.970147 2.268941 -49.716989 14.737426 21.229786 114.486667 0.000000 0.000000 0.000000 -7.605857 0.101627 1.204801 5.411559 -0.259283 -25.669463 -49.420931 -29.896283 106.749178 0.000000 0.000000 0.000000 5.525436 -0.304902 3.657278 -1.045990 1.256703 -45.828089 -2.773718 6.215854 52.634763 13.566322 1.546543 -78.660293 0.000000 0.000000 0.000000 12.463232 5.366735 -1.266467 -53.031486 -1.596749 -10.689796 -7.193878 51.133040 -4.046062 0.000000 0.000000 0.000000 -4.553808 -11.711212 -4.359625 53.123416 -3.991765 -10.667342 -25.123839 -42.471011 12.049075 0.000000 0.000000 0.000000 
0.002078 1.025963 -0.003786 -0.611631 -2.103820 -4.030750 7.442534 0.547607 16.307789 1.832042 2.865497 -52.100463 -0.088296 20.091832 118.203780 0.000000 0.000000 0.000000 -10.306570 0.161439 3.632858 5.942847 0.001430 -30.653166 -47.144301 -26.652986 113.846312 0.000000 0.000000 0.000000 3.905741 -0.429483 6.246561 -2.244350 1.500280 -52.671252 -0.679566 6.356163 60.013677 12.317206 2.260424 -87.933628 0.000000 0.000000 0.000000 13.489238 3.041883 -1.109561 -44.859165 1.810938 -11.238462 18.397836 60.965318 10.430714 0.000000 0.000000 0.000000 -2.399649 -11.404793 -4.486325 36.377996 -7.461367 -9.686314 -36.873270 -44.101621 17.311657 0.000000 0.000000 0.000000 
0.003986 1.036492 -0.008156 -1.728174 -3.434679 -3.711996 9.608215 0.239876 11.725067 4.156746 3.355223 -45.934407 -5.719325 20.721924 122.277163 0.000000 0.000000 0.000000 -9.143004 0.175866 1.561375 5.144673 -0.067149 -28.542499 -45.775084 -26.222935 113.232438 0.000000 0.000000 0.000000 4.754661 -0.435216 5.821153 -0.456478 1.571674 -50.639799 -2.608902 7.706280 59.398662 17.051314 2.128966 -87.680036 0.000000 0.000000 0.000000 19.940011 7.893405 -2.305092 -37.473766 10.489697 -11.321118 50.878575 53.054136 25.572323 0.000000 0.000000 0.000000 -8.348120 -9.740467 -3.962992 29.975400 -13.238124 -8.853833 -42.166500 -39.458533 17.315452 0.000000 0.000000 0.000000 
0.006949 1.055864 -0.012217 -0.660699 -3.769741 -4.500296 9.230562 0.245926 8.168153 3.292638 2.258519 -35.853501 -6.381054 20.783319 120.929653 0.000000 0.000000 0.000000 -9.834387 0.216963 -0.742950 2.899495 -0.392375 -24.677062 -34.197057 -23.236806 115.203067 0.000000 0.000000 0.000000 3.262477 -0.465548 7.461899 -2.432491 1.649220 -50.692991 -0.172622 8.172733 60.515032 16.063415 2.156216 -90.835930 0.000000 0.000000 0.000000 27.231246 9.584368 -2.531618 -26.298882 17.610258 -8.836310 59.604931 39.180426 20.621843 0.000000 0.000000 0.000000 -12.421100 -14.442690 -5.679199 18.458626 -19.904565 -5.782412 -44.019299 -26.732250 12.053602 0.000000 0.000000 0.000000 
0.010541 1.079850 -0.016100 -0.723354 -5.783077 -4.505162 9.239840 0.261282 5.321861 5.290867 2.004764 -28.158330 -18.582001 18.480214 111.438532 0.000000 0.000000 0.000000 -9.395885 0.298540 -3.327161 1.435364 -0.443437 -20.964331 -30.290166 -21.625962 116.036981 0.000000 0.000000 0.000000 3.158132 -0.414339 6.882384 -1.267338 1.860929 -50.691312 -0.746661 8.533358 61.464469 15.907234 2.038007 -89.719992 0.000000 0.000000 0.000000 31.196997 11.107748 -3.270112 -13.434434 27.670927 -4.774423 60.131542 25.767448 12.515270 0.000000 0.000000 0.000000 -18.149077 -13.900574 -5.386674 8.229354 -25.676531 -2.078527 -42.657750 -19.703432 7.985190 0.000000 0.000000 0.000000 
0.013579 1.094600 -0.019293 -0.616022 -7.007932 -3.751837 9.609521 0.219598 2.237647 5.364406 1.548949 -23.325791 -23.816366 16.151682 105.153236 0.000000 0.000000 0.000000 -8.305752 0.361506 -4.158008 0.100520 -0.505427 -20.513999 -27.101526 -20.730316 115.651418 0.000000 0.000000 0.000000 2.512572 -0.303828 5.358745 -1.243376 1.905919 -49.199354 0.085200 9.197039 62.048125 18.011419 2.073475 -91.848548 0.000000 0.000000 0.000000 33.562721 12.412186 -3.876685 -0.502826 35.740066 0.863796 56.155426 13.006847 4.289810 0.000000 0.000000 0.000000 -18.359208 -15.286919 -5.812973 -3.297926 -31.611960 2.964859 -41.398369 -14.894229 5.102874 0.000000 0.000000 0.000000 
0.016195 1.093007 -0.020152 -0.847803 -6.850733 -3.575544 8.896243 0.189113 1.513680 7.756982 1.807608 -23.663243 -25.410858 14.609427 102.063416 0.000000 0.000000 0.000000 -7.855239 0.352951 -3.854457 -0.293600 -0.567878 -22.225071 -28.033086 -20.976770 115.669802 0.000000 0.000000 0.000000 1.881316 -0.213856 4.036023 -1.447967 1.825713 -47.869599 0.457915 8.336433 62.470520 21.866196 2.449583 -93.517568 0.000000 0.000000 0.000000 35.667209 15.311569 -4.579202 12.526875 38.197381 7.543034 55.528521 6.245776 0.275357 0.000000 0.000000 0.000000 -18.303059 -15.412392 -5.751403 -13.487431 -35.695767 7.858014 -43.030986 -14.756928 4.373463 0.000000 0.000000 0.000000 
0.018957 1.073699 -0.019542 -1.272940 -6.706217 -3.593239 9.141355 0.189927 1.744767 7.647574 1.965188 -24.980559 -20.890931 16.886104 105.927384 0.000000 0.000000 0.000000 -7.778852 0.288929 -1.759182 -0.239411 -0.607625 -26.953231 -35.229654 -21.942676 117.107220 0.000000 0.000000 0.000000 2.399527 -0.230045 4.050363 -0.254560 1.724721 -47.276444 0.407086 10.413053 62.981564 24.741507 2.653692 -96.898665 0.000000 0.000000 0.000000 37.092838 16.410919 -4.246302 21.032395 37.858275 11.304988 55.660407 11.224251 1.484298 0.000000 0.000000 0.000000 -17.973980 -16.207238 -6.460408 -24.265954 -41.233193 14.411517 -45.030829 -15.382072 4.477401 0.000000 0.000000 0.000000 
0.022058 1.049825 -0.017167 -2.152566 -3.642260 -2.372118 9.655133 0.064980 1.957304 6.243950 1.860901 -26.717220 -11.805247 17.414745 105.957838 0.000000 0.000000 0.000000 -7.391313 0.145015 1.414741 -1.964476 -1.310470 -33.427111 -44.264714 -23.822504 119.593490 0.000000 0.000000 0.000000 2.988999 -0.153890 2.361312 -4.732701 1.622583 -47.856033 2.914237 5.221034 64.473250 22.028139 3.410484 -98.634140 0.000000 0.000000 0.000000 36.300278 17.573985 -5.225113 23.373417 38.201642 12.996510 54.361393 13.164687 2.561623 0.000000 0.000000 0.000000 -17.827165 -14.907468 -5.929164 -31.320129 -43.240670 18.048749 -43.187585 -15.840029 3.811216 0.000000 0.000000 0.000000 
0.025474 1.050496 -0.018259 -2.954797 -0.080752 -1.323830 10.394449 -0.092413 1.311683 3.538715 1.434064 -28.424315 0.165421 18.465392 105.670832 0.000000 0.000000 0.000000 -7.780487 0.097080 1.574563 -2.650411 -1.832093 -33.528597 -39.448102 -24.582983 118.915568 0.000000 0.000000 0.000000 1.947062 -0.061669 0.963157 -3.955695 1.273777 -46.590663 3.065684 2.410005 62.600901 17.324976 3.171231 -96.779471 0.000000 0.000000 0.000000 34.741934 16.733438 -4.632795 19.547868 32.835007 10.120344 50.582220 16.572304 4.157623 0.000000 0.000000 0.000000 -20.199861 -15.504350 -5.871349 -29.565866 -39.334551 16.417873 -40.109297 -13.406326 3.062680 0.000000 0.000000 0.000000 
0.028949 1.083084 -0.025459 -3.408507 -0.443218 -2.354416 12.609394 -0.100845 1.896147 1.391342 1.115590 -27.827494 -7.050067 16.613469 102.237097 0.000000 0.000000 0.000000 -9.107737 0.149185 0.210422 -2.642325 -1.368974 -26.764707 -26.150298 -23.527167 112.346439 0.000000 0.000000 0.000000 2.616136 -0.168398 2.681199 -2.901329 1.258096 -45.168460 4.407361 4.643240 58.475476 15.546934 2.230398 -92.781665 0.000000 0.000000 0.000000 35.248671 13.694043 -2.696347 7.587634 25.975742 3.942150 49.300807 18.216925 4.973037 0.000000 0.000000 0.000000 -21.933639 -15.665469 -5.819996 -19.020754 -32.854966 10.482617 -40.158586 -12.068267 3.744085 0.000000 0.000000 0.000000 
0.031838 1.122959 -0.035336 -3.771285 1.005771 -3.183958 14.501844 -0.102363 -0.310200 1.171312 0.864319 -24.790751 -13.977135 14.683167 103.016796 0.000000 0.000000 0.000000 -10.815936 0.115220 -1.572032 -2.344142 -0.843955 -17.915617 -13.194925 -21.688875 105.093137 0.000000 0.000000 0.000000 3.538757 -0.180944 2.723293 -1.785679 1.083244 -43.790337 1.837453 5.168305 55.363997 22.096212 1.765889 -88.972503 0.000000 0.000000 0.000000 37.150128 10.875915 -1.423409 -1.373219 18.486435 0.308855 40.593964 18.409246 4.558663 0.000000 0.000000 0.000000 -23.168581 -11.972190 -4.825916 -6.761972 -24.487718 4.079625 -35.025991 -14.242071 4.821138 0.000000 0.000000 0.000000 
0.033930 1.142080 -0.043019 -3.668873 0.117799 -4.599871 15.825812 -0.093201 1.594793 1.366423 0.926251 -25.030993 -15.165333 14.379979 102.016728 0.000000 0.000000 0.000000 -12.984848 0.098517 -0.472468 -0.504951 -0.513147 -12.976158 -8.629992 -20.248312 98.299786 0.000000 0.000000 0.000000 4.946986 -0.321575 4.399494 -0.624541 1.046455 -42.983295 0.612260 8.973532 52.394909 23.548989 1.370624 -88.770778 0.000000 0.000000 0.000000 39.012794 7.714680 0.269219 -5.798283 9.488251 -1.044415 23.228793 19.298616 2.429191 0.000000 0.000000 0.000000 -21.441332 -7.566077 -4.409862 1.244361 -19.198937 0.801681 -29.900446 -17.405751 5.653871 0.000000 0.000000 0.000000 
0.035217 1.132036 -0.047451 -2.860231 3.352420 -6.894687 16.800682 -0.195992 1.537312 0.262519 0.580186 -23.239447 -9.813408 14.705544 102.775540 0.000000 0.000000 0.000000 -16.698673 -0.030773 3.504545 0.642135 -0.605820 -14.405632 -10.314815 -21.345483 102.594914 0.000000 0.000000 0.000000 4.081244 -0.436157 6.562388 -3.735038 1.021316 -44.962344 1.170074 4.680618 52.409877 19.257767 1.929880 -90.398286 0.000000 0.000000 0.000000 38.133475 2.259039 -0.285999 -7.628095 2.894226 -1.461738 9.796016 23.572256 0.815437 0.000000 0.000000 0.000000 -15.526225 -6.064240 -3.417940 4.145048 -7.909445 -0.610992 -20.922097 -23.529489 4.584184 0.000000 0.000000 0.000000 
0.035283 1.090321 -0.045993 -2.839480 0.263266 -7.905425 19.028607 -0.245522 4.893276 2.708860 1.225850 -29.175616 -14.235367 14.869272 104.462381 0.000000 0.000000 0.000000 -18.565130 0.297488 5.281519 0.800211 -0.776451 -21.974319 -9.128158 -20.186505 106.736168 0.000000 0.000000 0.000000 4.384254 -0.538049 8.030144 0.445095 1.019830 -46.340622 -2.455824 7.358654 52.533039 20.716991 2.397678 -91.126337 0.000000 0.000000 0.000000 34.585146 1.177281 -0.143985 -8.094209 -3.487295 -1.523219 1.697581 24.746873 -0.902012 0.000000 0.000000 0.000000 -11.421964 -1.058118 -1.724763 6.394388 -3.452835 -1.227556 -10.661344 -23.491555 2.044762 0.000000 0.000000 0.000000 
0.034457 1.022928 -0.036585 -1.662117 -2.036568 -8.997366 20.691986 -0.633388 11.585682 3.698824 2.145884 -38.206166 -16.965044 15.626419 107.346049 0.000000 0.000000 0.000000 -21.615560 1.034626 9.398279 3.854361 -0.309319 -30.581122 -21.911330 -22.017782 111.576312 0.000000 0.000000 0.000000 4.358814 -0.513151 8.126191 2.674857 1.102274 -46.235114 -2.988454 10.533818 53.853879 25.098418 2.255998 -92.586393 0.000000 0.000000 0.000000 28.815204 -1.383090 0.509664 -8.520083 -7.463050 -1.651071 1.010657 24.686612 -1.134528 0.000000 0.000000 0.000000 -4.420085 -1.488104 -1.244148 6.385093 1.335954 -1.355904 -6.716087 -21.918101 1.043037 0.000000 0.000000 0.000000 
0.033069 0.953795 -0.026861 0.600123 -3.905610 -10.236924 20.399673 -0.809430 18.268343 2.108834 2.542734 -45.584314 -7.663365 18.793126 113.353564 0.000000 0.000000 0.000000 -25.668059 2.203340 13.086498 7.702564 1.115423 -39.117193 -47.321057 -22.472974 123.667766 0.000000 0.000000 0.000000 2.646440 -0.428922 8.480386 3.970942 1.287144 -47.080728 -3.365600 10.765471 54.912185 25.696278 3.039696 -94.541483 0.000000 0.000000 0.000000 21.369891 -4.093457 0.661923 -7.353777 -6.825956 -1.537170 0.875810 26.246743 -1.222943 0.000000 0.000000 0.000000 0.479692 2.085392 0.611198 7.470858 4.007433 -1.630289 -8.519062 -21.957692 1.383658 0.000000 0.000000 0.000000 
0.031021 0.897888 -0.022240 0.862003 -4.334622 -9.074156 21.813975 -1.471629 24.164685 0.880470 3.065941 -57.909058 6.293803 20.863668 122.313918 0.000000 0.000000 0.000000 -28.826680 3.735238 18.000432 11.040211 3.385931 -52.393571 -70.649649 -21.632077 130.601028 0.000000 0.000000 0.000000 3.147133 -0.335527 6.422587 2.457611 1.562756 -49.412935 -2.959186 8.952354 57.645125 24.239502 3.246508 -93.660690 0.000000 0.000000 0.000000 18.842292 -5.365902 0.446992 -9.198824 -7.957938 -1.908045 3.837285 28.541782 -0.407675 0.000000 0.000000 0.000000 2.731086 3.981961 1.616400 8.751446 5.817342 -1.921050 -7.472910 -21.225379 1.081051 0.000000 0.000000 0.000000 
0.028354 0.864610 -0.019977 1.502316 -4.478857 -8.238526 22.021032 -1.638376 25.784288 0.922625 3.602328 -64.005009 14.912958 21.180638 124.938018 0.000000 0.000000 0.000000 -29.254026 4.305693 20.004094 10.779139 4.149916 -60.104090 -86.052512 -21.103899 132.905567 0.000000 0.000000 0.000000 2.107522 -0.240407 5.079430 3.227568 1.576949 -49.349621 -3.599866 8.534988 57.099154 23.951475 2.825523 -91.148286 0.000000 0.000000 0.000000 16.632569 -7.142232 0.874683 -6.996445 -7.958952 -1.573163 1.739936 29.689231 -1.004338 0.000000 0.000000 0.000000 4.288574 6.084672 2.597806 8.148848 4.701408 -1.796383 -7.425376 -20.523056 1.015979 0.000000 0.000000 0.000000 
0.025735 0.859270 -0.021428 0.880760 -5.378878 -7.881019 22.707002 -1.579383 25.047791 2.033174 4.212407 -62.251274 14.301888 21.530704 119.333421 0.000000 0.000000 0.000000 -29.058875 4.533359 20.424434 13.193095 5.832104 -62.523517 -94.928919 -24.066213 129.960532 0.000000 0.000000 0.000000 1.639549 -0.217839 4.764733 4.783240 1.526381 -48.467917 -3.304742 8.107231 55.118128 23.572100 2.395818 -88.188347 0.000000 0.000000 0.000000 15.025468 -5.950526 0.731434 -4.755550 -10.246075 -1.335638 2.194534 30.758900 -0.918753 0.000000 0.000000 0.000000 3.055695 5.486814 2.187365 7.924598 5.438990 -1.722173 -10.101057 -19.448556 1.467895 0.000000 0.000000 0.000000 
0.023435 0.882894 -0.029858 0.414564 -3.319200 -8.130875 24.564066 -1.855767 21.005145 0.100530 2.344449 -55.596985 16.571996 21.371547 117.126621 0.000000 0.000000 0.000000 -27.847633 3.264682 17.411333 11.950900 3.609269 -53.746423 -87.000209 -23.291560 130.268632 0.000000 0.000000 0.000000 1.282805 -0.277133 6.142794 4.757719 1.243903 -47.573273 -2.908399 7.581238 52.522215 18.469152 2.131484 -85.378007 0.000000 0.000000 0.000000 20.028656 -4.896424 0.516163 -6.128103 -11.759928 -1.457138 0.409954 30.245488 -1.428886 0.000000 0.000000 0.000000 -1.972446 4.449877 1.198722 10.216107 3.873127 -2.019887 -11.374409 -20.138544 1.878523 0.000000 0.000000 0.000000 
0.020104 0.941312 -0.044275 0.241597 -4.381346 -8.199092 22.819758 -0.952229 16.288764 1.088811 2.370454 -46.078481 15.276308 21.689697 115.057224 0.000000 0.000000 0.000000 -24.609990 1.842693 10.397995 10.957667 2.049478 -39.806055 -72.126283 -22.048189 129.334930 0.000000 0.000000 0.000000 0.256991 -0.302664 7.745065 3.636050 1.482502 -48.454120 0.347432 6.680733 53.362068 13.515127 2.743507 -87.069911 0.000000 0.000000 0.000000 22.956951 -3.157601 -0.134690 -5.882885 -9.099896 -1.321334 2.859853 28.137540 -0.595723 0.000000 0.000000 0.000000 -7.642541 0.960068 -0.383927 11.602764 2.441824 -2.205116 -15.600246 -18.058008 2.471862 0.000000 0.000000 0.000000 
0.016472 1.030355 -0.060756 -0.445410 -2.457445 -7.788845 19.265637 -0.066693 5.891845 4.027066 1.709619 -30.247708 4.982302 19.879072 108.539403 0.000000 0.000000 0.000000 -19.864703 0.445227 2.907528 6.522795 -0.044059 -24.194478 -38.784623 -22.621453 121.027809 0.000000 0.000000 0.000000 -0.665235 -0.330118 9.677089 3.614610 0.943626 -43.604874 -0.590105 2.834427 45.377381 10.341523 2.548724 -77.929055 0.000000 0.000000 0.000000 27.070931 0.299009 -0.732444 -6.325926 -4.695220 -1.177400 4.460887 23.349219 0.060389 0.000000 0.000000 0.000000 -15.477105 0.231289 -0.400728 12.934952 -0.188892 -2.212307 -17.550026 -13.858516 2.178098 0.000000 0.000000 0.000000 
0.013631 1.126293 -0.072204 -1.180632 -4.208684 -6.482406 15.610381 0.309046 0.632577 6.003535 1.186121 -20.685978 -8.445192 17.802935 105.134156 0.000000 0.000000 0.000000 -13.775965 0.148950 -4.223748 0.679530 -0.449939 -13.866209 -14.944157 -19.359571 116.787392 0.000000 0.000000 0.000000 0.692384 -0.389884 9.214611 2.990205 0.890019 -40.816796 -0.046079 4.708353 43.262301 11.973903 2.697530 -80.425015 0.000000 0.000000 0.000000 33.113123 1.069700 -0.598031 -5.775664 1.972728 -0.982312 7.564335 22.200355 0.652597 0.000000 0.000000 0.000000 -20.574549 -2.818123 -1.250135 13.878587 -6.333868 -2.658678 -23.818398 -12.130641 2.896363 0.000000 0.000000 0.000000 
0.012438 1.201442 -0.075989 -1.356043 -2.597008 -5.828410 10.870309 0.143134 -1.797530 6.245647 0.754111 -16.276414 -7.646190 17.198729 103.011524 0.000000 0.000000 0.000000 -10.699806 0.167235 -4.535325 -0.109459 -0.451958 -12.503724 -4.749516 -18.352174 111.726107 0.000000 0.000000 0.000000 1.899698 -0.464176 8.889178 -1.199137 1.299865 -43.713488 1.693664 1.340071 45.830936 8.949293 2.710144 -77.655584 0.000000 0.000000 0.000000 37.613877 -0.562603 -1.476379 -3.337298 11.505589 -0.300593 16.045598 17.824513 2.070347 0.000000 0.000000 0.000000 -26.738507 -5.165935 -1.345747 11.805069 -14.237118 -2.564820 -33.134147 -10.392770 3.408742 0.000000 0.000000 0.000000 
0.011130 1.246045 -0.073438 -1.525946 -4.242126 -4.944300 8.254188 0.103487 -0.685045 6.043459 0.697330 -15.447458 -11.159816 16.099478 98.769562 0.000000 0.000000 0.000000 -6.424157 0.385365 -6.089004 -0.905285 -0.370226 -10.646000 -1.813299 -17.166141 107.518598 0.000000 0.000000 0.000000 1.616134 -0.388886 7.769998 -0.225135 1.313838 -43.328618 3.686560 5.558009 47.630692 4.651525 2.680678 -80.733823 0.000000 0.000000 0.000000 42.031211 1.754291 -1.159211 1.361386 17.475799 1.225832 26.002111 15.529912 2.806363 0.000000 0.000000 0.000000 -26.289362 -7.310207 -2.909504 -0.503177 -22.198670 1.406664 -39.749873 -11.925326 4.768241 0.000000 0.000000 0.000000 
0.008133 1.251032 -0.067090 -1.510834 -2.941432 -6.586675 5.748279 0.103607 0.340346 5.294392 0.837020 -17.485821 -0.882422 19.072884 105.772377 0.000000 0.000000 0.000000 -4.363645 0.202267 -2.655098 -1.951712 -0.600104 -15.483407 -3.988224 -18.139918 111.061778 0.000000 0.000000 0.000000 2.417912 -0.516636 9.445478 -2.705974 1.456000 -45.634526 5.122145 5.286128 52.529989 3.236648 2.688438 -90.444001 0.000000 0.000000 0.000000 41.321756 5.751416 -1.645287 12.258003 24.218389 5.492332 30.480167 10.258123 1.677526 0.000000 0.000000 0.000000 -27.553489 -9.776335 -4.118467 -12.425319 -29.071262 6.824205 -43.586542 -8.509134 3.557189 0.000000 0.000000 0.000000 
0.004912 1.221280 -0.057286 -1.910340 -1.396813 -6.420878 6.193438 0.045369 -0.429560 3.983545 0.789349 -17.928883 7.555316 20.081247 104.773156 0.000000 0.000000 0.000000 -4.385987 0.149758 -1.957102 -2.642965 -0.622110 -15.031149 -2.158245 -18.232655 108.974254 0.000000 0.000000 0.000000 1.275682 -0.447422 9.206088 -4.119958 1.429977 -43.980885 7.151396 5.004011 50.925060 -0.011144 2.501648 -86.585931 0.000000 0.000000 0.000000 42.103696 6.971348 -1.265451 22.504842 29.007025 10.026604 28.948472 10.648216 1.382547 0.000000 0.000000 0.000000 -24.472047 -8.302515 -4.040837 -28.431905 -35.259012 15.386963 -45.568546 -7.103654 2.350601 0.000000 0.000000 0.000000 
0.003113 1.172710 -0.045351 -3.522883 0.819757 -7.458025 6.714676 0.155085 3.775729 4.639772 1.312220 -26.328389 9.477362 19.600876 112.826978 0.000000 0.000000 0.000000 -2.991113 -0.130018 1.622665 -0.582831 -0.835781 -19.579835 -15.749711 -21.861735 113.002799 0.000000 0.000000 0.000000 3.377693 -0.640531 9.970305 -5.051530 1.383776 -42.449981 6.227425 4.626383 51.150753 1.661092 2.243274 -87.721285 0.000000 0.000000 0.000000 41.620137 9.106351 -1.101743 26.214487 33.885625 12.377999 31.149312 7.436254 0.476368 0.000000 0.000000 0.000000 -23.087293 -9.990834 -4.728384 -38.706087 -36.792444 21.366254 -40.294525 -4.932207 1.006409 0.000000 0.000000 0.000000 
0.002786 1.143149 -0.037857 -2.591916 2.849994 -6.000154 6.923133 0.074101 3.587031 1.669727 0.991574 -31.213495 22.100633 20.200456 116.319885 0.000000 0.000000 0.000000 -3.565524 -0.075304 0.892479 -1.400551 -0.913512 -19.083330 -23.017648 -23.790677 113.599221 0.000000 0.000000 0.000000 3.092695 -0.448066 7.182955 -7.696463 1.555931 -41.537464 5.363324 0.110908 51.112139 2.296112 2.818727 -86.621269 0.000000 0.000000 0.000000 38.292673 10.620590 -2.447965 28.736756 31.645984 13.747244 32.619997 11.022984 1.511587 0.000000 0.000000 0.000000 -22.132181 -8.155601 -3.684142 -41.932509 -36.900588 21.936468 -37.515047 -4.737556 0.469314 0.000000 0.000000 0.000000 
0.003556 1.146404 -0.035551 -3.144357 5.594694 -5.997973 8.895902 -0.092549 1.501871 -1.194676 0.287153 -27.416933 24.347812 19.752066 113.800898 0.000000 0.000000 0.000000 -3.752598 -0.257615 2.947040 -2.334473 -1.316684 -22.464299 -21.091077 -23.929934 120.745417 0.000000 0.000000 0.000000 3.637616 -0.541314 7.848264 -7.879413 1.249053 -43.403353 3.808514 -0.060794 53.177494 1.190887 2.571114 -87.963233 0.000000 0.000000 0.000000 37.994167 6.806513 -2.146091 24.852703 34.546317 12.227435 31.941509 13.500661 1.996588 0.000000 0.000000 0.000000 -20.274415 -10.842134 -4.683388 -37.165581 -36.440816 19.991213 -35.620845 -8.944135 1.736354 0.000000 0.000000 0.000000 
0.004718 1.156126 -0.033234 -3.056403 4.718301 -5.146622 10.737029 -0.122159 -1.351682 -3.095270 0.213457 -21.481590 23.355083 20.179089 112.228356 0.000000 0.000000 0.000000 -6.305706 -0.092608 1.060327 -1.171086 -0.978720 -19.445431 -5.568602 -21.382938 115.009389 0.000000 0.000000 0.000000 3.249658 -0.479347 7.243268 -9.336943 1.252273 -45.098035 4.359488 -2.425941 54.117450 2.151040 2.967103 -86.459953 0.000000 0.000000 0.000000 38.892481 6.294457 -3.009636 17.342059 31.245146 8.809610 34.977105 16.160353 3.489584 0.000000 0.000000 0.000000 -27.395880 -10.571037 -3.901886 -22.105305 -33.496473 11.501576 -33.549366 -10.734485 2.570326 0.000000 0.000000 0.000000 
0.005320 1.141003 -0.028470 -1.073702 2.700143 -4.268750 11.970169 -0.082397 -1.272079 -2.020504 0.420141 -21.418851 9.420401 19.268152 105.963543 0.000000 0.000000 0.000000 -11.505617 0.015026 0.547808 0.141022 -0.800303 -18.758566 -3.656334 -19.918742 110.656465 0.000000 0.000000 0.000000 2.716838 -0.409512 6.607322 -8.041367 1.410361 -43.966839 1.401408 0.767688 51.599345 5.737385 2.521951 -80.703623 0.000000 0.000000 0.000000 40.761370 5.120832 -1.929867 9.025932 24.833921 4.437726 36.575925 16.191912 3.896235 0.000000 0.000000 0.000000 -29.399952 -7.932823 -3.249877 -12.719548 -34.108593 7.412839 -30.705653 -9.095362 2.518446 0.000000 0.000000 0.000000 
0.005887 1.088639 -0.022501 -0.965597 3.873516 -6.101026 16.436078 -0.262954 1.974821 -1.955391 0.315194 -28.193933 11.647496 18.971640 111.967684 0.000000 0.000000 0.000000 -14.958130 -0.026500 4.283101 -0.756037 -1.170752 -23.961984 -0.910223 -20.020344 115.633569 0.000000 0.000000 0.000000 2.430828 -0.625925 10.194665 -7.969346 1.164509 -46.325939 1.112986 0.393021 53.404462 -1.490626 3.039731 -85.086501 0.000000 0.000000 0.000000 37.416955 4.897724 -1.750423 4.508881 18.971715 2.304591 39.896438 17.966978 4.836777 0.000000 0.000000 0.000000 -25.757528 -9.107514 -3.546481 -8.133868 -31.558115 5.132345 -31.937528 -13.928429 3.899706 0.000000 0.000000 0.000000 
0.007187 1.006366 -0.007722 -1.162205 4.660159 -7.497292 21.844350 -1.111068 7.685902 -5.111130 -0.821360 -40.309857 13.047758 18.887958 115.034031 0.000000 0.000000 0.000000 -16.604122 -0.004484 7.249252 -2.695910 -1.899092 -30.285708 -5.696556 -21.573203 128.049061 0.000000 0.000000 0.000000 2.335119 -0.841665 13.252807 -6.576335 0.931998 -47.730015 -0.920210 0.013249 53.511823 1.555453 3.097079 -88.484855 0.000000 0.000000 0.000000 33.987321 6.243370 -1.603206 -0.583403 15.057012 0.506003 44.870900 19.763181 6.310746 0.000000 0.000000 0.000000 -23.551036 -9.223477 -3.331204 -2.592360 -27.912400 2.500395 -34.366572 -15.081637 4.655048 0.000000 0.000000 0.000000 
0.009287 0.912178 0.016509 -0.562553 3.903611 -6.807941 23.541700 -2.106156 14.212060 -2.426147 -0.302256 -53.565137 6.970867 18.837809 114.268067 0.000000 0.000000 0.000000 -17.512813 0.374232 12.591710 -4.012253 -3.297422 -43.123688 -31.349913 -20.094736 143.553827 0.000000 0.000000 0.000000 1.108522 -0.614038 11.619332 -6.557008 1.016401 -47.698953 -0.139198 1.627478 53.662056 4.331402 2.819176 -90.276437 0.000000 0.000000 0.000000 30.252786 1.969150 -1.094748 -2.794876 12.471684 -0.261354 49.136115 24.017377 8.338056 0.000000 0.000000 0.000000 -17.193795 -7.089103 -3.308693 -1.230304 -26.643869 1.928572 -40.545894 -15.304654 5.709852 0.000000 0.000000 0.000000 
0.012021 0.860755 0.043562 -1.557710 5.142067 -7.104973 27.056825 -3.381514 17.220518 -2.524687 -0.879194 -59.311917 16.002559 19.355419 120.218203 0.000000 0.000000 0.000000 -15.038995 0.068426 18.256578 -7.588926 -5.812321 -51.879094 -55.185420 -18.238140 145.721366 0.000000 0.000000 0.000000 1.527187 -0.572171 10.255988 -6.522692 0.578395 -52.104480 -0.957834 0.263609 58.628349 6.606661 3.002875 -92.626388 0.000000 0.000000 0.000000 27.470091 0.417641 -1.494690 -7.765152 13.790714 -1.930930 52.543931 21.343736 8.297959 0.000000 0.000000 0.000000 -11.793336 -5.166517 -2.694933 0.988457 -21.114761 0.699815 -34.340588 -19.217529 5.634718 0.000000 0.000000 0.000000 
0.015476 0.877960 0.058845 -1.596310 5.592476 -8.187545 27.257147 -3.479077 17.513457 -4.339940 -1.576575 -54.887195 20.506074 19.813518 116.451227 0.000000 0.000000 0.000000 -16.016102 0.154039 21.479618 -4.435330 -4.740954 -52.280103 -65.309397 -20.056486 140.389354 0.000000 0.000000 0.000000 1.357570 -0.464056 8.801200 -5.827401 0.783899 -48.571852 -1.123017 -0.024982 53.015561 4.628536 2.785055 -84.115318 0.000000 0.000000 0.000000 26.356077 -1.368785 -0.523924 -12.057294 8.947834 -2.879796 40.438974 20.471142 6.225632 0.000000 0.000000 0.000000 -11.685698 -2.379253 -1.662902 6.053893 -17.250176 -1.092765 -25.650248 -13.679987 3.330137 0.000000 0.000000 0.000000 
0.019945 0.940169 0.058094 -2.051683 1.058524 -9.526871 26.491971 -2.028207 14.745443 -3.965784 -0.145712 -43.719962 14.889305 19.936854 115.979468 0.000000 0.000000 0.000000 -16.654152 0.520363 15.167788 -1.151247 -1.738851 -37.411601 -50.326846 -24.320992 124.763172 0.000000 0.000000 0.000000 2.636742 -0.481377 8.648996 -2.831045 1.142771 -46.525460 -0.472682 5.731174 49.343930 5.538251 2.228951 -78.598624 0.000000 0.000000 0.000000 29.723144 -1.985639 0.560619 -18.746950 1.159354 -3.758407 31.991891 20.108781 4.508016 0.000000 0.000000 0.000000 -12.960750 -0.535713 -1.541598 10.008022 -12.386690 -2.154118 -12.910621 -12.694987 1.627229 0.000000 0.000000 0.000000 
0.024903 1.013475 0.052522 -2.876314 0.251478 -9.538985 25.398816 -0.639389 6.555015 -2.040704 0.496934 -27.982137 -0.077229 17.886983 108.282511 0.000000 0.000000 0.000000 -16.240427 0.225642 7.815196 1.943857 -0.730311 -24.530330 -24.191421 -22.571996 115.839385 0.000000 0.000000 0.000000 4.272616 -0.441471 7.267780 -0.060223 1.043069 -46.100863 -2.870636 8.564216 47.188962 10.139165 1.436503 -73.405550 0.000000 0.000000 0.000000 34.637974 -2.768041 1.301321 -22.030716 -0.987528 -4.107602 20.700237 21.100579 2.678388 0.000000 0.000000 0.000000 -16.687178 1.284467 -1.670019 15.800560 -7.516178 -3.179070 -7.493065 -15.144489 1.069104 0.000000 0.000000 0.000000 
0.029638 1.064737 0.048630 -2.608966 -3.399528 -9.401469 23.613091 -0.010028 5.578849 0.953716 0.861038 -22.081309 -12.131336 15.573783 101.428842 0.000000 0.000000 0.000000 -16.378858 0.456160 6.826889 2.573504 -0.449617 -22.269497 -10.657467 -19.689465 104.352877 0.000000 0.000000 0.000000 5.197711 -0.407646 6.756740 -0.711584 1.322501 -44.778654 -0.816946 11.123732 44.393661 15.255559 0.629117 -72.853535 0.000000 0.000000 0.000000 38.395926 -3.080442 1.443857 -25.541032 -3.659540 -4.332189 8.110417 23.834269 0.558154 0.000000 0.000000 0.000000 -17.076652 1.571578 -1.666838 19.794830 -5.870841 -3.798004 -4.187524 -15.832112 0.560047 0.000000 0.000000 0.000000 
0.033005 1.086462 0.047017 -2.286644 -2.498880 -7.768103 21.747462 0.076743 3.335308 1.012674 0.871750 -22.556642 -7.974729 16.860871 103.900331 0.000000 0.000000 0.000000 -17.664327 0.443126 4.870435 1.648942 -0.571993 -21.496512 -4.799433 -18.348633 105.994955 0.000000 0.000000 0.000000 4.410206 -0.243592 4.506132 -0.391524 1.298023 -46.515861 -1.203737 9.539532 45.972047 12.389966 1.185626 -74.324509 0.000000 0.000000 0.000000 34.710211 -3.831307 1.021482 -24.445385 -3.132841 -4.283105 4.672256 28.481367 -0.159381 0.000000 0.000000 0.000000 -14.275853 0.891472 -1.390744 21.613202 -3.830797 -4.115976 -2.339577 -20.588363 0.308175 0.000000 0.000000 0.000000 
0.034640 1.079191 0.045377 -1.759399 -4.621776 -8.712006 21.293850 0.293167 3.960828 1.403649 1.056537 -23.920900 -8.878873 18.070705 108.360939 0.000000 0.000000 0.000000 -18.394636 0.577062 4.564349 4.156260 -0.204370 -23.342251 -9.812983 -18.679309 111.759418 0.000000 0.000000 0.000000 4.685100 -0.333003 5.938038 0.629398 1.545046 -48.859657 -1.291695 10.119171 47.588427 8.937812 1.756819 -76.195706 0.000000 0.000000 0.000000 31.371961 -4.117471 0.765145 -23.235386 -2.751804 -4.175536 -0.085167 31.546357 -1.530063 0.000000 0.000000 0.000000 -11.065871 1.235293 -0.874212 22.446837 -1.466135 -4.123249 -0.130172 -23.037336 -0.225858 0.000000 0.000000 0.000000 
0.035131 1.035834 0.049332 -0.569067 -6.626641 -10.125164 21.707358 0.206859 8.187612 2.805624 1.608984 -28.285127 -11.203291 19.526215 114.093862 0.000000 0.000000 0.000000 -20.945488 0.894258 4.597261 5.680373 0.204537 -25.310764 -16.798890 -19.686110 110.043918 0.000000 0.000000 0.000000 4.590122 -0.263008 5.435137 2.457401 1.471691 -46.305640 -3.076457 10.745831 48.932083 11.418356 1.635485 -78.503528 0.000000 0.000000 0.000000 25.317956 -3.684474 0.493674 -20.068898 -1.305294 -3.893650 -1.695089 32.330829 -2.007253 0.000000 0.000000 0.000000 -6.201311 3.309397 0.303872 21.673314 -0.077975 -4.071062 1.660197 -21.695833 -0.710746 0.000000 0.000000 0.000000 
0.035318 0.963678 0.061000 0.145603 -5.135566 -12.202450 22.839152 -0.557809 15.315748 2.059009 2.145781 -39.216208 -13.767721 18.934537 116.662364 0.000000 0.000000 0.000000 -23.728883 1.571891 10.224566 6.230785 0.599833 -33.074217 -31.367334 -21.752136 116.592633 0.000000 0.000000 0.000000 4.701247 -0.226606 5.326074 1.983148 1.284605 -45.054669 -4.234326 9.236909 49.830238 11.275352 1.814203 -80.779664 0.000000 0.000000 0.000000 20.493259 -2.566093 0.215403 -16.255651 -1.795729 -3.258154 -5.178436 30.710719 -2.916559 0.000000 0.000000 0.000000 -1.412876 1.874377 0.403038 19.905620 -0.040701 -4.047317 2.512764 -20.105417 -0.919347 0.000000 0.000000 0.000000 
0.036115 0.886059 0.072426 -0.119048 -4.223862 -11.621929 24.931141 -1.987079 24.408531 -0.031227 2.362927 -57.021670 -8.112241 19.916929 122.951561 0.000000 0.000000 0.000000 -26.338846 3.185348 19.026679 5.704717 1.266680 -50.173709 -53.784762 -21.094315 129.290700 0.000000 0.000000 0.000000 5.486468 -0.113210 3.747943 0.408861 1.632264 -50.984476 -3.864466 7.522292 57.645531 11.074218 2.515045 -88.520181 0.000000 0.000000 0.000000 18.408976 -2.531238 -0.465617 -15.861814 -2.055721 -3.512136 -3.475321 31.503488 -2.369783 0.000000 0.000000 0.000000 2.548741 1.874782 0.835059 18.833030 -0.199008 -4.374768 1.911636 -20.368265 -0.854925 0.000000 0.000000 0.000000 
0.038063 0.833327 0.079281 0.614331 -2.364435 -11.525263 25.799235 -3.105166 28.891383 -3.590741 0.471491 -68.335358 21.425988 19.681598 135.172154 0.000000 0.000000 0.000000 -28.494728 4.553822 26.185222 2.269855 -0.104750 -64.950604 -63.711249 -17.170412 140.198384 0.000000 0.000000 0.000000 4.204571 0.001223 2.061037 -2.343613 1.579879 -55.006705 -1.961738 3.917061 63.708037 7.939863 2.744826 -88.686066 0.000000 0.000000 0.000000 17.749936 -2.843856 -1.032772 -14.770309 -3.705582 -3.342213 -3.175331 35.192699 -2.424917 0.000000 0.000000 0.000000 2.576537 2.220492 0.985390 19.881529 -0.872473 -4.996042 -0.813244 -22.079899 -0.329765 0.000000 0.000000 0.000000 
0.041379 0.810033 0.083904 0.715887 -3.448634 -11.602424 24.479657 -2.963645 32.617799 -3.983288 0.643708 -74.416268 38.643399 18.781300 135.760477 0.000000 0.000000 0.000000 -30.666453 6.192544 29.724384 3.972014 1.339903 -72.535714 -69.976440 -17.518882 139.259173 0.000000 0.000000 0.000000 3.039404 0.075584 0.553050 0.988623 1.781966 -54.603749 -1.951964 4.899656 62.662069 8.827560 2.464411 -85.852168 0.000000 0.000000 0.000000 17.220720 -3.659540 -0.794385 -13.497331 -3.942913 -3.093183 -0.754245 36.665390 -1.726405 0.000000 0.000000 0.000000 1.948907 1.502959 0.649762 20.308758 -0.594463 -5.058768 -6.001902 -20.772543 0.828515 0.000000 0.000000 0.000000 
0.044525 0.818247 0.083638 0.114257 -2.004756 -13.919091 25.596442 -3.623251 33.320819 -6.772105 -1.718310 -72.379070 48.930507 18.885505 132.603203 0.000000 0.000000 0.000000 -30.672812 6.036091 31.960130 3.681577 0.781488 -69.701258 -64.380788 -18.980857 137.050520 0.000000 0.000000 0.000000 4.229747 0.114724 1.152824 -2.391516 1.470601 -51.473417 0.025615 2.449441 60.479581 5.083789 3.011705 -86.411126 0.000000 0.000000 0.000000 15.763465 -4.958915 -0.294966 -11.486689 -6.303442 -2.551428 4.407430 35.112027 0.074350 0.000000 0.000000 0.000000 0.228230 1.260772 0.418676 20.533971 -0.194908 -4.843105 -8.342861 -20.348408 1.278142 0.000000 0.000000 0.000000 
0.045183 0.866774 0.072410 0.478242 -4.424626 -13.585822 24.205627 -2.079431 28.268578 -8.239545 -1.127659 -61.583627 54.924360 20.843666 128.462136 0.000000 0.000000 0.000000 -31.715737 5.092752 22.910143 7.300220 2.435387 -55.819286 -67.409816 -19.330174 134.296087 0.000000 0.000000 0.000000 2.493038 -0.002867 1.832364 1.347333 1.714415 -51.567358 2.029130 5.613895 59.684164 2.576878 2.691356 -81.718256 0.000000 0.000000 0.000000 17.886045 -3.846788 -0.351060 -13.267488 -8.857823 -2.731180 8.625101 34.712380 1.316817 0.000000 0.000000 0.000000 -3.632289 -3.052192 -1.420081 20.697918 1.860207 -4.524883 -13.819294 -19.296331 2.408901 0.000000 0.000000 0.000000 
0.043183 0.947758 0.053378 -1.286617 -6.461115 -14.326083 23.296149 -0.760280 20.385453 -4.816443 0.713188 -45.299955 49.079787 21.150450 129.288397 0.000000 0.000000 0.000000 -25.497410 2.095772 12.380739 9.556662 1.673874 -35.511757 -60.551611 -21.720265 126.139235 0.000000 0.000000 0.000000 2.851410 -0.203400 5.498217 6.053051 1.326930 -47.221634 -1.301069 7.557151 50.917981 4.356983 2.590553 -76.492755 0.000000 0.000000 0.000000 20.818465 -3.277649 -0.128433 -13.373970 -3.741785 -2.591553 6.199129 27.532558 0.450557 0.000000 0.000000 0.000000 -8.171635 1.076584 -0.298991 20.211900 1.819320 -3.748582 -10.311576 -19.050615 1.639750 0.000000 0.000000 0.000000 
0.040602 1.024724 0.036570 -0.688916 -8.333302 -14.761257 21.330389 0.297161 13.188789 -3.798512 0.896501 -29.953423 27.799603 23.155123 120.474941 0.000000 0.000000 0.000000 -19.341242 0.420237 1.975300 6.740954 -0.103211 -14.905343 -46.411241 -24.445807 112.358415 0.000000 0.000000 0.000000 3.671407 -0.215738 6.056869 4.655593 1.337101 -45.393983 -0.534883 8.942686 47.171845 9.037280 1.508294 -70.038714 0.000000 0.000000 0.000000 26.579480 -6.719589 0.212147 -15.791668 -4.158360 -2.757843 1.493160 26.736709 -0.673164 0.000000 0.000000 0.000000 -13.808944 1.447758 -0.578111 21.308728 2.545865 -3.482505 -7.754702 -21.018779 1.261177 0.000000 0.000000 0.000000 
0.039434 1.068146 0.027646 0.776808 -8.841740 -14.014681 16.850716 0.576715 11.654531 -4.419089 0.822741 -25.129486 18.637818 23.509513 110.326229 0.000000 0.000000 0.000000 -17.603337 0.333604 0.426914 5.572550 -0.320580 -9.436371 -33.972135 -24.435366 103.236402 0.000000 0.000000 0.000000 3.526666 -0.143462 4.717274 2.946402 1.250246 -43.100656 -1.697431 9.895928 43.811086 8.916479 1.159115 -65.630519 0.000000 0.000000 0.000000 28.660604 -10.012669 0.491184 -14.845567 -3.523883 -2.562635 -0.445417 26.596349 -1.165071 0.000000 0.000000 0.000000 -14.334164 2.485163 -0.378766 21.675605 6.089650 -2.942513 -8.283716 -23.199883 1.558554 0.000000 0.000000 0.000000 
0.039834 1.081199 0.025916 -0.345938 -5.648544 -15.551017 16.169170 0.308304 13.962480 -5.394161 0.519211 -25.439422 12.402705 21.594506 105.367131 0.000000 0.000000 0.000000 -16.114208 0.245913 5.497533 3.196020 -0.373665 -9.796445 -22.853858 -22.918193 99.539453 0.000000 0.000000 0.000000 2.766805 -0.237780 6.449016 4.407770 0.913896 -43.139334 -3.689352 9.484379 43.973474 9.439269 1.314241 -69.694718 0.000000 0.000000 0.000000 28.249576 -8.538460 0.711269 -13.032303 -6.921504 -2.149702 -2.599382 25.317924 -1.734460 0.000000 0.000000 0.000000 -11.459678 2.032071 -0.541822 17.364339 6.284854 -2.604172 -2.432354 -24.632903 0.199952 0.000000 0.000000 0.000000 
0.040441 1.060072 0.028534 0.286539 -7.835140 -16.955586 15.114924 0.538314 20.648368 -7.827124 0.330349 -33.835994 18.353826 23.183231 107.145737 0.000000 0.000000 0.000000 -17.993373 0.564440 6.870984 7.381369 -0.236935 -12.173963 -33.137576 -24.714003 102.335455 0.000000 0.000000 0.000000 3.303079 -0.283678 7.766033 1.560550 1.614653 -47.194441 -1.093926 7.559077 47.711164 7.593164 2.099949 -74.688217 0.000000 0.000000 0.000000 24.499343 -9.069849 0.166344 -11.654409 -7.074956 -2.068377 -3.052220 25.740035 -1.709461 0.000000 0.000000 0.000000 -13.636370 1.041505 -0.577560 18.412854 8.771258 -2.491266 1.377998 -22.783835 -0.869138 0.000000 0.000000 0.000000 
0.039251 0.991387 0.038646 -1.140783 -6.884192 -16.411371 18.821783 -0.375624 26.003141 -13.974143 -1.825688 -46.198493 37.109702 25.006399 112.193534 0.000000 0.000000 0.000000 -18.578829 1.060461 12.152306 11.560046 1.216028 -27.096242 -57.299848 -27.819309 112.047043 0.000000 0.000000 0.000000 4.631719 -0.174056 5.698748 1.679336 1.297483 -43.897869 -3.325995 6.514279 45.957671 8.269330 2.149466 -74.704162 0.000000 0.000000 0.000000 25.691819 -11.293850 0.378970 -13.278185 -4.378735 -2.301745 -4.744768 23.620284 -1.867405 0.000000 0.000000 0.000000 -11.569202 2.447330 0.105713 19.541639 9.325229 -2.446736 2.292415 -22.550988 -1.077253 0.000000 0.000000 0.000000 
0.036481 0.901793 0.055330 -0.072470 -7.828237 -15.810468 19.522006 -0.712497 35.284100 -14.969022 -3.253688 -61.456209 50.094349 24.584020 119.713339 0.000000 0.000000 0.000000 -22.120048 2.863447 20.101950 17.078999 5.317207 -44.700884 -88.798927 -31.677911 117.949618 0.000000 0.000000 0.000000 5.547498 0.241090 0.708949 0.911479 1.408548 -43.962988 -2.252851 8.664729 50.775487 12.030459 1.486788 -76.815499 0.000000 0.000000 0.000000 21.467452 -11.826549 0.828737 -11.486695 -3.593706 -2.273264 -7.936975 18.470102 -2.049496 0.000000 0.000000 0.000000 -4.012775 0.442987 -0.217895 15.541686 10.008857 -2.583512 0.777586 -20.710642 -0.665661 0.000000 0.000000 0.000000 
0.034486 0.827778 0.067537 -1.329358 -6.153882 -13.801383 20.618633 -1.841129 40.506744 -13.927081 -4.406058 -72.420399 78.889180 23.691401 124.724932 0.000000 0.000000 0.000000 -25.226083 4.671357 27.992567 18.962487 8.666083 -60.840092 -114.408410 -34.898789 122.605084 0.000000 0.000000 0.000000 6.022751 0.774406 -4.863997 1.817999 1.369707 -46.574546 -4.742345 6.634993 58.083147 12.334927 1.733645 -81.256601 0.000000 0.000000 0.000000 14.596685 -9.650366 0.777791 -10.621260 -3.250191 -2.455227 -5.351577 23.585065 -2.023397 0.000000 0.000000 0.000000 1.960714 2.624680 1.055852 13.781562 11.089033 -2.834543 -2.941996 -21.175541 0.045547 0.000000 0.000000 0.000000 
0.034438 0.791573 0.073286 -1.705306 -5.058447 -13.627270 19.900758 -2.193596 44.446666 -13.026754 -4.912635 -78.552113 98.983624 25.592114 123.692732 0.000000 0.000000 0.000000 -26.487279 5.610312 32.482563 18.200158 9.599897 -69.486605 -123.162899 -35.328161 124.720615 0.000000 0.000000 0.000000 6.797077 1.011163 -6.444023 -1.540254 1.513785 -47.881493 -3.265999 4.170022 62.237098 7.083631 2.320014 -84.044810 0.000000 0.000000 0.000000 11.127615 -10.514182 1.176174 -12.563571 -2.577825 -3.157072 -2.707526 26.342989 -1.485422 0.000000 0.000000 0.000000 6.071233 3.256181 1.717165 12.817693 10.142786 -3.037221 -4.904614 -21.913404 0.397260 0.000000 0.000000 0.000000 
0.035087 0.783620 0.076171 -1.951507 -6.308786 -12.537466 18.024884 -1.178205 45.684293 -11.835249 -3.692789 -80.009422 107.196768 27.239652 123.224596 0.000000 0.000000 0.000000 -26.469117 5.864796 31.764581 17.709683 10.110368 -71.506413 -130.188832 -34.655146 126.436356 0.000000 0.000000 0.000000 8.212889 1.420922 -8.521029 0.385172 1.487851 -48.441748 -4.268975 6.637377 63.633929 6.575388 1.927572 -82.513037 0.000000 0.000000 0.000000 6.785968 -7.826093 1.412248 -13.520127 -3.565918 -3.623908 -0.431498 27.795178 -1.053730 0.000000 0.000000 0.000000 9.693238 2.871512 2.079398 10.572128 9.294040 -2.899739 -5.063961 -19.585028 0.401275 0.000000 0.000000 0.000000 
0.035171 0.789520 0.077059 -2.018962 -7.903860 -9.949867 15.726445 0.136726 46.048453 -10.659717 -2.119460 -80.854687 114.728492 27.181605 124.388254 0.000000 0.000000 0.000000 -26.364360 5.884061 29.204403 16.808307 10.190989 -72.100252 -132.624100 -33.360739 127.362380 0.000000 0.000000 0.000000 9.659653 2.103587 -12.130556 1.776925 1.733256 -51.755869 -3.572238 9.000361 68.282168 3.604940 2.191884 -83.163738 0.000000 0.000000 0.000000 6.317976 -6.817003 1.096556 -15.619301 -2.478606 -4.621718 2.461684 29.580421 -0.310186 0.000000 0.000000 0.000000 9.529874 1.846290 1.861247 10.360656 9.655893 -3.188127 -3.873160 -21.432644 0.181542 0.000000 0.000000 0.000000 
0.034323 0.805526 0.076149 -2.139865 -6.813613 -9.257674 14.185447 0.376979 45.192706 -8.828234 -1.103564 -80.689076 108.187444 24.921605 125.803796 0.000000 0.000000 0.000000 -23.601340 4.814361 29.492133 16.081005 9.020934 -70.642216 -136.215103 -37.729638 125.493859 0.000000 0.000000 0.000000 10.733855 2.427225 -13.555461 -0.238022 1.410928 -46.926431 -4.343448 8.776570 62.296843 6.830136 1.659116 -79.075485 0.000000 0.000000 0.000000 7.777339 -3.908743 0.342647 -16.142571 -1.943104 -4.487047 2.919675 28.072091 -0.211178 0.000000 0.000000 0.000000 8.894154 0.715866 1.227373 11.617881 5.745861 -3.211695 -3.200061 -19.247154 0.100077 0.000000 0.000000 0.000000 
0.033055 0.822959 0.070066 -1.552690 -6.137395 -8.211472 12.910881 0.656210 43.899210 -9.519753 -1.608828 -80.705579 103.112270 22.442554 127.753568 0.000000 0.000000 0.000000 -23.721067 4.493659 27.769788 15.362593 8.096695 -69.028021 -133.213737 -34.259479 126.961343 0.000000 0.000000 0.000000 10.472106 1.856168 -10.579535 -3.779299 1.771719 -53.044328 0.842781 9.276151 66.435021 4.286242 1.880654 -81.416047 0.000000 0.000000 0.000000 12.143436 -3.932726 -0.033527 -19.872893 -2.082014 -5.523324 3.678475 32.386129 -0.119389 0.000000 0.000000 0.000000 11.547028 -5.049606 -0.851140 10.699373 5.459071 -3.403454 -2.556929 -20.726595 -0.027382 0.000000 0.000000 0.000000 
0.032314 0.843563 0.060887 -3.101486 -4.365940 -6.173219 12.316305 0.252458 40.696535 -8.036694 -1.084277 -79.248658 94.336483 21.058061 128.503437 0.000000 0.000000 0.000000 -22.857778 3.691619 26.226562 16.212322 7.683046 -68.440659 -122.284263 -26.969758 130.506905 0.000000 0.000000 0.000000 9.540437 1.439563 -9.359759 -3.734673 1.657166 -57.196734 1.158913 6.782149 70.913268 1.780468 2.258567 -85.919708 0.000000 0.000000 0.000000 12.520228 -2.141049 -0.887281 -21.531908 -0.490801 -6.408280 2.839923 36.681491 -0.271481 0.000000 0.000000 0.000000 9.492272 -4.636279 -0.851927 12.640849 1.813223 -4.085956 -1.582345 -25.758082 -0.329259 0.000000 0.000000 0.000000 
0.032198 0.866654 0.051155 -2.764237 -2.325752 -5.977171 11.036012 0.194596 37.867746 -8.342104 -1.849957 -76.126518 82.644613 23.239945 124.707676 0.000000 0.000000 0.000000 -22.876757 2.953878 23.427966 17.703717 7.118133 -64.526679 -114.273848 -28.386957 128.785183 0.000000 0.000000 0.000000 8.899442 1.038735 -7.167840 -8.489912 1.410495 -52.653770 2.791726 3.551298 64.915433 1.458153 2.516602 -84.390006 0.000000 0.000000 0.000000 15.649365 -2.127821 -0.904154 -21.582606 2.268000 -5.953800 3.863696 35.553265 0.076374 0.000000 0.000000 0.000000 5.366404 -4.397449 -1.347518 17.424232 -2.326849 -5.023403 -10.098040 -33.874709 2.515192 0.000000 0.000000 0.000000 
0.031766 0.902441 0.041165 -2.265403 0.688472 -4.039617 12.071246 -0.698216 32.311436 -11.676571 -4.231418 -68.477387 72.277518 26.803576 116.317176 0.000000 0.000000 0.000000 -23.381004 2.198397 19.367549 18.905510 5.766999 -59.199774 -90.578371 -25.239112 129.769170 0.000000 0.000000 0.000000 5.191421 0.485196 -5.149391 -4.221153 1.091868 -53.141605 0.633822 4.535146 62.906685 0.753468 2.487295 -82.998890 0.000000 0.000000 0.000000 20.034888 1.808165 -1.352195 -19.774561 0.530397 -4.888333 10.720388 39.220166 1.948322 0.000000 0.000000 0.000000 2.410363 -7.012690 -2.666025 15.736397 -6.275392 -4.568683 -24.121700 -40.410830 8.737258 0.000000 0.000000 0.000000 
0.030504 0.954047 0.029254 -2.629514 -0.617589 -5.066414 13.953143 -0.733072 24.533386 -13.059827 -3.160790 -54.172214 69.516530 25.158929 119.137984 0.000000 0.000000 0.000000 -20.975516 1.134052 10.770926 19.514211 3.801316 -42.300781 -71.173409 -26.859111 123.470873 0.000000 0.000000 0.000000 5.008631 0.138835 -0.882486 -4.335712 1.350605 -45.557654 1.824088 5.995319 51.394655 1.058882 2.641575 -75.106595 0.000000 0.000000 0.000000 25.599916 -1.418572 0.169935 -19.174881 4.583739 -4.419562 15.334018 37.591353 3.180863 0.000000 0.000000 0.000000 -4.629814 -6.143068 -2.667321 15.833513 -10.966636 -4.098573 -28.718083 -34.692942 9.472471 0.000000 0.000000 0.000000 
0.029210 1.016495 0.016854 -2.185581 -0.307754 -5.079880 15.229635 -0.550259 13.775965 -13.218501 -1.572920 -35.775207 42.212007 23.682222 115.133341 0.000000 0.000000 0.000000 -19.327050 0.263982 1.377610 13.917568 0.514997 -23.701682 -42.624217 -26.642467 112.328274 0.000000 0.000000 0.000000 2.891982 -0.126195 2.493086 -1.070468 1.136680 -44.170607 -0.289772 5.652245 47.156419 4.745223 2.261953 -72.275975 0.000000 0.000000 0.000000 27.173192 2.756055 -0.095305 -16.797429 4.520565 -3.614420 14.881184 31.134609 2.566748 0.000000 0.000000 0.000000 -12.565206 -4.115540 -2.269762 16.683953 -12.598371 -4.091855 -24.390762 -26.391732 6.257523 0.000000 0.000000 0.000000 
0.028559 1.060157 0.007498 -1.880863 -1.406216 -5.635666 15.590459 -0.203114 7.556885 -9.813330 -0.185663 -25.436537 28.786722 23.362693 109.251238 0.000000 0.000000 0.000000 -18.547988 0.116593 -1.566125 10.349664 -0.178872 -16.602462 -26.106135 -24.445797 103.703641 0.000000 0.000000 0.000000 1.706361 -0.220204 4.436600 -1.418486 1.259495 -45.419198 0.850002 6.657958 48.286711 1.883839 2.637970 -71.080253 0.000000 0.000000 0.000000 33.489250 2.777007 -0.020485 -16.720849 6.955962 -3.750100 14.430837 29.412000 2.326319 0.000000 0.000000 0.000000 -19.588712 -5.126056 -2.888028 17.472555 -12.782858 -4.142858 -18.764726 -25.007209 4.591980 0.000000 0.000000 0.000000 
0.028790 1.073292 0.003530 -1.725388 -1.962188 -5.755105 16.244391 -0.021504 4.046489 -5.255669 0.375950 -21.782313 17.232819 21.952755 104.792955 0.000000 0.000000 0.000000 -18.698062 -0.015104 -4.102227 5.826625 -0.378717 -15.039951 -17.501672 -22.000001 103.435513 0.000000 0.000000 0.000000 1.153831 -0.321629 6.790633 -3.395517 1.421840 -46.922477 2.802118 5.572789 48.538296 0.170070 2.892559 -74.235495 0.000000 0.000000 0.000000 32.586170 4.506054 -0.635944 -12.587143 6.352582 -2.693034 16.820449 26.898734 2.740120 0.000000 0.000000 0.000000 -21.055263 -5.791611 -2.847704 14.904401 -12.344288 -3.416984 -12.285647 -23.219074 2.496901 0.000000 0.000000 0.000000 
0.029105 1.056475 0.005222 -1.228229 -2.954094 -7.336186 18.090495 0.008034 5.106863 -2.753956 0.663339 -25.878215 3.973003 19.298118 100.082521 0.000000 0.000000 0.000000 -20.362213 0.185391 -1.330164 3.861938 -0.346236 -22.172932 -12.605598 -19.949706 109.532522 0.000000 0.000000 0.000000 1.701580 -0.433464 8.770785 -2.755581 1.474414 -46.013054 0.061507 6.371438 48.350189 4.128868 2.398693 -74.311262 0.000000 0.000000 0.000000 33.514600 6.214542 -0.832464 -7.175617 6.992527 -1.350351 18.622385 24.179556 2.767502 0.000000 0.000000 0.000000 -20.548690 -6.804599 -2.903604 12.440787 -11.783302 -2.716343 -11.286827 -19.310322 1.849049 0.000000 0.000000 0.000000 
0.028775 1.009885 0.010815 -1.248011 -1.719125 -8.139623 20.533977 -0.538400 9.816732 -4.090750 0.398314 -36.382746 17.022735 21.246609 112.924776 0.000000 0.000000 0.000000 -20.657002 0.423778 3.189455 2.576582 -0.549724 -31.062377 -16.032146 -20.511035 115.991741 0.000000 0.000000 0.000000 1.558851 -0.480922 9.779514 -3.155270 1.412746 -49.143539 -0.059918 6.209622 53.849438 4.414006 2.378647 -81.271157 0.000000 0.000000 0.000000 33.925672 6.376531 -1.402710 -0.276994 10.060317 0.439606 22.417754 22.386977 3.037195 0.000000 0.000000 0.000000 -15.877908 -8.141802 -3.574944 8.753217 -14.228110 -1.924317 -17.033394 -18.332251 2.829637 0.000000 0.000000 0.000000 
0.028537 0.951835 0.017755 -0.514780 -2.113911 -8.636854 21.021625 -0.999401 15.399329 -3.915964 0.498719 -47.341299 25.343560 21.363676 121.329029 0.000000 0.000000 0.000000 -21.098918 0.673997 5.473378 2.448068 -0.508676 -36.258338 -36.459658 -21.037730 126.895165 0.000000 0.000000 0.000000 0.707961 -0.454434 10.546958 -3.954597 1.495923 -51.427938 1.471357 5.213529 57.087256 5.704869 2.383655 -85.013227 0.000000 0.000000 0.000000 32.532516 8.313726 -2.479560 7.336458 12.810899 2.836225 24.771140 20.669192 3.020048 0.000000 0.000000 0.000000 -12.103645 -8.475066 -3.682075 3.510911 -19.603869 -0.294739 -25.570589 -15.634204 3.595961 0.000000 0.000000 0.000000 
0.029392 0.911555 0.019182 -0.007840 -1.954955 -8.904245 22.337962 -1.474050 18.595128 -4.540731 0.215004 -54.773968 30.872170 21.433896 122.403819 0.000000 0.000000 0.000000 -22.366572 0.991836 7.986857 1.954332 -0.618087 -41.105390 -56.072560 -19.919614 133.455918 0.000000 0.000000 0.000000 -0.161997 -0.439490 11.791839 -5.142944 1.469258 -55.008794 1.082736 2.242689 59.966322 5.216830 3.025808 -88.371897 0.000000 0.000000 0.000000 34.248968 10.199664 -4.087404 11.069155 15.313330 4.462178 30.333025 20.324232 4.078478 0.000000 0.000000 0.000000 -13.201570 -9.868512 -3.826490 4.214685 -20.022387 -0.629836 -36.981824 -13.880570 4.335102 0.000000 0.000000 0.000000 
0.031311 0.909001 0.014387 0.027930 -0.783742 -9.601415 22.720353 -1.530733 17.326098 -6.287556 -0.722085 -53.158547 35.717554 21.968768 119.526767 0.000000 0.000000 0.000000 -22.293832 0.880535 8.641759 0.434983 -1.151273 -40.257910 -57.046827 -19.664834 134.970881 0.000000 0.000000 0.000000 -0.746589 -0.428818 12.378162 -6.267555 1.299046 -54.566358 2.270314 0.511313 59.530441 2.263669 3.126182 -85.999853 0.000000 0.000000 0.000000 36.391517 10.171486 -4.199991 13.505909 17.162173 5.551998 31.795336 19.693809 4.259419 0.000000 0.000000 0.000000 -14.763307 -11.057611 -3.993096 4.006269 -21.150566 -0.511905 -44.259918 -14.442088 5.343662 0.000000 0.000000 0.000000 
0.033659 0.945698 0.001849 -0.466373 -0.408226 -10.350465 23.213733 -1.215016 13.938520 -6.037068 -0.502911 -45.151748 30.126440 22.188019 114.550767 0.000000 0.000000 0.000000 -22.475035 0.724666 8.033175 0.528744 -1.051790 -35.077640 -39.944406 -20.975146 129.784495 0.000000 0.000000 0.000000 -1.350947 -0.401277 12.700220 -5.384647 1.273036 -54.107702 3.310445 -1.597238 59.192645 -1.075183 3.575033 -85.107555 0.000000 0.000000 0.000000 35.950345 11.788206 -4.698760 12.298896 17.413044 5.311666 34.044311 16.751953 4.152854 0.000000 0.000000 0.000000 -20.315559 -12.605795 -3.877136 6.773966 -20.335443 -1.505507 -47.714622 -9.842812 3.930988 0.000000 0.000000 0.000000 
0.036036 1.003631 -0.016370 -0.700079 0.026469 -9.869287 23.074677 -0.508383 7.348118 -5.172654 -0.058074 -35.251696 17.078353 20.678131 111.847732 0.000000 0.000000 0.000000 -21.755407 0.436240 5.884577 0.666969 -0.963695 -30.561653 -26.394023 -21.341379 123.757986 0.000000 0.000000 0.000000 -0.922441 -0.434349 12.499749 -3.535891 1.263747 -50.869824 3.107742 -1.121409 54.748117 -0.501731 3.498003 -82.164600 0.000000 0.000000 0.000000 36.207695 12.467341 -3.833518 10.555803 16.483454 4.510731 38.094322 12.986341 3.562490 0.000000 0.000000 0.000000 -27.264844 -12.627481 -3.367883 8.995688 -21.464028 -2.153332 -49.575314 -3.962040 2.256937 0.000000 0.000000 0.000000 
0.037160 1.052856 -0.035594 -1.506005 -2.443539 -9.115773 21.728234 0.039030 4.510754 -1.393415 0.771754 -27.048377 2.802312 19.125344 106.144836 0.000000 0.000000 0.000000 -17.994445 0.292149 3.140760 0.610952 -0.699912 -24.224483 -12.446274 -19.426339 118.463444 0.000000 0.000000 0.000000 1.056024 -0.538738 12.014283 -1.941231 1.469984 -50.113180 3.394744 3.394422 52.998880 6.043525 2.526198 -79.964551 0.000000 0.000000 0.000000 41.909801 10.715034 -2.382551 6.096531 18.630267 3.051033 39.162218 10.748613 2.756472 0.000000 0.000000 0.000000 -31.104613 -11.847369 -3.630986 7.528102 -22.162483 -1.445421 -45.646322 -4.812483 3.239931 0.000000 0.000000 0.000000 
0.037182 1.069503 -0.053748 -1.214946 -3.535327 -7.649894 19.749461 0.215434 2.869027 0.076749 0.950591 -24.893981 3.040031 19.680023 106.794861 0.000000 0.000000 0.000000 -14.737783 0.255310 1.986835 0.991196 -0.557322 -19.942305 -11.342319 -18.966901 117.864808 0.000000 0.000000 0.000000 2.065402 -0.609439 11.926397 -2.838433 1.639794 -51.856095 4.602654 4.211459 53.865761 4.525104 2.624650 -81.149971 0.000000 0.000000 0.000000 39.738900 9.644559 -2.260590 7.142699 19.826844 3.454925 41.186458 10.824698 2.694874 0.000000 0.000000 0.000000 -34.206450 -11.959794 -3.771050 3.728258 -19.840528 -0.125818 -45.022736 -7.777500 4.359693 0.000000 0.000000 0.000000 
0.037732 1.059304 -0.069234 -0.189452 -2.539192 -8.796529 17.405018 0.014637 6.019122 0.512393 1.151562 -29.496257 2.323123 19.201637 105.395818 0.000000 0.000000 0.000000 -13.280677 0.183648 4.730212 0.902066 -0.570021 -18.539484 -19.759805 -20.630786 117.281160 0.000000 0.000000 0.000000 1.543443 -0.633031 13.236543 -2.519499 1.554833 -53.134100 3.817791 5.537362 56.921579 7.918831 2.314023 -86.842930 0.000000 0.000000 0.000000 37.930684 9.625171 -2.479421 10.336060 19.718587 4.534102 41.404367 12.481840 2.548129 0.000000 0.000000 0.000000 -30.004538 -11.998342 -4.775750 -3.179527 -18.018880 2.081691 -45.190980 -11.978902 5.756639 0.000000 0.000000 0.000000 
0.039955 1.018650 -0.082644 1.882466 -4.219744 -6.994767 15.453953 0.077777 7.060858 0.630650 1.658800 -34.661463 4.656943 20.170275 103.847966 0.000000 0.000000 0.000000 -14.761723 0.526559 6.296606 0.723480 -0.608138 -27.204178 -21.063563 -19.588290 122.092089 0.000000 0.000000 0.000000 -0.630308 -0.384597 12.712008 -4.356234 1.851665 -55.620022 5.533764 3.275052 58.608247 4.140189 2.979617 -88.879171 0.000000 0.000000 0.000000 34.722910 10.733514 -3.777674 15.681467 18.382141 6.547756 38.014532 13.656581 2.952820 0.000000 0.000000 0.000000 -30.481226 -10.816661 -3.950970 -6.945967 -16.495911 3.057223 -41.500144 -13.536493 4.837798 0.000000 0.000000 0.000000 
0.043289 0.972688 -0.091633 2.241806 -4.149934 -5.404892 16.873279 -0.133488 8.886309 -0.395366 1.828647 -41.003821 5.981364 20.568944 106.687350 0.000000 0.000000 0.000000 -13.923174 0.631919 9.548082 -1.411629 -1.166454 -37.634448 -29.700160 -19.671634 127.834782 0.000000 0.000000 0.000000 -0.507996 -0.351285 11.015067 -4.873354 1.863603 -58.111737 6.291653 3.222736 63.391173 0.270050 2.862452 -94.502062 0.000000 0.000000 0.000000 32.001983 12.150868 -4.519123 16.517530 15.755486 6.492158 37.233308 17.870341 3.742889 0.000000 0.000000 0.000000 -28.290536 -14.893760 -5.231362 -9.145911 -12.285467 3.390382 -39.567174 -15.826676 5.080054 0.000000 0.000000 0.000000 
0.046817 0.964723 -0.103187 3.267769 -5.940776 -4.751369 15.404834 -0.008120 11.081850 -0.142000 2.352838 -43.236929 5.868414 21.099835 107.518451 0.000000 0.000000 0.000000 -15.862447 0.929216 7.704883 0.636357 -0.426791 -39.046295 -46.732701 -18.791136 131.753371 0.000000 0.000000 0.000000 -0.546948 -0.307347 10.213268 -5.748550 2.123970 -57.853967 6.935479 4.080567 62.790087 0.027779 2.888204 -93.536796 0.000000 0.000000 0.000000 29.712909 9.870054 -4.136897 14.563328 15.100043 5.709057 41.035060 21.577208 5.294019 0.000000 0.000000 0.000000 -26.485046 -13.272578 -4.842865 -7.782730 -12.590028 2.978125 -39.375527 -17.722301 5.603030 0.000000 0.000000 0.000000 
0.048484 0.988977 -0.118501 3.471346 -6.545668 -4.633388 14.548430 0.112576 9.804170 -0.439953 2.265637 -41.638476 10.454698 22.065844 107.864027 0.000000 0.000000 0.000000 -15.464457 0.726442 3.679950 -0.688891 -0.667823 -33.076774 -39.090153 -18.166655 131.288593 0.000000 0.000000 0.000000 -0.462848 -0.328627 11.159493 -6.018092 2.248459 -59.658720 6.568323 3.930604 61.861046 -0.883708 2.978959 -87.460102 0.000000 0.000000 0.000000 29.265974 8.689315 -3.837161 9.250697 13.376213 3.714096 46.303629 22.845266 7.123161 0.000000 0.000000 0.000000 -27.447225 -12.421001 -4.378917 -3.463865 -9.224668 1.424751 -37.968863 -18.274532 5.795568 0.000000 0.000000 0.000000 
0.047468 1.011135 -0.133407 4.253567 -7.494149 -4.184897 14.186910 0.202133 8.085732 -1.112088 1.933668 -37.203742 8.028122 21.861391 105.129078 0.000000 0.000000 0.000000 -14.846551 0.615290 0.262189 -1.729183 -0.705277 -25.841822 -29.953645 -18.095017 127.217554 0.000000 0.000000 0.000000 -1.060179 -0.244560 10.046491 -3.145870 2.416768 -56.246595 4.369008 7.413595 57.941236 0.925780 2.726551 -83.124779 0.000000 0.000000 0.000000 27.557986 8.288876 -2.850056 4.739425 9.746982 1.945262 50.732396 20.708037 6.838777 0.000000 0.000000 0.000000 -26.313476 -11.879768 -4.358142 -0.087175 -6.093256 0.355736 -35.851527 -17.749355 5.877143 0.000000 0.000000 0.000000 
0.044367 1.011003 -0.147347 4.565208 -7.371689 -6.549094 13.248905 0.318768 8.083694 -1.472196 1.462929 -31.521773 6.594828 21.678939 105.606789 0.000000 0.000000 0.000000 -14.919591 0.584702 1.737179 0.933130 -0.373862 -20.880477 -39.123549 -20.804715 120.451109 0.000000 0.000000 0.000000 -0.765531 -0.308907 12.389809 -2.513334 2.251690 -53.028537 2.318478 9.575658 54.137001 5.756606 2.152199 -79.976659 0.000000 0.000000 0.000000 28.235142 8.226031 -1.869870 0.948285 6.154177 0.625522 47.592932 16.636086 4.790360 0.000000 0.000000 0.000000 -24.116735 -11.098539 -4.224691 1.749600 -3.538819 -0.194230 -31.280784 -17.986181 5.450842 0.000000 0.000000 0.000000 
0.039755 0.991132 -0.161293 3.892560 -7.384121 -7.037275 13.415288 0.330363 8.310473 -0.624392 1.526862 -30.683520 2.982429 21.377570 108.487908 0.000000 0.000000 0.000000 -14.409690 0.535178 1.807362 2.762138 -0.204133 -20.853571 -44.284320 -21.438595 120.664388 0.000000 0.000000 0.000000 -0.546859 -0.347208 13.560732 -2.760936 2.275323 -53.591664 2.166503 8.364259 53.835085 2.165813 2.707638 -82.506663 0.000000 0.000000 0.000000 25.645096 8.522607 -2.120215 -0.938658 1.012631 -0.109759 48.534137 19.761487 6.600566 0.000000 0.000000 0.000000 -22.332466 -10.932815 -3.832430 2.735574 0.162546 -0.538411 -29.289802 -19.942930 5.338982 0.000000 0.000000 0.000000 
0.035891 0.973118 -0.174742 2.972712 -7.508025 -5.685599 14.068106 0.266682 7.585547 -0.468298 1.562601 -30.715148 0.227450 20.503203 104.923164 0.000000 0.000000 0.000000 -14.257921 0.547885 0.941092 6.224233 0.214228 -22.519142 -58.113820 -24.520027 118.701367 0.000000 0.000000 0.000000 -0.232687 -0.355876 12.115107 -0.819610 2.240198 -52.642495 0.930633 9.760603 53.669800 3.705403 2.495637 -81.806519 0.000000 0.000000 0.000000 23.809812 6.788339 -1.562236 -5.050455 -1.174305 -1.017749 48.987042 24.456006 8.543587 0.000000 0.000000 0.000000 -19.481223 -10.610154 -3.915729 5.578494 1.267798 -1.087820 -29.286197 -20.728852 5.744103 0.000000 0.000000 0.000000 
0.034463 0.983157 -0.190817 2.188322 -8.005926 -5.277470 14.854414 0.248237 8.095181 -1.340690 1.491329 -31.098757 1.046290 20.859642 105.795542 0.000000 0.000000 0.000000 -12.733412 0.443513 -1.588742 5.903343 0.085672 -20.103017 -63.988187 -24.506331 120.238237 0.000000 0.000000 0.000000 0.577510 -0.447955 12.893544 -1.618447 2.205392 -51.552621 0.788597 9.595633 49.798432 1.855483 2.710388 -79.021802 0.000000 0.000000 0.000000 22.610952 6.211996 -1.219006 -11.753207 -4.975053 -2.140603 44.553993 26.343497 9.020867 0.000000 0.000000 0.000000 -16.632218 -9.092810 -3.264578 11.189939 3.532727 -1.928229 -28.685709 -22.838951 6.242886 0.000000 0.000000 0.000000 
0.035173 1.001661 -0.209046 1.607060 -6.967336 -4.501596 15.932195 0.175462 6.178156 -2.677077 1.148931 -29.922249 2.842860 21.210721 109.029395 0.000000 0.000000 0.000000 -12.549968 0.381938 -3.971817 6.062134 -0.051216 -18.127573 -60.449041 -23.703820 121.727544 0.000000 0.000000 0.000000 1.543522 -0.544198 12.157683 -0.615653 2.062226 -51.528642 -1.045973 8.568485 48.262881 1.602030 2.865573 -77.267530 0.000000 0.000000 0.000000 22.606818 6.147231 -1.144413 -21.390341 -8.687886 -3.188207 37.827332 26.631674 8.294204 0.000000 0.000000 0.000000 -15.967576 -7.029241 -2.598394 19.346172 5.346231 -2.862576 -23.333537 -22.776287 5.134080 0.000000 0.000000 0.000000 
0.036999 1.002716 -0.223173 1.818915 -7.286974 -4.901628 15.151137 0.182508 8.341122 -4.399389 1.013426 -32.035382 2.620390 21.680399 113.117160 0.000000 0.000000 0.000000 -13.990234 0.442810 -2.086906 10.458873 0.395320 -19.099893 -66.510959 -26.449351 118.315432 0.000000 0.000000 0.000000 2.897957 -0.669528 12.296814 0.471775 2.214054 -52.901303 -2.512682 10.560125 48.592777 2.337303 2.626515 -78.435108 0.000000 0.000000 0.000000 22.737820 3.207749 -0.392694 -28.946586 -10.156927 -4.057630 24.072036 31.087245 5.774903 0.000000 0.000000 0.000000 -13.164938 -5.361031 -2.496606 26.213035 8.644090 -3.277061 -19.841911 -26.057285 5.256382 0.000000 0.000000 0.000000 
0.038860 0.975940 -0.230319 1.294996 -6.433592 -5.750469 13.474592 0.189505 12.343091 -4.341522 1.105206 -37.803281 18.131716 22.885850 121.915573 0.000000 0.000000 0.000000 -15.896152 0.574337 1.505695 16.711884 1.644605 -24.478248 -74.108487 -29.648457 116.175997 0.000000 0.000000 0.000000 4.509793 -0.772316 11.588730 -0.698499 2.081830 -53.072362 -2.998312 9.578719 51.162168 3.351582 2.602806 -82.414304 0.000000 0.000000 0.000000 19.114031 1.927322 -0.486316 -31.598786 -12.411349 -4.200145 12.634969 33.631493 2.932317 0.000000 0.000000 0.000000 -7.748980 -3.480250 -1.771987 29.054453 12.048615 -3.333680 -13.283412 -26.831683 3.526414 0.000000 0.000000 0.000000 
0.040823 0.928514 -0.228503 0.753443 -5.575546 -5.788258 13.808050 0.043180 19.353818 -4.910810 1.135157 -49.545131 24.536058 22.270350 126.033544 0.000000 0.000000 0.000000 -17.875976 1.104330 8.259881 22.317638 4.933292 -37.647099 -91.427132 -32.386966 118.521321 0.000000 0.000000 0.000000 5.268415 -0.665634 9.131757 -0.417686 2.126261 -55.558541 -3.288733 8.646558 56.322949 5.137281 2.761416 -90.231817 0.000000 0.000000 0.000000 12.138555 -0.355826 -0.251540 -32.130705 -12.731186 -4.916473 5.973592 34.584489 1.113947 0.000000 0.000000 0.000000 -0.644787 -1.911789 -0.845728 29.541424 15.765488 -3.578127 -11.416151 -28.563561 3.238621 0.000000 0.000000 0.000000 
0.043542 0.878147 -0.220724 -0.237438 -4.342539 -5.196911 15.022780 -0.356573 22.185746 -5.119781 0.875722 -56.504714 43.760664 19.619110 135.328817 0.000000 0.000000 0.000000 -19.226613 1.812941 15.820794 23.696531 7.905250 -51.156173 -98.820500 -32.935346 120.675839 0.000000 0.000000 0.000000 7.201926 -0.487995 5.801782 -2.071382 1.889022 -56.359919 -2.445733 7.215687 60.764189 4.270959 2.794847 -93.361636 0.000000 0.000000 0.000000 4.631647 -2.366904 0.546617 -33.648730 -12.895776 -5.783676 4.973264 32.968438 0.947616 0.000000 0.000000 0.000000 6.108868 -2.012890 -0.343787 30.121502 16.409914 -4.389642 -11.386949 -27.126051 3.098538 0.000000 0.000000 0.000000 
0.046779 0.850700 -0.212263 -0.301880 -3.507362 -5.377559 15.046887 -0.565472 26.530325 -7.179094 -0.279864 -62.439518 68.929804 17.126973 136.201112 0.000000 0.000000 0.000000 -20.353300 2.430270 21.181694 23.351255 9.207356 -58.917648 -100.535415 -32.550973 121.938987 0.000000 0.000000 0.000000 6.957188 -0.274485 3.727794 -2.739587 1.764706 -57.863120 -2.811268 4.947333 63.672614 4.715892 3.037878 -94.600163 0.000000 0.000000 0.000000 0.120641 -2.666321 0.896996 -36.018523 -10.337794 -7.347921 5.266403 29.640661 1.215437 0.000000 0.000000 0.000000 9.792936 -1.728855 -0.022998 31.115764 15.358646 -5.335547 -10.830545 -24.730484 2.613991 0.000000 0.000000 0.000000 
0.050068 0.838541 -0.206007 -0.058674 -3.693469 -5.095945 15.757108 -0.767368 28.978177 -8.793930 -1.123774 -66.796099 81.138142 16.438426 135.494288 0.000000 0.000000 0.000000 -21.678380 3.096120 23.946338 23.825962 10.506828 -63.343884 -105.862914 -31.651666 124.125986 0.000000 0.000000 0.000000 7.377737 0.010251 0.895293 -4.788615 1.712227 -60.334067 -1.877091 3.162086 68.422214 3.136306 3.152429 -96.295478 0.000000 0.000000 0.000000 -3.349466 -1.845876 0.973335 -37.265402 -9.365773 -8.683144 5.379980 28.755750 1.460261 0.000000 0.000000 0.000000 10.923335 -3.310438 -0.744897 32.263339 14.050189 -6.519679 -10.756095 -23.048574 2.406079 0.000000 0.000000 0.000000 
0.053099 0.834474 -0.201098 0.037252 -2.929364 -4.384592 16.520268 -1.065746 27.993954 -11.461322 -2.591272 -65.194549 93.034778 17.906224 132.180155 0.000000 0.000000 0.000000 -21.995219 3.130851 24.466826 23.938313 10.110553 -62.794963 -109.178719 -29.735804 126.689117 0.000000 0.000000 0.000000 7.054128 0.338373 -2.479634 -4.741666 1.568852 -58.761998 -1.871109 2.373447 68.676135 5.500314 2.994437 -95.905540 0.000000 0.000000 0.000000 -7.111393 -1.707776 1.388526 -35.377372 -9.297081 -8.699109 6.149447 33.365055 2.020074 0.000000 0.000000 0.000000 12.857626 -3.152941 -0.655781 30.735624 13.882603 -6.470741 -12.311531 -29.246638 3.429010 0.000000 0.000000 0.000000 
0.055150 0.836993 -0.195876 0.302881 -5.404944 -3.666215 16.255780 -0.636271 29.050490 -12.331942 -2.096151 -63.885656 84.460479 20.724846 130.019912 0.000000 0.000000 0.000000 -22.970077 3.492211 21.511024 26.089113 10.888471 -58.237943 -111.321125 -34.057420 122.493739 0.000000 0.000000 0.000000 6.249410 0.390824 -3.352986 -2.245807 2.149997 -59.370025 -0.843516 4.903374 66.789587 10.736142 2.255084 -90.013597 0.000000 0.000000 0.000000 -4.376247 -1.385338 0.882109 -35.417999 -6.514348 -8.894907 9.514375 36.706420 3.279111 0.000000 0.000000 0.000000 8.611599 -5.697125 -1.937202 34.091977 12.489920 -6.852320 -21.238419 -32.469980 7.200050 0.000000 0.000000 0.000000 
0.056022 0.840874 -0.190529 -0.322725 -5.063527 -2.427131 16.661489 -0.824984 28.483723 -12.673207 -2.297987 -63.760432 89.229016 20.446672 130.067873 0.000000 0.000000 0.000000 -22.742477 3.057905 18.624132 26.673856 10.196698 -55.207415 -121.519015 -32.994150 125.512648 0.000000 0.000000 0.000000 4.790489 0.520195 -5.754350 0.257355 2.104315 -56.792064 -1.560491 4.718694 63.699433 10.140730 2.392975 -87.369741 0.000000 0.000000 0.000000 -2.286813 0.652947 -0.150972 -32.725796 -4.207967 -8.171285 17.411742 41.243314 6.512578 0.000000 0.000000 0.000000 7.030048 -7.642842 -3.022817 34.765320 11.046308 -6.497024 -28.690175 -35.488132 10.438609 0.000000 0.000000 0.000000 
