HIERARCHY
ROOT Hips
{
	OFFSET -0.001795 -0.223333 0.028219
	CHANNELS 6 Xposition Yposition Zposition Zrotation Yrotation Xrotation 
	JOINT LeftUpLeg
	{
		OFFSET 0.069520 -0.091406 -0.006815
		CHANNELS 3 Zrotation Yrotation Xrotation
		JOINT LeftLeg
		{
			OFFSET 0.034277 -0.375199 -0.004496
			CHANNELS 3 Zrotation Yrotation Xrotation
			JOINT LeftFoot
			{
				OFFSET -0.013596 -0.397961 -0.043693
				CHANNELS 3 Zrotation Yrotation Xrotation
				JOINT LeftToe
				{
					OFFSET 0.026358 -0.055791 0.119288
					CHANNELS 3 Zrotation Yrotation Xrotation
					End Site
					{
						OFFSET 0.000000 0.000000 0.000000
					}
				}
			}
		}
	}
	JOINT RightUpLeg
	{
		OFFSET -0.067670 -0.090522 -0.004320
		CHANNELS 3 Zrotation Yrotation Xrotation
		JOINT RightLeg
		{
			OFFSET -0.038290 -0.382569 -0.008850
			CHANNELS 3 Zrotation Yrotation Xrotation
			JOINT RightFoot
			{
				OFFSET 0.015774 -0.398415 -0.042312
				CHANNELS 3 Zrotation Yrotation Xrotation
				JOINT RightToe
				{
					OFFSET -0.025372 -0.048144 0.123348
					CHANNELS 3 Zrotation Yrotation Xrotation
					End Site
					{
						OFFSET 0.000000 0.000000 0.000000
					}
				}
			}
		}
	}
	JOINT Spine
	{
		OFFSET -0.002533 0.108963 -0.026696
		CHANNELS 3 Zrotation Yrotation Xrotation
		JOINT Spine1
		{
			OFFSET 0.005487 0.135180 0.001092
			CHANNELS 3 Zrotation Yrotation Xrotation
			JOINT Spine2
			{
				OFFSET 0.001457 0.052922 0.025425
				CHANNELS 3 Zrotation Yrotation Xrotation
				JOINT Neck
				{
					OFFSET -0.002778 0.213870 -0.042857
					CHANNELS 3 Zrotation Yrotation Xrotation
					JOINT Head
					{
						OFFSET 0.005152 0.064970 0.051349
						CHANNELS 3 Zrotation Yrotation Xrotation
						End Site
						{
							OFFSET 0.000000 0.000000 0.000000
						}
					}
				}
				JOINT LeftShoulder
				{
					OFFSET 0.078845 0.121749 -0.034090
					CHANNELS 3 Zrotation Yrotation Xrotation
					JOINT LeftArm
					{
						OFFSET 0.090977 0.030469 -0.008868
						CHANNELS 3 Zrotation Yrotation Xrotation
						JOINT LeftForeArm
						{
							OFFSET 0.259612 -0.012772 -0.027456
							CHANNELS 3 Zrotation Yrotation Xrotation
							JOINT LeftHand
							{
								OFFSET 0.249234 0.008986 -0.001171
								CHANNELS 3 Zrotation Yrotation Xrotation
								End Site
								{
									OFFSET 0.000000 0.000000 0.000000
								}
							}
						}
					}
				}
				JOINT RightShoulder
				{
					OFFSET -0.081759 0.118833 -0.038615
					CHANNELS 3 Zrotation Yrotation Xrotation
					JOINT RightArm
					{
						OFFSET -0.096012 0.032551 -0.009143
						CHANNELS 3 Zrotation Yrotation Xrotation
						JOINT RightForeArm
						{
							OFFSET -0.253742 -0.013329 -0.021401
							CHANNELS 3 Zrotation Yrotation Xrotation
							JOINT RightHand
							{
								OFFSET -0.255298 0.007772 -0.005559
								CHANNELS 3 Zrotation Yrotation Xrotation
								End Site
								{
									OFFSET 0.000000 0.000000 0.000000
								}
							}
						}
					}
				}
			}
		}
	}
}
MOTION
Frames: 140
Frame Time: 0.050000
0.000000 0.949852 0.000000 -0.730419 1.846817 -0.011744 0.885826 0.165506 2.196762 0.437363 -0.019807 -0.693160 -1.352815 -0.863453 3.850409 0.000000 0.000000 0.000000 2.396084 -0.085063 0.298097 -0.308553 0.096556 1.510485 1.337720 1.264724 4.061289 0.000000 0.000000 0.000000 1.301861 0.023017 -0.646656 -0.806579 0.411082 -0.947658 -1.491744 0.699550 6.938075 4.576029 -1.399472 -16.645635 0.000000 0.000000 0.000000 -27.170993 -1.552603 -2.416707 -47.373209 -4.528682 -3.877358 -6.105806 -18.056133 1.594436 0.000000 0.000000 0.000000 26.487119 -1.946218 -3.006544 54.326261 6.181966 -2.945607 2.566769 18.354638 1.055502 0.000000 0.000000 0.000000 
0.000590 0.949207 0.000532 -0.898611 1.625319 0.702174 1.388179 0.133250 2.026081 0.089155 0.046768 -1.601805 -1.572073 -1.580129 3.314335 0.000000 0.000000 0.000000 2.173448 0.018277 -0.554055 0.345106 0.030981 1.923618 1.538334 2.273651 3.003418 0.000000 0.000000 0.000000 1.385199 0.083899 -1.890427 -1.109594 0.523528 0.351477 -1.418314 0.548370 6.323426 4.394910 -1.238626 -17.217736 0.000000 0.000000 0.000000 -27.340968 -0.607528 -2.942533 -47.389492 -4.607031 -3.823946 -5.966459 -18.773948 1.643819 0.000000 0.000000 0.000000 26.296910 -2.041568 -3.185175 54.916000 6.075732 -2.906239 2.736230 19.322937 1.129394 0.000000 0.000000 0.000000 
0.000839 0.949029 0.000916 -0.727369 1.745615 0.950731 1.241892 0.127292 1.899046 0.284070 0.014767 -1.215201 -1.919125 -2.638706 2.622419 0.000000 0.000000 0.000000 2.420729 0.054463 -0.893722 -0.122546 0.096677 2.094614 1.202264 1.828361 2.314726 0.000000 0.000000 0.000000 1.414988 0.083400 -1.903876 -1.017897 0.521384 -1.548279 -1.642993 0.423692 7.731716 3.706298 -0.938892 -16.449963 0.000000 0.000000 0.000000 -26.169624 -0.783613 -2.614007 -48.026746 -4.339165 -4.120971 -5.687516 -18.430760 1.580436 0.000000 0.000000 0.000000 26.430004 -1.172693 -2.606221 54.095476 5.919368 -3.083341 2.704066 19.015457 1.111296 0.000000 0.000000 0.000000 
0.000728 0.949116 0.001555 -0.761852 2.221917 1.079089 1.435681 0.127314 2.022005 0.133826 0.033106 -1.323034 -2.160868 -3.345117 2.207526 0.000000 0.000000 0.000000 2.417582 0.120490 -1.420947 0.238196 0.073263 2.755075 1.388884 2.538835 1.876213 0.000000 0.000000 0.000000 1.031236 0.072230 -1.729765 -1.122788 0.558971 -0.987281 -1.133292 -0.307069 6.934812 3.607041 -0.967394 -16.088668 0.000000 0.000000 0.000000 -26.325453 0.182428 -3.062011 -48.030973 -4.425839 -4.069240 -6.429813 -18.236035 1.690621 0.000000 0.000000 0.000000 26.355030 -1.008801 -2.728997 53.991271 5.763720 -3.014670 3.355665 19.178776 1.193318 0.000000 0.000000 0.000000 
0.000328 0.949386 0.002352 -0.704016 2.578602 1.028668 1.358507 0.132143 2.066364 0.428944 -0.008539 -0.943725 -1.804238 -2.815508 1.817279 0.000000 0.000000 0.000000 2.550194 0.129016 -1.484499 0.025910 0.105334 2.867505 1.189719 2.267896 1.477461 0.000000 0.000000 0.000000 0.816582 0.060192 -1.487544 -0.740368 0.373175 -0.696568 -1.408037 -0.535579 6.468963 3.219789 -0.782420 -15.511593 0.000000 0.000000 0.000000 -25.973072 0.249105 -3.079693 -47.859446 -4.238889 -4.084812 -6.705045 -18.043854 1.710079 0.000000 0.000000 0.000000 25.923212 -0.651923 -2.475853 54.028100 5.984120 -2.868974 3.282099 19.138210 1.174111 0.000000 0.000000 0.000000 
-0.000416 0.949526 0.003850 -0.589820 2.883988 1.040126 1.340316 0.156291 2.392783 0.365394 0.002846 -1.077522 -1.807844 -2.966087 1.548076 0.000000 0.000000 0.000000 2.707548 0.133696 -1.522604 -0.013719 0.118002 3.080057 1.128008 2.410996 0.930736 0.000000 0.000000 0.000000 0.308142 0.038071 -0.983294 -0.592368 0.308577 -0.844326 -1.176948 -0.868659 6.098600 3.008774 -0.671869 -15.496919 0.000000 0.000000 0.000000 -26.295268 0.921998 -3.474640 -47.491971 -4.028836 -4.120222 -6.568462 -18.018153 1.690257 0.000000 0.000000 0.000000 25.903091 -0.672616 -2.580126 54.029774 5.976681 -2.814627 3.396045 19.098539 1.177180 0.000000 0.000000 0.000000 
-0.001423 0.949474 0.006262 -0.467942 2.942601 1.108444 1.154942 0.172466 2.506938 0.578561 -0.030919 -0.730929 -1.820545 -3.150101 1.270316 0.000000 0.000000 0.000000 2.995906 0.152894 -1.695281 -0.216071 0.164940 3.572062 0.952109 2.316596 0.270310 0.000000 0.000000 0.000000 0.130439 0.025091 -0.653741 -0.507585 0.269875 -0.877812 -1.521045 -0.962111 5.820956 3.250606 -0.833125 -15.333509 0.000000 0.000000 0.000000 -26.132576 1.428249 -3.775507 -47.285491 -3.622001 -4.229279 -6.704644 -18.231911 1.730038 0.000000 0.000000 0.000000 25.594253 -0.566507 -2.490100 54.374553 5.877182 -2.843281 3.702413 20.040426 1.289550 0.000000 0.000000 0.000000 
-0.002719 0.948540 0.009869 -0.373550 3.049127 0.974736 1.270428 0.199702 2.930716 0.616584 -0.050600 -0.330933 -1.711348 -3.339286 0.544099 0.000000 0.000000 0.000000 3.216724 0.155148 -1.712979 -0.396773 0.217141 4.238795 0.836261 2.571417 -0.751418 0.000000 0.000000 0.000000 -0.019539 0.001006 -0.024145 -0.255895 0.163772 -1.211493 -1.877524 -0.913221 5.750724 3.506372 -1.035509 -14.768278 0.000000 0.000000 0.000000 -25.967130 1.483367 -3.849279 -47.140770 -3.489864 -4.243293 -6.574721 -18.346251 1.714038 0.000000 0.000000 0.000000 25.746435 -1.038172 -2.738520 54.191327 5.805013 -2.877641 4.287452 20.774914 1.446140 0.000000 0.000000 0.000000 
-0.004491 0.947272 0.014438 -0.430997 2.903076 0.806036 1.315185 0.242474 3.507948 0.995149 -0.087322 -0.374518 -1.819034 -3.617929 0.462903 0.000000 0.000000 0.000000 3.527790 0.143827 -1.640453 -0.371377 0.238731 4.871527 0.735980 2.613895 -1.302664 0.000000 0.000000 0.000000 0.042852 -0.018516 0.442477 -0.295764 0.181464 -1.194852 -1.831668 -1.163375 5.621861 3.425591 -1.056257 -14.410730 0.000000 0.000000 0.000000 -25.902524 1.552641 -3.772265 -47.045904 -3.614016 -4.210342 -6.656749 -17.954598 1.697785 0.000000 0.000000 0.000000 25.666545 -0.728332 -2.660841 53.844699 6.021364 -2.727017 4.799339 21.014324 1.534019 0.000000 0.000000 0.000000 
-0.006809 0.945379 0.019432 -0.446892 2.772944 0.484562 1.425809 0.267016 3.886844 1.057636 -0.138942 0.635583 -1.503699 -3.474623 -0.439653 0.000000 0.000000 0.000000 3.904514 0.078448 -1.164200 -0.449315 0.277274 5.519456 0.658636 2.973735 -2.288784 0.000000 0.000000 0.000000 0.040651 -0.031123 0.754844 -0.308264 0.184007 -1.097169 -1.819130 -1.184364 5.688044 3.291308 -1.001251 -14.239435 0.000000 0.000000 0.000000 -25.837319 1.756156 -3.849729 -46.933211 -3.674664 -4.194998 -6.141832 -18.170076 1.642586 0.000000 0.000000 0.000000 25.667645 -0.704902 -2.679937 53.652006 6.141267 -2.665268 5.136726 21.254082 1.606368 0.000000 0.000000 0.000000 
-0.009579 0.943447 0.024407 -0.435924 2.566047 0.283667 1.635061 0.287869 4.292767 1.128117 -0.167442 1.080754 -1.291963 -3.554999 -1.354089 0.000000 0.000000 0.000000 4.258538 0.069863 -1.125443 -0.403074 0.302184 6.308475 0.408952 2.799856 -3.155966 0.000000 0.000000 0.000000 0.120207 -0.055523 1.311491 -0.358243 0.207752 -1.123379 -1.736882 -1.146411 5.726874 3.409034 -1.085613 -14.240215 0.000000 0.000000 0.000000 -25.927181 1.547520 -3.703196 -46.627347 -4.077384 -4.031597 -5.909559 -17.829443 1.576747 0.000000 0.000000 0.000000 25.653211 -0.608925 -2.648169 53.913046 6.549014 -2.495114 5.125157 21.289844 1.605000 0.000000 0.000000 0.000000 
-0.012507 0.941445 0.028859 -0.394368 2.077853 0.108571 1.718725 0.190345 2.951123 1.106664 -0.357755 5.220642 -0.404319 -2.976441 -3.773984 0.000000 0.000000 0.000000 4.768214 0.024171 -0.857987 -0.397474 0.321876 6.748877 0.175793 2.767681 -4.151383 0.000000 0.000000 0.000000 0.370511 -0.083932 1.844176 -0.599907 0.309782 -0.779376 -1.375217 -1.348082 5.414054 3.259332 -1.014367 -14.461350 0.000000 0.000000 0.000000 -26.288685 1.780810 -3.723232 -46.423257 -3.983475 -4.077539 -5.016558 -18.787855 1.536148 0.000000 0.000000 0.000000 25.081745 -0.448773 -2.682633 54.136565 6.939405 -2.254252 5.127634 21.104068 1.564292 0.000000 0.000000 0.000000 
-0.015555 0.939442 0.032726 -0.584444 1.751783 -0.073223 2.118655 -0.030048 0.030390 0.920398 -0.657395 12.186230 0.546665 -2.073705 -6.112711 0.000000 0.000000 0.000000 5.360176 -0.090299 -0.145054 -0.252079 0.290476 6.526376 -0.095258 2.709201 -5.289559 0.000000 0.000000 0.000000 0.595062 -0.134503 2.821724 -0.154188 0.097354 -0.732224 -1.384428 -0.776223 5.336731 3.700707 -1.284708 -14.156881 0.000000 0.000000 0.000000 -25.991776 1.508960 -3.657697 -46.669852 -4.292529 -3.941101 -4.878844 -18.706994 1.493270 0.000000 0.000000 0.000000 25.675700 -0.023923 -2.349466 52.992868 7.672265 -1.929812 4.603722 20.955634 1.478760 0.000000 0.000000 0.000000 
-0.018113 0.936475 0.036011 -0.590287 1.763906 0.331968 1.951348 -0.448075 -5.640664 0.753683 -1.159723 22.828175 1.641795 0.166990 -6.968622 0.000000 0.000000 0.000000 5.437732 -0.029012 -0.604762 0.761659 0.148683 7.472683 -0.805401 1.504399 -6.812388 0.000000 0.000000 0.000000 0.356308 -0.178583 3.963842 0.687676 -0.320037 -0.252410 -1.369907 -0.283914 4.768632 3.839452 -1.265302 -14.558435 0.000000 0.000000 0.000000 -25.865097 2.068965 -4.168686 -47.036907 -4.327157 -3.859372 -3.680822 -19.373925 1.328604 0.000000 0.000000 0.000000 25.263941 0.347729 -1.925777 52.307534 8.752173 -1.438436 4.295786 20.562598 1.409838 0.000000 0.000000 0.000000 
-0.020171 0.933791 0.041166 -0.881447 0.256427 0.451873 2.171797 -1.044922 -13.984419 -1.176175 -0.891957 37.940713 2.774627 4.222026 -4.459341 0.000000 0.000000 0.000000 6.312216 -0.083685 -0.441865 0.205993 0.281153 8.025477 -0.712905 3.138106 -8.476956 0.000000 0.000000 0.000000 1.520799 -0.259994 4.520631 0.013149 0.008528 -0.519968 -0.839852 1.092957 5.435800 3.267403 -0.767076 -15.462531 0.000000 0.000000 0.000000 -25.346805 2.268742 -4.349129 -47.840790 -3.669745 -4.192487 -2.941476 -20.922169 1.292416 0.000000 0.000000 0.000000 24.721198 1.664078 -0.875792 50.659805 9.001744 -1.428669 5.452437 20.881475 1.644942 0.000000 0.000000 0.000000 
-0.021645 0.931459 0.049700 -0.610621 -0.334952 0.129948 2.573964 -1.780490 -25.367447 -3.664130 0.384364 58.800965 2.720364 6.106318 1.093198 0.000000 0.000000 0.000000 5.709841 -0.230092 0.617302 1.015559 0.152741 8.308277 -0.881541 3.477367 -9.535138 0.000000 0.000000 0.000000 1.198053 -0.321892 6.089015 -0.181154 0.108821 -0.893335 0.402449 3.058312 6.072090 3.124933 -0.304295 -17.602263 0.000000 0.000000 0.000000 -26.570415 2.095692 -4.908943 -46.428759 -2.431095 -4.420000 -4.886960 -21.733515 1.652574 0.000000 0.000000 0.000000 24.317306 0.803139 -0.876731 48.688151 9.543985 -1.392770 8.151235 22.903896 2.393462 0.000000 0.000000 0.000000 
-0.022737 0.930249 0.063282 -0.552515 -1.349419 -0.953849 2.535386 -2.332357 -34.431004 -5.524743 2.656324 74.968492 4.772292 9.929877 -0.133277 0.000000 0.000000 0.000000 6.498201 -0.679478 3.425154 -0.217240 0.345529 7.458416 -0.762997 4.500024 -10.061679 0.000000 0.000000 0.000000 1.421494 -0.431387 8.112026 -0.458972 0.249038 -1.545588 1.149917 4.773525 6.924351 4.359787 -0.909705 -17.788663 0.000000 0.000000 0.000000 -26.717995 2.689105 -5.633949 -46.358002 -0.850372 -4.965541 -5.719194 -22.379548 1.821234 0.000000 0.000000 0.000000 23.618865 1.659138 0.051084 47.597072 9.548224 -1.574098 8.457124 23.502642 2.571434 0.000000 0.000000 0.000000 
-0.023704 0.930952 0.081964 0.704416 -3.159726 -1.447690 2.525496 -2.530129 -41.733724 -8.029869 6.719778 82.199102 6.444770 13.148092 -0.982513 0.000000 0.000000 0.000000 4.779471 -0.889794 5.649245 -0.206947 0.311357 6.503434 -0.630964 5.914012 -10.709582 0.000000 0.000000 0.000000 0.268417 -0.368898 9.121770 -1.135511 0.553382 -1.353616 2.379902 7.072452 6.953734 4.231473 -0.743312 -17.493874 0.000000 0.000000 0.000000 -26.642923 2.219369 -5.713480 -46.533946 1.094515 -5.596119 -6.363053 -21.371830 1.809318 0.000000 0.000000 0.000000 23.884319 1.606769 0.364528 46.742773 9.731943 -1.624389 7.941908 24.437374 2.636072 0.000000 0.000000 0.000000 
-0.025319 0.932494 0.105138 1.434980 -5.017719 -1.412316 1.991613 -2.621030 -46.318244 -8.159031 7.580503 80.655620 7.045951 14.299788 -1.143302 0.000000 0.000000 0.000000 4.073940 -1.089876 7.719110 -1.228662 0.434857 5.746364 0.001358 8.265430 -10.489501 0.000000 0.000000 0.000000 -0.422523 -0.314733 9.827668 -1.099362 0.527204 -1.838770 2.642731 8.085469 6.852979 3.741760 -0.396865 -17.912509 0.000000 0.000000 0.000000 -26.454032 3.390151 -6.367538 -46.291271 4.390889 -6.771718 -7.565009 -20.634217 1.960647 0.000000 0.000000 0.000000 23.539118 2.192479 0.706896 46.358426 9.533870 -1.673480 7.347744 26.064356 2.712776 0.000000 0.000000 0.000000 
-0.027816 0.932054 0.131818 1.904536 -6.374071 -1.410655 0.756444 -2.876454 -46.396310 -7.361788 6.432410 72.544953 6.243090 12.421347 -2.317944 0.000000 0.000000 0.000000 3.341118 -1.250267 9.881647 -2.048723 0.499715 4.869471 0.603895 10.681588 -10.577080 0.000000 0.000000 0.000000 -0.735036 -0.277991 10.047869 -1.174061 0.552564 -1.934476 2.977305 9.245583 7.176955 3.534512 -0.200564 -18.131560 0.000000 0.000000 0.000000 -25.357994 4.074913 -6.647202 -47.891203 5.596910 -7.532285 -8.099603 -18.564343 1.833297 0.000000 0.000000 0.000000 23.502251 2.199003 0.848345 46.085733 10.201741 -1.490762 7.429044 27.084917 2.886128 0.000000 0.000000 0.000000 
-0.030826 0.929784 0.161977 2.248339 -7.023320 -0.727846 -0.663310 -3.209726 -43.787399 -5.856535 4.134613 59.356521 4.703038 9.262186 -1.960065 0.000000 0.000000 0.000000 3.050049 -1.356269 11.247203 -2.812934 0.582017 4.555352 1.227057 11.907192 -9.717623 0.000000 0.000000 0.000000 -0.458348 -0.280799 9.386571 -1.134221 0.527762 -2.398663 2.824552 8.965541 8.001623 3.003571 0.193160 -19.536585 0.000000 0.000000 0.000000 -25.053032 5.525414 -7.210773 -48.102874 6.314591 -7.967003 -8.394162 -18.765544 1.930027 0.000000 0.000000 0.000000 22.158861 2.521895 0.886526 47.176056 10.800581 -1.226650 6.756612 27.901287 2.819080 0.000000 0.000000 0.000000 
-0.034638 0.925456 0.196029 2.691357 -7.516791 0.077072 -2.710623 -3.542335 -38.312639 -3.080549 1.517090 44.267479 1.377674 3.178092 0.909367 0.000000 0.000000 0.000000 2.708484 -1.354980 11.721386 -3.033660 0.722125 6.017228 0.965147 12.381722 -10.827519 0.000000 0.000000 0.000000 -0.390462 -0.266339 8.752051 -1.335819 0.611503 -2.943047 2.684674 8.384318 8.277478 3.777419 -0.331008 -19.776648 0.000000 0.000000 0.000000 -24.042275 5.386130 -6.629119 -50.150892 6.777951 -8.655681 -7.497902 -19.138195 1.859282 0.000000 0.000000 0.000000 21.744489 2.438986 0.599965 48.396084 9.933714 -1.484031 7.539039 28.989823 3.106162 0.000000 0.000000 0.000000 
-0.038709 0.921432 0.234788 2.484914 -8.984785 0.473797 -3.221735 -3.164712 -33.142065 -2.241806 0.947477 34.923071 -0.736888 -0.129931 3.672856 0.000000 0.000000 0.000000 2.664496 -1.423325 12.838294 -3.761054 0.988038 7.805336 1.244517 13.128684 -10.485359 0.000000 0.000000 0.000000 -0.990088 -0.197856 8.460049 -1.469239 0.646617 -3.885782 3.215626 8.641813 8.836028 3.171387 -0.184727 -18.616504 0.000000 0.000000 0.000000 -25.279934 4.957904 -6.435005 -49.065764 6.185305 -8.262448 -6.360776 -19.402899 1.729078 0.000000 0.000000 0.000000 22.474409 2.528432 0.459682 48.625109 9.906523 -1.503609 6.991262 30.027659 3.068860 0.000000 0.000000 0.000000 
-0.042874 0.919259 0.279234 2.246289 -8.155697 0.974634 -4.871381 -3.216584 -27.778123 -0.195443 -0.137183 30.520363 -0.866797 -1.477884 0.874518 0.000000 0.000000 0.000000 3.005066 -1.424280 12.040137 -3.715526 1.572727 14.073040 1.161623 10.861072 -8.932826 0.000000 0.000000 0.000000 -0.769352 -0.196785 7.294108 -1.521824 0.682033 -3.625702 2.749157 6.698522 8.331201 2.967727 -0.227350 -18.664043 0.000000 0.000000 0.000000 -25.295197 3.858219 -5.328310 -49.203445 4.598513 -7.745327 -5.810334 -19.341699 1.684126 0.000000 0.000000 0.000000 22.257100 1.331980 -0.691989 49.360511 8.122815 -2.034314 8.179495 29.675605 3.221072 0.000000 0.000000 0.000000 
-0.046560 0.919123 0.327358 2.914100 -7.650944 0.998669 -7.199742 -2.958609 -21.018336 0.817027 -0.578002 25.196331 -0.058537 -0.763141 -1.632671 0.000000 0.000000 0.000000 0.749214 -0.634568 6.427649 -0.720041 2.102036 28.156883 2.331882 8.288949 -2.846509 0.000000 0.000000 0.000000 -2.871796 -0.023835 6.685455 -0.384939 0.190327 -4.418709 2.375013 4.227300 9.203682 2.569681 -0.139227 -20.069182 0.000000 0.000000 0.000000 -26.160151 4.297620 -4.973501 -47.821667 1.774882 -6.714224 -6.933373 -19.983345 2.033433 0.000000 0.000000 0.000000 22.230094 0.735523 -1.682802 51.214619 5.501108 -3.061200 8.929686 29.008046 3.180385 0.000000 0.000000 0.000000 
-0.050365 0.918284 0.374245 3.298430 -6.733760 0.913419 -8.418425 -2.270217 -14.672957 1.080273 -0.683595 20.974285 0.453055 -1.396816 -5.876482 0.000000 0.000000 0.000000 -0.344055 0.343070 -3.541099 2.290092 2.379230 46.296223 1.506194 3.963926 -0.150483 0.000000 0.000000 0.000000 -3.571463 0.025945 6.597592 0.225680 -0.054569 -4.943899 1.379182 1.853442 10.484548 2.253811 -0.054167 -21.848983 0.000000 0.000000 0.000000 -25.581296 2.623652 -3.188392 -47.495391 -3.381043 -5.056566 -8.307154 -22.284597 2.650228 0.000000 0.000000 0.000000 23.292587 -0.007666 -2.762928 50.827903 3.610349 -3.770290 8.181084 27.562959 2.723088 0.000000 0.000000 0.000000 
-0.055239 0.918958 0.419676 2.914496 -4.201636 0.304776 -8.412619 -1.250876 -8.047798 2.149447 -1.016849 17.282922 -0.341365 -4.432851 -7.413239 0.000000 0.000000 0.000000 -1.025884 1.372464 -14.244292 5.671391 0.316246 58.479805 -1.121829 -2.805568 -0.112912 0.000000 0.000000 0.000000 -3.057168 -0.041648 7.376773 1.006337 -0.387568 -3.739349 -0.289039 -1.492837 9.473246 2.275185 -0.310488 -21.332179 0.000000 0.000000 0.000000 -26.030741 0.801185 -1.540451 -46.018261 -8.963286 -3.010307 -7.147644 -24.590370 2.756200 0.000000 0.000000 0.000000 23.364772 0.072996 -3.314068 51.322733 0.188724 -4.982601 8.152699 25.066944 2.325878 0.000000 0.000000 0.000000 
-0.061756 0.919914 0.466396 2.664823 -1.775047 -0.563378 -8.071658 -0.298964 -2.263813 2.842212 -1.100109 13.708866 -1.545813 -7.803172 -7.351773 0.000000 0.000000 0.000000 -2.070321 2.078119 -23.609308 8.015197 -2.273993 60.013574 -3.177577 -7.289200 -2.125129 0.000000 0.000000 0.000000 -2.887015 -0.098386 8.971712 2.274215 -0.867473 -4.969865 -1.593048 -3.647573 10.562579 2.643773 -0.541532 -22.470665 0.000000 0.000000 0.000000 -26.211384 -1.437196 0.161623 -44.671567 -14.833924 -1.056695 -6.238875 -29.788213 3.224392 0.000000 0.000000 0.000000 23.847684 -1.122378 -4.283650 51.393448 -2.683762 -6.215328 7.852436 21.312976 1.877066 0.000000 0.000000 0.000000 
-0.069777 0.920151 0.516059 1.448299 -0.336289 -0.988383 -6.531781 0.564496 3.371987 3.866152 -1.140638 10.354076 -2.552831 -10.697657 -7.465917 0.000000 0.000000 0.000000 -1.339793 2.772093 -30.206551 7.978496 -2.473489 50.646808 -4.514366 -10.729764 -2.277034 0.000000 0.000000 0.000000 -1.499089 -0.251037 9.616844 2.832408 -1.123084 -4.360438 -2.140166 -5.707829 9.819251 2.138413 -0.400542 -22.431431 0.000000 0.000000 0.000000 -26.660165 -2.198286 1.012204 -43.411901 -19.298485 0.430255 -3.735860 -37.028764 3.404797 0.000000 0.000000 0.000000 23.983344 -2.183638 -5.330102 50.774238 -6.346362 -7.455551 7.585733 19.661349 1.621847 0.000000 0.000000 0.000000 
-0.079548 0.917470 0.570532 1.115908 1.271555 -0.731542 -4.522244 1.161995 8.557242 4.043724 -0.960569 7.245216 -3.435961 -13.175089 -7.449862 0.000000 0.000000 0.000000 -1.604924 2.758636 -32.351085 8.795477 -2.417589 32.785226 -5.416211 -13.639649 1.298919 0.000000 0.000000 0.000000 -1.328131 -0.280093 9.635865 3.449294 -1.327123 -5.063577 -2.446913 -7.818521 10.105053 1.883203 -0.389125 -22.887119 0.000000 0.000000 0.000000 -26.217097 -1.939043 1.272441 -43.627093 -21.895006 1.266586 -1.374316 -45.373856 3.608917 0.000000 0.000000 0.000000 23.567078 -2.820495 -5.980379 52.011901 -8.673126 -8.623515 5.686443 17.936576 1.172926 0.000000 0.000000 0.000000 
-0.090954 0.913096 0.631425 1.497089 2.010759 0.173124 -4.246513 1.561891 11.928635 4.814577 -1.016622 6.302107 -4.196194 -13.284812 -5.334007 0.000000 0.000000 0.000000 -0.436632 3.015322 -32.462856 8.049434 -1.703641 21.803003 -6.803287 -17.005567 4.102411 0.000000 0.000000 0.000000 -2.155848 -0.173234 8.334530 4.743332 -1.951684 -4.049340 -2.960824 -8.440554 8.574359 2.518510 -0.784991 -21.777925 0.000000 0.000000 0.000000 -24.605278 -1.532965 0.943030 -45.216758 -22.608332 1.926878 -0.814779 -52.306642 4.118548 0.000000 0.000000 0.000000 24.033042 -3.334574 -6.454977 51.731350 -10.607559 -9.220285 4.210972 17.872915 0.955759 0.000000 0.000000 0.000000 
-0.103791 0.910848 0.700965 2.036848 3.044735 1.207506 -3.050429 1.453215 12.348777 4.273735 -1.272579 10.660642 -5.622378 -15.125992 -3.453942 0.000000 0.000000 0.000000 1.446668 3.192123 -30.167807 8.015000 -1.704055 20.414589 -6.933228 -17.365544 6.910874 0.000000 0.000000 0.000000 -2.399470 -0.092869 5.799839 5.624471 -2.535150 -1.821514 -3.186433 -9.571151 5.377928 2.155666 -0.603463 -20.964095 0.000000 0.000000 0.000000 -26.323162 0.519298 -0.377113 -44.912342 -20.231357 1.222055 -4.313894 -53.962205 5.982437 0.000000 0.000000 0.000000 24.170205 -3.791243 -6.986514 50.682989 -11.712424 -9.114410 2.898090 16.631525 0.687050 0.000000 0.000000 0.000000 
-0.118428 0.912476 0.775039 1.832736 2.505392 0.622899 0.351702 0.877993 10.481625 2.614878 -1.768845 22.708904 -8.563341 -15.273897 4.035916 0.000000 0.000000 0.000000 5.044004 3.493897 -25.545400 6.375880 -1.207679 21.292635 -5.807507 -15.027220 5.750952 0.000000 0.000000 0.000000 -1.069319 -0.138811 4.707026 4.721459 -2.115808 -1.880752 -2.430466 -8.784934 4.664286 0.973924 0.015311 -19.494860 0.000000 0.000000 0.000000 -25.465126 2.182556 -1.562668 -46.174469 -16.148756 -0.124428 -13.229043 -52.223139 10.110499 0.000000 0.000000 0.000000 22.805684 -4.215436 -6.751514 49.975172 -9.767529 -8.212586 4.202542 15.587515 0.803536 0.000000 0.000000 0.000000 
-0.133283 0.915158 0.843127 1.086211 1.561013 -0.375824 3.584009 0.057125 1.822958 2.218986 -3.112191 43.265487 -12.590554 -16.342440 12.633830 0.000000 0.000000 0.000000 7.840781 3.019249 -18.887566 6.004844 -1.008521 19.943352 -5.217797 -12.963275 -0.318867 0.000000 0.000000 0.000000 0.329070 -0.246447 5.578669 3.990578 -1.656582 -3.646859 -1.448675 -7.987016 5.183760 0.174024 0.498497 -20.259410 0.000000 0.000000 0.000000 -27.139225 4.952772 -3.451625 -46.477462 -11.081342 -2.127715 -19.326712 -45.849969 11.315909 0.000000 0.000000 0.000000 22.017605 -3.481832 -6.106054 50.042388 -7.908770 -7.558042 4.058194 17.579219 0.892108 0.000000 0.000000 0.000000 
-0.147710 0.917996 0.902330 1.022671 -2.312219 -1.643121 4.773081 -0.453199 -8.981919 2.475980 -3.306519 59.145818 -10.058435 -13.240288 10.995861 0.000000 0.000000 0.000000 11.273248 2.073164 -11.395625 2.326472 0.182304 17.130161 -3.174694 -6.875687 -2.903572 0.000000 0.000000 0.000000 1.026001 -0.374908 7.780856 2.833058 -1.040041 -6.512183 -0.757397 -3.892137 7.448348 2.602777 -0.641760 -20.954166 0.000000 0.000000 0.000000 -26.890831 4.688182 -3.778270 -46.635726 -6.431736 -3.901085 -15.875627 -36.926583 7.457545 0.000000 0.000000 0.000000 23.207253 -1.980788 -4.912274 48.213770 -3.256018 -5.709178 4.598590 19.668863 1.172932 0.000000 0.000000 0.000000 
-0.162429 0.919514 0.958245 2.242741 -8.079888 -2.533435 3.715201 -0.887155 -19.522151 5.168198 -3.225582 64.197546 -7.576182 -11.559321 6.704096 0.000000 0.000000 0.000000 12.127741 0.727052 -4.751170 0.382321 0.765215 15.341100 -1.649505 -0.649402 -5.602730 0.000000 0.000000 0.000000 0.323271 -0.318945 8.621537 2.357053 -0.977422 -5.507789 0.363059 0.414057 7.761096 2.868681 -0.579276 -22.062556 0.000000 0.000000 0.000000 -27.916919 5.856111 -4.961042 -46.282058 -1.741928 -5.533127 -11.897536 -29.304371 4.615250 0.000000 0.000000 0.000000 23.037374 -0.299071 -3.618559 46.890763 2.618357 -3.449711 4.536443 24.002616 1.476283 0.000000 0.000000 0.000000 
-0.177917 0.920849 1.013671 3.794428 -14.454843 -3.426137 2.251134 -0.988249 -27.017026 8.076369 -2.907964 56.204255 -5.507905 -9.507191 3.448912 0.000000 0.000000 0.000000 11.299244 -0.615336 2.004883 -1.454412 1.117683 13.171926 0.885098 7.223620 -5.495149 0.000000 0.000000 0.000000 -0.295270 -0.233230 9.322182 1.239474 -0.593578 -6.355798 1.176198 4.815801 9.396719 3.787772 -0.954354 -22.896787 0.000000 0.000000 0.000000 -27.914658 6.535548 -5.554445 -45.472055 4.488347 -7.676814 -8.189294 -23.912593 2.875118 0.000000 0.000000 0.000000 22.490594 0.859948 -2.646629 47.177417 7.991353 -1.664459 2.627238 28.914614 1.396749 0.000000 0.000000 0.000000 
-0.194608 0.921943 1.069713 5.775068 -22.070251 -3.495814 1.168588 -0.593625 -29.787550 8.229900 -1.669081 39.628809 -7.841828 -11.780556 7.412455 0.000000 0.000000 0.000000 9.219408 -1.035489 5.227911 -4.020078 1.849607 14.033685 1.536368 12.524310 -7.698792 0.000000 0.000000 0.000000 -1.488484 -0.067676 8.556175 -0.020163 -0.177444 -5.320681 2.228921 8.655593 8.783844 2.512840 -0.300626 -22.999094 0.000000 0.000000 0.000000 -27.661338 8.345469 -6.549344 -45.486179 9.831574 -9.450071 -6.597456 -20.734873 2.189615 0.000000 0.000000 0.000000 21.297269 1.848697 -2.128488 48.191584 11.404978 -0.272722 0.969175 34.234478 1.106890 0.000000 0.000000 0.000000 
-0.214333 0.920002 1.126914 8.570833 -28.203138 -4.548241 -0.308622 -0.531534 -28.792051 6.883473 -1.208036 23.854615 -12.677756 -18.729378 9.159628 0.000000 0.000000 0.000000 6.230346 -1.047957 8.495664 -7.220322 2.883467 15.486683 3.420518 17.714072 -7.021101 0.000000 0.000000 0.000000 -2.325148 0.037518 7.596693 -2.211332 0.611394 -6.110633 3.750174 10.145790 10.763488 1.140326 0.129182 -23.306987 0.000000 0.000000 0.000000 -29.059216 10.197115 -7.081568 -44.528078 12.501846 -10.427092 -5.381907 -18.100543 1.789409 0.000000 0.000000 0.000000 19.752813 2.661977 -2.135081 50.284302 14.081135 0.811781 3.405104 37.573501 1.717672 0.000000 0.000000 0.000000 
-0.239166 0.916877 1.186825 10.652964 -34.013806 -6.211870 -0.574953 -0.428248 -24.735020 5.636339 -0.873090 15.804787 -15.358690 -21.492307 11.184552 0.000000 0.000000 0.000000 3.688815 -0.666237 9.954712 -6.771326 4.284042 21.564278 1.856044 13.871877 -7.459374 0.000000 0.000000 0.000000 -3.205529 0.093457 5.816826 -2.736680 0.832047 -4.889637 3.273152 11.110344 11.362490 2.256686 -0.832146 -22.665966 0.000000 0.000000 0.000000 -28.835081 9.179748 -5.525196 -47.980414 12.753140 -11.589609 0.022713 -18.250208 1.054229 0.000000 0.000000 0.000000 21.796087 4.473453 -2.182128 49.506022 14.321251 1.105924 4.084563 40.168463 1.783123 0.000000 0.000000 0.000000 
-0.270087 0.910631 1.247217 12.074354 -37.826090 -7.249722 -3.590708 -1.126099 -21.800739 8.307614 -1.030962 20.842726 -13.845734 -21.107568 7.232616 0.000000 0.000000 0.000000 0.701820 -0.153493 6.001215 -1.644475 7.124598 36.165953 2.797063 8.744752 -1.775750 0.000000 0.000000 0.000000 -4.935160 0.196615 3.609233 -2.042134 0.751721 -2.269810 2.765259 9.227068 9.753111 1.319933 -0.918188 -19.702073 0.000000 0.000000 0.000000 -28.603574 10.130601 -4.933319 -49.255694 11.089015 -11.379407 -2.230151 -16.744962 1.355435 0.000000 0.000000 0.000000 21.404867 5.005389 -3.034861 51.510152 9.620765 -0.429318 8.956113 41.302382 2.944660 0.000000 0.000000 0.000000 
-0.304306 0.901762 1.299354 14.222821 -39.878844 -10.123334 -5.691581 -1.581527 -17.127821 8.629094 -0.243595 25.914792 -10.172599 -19.557561 -3.005759 0.000000 0.000000 0.000000 -2.571504 0.360808 -1.006059 9.460000 8.662253 55.409190 -0.603786 -5.495533 6.026420 0.000000 0.000000 0.000000 -7.147616 0.518384 5.843931 -1.150752 0.293864 -2.732370 1.823760 5.340824 9.251865 2.686046 -2.189056 -21.303257 0.000000 0.000000 0.000000 -31.962971 9.406433 -2.616457 -45.758636 4.451358 -9.223589 -3.426870 -17.335924 1.655928 0.000000 0.000000 0.000000 21.241639 4.090616 -5.041512 53.763746 5.178315 -2.178084 11.532031 40.811405 3.009656 0.000000 0.000000 0.000000 
-0.341837 0.893810 1.340551 15.059552 -42.470655 -12.404597 -5.905310 -1.401035 -10.638609 7.016769 0.809034 26.237271 -6.859166 -15.080491 -10.216162 0.000000 0.000000 0.000000 -5.369115 1.110481 -10.109016 20.389583 6.132405 67.334720 -6.643176 -17.520249 7.667811 0.000000 0.000000 0.000000 -7.169903 0.694142 7.840388 -0.378698 0.039173 -1.815311 0.437931 0.296087 7.997311 0.395300 -1.564831 -22.222744 0.000000 0.000000 0.000000 -33.697597 8.229317 0.784764 -43.061606 -4.658457 -6.874107 -5.863211 -17.433197 2.051556 0.000000 0.000000 0.000000 21.540454 5.469211 -6.311980 53.140079 0.545877 -3.577803 9.593099 35.231336 1.493806 0.000000 0.000000 0.000000 
-0.385666 0.894938 1.374057 14.481101 -46.010174 -13.629794 -4.352615 -0.594390 -3.012420 6.390371 0.883221 23.301636 -5.519609 -11.427184 -11.871606 0.000000 0.000000 0.000000 -6.816385 2.145037 -17.892398 26.186524 3.521921 67.173937 -13.867816 -30.984291 4.694170 0.000000 0.000000 0.000000 -6.816643 0.854222 9.544211 0.635000 -0.466585 -2.622410 -0.404358 -3.458752 9.399845 -1.386474 -1.331607 -23.553215 0.000000 0.000000 0.000000 -33.009411 7.704449 3.544425 -42.366294 -13.747697 -4.756005 -2.892504 -24.185274 2.629962 0.000000 0.000000 0.000000 20.808223 4.650401 -8.126842 51.779086 -4.209349 -5.430810 11.785905 28.650920 1.507215 0.000000 0.000000 0.000000 
-0.438858 0.902968 1.402853 12.390513 -49.565855 -12.695489 -2.259176 0.640479 4.490490 5.957964 0.342737 18.474828 -4.914017 -9.085172 -9.962994 0.000000 0.000000 0.000000 -7.361615 3.530907 -24.616336 24.070735 3.921593 57.736793 -14.521291 -32.758689 -1.082761 0.000000 0.000000 0.000000 -4.991846 0.671419 10.066915 0.500025 -0.346381 -2.219509 -0.440836 -6.923098 8.831968 -2.731297 -1.106566 -24.147613 0.000000 0.000000 0.000000 -32.016038 7.256531 5.492761 -41.371884 -22.018409 -2.305759 2.616464 -28.439241 2.120164 0.000000 0.000000 0.000000 18.195877 4.983669 -8.153291 51.519498 -7.281284 -6.876879 9.900047 24.657972 0.728242 0.000000 0.000000 0.000000 
-0.502510 0.913453 1.429347 9.203888 -51.377573 -9.457611 -0.187658 1.483983 8.468102 7.507901 -0.263849 17.344751 -4.839824 -8.823711 -6.899833 0.000000 0.000000 0.000000 -6.679462 4.330434 -27.244221 15.239011 4.495678 42.283596 -13.378481 -28.260182 -3.085887 0.000000 0.000000 0.000000 -3.742264 0.351278 8.247840 1.183827 -0.103933 1.232201 1.134805 -9.984206 4.866212 -4.082586 -0.246176 -20.956384 0.000000 0.000000 0.000000 -30.076999 9.060740 4.041520 -43.972568 -24.955984 -0.109572 6.228281 -34.134176 2.199942 0.000000 0.000000 0.000000 17.206934 3.163549 -8.882924 50.316198 -10.297415 -8.051318 7.275623 21.621680 0.234232 0.000000 0.000000 0.000000 
-0.576373 0.919836 1.455030 6.519409 -54.070601 -5.653371 3.456599 2.195920 11.153583 8.138596 -0.355578 17.291550 -3.467917 -6.202350 5.646830 0.000000 0.000000 0.000000 -3.600271 4.379054 -25.970198 7.493508 3.613342 28.690475 -9.275492 -18.986609 -0.808843 0.000000 0.000000 0.000000 -1.868253 0.034235 5.506708 1.165819 0.063896 1.445033 1.427735 -8.835986 3.156589 -4.054890 0.075189 -18.252527 0.000000 0.000000 0.000000 -29.189338 7.846710 4.686482 -43.339770 -24.225064 -0.137111 9.398722 -38.690189 1.716909 0.000000 0.000000 0.000000 14.989544 1.276868 -8.389066 51.266827 -14.278080 -10.636643 5.633437 19.624643 0.009109 0.000000 0.000000 0.000000 
-0.654330 0.919385 1.479575 4.566914 -56.301337 -4.524304 5.362727 1.947552 8.664273 10.959305 1.800083 30.240221 -3.753249 -5.987519 15.596429 0.000000 0.000000 0.000000 0.626231 3.272931 -20.698530 4.840262 3.417103 24.927939 -7.539572 -13.544880 -1.710409 0.000000 0.000000 0.000000 -0.672052 -0.064920 4.843316 -0.775987 0.811323 0.683320 3.276160 -8.800753 3.128165 -5.422003 0.848692 -17.222658 0.000000 0.000000 0.000000 -28.755536 9.687604 3.830226 -45.956403 -24.527500 0.357994 8.165567 -39.991744 2.757116 0.000000 0.000000 0.000000 13.850656 0.900668 -8.300858 50.805034 -15.160271 -11.162449 4.731704 17.529672 -0.147377 0.000000 0.000000 0.000000 
-0.727676 0.916735 1.501562 2.208640 -59.924629 -3.784738 5.146768 1.257139 2.378115 21.119609 3.586677 46.620464 -9.162993 -12.547468 15.946108 0.000000 0.000000 0.000000 4.236348 1.930884 -14.647512 3.013553 3.681986 23.931895 -8.765288 -11.734437 -4.815923 0.000000 0.000000 0.000000 1.243558 -0.171239 5.712855 -2.453099 1.240030 -1.161748 4.287174 -6.817924 4.922728 -5.426410 0.748938 -17.392123 0.000000 0.000000 0.000000 -31.309832 11.728131 3.373096 -44.507456 -22.777638 -1.388146 7.339990 -40.458386 3.239189 0.000000 0.000000 0.000000 14.170162 1.363954 -8.529823 50.820438 -13.580900 -10.461864 3.148165 16.585310 -0.333912 0.000000 0.000000 0.000000 
-0.794748 0.917335 1.522066 0.393251 -65.207965 -2.479634 3.157274 0.734444 -7.251722 29.303782 5.259304 59.200159 -10.895209 -16.211045 9.793992 0.000000 0.000000 0.000000 7.144980 0.765278 -8.766599 1.308197 3.539264 21.640925 -10.206836 -8.680187 -8.682239 0.000000 0.000000 0.000000 2.515892 -0.216607 6.434091 -4.263967 2.110756 -1.274859 5.130248 -2.362176 5.136493 -5.696116 1.035259 -17.456431 0.000000 0.000000 0.000000 -32.698345 12.280493 2.696060 -43.523462 -19.243915 -2.871609 4.549962 -38.974739 3.631884 0.000000 0.000000 0.000000 16.026344 1.470524 -9.219488 49.115193 -11.602765 -8.702658 4.026846 18.592157 -0.203347 0.000000 0.000000 0.000000 
-0.858959 0.922224 1.542226 0.315628 -71.033055 -2.484371 1.871422 1.983051 -18.225670 30.864733 6.381219 62.220466 -10.544498 -17.920025 2.285211 0.000000 0.000000 0.000000 7.339407 -0.186188 -1.905811 -0.409281 2.862872 17.953512 -8.820551 -3.303696 -9.011626 0.000000 0.000000 0.000000 1.211891 -0.079337 7.825568 -5.164172 2.164214 -2.955033 7.294941 2.294561 6.623909 -5.605357 0.797390 -19.177924 0.000000 0.000000 0.000000 -32.609536 14.419573 0.550210 -44.983463 -13.116109 -4.675937 -1.911588 -37.396714 5.506851 0.000000 0.000000 0.000000 15.711068 1.864284 -8.724850 49.258302 -5.533220 -6.329422 7.190473 21.108657 0.235071 0.000000 0.000000 0.000000 
-0.923802 0.924748 1.563341 0.055433 -74.972603 -2.007541 0.683699 4.164502 -26.257372 22.889597 7.564496 53.373045 -8.557990 -14.645307 -3.737165 0.000000 0.000000 0.000000 6.879805 -0.250109 4.652783 -1.486714 2.027904 14.100413 -6.628749 1.758879 -8.861514 0.000000 0.000000 0.000000 1.524911 -0.081879 7.972417 -5.817672 2.667177 -2.456517 7.122756 6.350474 6.383097 -6.222853 1.239794 -19.893544 0.000000 0.000000 0.000000 -31.104338 14.607840 -0.767779 -45.477644 -8.137032 -5.715295 -6.312729 -33.843516 5.851794 0.000000 0.000000 0.000000 15.818730 2.276245 -8.192674 50.693220 -1.136816 -4.803346 9.247376 27.033269 0.599018 0.000000 0.000000 0.000000 
-0.991208 0.921311 1.585407 2.102474 -78.135492 -3.471465 -0.691757 5.617065 -30.815917 11.581247 5.412319 35.473961 -4.560902 -5.738647 -4.074276 0.000000 0.000000 0.000000 5.310527 0.689195 11.051754 -2.444343 1.442693 11.132137 -5.073787 4.423004 -8.561822 0.000000 0.000000 0.000000 0.519684 0.009663 7.817168 -6.989525 2.901246 -3.598554 8.337304 8.750797 8.151998 -6.791070 1.212657 -22.727073 0.000000 0.000000 0.000000 -29.362528 16.550429 -2.806042 -46.672833 -4.578335 -6.414924 -10.359329 -29.119274 5.930690 0.000000 0.000000 0.000000 15.380441 3.977821 -7.254138 51.256350 3.355881 -3.143139 12.923758 31.445268 1.415731 0.000000 0.000000 0.000000 
-1.062992 0.915213 1.609336 -0.406259 -79.075007 -0.656376 -1.708762 5.771832 -32.063552 5.947856 1.847447 19.374345 -2.657641 -3.412306 4.916795 0.000000 0.000000 0.000000 4.766180 1.757605 15.655643 -2.435764 1.454937 11.354564 -3.101316 4.813052 -6.466160 0.000000 0.000000 0.000000 1.341293 -0.125803 6.452101 -7.376763 3.262541 -3.098030 7.614682 9.490365 8.500634 -8.639290 2.493950 -20.812383 0.000000 0.000000 0.000000 -29.713453 16.796373 -2.971244 -46.566558 -2.345286 -7.273117 -8.207989 -27.180236 4.865570 0.000000 0.000000 0.000000 15.946608 4.859156 -7.104393 50.017957 5.963286 -1.835473 18.475381 34.022375 2.984194 0.000000 0.000000 0.000000 
-1.141362 0.907875 1.637110 1.512514 -79.515077 -2.343474 -3.021585 5.045726 -31.605413 0.362115 1.717828 11.305145 0.192828 -1.352353 15.634192 0.000000 0.000000 0.000000 1.442384 3.494903 18.651118 -0.829086 2.102929 15.379351 5.277502 9.277066 1.314945 0.000000 0.000000 0.000000 0.625265 -0.120923 5.034894 -7.290568 3.453512 -2.383552 7.616384 9.825986 9.484985 -7.493339 1.834983 -19.868192 0.000000 0.000000 0.000000 -27.580705 16.747952 -3.226656 -48.776443 -1.579004 -7.209502 -7.061581 -27.732538 4.798289 0.000000 0.000000 0.000000 14.698540 4.612077 -6.631958 52.101130 7.164821 -2.026329 21.350317 37.085993 3.864849 0.000000 0.000000 0.000000 
-1.223935 0.902958 1.669142 0.320421 -78.138349 -2.087266 -5.673207 2.769198 -28.750138 0.383257 2.110151 12.745034 1.501507 -0.107593 17.125812 0.000000 0.000000 0.000000 -0.347105 3.226964 16.474638 3.678376 5.214895 28.629460 11.666359 8.452610 11.385975 0.000000 0.000000 0.000000 0.032775 -0.101392 4.721473 -7.336260 2.913280 -4.139610 8.982403 8.557929 11.168375 -8.496464 2.520683 -18.772323 0.000000 0.000000 0.000000 -28.064466 16.778721 -2.822640 -47.679936 -2.219944 -7.129925 -7.551776 -27.482213 4.856992 0.000000 0.000000 0.000000 15.533573 5.225971 -7.094089 50.944011 4.964567 -2.593650 23.427151 38.171647 4.440897 0.000000 0.000000 0.000000 
-1.302774 0.898853 1.699781 -1.407539 -75.525161 -0.976531 -8.213835 1.022743 -26.300689 2.473683 3.196079 19.296793 1.229261 0.868262 9.418635 0.000000 0.000000 0.000000 -2.879014 1.711055 7.894751 15.491325 9.653452 49.192021 4.667376 -3.797773 14.816977 0.000000 0.000000 0.000000 -0.905297 -0.051610 3.891814 -6.692136 3.233675 -1.892417 8.903470 4.805770 9.129400 -8.992576 2.880439 -17.867172 0.000000 0.000000 0.000000 -27.426327 16.491858 -2.460698 -47.574112 -2.356284 -6.827350 -8.934072 -29.648561 5.805596 0.000000 0.000000 0.000000 15.922031 4.975211 -7.638456 50.359066 1.497588 -3.770796 23.205381 38.598287 4.354224 0.000000 0.000000 0.000000 
-1.372887 0.897648 1.724830 -1.078380 -72.884248 -2.192749 -10.145897 -0.503781 -22.091041 3.979389 4.221123 23.985876 -0.693047 0.069433 0.234579 0.000000 0.000000 0.000000 -4.891657 1.023765 -3.778636 31.244849 8.533174 67.940696 -7.945135 -20.529448 17.168188 0.000000 0.000000 0.000000 -1.205193 0.013993 5.761543 -6.624933 3.160402 -1.839700 7.747146 3.302072 8.851584 -9.215271 3.080311 -17.891361 0.000000 0.000000 0.000000 -29.022129 14.256365 -0.288278 -45.163076 -8.124171 -5.631093 -6.266398 -33.056546 5.819786 0.000000 0.000000 0.000000 19.532042 5.839676 -9.089687 48.085777 -1.378051 -3.573064 19.459372 36.723032 3.419113 0.000000 0.000000 0.000000 
-1.436082 0.901482 1.745912 -0.746261 -68.620989 -4.154229 -10.940812 -1.509108 -15.683324 4.429654 4.552604 25.902149 -2.913161 -2.531994 -6.708659 0.000000 0.000000 0.000000 -6.252637 2.270189 -16.257627 39.655211 3.462002 75.257912 -16.181051 -32.281159 18.175557 0.000000 0.000000 0.000000 -1.328905 0.141744 8.009614 -5.655286 2.672104 -1.600104 6.811122 0.526954 8.264434 -9.784784 3.637473 -17.130368 0.000000 0.000000 0.000000 -28.695335 12.318338 1.253961 -44.783550 -13.263295 -4.068736 -2.486820 -35.617705 5.225003 0.000000 0.000000 0.000000 19.735815 6.320436 -9.023173 47.550021 -3.739408 -4.220842 16.867353 33.717817 2.525528 0.000000 0.000000 0.000000 
-1.497527 0.908957 1.764956 -3.234327 -62.923372 -3.592889 -9.985729 -1.541635 -9.757416 6.561270 3.282557 26.551097 -5.159079 -7.528974 -10.891979 0.000000 0.000000 0.000000 -8.237846 4.033467 -24.738634 34.190181 3.651868 69.350467 -17.111953 -35.773234 10.889184 0.000000 0.000000 0.000000 -0.918645 0.164675 9.530431 -4.292954 2.181535 -0.626369 6.104982 -2.410022 8.507292 -9.538559 3.393807 -18.375261 0.000000 0.000000 0.000000 -28.339528 11.532663 1.412986 -44.832253 -18.374164 -2.124203 -0.460313 -39.936582 5.435358 0.000000 0.000000 0.000000 21.804173 5.937057 -9.886356 45.942503 -5.916444 -4.480899 15.297766 30.592864 2.243899 0.000000 0.000000 0.000000 
-1.559112 0.916134 1.782800 -4.512279 -57.312274 -3.968436 -8.619255 -0.927807 -3.599856 7.011718 2.345354 26.111302 -6.602360 -12.396426 -13.012715 0.000000 0.000000 0.000000 -8.238365 4.660424 -27.976053 16.734580 7.934568 54.446639 -10.442269 -25.045894 5.896369 0.000000 0.000000 0.000000 -0.250132 0.114834 10.249281 -3.693784 2.047906 0.447958 6.174475 -6.417298 7.726787 -10.188963 3.801662 -18.293001 0.000000 0.000000 0.000000 -29.160559 12.054040 1.427758 -43.697809 -22.416642 -1.017925 0.664780 -43.269432 5.907294 0.000000 0.000000 0.000000 21.281433 6.340068 -9.628141 45.242110 -8.102303 -5.096702 13.808389 27.263330 1.716183 0.000000 0.000000 0.000000 
-1.622049 0.918683 1.801099 -4.590652 -50.752462 -3.415412 -7.424631 -0.376998 -0.365319 8.272404 1.271133 26.993021 -6.903532 -16.041019 -15.405053 0.000000 0.000000 0.000000 -10.815935 4.296690 -28.780004 3.055873 5.638062 33.413005 -1.414666 -11.160872 9.592215 0.000000 0.000000 0.000000 -1.464755 0.098449 8.866434 -2.070583 1.099540 -0.063807 6.182993 -8.020715 9.078938 -9.604080 3.025167 -21.035340 0.000000 0.000000 0.000000 -27.501057 11.137137 1.437338 -45.455780 -26.049686 0.970573 0.446907 -47.055308 7.007082 0.000000 0.000000 0.000000 20.079152 3.404856 -9.903233 46.081981 -9.626787 -6.426057 15.098684 24.405253 1.816359 0.000000 0.000000 0.000000 
-1.687604 0.915851 1.820734 -5.377559 -45.733483 -2.444913 -5.653714 0.514956 4.200609 10.734867 -0.473234 25.653853 -7.308272 -20.859698 -18.539671 0.000000 0.000000 0.000000 -11.997538 3.627826 -27.529793 -1.791272 1.847190 14.615426 7.927064 -0.398094 17.545362 0.000000 0.000000 0.000000 -1.403384 0.020668 7.802431 -0.222352 0.140708 -0.640712 4.746462 -8.383628 9.622860 -11.765903 4.763483 -19.767346 0.000000 0.000000 0.000000 -28.220515 11.964493 0.335363 -45.712179 -27.659751 1.618516 -3.557009 -51.095830 9.878718 0.000000 0.000000 0.000000 20.906246 2.612513 -10.050337 45.288838 -11.949740 -7.175680 13.312662 22.800649 1.578250 0.000000 0.000000 0.000000 
-1.757749 0.907074 1.841874 -5.601056 -38.102075 -1.537828 -1.648754 0.997829 6.863432 12.505450 -1.945699 25.283099 -6.881513 -24.629455 -20.206956 0.000000 0.000000 0.000000 -15.180967 2.806152 -26.932799 -2.680490 0.768228 6.848645 16.257366 9.470122 25.699530 0.000000 0.000000 0.000000 -1.142679 -0.077587 4.674755 -0.096620 0.267333 1.438042 4.682572 -9.816202 7.666252 -12.337742 5.924936 -16.972867 0.000000 0.000000 0.000000 -28.260635 10.503981 0.510528 -46.013773 -28.961226 2.494914 -8.030446 -54.561449 12.777769 0.000000 0.000000 0.000000 21.354957 -0.564575 -10.821447 45.935653 -13.713131 -8.201089 11.844897 20.786003 1.363028 0.000000 0.000000 0.000000 
-1.832096 0.897899 1.863467 -5.691205 -31.130572 -1.233648 4.033558 1.281577 9.549032 15.372032 -3.582399 25.286278 -7.854014 -31.114222 -19.603899 0.000000 0.000000 0.000000 -17.281225 1.917981 -24.507477 -2.351045 1.056732 9.766245 20.031183 18.161115 25.630295 0.000000 0.000000 0.000000 -1.552829 -0.060718 3.427520 0.666332 -0.254738 0.233747 4.640192 -9.648343 7.834419 -11.623418 6.040930 -15.534328 0.000000 0.000000 0.000000 -28.489408 9.800772 -0.174490 -44.988621 -28.127573 2.253766 -15.637735 -57.864383 17.367968 0.000000 0.000000 0.000000 23.400558 -1.859758 -11.381541 43.685392 -15.151202 -8.086822 10.660916 19.812468 1.316403 0.000000 0.000000 0.000000 
-1.905816 0.892682 1.882528 -6.914671 -24.427923 0.319415 8.395461 0.813184 6.818568 18.392659 -5.356920 29.216863 -7.863634 -29.985433 -16.364834 0.000000 0.000000 0.000000 -15.980244 1.387427 -22.129411 -1.225168 1.205379 13.131081 17.110998 19.716421 19.636136 0.000000 0.000000 0.000000 -0.763235 -0.077615 2.616991 -0.759275 0.404829 0.440852 5.060625 -9.586021 6.855345 -11.105330 5.850175 -16.289239 0.000000 0.000000 0.000000 -27.891575 9.905753 -1.565926 -46.134797 -27.567316 2.813663 -20.308809 -57.069464 19.032011 0.000000 0.000000 0.000000 25.826986 -3.904649 -12.460563 44.385534 -14.408040 -7.880694 7.110636 17.115564 0.819070 0.000000 0.000000 0.000000 
-1.971148 0.894777 1.897781 -9.142212 -18.867823 1.547682 13.316793 0.603825 2.208754 20.720584 -7.745513 37.168384 -9.193195 -23.005548 -4.292656 0.000000 0.000000 0.000000 -12.580184 1.236605 -20.499878 -0.924935 1.458712 16.797209 13.284229 19.523878 12.865403 0.000000 0.000000 0.000000 2.071077 -0.171643 2.600592 -1.608497 0.744349 -0.660800 4.822916 -8.285186 7.969963 -11.227073 6.064992 -18.215931 0.000000 0.000000 0.000000 -27.730932 9.549807 -2.605685 -47.488442 -25.700464 2.537486 -19.670193 -56.353442 17.568894 0.000000 0.000000 0.000000 25.554048 -4.315623 -11.241062 46.642722 -11.742657 -7.722206 6.299015 14.380777 0.710215 0.000000 0.000000 0.000000 
-2.022698 0.900736 1.909676 -9.366464 -12.629965 1.323566 13.271325 0.456162 -4.706279 20.869992 -10.331819 45.864005 -6.441251 -12.178221 2.645884 0.000000 0.000000 0.000000 -11.232375 0.927187 -17.912349 0.511374 0.950296 16.825080 11.907457 19.156972 10.740679 0.000000 0.000000 0.000000 2.454665 -0.286848 4.357336 -2.199687 1.019000 -1.124711 6.016187 -6.898812 7.867596 -11.810314 6.520745 -21.076613 0.000000 0.000000 0.000000 -31.542764 8.437053 -3.314471 -44.350199 -24.785565 1.738315 -17.222835 -51.244803 13.230930 0.000000 0.000000 0.000000 24.116622 -4.163711 -9.273270 47.803649 -8.564458 -7.050975 6.905657 13.759274 0.822044 0.000000 0.000000 0.000000 
-2.059941 0.909413 1.921856 -8.268426 -5.481991 0.585461 10.939414 0.124209 -12.490721 15.669398 -10.689050 53.186320 -1.979273 -5.672164 -2.545404 0.000000 0.000000 0.000000 -11.160349 0.517726 -13.970380 1.315844 0.510857 16.641882 8.488619 15.567796 6.797823 0.000000 0.000000 0.000000 2.293088 -0.360893 5.630596 -2.257175 1.069177 -1.214589 5.318076 -5.160764 8.401620 -11.019506 6.611513 -21.599038 0.000000 0.000000 0.000000 -31.971801 6.576595 -4.150255 -45.245895 -22.153611 1.356856 -14.850000 -44.711160 9.385589 0.000000 0.000000 0.000000 24.650216 -3.780218 -7.440363 48.917183 -4.864363 -6.181026 5.266916 14.033213 0.811502 0.000000 0.000000 0.000000 
-2.086844 0.920495 1.934645 -7.055687 1.296675 0.055410 8.288530 -0.499031 -17.943225 6.097562 -6.819964 55.040437 2.960686 3.211669 -7.662025 0.000000 0.000000 0.000000 -10.966885 0.246012 -9.587091 1.962089 0.064163 14.288834 6.174613 10.952969 6.423778 0.000000 0.000000 0.000000 2.028502 -0.473009 7.452785 -2.444561 1.180021 -1.318354 5.028432 -2.192508 7.654945 -10.323604 6.912033 -21.088733 0.000000 0.000000 0.000000 -32.139792 3.791466 -4.918368 -44.306359 -16.852850 0.181935 -16.763965 -38.661732 7.782247 0.000000 0.000000 0.000000 24.504298 -3.676336 -5.207765 48.963681 -2.272438 -5.703294 3.318955 15.468458 0.847080 0.000000 0.000000 0.000000 
-2.105777 0.929049 1.948117 -5.667674 8.069072 0.537099 5.564339 -1.420423 -22.422798 -3.303763 -2.229797 51.371776 6.358244 10.938706 -8.420375 0.000000 0.000000 0.000000 -11.048251 0.037266 -6.345307 2.162908 -0.184995 12.199613 3.731431 6.320571 5.770440 0.000000 0.000000 0.000000 1.473995 -0.455934 7.332857 -2.602508 1.250909 -0.751846 4.541299 0.480579 6.843520 -9.797044 7.217493 -20.335912 0.000000 0.000000 0.000000 -32.066079 3.402231 -7.208849 -44.221175 -10.599442 -1.227688 -19.717623 -33.125495 6.911541 0.000000 0.000000 0.000000 24.572083 -3.267966 -2.968533 48.264837 0.811688 -4.949029 2.052844 15.646580 0.853472 0.000000 0.000000 0.000000 
-2.117801 0.931719 1.962094 -4.608535 13.889415 0.831317 4.167543 -2.074584 -24.092958 -8.977888 0.142490 42.775304 7.988289 15.038148 -5.877091 0.000000 0.000000 0.000000 -10.699502 -0.128034 -3.242838 1.990670 -0.265067 10.051553 2.094655 3.157425 5.533408 0.000000 0.000000 0.000000 0.985750 -0.505108 8.235021 -1.946496 0.880013 0.423729 2.585541 4.071617 4.754865 -7.575322 6.565355 -19.208645 0.000000 0.000000 0.000000 -30.183366 3.245278 -9.387516 -44.350948 -5.421138 -2.170530 -18.908510 -28.484301 5.141724 0.000000 0.000000 0.000000 25.953976 -4.439129 -1.597412 46.869431 4.375580 -4.049922 2.447798 16.041616 1.055696 0.000000 0.000000 0.000000 
-2.123630 0.930997 1.976702 -4.211345 19.855567 0.941631 4.444818 -2.476608 -25.408573 -11.436892 0.636857 34.427061 9.983186 19.221546 -4.424516 0.000000 0.000000 0.000000 -9.639463 -0.301046 0.004256 2.284287 -0.419451 8.247602 0.210665 -0.638664 5.165979 0.000000 0.000000 0.000000 0.629296 -0.478190 7.873913 -1.434565 0.604238 0.451014 2.106749 6.319759 4.857394 -7.445040 6.887025 -16.934800 0.000000 0.000000 0.000000 -29.953130 3.510935 -11.509732 -43.649613 -0.477090 -3.341348 -16.466175 -24.821584 3.661759 0.000000 0.000000 0.000000 25.288918 -4.050997 0.446547 45.402919 7.093674 -3.546093 2.248797 16.103982 1.107231 0.000000 0.000000 0.000000 
-2.122631 0.926891 1.991006 -4.221058 25.734219 0.869286 6.102798 -2.621526 -26.089738 -11.603995 0.422431 26.439904 11.749258 22.404230 -3.108567 0.000000 0.000000 0.000000 -9.010886 -0.552629 2.692911 3.019633 -0.678409 7.241338 -1.284667 -3.760134 4.325378 0.000000 0.000000 0.000000 0.966942 -0.554064 8.131455 -1.061970 0.350124 0.810248 0.126983 8.448709 3.938996 -5.978699 6.314371 -14.976139 0.000000 0.000000 0.000000 -27.566380 3.853121 -12.753777 -43.316569 2.948200 -4.136814 -12.923647 -22.697884 2.371440 0.000000 0.000000 0.000000 25.776336 -4.092964 2.284612 43.540186 10.163416 -3.015285 2.725909 18.582362 1.486340 0.000000 0.000000 0.000000 
-2.113338 0.922318 2.004478 -4.461878 29.155505 0.436187 9.177634 -2.530979 -26.969196 -11.303068 0.283972 22.501578 13.207785 25.090839 -1.207373 0.000000 0.000000 0.000000 -8.014853 -0.795969 5.347718 2.485495 -0.618468 7.136909 -2.157872 -5.778817 4.618675 0.000000 0.000000 0.000000 1.003704 -0.625412 8.698122 -1.602904 0.747395 -0.787645 -0.074261 10.847973 5.269375 -5.147427 6.257455 -15.361668 0.000000 0.000000 0.000000 -26.596869 5.002402 -14.421257 -42.332531 5.675231 -4.870236 -11.072706 -21.955714 1.774979 0.000000 0.000000 0.000000 27.605390 -5.113328 3.537208 40.099032 14.902138 -2.412298 1.010698 21.820103 1.664748 0.000000 0.000000 0.000000 
-2.094524 0.917442 2.016928 -4.527339 34.381638 -0.521271 10.246887 -2.717381 -26.970346 -9.647826 -0.184714 19.612373 14.848974 27.595817 2.194209 0.000000 0.000000 0.000000 -8.032413 -1.296690 8.673386 2.425960 -0.708995 7.134610 -2.497212 -6.452165 5.433772 0.000000 0.000000 0.000000 0.087209 -0.629323 9.241976 -0.588498 0.365750 -1.437967 -0.731648 12.446994 6.789720 -2.121558 5.093196 -15.601680 0.000000 0.000000 0.000000 -25.340247 4.894739 -15.248647 -43.126803 7.506349 -5.633132 -7.741596 -21.938833 0.928770 0.000000 0.000000 0.000000 26.766695 -3.528654 6.039605 39.223150 17.308495 -2.011294 -1.651005 26.937024 1.738460 0.000000 0.000000 0.000000 
-2.061620 0.913019 2.027245 -4.607451 37.265256 -1.010175 11.357253 -2.741408 -26.595482 -8.888769 -0.443262 19.184220 17.033466 30.698091 7.112973 0.000000 0.000000 0.000000 -8.692643 -1.676017 10.709844 1.366431 -0.555446 8.191597 -3.108017 -7.591902 7.330546 0.000000 0.000000 0.000000 -0.569563 -0.604770 9.406651 -1.034383 0.661339 -2.300154 0.608352 14.741422 7.411323 -0.305261 4.437792 -15.610498 0.000000 0.000000 0.000000 -25.186998 5.620329 -16.674491 -42.061808 9.911195 -6.260432 -7.509570 -19.962428 0.735389 0.000000 0.000000 0.000000 26.168340 -4.557535 6.350744 38.250719 21.555906 -1.028947 -3.334212 29.975265 1.856958 0.000000 0.000000 0.000000 
-2.010964 0.910941 2.034474 -4.179260 43.947353 -0.560901 9.209278 -3.316512 -26.562648 -10.717331 -0.560972 18.575571 15.807971 29.019080 8.879129 0.000000 0.000000 0.000000 -9.102994 -2.396370 13.583314 0.105004 -0.517602 10.125023 -3.340914 -7.028995 11.632708 0.000000 0.000000 0.000000 -0.612756 -0.520693 8.251621 -0.150388 0.319881 -2.694667 0.877860 14.283199 8.540032 0.864242 4.071826 -15.444995 0.000000 0.000000 0.000000 -26.883721 4.551959 -18.528262 -41.355923 12.229348 -6.433103 -5.400970 -19.527108 0.299432 0.000000 0.000000 0.000000 24.071867 -5.390332 5.987576 39.077659 20.348151 -1.060178 -4.089049 34.471867 2.380160 0.000000 0.000000 0.000000 
-1.946500 0.913691 2.038672 -2.347741 51.558196 0.891381 2.473571 -3.460430 -23.330558 -9.358172 -1.044007 16.953102 12.110192 22.514375 5.583909 0.000000 0.000000 0.000000 -11.035629 -2.945503 13.750932 -1.173984 -1.551816 17.993698 -2.988089 -4.501349 21.196931 0.000000 0.000000 0.000000 -2.026564 -0.306355 6.478623 2.566937 -0.767165 -3.210757 -0.022718 14.136767 8.072651 1.394104 3.284991 -12.378122 0.000000 0.000000 0.000000 -24.735657 5.200216 -18.961900 -43.812626 14.132686 -7.959769 -8.789425 -18.605011 0.601893 0.000000 0.000000 0.000000 23.636321 -6.948088 6.088261 40.453889 17.903076 -1.892305 -3.265898 36.330487 3.228372 0.000000 0.000000 0.000000 
-1.879913 0.919691 2.040512 -0.985622 59.238564 1.290344 -3.518823 -2.412849 -16.954565 -6.924236 -1.311383 14.536306 9.971931 16.687640 3.074137 0.000000 0.000000 0.000000 -10.881808 -2.790990 9.068167 -8.039633 -4.105214 33.662182 1.472167 2.102124 29.257209 0.000000 0.000000 0.000000 -1.873945 -0.392943 7.180309 3.267369 -0.617163 -5.408955 -0.379629 12.285410 8.862127 1.025427 3.824002 -12.762154 0.000000 0.000000 0.000000 -24.505963 3.423422 -19.513417 -44.983074 14.226323 -8.011419 -13.268275 -19.143087 1.082878 0.000000 0.000000 0.000000 23.077932 -9.629257 4.873323 43.668303 14.792387 -2.565158 -1.221426 34.560666 3.776771 0.000000 0.000000 0.000000 
-1.820884 0.926806 2.043941 -1.427892 67.434910 -0.285747 -6.996408 -0.903636 -9.465883 -4.285215 -1.137596 10.704612 5.512883 8.129539 1.798312 0.000000 0.000000 0.000000 -8.495783 -2.101003 0.470073 -19.536836 -7.898647 51.409991 9.564735 11.460605 28.000058 0.000000 0.000000 0.000000 -0.763499 -0.676063 8.883769 4.565622 -1.226292 -5.056902 -1.971420 9.469568 7.715635 1.426550 3.594403 -12.543747 0.000000 0.000000 0.000000 -24.163406 0.512830 -18.628634 -46.847309 11.432819 -7.107569 -17.126235 -21.106543 1.670084 0.000000 0.000000 0.000000 20.709432 -11.449630 2.774458 50.022653 10.709172 -2.259001 -0.207165 30.867968 3.484084 0.000000 0.000000 0.000000 
-1.767431 0.932706 2.051386 -4.902293 75.688655 -5.067537 -7.345868 0.150142 -0.949011 -3.021869 -0.778951 5.653489 1.230500 1.189763 1.812353 0.000000 0.000000 0.000000 -4.118961 -1.612807 -9.681388 -33.053062 -9.382144 66.429740 15.939216 19.374842 24.714560 0.000000 0.000000 0.000000 0.085157 -0.967208 10.118406 5.764054 -1.605978 -5.608727 -2.977182 4.544699 7.963872 1.672291 3.887159 -13.590843 0.000000 0.000000 0.000000 -22.582140 -2.093249 -16.679380 -49.722168 7.052761 -6.114366 -20.557010 -24.307027 2.287984 0.000000 0.000000 0.000000 21.958047 -12.978138 2.289825 52.039238 9.666260 -2.763825 1.988187 23.792067 2.574745 0.000000 0.000000 0.000000 
-1.714961 0.935999 2.061660 -20.129567 81.228930 -20.584010 -5.796297 -0.071409 4.595377 -1.338769 -0.611683 3.634161 -1.247383 -4.197456 0.562002 0.000000 0.000000 0.000000 0.635548 -2.194935 -19.656447 -35.893269 -9.680187 67.678079 15.485157 21.750728 17.853068 0.000000 0.000000 0.000000 0.827227 -1.189647 10.759752 6.936417 -1.817817 -6.649462 -3.818638 0.197014 8.245524 2.201282 3.409448 -12.668623 0.000000 0.000000 0.000000 -21.230390 -3.699169 -15.106024 -52.286388 0.928940 -4.203052 -22.173402 -26.340658 2.594308 0.000000 0.000000 0.000000 21.000306 -12.874588 1.792674 54.418395 4.733253 -3.974561 4.793691 20.329584 2.278428 0.000000 0.000000 0.000000 
-1.661645 0.935505 2.072201 -47.252139 83.795698 -48.719709 -3.630378 -1.353052 10.585126 -0.804895 -0.485373 1.193672 -2.249970 -7.531025 -0.962046 0.000000 0.000000 0.000000 4.135693 -3.774216 -27.336975 -26.379333 -11.848880 59.217551 10.676034 17.572017 9.203930 0.000000 0.000000 0.000000 2.297127 -1.909842 12.937483 6.448569 -1.336097 -7.458623 -4.175390 -3.246578 8.024563 3.302909 2.643644 -12.017959 0.000000 0.000000 0.000000 -19.263944 -5.469853 -12.490394 -51.782690 -4.068631 -2.564973 -26.658695 -30.495433 4.040499 0.000000 0.000000 0.000000 20.884398 -14.005820 0.561270 56.178664 1.354654 -4.981851 6.699045 17.456768 2.067750 0.000000 0.000000 0.000000 
-1.606671 0.929189 2.081216 -65.864669 84.022874 -67.604580 -2.892010 -3.052198 15.958171 0.068860 -0.361527 -0.549373 -2.836754 -8.177175 -1.115768 0.000000 0.000000 0.000000 6.781991 -4.594365 -31.357350 -12.009745 -9.864715 40.767818 6.115428 10.135067 3.977563 0.000000 0.000000 0.000000 3.093574 -2.225250 13.537735 5.656614 -0.983674 -7.533570 -3.588690 -6.252891 8.741013 2.653233 3.405014 -13.037432 0.000000 0.000000 0.000000 -19.579634 -6.631888 -11.844317 -50.905747 -8.494730 -0.408454 -27.100625 -34.546625 4.768089 0.000000 0.000000 0.000000 19.452456 -14.447499 -0.522660 58.266560 -2.629522 -6.213133 6.602505 17.798614 2.190712 0.000000 0.000000 0.000000 
-1.547941 0.920332 2.087652 -70.974413 83.409767 -72.686092 -4.077554 -3.995164 19.400577 1.373719 -0.258849 0.487919 -1.988563 -6.098368 -0.749382 0.000000 0.000000 0.000000 8.820606 -4.202710 -32.163086 -0.637819 -5.600179 21.371946 0.786558 3.096868 12.263177 0.000000 0.000000 0.000000 4.436881 -2.455196 13.517332 5.286236 -0.897294 -7.291041 -3.616938 -8.362499 7.904195 2.063148 3.409650 -12.217289 0.000000 0.000000 0.000000 -19.069501 -7.329223 -10.464657 -50.928392 -11.273569 0.526567 -27.580167 -37.275589 5.416270 0.000000 0.000000 0.000000 19.178003 -14.499777 -1.192898 59.140473 -3.494212 -6.374774 3.867730 16.242303 1.546284 0.000000 0.000000 0.000000 
-1.481682 0.910417 2.090310 -73.987624 83.384712 -75.283040 -4.128605 -5.127200 22.343475 -1.115269 -0.364566 1.993358 -2.346931 -2.188557 3.084110 0.000000 0.000000 0.000000 9.952018 -3.632449 -31.758415 3.125110 -4.970547 15.298729 -3.769554 -1.554662 18.831756 0.000000 0.000000 0.000000 5.671175 -2.330408 12.254241 4.801910 -0.837390 -6.903100 -3.706660 -9.471584 7.494119 1.705743 3.489395 -11.721596 0.000000 0.000000 0.000000 -19.930152 -8.378708 -10.291363 -51.975789 -12.382207 1.163196 -26.320272 -38.536779 5.242541 0.000000 0.000000 0.000000 19.311030 -15.898640 -2.399981 58.018476 -4.068401 -6.525035 2.765079 16.562995 1.530961 0.000000 0.000000 0.000000 
-1.408031 0.904114 2.091118 -76.268665 83.676554 -77.590053 -2.890423 -5.568448 22.359737 -3.565527 -0.971206 9.508438 -6.157240 -4.015349 5.961170 0.000000 0.000000 0.000000 11.102889 -3.290214 -31.578049 0.740300 -6.574312 21.608778 -3.359341 -1.898001 15.051903 0.000000 0.000000 0.000000 6.704442 -2.073522 10.708924 5.244666 -1.187667 -6.378360 -4.550290 -9.937992 5.977445 -1.048257 4.295769 -9.364739 0.000000 0.000000 0.000000 -21.781316 -7.427753 -11.645267 -51.381545 -8.820507 0.253660 -27.444187 -37.760291 5.623213 0.000000 0.000000 0.000000 19.295163 -16.410376 -2.919423 55.849869 -5.357866 -6.913856 2.885556 14.959670 1.314148 0.000000 0.000000 0.000000 
-1.335577 0.902936 2.092242 -81.279408 83.143377 -84.238891 2.196814 -5.117756 16.966187 -12.113830 -4.274748 27.129695 -7.712197 -1.210034 11.427725 0.000000 0.000000 0.000000 12.799661 -1.900049 -28.601351 -3.520165 -8.008484 27.752258 -3.323766 -3.686999 9.602087 0.000000 0.000000 0.000000 7.870495 -2.190569 10.444211 5.841056 -1.770272 -5.332460 -5.724517 -8.363354 5.369800 -0.722253 3.719912 -8.184295 0.000000 0.000000 0.000000 -22.015089 -5.417088 -13.003744 -50.616231 -6.035624 -0.878085 -33.128664 -36.751975 7.048795 0.000000 0.000000 0.000000 21.716574 -16.466351 -1.960631 53.191015 -3.760044 -7.028925 3.614221 13.434916 1.164549 0.000000 0.000000 0.000000 
-1.273733 0.905628 2.093459 -78.070217 82.673928 -82.864026 9.156775 -3.866807 5.851423 -30.479667 -7.370379 47.506881 5.274769 13.940818 14.732673 0.000000 0.000000 0.000000 12.898599 -0.538952 -24.117428 -4.970202 -9.888778 31.272881 -1.412385 -2.187339 5.432472 0.000000 0.000000 0.000000 8.021821 -2.920953 12.832894 5.148233 -1.418802 -5.369569 -4.783311 -6.354841 4.417593 0.671876 3.119380 -8.766245 0.000000 0.000000 0.000000 -21.551739 -5.355099 -13.129291 -51.603818 -4.413024 -1.662915 -29.332177 -32.960437 5.125971 0.000000 0.000000 0.000000 21.594116 -16.182157 -1.512019 52.866537 -1.279780 -6.292002 5.955800 13.710207 1.446615 0.000000 0.000000 0.000000 
-1.221110 0.910095 2.093569 -61.341979 82.454235 -67.951259 12.982074 -3.127919 -5.913905 -42.091287 -6.382457 56.537817 18.500124 27.909717 15.090077 0.000000 0.000000 0.000000 12.467820 0.756202 -18.104592 -6.296624 -9.537789 31.285037 0.632314 0.153496 2.678906 0.000000 0.000000 0.000000 6.250075 -3.194504 14.998804 5.158457 -1.688539 -4.397706 -4.224009 -3.009993 4.063429 1.665650 2.289197 -8.373638 0.000000 0.000000 0.000000 -22.114589 -5.051876 -14.038930 -49.203660 -1.942741 -1.974281 -25.314040 -30.452915 3.842198 0.000000 0.000000 0.000000 23.156921 -15.150877 0.244961 52.263501 2.000015 -5.938621 6.302144 15.352232 1.757785 0.000000 0.000000 0.000000 
-1.171060 0.913448 2.090511 -37.810743 80.457350 -44.908966 17.258461 -4.146107 -15.285495 -39.419201 -5.834074 53.221422 24.158629 34.735702 12.125361 0.000000 0.000000 0.000000 10.339896 1.167177 -13.464365 -5.560152 -9.217454 30.763526 1.969996 1.683827 0.325926 0.000000 0.000000 0.000000 4.541094 -3.130768 16.035804 3.874392 -0.739439 -5.508836 -2.796300 -0.773629 5.163183 2.120627 2.503536 -9.648893 0.000000 0.000000 0.000000 -22.100348 -3.569163 -14.760642 -49.086452 0.404406 -3.079576 -19.396085 -28.414588 2.411143 0.000000 0.000000 0.000000 24.482505 -13.388588 2.369567 51.931910 5.992741 -5.316543 4.995783 17.989833 2.005788 0.000000 0.000000 0.000000 
-1.120402 0.914902 2.083547 -18.971847 76.529492 -25.979804 21.295398 -5.125169 -19.599364 -26.469788 -5.093301 38.927988 20.677493 29.787414 7.843676 0.000000 0.000000 0.000000 7.551128 1.058497 -9.508141 -4.837544 -8.314431 29.953974 4.587459 5.834953 -4.228764 0.000000 0.000000 0.000000 2.752695 -2.458067 15.154379 3.805360 -0.578459 -5.906990 -2.792578 1.303646 7.250765 2.084995 2.938169 -10.999838 0.000000 0.000000 0.000000 -21.871391 -0.967365 -15.671947 -47.141989 2.566322 -3.874943 -15.133133 -26.531530 1.516968 0.000000 0.000000 0.000000 23.370525 -11.625963 3.350723 53.503916 9.129119 -3.829624 3.415671 22.905017 2.691930 0.000000 0.000000 0.000000 
-1.068135 0.913344 2.073058 -9.507707 70.170622 -16.047324 24.611265 -5.287985 -19.657655 -12.420034 -2.328734 21.722430 8.982169 17.690059 10.265891 0.000000 0.000000 0.000000 4.464876 0.663236 -6.467809 -5.290231 -7.219383 30.969574 6.512023 10.831695 -7.851235 0.000000 0.000000 0.000000 2.171099 -1.926824 13.853200 2.118160 -0.058789 -5.275684 -1.171554 3.974216 7.809086 0.418767 4.186503 -12.249877 0.000000 0.000000 0.000000 -22.193056 0.799431 -15.975157 -46.247196 4.688628 -4.839104 -11.642659 -24.362297 0.963635 0.000000 0.000000 0.000000 22.743176 -10.346038 3.510245 53.604704 11.219053 -2.646984 3.096788 25.762222 3.127146 0.000000 0.000000 0.000000 
-1.012992 0.912881 2.058842 -4.522511 62.652533 -10.386675 26.738301 -5.038639 -17.288441 -2.961932 -0.578257 8.329567 -4.059989 7.933357 18.411566 0.000000 0.000000 0.000000 0.747496 0.055725 -3.858871 -5.864809 -4.758644 29.483146 8.245672 16.762764 -9.100695 0.000000 0.000000 0.000000 1.452924 -1.297508 11.712356 1.613961 0.138649 -5.306648 -0.406758 5.872782 9.615422 0.979952 3.939429 -12.785414 0.000000 0.000000 0.000000 -22.074079 3.485765 -16.459542 -46.573715 6.507504 -5.977473 -9.262416 -23.126409 0.573982 0.000000 0.000000 0.000000 22.537018 -8.962568 3.966421 53.505294 14.229162 -1.382113 0.873164 28.530742 3.178779 0.000000 0.000000 0.000000 
-0.954189 0.913239 2.040054 -1.843379 55.433758 -7.113223 27.180037 -4.446675 -15.250451 2.898123 -0.308953 2.617510 -13.582070 -0.318052 25.249269 0.000000 0.000000 0.000000 -2.980497 -0.477266 -2.990495 -8.541978 -2.200702 29.300399 9.417891 21.673290 -8.817059 0.000000 0.000000 0.000000 0.400865 -0.916984 10.323611 1.426405 -0.116217 -3.614536 0.883394 9.222291 8.672029 0.106353 4.743643 -14.980672 0.000000 0.000000 0.000000 -22.417369 5.483862 -16.901456 -47.548192 6.891281 -6.477639 -6.701281 -21.706438 0.160621 0.000000 0.000000 0.000000 21.967147 -7.106782 4.491695 53.130075 14.594794 -0.916278 0.252683 28.845217 2.882649 0.000000 0.000000 0.000000 
-0.891429 0.914714 2.014899 -1.001151 49.901537 -6.198411 25.321181 -3.593557 -12.967074 5.726277 -0.683088 3.932745 -21.169219 -11.620139 26.533230 0.000000 0.000000 0.000000 -6.806865 -1.051910 -2.343506 -11.353751 0.035533 28.268664 13.678615 30.739621 -4.811715 0.000000 0.000000 0.000000 0.247386 -0.715821 9.154531 0.242181 0.569835 -4.884575 2.862400 8.502422 11.074987 0.177808 4.487960 -14.386147 0.000000 0.000000 0.000000 -22.858073 6.658824 -16.707400 -47.302387 7.268770 -6.829228 -7.165721 -20.986415 0.424833 0.000000 0.000000 0.000000 23.547794 -5.972336 5.044334 51.366003 16.221403 -1.142210 -1.071773 29.206954 2.564194 0.000000 0.000000 0.000000 
-0.827054 0.916027 1.984716 -1.590817 45.978506 -6.063324 23.300266 -2.935741 -12.016312 5.244578 -1.232016 8.355426 -21.007743 -17.728486 21.193571 0.000000 0.000000 0.000000 -10.608153 -1.683811 -3.768999 -13.975240 1.440463 28.734584 16.555438 32.544927 2.117353 0.000000 0.000000 0.000000 0.910813 -0.563184 7.772782 0.677422 0.087561 -2.962014 2.784322 9.557179 9.724707 0.853827 3.695329 -13.578697 0.000000 0.000000 0.000000 -24.078787 4.191322 -15.781247 -46.458025 5.408724 -5.436199 -6.527409 -18.772511 0.421716 0.000000 0.000000 0.000000 24.164678 -6.720551 4.040246 49.429614 15.219930 -1.588322 0.580379 27.107549 2.503456 0.000000 0.000000 0.000000 
-0.767472 0.915382 1.951832 -0.302845 43.317695 -4.204855 18.715219 -2.123775 -11.418529 3.650666 -1.717834 12.830745 -13.348074 -18.778457 8.415506 0.000000 0.000000 0.000000 -14.480808 -2.544057 -6.006903 -15.450192 2.247810 30.022904 17.555385 30.590253 8.148809 0.000000 0.000000 0.000000 -0.157167 -0.572469 8.518396 -0.396072 0.697910 -4.180827 5.178790 7.549870 10.566547 1.029987 3.783830 -15.724920 0.000000 0.000000 0.000000 -25.690817 2.885882 -14.864979 -45.376103 2.321077 -4.031472 -9.580087 -19.842632 1.129961 0.000000 0.000000 0.000000 22.691765 -6.069331 3.063450 49.756165 13.551909 -1.863002 0.924541 24.586553 2.107436 0.000000 0.000000 0.000000 
-0.716611 0.917423 1.920516 0.223341 42.557101 -2.984974 14.931106 -1.694262 -11.946074 1.862556 -1.804186 15.011398 -9.963866 -16.631430 4.524924 0.000000 0.000000 0.000000 -14.425111 -2.649376 -8.449363 -16.003273 2.170807 33.356388 15.294014 28.020275 6.159761 0.000000 0.000000 0.000000 -0.341965 -0.499779 7.995492 0.452940 0.068973 -2.367396 4.104078 5.197609 9.011192 0.982280 3.346329 -15.166103 0.000000 0.000000 0.000000 -26.255034 -0.716753 -12.176356 -43.608415 -2.391423 -1.950321 -8.477803 -22.471394 1.213216 0.000000 0.000000 0.000000 23.569625 -5.295127 2.869235 48.408525 11.863871 -2.533697 0.136918 22.609619 1.605778 0.000000 0.000000 0.000000 
-0.673054 0.923522 1.893096 1.013342 41.874597 -2.688176 10.708141 -1.292819 -10.884391 2.030187 -1.870111 15.135643 -10.037876 -16.279529 4.784358 0.000000 0.000000 0.000000 -13.845702 -2.474488 -8.833411 -15.984432 1.989938 35.567840 11.629646 21.740360 6.350886 0.000000 0.000000 0.000000 -0.878540 -0.539091 8.767850 -0.127524 0.102938 -0.974474 4.521619 3.243290 8.211458 0.158787 3.908244 -17.587215 0.000000 0.000000 0.000000 -26.411124 -2.541269 -10.247570 -42.972080 -9.511507 0.484747 -6.864881 -25.565932 1.110116 0.000000 0.000000 0.000000 23.226718 -3.928717 2.967537 48.537442 9.750710 -3.279520 -0.599274 18.709780 1.060854 0.000000 0.000000 0.000000 
-0.634037 0.930324 1.869193 0.838413 41.540271 -2.732916 7.600461 -1.023297 -9.511449 2.541532 -1.779451 14.101307 -10.517350 -16.852781 5.034739 0.000000 0.000000 0.000000 -12.328370 -2.037689 -8.695630 -13.760733 1.147256 35.322616 5.089012 9.776134 5.959501 0.000000 0.000000 0.000000 -0.833529 -0.668412 10.000052 0.934725 -0.132546 -2.389940 3.592351 1.698800 9.236079 1.391246 3.115341 -17.777446 0.000000 0.000000 0.000000 -26.135253 -5.017807 -8.330077 -42.202522 -13.954084 1.860746 -7.887692 -30.112831 1.573752 0.000000 0.000000 0.000000 22.272949 -4.354148 2.214078 48.982440 6.355349 -4.438010 -0.222137 16.021636 0.872071 0.000000 0.000000 0.000000 
-0.599982 0.936128 1.848702 0.698024 40.237457 -2.865008 4.787523 -0.746766 -7.625939 3.313739 -1.507449 11.778786 -9.983130 -15.545487 4.966929 0.000000 0.000000 0.000000 -9.424975 -1.240764 -8.436222 -10.647449 -0.018808 35.381049 3.163417 7.041097 -0.052881 0.000000 0.000000 0.000000 -0.799454 -0.757728 10.873865 1.299128 -0.322733 -2.200715 2.805310 0.605339 8.302452 0.793047 3.253944 -18.051392 0.000000 0.000000 0.000000 -24.299495 -5.325517 -6.742889 -41.664562 -18.498648 3.012184 -9.805467 -34.856363 2.391430 0.000000 0.000000 0.000000 21.124469 -4.864906 1.125896 50.364578 2.901909 -5.398447 -0.861815 14.474364 0.694613 0.000000 0.000000 0.000000 
-0.572552 0.940608 1.831699 0.633023 37.824411 -2.567889 3.223744 -0.600608 -6.573570 3.287681 -1.292497 10.506286 -9.158780 -14.760686 4.192660 0.000000 0.000000 0.000000 -6.549607 -0.515618 -8.514408 -6.461143 -1.495107 35.089123 1.079032 2.703006 -4.623707 0.000000 0.000000 0.000000 -0.752223 -0.728247 10.794953 1.196798 -0.413603 -1.358102 2.237082 -0.791531 7.736405 0.776771 2.859378 -17.567574 0.000000 0.000000 0.000000 -23.125233 -5.582955 -5.246098 -41.574247 -20.899584 3.502278 -8.975455 -39.346793 2.532510 0.000000 0.000000 0.000000 21.519466 -4.558691 0.621130 50.367559 1.395951 -5.870735 -1.966282 14.048961 0.554040 0.000000 0.000000 0.000000 
-0.551442 0.943331 1.817694 0.698910 35.081593 -2.049510 2.121067 -0.455140 -5.157015 2.431513 -0.912589 8.680331 -9.007515 -14.452574 4.198666 0.000000 0.000000 0.000000 -3.513127 0.112615 -8.508301 -3.307652 -2.250245 33.481234 0.091720 0.290357 -5.726637 0.000000 0.000000 0.000000 -1.210751 -0.679066 10.902025 1.044757 -0.248189 -2.006538 1.781357 -1.491629 7.812511 0.892279 2.657058 -18.374428 0.000000 0.000000 0.000000 -22.427665 -4.571985 -4.885780 -42.113558 -22.152601 3.695864 -7.028319 -41.191045 2.108874 0.000000 0.000000 0.000000 21.015121 -5.166671 -0.329494 51.156771 0.631985 -6.037309 -1.474762 13.483399 0.560385 0.000000 0.000000 0.000000 
-0.535289 0.944738 1.805356 0.501490 32.185320 -1.213926 1.693159 -0.392939 -4.518735 1.833245 -0.621891 6.776210 -8.167824 -12.519256 4.383338 0.000000 0.000000 0.000000 -1.068370 0.563375 -9.353300 -1.134145 -2.472873 31.609944 -0.389720 -0.719535 -7.176917 0.000000 0.000000 0.000000 -1.477591 -0.613746 10.764571 0.885995 -0.003869 -3.446654 1.637119 -2.141582 8.169317 0.721121 2.596423 -18.972465 0.000000 0.000000 0.000000 -21.786950 -3.994964 -4.382231 -42.860561 -21.977949 3.454569 -5.653322 -43.533898 1.872114 0.000000 0.000000 0.000000 20.463852 -5.643714 -1.145154 52.177853 0.439613 -6.023723 -0.854136 14.419877 0.662884 0.000000 0.000000 0.000000 
-0.522491 0.944441 1.794470 0.419902 28.868283 0.127373 0.990822 -0.416563 -5.035104 1.539391 -0.489229 5.721923 -6.724118 -10.991691 3.180636 0.000000 0.000000 0.000000 1.537197 0.942174 -9.572771 -0.021170 -1.801845 27.213342 -1.468225 -3.786352 -7.867903 0.000000 0.000000 0.000000 -1.275833 -0.513310 9.810842 -0.053560 0.368709 -3.411021 1.910026 -2.344410 6.848239 0.544048 2.360367 -18.300152 0.000000 0.000000 0.000000 -22.647239 -2.927466 -4.501918 -43.758478 -21.525694 3.299436 -4.160748 -43.309020 1.603166 0.000000 0.000000 0.000000 20.394830 -4.629993 -1.125401 53.262589 0.860528 -5.687349 -1.180657 14.962911 0.625087 0.000000 0.000000 0.000000 
-0.511610 0.943636 1.785510 0.599698 25.635054 1.632502 -0.070864 -0.445490 -5.473421 1.390865 -0.334834 3.936496 -5.606258 -8.359233 3.596219 0.000000 0.000000 0.000000 2.817198 1.066253 -9.288035 0.026836 -0.883143 22.167118 -1.622842 -4.010046 -7.681460 0.000000 0.000000 0.000000 -1.004886 -0.411461 8.537999 -0.455344 0.454014 -2.819365 0.871122 -1.454766 5.292681 2.000216 1.333735 -17.636156 0.000000 0.000000 0.000000 -22.879849 -2.744474 -4.440370 -44.560930 -20.432491 3.052109 -2.082603 -42.047494 0.861819 0.000000 0.000000 0.000000 22.256607 -4.806378 -1.513601 53.216815 1.176432 -5.402003 -1.996174 16.500977 0.597195 0.000000 0.000000 0.000000 
-0.501887 0.942633 1.779222 0.891507 22.584083 2.194059 -0.764090 -0.446938 -5.433638 0.894993 -0.236917 3.176071 -4.595005 -6.309112 3.737225 0.000000 0.000000 0.000000 3.118341 0.901575 -7.267153 -1.908033 0.302724 16.681177 -1.443635 -3.300466 -6.545553 0.000000 0.000000 0.000000 -0.581737 -0.350096 7.423298 -1.303224 0.808716 -2.875206 0.637034 -0.712073 5.040491 2.305150 1.058006 -17.572694 0.000000 0.000000 0.000000 -23.566834 -2.424017 -4.523644 -45.369031 -19.972418 2.928139 -2.020354 -38.950558 0.939525 0.000000 0.000000 0.000000 23.511117 -4.704008 -1.672747 53.690178 2.444684 -4.909776 -3.665222 17.785120 0.444209 0.000000 0.000000 0.000000 
-0.493416 0.942005 1.775550 0.550203 20.209250 2.336498 -1.014117 -0.382197 -4.728708 0.565752 -0.116421 1.515987 -3.892697 -4.773071 4.024100 0.000000 0.000000 0.000000 2.802640 0.717711 -5.746924 -2.406611 0.607454 11.728108 -1.266555 -2.918444 -3.637109 0.000000 0.000000 0.000000 0.134108 -0.299788 5.962728 -1.851002 1.001870 -2.418651 0.569429 -0.294303 4.869611 3.381616 0.377283 -17.829066 0.000000 0.000000 0.000000 -23.979135 -2.556525 -4.294359 -46.394590 -19.443710 2.780414 -1.335632 -34.397970 0.761963 0.000000 0.000000 0.000000 24.213155 -4.605360 -1.869246 52.947889 3.389578 -4.450854 -2.160752 19.512651 0.692331 0.000000 0.000000 0.000000 
-0.486825 0.941779 1.773519 0.357727 17.828494 2.296669 -1.176453 -0.326302 -4.090132 0.580778 -0.083789 0.793466 -3.022840 -3.378679 3.758771 0.000000 0.000000 0.000000 2.157427 0.531395 -4.370899 -1.914422 0.514196 8.379755 -1.278366 -3.052208 -2.112945 0.000000 0.000000 0.000000 0.376344 -0.251367 4.987214 -1.859166 1.010174 -2.614745 0.959912 0.052317 5.341087 3.166517 0.379131 -17.662306 0.000000 0.000000 0.000000 -24.942971 -2.261233 -4.339528 -46.806192 -18.286041 2.270368 -1.052682 -29.917014 0.742774 0.000000 0.000000 0.000000 24.059131 -3.782756 -1.625313 52.818663 4.857783 -3.797729 -2.245689 20.214238 0.680581 0.000000 0.000000 0.000000 
-0.482263 0.941572 1.772394 0.056243 15.362674 2.324234 -1.219146 -0.297861 -3.715739 0.754433 -0.071300 0.168505 -2.399922 -2.386853 3.598323 0.000000 0.000000 0.000000 1.319183 0.479463 -4.211831 -1.339830 0.394134 6.758153 -1.093737 -2.662713 -1.032096 0.000000 0.000000 0.000000 0.937979 -0.214243 3.860495 -1.995249 1.045568 -2.356864 1.100849 0.228804 5.541139 3.399982 0.081363 -17.387497 0.000000 0.000000 0.000000 -25.216629 -1.765260 -4.278243 -47.793254 -17.077420 1.720650 -0.845573 -26.110840 0.717831 0.000000 0.000000 0.000000 23.593895 -2.996819 -1.475302 53.136660 6.339769 -3.082778 -1.741237 20.206557 0.715426 0.000000 0.000000 0.000000 
-0.479830 0.941986 1.772224 -0.220700 13.135006 2.000476 -1.078931 -0.232687 -2.947826 0.718293 -0.047201 -0.363712 -1.785043 -1.431112 3.376849 0.000000 0.000000 0.000000 1.038796 0.415633 -3.729671 -0.942448 0.309158 5.604653 -0.623839 -1.642346 0.013087 0.000000 0.000000 0.000000 1.156209 -0.202595 3.512062 -2.175644 1.107062 -2.095639 1.543452 0.254179 5.382982 3.745052 -0.318293 -16.940538 0.000000 0.000000 0.000000 -25.598017 -1.415057 -4.107428 -47.930039 -15.780741 1.103378 -0.591507 -22.677387 0.669188 0.000000 0.000000 0.000000 23.838180 -2.112247 -1.337523 53.002311 7.114265 -2.667254 -1.788429 20.172745 0.658569 0.000000 0.000000 0.000000 
-0.479048 0.942033 1.772789 -0.603937 10.870345 1.725801 -0.910003 -0.172434 -2.216094 0.828586 -0.031454 -1.013901 -1.008552 0.140850 3.637493 0.000000 0.000000 0.000000 0.755294 0.328959 -3.015049 -0.458240 0.198247 4.180702 0.129241 0.000503 0.936763 0.000000 0.000000 0.000000 1.334548 -0.183086 3.057642 -2.223018 1.102133 -1.563986 1.964255 0.146037 4.917827 3.802053 -0.554875 -16.517911 0.000000 0.000000 0.000000 -25.912328 -0.521207 -4.196973 -48.001154 -14.061435 0.317137 -0.810073 -20.229498 0.707198 0.000000 0.000000 0.000000 24.021358 -1.136449 -1.223022 52.619059 7.687580 -2.275499 -1.371748 20.205603 0.662993 0.000000 0.000000 0.000000 
-0.479600 0.942144 1.773638 -0.839658 8.689208 1.576956 -0.923771 -0.142880 -1.836640 1.281644 -0.073035 -1.010828 -0.317518 1.228047 3.349581 0.000000 0.000000 0.000000 0.846284 0.283805 -2.627244 -0.314263 0.156802 3.341228 0.586515 1.002073 1.259479 0.000000 0.000000 0.000000 1.452103 -0.157849 2.546663 -2.481759 1.206649 -1.264203 2.419966 0.283824 4.692212 3.753457 -0.753315 -15.618654 0.000000 0.000000 0.000000 -26.402876 -0.101245 -4.138849 -47.484390 -12.030398 -0.570998 -0.873488 -18.560342 0.706602 0.000000 0.000000 0.000000 24.505533 -0.844189 -1.444001 52.505926 7.920599 -2.080730 -0.759821 20.694680 0.735915 0.000000 0.000000 0.000000 
-0.480792 0.942271 1.774634 -1.188920 6.548164 1.310249 -0.742661 -0.093301 -1.222199 1.615389 -0.112207 -0.919211 0.158139 2.040043 3.293299 0.000000 0.000000 0.000000 1.117743 0.233506 -2.201702 -0.321544 0.124488 2.263977 1.428756 2.523741 2.423185 0.000000 0.000000 0.000000 1.452426 -0.138951 2.231505 -2.866886 1.372315 -0.782262 2.940203 0.274283 4.485686 3.723041 -0.951415 -14.859875 0.000000 0.000000 0.000000 -26.864865 0.620784 -4.205181 -47.028421 -10.144008 -1.408097 -1.046554 -17.588178 0.739050 0.000000 0.000000 0.000000 25.355027 0.139054 -1.323296 52.011697 7.848315 -1.999374 -0.980668 20.798667 0.651749 0.000000 0.000000 0.000000 
-0.482309 0.942461 1.775479 -1.272969 4.881057 1.144105 -0.557357 -0.068324 -0.886010 1.869798 -0.149738 -0.748350 0.204186 1.972563 3.095318 0.000000 0.000000 0.000000 1.180024 0.218778 -2.111535 -0.102667 0.083840 1.912563 2.064322 3.671050 3.077422 0.000000 0.000000 0.000000 1.603166 -0.129450 1.989651 -3.193225 1.520326 -0.345201 3.276160 0.353501 4.296820 3.863154 -1.207500 -14.151946 0.000000 0.000000 0.000000 -27.028914 0.767271 -4.004619 -47.074927 -7.774964 -2.394488 -1.900607 -16.806517 0.855666 0.000000 0.000000 0.000000 25.455929 0.669335 -1.318099 52.459351 7.921477 -1.877816 -1.271209 20.785843 0.568846 0.000000 0.000000 0.000000 
-0.483594 0.942933 1.776169 -1.393027 3.277719 0.898425 -0.362386 -0.034692 -0.461026 2.013888 -0.169951 -0.735734 0.335756 2.233829 3.232668 0.000000 0.000000 0.000000 1.195750 0.184932 -1.848145 0.183806 0.031158 1.428276 2.550018 4.175625 4.130462 0.000000 0.000000 0.000000 1.676164 -0.121261 1.832198 -3.435985 1.637497 0.016560 3.573737 0.485015 4.118832 3.865405 -1.335759 -13.662218 0.000000 0.000000 0.000000 -27.240344 1.318600 -4.107561 -47.164502 -5.430964 -3.353557 -2.910349 -16.634930 1.010548 0.000000 0.000000 0.000000 25.848331 0.926479 -1.469461 52.218993 7.428554 -1.998015 -1.578306 20.326147 0.475816 0.000000 0.000000 0.000000 
-0.484552 0.942850 1.776561 -1.429729 2.514738 0.941985 -0.301167 -0.012558 -0.201975 2.149687 -0.174431 -0.955933 0.123894 1.789696 3.236582 0.000000 0.000000 0.000000 1.313698 0.198162 -1.993774 0.128067 0.040470 1.469123 2.750928 4.601488 4.125020 0.000000 0.000000 0.000000 1.754166 -0.111452 1.615202 -3.392682 1.618392 0.126808 3.463134 0.512384 4.407448 4.189506 -1.585619 -13.593419 0.000000 0.000000 0.000000 -27.314690 1.647540 -4.190821 -47.678044 -3.468034 -4.200613 -3.662210 -16.715523 1.135369 0.000000 0.000000 0.000000 26.101419 0.618606 -1.794576 52.315352 6.643338 -2.328394 -1.559766 20.272275 0.467493 0.000000 0.000000 0.000000 
-0.485403 0.943106 1.776673 -1.362261 2.275128 0.881601 -0.190911 -0.001087 -0.052967 2.194690 -0.168991 -1.157869 -0.145604 1.240406 3.218654 0.000000 0.000000 0.000000 1.391453 0.209987 -2.107102 0.200611 0.039023 1.669023 2.854435 4.738534 4.282213 0.000000 0.000000 0.000000 1.894776 -0.113519 1.594827 -3.355168 1.601486 0.148338 3.335844 0.609607 4.590303 4.210634 -1.598837 -13.618713 0.000000 0.000000 0.000000 -27.656661 1.785774 -4.325358 -47.869496 -2.166087 -4.728049 -4.250680 -16.604540 1.212314 0.000000 0.000000 0.000000 25.981201 0.376824 -1.928280 52.645709 5.835203 -2.701220 -1.715703 19.345452 0.423222 0.000000 0.000000 0.000000 
-0.486078 0.943295 1.776465 -1.372506 2.571156 0.866349 -0.001356 0.016486 0.182527 2.010780 -0.144360 -1.272579 -0.439912 0.551310 2.967043 0.000000 0.000000 0.000000 1.489778 0.245625 -2.412403 0.214260 0.052211 2.096155 2.654790 4.407830 4.070425 0.000000 0.000000 0.000000 1.913820 -0.112197 1.565652 -2.978386 1.420658 0.190404 2.933264 0.978525 4.699761 4.480838 -1.725864 -13.535886 0.000000 0.000000 0.000000 -27.497181 1.447380 -4.310652 -48.049584 -1.383375 -4.989348 -4.618155 -16.556783 1.243910 0.000000 0.000000 0.000000 25.815612 -0.112803 -1.999014 53.080460 4.943241 -3.165978 -2.144000 18.196267 0.358507 0.000000 0.000000 0.000000 
-0.486662 0.943951 1.776113 -1.390468 3.191669 0.656296 0.111148 0.058961 0.698409 2.148825 -0.130005 -1.747708 -0.777454 -0.036687 3.087005 0.000000 0.000000 0.000000 1.396612 0.243590 -2.368187 0.407765 0.034847 2.369980 2.412102 3.839895 4.135784 0.000000 0.000000 0.000000 2.149028 -0.124515 1.697499 -2.736349 1.307567 -0.120946 2.349039 1.374301 5.390855 4.790373 -1.851111 -13.577447 0.000000 0.000000 0.000000 -27.396827 0.707478 -4.126263 -48.245841 -1.014237 -5.123898 -4.702179 -16.449913 1.228282 0.000000 0.000000 0.000000 25.736608 -0.576129 -1.955382 53.470766 4.460936 -3.531872 -2.654055 17.003541 0.299087 0.000000 0.000000 0.000000 
-0.486918 0.944386 1.775885 -1.288526 3.885261 0.646889 0.220611 0.073276 0.906537 1.909365 -0.091427 -2.043209 -1.051711 -0.561142 3.073059 0.000000 0.000000 0.000000 1.207773 0.230667 -2.234390 0.705641 -0.015868 2.081083 2.147719 3.192056 4.272925 0.000000 0.000000 0.000000 2.163314 -0.135169 1.869576 -2.646043 1.266077 -0.285509 2.032091 1.692679 5.554544 4.724784 -1.730958 -13.645422 0.000000 0.000000 0.000000 -27.546475 0.346348 -4.199093 -47.732565 -1.153774 -4.938198 -5.174989 -16.486472 1.277622 0.000000 0.000000 0.000000 25.149126 -0.716127 -1.735477 53.958133 3.678487 -3.963378 -2.489755 15.846064 0.315357 0.000000 0.000000 0.000000 
-0.486906 0.945131 1.776117 -1.044266 4.886340 0.581310 0.148291 0.091186 1.105129 1.591983 -0.041448 -2.469995 -1.512218 -1.127745 3.642293 0.000000 0.000000 0.000000 0.954911 0.214868 -2.068186 0.905545 -0.053878 1.788438 2.047076 2.953190 4.412013 0.000000 0.000000 0.000000 2.136370 -0.135001 1.892140 -2.534941 1.217797 -0.546989 1.507362 2.144791 5.917611 4.719984 -1.634298 -13.607108 0.000000 0.000000 0.000000 -27.430779 -0.183759 -4.244501 -47.488930 -1.302477 -4.766848 -5.272642 -16.375701 1.255166 0.000000 0.000000 0.000000 25.029327 -1.123735 -1.596521 54.033542 3.554080 -4.139643 -2.018288 14.742944 0.365846 0.000000 0.000000 0.000000 
-0.486553 0.945564 1.776936 -0.802022 5.811469 0.693572 0.153966 0.086368 1.062913 1.316123 -0.007040 -2.703313 -1.750949 -1.567035 3.615577 0.000000 0.000000 0.000000 0.726082 0.182992 -1.759990 0.921959 -0.075033 1.202599 1.856498 2.651312 4.240355 0.000000 0.000000 0.000000 2.141904 -0.121429 1.654169 -2.583309 1.242494 -0.674435 1.105984 2.535908 6.151010 4.588166 -1.441457 -13.721267 0.000000 0.000000 0.000000 -27.397683 -0.112202 -4.636549 -47.313099 -1.340934 -4.644186 -5.455440 -16.530940 1.266072 0.000000 0.000000 0.000000 25.116781 -1.250685 -1.339664 54.162914 3.425788 -4.304946 -1.800019 13.996011 0.385008 0.000000 0.000000 0.000000 
-0.486105 0.945956 1.778311 -0.650802 6.834506 0.678607 0.181771 0.099547 1.250370 1.042572 0.033569 -3.150872 -2.382820 -2.443263 4.158150 0.000000 0.000000 0.000000 0.481679 0.138674 -1.331125 1.011957 -0.098172 0.881812 1.694542 2.277437 4.375923 0.000000 0.000000 0.000000 2.139613 -0.097074 1.254846 -2.530985 1.213534 -0.455677 0.569227 3.074120 6.140831 4.594844 -1.327648 -13.736726 0.000000 0.000000 0.000000 -27.393820 -0.347054 -4.935041 -47.063902 -1.405940 -4.457903 -5.748423 -16.146205 1.244316 0.000000 0.000000 0.000000 25.453541 -1.631827 -1.187552 53.760245 3.368647 -4.415769 -0.947020 13.992362 0.486334 0.000000 0.000000 0.000000 
-0.485610 0.946378 1.779994 -0.614674 7.556182 0.734757 0.283765 0.104672 1.376241 0.832656 0.059605 -3.431798 -2.695246 -2.833238 4.456055 0.000000 0.000000 0.000000 0.475954 0.110044 -1.055270 1.036649 -0.109387 0.652537 1.311181 1.511496 4.179252 0.000000 0.000000 0.000000 2.150664 -0.081424 0.982758 -2.467337 1.182976 -0.452957 0.432945 3.237546 6.069253 4.421095 -1.122374 -13.986384 0.000000 0.000000 0.000000 -27.352554 -0.379106 -5.117481 -47.146639 -1.159971 -4.498228 -6.386840 -16.193963 1.320410 0.000000 0.000000 0.000000 25.783819 -1.520439 -0.931079 53.292648 4.097019 -4.136287 -0.552521 13.964094 0.529708 0.000000 0.000000 0.000000 
-0.485251 0.946394 1.781697 -0.693581 8.989887 0.809550 0.470591 0.091653 1.345870 0.710421 0.067916 -3.421310 -3.169711 -3.749325 4.330279 0.000000 0.000000 0.000000 0.463666 0.083782 -0.794862 1.228292 -0.144405 0.417028 0.936824 0.721132 4.179832 0.000000 0.000000 0.000000 2.085639 -0.067457 0.758335 -2.108070 1.017796 -0.572061 0.070992 3.260190 6.090899 4.215011 -0.846504 -14.383608 0.000000 0.000000 0.000000 -27.398514 -0.427637 -5.422567 -47.180128 -1.144095 -4.412677 -6.693330 -15.808148 1.306878 0.000000 0.000000 0.000000 26.576478 -1.489665 -0.606707 52.655513 4.791288 -3.944306 -0.002779 15.017813 0.651728 0.000000 0.000000 0.000000 
-0.485115 0.946483 1.783187 -0.725581 9.932032 0.826309 0.541374 0.084052 1.314706 0.736175 0.067788 -3.453876 -3.278702 -3.881449 4.364719 0.000000 0.000000 0.000000 0.641343 0.062228 -0.592055 1.154286 -0.139559 0.336074 0.706036 0.254194 4.130073 0.000000 0.000000 0.000000 1.908410 -0.058904 0.668435 -1.809406 0.889581 -0.845338 0.047626 3.150916 6.236384 3.912614 -0.586893 -14.575209 0.000000 0.000000 0.000000 -27.710596 -0.467224 -5.617690 -46.988832 -1.128717 -4.352822 -7.273508 -15.578925 1.356340 0.000000 0.000000 0.000000 27.078399 -1.163495 -0.231227 51.709455 5.890625 -3.548076 0.889060 16.562036 0.850207 0.000000 0.000000 0.000000 
-0.485095 0.946296 1.784248 -0.893007 11.021848 0.969978 0.805721 0.047840 1.017717 0.771775 0.051060 -3.036644 -3.394677 -4.333799 3.934542 0.000000 0.000000 0.000000 0.832857 0.059382 -0.555849 1.284048 -0.162092 0.250386 0.439099 -0.193234 3.774720 0.000000 0.000000 0.000000 1.963368 -0.054103 0.542705 -1.716725 0.848843 -0.898059 -0.091050 3.100236 5.893317 4.047487 -0.595274 -14.707090 0.000000 0.000000 0.000000 -27.631256 -0.861863 -5.583215 -46.674992 -1.082455 -4.240674 -7.377059 -15.202127 1.322426 0.000000 0.000000 0.000000 27.538982 -0.758090 0.246743 51.251347 7.136917 -3.090894 1.734788 18.161824 1.081045 0.000000 0.000000 0.000000 
-0.485102 0.946363 1.784939 -1.004687 11.477480 0.912894 0.982669 0.028318 0.868765 0.721762 0.037488 -2.568778 -3.263074 -4.245451 3.646132 0.000000 0.000000 0.000000 0.872033 0.054152 -0.503133 1.312227 -0.166396 0.297432 0.421550 -0.169505 3.647898 0.000000 0.000000 0.000000 1.993713 -0.055982 0.572040 -1.604468 0.805010 -1.053945 -0.171339 3.206030 5.933623 4.264341 -0.703660 -14.648006 0.000000 0.000000 0.000000 -27.677724 -1.144543 -5.562862 -46.294965 -0.973048 -4.192848 -7.612884 -15.448199 1.365497 0.000000 0.000000 0.000000 27.930059 -0.298310 0.708626 50.679516 8.509587 -2.599689 2.541430 20.611639 1.409027 0.000000 0.000000 0.000000 
-0.484908 0.946231 1.785408 -1.211345 11.686925 0.993935 0.846275 0.024006 0.735946 0.900002 0.016724 -2.330593 -3.062877 -4.090371 3.276858 0.000000 0.000000 0.000000 1.037423 0.063477 -0.583128 1.409246 -0.181360 0.241527 0.474617 0.059890 3.367222 0.000000 0.000000 0.000000 2.198110 -0.047936 0.348376 -1.538435 0.757510 -0.716056 -0.222970 3.137113 5.547523 4.480142 -0.862973 -14.465510 0.000000 0.000000 0.000000 -27.176311 -1.412474 -5.303991 -46.279136 -1.043082 -4.152001 -8.093823 -15.235985 1.406960 0.000000 0.000000 0.000000 27.454791 0.290403 1.086356 50.779700 9.796166 -2.015526 3.570282 23.071895 1.817314 0.000000 0.000000 0.000000 
-0.484518 0.946286 1.785867 -1.173924 11.579752 1.147834 0.641419 0.021586 0.581780 0.918364 -0.006390 -1.779539 -2.917315 -3.921677 3.107735 0.000000 0.000000 0.000000 1.051027 0.078912 -0.719939 1.280893 -0.165972 0.136195 0.646825 0.427803 3.491059 0.000000 0.000000 0.000000 2.307978 -0.040514 0.166320 -1.498300 0.740452 -0.766379 -0.337396 3.162167 5.581174 4.690613 -1.034691 -14.232801 0.000000 0.000000 0.000000 -26.954703 -1.637877 -5.112061 -46.289342 -0.858965 -4.233422 -7.947726 -15.409656 1.404908 0.000000 0.000000 0.000000 27.307171 0.971810 1.529580 50.683247 11.050010 -1.491659 4.387494 25.471831 2.230043 0.000000 0.000000 0.000000 
-0.483830 0.945969 1.786442 -1.182153 11.797330 1.196016 0.427190 0.046168 0.797354 0.989960 -0.008762 -1.843060 -2.846854 -3.734766 3.156936 0.000000 0.000000 0.000000 1.168900 0.084440 -0.764654 0.981023 -0.128638 0.055729 0.561447 0.294883 3.310828 0.000000 0.000000 0.000000 2.414228 -0.026295 -0.116283 -1.283235 0.638398 -0.725383 -0.540988 3.054626 5.596149 4.989263 -1.213318 -14.280491 0.000000 0.000000 0.000000 -26.662054 -1.567699 -5.098218 -46.287566 -0.898253 -4.232912 -7.861488 -15.177103 1.373119 0.000000 0.000000 0.000000 27.175063 1.277236 1.750376 50.908303 12.428608 -0.914061 3.873188 26.373024 2.227094 0.000000 0.000000 0.000000 
-0.482897 0.945314 1.787261 -1.170445 11.579699 1.409770 0.228415 0.056348 0.813624 1.074049 -0.014897 -1.848598 -2.963436 -4.115979 2.960149 0.000000 0.000000 0.000000 1.100538 0.104836 -0.947473 0.767674 -0.092992 0.311234 0.490900 0.171475 3.141262 0.000000 0.000000 0.000000 2.515307 -0.013134 -0.399605 -1.239968 0.611206 -0.614245 -0.404785 3.150663 5.386484 5.432703 -1.535543 -14.073041 0.000000 0.000000 0.000000 -26.439404 -1.704878 -4.950500 -46.524343 -0.832081 -4.282771 -7.858327 -15.014134 1.358881 0.000000 0.000000 0.000000 27.089016 1.298875 1.728495 50.996458 13.070966 -0.604944 4.100203 26.733925 2.314041 0.000000 0.000000 0.000000 
-0.481760 0.944375 1.788249 -1.112704 11.411414 1.531613 0.185328 0.076629 1.048677 0.987394 0.004088 -2.167099 -2.887525 -3.998782 2.917655 0.000000 0.000000 0.000000 1.130562 0.092956 -0.849283 0.663858 -0.075468 0.432516 0.316138 -0.118412 2.714090 0.000000 0.000000 0.000000 2.562946 -0.003657 -0.589399 -1.007101 0.514411 -0.837617 -0.656167 3.335888 5.478756 6.103507 -1.971411 -13.951217 0.000000 0.000000 0.000000 -26.320036 -1.627293 -5.036058 -46.471752 -0.450994 -4.404900 -7.701784 -15.090346 1.339049 0.000000 0.000000 0.000000 27.456416 1.220040 1.778072 51.345896 13.554996 -0.444351 4.001533 26.662423 2.304438 0.000000 0.000000 0.000000 
-0.480514 0.943613 1.789156 -1.096547 11.626994 1.711681 0.380195 0.094444 1.409713 0.544762 0.057132 -2.798219 -3.107504 -4.420189 2.936635 0.000000 0.000000 0.000000 0.861443 0.085635 -0.779638 0.787684 -0.097399 0.246987 0.274333 -0.238749 2.796062 0.000000 0.000000 0.000000 2.732598 0.021076 -1.072378 -1.249041 0.600980 -0.371264 -0.303872 3.085029 5.267846 6.308012 -2.060613 -14.298782 0.000000 0.000000 0.000000 -26.319408 -1.382613 -5.093826 -46.247769 -0.837109 -4.247944 -8.225950 -14.712325 1.376946 0.000000 0.000000 0.000000 27.379547 1.063446 1.560374 51.468002 13.707536 -0.311359 3.980500 26.083702 2.221780 0.000000 0.000000 0.000000 
-0.479413 0.943899 1.789715 -0.938553 11.546663 1.560022 0.215208 0.128079 1.747945 0.419041 0.069775 -2.939143 -3.012026 -4.037942 3.210563 0.000000 0.000000 0.000000 0.612238 0.050981 -0.468950 0.648186 -0.082914 0.101553 0.182320 -0.641416 3.355360 0.000000 0.000000 0.000000 2.827618 0.008260 -0.840489 -1.012121 0.530262 -1.084861 -0.398373 3.476393 5.919117 6.147757 -1.986973 -13.942107 0.000000 0.000000 0.000000 -26.783671 -1.729730 -5.145193 -46.029374 -0.192322 -4.432871 -8.057441 -15.173770 1.389812 0.000000 0.000000 0.000000 27.357665 0.871551 1.636629 51.186605 13.478404 -0.543994 4.120665 25.744170 2.242693 0.000000 0.000000 0.000000 
-0.478550 0.944333 1.789808 -1.020223 11.236178 1.791683 0.198281 0.145396 1.957029 0.763804 0.086635 -4.043142 -3.658256 -4.486658 4.445237 0.000000 0.000000 0.000000 0.439953 0.042178 -0.386437 0.937491 -0.135580 -0.478960 0.455723 -0.083478 3.609375 0.000000 0.000000 0.000000 2.772154 0.044120 -1.482393 -0.993362 0.448369 0.215879 0.170838 3.690634 4.951356 6.306230 -1.809834 -15.505047 0.000000 0.000000 0.000000 -26.216995 -0.238475 -5.850847 -47.235301 0.060754 -4.672916 -8.793544 -16.625063 1.605508 0.000000 0.000000 0.000000 26.395678 0.948605 1.533524 51.562731 14.694813 0.180215 3.977855 23.214215 1.916838 0.000000 0.000000 0.000000 
-0.478065 0.945081 1.789579 -0.733198 12.348553 1.195903 0.305192 0.134422 1.931775 0.354987 0.084718 -3.295954 -3.322835 -3.603521 4.673201 0.000000 0.000000 0.000000 0.618818 -0.104121 0.893745 0.102318 -0.058218 -1.243443 0.512920 -0.041825 4.100921 0.000000 0.000000 0.000000 2.623985 0.025038 -1.039618 -0.396858 0.226503 -0.724731 -0.643472 3.671796 5.856351 6.579198 -2.072700 -14.619590 0.000000 0.000000 0.000000 -25.985629 -0.500135 -5.900686 -46.545824 0.469600 -4.746237 -9.623520 -16.271490 1.669712 0.000000 0.000000 0.000000 27.452570 0.837647 1.864667 50.993373 14.762825 -0.084933 2.918460 21.732808 1.605652 0.000000 0.000000 0.000000 
