HIERARCHY
ROOT Hips
{
	OFFSET -0.001795 -0.223333 0.028219
	CHANNELS 6 Xposition Yposition Zposition Zrotation Yrotation Xrotation 
	JOINT LeftUpLeg
	{
		OFFSET 0.069520 -0.091406 -0.006815
		CHANNELS 3 Zrotation Yrotation Xrotation
		JOINT LeftLeg
		{
			OFFSET 0.034277 -0.375199 -0.004496
			CHANNELS 3 Zrotation Yrotation Xrotation
			JOINT LeftFoot
			{
				OFFSET -0.013596 -0.397961 -0.043693
				CHANNELS 3 Zrotation Yrotation Xrotation
				JOINT LeftToe
				{
					OFFSET 0.026358 -0.055791 0.119288
					CHANNELS 3 Zrotation Yrotation Xrotation
					End Site
					{
						OFFSET 0.000000 0.000000 0.000000
					}
				}
			}
		}
	}
	JOINT RightUpLeg
	{
		OFFSET -0.067670 -0.090522 -0.004320
		CHANNELS 3 Zrotation Yrotation Xrotation
		JOINT RightLeg
		{
			OFFSET -0.038290 -0.382569 -0.008850
			CHANNELS 3 Zrotation Yrotation Xrotation
			JOINT RightFoot
			{
				OFFSET 0.015774 -0.398415 -0.042312
				CHANNELS 3 Zrotation Yrotation Xrotation
				JOINT RightToe
				{
					OFFSET -0.025372 -0.048144 0.123348
					CHANNELS 3 Zrotation Yrotation Xrotation
					End Site
					{
						OFFSET 0.000000 0.000000 0.000000
					}
				}
			}
		}
	}
	JOINT Spine
	{
		OFFSET -0.002533 0.108963 -0.026696
		CHANNELS 3 Zrotation Yrotation Xrotation
		JOINT Spine1
		{
			OFFSET 0.005487 0.135180 0.001092
			CHANNELS 3 Zrotation Yrotation Xrotation
			JOINT Spine2
			{
				OFFSET 0.001457 0.052922 0.025425
				CHANNELS 3 Zrotation Yrotation Xrotation
				JOINT Neck
				{
					OFFSET -0.002778 0.213870 -0.042857
					CHANNELS 3 Zrotation Yrotation Xrotation
					JOINT Head
					{
						OFFSET 0.005152 0.064970 0.051349
						CHANNELS 3 Zrotation Yrotation Xrotation
						End Site
						{
							OFFSET 0.000000 0.000000 0.000000
						}
					}
				}
				JOINT LeftShoulder
				{
					OFFSET 0.078845 0.121749 -0.034090
					CHANNELS 3 Zrotation Yrotation Xrotation
					JOINT LeftArm
					{
						OFFSET 0.090977 0.030469 -0.008868
						CHANNELS 3 Zrotation Yrotation Xrotation
						JOINT LeftForeArm
						{
							OFFSET 0.259612 -0.012772 -0.027456
							CHANNELS 3 Zrotation Yrotation Xrotation
							JOINT LeftHand
							{
								OFFSET 0.249234 0.008986 -0.001171
								CHANNELS 3 Zrotation Yrotation Xrotation
								End Site
								{
									OFFSET 0.000000 0.000000 0.000000
								}
							}
						}
					}
				}
				JOINT RightShoulder
				{
					OFFSET -0.081759 0.118833 -0.038615
					CHANNELS 3 Zrotation Yrotation Xrotation
					JOINT RightArm
					{
						OFFSET -0.096012 0.032551 -0.009143
						CHANNELS 3 Zrotation Yrotation Xrotation
						JOINT RightForeArm
						{
							OFFSET -0.253742 -0.013329 -0.021401
							CHANNELS 3 Zrotation Yrotation Xrotation
							JOINT RightHand
							{
								OFFSET -0.255298 0.007772 -0.005559
								CHANNELS 3 Zrotation Yrotation Xrotation
								End Site
								{
									OFFSET 0.000000 0.000000 0.000000
								}
							}
						}
					}
				}
			}
		}
	}
}
MOTION
Frames: 140
Frame Time: 0.050000
0.000000 0.949852 0.000000 -0.768349 1.829992 -0.529858 0.829290 0.215373 2.772908 1.418773 -0.162877 0.241962 -2.753580 -1.473651 8.024509 0.000000 0.000000 0.000000 2.520422 -0.158239 0.888842 1.585779 -0.157847 0.699199 3.815509 4.604680 8.303740 0.000000 0.000000 0.000000 1.280133 -0.019128 0.220628 -0.791767 0.348360 1.256038 -1.492672 0.771854 3.194093 4.523386 -1.762862 -12.971704 0.000000 0.000000 0.000000 -29.885058 -1.950031 -2.693375 -44.521273 -2.943974 -3.850107 -6.354840 -17.888511 1.589799 0.000000 0.000000 0.000000 29.397109 -1.629966 -3.238442 51.195842 4.776640 -3.102982 2.816262 18.306835 1.051564 0.000000 0.000000 0.000000 
0.000590 0.949207 0.000532 -0.935217 1.603090 0.168008 1.320465 0.183257 2.616043 0.760739 -0.051482 -0.719444 -2.676079 -1.367900 8.006627 0.000000 0.000000 0.000000 2.305864 -0.055529 0.058244 2.205999 -0.225690 0.851098 3.905358 4.789589 8.272116 0.000000 0.000000 0.000000 1.358926 0.041248 -1.018753 -1.121321 0.478013 2.687017 -1.386934 0.614647 2.454977 4.354481 -1.586885 -13.589095 0.000000 0.000000 0.000000 -29.994508 -1.015934 -3.223093 -44.574779 -3.057934 -3.788028 -6.207684 -18.603076 1.635753 0.000000 0.000000 0.000000 29.129580 -1.737363 -3.442047 51.868741 4.658278 -3.059329 2.985848 19.267601 1.123078 0.000000 0.000000 0.000000 
0.000839 0.949029 0.000916 -0.758314 1.731707 0.382999 1.166669 0.181042 2.525720 0.684057 -0.034080 -0.953492 -2.756835 -1.474839 8.067669 0.000000 0.000000 0.000000 2.538639 -0.024955 -0.236349 1.449644 -0.132510 1.027899 3.731089 4.600969 7.959000 0.000000 0.000000 0.000000 1.388139 0.037283 -0.963367 -1.018997 0.474169 0.608178 -1.615998 0.463572 4.018015 3.630934 -1.260396 -12.757477 0.000000 0.000000 0.000000 -28.863467 -1.194752 -2.871119 -45.201569 -2.806023 -4.086160 -5.894955 -18.255771 1.568011 0.000000 0.000000 0.000000 29.312205 -0.848774 -2.823057 51.017686 4.487620 -3.235448 2.951830 18.951131 1.106149 0.000000 0.000000 0.000000 
0.000728 0.949116 0.001555 -0.802956 2.202453 0.526413 1.371434 0.177500 2.622289 0.522894 0.001191 -1.439576 -3.025458 -1.853151 8.195515 0.000000 0.000000 0.000000 2.551852 0.042444 -0.771912 1.608001 -0.134645 1.805210 3.477679 4.172472 7.836189 0.000000 0.000000 0.000000 1.001375 0.029242 -0.802230 -1.130521 0.512503 1.200761 -1.029700 -0.233923 3.179365 3.503793 -1.258057 -12.389552 0.000000 0.000000 0.000000 -29.026528 -0.231195 -3.328168 -45.205127 -2.924904 -4.036053 -6.625831 -18.061870 1.674132 0.000000 0.000000 0.000000 29.181967 -0.701147 -2.973618 50.939425 4.305326 -3.158656 3.619744 19.115872 1.190923 0.000000 0.000000 0.000000 
0.000328 0.949386 0.002352 -0.744604 2.561013 0.475290 1.291976 0.182821 2.670525 0.675577 -0.013330 -1.418231 -3.214289 -2.111778 8.288892 0.000000 0.000000 0.000000 2.680136 0.050086 -0.832126 1.374102 -0.098018 2.133742 3.289114 3.843983 7.759794 0.000000 0.000000 0.000000 0.777200 0.018156 -0.548410 -0.712359 0.295995 1.504171 -1.325556 -0.442220 2.681032 3.111963 -1.059176 -11.804821 0.000000 0.000000 0.000000 -28.639129 -0.161480 -3.357297 -45.071124 -2.729312 -4.047970 -6.896425 -17.867998 1.692194 0.000000 0.000000 0.000000 28.740144 -0.360234 -2.707688 51.010688 4.514680 -3.029016 3.548171 19.076569 1.173643 0.000000 0.000000 0.000000 
-0.000416 0.949526 0.003850 -0.630754 2.873046 0.495396 1.273416 0.205378 2.977261 0.652953 0.008167 -1.895823 -3.430015 -2.369111 8.488760 0.000000 0.000000 0.000000 2.832611 0.055268 -0.879003 1.029474 -0.046994 2.384241 3.103340 3.550408 7.613161 0.000000 0.000000 0.000000 0.245250 -0.001106 -0.030349 -0.531378 0.210362 1.323792 -1.075731 -0.747305 2.299181 2.882631 -0.928550 -11.746594 0.000000 0.000000 0.000000 -28.945813 0.517878 -3.771357 -44.712716 -2.525977 -4.076415 -6.767814 -17.839994 1.673716 0.000000 0.000000 0.000000 28.666550 -0.387914 -2.818019 51.049690 4.486051 -2.979573 3.668944 19.039360 1.178230 0.000000 0.000000 0.000000 
-0.001423 0.949474 0.006262 -0.509404 2.936750 0.561462 1.090751 0.221912 3.089093 0.887095 -0.009847 -1.954030 -3.459209 -2.403327 8.512779 0.000000 0.000000 0.000000 3.113628 0.072886 -1.045752 0.445589 0.046202 2.851883 2.975395 3.424950 7.325920 0.000000 0.000000 0.000000 0.064993 -0.013806 0.322877 -0.437166 0.165458 1.266280 -1.431280 -0.856314 2.015341 3.135060 -1.105289 -11.579025 0.000000 0.000000 0.000000 -28.746593 1.027439 -4.084089 -44.522556 -2.133426 -4.170206 -6.898931 -18.052480 1.712098 0.000000 0.000000 0.000000 28.373187 -0.279018 -2.724426 51.397513 4.373844 -3.014754 3.976049 19.978369 1.289485 0.000000 0.000000 0.000000 
-0.002719 0.948540 0.009869 -0.414527 3.049071 0.433215 1.202586 0.247753 3.498615 0.713556 0.008069 -2.020535 -3.474001 -2.550836 8.255981 0.000000 0.000000 0.000000 3.327761 0.074543 -1.065538 0.092150 0.120963 3.592559 2.766472 3.291195 6.706060 0.000000 0.000000 0.000000 -0.088124 -0.037319 0.966494 -0.164938 0.044933 0.900482 -1.818913 -0.809117 1.944990 3.403170 -1.334736 -10.962197 0.000000 0.000000 0.000000 -28.548058 1.077974 -4.165450 -44.399269 -1.985454 -4.183191 -6.769142 -18.168065 1.695494 0.000000 0.000000 0.000000 28.532376 -0.758162 -2.977600 51.207679 4.317279 -3.046164 4.566640 20.704522 1.446040 0.000000 0.000000 0.000000 
-0.004491 0.947272 0.014438 -0.470510 2.901206 0.270949 1.246590 0.289422 4.060312 0.960090 -0.009009 -2.129842 -3.298469 -2.472608 7.814970 0.000000 0.000000 0.000000 3.631594 0.062654 -0.999243 -0.109106 0.177653 4.324131 2.673482 3.400864 6.060035 0.000000 0.000000 0.000000 -0.028358 -0.057358 1.436925 -0.208434 0.066822 0.905224 -1.751213 -1.062248 1.815525 3.309537 -1.340666 -10.585343 0.000000 0.000000 0.000000 -28.490098 1.154476 -4.083108 -44.307423 -2.115721 -4.156110 -6.847579 -17.778906 1.678849 0.000000 0.000000 0.000000 28.448505 -0.443715 -2.902158 50.866640 4.512448 -2.898373 5.086175 20.943080 1.535325 0.000000 0.000000 0.000000 
-0.006809 0.945379 0.019432 -0.487838 2.772136 -0.040870 1.357531 0.312627 4.425944 1.082387 -0.045486 -1.541224 -3.040902 -2.412252 7.035246 0.000000 0.000000 0.000000 4.001839 -0.002937 -0.537824 -0.436330 0.242854 4.711733 2.538552 3.527935 5.210409 0.000000 0.000000 0.000000 -0.028233 -0.069214 1.728973 -0.225530 0.071829 1.024402 -1.736078 -1.080565 1.880229 3.179820 -1.280118 -10.437523 0.000000 0.000000 0.000000 -28.431551 1.342017 -4.156914 -44.185846 -2.188828 -4.136298 -6.325826 -18.000197 1.622213 0.000000 0.000000 0.000000 28.469712 -0.429342 -2.928648 50.655218 4.641345 -2.833780 5.430347 21.179176 1.609003 0.000000 0.000000 0.000000 
-0.009579 0.943447 0.024407 -0.479936 2.565984 -0.238113 1.566673 0.332337 4.823019 1.015771 -0.054092 -1.211820 -2.786264 -2.306244 6.354967 0.000000 0.000000 0.000000 4.350315 -0.012496 -0.503729 -0.723484 0.326941 5.636418 2.390879 3.663557 4.288428 0.000000 0.000000 0.000000 0.058881 -0.094898 2.300657 -0.278456 0.100942 0.964303 -1.655510 -1.045768 1.935224 3.295798 -1.365925 -10.430505 0.000000 0.000000 0.000000 -28.534332 1.138435 -4.005641 -43.875071 -2.586964 -3.982893 -6.104291 -17.663303 1.560227 0.000000 0.000000 0.000000 28.464217 -0.322596 -2.894200 50.904264 5.037142 -2.678381 5.421287 21.221886 1.607552 0.000000 0.000000 0.000000 
-0.012507 0.941445 0.028859 -0.443562 2.080959 -0.410870 1.654500 0.235832 3.505137 1.001645 -0.200381 2.121618 -2.172550 -1.801371 5.135364 0.000000 0.000000 0.000000 4.854453 -0.059845 -0.240280 -1.395704 0.456499 6.034799 2.347761 4.035393 3.378676 0.000000 0.000000 0.000000 0.330005 -0.126180 2.847628 -0.543955 0.222559 1.326035 -1.268015 -1.247519 1.584597 3.144970 -1.272443 -10.684315 0.000000 0.000000 0.000000 -28.907044 1.369729 -4.015716 -43.660077 -2.506638 -4.024726 -5.224113 -18.620583 1.520688 0.000000 0.000000 0.000000 27.874612 -0.165959 -2.948528 51.147095 5.401082 -2.447195 5.427033 21.042501 1.567982 0.000000 0.000000 0.000000 
-0.015555 0.939442 0.032726 -0.631757 1.753363 -0.590221 2.040691 0.018099 0.648511 0.943272 -0.506867 8.944256 -1.496581 -1.944581 2.301766 0.000000 0.000000 0.000000 5.436553 -0.175593 0.462245 -1.759420 0.493263 5.578780 2.343772 4.389306 2.721807 0.000000 0.000000 0.000000 0.551897 -0.179760 3.858167 -0.062002 -0.016014 1.370642 -1.341957 -0.646890 1.472600 3.591701 -1.570451 -10.354466 0.000000 0.000000 0.000000 -28.594644 1.096587 -3.971558 -43.928488 -2.781192 -3.898142 -5.094716 -18.546644 1.478925 0.000000 0.000000 0.000000 28.435970 0.233415 -2.585242 50.049073 6.141952 -2.141488 4.923072 20.895187 1.487861 0.000000 0.000000 0.000000 
-0.018113 0.936475 0.036011 -0.631099 1.761050 -0.197336 1.858079 -0.392783 -4.898219 1.110757 -1.094948 19.589741 -0.730762 -1.574560 -0.020219 0.000000 0.000000 0.000000 5.505419 -0.116025 0.018650 -1.520917 0.478804 6.047498 2.080187 4.410803 1.586815 0.000000 0.000000 0.000000 0.292008 -0.225846 5.107887 0.842315 -0.483081 1.780709 -1.398284 -0.082233 0.871850 3.738468 -1.556516 -10.816684 0.000000 0.000000 0.000000 -28.419145 1.629038 -4.524926 -44.328509 -2.787018 -3.814625 -3.907329 -19.229671 1.313769 0.000000 0.000000 0.000000 28.016080 0.581098 -2.114103 49.393227 7.240603 -1.685532 4.628937 20.512635 1.426982 0.000000 0.000000 0.000000 
-0.020171 0.933791 0.041166 -0.901744 0.265559 -0.075139 2.035236 -0.990079 -13.078284 -0.417419 -1.154376 35.304727 0.814068 2.649492 2.189968 0.000000 0.000000 0.000000 6.342667 -0.171962 0.177050 -2.551317 0.654218 6.122641 2.349391 5.692997 0.580147 0.000000 0.000000 0.000000 1.460683 -0.317114 5.688375 0.114880 -0.099256 1.460818 -0.909154 1.241999 1.599749 3.166946 -1.048665 -11.766376 0.000000 0.000000 0.000000 -27.943141 1.801602 -4.694210 -45.083256 -2.170546 -4.118983 -3.144567 -20.775413 1.273462 0.000000 0.000000 0.000000 27.541894 1.902923 -1.015313 47.739550 7.481765 -1.676176 5.773500 20.819786 1.658296 0.000000 0.000000 0.000000 
-0.021645 0.931459 0.049700 -0.642584 -0.321423 -0.399465 2.410605 -1.733802 -24.239748 -3.118554 -0.006204 56.642749 0.952934 4.666648 7.056173 0.000000 0.000000 0.000000 5.758664 -0.315017 1.224448 -2.002312 0.556076 5.934556 2.381091 6.444195 -0.404188 0.000000 0.000000 0.000000 1.153007 -0.379403 7.319671 -0.094004 0.019360 1.010483 0.269141 3.245740 2.286255 3.022216 -0.577266 -14.083586 0.000000 0.000000 0.000000 -29.146388 1.633438 -5.296978 -43.688284 -0.953179 -4.288514 -5.093908 -21.556967 1.635963 0.000000 0.000000 0.000000 27.082677 1.031979 -0.982509 45.811892 8.129367 -1.625028 8.458760 22.812431 2.397526 0.000000 0.000000 0.000000 
-0.022737 0.930249 0.063282 -0.571809 -1.329544 -1.445298 2.344528 -2.303414 -33.183002 -5.216954 2.304190 73.448962 3.250350 8.654387 6.652550 0.000000 0.000000 0.000000 6.509968 -0.754758 3.950971 -3.760931 0.741548 4.664133 2.604625 7.401072 -0.902563 0.000000 0.000000 0.000000 1.371622 -0.488090 9.324348 -0.404469 0.189776 0.263924 0.975744 4.944249 3.229181 4.265865 -1.241638 -14.284600 0.000000 0.000000 0.000000 -29.334269 2.197015 -6.052195 -43.554002 0.599564 -4.766661 -5.893078 -22.197928 1.799340 0.000000 0.000000 0.000000 26.442469 1.902340 0.022394 44.695595 8.150081 -1.808618 8.746456 23.406098 2.570131 0.000000 0.000000 0.000000 
-0.023704 0.930952 0.081964 0.653431 -3.111766 -1.926262 2.322404 -2.531494 -40.398956 -7.723752 6.245659 80.719856 5.829057 12.720777 3.728833 0.000000 0.000000 0.000000 4.841771 -0.955154 6.131785 -3.829522 0.671767 3.696146 3.292029 9.230853 -0.899313 0.000000 0.000000 0.000000 0.278702 -0.417010 10.347415 -1.132977 0.544293 0.434630 2.133534 7.207277 3.253565 4.123168 -1.089428 -13.999002 0.000000 0.000000 0.000000 -29.289601 1.718200 -6.145934 -43.699253 2.556772 -5.335550 -6.511026 -21.189175 1.787561 0.000000 0.000000 0.000000 26.698322 1.834315 0.354725 43.841831 8.355243 -1.855827 8.241744 24.344696 2.632745 0.000000 0.000000 0.000000 
-0.025319 0.932494 0.105138 1.360198 -4.961057 -1.873925 1.803937 -2.633094 -44.932856 -7.835345 7.108301 79.192760 6.833958 13.957609 -0.523148 0.000000 0.000000 0.000000 4.165920 -1.146541 8.140753 -4.783867 0.675299 2.347187 4.221421 10.895266 -0.017961 0.000000 0.000000 0.000000 -0.367853 -0.356817 11.069330 -1.095910 0.526266 -0.108780 2.335835 8.200263 3.164468 3.621324 -0.717741 -14.417830 0.000000 0.000000 0.000000 -29.059131 2.891784 -6.822373 -43.460638 5.799514 -6.415298 -7.651808 -20.439022 1.925601 0.000000 0.000000 0.000000 26.372913 2.422850 0.724662 43.460533 8.136096 -1.906244 7.668519 25.972897 2.714768 0.000000 0.000000 0.000000 
-0.027816 0.932054 0.131818 1.815669 -6.303168 -1.882405 0.591338 -2.874087 -44.991782 -7.028762 6.025016 71.087436 4.735250 9.009437 -3.246907 0.000000 0.000000 0.000000 3.454240 -1.302946 10.273396 -5.067660 0.615152 1.371387 4.936487 12.155271 0.577154 0.000000 0.000000 0.000000 -0.654494 -0.316896 11.326755 -1.156851 0.553228 -0.218964 2.589250 9.346479 3.482044 3.411049 -0.516054 -14.676135 0.000000 0.000000 0.000000 -27.970002 3.564459 -7.119746 -45.050267 6.979895 -7.133270 -8.136382 -18.381048 1.792234 0.000000 0.000000 0.000000 26.345875 2.438993 0.890943 43.187116 8.817789 -1.741293 7.752859 26.999468 2.884841 0.000000 0.000000 0.000000 
-0.030826 0.929784 0.161977 2.146717 -6.949025 -1.206042 -0.795258 -3.178154 -42.417529 -5.578409 3.732256 56.522723 1.464532 3.929423 2.561346 0.000000 0.000000 0.000000 3.180842 -1.406985 11.608010 -4.985110 0.641175 1.838057 4.015459 10.917018 -0.724828 0.000000 0.000000 0.000000 -0.324805 -0.327265 10.679706 -1.134021 0.537391 -0.720722 2.434892 9.037855 4.370958 2.873458 -0.073005 -16.154271 0.000000 0.000000 0.000000 -27.677174 5.000041 -7.677351 -45.250310 7.594884 -7.529102 -8.376407 -18.581813 1.877604 0.000000 0.000000 0.000000 25.039864 2.807309 0.949105 44.262513 9.421456 -1.510869 7.066950 27.821902 2.817412 0.000000 0.000000 0.000000 
-0.034638 0.925456 0.196029 2.578624 -7.432038 -0.435833 -2.797214 -3.471093 -37.007895 -3.094655 1.405629 41.364404 -2.298878 -0.066187 11.147364 0.000000 0.000000 0.000000 2.854484 -1.408829 12.103663 -4.739164 0.805725 4.079745 2.753312 9.111992 -2.471989 0.000000 0.000000 0.000000 -0.211529 -0.319507 10.122031 -1.369278 0.640393 -1.354391 2.324351 8.424351 4.709586 3.672696 -0.617129 -16.425193 0.000000 0.000000 0.000000 -26.706929 4.850925 -7.052872 -47.290674 8.037785 -8.218353 -7.440513 -18.958760 1.797847 0.000000 0.000000 0.000000 24.646999 2.735552 0.628558 45.457029 8.544450 -1.752069 7.843974 28.904731 3.101311 0.000000 0.000000 0.000000 
-0.038709 0.921432 0.234788 2.367252 -8.910237 -0.045050 -3.264127 -3.081382 -31.921133 -2.492860 1.028687 33.678637 -3.009141 -0.534048 13.769471 0.000000 0.000000 0.000000 2.816219 -1.473512 13.197842 -4.667865 1.028811 6.636632 2.292724 8.570399 -3.245995 0.000000 0.000000 0.000000 -0.842072 -0.240344 9.861626 -1.501502 0.677169 -2.440770 2.907217 8.706450 5.396243 3.032899 -0.436322 -15.228552 0.000000 0.000000 0.000000 -27.998545 4.423736 -6.838997 -46.152906 7.443513 -7.842856 -6.336575 -19.207749 1.672980 0.000000 0.000000 0.000000 25.387253 2.829456 0.473377 45.642246 8.499845 -1.772456 7.321814 29.942317 3.071302 0.000000 0.000000 0.000000 
-0.042874 0.919259 0.279234 2.153123 -8.078507 0.428887 -4.899836 -3.109904 -26.621872 -0.651162 0.044152 29.563720 -2.650942 -1.314178 10.005274 0.000000 0.000000 0.000000 3.128785 -1.475726 12.438724 -4.032486 1.587321 13.466435 1.821470 6.798246 -2.746103 0.000000 0.000000 0.000000 -0.657070 -0.242075 8.700518 -1.567520 0.718163 -2.138764 2.542375 6.766703 4.856031 2.846370 -0.464571 -15.200629 0.000000 0.000000 0.000000 -28.020588 3.321361 -5.663208 -46.319250 5.906621 -7.403753 -5.806475 -19.157142 1.629047 0.000000 0.000000 0.000000 25.124345 1.621687 -0.781832 46.390032 6.715644 -2.226460 8.491126 29.576303 3.223584 0.000000 0.000000 0.000000 
-0.046560 0.919123 0.327358 2.810533 -7.547004 0.447904 -7.171530 -2.826045 -19.977762 0.922482 -0.604788 24.095960 -1.490728 -1.463109 4.125214 0.000000 0.000000 0.000000 0.921585 -0.696761 6.953280 -0.893936 2.116870 27.603193 3.854198 6.952791 3.519756 0.000000 0.000000 0.000000 -2.815904 -0.043622 8.072619 -0.273262 0.132793 -2.960564 2.227646 4.372361 5.824017 2.422724 -0.293713 -16.677511 0.000000 0.000000 0.000000 -29.025356 3.748122 -5.286873 -44.824177 3.048151 -6.436168 -6.950852 -19.807557 1.970662 0.000000 0.000000 0.000000 25.082221 1.060834 -1.821429 48.199573 4.116142 -3.151158 9.155323 28.913914 3.172668 0.000000 0.000000 0.000000 
-0.050365 0.918284 0.374245 3.212004 -6.593884 0.365846 -8.375982 -2.137612 -13.758643 1.721641 -0.845040 19.137779 -1.217355 -2.745457 -0.292212 0.000000 0.000000 0.000000 -0.176528 0.271337 -2.805956 2.042800 2.424578 45.275464 5.805796 4.156188 14.523184 0.000000 0.000000 0.000000 -3.558302 0.015559 7.964516 0.415738 -0.158480 -3.560577 1.292519 1.979205 7.258426 2.098490 -0.155434 -18.592038 0.000000 0.000000 0.000000 -28.595676 2.067649 -3.390467 -44.418634 -2.106767 -4.945845 -8.352377 -22.119838 2.576060 0.000000 0.000000 0.000000 26.177767 0.368487 -2.950920 47.730696 2.287098 -3.748531 8.346177 27.473670 2.714183 0.000000 0.000000 0.000000 
-0.055239 0.918958 0.419676 2.822746 -4.070242 -0.214334 -8.325044 -1.132317 -7.287131 2.596553 -1.020964 14.514051 -1.872236 -5.641008 -2.976189 0.000000 0.000000 0.000000 -0.830903 1.295480 -13.317538 5.360365 0.475808 57.174969 4.061708 -1.348643 20.648382 0.000000 0.000000 0.000000 -3.031469 -0.060483 8.689102 1.251951 -0.539791 -2.238676 -0.312017 -1.360377 6.131882 2.130388 -0.390233 -18.061830 0.000000 0.000000 0.000000 -29.008448 0.308947 -1.684010 -43.012119 -7.599561 -3.094170 -7.330898 -24.424838 2.697643 0.000000 0.000000 0.000000 26.213681 0.449798 -3.554200 48.257839 -1.160595 -4.837430 8.272721 24.979069 2.317781 0.000000 0.000000 0.000000 
-0.061756 0.919914 0.466396 2.575776 -1.646823 -1.074820 -7.965153 -0.199873 -1.611245 3.510979 -1.137498 11.717558 -2.751611 -8.400528 -3.860896 0.000000 0.000000 0.000000 -1.855556 2.008864 -22.503960 7.687005 -2.035112 58.617132 -2.087365 -6.979835 4.660381 0.000000 0.000000 0.000000 -2.869042 -0.121716 10.290250 2.618664 -1.085097 -3.597868 -1.621168 -3.461965 7.344180 2.519119 -0.622567 -19.275999 0.000000 0.000000 0.000000 -29.253995 -1.912329 0.082291 -41.648892 -13.373137 -1.339961 -6.592803 -29.624950 3.182876 0.000000 0.000000 0.000000 26.732332 -0.720217 -4.542294 48.260127 -3.944177 -5.946060 7.911695 21.234953 1.867620 0.000000 0.000000 0.000000 
-0.069777 0.920151 0.516059 1.385389 -0.245356 -1.495713 -6.445847 0.635757 3.918166 4.722285 -1.177114 8.533396 -3.346353 -10.153202 -4.184003 0.000000 0.000000 0.000000 -1.129580 2.700343 -28.997140 7.907813 -2.258573 45.275307 -4.687641 -12.173592 2.287963 0.000000 0.000000 0.000000 -1.520292 -0.287059 10.924724 3.207689 -1.374837 -2.924416 -2.093546 -5.456943 6.506931 1.997568 -0.437215 -19.229627 0.000000 0.000000 0.000000 -29.679211 -2.643292 0.957177 -40.457152 -17.776973 0.000853 -4.327395 -36.884125 3.406014 0.000000 0.000000 0.000000 26.793849 -1.785634 -5.641358 47.661623 -7.574347 -7.050640 7.615849 19.584093 1.613905 0.000000 0.000000 0.000000 
-0.079548 0.917470 0.570532 1.074060 1.361765 -1.260715 -4.477551 1.209931 9.013804 4.153068 -0.828522 5.195973 -4.474124 -12.271705 -3.343422 0.000000 0.000000 0.000000 -1.409159 2.691397 -31.085937 9.244331 -2.206952 25.166088 -3.707449 -11.739099 11.625764 0.000000 0.000000 0.000000 -1.391198 -0.319040 10.989841 3.879869 -1.609485 -3.719193 -2.326576 -7.520774 6.847351 1.712966 -0.383877 -19.733431 0.000000 0.000000 0.000000 -29.249098 -2.387588 1.256719 -40.683262 -20.395256 0.726497 -2.186682 -45.238222 3.657176 0.000000 0.000000 0.000000 26.306017 -2.414089 -6.315902 48.935340 -9.865400 -8.130527 5.684957 17.849311 1.164906 0.000000 0.000000 0.000000 
-0.090954 0.913096 0.631425 1.448506 2.101719 -0.371534 -4.197208 1.595307 12.318672 5.114109 -0.942087 4.801291 -5.117738 -12.609626 -1.910883 0.000000 0.000000 0.000000 -0.258485 2.936214 -31.196456 8.917777 -1.781119 17.737110 -3.254062 -11.740188 17.144843 0.000000 0.000000 0.000000 -2.227354 -0.204695 9.700517 5.290021 -2.324559 -2.600260 -2.894783 -8.052575 5.144080 2.377216 -0.796737 -18.514287 0.000000 0.000000 0.000000 -27.532945 -1.992056 0.885134 -42.401239 -21.059845 1.330330 -1.919329 -52.163032 4.275698 0.000000 0.000000 0.000000 26.663718 -2.977409 -6.778253 48.733106 -11.779133 -8.687723 4.216585 17.766213 0.952100 0.000000 0.000000 0.000000 
-0.103791 0.910848 0.700965 1.993047 3.154516 0.646683 -3.034686 1.483693 12.725310 4.553169 -1.241067 9.567955 -7.102849 -12.657181 3.435796 0.000000 0.000000 0.000000 1.561536 3.083796 -28.940183 7.929698 -1.583465 17.983709 -2.637398 -10.300028 15.693405 0.000000 0.000000 0.000000 -2.463595 -0.122806 7.127234 6.237172 -3.005293 -0.109570 -3.112629 -9.132934 1.608504 1.995802 -0.581026 -17.528232 0.000000 0.000000 0.000000 -29.041018 0.102780 -0.571184 -42.276782 -18.630559 0.737654 -5.467560 -53.746697 6.142033 0.000000 0.000000 0.000000 26.649634 -3.488087 -7.328847 47.768337 -12.946935 -8.587099 2.953362 16.528968 0.692672 0.000000 0.000000 0.000000 
-0.118428 0.912476 0.775039 1.818299 2.630190 0.091720 0.259520 0.916559 10.860567 2.298645 -1.590045 21.408801 -12.635725 -15.018470 14.250781 0.000000 0.000000 0.000000 5.055895 3.340859 -24.427601 5.403548 -0.892695 19.840788 -1.802911 -7.717240 10.431443 0.000000 0.000000 0.000000 -1.135241 -0.175592 5.895141 5.264726 -2.538903 -0.063955 -2.365742 -8.386905 0.886787 0.809991 0.059543 -15.967925 0.000000 0.000000 0.000000 -28.191844 1.725078 -1.762678 -43.482139 -14.616804 -0.495843 -14.045054 -51.906598 10.069567 0.000000 0.000000 0.000000 25.275267 -3.936986 -7.133904 47.091731 -11.045317 -7.752837 4.264578 15.500607 0.805779 0.000000 0.000000 0.000000 
-0.133283 0.915158 0.843127 1.045248 1.639901 -0.927227 3.438236 0.101391 2.429302 2.037773 -2.946884 41.992924 -20.085316 -16.815415 27.999754 0.000000 0.000000 0.000000 7.849272 2.854461 -17.848782 4.923739 -0.687029 18.578829 -1.820937 -6.490220 5.510312 0.000000 0.000000 0.000000 0.340591 -0.301006 6.799408 4.442372 -1.992747 -1.965774 -1.372509 -7.583248 1.515504 -0.043747 0.583869 -16.705585 0.000000 0.000000 0.000000 -29.858560 4.485122 -3.727262 -43.708079 -9.625901 -2.327363 -19.746128 -45.511120 11.088412 0.000000 0.000000 0.000000 24.502247 -3.205887 -6.484338 47.145177 -9.260871 -7.170558 4.152848 17.499679 0.900653 0.000000 0.000000 0.000000 
-0.147710 0.917996 0.902330 0.971255 -2.241263 -2.160244 4.584480 -0.423452 -8.168670 2.801566 -3.488581 57.924048 -24.538886 -14.661265 40.038028 0.000000 0.000000 0.000000 11.215296 1.903148 -10.526881 1.537799 0.342832 16.033496 -0.594664 -2.509251 2.004031 0.000000 0.000000 0.000000 1.088873 -0.435247 8.988633 3.161440 -1.255851 -5.132858 -0.814854 -3.602329 4.136195 2.439489 -0.702545 -17.438190 0.000000 0.000000 0.000000 -29.695933 4.194891 -4.053470 -43.740304 -5.028846 -3.945168 -16.070468 -36.650219 7.266659 0.000000 0.000000 0.000000 25.848300 -1.676553 -5.216721 45.246541 -4.620638 -5.480256 4.755615 19.579548 1.189158 0.000000 0.000000 0.000000 
-0.162429 0.919514 0.958245 2.156410 -7.990665 -3.019894 3.532294 -0.881147 -18.523453 5.454378 -3.375018 62.810231 -18.247659 -13.467606 30.282997 0.000000 0.000000 0.000000 12.052208 0.586907 -4.029212 -1.427334 1.057203 13.783058 1.248200 3.483075 -0.414844 0.000000 0.000000 0.000000 0.463912 -0.368271 9.805802 2.648546 -1.159963 -4.038934 0.104820 0.669512 4.406738 2.751631 -0.683328 -18.610567 0.000000 0.000000 0.000000 -30.658238 5.329709 -5.297354 -43.365269 -0.407324 -5.389861 -11.978105 -29.069572 4.469324 0.000000 0.000000 0.000000 25.767555 -0.019280 -3.863011 43.949453 1.221180 -3.400780 4.793960 23.920001 1.515267 0.000000 0.000000 0.000000 
-0.177917 0.920849 1.013671 3.654101 -14.329739 -3.870229 2.106921 -1.010524 -25.912548 7.302503 -2.401157 50.266019 -9.203831 -9.483509 15.830407 0.000000 0.000000 0.000000 11.271175 -0.706228 2.577647 -4.024383 1.351991 10.595532 3.575662 10.176148 -1.120232 0.000000 0.000000 0.000000 -0.028514 -0.275657 10.488564 1.418158 -0.694384 -4.932226 0.746992 4.936434 6.121734 3.726932 -1.130982 -19.496922 0.000000 0.000000 0.000000 -30.623707 5.993966 -5.880989 -42.535064 5.698679 -7.322236 -8.152819 -23.690433 2.758126 0.000000 0.000000 0.000000 25.357143 1.178392 -2.840145 44.212379 6.552174 -1.785260 2.985769 28.848331 1.464654 0.000000 0.000000 0.000000 
-0.194608 0.921943 1.069713 5.577917 -21.902014 -3.913599 1.057034 -0.649699 -28.656925 6.170398 -1.199616 29.714327 -11.209496 -11.627695 19.214238 0.000000 0.000000 0.000000 9.263435 -1.094272 5.738325 -6.093728 1.914430 11.564009 5.350407 15.042214 -1.302276 0.000000 0.000000 0.000000 -1.115061 -0.098696 9.775654 0.038333 -0.178195 -3.816854 1.662276 8.632786 5.341598 2.443049 -0.438750 -19.507215 0.000000 0.000000 0.000000 -30.259279 7.801608 -6.872418 -42.603244 10.951916 -8.955475 -6.486608 -20.511894 2.080160 0.000000 0.000000 0.000000 24.176444 2.183704 -2.315612 45.302160 9.865561 -0.510964 1.472886 34.186772 1.232207 0.000000 0.000000 0.000000 
-0.214333 0.920002 1.126914 8.320804 -27.988419 -4.901945 -0.408172 -0.596719 -27.721270 4.792012 -0.778698 18.396896 -16.482566 -18.315236 20.830079 0.000000 0.000000 0.000000 6.349712 -1.080106 8.915604 -8.407138 2.701303 13.107745 6.323007 18.288615 -1.885483 0.000000 0.000000 0.000000 -1.834047 0.009672 8.781940 -2.372021 0.745522 -4.690784 3.273002 9.938862 7.496720 0.992224 0.084724 -19.967603 0.000000 0.000000 0.000000 -31.823541 9.635994 -7.296198 -41.531460 13.346379 -9.813191 -5.180622 -17.858702 1.681418 0.000000 0.000000 0.000000 22.705048 3.098481 -2.401517 47.341352 12.449278 0.519297 3.952976 37.505055 1.856016 0.000000 0.000000 0.000000 
-0.239166 0.916877 1.186825 10.322619 -33.789026 -6.547391 -0.631756 -0.485328 -23.693911 3.186637 -0.081573 16.700323 -15.193832 -18.376167 18.015669 0.000000 0.000000 0.000000 3.901507 -0.691017 10.410628 -8.109244 4.176641 19.515386 5.548975 14.788335 -1.073617 0.000000 0.000000 0.000000 -2.622167 0.066189 7.016907 -2.948090 1.049084 -3.307599 2.701301 10.787762 7.977972 2.167671 -0.916333 -19.219835 0.000000 0.000000 0.000000 -31.588061 8.631364 -5.638859 -45.016239 13.570941 -11.019797 0.218289 -17.931819 0.945940 0.000000 0.000000 0.000000 24.812835 4.921172 -2.468404 46.537353 12.604479 0.834472 4.739254 40.078248 1.994273 0.000000 0.000000 0.000000 
-0.270087 0.910631 1.247217 11.722075 -37.581293 -7.567500 -3.609908 -1.145539 -20.791399 6.179521 -0.284249 21.177197 -11.805225 -17.105416 10.680690 0.000000 0.000000 0.000000 0.950460 -0.180397 6.568372 -2.412921 7.020240 34.703762 4.830910 7.612970 3.360320 0.000000 0.000000 0.000000 -4.418460 0.178546 4.753394 -2.098435 0.998128 -0.348751 2.173090 8.877128 6.104545 1.202329 -0.868977 -16.155988 0.000000 0.000000 0.000000 -31.393474 9.601725 -5.024428 -46.278097 11.893744 -10.899310 -2.051741 -16.495011 1.249412 0.000000 0.000000 0.000000 24.305757 5.420889 -3.392718 48.627139 7.871681 -0.503066 9.496907 41.147016 3.170086 0.000000 0.000000 0.000000 
-0.304306 0.901762 1.299354 13.815008 -39.633272 -10.340388 -5.670907 -1.555630 -16.249927 6.961442 0.113779 24.001716 -9.589668 -16.363232 3.398676 0.000000 0.000000 0.000000 -2.283396 0.318939 -0.319870 9.077407 8.617124 54.263106 1.165516 -5.506243 11.528212 0.000000 0.000000 0.000000 -6.626989 0.529122 6.955653 -1.104659 0.459524 -0.914744 1.366037 5.019239 5.727092 2.588585 -2.123674 -17.892002 0.000000 0.000000 0.000000 -34.795512 8.918641 -2.608534 -42.736090 5.312804 -8.893052 -3.315665 -17.098737 1.543031 0.000000 0.000000 0.000000 24.047901 4.523638 -5.546187 50.881728 3.404098 -2.040184 11.901777 40.635149 3.220064 0.000000 0.000000 0.000000 
-0.341837 0.893810 1.340551 14.680593 -42.223658 -12.597808 -5.904818 -1.347213 -9.898546 6.780882 0.436647 23.398921 -7.545374 -14.537635 -3.030493 0.000000 0.000000 0.000000 -5.106819 1.033392 -9.236099 19.763627 6.412425 66.013399 -7.589732 -18.965741 7.118747 0.000000 0.000000 0.000000 -6.699475 0.726930 8.945967 -0.222960 0.180260 0.057388 0.132916 -0.074766 4.385898 0.228732 -1.309614 -18.861608 0.000000 0.000000 0.000000 -36.506464 7.821487 0.887123 -40.067531 -3.649984 -6.780286 -5.827173 -17.258193 1.942437 0.000000 0.000000 0.000000 24.199646 5.857991 -6.897778 50.352903 -1.285896 -3.282150 9.927886 35.056945 1.719365 0.000000 0.000000 0.000000 
-0.385666 0.894938 1.374057 14.107579 -45.802552 -13.794708 -4.333998 -0.520555 -2.424052 5.935616 0.496554 20.180376 -6.037608 -11.530223 -4.671196 0.000000 0.000000 0.000000 -6.509231 2.009701 -16.868617 21.221866 5.717403 61.847785 -14.553837 -32.128311 -13.228372 0.000000 0.000000 0.000000 -6.396198 0.909120 10.648107 0.875446 -0.396255 -0.916447 -0.577044 -3.748027 6.005846 -1.631101 -0.945708 -20.355410 0.000000 0.000000 0.000000 -35.967401 7.316908 3.912368 -39.197286 -12.847335 -5.007299 -2.832027 -24.000503 2.433113 0.000000 0.000000 0.000000 23.344762 5.070505 -8.797607 49.026775 -5.922633 -4.930391 11.944248 28.455834 1.673619 0.000000 0.000000 0.000000 
-0.438858 0.902968 1.402853 12.031895 -49.418250 -12.878752 -2.206291 0.730404 4.964949 6.424607 -0.260318 15.194752 -4.663320 -8.357833 -1.006720 0.000000 0.000000 0.000000 -6.947035 3.331690 -23.461973 12.181634 6.040989 44.242439 -13.801986 -25.985329 -10.343880 0.000000 0.000000 0.000000 -4.594874 0.727721 11.218947 0.730125 -0.236816 -0.512189 -0.414509 -7.192808 5.380983 -3.040845 -0.598141 -21.051889 0.000000 0.000000 0.000000 -34.983817 6.942269 6.008469 -38.145319 -21.129870 -2.939298 2.547724 -28.278233 1.894404 0.000000 0.000000 0.000000 20.641981 5.437155 -8.909004 48.829930 -9.064710 -6.247576 9.975447 24.497717 0.862010 0.000000 0.000000 0.000000 
-0.502510 0.913453 1.429347 8.907541 -51.291453 -9.737109 -0.148229 1.585394 8.924049 8.435819 -0.850369 14.360214 -3.521235 -6.377704 5.703302 0.000000 0.000000 0.000000 -6.205962 4.105432 -26.051928 5.537363 3.928663 28.791614 -9.134087 -21.136164 4.449315 0.000000 0.000000 0.000000 -3.452896 0.394924 9.451545 1.566784 0.100936 3.329077 1.355943 -10.150679 0.861228 -4.365685 0.498330 -17.634937 0.000000 0.000000 0.000000 -32.893673 8.734722 4.432263 -40.963607 -24.012500 -0.985007 5.912572 -34.045505 1.966059 0.000000 0.000000 0.000000 19.198827 3.452942 -9.478464 47.961302 -11.867113 -7.397500 7.318534 21.469499 0.347068 0.000000 0.000000 0.000000 
-0.576373 0.919836 1.455030 6.202335 -54.030607 -5.997820 3.495708 2.311898 11.632718 7.938698 -0.570254 15.044374 -4.079530 -7.159146 13.421306 0.000000 0.000000 0.000000 -3.104157 4.121108 -24.747148 3.404591 2.843492 21.993312 -6.356971 -20.136604 11.664191 0.000000 0.000000 0.000000 -1.574689 0.035833 6.817644 1.531459 0.329457 3.537450 1.580786 -8.946175 -0.913125 -4.222416 0.861037 -14.755490 0.000000 0.000000 0.000000 -31.920989 7.539460 5.044523 -40.491764 -23.157610 -0.971012 8.952555 -38.615679 1.452527 0.000000 0.000000 0.000000 16.910171 1.572743 -8.986707 48.966678 -15.854562 -9.871266 5.571850 19.486347 0.086973 0.000000 0.000000 0.000000 
-0.654330 0.919385 1.479575 4.293394 -56.282476 -4.854098 5.328707 2.039613 9.152875 10.500719 1.543637 28.191541 -5.979750 -8.143314 22.532543 0.000000 0.000000 0.000000 0.965212 3.035444 -19.619916 2.320105 2.971278 21.208131 -6.789196 -18.356161 7.869142 0.000000 0.000000 0.000000 -0.438901 -0.078002 6.023205 -0.572147 1.210780 2.841516 3.642613 -8.896631 -0.970794 -5.589007 1.799877 -13.487229 0.000000 0.000000 0.000000 -31.619724 9.349338 4.321339 -42.901274 -23.621802 -0.662869 7.720169 -39.924556 2.460138 0.000000 0.000000 0.000000 15.707101 1.173728 -8.931723 48.506202 -16.770953 -10.378431 4.674693 17.400083 -0.078323 0.000000 0.000000 0.000000 
-0.727676 0.916735 1.501562 1.954640 -59.948814 -4.096425 5.087655 1.317860 3.008474 20.523809 3.753537 45.325841 -12.630784 -11.904085 30.773140 0.000000 0.000000 0.000000 4.456312 1.737038 -13.690603 2.366817 3.295225 21.879611 -7.461066 -14.685194 2.048130 0.000000 0.000000 0.000000 1.463000 -0.188814 6.832008 -2.441179 1.710040 0.842392 4.712368 -6.951329 1.037408 -5.630544 1.742184 -13.627970 0.000000 0.000000 0.000000 -34.268080 11.384222 3.870869 -41.308833 -21.953905 -2.251821 7.125842 -40.312045 2.793592 0.000000 0.000000 0.000000 16.064281 1.698283 -9.185101 48.496768 -15.237792 -9.715326 3.104543 16.460392 -0.269556 0.000000 0.000000 0.000000 
-0.794748 0.917335 1.522066 0.116525 -65.266701 -2.766256 3.137984 0.731843 -6.383547 28.960844 5.626574 58.070317 -13.109364 -10.842691 31.404506 0.000000 0.000000 0.000000 7.277211 0.632557 -7.922412 0.146612 3.456908 20.515445 -6.486390 -8.713148 -1.459485 0.000000 0.000000 0.000000 2.739838 -0.231731 7.588265 -4.408692 2.746896 0.675915 5.436228 -2.634685 1.283043 -5.868828 2.000492 -13.645822 0.000000 0.000000 0.000000 -35.494340 11.911877 3.058669 -40.509096 -18.334964 -3.462702 4.474423 -38.773479 3.164152 0.000000 0.000000 0.000000 17.919783 1.763366 -9.841883 46.826008 -13.203015 -8.070367 4.063403 18.450927 -0.116139 0.000000 0.000000 0.000000 
-0.858959 0.922224 1.542226 -0.048600 -71.098477 -2.700601 1.950303 1.864205 -17.105413 30.342394 6.952831 60.973062 -10.822577 -15.351885 10.511131 0.000000 0.000000 0.000000 7.449102 -0.225969 -1.165861 -1.573689 2.668998 16.507925 -3.656808 -1.608862 -2.252233 0.000000 0.000000 0.000000 1.377623 -0.051331 9.083913 -5.386380 2.771911 -1.233266 7.522759 2.073451 2.933588 -5.865325 1.699834 -15.498932 0.000000 0.000000 0.000000 -35.394404 14.030596 0.884782 -42.032084 -12.391844 -5.091574 -1.786151 -37.163452 5.009137 0.000000 0.000000 0.000000 17.576800 2.171622 -9.321707 47.098989 -7.158608 -5.844331 7.264158 20.947858 0.339377 0.000000 0.000000 0.000000 
-0.923802 0.924748 1.563341 -0.437507 -75.047236 -2.099626 0.905013 3.972579 -24.984232 16.079319 8.349942 45.746497 -3.950396 -5.753250 -0.810533 0.000000 0.000000 0.000000 7.015466 -0.210127 5.262360 -2.676890 1.781549 12.373509 -0.544345 2.537818 -0.855338 0.000000 0.000000 0.000000 1.719009 -0.049477 9.262193 -6.066913 3.374985 -0.737356 7.110846 5.997852 2.656741 -6.458434 2.070001 -16.307321 0.000000 0.000000 0.000000 -33.687745 14.218483 -0.532091 -42.740301 -7.417716 -5.971117 -6.146723 -33.605149 5.438749 0.000000 0.000000 0.000000 17.775112 2.600675 -8.785024 48.588865 -2.825185 -4.405970 9.370123 26.844090 0.747904 0.000000 0.000000 0.000000 
-0.991208 0.921311 1.585407 1.452372 -78.184486 -3.419116 -0.386771 5.395359 -29.462684 1.744340 3.914324 20.345332 0.249560 -0.703570 12.318079 0.000000 0.000000 0.000000 5.511524 0.780958 11.547856 -2.706363 1.072770 8.843205 1.505501 5.022327 -0.117460 0.000000 0.000000 0.000000 0.697237 0.059416 9.151960 -7.338367 3.598468 -2.043773 8.350990 8.359457 4.591718 -7.169802 2.004408 -19.293399 0.000000 0.000000 0.000000 -32.011611 16.170490 -2.477190 -43.925279 -4.172286 -6.642413 -10.086615 -28.909123 5.586605 0.000000 0.000000 0.000000 17.398092 4.371320 -7.875251 49.187461 1.567730 -2.819783 13.087564 31.216220 1.592431 0.000000 0.000000 0.000000 
-1.062992 0.915213 1.609336 -1.063467 -79.128544 -0.615930 -1.360175 5.555743 -30.666947 -2.461489 1.947621 7.564458 0.005903 -1.989183 27.498283 0.000000 0.000000 0.000000 5.000852 1.872092 16.080497 -2.102828 1.090297 9.320796 4.349102 6.060752 2.593445 0.000000 0.000000 0.000000 1.507979 -0.107910 7.769428 -7.741754 4.047732 -1.462364 7.557314 9.032001 4.904549 -8.941619 3.361711 -17.342812 0.000000 0.000000 0.000000 -32.324274 16.383659 -2.633285 -43.836240 -1.975839 -7.408090 -7.892026 -26.968415 4.550751 0.000000 0.000000 0.000000 18.033327 5.243279 -7.735222 47.980371 4.156862 -1.572858 18.697641 33.723402 3.197981 0.000000 0.000000 0.000000 
-1.141362 0.907875 1.637110 0.823840 -79.566614 -2.279515 -2.664567 4.842439 -30.225568 -5.253011 2.866504 6.811024 0.914026 -1.154227 28.774304 0.000000 0.000000 0.000000 1.761044 3.596686 19.026434 0.087734 1.706815 13.753120 10.863238 11.439890 7.314448 0.000000 0.000000 0.000000 0.770765 -0.118700 6.292407 -7.591784 4.267273 -0.664873 7.525468 9.343975 5.954312 -7.808860 2.678367 -16.488102 0.000000 0.000000 0.000000 -30.337359 16.371553 -2.790654 -45.965461 -1.451903 -7.434319 -6.737719 -27.508800 4.495908 0.000000 0.000000 0.000000 16.806646 5.088061 -7.273759 50.058627 5.363139 -1.704485 21.438787 36.806854 4.042469 0.000000 0.000000 0.000000 
-1.223935 0.902958 1.669142 -0.212172 -78.208761 -2.175662 -5.327151 2.622926 -27.421362 -2.990816 3.265790 11.751461 1.925358 -0.040476 20.364848 0.000000 0.000000 0.000000 -0.025442 3.319697 16.895989 3.691183 5.003734 27.669979 15.276832 7.845091 17.293566 0.000000 0.000000 0.000000 0.116510 -0.100576 5.917610 -7.713514 3.625765 -2.533224 9.137811 8.240790 7.825740 -8.845631 3.490118 -15.308626 0.000000 0.000000 0.000000 -30.957865 16.398793 -2.298626 -44.807319 -2.160608 -7.364692 -7.164840 -27.257588 4.535992 0.000000 0.000000 0.000000 17.615076 5.683802 -7.745840 48.827783 3.178142 -2.247592 23.549089 37.853800 4.663872 0.000000 0.000000 0.000000 
-1.302774 0.898853 1.699781 -1.839917 -75.609392 -1.132277 -7.862497 0.944978 -25.060601 0.955454 3.734964 18.551322 0.567013 0.013621 8.778793 0.000000 0.000000 0.000000 -2.548860 1.750947 8.441209 14.851868 9.843192 48.431784 12.570162 0.104873 25.124089 0.000000 0.000000 0.000000 -0.891687 -0.052661 4.952528 -6.910453 4.026610 -0.003741 9.178001 4.526545 5.589026 -9.327362 3.915555 -14.409367 0.000000 0.000000 0.000000 -30.358947 16.115547 -1.925984 -44.713349 -2.263676 -7.100742 -8.541183 -29.440270 5.442898 0.000000 0.000000 0.000000 17.843291 5.342773 -8.226926 48.302213 -0.172296 -3.368789 23.304033 38.280156 4.605541 0.000000 0.000000 0.000000 
-1.372887 0.897648 1.724830 -1.431569 -72.969064 -2.405725 -9.827087 -0.523558 -20.949701 3.760252 3.930905 22.436339 -1.123197 -0.486305 0.102781 0.000000 0.000000 0.000000 -4.526574 0.974731 -3.031050 30.291430 9.209603 67.030743 1.609683 -11.743093 28.848615 0.000000 0.000000 0.000000 -1.212423 0.040711 6.836148 -6.827795 3.916817 0.056915 8.081938 2.968648 5.251218 -9.569852 4.146539 -14.360640 0.000000 0.000000 0.000000 -31.976613 13.911043 0.222390 -42.186854 -7.776395 -5.940969 -5.936839 -32.839874 5.390664 0.000000 0.000000 0.000000 21.485549 6.170809 -9.637708 45.894701 -2.984768 -3.203568 19.721547 36.391158 3.730876 0.000000 0.000000 0.000000 
-1.436082 0.901482 1.745912 -1.073429 -68.717626 -4.336256 -10.645525 -1.458629 -14.705748 4.351277 3.776768 23.261573 -2.857145 -2.460392 -4.978625 0.000000 0.000000 0.000000 -5.751526 2.110801 -15.329315 38.627167 4.578614 74.487548 -11.247158 -25.399211 26.523726 0.000000 0.000000 0.000000 -1.298646 0.187116 8.998442 -5.814970 3.331990 0.298784 7.216868 0.274680 4.722188 -10.097208 4.716843 -13.655414 0.000000 0.000000 0.000000 -31.704325 11.967972 1.837367 -41.701488 -12.828956 -4.546410 -2.263740 -35.405043 4.781445 0.000000 0.000000 0.000000 21.757544 6.620870 -9.618888 45.243288 -5.345314 -3.817927 17.156154 33.403888 2.821151 0.000000 0.000000 0.000000 
-1.497527 0.908957 1.764956 -3.481275 -63.064009 -3.793759 -9.709979 -1.449019 -8.926814 5.378861 3.240795 24.492764 -4.861452 -6.995700 -6.931761 0.000000 0.000000 0.000000 -7.582251 3.860102 -23.739320 33.026503 4.748414 68.517298 -16.776905 -34.742204 11.918550 0.000000 0.000000 0.000000 -0.941424 0.210707 10.403305 -4.335086 2.764669 1.403694 6.611131 -2.556472 4.920966 -9.954113 4.465528 -14.960369 0.000000 0.000000 0.000000 -31.375588 11.184959 1.935784 -41.708202 -17.855401 -2.773165 -0.404776 -39.728838 4.966110 0.000000 0.000000 0.000000 23.761221 6.215345 -10.399731 43.588780 -7.354725 -4.061697 15.562133 30.287633 2.497324 0.000000 0.000000 0.000000 
-1.559112 0.916134 1.782800 -4.675106 -57.463287 -4.194780 -8.387244 -0.818799 -2.919812 6.707076 2.033281 24.092340 -6.625811 -11.749619 -7.224044 0.000000 0.000000 0.000000 -7.575765 4.513841 -26.980973 15.520952 8.500024 53.298742 -9.862503 -24.112473 7.230775 0.000000 0.000000 0.000000 -0.331122 0.151263 10.994736 -3.670880 2.607116 2.659409 6.890740 -6.457468 4.005573 -10.619900 4.921218 -14.927109 0.000000 0.000000 0.000000 -32.293142 11.670353 1.969250 -40.434372 -21.874051 -1.792438 0.661170 -43.085937 5.356015 0.000000 0.000000 0.000000 23.204681 6.581782 -10.146913 42.846604 -9.521472 -4.631590 14.054059 26.986001 1.932448 0.000000 0.000000 0.000000 
-1.622049 0.918683 1.801099 -4.722492 -50.900941 -3.659382 -7.210767 -0.272708 0.214270 9.385855 0.412993 24.231590 -8.731066 -17.592033 -6.703039 0.000000 0.000000 0.000000 -10.125065 4.209245 -27.825579 2.129106 5.751750 32.365775 -0.537154 -10.738134 11.244836 0.000000 0.000000 0.000000 -1.637576 0.135353 9.549047 -1.927277 1.455125 2.105878 6.954354 -7.842837 5.520739 -10.183635 4.058219 -17.832404 0.000000 0.000000 0.000000 -30.811866 10.732811 2.087395 -41.968139 -25.625880 -0.101863 0.252109 -46.901404 6.489804 0.000000 0.000000 0.000000 21.976033 3.703160 -10.435679 43.653135 -10.926615 -5.847092 15.170655 24.167923 1.958980 0.000000 0.000000 0.000000 
-1.687604 0.915851 1.820734 -5.426776 -45.864976 -2.736143 -5.522848 0.603636 4.652295 12.922447 -1.504153 21.852247 -9.895113 -21.681983 -7.449859 0.000000 0.000000 0.000000 -11.371304 3.573803 -26.636799 -2.430710 1.835921 13.828054 8.795582 -0.567220 19.302381 0.000000 0.000000 0.000000 -1.709321 0.056743 8.431770 0.105246 0.307578 1.575369 5.417170 -8.097211 6.049330 -12.351082 5.917303 -16.408408 0.000000 0.000000 0.000000 -31.516128 11.528728 0.848487 -42.174887 -27.148958 0.501679 -3.899246 -50.926453 9.322177 0.000000 0.000000 0.000000 22.841482 2.929207 -10.543362 42.795785 -13.198370 -6.549954 13.351231 22.576725 1.695085 0.000000 0.000000 0.000000 
-1.757749 0.907074 1.841874 -5.608684 -38.226915 -1.889199 -1.620264 1.072014 7.273674 15.527841 -2.904681 20.518795 -12.405557 -28.883406 -6.994208 0.000000 0.000000 0.000000 -14.548988 2.806069 -26.067221 -3.267351 0.768253 6.211262 16.936554 8.912854 27.346648 0.000000 0.000000 0.000000 -1.507764 -0.065119 5.264519 0.244900 0.427336 3.880552 5.461214 -9.480814 3.896742 -12.822800 7.082738 -13.471140 0.000000 0.000000 0.000000 -31.508263 10.051654 0.938652 -42.547364 -28.285190 1.367140 -8.588644 -54.387293 12.279185 0.000000 0.000000 0.000000 23.171023 -0.297223 -11.289147 43.510574 -14.830952 -7.528153 11.834842 20.584619 1.437855 0.000000 0.000000 0.000000 
-1.832096 0.897899 1.863467 -5.718531 -31.290884 -1.620035 3.975805 1.347923 9.960143 16.368171 -3.684719 19.937917 -13.730688 -33.052465 -6.300755 0.000000 0.000000 0.000000 -16.598423 1.955034 -23.680810 -3.002666 1.088139 9.144357 20.666692 16.540795 28.094801 0.000000 0.000000 0.000000 -1.928615 -0.055178 4.066149 1.023041 -0.233832 2.522952 5.405023 -9.165004 4.227257 -12.086004 7.119092 -12.025451 0.000000 0.000000 0.000000 -31.689043 9.342790 0.119230 -41.675014 -27.323037 1.268299 -16.247546 -57.601914 16.836452 0.000000 0.000000 0.000000 25.205822 -1.585408 -11.796681 41.200991 -16.153899 -7.417805 10.660767 19.600708 1.376579 0.000000 0.000000 0.000000 
-1.905816 0.892682 1.882528 -6.896593 -24.631230 -0.124312 8.215063 0.865131 7.325268 20.073102 -5.433156 24.516103 -15.319346 -32.769862 -1.028219 0.000000 0.000000 0.000000 -15.358457 1.428294 -21.340108 -1.907523 1.275229 12.514164 17.633203 17.327159 22.646672 0.000000 0.000000 0.000000 -1.239145 -0.080871 3.357912 -0.533787 0.458932 2.672627 6.006905 -9.073157 3.214695 -11.619463 6.827279 -12.787114 0.000000 0.000000 0.000000 -30.996316 9.450768 -1.380880 -42.966033 -26.715360 1.880594 -20.990250 -56.739058 18.609022 0.000000 0.000000 0.000000 27.577995 -3.637855 -12.867754 41.895982 -15.364614 -7.255222 7.163389 16.922826 0.857296 0.000000 0.000000 0.000000 
-1.971148 0.894777 1.897781 -9.091609 -19.129632 1.058580 13.039478 0.624320 2.868517 22.156865 -7.694147 32.905305 -14.495661 -25.781113 5.773425 0.000000 0.000000 0.000000 -12.011736 1.264956 -19.716567 -1.631048 1.568667 16.164410 14.921199 18.861672 16.565425 0.000000 0.000000 0.000000 1.557812 -0.199322 3.468250 -1.496526 0.801242 1.347377 5.773789 -7.767592 4.524638 -11.793231 6.907089 -14.931721 0.000000 0.000000 0.000000 -30.804350 9.063928 -2.496087 -44.350947 -24.840350 1.707851 -20.265762 -56.021692 17.192548 0.000000 0.000000 0.000000 27.473109 -3.972303 -11.682499 44.058064 -12.768474 -7.141506 6.345904 14.224557 0.725500 0.000000 0.000000 0.000000 
-2.022698 0.900736 1.909676 -9.283984 -12.901940 0.829487 12.980708 0.446112 -3.903895 21.924825 -10.338672 43.424612 -8.278599 -12.403694 8.230027 0.000000 0.000000 0.000000 -10.732660 0.951795 -17.167857 -0.197361 1.085283 16.229561 14.249860 18.845619 15.894441 0.000000 0.000000 0.000000 1.877032 -0.309124 5.350018 -2.156343 1.068287 0.737053 6.998699 -6.294058 4.476614 -12.433685 7.242989 -18.022841 0.000000 0.000000 0.000000 -34.528076 7.911356 -3.334488 -41.323162 -23.743382 1.108803 -17.703162 -50.936923 12.921845 0.000000 0.000000 0.000000 26.168004 -3.839613 -9.730143 45.132177 -9.657219 -6.556569 6.974599 13.639161 0.829327 0.000000 0.000000 0.000000 
-2.059941 0.909413 1.921856 -8.193612 -5.709958 0.091019 10.707886 0.111635 -11.559298 15.708766 -10.410157 52.027460 -1.673291 -2.968324 1.237634 0.000000 0.000000 0.000000 -10.702387 0.540797 -13.262538 0.632526 0.662068 16.085527 11.696052 17.180107 12.805177 0.000000 0.000000 0.000000 1.753436 -0.385100 6.729628 -2.227181 1.079865 0.556021 6.172644 -4.606542 5.034406 -11.620501 7.192380 -18.617870 0.000000 0.000000 0.000000 -34.909785 6.050269 -4.283832 -42.260079 -21.013583 0.862079 -15.296636 -44.435024 9.223564 0.000000 0.000000 0.000000 26.946350 -3.408663 -7.847545 46.075702 -6.002695 -5.793875 5.360797 13.948056 0.811513 0.000000 0.000000 0.000000 
-2.086844 0.920495 1.934645 -7.009798 1.100719 -0.434655 8.124784 -0.481284 -16.929341 6.265712 -6.711210 53.709984 2.531197 3.138537 -5.509194 0.000000 0.000000 0.000000 -10.522564 0.263165 -8.942551 1.304018 0.215291 13.825104 9.043722 13.114478 11.987860 0.000000 0.000000 0.000000 1.573003 -0.506474 8.673340 -2.469979 1.183845 0.343493 5.704250 -1.662434 4.250962 -10.841269 7.326732 -18.073752 0.000000 0.000000 0.000000 -34.851124 3.310080 -5.169082 -41.594429 -15.554598 -0.089807 -17.161118 -38.338767 7.713381 0.000000 0.000000 0.000000 26.912750 -3.356944 -5.519042 46.101692 -3.422597 -5.447944 3.433303 15.391150 0.839290 0.000000 0.000000 0.000000 
-2.105777 0.929049 1.948117 -5.665095 7.912054 0.029731 5.456506 -1.355519 -21.354171 -3.002704 -2.323634 50.049615 5.952241 10.604163 -6.243076 0.000000 0.000000 0.000000 -10.594471 0.048234 -5.743518 1.531902 -0.038181 11.820739 6.691803 9.453533 11.605683 0.000000 0.000000 0.000000 1.131961 -0.507853 8.638179 -2.687420 1.248703 0.907190 5.051509 0.960496 3.341365 -10.272915 7.494076 -17.264332 0.000000 0.000000 0.000000 -34.648151 2.931764 -7.578588 -41.570974 -9.274783 -1.298040 -20.018806 -32.790050 6.878841 0.000000 0.000000 0.000000 27.115300 -2.986785 -3.156313 45.348541 -0.340652 -4.840587 2.190337 15.588875 0.840767 0.000000 0.000000 0.000000 
-2.117801 0.931719 1.962094 -4.618244 13.768799 0.324818 4.054451 -1.982072 -23.026801 -8.564748 -0.036538 41.578755 7.523961 14.539512 -3.557721 0.000000 0.000000 0.000000 -10.271936 -0.128596 -2.697672 1.395558 -0.130027 9.754149 4.519608 5.932093 11.550267 0.000000 0.000000 0.000000 0.681763 -0.570065 9.621835 -2.001495 0.803815 2.166327 2.781646 4.501577 0.993705 -7.944149 6.593458 -16.055398 0.000000 0.000000 0.000000 -32.535253 2.846054 -9.893541 -41.804076 -4.036911 -2.101885 -19.227771 -28.151855 5.173463 0.000000 0.000000 0.000000 28.553623 -4.195744 -1.661253 43.980328 3.249016 -4.095875 2.606356 16.000310 1.037077 0.000000 0.000000 0.000000 
-2.123630 0.930997 1.976702 -4.235130 19.753327 0.415247 4.311260 -2.365965 -24.311077 -10.940193 0.460649 33.333130 9.483485 18.586335 -2.034870 0.000000 0.000000 0.000000 -9.234228 -0.318600 0.506482 1.708649 -0.289072 8.034511 1.414611 0.710687 10.944226 0.000000 0.000000 0.000000 0.355152 -0.554362 9.287962 -1.470703 0.468154 2.182276 2.127626 6.784307 1.086686 -7.796884 6.787662 -13.731266 0.000000 0.000000 0.000000 -32.167791 3.092401 -12.066326 -41.132588 0.860857 -3.138351 -16.731205 -24.506674 3.715012 0.000000 0.000000 0.000000 28.013896 -3.861545 0.565604 42.471562 6.056104 -3.714035 2.389650 16.070806 1.085634 0.000000 0.000000 0.000000 
-2.122631 0.926891 1.991006 -4.230720 25.649859 0.325574 5.888173 -2.512702 -24.962205 -9.070923 -0.114398 24.304155 11.324388 22.239868 1.369162 0.000000 0.000000 0.000000 -8.647668 -0.584699 3.169681 2.455282 -0.545508 7.094629 -0.587398 -2.707497 11.291691 0.000000 0.000000 0.000000 0.689748 -0.650394 9.611523 -1.093684 0.161807 2.501641 -0.042872 8.840429 0.138223 -6.302213 6.027406 -11.785662 0.000000 0.000000 0.000000 -29.659476 3.456179 -13.363282 -40.814686 4.241311 -3.830950 -13.176244 -22.431077 2.453485 0.000000 0.000000 0.000000 28.657414 -3.931022 2.593284 40.534038 9.219619 -3.306998 2.853993 18.553313 1.448707 0.000000 0.000000 0.000000 
-2.113338 0.922318 2.004478 -4.461852 29.080087 -0.107112 8.876562 -2.442247 -25.818945 -6.019185 -0.536535 18.984077 12.653389 25.338504 9.075976 0.000000 0.000000 0.000000 -7.689680 -0.842489 5.782145 1.952505 -0.492113 7.038713 -1.750967 -4.710423 9.683012 0.000000 0.000000 0.000000 0.701683 -0.732452 10.203088 -1.647223 0.593807 0.744390 -0.342675 11.172691 1.592209 -5.436637 5.861352 -12.165625 0.000000 0.000000 0.000000 -28.601825 4.578876 -15.039946 -39.839528 6.870886 -4.474184 -11.273479 -21.699875 1.869883 0.000000 0.000000 0.000000 30.606449 -4.955974 3.993453 36.953204 14.022575 -2.813311 1.120666 21.792373 1.588750 0.000000 0.000000 0.000000 
-2.094524 0.917442 2.016928 -4.558778 34.315033 -1.102555 9.937994 -2.617769 -25.802670 -4.194189 -0.764525 15.931692 13.125098 26.601892 16.266960 0.000000 0.000000 0.000000 -7.692764 -1.359004 9.080010 1.893724 -0.579068 7.079579 -2.472620 -5.785963 11.597947 0.000000 0.000000 0.000000 -0.199738 -0.747647 10.757795 -0.578135 0.163674 0.024153 -1.114830 12.812127 3.257752 -2.354783 4.542747 -12.502256 0.000000 0.000000 0.000000 -27.343173 4.418900 -15.941416 -40.608317 8.681160 -5.140285 -7.909892 -21.708294 1.036794 0.000000 0.000000 0.000000 29.838414 -3.428462 6.775365 36.039153 16.581952 -2.560773 -1.592546 26.878438 1.602214 0.000000 0.000000 0.000000 
-2.061620 0.913019 2.027245 -4.607010 37.222700 -1.546431 10.979912 -2.653760 -25.471494 -6.422202 -0.540864 15.912025 13.886545 27.606179 19.244266 0.000000 0.000000 0.000000 -8.380927 -1.742645 11.060127 0.856862 -0.430686 8.142576 -2.261687 -4.909653 15.140238 0.000000 0.000000 0.000000 -0.934436 -0.712755 10.877613 -1.001871 0.463079 -0.898462 0.180332 15.140124 3.928605 -0.514351 3.749887 -12.476450 0.000000 0.000000 0.000000 -27.129611 5.133094 -17.368183 -39.568569 11.019507 -5.700812 -7.629964 -19.723103 0.835048 0.000000 0.000000 0.000000 29.262737 -4.489448 7.190988 34.949417 20.901400 -1.784495 -3.243336 29.933719 1.683200 0.000000 0.000000 0.000000 
-2.010964 0.910941 2.034474 -4.227196 43.916086 -1.169003 8.881541 -3.178042 -25.411448 -9.945813 -0.528812 16.665414 11.416141 24.773042 15.977653 0.000000 0.000000 0.000000 -8.769603 -2.482360 13.913822 -0.394387 -0.394928 10.093769 -2.961182 -5.180671 19.823271 0.000000 0.000000 0.000000 -0.881507 -0.641998 9.749006 -0.088547 0.067954 -1.295027 0.419313 14.758721 5.127883 0.653080 3.314819 -12.370297 0.000000 0.000000 0.000000 -28.889144 4.034101 -19.270997 -38.729093 13.302896 -5.797800 -5.573034 -19.281488 0.424065 0.000000 0.000000 0.000000 27.125405 -5.345232 6.946282 35.805170 19.895433 -1.859271 -4.066677 34.403590 2.135129 0.000000 0.000000 0.000000 
-1.946500 0.913691 2.038672 -2.512768 51.549374 0.154394 2.342295 -3.241339 -22.201899 -8.630364 -1.021587 15.875219 8.371444 18.962950 9.158178 0.000000 0.000000 0.000000 -10.617524 -3.031280 14.109244 -1.673477 -1.406949 17.838647 -0.669972 -0.690217 27.651158 0.000000 0.000000 0.000000 -2.161697 -0.411409 7.963052 2.815206 -1.189055 -1.777988 -0.687117 14.743806 4.625630 1.020456 2.321085 -9.062658 0.000000 0.000000 0.000000 -26.713380 4.661821 -19.798316 -41.176674 15.324507 -7.221415 -8.881432 -18.348706 0.707009 0.000000 0.000000 0.000000 26.786764 -6.939539 7.251181 37.042491 17.646162 -2.723086 -3.379681 36.254922 2.893195 0.000000 0.000000 0.000000 
-1.879913 0.919691 2.040512 -1.173275 59.280141 0.512679 -3.506556 -2.188512 -15.925401 -6.037247 -1.195849 13.120372 4.744054 10.614842 4.617940 0.000000 0.000000 0.000000 -10.460736 -2.847986 9.562696 -8.380397 -3.986265 33.145104 7.397282 7.090155 38.116902 0.000000 0.000000 0.000000 -1.969124 -0.520677 8.676509 3.591344 -1.021709 -4.151837 -1.013055 12.851984 5.609255 0.618317 2.826606 -9.426752 0.000000 0.000000 0.000000 -26.597263 2.854840 -20.453220 -42.197301 15.551076 -7.234314 -13.392790 -18.854454 1.219999 0.000000 0.000000 0.000000 26.263846 -9.631870 6.129616 40.198422 14.818854 -3.458459 -1.391317 34.487937 3.465869 0.000000 0.000000 0.000000 
-1.820884 0.926806 2.043941 -1.717678 67.467614 -1.185652 -6.833695 -0.747802 -8.538730 -2.814239 -1.012096 9.507097 0.282622 1.585545 2.785065 0.000000 0.000000 0.000000 -8.081426 -2.079015 1.188304 -19.545874 -7.957332 50.472567 15.754596 9.667572 47.300241 0.000000 0.000000 0.000000 -0.798618 -0.867935 10.430514 4.908096 -1.712318 -3.815781 -2.578811 10.165081 4.440350 1.031176 2.500969 -9.191896 0.000000 0.000000 0.000000 -26.204569 -0.037542 -19.526718 -44.188841 12.903390 -6.448971 -17.299276 -20.777343 1.841735 0.000000 0.000000 0.000000 23.814786 -11.496409 3.959318 46.733593 10.975532 -3.290475 -0.192953 30.819046 3.346994 0.000000 0.000000 0.000000 
-1.767431 0.932706 2.051386 -5.355717 75.706397 -6.111528 -7.139424 0.163246 -0.192330 -0.847954 -0.589758 4.367951 -4.751837 -6.201448 3.158513 0.000000 0.000000 0.000000 -3.793954 -1.483778 -8.750377 -32.757846 -9.895282 65.323109 18.677903 11.201254 46.570023 0.000000 0.000000 0.000000 0.035386 -1.198435 11.606408 6.203757 -2.191723 -4.348405 -3.427222 5.352998 4.713431 1.276793 2.833773 -10.284363 0.000000 0.000000 0.000000 -24.753573 -2.638445 -17.644374 -47.122116 8.774259 -5.555887 -20.778385 -23.931234 2.508481 0.000000 0.000000 0.000000 25.025441 -12.994645 3.458200 48.717328 10.000919 -3.831059 2.006025 23.756605 2.505309 0.000000 0.000000 0.000000 
-1.714961 0.935999 2.061660 -20.609227 81.172897 -21.672952 -5.633042 -0.159391 5.277051 1.325559 -0.407420 2.207626 -7.867581 -10.690058 3.591421 0.000000 0.000000 0.000000 0.807644 -1.951146 -18.515508 -35.389675 -10.393902 66.503610 16.059911 18.815948 26.029505 0.000000 0.000000 0.000000 0.671263 -1.456294 12.275582 7.492689 -2.445093 -5.473720 -4.091419 1.155543 5.071115 1.756207 2.335928 -9.349547 0.000000 0.000000 0.000000 -23.513691 -4.290017 -16.139707 -49.769348 2.892031 -3.769131 -22.444638 -25.960397 2.832689 0.000000 0.000000 0.000000 23.927817 -12.896687 2.903712 51.308325 5.080611 -4.943770 4.799720 20.274878 2.240583 0.000000 0.000000 0.000000 
-1.661645 0.935505 2.072201 -47.096822 83.703127 -49.168241 -3.577100 -1.523422 11.172541 1.258852 -0.340198 0.486854 -8.275897 -10.941036 3.536758 0.000000 0.000000 0.000000 4.136042 -3.445448 -26.053080 -25.700163 -12.369323 57.863682 12.492777 21.631505 4.804272 0.000000 0.000000 0.000000 2.039606 -2.262742 14.496316 6.957091 -1.865105 -6.396964 -4.219938 -2.252219 4.904729 2.837577 1.518661 -8.620527 0.000000 0.000000 0.000000 -21.539910 -6.070348 -13.466902 -49.502492 -1.991704 -2.264947 -26.944077 -30.031239 4.298001 0.000000 0.000000 0.000000 23.692049 -14.012173 1.540827 53.194705 1.668794 -5.887493 6.717620 17.391791 2.046010 0.000000 0.000000 0.000000 
-1.606671 0.929189 2.081216 -65.030165 83.952191 -67.375699 -2.937380 -3.259979 16.458431 1.419432 -0.281195 -1.233612 -6.829282 -9.637109 2.452245 0.000000 0.000000 0.000000 6.661952 -4.247199 -29.997104 -8.495527 -9.422397 35.790788 9.183251 14.577122 2.665885 0.000000 0.000000 0.000000 2.767877 -2.608775 15.111535 6.081431 -1.448866 -6.502606 -3.386584 -5.237577 5.674465 2.227585 2.413714 -9.694895 0.000000 0.000000 0.000000 -22.031225 -7.298052 -12.847934 -48.589908 -6.331324 -0.204365 -27.560871 -34.039393 5.124073 0.000000 0.000000 0.000000 22.312054 -14.443265 0.453421 55.246138 -2.199020 -7.076322 6.611903 17.751131 2.173635 0.000000 0.000000 0.000000 
-1.547941 0.920332 2.087652 -69.859370 83.360530 -72.172013 -4.159883 -4.207475 19.832935 2.476260 -0.222029 0.199329 -2.592790 -4.195642 1.779044 0.000000 0.000000 0.000000 8.657134 -3.877094 -30.802231 1.832214 -4.861178 16.263860 1.573171 5.469968 22.858853 0.000000 0.000000 0.000000 4.088821 -2.855401 15.093259 5.662300 -1.337746 -6.272868 -3.294213 -7.333393 4.810852 1.618335 2.477091 -8.854456 0.000000 0.000000 0.000000 -21.572349 -8.011044 -11.425952 -48.670896 -9.051491 0.672809 -28.108535 -36.748128 5.797533 0.000000 0.000000 0.000000 21.947866 -14.496877 -0.343623 56.180372 -3.175752 -7.203637 3.906216 16.193301 1.543773 0.000000 0.000000 0.000000 
-1.481682 0.910417 2.090310 -72.864811 83.338593 -74.749616 -4.237336 -5.338865 22.705224 -0.663844 -0.344526 1.954853 0.885672 2.183095 4.164350 0.000000 0.000000 0.000000 9.796366 -3.338935 -30.434863 3.584910 -4.583985 13.187893 -3.173756 0.688805 29.018280 0.000000 0.000000 0.000000 5.402452 -2.712633 13.772941 5.118153 -1.287019 -5.806007 -3.339974 -8.495903 4.320122 1.236661 2.565989 -8.245719 0.000000 0.000000 0.000000 -22.511990 -9.052066 -11.236497 -49.661601 -10.083102 1.277531 -26.935257 -38.020635 5.669730 0.000000 0.000000 0.000000 22.096052 -15.877049 -1.600802 55.029035 -3.743181 -7.299316 2.787524 16.522396 1.524695 0.000000 0.000000 0.000000 
-1.408031 0.904114 2.091118 -75.195195 83.658554 -77.091160 -3.039299 -5.762637 22.697252 -3.533569 -0.985580 9.442766 -3.894656 2.090165 10.040642 0.000000 0.000000 0.000000 10.903680 -3.031355 -30.283259 0.056092 -5.821628 20.187178 -3.857829 -0.797110 22.457792 0.000000 0.000000 0.000000 6.495162 -2.412684 12.149472 5.591181 -1.737422 -5.152139 -4.248792 -8.980295 2.606158 -1.654535 3.418477 -5.733862 0.000000 0.000000 0.000000 -24.287884 -8.004537 -12.524744 -49.002279 -6.607106 0.378681 -28.079273 -37.200710 6.072875 0.000000 0.000000 0.000000 22.042112 -16.386011 -2.189302 52.894256 -5.183048 -7.587179 2.888234 14.923535 1.308866 0.000000 0.000000 0.000000 
-1.335577 0.902936 2.092242 -80.393982 83.170278 -83.874547 1.987427 -5.281266 17.360291 -11.862028 -4.275979 26.665504 -8.677604 5.480232 22.545448 0.000000 0.000000 0.000000 12.598001 -1.701676 -27.393521 -5.198162 -6.955511 26.731582 -2.862269 -1.045861 14.944808 0.000000 0.000000 0.000000 7.654642 -2.486733 11.709910 6.215829 -2.497848 -3.858541 -5.551263 -7.388794 1.789067 -1.407969 2.715308 -4.398051 0.000000 0.000000 0.000000 -24.324273 -5.901537 -13.810741 -48.287758 -3.984617 -0.694663 -33.614332 -36.126254 7.448373 0.000000 0.000000 0.000000 24.575759 -16.421118 -1.179972 50.131816 -3.663369 -7.663109 3.600747 13.406155 1.158078 0.000000 0.000000 0.000000 
-1.273733 0.905628 2.093459 -77.251596 82.732928 -82.506404 8.848438 -3.961344 6.427775 -29.595897 -7.574073 46.644113 -6.285590 10.857320 37.380119 0.000000 0.000000 0.000000 12.732118 -0.401461 -23.025728 -6.871855 -8.636526 30.298783 -2.098959 -1.464342 10.388986 0.000000 0.000000 0.000000 7.716944 -3.228270 14.021275 5.477684 -2.095951 -3.886590 -4.628059 -5.374003 0.846952 0.004693 1.993646 -4.922112 0.000000 0.000000 0.000000 -23.874967 -5.852285 -13.956489 -49.228549 -2.309357 -1.442045 -29.771647 -32.413090 5.476477 0.000000 0.000000 0.000000 24.476502 -16.171750 -0.720228 49.742818 -1.224604 -7.016204 5.978235 13.689217 1.442419 0.000000 0.000000 0.000000 
-1.221110 0.910095 2.093569 -60.730749 82.490813 -67.721324 12.621411 -3.122507 -5.173496 -40.729000 -6.945457 55.644064 -6.325512 11.163105 52.238828 0.000000 0.000000 0.000000 12.361663 0.807577 -17.178628 -6.993101 -8.725350 30.020266 -1.401303 -2.003756 6.803920 0.000000 0.000000 0.000000 5.896763 -3.461837 16.065768 5.504104 -2.469910 -2.757178 -4.197826 -1.964836 0.371497 0.953289 1.026263 -4.489801 0.000000 0.000000 0.000000 -24.421457 -5.518034 -14.858768 -46.738270 0.069948 -1.742252 -25.827541 -29.928085 4.215579 0.000000 0.000000 0.000000 26.120827 -15.138390 1.075691 49.038049 1.949966 -6.716523 6.341613 15.342512 1.744492 0.000000 0.000000 0.000000 
-1.171060 0.913448 2.090511 -37.442097 80.467872 -44.883289 16.765587 -4.056576 -14.421659 -37.839576 -6.426983 52.341453 -5.338378 12.494949 54.711255 0.000000 0.000000 0.000000 10.303325 1.174588 -12.650037 -4.784105 -8.948978 29.119501 0.422399 -0.170605 3.635164 0.000000 0.000000 0.000000 4.173209 -3.369102 17.046465 4.195813 -1.342642 -3.968874 -2.793425 0.109488 1.639822 1.456412 1.236377 -5.749876 0.000000 0.000000 0.000000 -24.452053 -4.081254 -15.646492 -46.498994 2.386069 -2.776507 -19.879673 -27.987813 2.754330 0.000000 0.000000 0.000000 27.546179 -13.385799 3.305455 48.539953 5.896281 -6.210047 5.058511 17.984823 1.977016 0.000000 0.000000 0.000000 
-1.120402 0.914902 2.083547 -18.893228 76.528453 -26.215981 20.696031 -5.031990 -18.717885 -24.973216 -5.344900 38.024071 12.486708 24.147175 22.851795 0.000000 0.000000 0.000000 7.588995 1.042230 -8.791887 -3.733618 -7.990751 27.849174 2.792715 3.248497 0.299391 0.000000 0.000000 0.000000 2.458379 -2.639766 16.073350 4.162088 -1.142195 -4.378514 -2.938079 2.054634 3.875301 1.520883 1.732165 -7.213917 0.000000 0.000000 0.000000 -24.245340 -1.549634 -16.637554 -44.411857 4.397426 -3.467721 -15.556200 -26.188282 1.825406 0.000000 0.000000 0.000000 26.646545 -11.617325 4.497036 49.901143 9.204813 -4.950322 3.495651 22.907202 2.633033 0.000000 0.000000 0.000000 
-1.068135 0.913344 2.073058 -9.477550 70.165526 -16.328122 23.940698 -5.224735 -18.809890 -11.309629 -2.340844 20.943154 7.889968 17.041225 11.916740 0.000000 0.000000 0.000000 4.554946 0.639007 -5.821018 -3.295155 -6.408546 26.758288 5.499381 8.667754 -2.530734 0.000000 0.000000 0.000000 1.943298 -2.074048 14.718528 2.294183 -0.512138 -3.677306 -1.299366 4.610059 4.466768 -0.064682 3.162715 -8.597052 0.000000 0.000000 0.000000 -24.529563 0.191510 -16.903817 -43.518611 6.367950 -4.348953 -11.952417 -24.085632 1.204877 0.000000 0.000000 0.000000 25.949725 -10.344408 4.571681 50.066192 11.209896 -3.809761 3.245664 25.738704 3.065628 0.000000 0.000000 0.000000 
-1.012992 0.912881 2.058842 -4.545593 62.662566 -10.699137 26.058216 -5.010320 -16.546779 -2.140032 -0.566689 7.745295 -4.911792 8.040186 20.062786 0.000000 0.000000 0.000000 0.907647 0.040714 -3.303835 -3.665764 -4.067582 24.600499 8.019049 14.959923 -3.545987 0.000000 0.000000 0.000000 1.294803 -1.396500 12.474889 1.775585 -0.264839 -3.650099 -0.629623 6.404946 6.368772 0.568587 2.983336 -9.238158 0.000000 0.000000 0.000000 -24.479788 2.794521 -17.449352 -43.721458 8.072537 -5.352491 -9.450895 -22.893123 0.761858 0.000000 0.000000 0.000000 25.835800 -8.943782 5.075695 49.843134 14.238361 -2.639950 1.052811 28.512130 3.099154 0.000000 0.000000 0.000000 
-0.954189 0.913239 2.040054 -1.911023 55.438193 -7.449033 26.543532 -4.446348 -14.578077 3.575732 -0.315268 2.131724 -14.544039 0.584009 28.162608 0.000000 0.000000 0.000000 -2.731524 -0.468739 -2.486576 -6.634580 -1.874115 24.896730 10.815554 22.201467 -3.184480 0.000000 0.000000 0.000000 0.299527 -0.989866 11.037595 1.540532 -0.540145 -1.812459 0.530857 9.802916 5.312258 -0.216465 3.909579 -11.545788 0.000000 0.000000 0.000000 -24.791511 4.782422 -17.886348 -44.707007 8.386875 -5.812350 -6.837701 -21.509291 0.305930 0.000000 0.000000 0.000000 25.162884 -7.113089 5.517045 49.625050 14.447133 -2.108926 0.472304 28.815805 2.820654 0.000000 0.000000 0.000000 
-0.891429 0.914714 2.014899 -1.068758 49.896592 -6.513809 24.743186 -3.603353 -12.346456 6.478254 -0.744384 3.714904 -23.035632 -9.332211 32.138795 0.000000 0.000000 0.000000 -6.482470 -1.018309 -1.882169 -9.806185 -0.032229 25.129324 13.991733 27.954777 0.651175 0.000000 0.000000 0.000000 0.176356 -0.769850 9.787593 0.290257 0.293314 -3.178116 2.688790 8.964606 7.979937 -0.220402 3.796799 -10.969837 0.000000 0.000000 0.000000 -25.481324 5.881382 -17.787842 -44.291995 8.718915 -6.096550 -7.238325 -20.785760 0.543222 0.000000 0.000000 0.000000 26.730123 -5.915203 6.020665 47.753323 15.965325 -2.244806 -0.896357 29.168118 2.465989 0.000000 0.000000 0.000000 
-0.827054 0.916027 1.984716 -1.643027 45.969612 -6.413476 22.759957 -2.945850 -11.352589 6.112839 -1.395773 8.486809 -23.487567 -14.287718 28.165764 0.000000 0.000000 0.000000 -10.214151 -1.611968 -3.238393 -12.822356 1.192489 26.840056 20.031977 33.754372 8.876421 0.000000 0.000000 0.000000 0.838100 -0.616513 8.451706 0.730453 -0.270804 -1.043490 2.502257 10.119536 6.366662 0.474675 2.950301 -10.131662 0.000000 0.000000 0.000000 -26.683602 3.461118 -16.778268 -43.452120 6.943783 -4.838397 -6.711743 -18.593298 0.536593 0.000000 0.000000 0.000000 27.152541 -6.650153 4.809949 46.085609 14.795932 -2.476530 0.727083 27.046613 2.414861 0.000000 0.000000 0.000000 
-0.767472 0.915382 1.951832 -0.388249 43.324491 -4.622658 18.273425 -2.121768 -10.722190 5.559983 -1.945539 12.074413 -19.420045 -16.408636 19.733226 0.000000 0.000000 0.000000 -14.004645 -2.421093 -5.390323 -15.379993 2.198775 28.797940 21.004192 32.324264 13.739138 0.000000 0.000000 0.000000 -0.205297 -0.640536 9.354267 -0.391253 0.467430 -2.477503 5.133054 8.081008 7.376696 0.669272 3.202711 -12.371455 0.000000 0.000000 0.000000 -28.477588 2.144229 -15.828071 -42.336801 3.875269 -3.575522 -9.830676 -19.623286 1.256827 0.000000 0.000000 0.000000 25.476728 -5.974373 3.676347 46.589180 13.032752 -2.624376 1.072456 24.524728 2.046577 0.000000 0.000000 0.000000 
-0.716611 0.917423 1.920516 0.120455 42.583806 -3.434710 14.569426 -1.676064 -11.228541 5.310472 -2.224306 13.651574 -18.347424 -18.030948 16.749527 0.000000 0.000000 0.000000 -13.948652 -2.508793 -7.764548 -16.184055 2.158206 32.439564 11.939719 19.333995 13.208521 0.000000 0.000000 0.000000 -0.359049 -0.570121 8.888540 0.494792 -0.268441 -0.488801 4.059901 5.830111 5.570275 0.638364 2.760058 -11.700125 0.000000 0.000000 0.000000 -29.050711 -1.407590 -13.007124 -40.682218 -0.704219 -1.720597 -8.905041 -22.251694 1.386634 0.000000 0.000000 0.000000 26.243353 -5.218026 3.314621 45.408409 11.150667 -3.105901 0.289360 22.544414 1.557290 0.000000 0.000000 0.000000 
-0.673054 0.923522 1.893096 0.876149 41.923172 -3.159601 10.456393 -1.262030 -10.180202 6.526484 -2.495253 13.679280 -18.890271 -21.764376 14.739371 0.000000 0.000000 0.000000 -13.364271 -2.334473 -8.123634 -16.121664 1.961667 34.614917 6.056614 10.083932 12.418319 0.000000 0.000000 0.000000 -0.849147 -0.616249 9.692857 -0.171086 -0.233472 0.997281 4.642056 3.886962 4.654042 -0.185221 3.458129 -14.182204 0.000000 0.000000 0.000000 -29.346915 -3.201162 -10.998944 -40.100009 -7.747157 0.496873 -7.478417 -25.392267 1.350097 0.000000 0.000000 0.000000 25.880334 -3.829695 3.327244 45.557633 8.914990 -3.729054 -0.456527 18.661731 1.030251 0.000000 0.000000 0.000000 
-0.634037 0.930324 1.869193 0.726803 41.586744 -3.185525 7.397137 -0.983027 -8.826984 6.966698 -2.326369 12.452612 -18.259778 -22.605580 13.049584 0.000000 0.000000 0.000000 -11.890447 -1.920612 -7.990259 -13.904243 1.157676 34.361276 0.963549 1.192837 11.862589 0.000000 0.000000 0.000000 -0.841460 -0.759954 10.991530 1.005794 -0.470747 -0.603531 3.690992 2.333622 5.811891 1.101848 2.650671 -14.406609 0.000000 0.000000 0.000000 -29.154106 -5.685450 -9.043429 -39.385158 -12.070176 1.740177 -8.699225 -29.910859 1.909140 0.000000 0.000000 0.000000 24.995974 -4.241681 2.596374 45.967541 5.612292 -4.776536 -0.141997 15.961744 0.846531 0.000000 0.000000 0.000000 
-0.599982 0.936128 1.848702 0.623176 40.282496 -3.278846 4.620419 -0.703340 -6.989709 7.520020 -2.105130 10.808741 -17.353540 -22.331152 11.751601 0.000000 0.000000 0.000000 -9.065096 -1.165465 -7.748090 -10.783015 0.038531 34.391825 2.105555 4.175208 3.599863 0.000000 0.000000 0.000000 -0.858550 -0.853041 11.890550 1.411228 -0.683999 -0.412777 2.914491 1.259907 4.792409 0.516343 2.822804 -14.618702 0.000000 0.000000 0.000000 -27.300340 -5.997985 -7.402973 -38.992580 -16.551493 2.795199 -10.775034 -34.612304 2.805897 0.000000 0.000000 0.000000 23.813530 -4.739610 1.427981 47.422842 2.127669 -5.642435 -0.805593 14.413706 0.672663 0.000000 0.000000 0.000000 
-0.572552 0.940608 1.831699 0.560111 37.862928 -3.018349 3.094785 -0.552649 -5.909742 6.568348 -1.756049 9.893199 -15.999900 -20.797264 10.812037 0.000000 0.000000 0.000000 -6.241504 -0.474735 -7.787289 -6.611091 -1.379229 34.094994 2.653646 6.378083 -2.047781 0.000000 0.000000 0.000000 -0.811192 -0.829210 11.895943 1.287255 -0.767331 0.434443 2.418363 -0.156764 4.181435 0.494145 2.474991 -14.150213 0.000000 0.000000 0.000000 -26.187013 -6.253296 -5.832782 -38.903281 -18.960458 3.227881 -10.087486 -39.122924 3.027738 0.000000 0.000000 0.000000 24.189889 -4.400899 0.833877 47.444815 0.551505 -6.016372 -1.910837 13.986217 0.530901 0.000000 0.000000 0.000000 
-0.551442 0.943331 1.817694 0.624376 35.114111 -2.506461 2.023005 -0.409096 -4.516342 5.402171 -1.220823 7.726203 -14.634104 -18.968543 10.086481 0.000000 0.000000 0.000000 -3.257145 0.118736 -7.780785 -3.471028 -2.105280 32.511562 4.833690 12.382560 -2.869248 0.000000 0.000000 0.000000 -1.285928 -0.775576 12.045744 1.159224 -0.556849 -0.325554 1.982568 -0.920354 4.336052 0.634413 2.316827 -15.012522 0.000000 0.000000 0.000000 -25.494190 -5.244135 -5.444435 -39.421382 -20.258523 3.383454 -8.172567 -41.004390 2.613888 0.000000 0.000000 0.000000 23.709201 -4.970667 -0.164374 48.213975 -0.202765 -6.150972 -1.437926 13.424054 0.537520 0.000000 0.000000 0.000000 
-0.535289 0.944738 1.805356 0.438006 32.212201 -1.722066 1.599884 -0.343345 -3.836185 4.001772 -0.766222 5.603502 -13.190576 -16.925863 9.496048 0.000000 0.000000 0.000000 -0.863468 0.543102 -8.562447 -0.340917 -2.622403 29.946237 2.915189 7.496209 -1.891136 0.000000 0.000000 0.000000 -1.590439 -0.712167 12.049424 1.038014 -0.254096 -1.955407 1.860225 -1.622381 4.791795 0.470237 2.306268 -15.613908 0.000000 0.000000 0.000000 -24.895702 -4.673469 -4.910617 -40.104108 -20.101335 3.125626 -6.833772 -43.373562 2.391272 0.000000 0.000000 0.000000 23.128379 -5.422667 -1.029962 49.258382 -0.407637 -6.134848 -0.824548 14.363561 0.637123 0.000000 0.000000 0.000000 
-0.522491 0.944441 1.794470 0.361322 28.888808 -0.406752 0.910888 -0.359649 -4.332939 3.237595 -0.570887 4.470228 -11.317136 -14.552898 8.536209 0.000000 0.000000 0.000000 1.690041 0.893306 -8.770073 1.037781 -1.883522 24.375667 -1.513165 -4.041319 0.452404 0.000000 0.000000 0.000000 -1.378581 -0.608835 11.178384 0.014483 0.189297 -1.965180 2.206612 -1.890860 3.407597 0.288346 2.087361 -14.863390 0.000000 0.000000 0.000000 -25.669977 -3.557236 -4.969431 -41.027274 -19.699806 2.945001 -5.295561 -43.177349 2.077246 0.000000 0.000000 0.000000 22.994992 -4.426109 -1.093881 50.397665 -0.144018 -5.830388 -1.099589 14.917364 0.604498 0.000000 0.000000 0.000000 
-0.511610 0.943636 1.785510 0.526324 25.652508 1.061406 -0.113822 -0.380201 -4.746974 2.949494 -0.419749 2.946295 -9.615733 -12.181493 7.853348 0.000000 0.000000 0.000000 2.960554 1.003030 -8.489527 -0.127129 -0.536542 18.509315 -4.215619 -10.690437 2.868359 0.000000 0.000000 0.000000 -1.054725 -0.505240 9.976375 -0.438606 0.304425 -1.340175 1.100350 -1.105776 1.718235 1.793726 0.971831 -14.103207 0.000000 0.000000 0.000000 -25.759712 -3.288430 -4.891288 -41.899370 -18.608393 2.704829 -3.181873 -41.960485 1.298124 0.000000 0.000000 0.000000 24.776608 -4.601588 -1.556646 50.439764 0.063812 -5.551609 -1.866446 16.449182 0.574823 0.000000 0.000000 0.000000 
-0.501887 0.942633 1.779222 0.803406 22.599756 1.603533 -0.778898 -0.377319 -4.696766 2.039306 -0.303086 2.459622 -8.025623 -9.964639 7.189039 0.000000 0.000000 0.000000 3.267040 0.828424 -6.498487 -2.683358 0.601747 12.310811 -4.053026 -10.293862 4.063025 0.000000 0.000000 0.000000 -0.565325 -0.441394 8.865296 -1.375754 0.726036 -1.396644 0.848069 -0.473956 1.460251 2.122830 0.679119 -14.034074 0.000000 0.000000 0.000000 -26.398484 -2.927241 -4.944110 -42.690079 -18.177063 2.567314 -3.003733 -38.871802 1.295405 0.000000 0.000000 0.000000 26.092674 -4.490597 -1.765287 50.842359 1.263041 -5.097573 -3.484147 17.747446 0.420044 0.000000 0.000000 0.000000 
-0.493416 0.942005 1.775550 0.469417 20.211989 1.746621 -1.022424 -0.314241 -4.003956 1.787305 -0.201140 1.126148 -6.836164 -8.264362 6.706209 0.000000 0.000000 0.000000 2.955664 0.642351 -5.010602 -3.253417 0.740697 7.569614 -3.303194 -8.594545 5.991900 0.000000 0.000000 0.000000 0.162723 -0.384068 7.351252 -1.971217 0.947478 -0.832829 0.785083 -0.111295 1.237053 3.219110 -0.032911 -14.286987 0.000000 0.000000 0.000000 -26.839894 -3.022189 -4.699222 -43.649680 -17.656668 2.409647 -2.186720 -34.349251 1.025547 0.000000 0.000000 0.000000 26.811828 -4.367823 -1.993284 50.079486 2.164755 -4.637198 -1.961246 19.471639 0.664819 0.000000 0.000000 0.000000 
-0.486825 0.941779 1.773519 0.285160 17.825947 1.705288 -1.184669 -0.259030 -3.370512 1.379294 -0.131774 0.410864 -5.692648 -6.508125 6.387342 0.000000 0.000000 0.000000 2.316438 0.455805 -3.656827 -3.025261 0.625596 4.739851 -2.211244 -6.290953 5.952964 0.000000 0.000000 0.000000 0.405806 -0.328882 6.343015 -1.992019 0.973468 -1.002423 1.175508 0.241071 1.723716 3.002383 -0.008699 -14.086059 0.000000 0.000000 0.000000 -27.820537 -2.742203 -4.727855 -44.003250 -16.507033 1.916422 -1.762131 -29.882598 0.921228 0.000000 0.000000 0.000000 26.663474 -3.563336 -1.753075 49.950459 3.598276 -4.021942 -2.008834 20.175867 0.660950 0.000000 0.000000 0.000000 
-0.482263 0.941572 1.772394 -0.006706 15.352189 1.736336 -1.230949 -0.230825 -2.999663 1.212711 -0.100332 -0.028707 -4.484372 -4.640209 6.062246 0.000000 0.000000 0.000000 1.490251 0.407411 -3.503322 -1.961008 0.418752 3.832618 -1.103902 -3.969755 5.939350 0.000000 0.000000 0.000000 0.966346 -0.287341 5.167001 -2.131775 1.019505 -0.674527 1.310642 0.404379 1.914793 3.231968 -0.292485 -13.815316 0.000000 0.000000 0.000000 -28.125443 -2.240850 -4.654395 -44.920339 -15.333622 1.388041 -1.436207 -26.080430 0.836768 0.000000 0.000000 0.000000 26.215265 -2.757821 -1.601540 50.268614 5.040871 -3.350801 -1.493648 20.176030 0.699826 0.000000 0.000000 0.000000 
-0.479830 0.941986 1.772224 -0.280273 13.114531 1.417475 -1.091061 -0.167631 -2.239398 0.973714 -0.063800 -0.469138 -3.482516 -2.940937 6.028375 0.000000 0.000000 0.000000 1.216272 0.344008 -3.032586 -1.570852 0.334012 3.131917 -0.091157 -1.926818 6.178926 0.000000 0.000000 0.000000 1.178640 -0.272970 4.785480 -2.325360 1.098587 -0.354833 1.780408 0.439920 1.723017 3.569919 -0.680215 -13.344880 0.000000 0.000000 0.000000 -28.512123 -1.880438 -4.462403 -45.043395 -14.065052 0.799279 -1.093718 -22.651111 0.748836 0.000000 0.000000 0.000000 26.436608 -1.884741 -1.490670 50.152529 5.750091 -2.946557 -1.510072 20.148699 0.649566 0.000000 0.000000 0.000000 
-0.479048 0.942033 1.772789 -0.662034 10.833193 1.164270 -0.917755 -0.111215 -1.538976 1.081081 -0.057177 -0.899314 -2.406988 -1.188647 5.880705 0.000000 0.000000 0.000000 0.942505 0.260352 -2.357797 -0.749371 0.168901 1.942979 0.997563 0.201937 6.517319 0.000000 0.000000 0.000000 1.347673 -0.248514 4.263444 -2.375260 1.102781 0.267464 2.231367 0.359396 1.206739 3.613500 -0.887117 -12.889256 0.000000 0.000000 0.000000 -28.835063 -0.985114 -4.545921 -45.086251 -12.386732 0.061837 -1.236763 -20.196624 0.758851 0.000000 0.000000 0.000000 26.580381 -0.922982 -1.402249 49.807911 6.255755 -2.555184 -1.063326 20.184186 0.662064 0.000000 0.000000 0.000000 
-0.479600 0.942144 1.773638 -0.896921 8.642530 1.015949 -0.926112 -0.081328 -1.161612 1.387300 -0.088503 -0.881418 -1.361125 0.550980 5.792452 0.000000 0.000000 0.000000 1.036167 0.213516 -1.971176 -0.668713 0.129180 1.181019 1.996422 2.112104 6.784355 0.000000 0.000000 0.000000 1.462014 -0.220843 3.727242 -2.657444 1.234538 0.624094 2.715055 0.506876 0.935095 3.557021 -1.067292 -11.935518 0.000000 0.000000 0.000000 -29.327391 -0.569980 -4.468000 -44.552744 -10.379012 -0.763899 -1.247191 -18.520547 0.742089 0.000000 0.000000 0.000000 27.035504 -0.650033 -1.665582 49.705510 6.440229 -2.352503 -0.416605 20.671989 0.742171 0.000000 0.000000 0.000000 
-0.480792 0.942271 1.774634 -1.248078 6.482950 0.765234 -0.740256 -0.033592 -0.562879 1.643646 -0.109055 -1.048776 -0.354018 2.264475 5.791311 0.000000 0.000000 0.000000 1.308983 0.163916 -1.574708 -0.584482 0.095016 0.623830 3.000402 3.969964 7.110964 0.000000 0.000000 0.000000 1.451292 -0.197641 3.358267 -3.071419 1.433774 1.196920 3.288408 0.512322 0.666444 3.515083 -1.241200 -11.108752 0.000000 0.000000 0.000000 -29.777171 0.151277 -4.514305 -44.096284 -8.539587 -1.538613 -1.372533 -17.532499 0.761734 0.000000 0.000000 0.000000 27.846844 0.309008 -1.580393 49.240423 6.302075 -2.253039 -0.601872 20.776874 0.665255 0.000000 0.000000 0.000000 
-0.482309 0.942461 1.775479 -1.334628 4.810085 0.603794 -0.551804 -0.009550 -0.235704 1.459128 -0.102542 -0.931302 0.400708 3.586184 5.896639 0.000000 0.000000 0.000000 1.376336 0.148603 -1.483641 -0.543734 0.087578 0.589784 3.751753 5.366824 7.269670 0.000000 0.000000 0.000000 1.608712 -0.187481 3.089219 -3.418457 1.610591 1.696105 3.643729 0.584104 0.435037 3.650084 -1.483695 -10.377323 0.000000 0.000000 0.000000 -29.925194 0.313073 -4.293375 -44.155779 -6.205742 -2.454747 -2.181374 -16.723361 0.868303 0.000000 0.000000 0.000000 27.922834 0.839157 -1.594079 49.711739 6.333543 -2.132277 -0.882155 20.770539 0.584112 0.000000 0.000000 0.000000 
-0.483594 0.942933 1.776169 -1.453968 3.198502 0.368024 -0.360484 0.023433 0.182303 1.303844 -0.095825 -0.851880 1.100081 4.849956 6.125904 0.000000 0.000000 0.000000 1.391446 0.115837 -1.235866 -0.366111 0.058665 0.421324 4.536159 6.716631 7.624118 0.000000 0.000000 0.000000 1.677521 -0.177364 2.894329 -3.672348 1.751553 2.136213 3.955397 0.717979 0.197457 3.646900 -1.596728 -9.841504 0.000000 0.000000 0.000000 -30.115253 0.869849 -4.390634 -44.250450 -3.898036 -3.342496 -3.151378 -16.524082 1.013492 0.000000 0.000000 0.000000 28.282992 1.089643 -1.768887 49.494661 5.811799 -2.226120 -1.186813 20.314655 0.491756 0.000000 0.000000 0.000000 
-0.484552 0.942850 1.776561 -1.491936 2.434349 0.405581 -0.296320 0.045537 0.440380 1.278987 -0.079407 -1.198784 1.426243 5.435651 6.244442 0.000000 0.000000 0.000000 1.511155 0.127285 -1.366995 -0.473519 0.074392 0.510420 4.854843 7.327441 7.629651 0.000000 0.000000 0.000000 1.761539 -0.168169 2.677829 -3.627989 1.737466 2.262011 3.834161 0.737829 0.491490 3.985406 -1.854641 -9.793104 0.000000 0.000000 0.000000 -30.159432 1.190559 -4.467229 -44.777074 -1.972752 -4.129148 -3.859408 -16.583112 1.127975 0.000000 0.000000 0.000000 28.537705 0.786388 -2.102842 49.578207 5.055387 -2.520291 -1.180915 20.249792 0.482429 0.000000 0.000000 0.000000 
-0.485403 0.943106 1.776673 -1.426523 2.195577 0.346766 -0.186845 0.056385 0.585886 1.028449 -0.052417 -1.285773 1.488370 5.588611 6.408074 0.000000 0.000000 0.000000 1.588215 0.138976 -1.480022 -0.662199 0.109260 0.811384 4.932669 7.493079 7.592668 0.000000 0.000000 0.000000 1.917644 -0.171363 2.650714 -3.595599 1.724585 2.281451 3.688732 0.824841 0.692095 4.017020 -1.873363 -9.834225 0.000000 0.000000 0.000000 -30.481651 1.326059 -4.603130 -44.967739 -0.692673 -4.614627 -4.428621 -16.460164 1.200619 0.000000 0.000000 0.000000 28.423367 0.549814 -2.234669 49.904190 4.271569 -2.866990 -1.365436 19.317821 0.434143 0.000000 0.000000 0.000000 
-0.486078 0.943295 1.776465 -1.434072 2.493889 0.329000 -0.004009 0.072901 0.819136 0.844015 -0.014953 -1.756755 1.288597 5.298717 6.558742 0.000000 0.000000 0.000000 1.682773 0.173538 -1.773598 -0.697813 0.139336 1.388512 4.762219 7.213015 7.490517 0.000000 0.000000 0.000000 1.931955 -0.170076 2.622511 -3.185900 1.515707 2.331964 3.222330 1.202220 0.803338 4.306470 -2.033705 -9.768982 0.000000 0.000000 0.000000 -30.291831 0.984257 -4.603369 -45.163739 0.106593 -4.852631 -4.790162 -16.405299 1.231222 0.000000 0.000000 0.000000 28.280176 0.061979 -2.286887 50.327266 3.423331 -3.309653 -1.828009 18.164572 0.364448 0.000000 0.000000 0.000000 
-0.486662 0.943951 1.776113 -1.447608 3.117221 0.121856 0.099918 0.113955 1.327382 0.848986 0.013476 -2.434525 0.889426 4.737273 6.875061 0.000000 0.000000 0.000000 1.584714 0.172391 -1.734232 -0.357397 0.112457 1.761333 4.535377 6.705671 7.619800 0.000000 0.000000 0.000000 2.169901 -0.183741 2.743089 -2.927104 1.383251 1.999875 2.576733 1.576741 1.546546 4.634935 -2.200039 -9.841638 0.000000 0.000000 0.000000 -30.174948 0.247464 -4.422224 -45.366676 0.484841 -4.974098 -4.872910 -16.290905 1.217011 0.000000 0.000000 0.000000 28.247384 -0.381820 -2.212433 50.692834 2.998665 -3.665056 -2.375390 16.964587 0.299386 0.000000 0.000000 0.000000 
-0.486918 0.944386 1.775885 -1.343015 3.818474 0.107865 0.204183 0.127010 1.530682 0.585441 0.054969 -2.931539 0.467821 4.129109 7.131668 0.000000 0.000000 0.000000 1.393896 0.159667 -1.596718 -0.117857 0.075748 1.617965 4.279160 6.154950 7.738184 0.000000 0.000000 0.000000 2.185123 -0.195543 2.928039 -2.831971 1.331945 1.814403 2.222212 1.881981 1.730037 4.581570 -2.101870 -9.933364 0.000000 0.000000 0.000000 -30.291148 -0.107080 -4.504472 -44.873213 0.349495 -4.789496 -5.358918 -16.319772 1.269989 0.000000 0.000000 0.000000 27.697021 -0.520816 -1.968448 51.170260 2.250333 -4.087435 -2.242276 15.797872 0.312686 0.000000 0.000000 0.000000 
-0.486906 0.945131 1.776117 -1.094498 4.834514 0.036914 0.124083 0.144590 1.728387 0.381668 0.083895 -3.289018 -0.126555 3.287493 7.479137 0.000000 0.000000 0.000000 1.137031 0.143572 -1.419411 -0.032897 0.064785 1.644050 3.871543 5.337874 7.814224 0.000000 0.000000 0.000000 2.160152 -0.195704 2.957681 -2.710778 1.268957 1.529342 1.642378 2.300396 2.120706 4.585299 -2.038931 -9.901522 0.000000 0.000000 0.000000 -30.148379 -0.631944 -4.560701 -44.642855 0.218562 -4.619479 -5.467106 -16.210404 1.252161 0.000000 0.000000 0.000000 27.638240 -0.909645 -1.799732 51.207944 2.161614 -4.268415 -1.799185 14.693361 0.360103 0.000000 0.000000 0.000000 
-0.486553 0.945564 1.776936 -0.852153 5.771465 0.146052 0.122938 0.139559 1.688380 0.001209 0.116559 -3.471624 -0.652096 2.527510 7.705608 0.000000 0.000000 0.000000 0.905587 0.112751 -1.118001 -0.022221 0.045413 1.170122 3.503519 4.604270 7.893389 0.000000 0.000000 0.000000 2.177283 -0.182133 2.717595 -2.766596 1.291618 1.388571 1.204642 2.654400 2.376742 4.457800 -1.868589 -10.025620 0.000000 0.000000 0.000000 -30.091359 -0.561331 -4.967726 -44.464444 0.172299 -4.490420 -5.656697 -16.364775 1.267041 0.000000 0.000000 0.000000 27.795891 -1.023589 -1.516649 51.284298 2.054621 -4.442428 -1.594031 13.945786 0.378008 0.000000 0.000000 0.000000 
-0.486105 0.945956 1.778311 -0.698438 6.804913 0.135093 0.146727 0.150606 1.860350 -0.238249 0.139563 -3.749010 -1.215232 1.701183 7.888342 0.000000 0.000000 0.000000 0.660576 0.069377 -0.696693 0.200197 0.002888 0.792588 3.111214 3.823873 7.993319 0.000000 0.000000 0.000000 2.175250 -0.155475 2.291172 -2.703310 1.246626 1.642231 0.609970 3.160010 2.354361 4.468866 -1.788681 -10.039145 0.000000 0.000000 0.000000 -30.050708 -0.778469 -5.289712 -44.223686 0.113349 -4.301164 -5.967257 -15.978803 1.251521 0.000000 0.000000 0.000000 28.191428 -1.386691 -1.336826 50.839270 2.024094 -4.553202 -0.754518 13.939803 0.477083 0.000000 0.000000 0.000000 
-0.485610 0.946378 1.779994 -0.657731 7.531423 0.192332 0.240597 0.154540 1.979811 -0.419675 0.156161 -3.994616 -1.620760 1.127416 8.055010 0.000000 0.000000 0.000000 0.647836 0.040858 -0.427860 0.198699 -0.006789 0.521082 2.836014 3.259864 8.114004 0.000000 0.000000 0.000000 2.186714 -0.138725 2.005896 -2.650630 1.213977 1.654392 0.467404 3.318432 2.283462 4.301986 -1.591683 -10.298078 0.000000 0.000000 0.000000 -29.983893 -0.818350 -5.478104 -44.323947 0.367132 -4.335559 -6.596110 -16.025059 1.325842 0.000000 0.000000 0.000000 28.547817 -1.295371 -1.071553 50.349996 2.756226 -4.299331 -0.343843 13.910640 0.522910 0.000000 0.000000 0.000000 
-0.485251 0.946394 1.781697 -0.730007 8.966389 0.264043 0.414671 0.140782 1.955063 -0.416707 0.157463 -4.169587 -2.301687 0.040757 8.029728 0.000000 0.000000 0.000000 0.626991 0.014657 -0.174571 0.554881 -0.059915 0.329985 2.253176 2.153929 8.152714 0.000000 0.000000 0.000000 2.103216 -0.123235 1.780964 -2.258500 1.013586 1.527674 0.078843 3.351679 2.314453 4.092955 -1.322269 -10.696533 0.000000 0.000000 0.000000 -30.019210 -0.860808 -5.810105 -44.351522 0.397994 -4.248020 -6.911592 -15.639718 1.314795 0.000000 0.000000 0.000000 29.380260 -1.267278 -0.720440 49.669587 3.456296 -4.129251 0.221675 14.963403 0.644327 0.000000 0.000000 0.000000 
-0.485115 0.946483 1.783187 -0.757755 9.911531 0.278732 0.479317 0.132630 1.925791 -0.342718 0.151030 -4.156704 -2.742287 -0.667075 8.005926 0.000000 0.000000 0.000000 0.795907 -0.008085 0.026996 0.452628 -0.050656 0.247374 1.848330 1.393187 8.148942 0.000000 0.000000 0.000000 1.905725 -0.112716 1.693839 -1.921267 0.854821 1.225181 0.045234 3.265032 2.486342 3.777025 -1.052656 -10.869095 0.000000 0.000000 0.000000 -30.332314 -0.892494 -6.022478 -44.153880 0.420559 -4.187964 -7.502001 -15.402970 1.365710 0.000000 0.000000 0.000000 29.897680 -0.943569 -0.320573 48.703688 4.541403 -3.760048 1.133297 16.508256 0.842075 0.000000 0.000000 0.000000 
-0.485095 0.946296 1.784248 -0.921181 10.996489 0.414390 0.735765 0.096224 1.642347 -0.328924 0.145409 -4.059896 -3.202562 -1.468664 7.864850 0.000000 0.000000 0.000000 0.981496 -0.012522 0.067535 0.617038 -0.077259 0.126911 1.396361 0.534409 8.176329 0.000000 0.000000 0.000000 1.945114 -0.108584 1.587506 -1.810805 0.795865 1.158829 -0.098743 3.223070 2.128374 3.905964 -1.077432 -10.974548 0.000000 0.000000 0.000000 -30.246076 -1.264277 -6.001252 -43.849337 0.492539 -4.082488 -7.622807 -15.023488 1.335873 0.000000 0.000000 0.000000 30.372108 -0.546007 0.174742 48.234125 5.749414 -3.351604 2.009925 18.111779 1.072606 0.000000 0.000000 0.000000 
-0.485102 0.946363 1.784939 -1.031108 11.450861 0.356326 0.909696 0.076140 1.496872 -0.353088 0.137768 -3.738213 -3.374625 -1.804311 7.746615 0.000000 0.000000 0.000000 1.019741 -0.018184 0.120829 0.842958 -0.104867 0.243198 1.221587 0.192796 8.223494 0.000000 0.000000 0.000000 1.968454 -0.110627 1.619322 -1.687393 0.742269 0.993016 -0.191904 3.335451 2.168157 4.124511 -1.208510 -10.880846 0.000000 0.000000 0.000000 -30.288157 -1.545125 -5.985591 -43.472840 0.619934 -4.034405 -7.866882 -15.264076 1.381129 0.000000 0.000000 0.000000 30.777505 -0.098889 0.655698 47.656693 7.096148 -2.906668 2.854578 20.555671 1.399527 0.000000 0.000000 0.000000 
-0.484908 0.946231 1.785408 -1.238971 11.652466 0.432617 0.780037 0.072741 1.373732 0.288427 0.102526 -3.730925 -3.396300 -1.925532 7.573085 0.000000 0.000000 0.000000 1.187149 -0.009767 0.043459 0.963314 -0.121700 0.232165 1.147566 0.040500 8.275814 0.000000 0.000000 0.000000 2.178890 -0.103888 1.396429 -1.631055 0.692283 1.369935 -0.239755 3.280249 1.739998 4.345731 -1.383118 -10.684674 0.000000 0.000000 0.000000 -29.777037 -1.818988 -5.721483 -43.485604 0.571922 -4.000321 -8.334955 -15.053303 1.419157 0.000000 0.000000 0.000000 30.309795 0.468509 1.045513 47.771727 8.359616 -2.380092 3.926376 23.007895 1.809823 0.000000 0.000000 0.000000 
-0.484518 0.946286 1.785867 -1.196554 11.548461 0.581518 0.572614 0.071976 1.226138 0.527260 0.087246 -3.661165 -3.332881 -1.828829 7.557380 0.000000 0.000000 0.000000 1.194086 0.005065 -0.085276 0.820992 -0.102315 0.234668 1.177241 0.098223 8.262956 0.000000 0.000000 0.000000 2.287512 -0.097369 1.223842 -1.587637 0.673561 1.321734 -0.365930 3.297073 1.762318 4.558511 -1.569994 -10.428436 0.000000 0.000000 0.000000 -29.551891 -2.042857 -5.524505 -43.504257 0.767688 -4.079351 -8.187950 -15.226236 1.417355 0.000000 0.000000 0.000000 30.172502 1.140277 1.506576 47.689991 9.582724 -1.908110 4.788372 25.398667 2.224825 0.000000 0.000000 0.000000 
-0.483830 0.945969 1.786442 -1.208950 11.763859 0.627828 0.368016 0.096317 1.438048 0.875620 0.082508 -4.094238 -3.429247 -1.997866 7.530281 0.000000 0.000000 0.000000 1.314883 0.010076 -0.129412 0.599548 -0.070487 0.333191 1.044216 -0.114680 8.110265 0.000000 0.000000 0.000000 2.406631 -0.082980 0.930906 -1.361568 0.558281 1.376044 -0.586444 3.193847 1.776975 4.864831 -1.762850 -10.473639 0.000000 0.000000 0.000000 -29.252657 -1.976194 -5.514635 -43.511711 0.728972 -4.077585 -8.094002 -14.995899 1.384146 0.000000 0.000000 0.000000 30.069096 1.445356 1.745902 47.893212 10.951772 -1.389953 4.310275 26.309957 2.228868 0.000000 0.000000 0.000000 
-0.482897 0.945314 1.787261 -1.196548 11.545863 0.836852 0.172175 0.107439 1.455906 1.080169 0.081268 -4.364997 -3.277147 -1.844549 7.361905 0.000000 0.000000 0.000000 1.247214 0.030595 -0.306790 0.578746 -0.067009 0.341423 1.093704 0.041457 7.874668 0.000000 0.000000 0.000000 2.512504 -0.070396 0.652574 -1.317278 0.530083 1.493036 -0.457619 3.298615 1.558132 5.309539 -2.101543 -10.264259 0.000000 0.000000 0.000000 -29.040595 -2.115178 -5.367389 -43.748962 0.809578 -4.129060 -8.087090 -14.834890 1.368745 0.000000 0.000000 0.000000 29.972067 1.461164 1.721151 47.988596 11.588632 -1.106951 4.557046 26.671750 2.320097 0.000000 0.000000 0.000000 
-0.481760 0.944375 1.788249 -1.143815 11.377741 0.952268 0.135172 0.127491 1.690787 0.909913 0.104748 -4.806783 -3.165232 -1.766003 7.179997 0.000000 0.000000 0.000000 1.281230 0.017999 -0.206047 0.284589 -0.035558 0.086482 1.105013 0.155527 7.547816 0.000000 0.000000 0.000000 2.573972 -0.061481 0.468739 -1.068200 0.423018 1.264283 -0.750202 3.482159 1.644547 5.994760 -2.582092 -10.102252 0.000000 0.000000 0.000000 -28.919745 -2.045473 -5.464124 -43.679289 1.205138 -4.239008 -7.933598 -14.912074 1.349514 0.000000 0.000000 0.000000 30.381098 1.379707 1.779994 48.288947 12.067762 -0.978034 4.472453 26.608274 2.312893 0.000000 0.000000 0.000000 
-0.480514 0.943613 1.789156 -1.123590 11.596641 1.130108 0.321214 0.143885 2.043529 0.440795 0.150193 -5.680951 -3.311545 -1.987847 7.231016 0.000000 0.000000 0.000000 1.012059 0.011676 -0.137376 0.638027 -0.090419 -0.206372 1.013542 0.025192 7.389910 0.000000 0.000000 0.000000 2.746314 -0.036309 -0.025195 -1.334245 0.520070 1.763613 -0.358071 3.235455 1.427635 6.201420 -2.664590 -10.470996 0.000000 0.000000 0.000000 -28.929461 -1.806102 -5.513084 -43.462990 0.792998 -4.087655 -8.444564 -14.532971 1.384507 0.000000 0.000000 0.000000 30.259909 1.222919 1.536986 48.438921 12.224392 -0.841892 4.447396 26.030789 2.231076 0.000000 0.000000 0.000000 
-0.479413 0.943899 1.789715 -0.960125 11.525167 0.982085 0.152165 0.177230 2.371282 0.306526 0.158564 -5.807127 -3.344552 -1.959767 7.381499 0.000000 0.000000 0.000000 0.758748 -0.022434 0.171668 0.642401 -0.094489 -0.324653 1.066002 0.114636 7.446317 0.000000 0.000000 0.000000 2.843511 -0.050201 0.205149 -1.073933 0.441238 0.996852 -0.504194 3.624954 2.130541 6.039572 -2.607067 -10.084246 0.000000 0.000000 0.000000 -29.409482 -2.162796 -5.571466 -43.206056 1.453983 -4.253999 -8.290765 -14.987800 1.400820 0.000000 0.000000 0.000000 30.290924 1.034325 1.643286 48.107175 12.022293 -1.068969 4.566578 25.690449 2.247594 0.000000 0.000000 0.000000 
-0.478550 0.944333 1.789808 -1.049453 11.198773 1.209992 0.144170 0.194297 2.580276 0.349057 0.176848 -6.574520 -3.301839 -1.697809 7.747753 0.000000 0.000000 0.000000 0.598923 -0.029846 0.244266 0.942405 -0.149707 -0.968027 1.298946 0.455321 7.853566 0.000000 0.000000 0.000000 2.793498 -0.012066 -0.450573 -1.058177 0.344703 2.429387 0.064947 3.900535 1.041122 6.219436 -2.406120 -11.711939 0.000000 0.000000 0.000000 -28.809434 -0.688980 -6.304873 -44.438440 1.679735 -4.476067 -9.002654 -16.433857 1.611433 0.000000 0.000000 0.000000 29.260412 1.099315 1.528601 48.555977 13.227402 -0.390195 4.412238 23.179430 1.928739 0.000000 0.000000 0.000000 
-0.478065 0.945081 1.789579 -0.776420 12.323350 0.628209 0.263242 0.180024 2.540507 -0.284530 0.170465 -5.479164 -3.852778 -2.578083 7.755508 0.000000 0.000000 0.000000 0.783998 -0.177332 1.496258 0.189406 -0.088908 -1.810606 0.879985 -0.415431 8.140307 0.000000 0.000000 0.000000 2.673889 -0.028540 -0.050718 -0.413005 0.086107 1.441927 -0.819712 3.853627 2.027118 6.480049 -2.713741 -10.776682 0.000000 0.000000 0.000000 -28.564027 -0.939362 -6.374024 -43.748583 2.084002 -4.529949 -9.826118 -16.068798 1.675117 0.000000 0.000000 0.000000 30.388625 1.001681 1.905491 47.910876 13.325028 -0.655603 3.328115 21.708391 1.614260 0.000000 0.000000 0.000000 
