HIERARCHY
ROOT Hips
{
	OFFSET -0.001795 -0.223333 0.028219
	CHANNELS 6 Xposition Yposition Zposition Zrotation Yrotation Xrotation 
	JOINT LeftUpLeg
	{
		OFFSET 0.069520 -0.091406 -0.006815
		CHANNELS 3 Zrotation Yrotation Xrotation
		JOINT LeftLeg
		{
			OFFSET 0.034277 -0.375199 -0.004496
			CHANNELS 3 Zrotation Yrotation Xrotation
			JOINT LeftFoot
			{
				OFFSET -0.013596 -0.397961 -0.043693
				CHANNELS 3 Zrotation Yrotation Xrotation
				JOINT LeftToe
				{
					OFFSET 0.026358 -0.055791 0.119288
					CHANNELS 3 Zrotation Yrotation Xrotation
					End Site
					{
						OFFSET 0.000000 0.000000 0.000000
					}
				}
			}
		}
	}
	JOINT RightUpLeg
	{
		OFFSET -0.067670 -0.090522 -0.004320
		CHANNELS 3 Zrotation Yrotation Xrotation
		JOINT RightLeg
		{
			OFFSET -0.038290 -0.382569 -0.008850
			CHANNELS 3 Zrotation Yrotation Xrotation
			JOINT RightFoot
			{
				OFFSET 0.015774 -0.398415 -0.042312
				CHANNELS 3 Zrotation Yrotation Xrotation
				JOINT RightToe
				{
					OFFSET -0.025372 -0.048144 0.123348
					CHANNELS 3 Zrotation Yrotation Xrotation
					End Site
					{
						OFFSET 0.000000 0.000000 0.000000
					}
				}
			}
		}
	}
	JOINT Spine
	{
		OFFSET -0.002533 0.108963 -0.026696
		CHANNELS 3 Zrotation Yrotation Xrotation
		JOINT Spine1
		{
			OFFSET 0.005487 0.135180 0.001092
			CHANNELS 3 Zrotation Yrotation Xrotation
			JOINT Spine2
			{
				OFFSET 0.001457 0.052922 0.025425
				CHANNELS 3 Zrotation Yrotation Xrotation
				JOINT Neck
				{
					OFFSET -0.002778 0.213870 -0.042857
					CHANNELS 3 Zrotation Yrotation Xrotation
					JOINT Head
					{
						OFFSET 0.005152 0.064970 0.051349
						CHANNELS 3 Zrotation Yrotation Xrotation
						End Site
						{
							OFFSET 0.000000 0.000000 0.000000
						}
					}
				}
				JOINT LeftShoulder
				{
					OFFSET 0.078845 0.121749 -0.034090
					CHANNELS 3 Zrotation Yrotation Xrotation
					JOINT LeftArm
					{
						OFFSET 0.090977 0.030469 -0.008868
						CHANNELS 3 Zrotation Yrotation Xrotation
						JOINT LeftForeArm
						{
							OFFSET 0.259612 -0.012772 -0.027456
							CHANNELS 3 Zrotation Yrotation Xrotation
							JOINT LeftHand
							{
								OFFSET 0.249234 0.008986 -0.001171
								CHANNELS 3 Zrotation Yrotation Xrotation
								End Site
								{
									OFFSET 0.000000 0.000000 0.000000
								}
							}
						}
					}
				}
				JOINT RightShoulder
				{
					OFFSET -0.081759 0.118833 -0.038615
					CHANNELS 3 Zrotation Yrotation Xrotation
					JOINT RightArm
					{
						OFFSET -0.096012 0.032551 -0.009143
						CHANNELS 3 Zrotation Yrotation Xrotation
						JOINT RightForeArm
						{
							OFFSET -0.253742 -0.013329 -0.021401
							CHANNELS 3 Zrotation Yrotation Xrotation
							JOINT RightHand
							{
								OFFSET -0.255298 0.007772 -0.005559
								CHANNELS 3 Zrotation Yrotation Xrotation
								End Site
								{
									OFFSET 0.000000 0.000000 0.000000
								}
							}
						}
					}
				}
			}
		}
	}
}
MOTION
Frames: 100
Frame Time: 0.050000
0.000000 0.964659 0.000000 -1.003155 5.465618 3.173430 2.082665 -0.193364 -1.891537 0.634520 0.012509 -1.870144 -1.180929 2.518684 9.932608 0.000000 0.000000 0.000000 -0.516104 0.499680 -5.033449 -1.871303 0.262705 0.906362 1.695701 -0.160033 10.032840 0.000000 0.000000 0.000000 0.597757 -0.054400 0.932872 0.829661 -0.106251 -5.778394 -0.597015 -1.834489 9.718111 1.914870 0.000842 -15.477550 0.000000 0.000000 0.000000 -7.117345 1.314215 -1.233048 -49.064084 -6.944754 -3.518713 -0.439839 -7.290763 0.295433 0.000000 0.000000 0.000000 6.947336 -1.773208 -1.177135 56.038054 7.366404 -2.414066 -3.555469 4.164396 0.097094 0.000000 0.000000 0.000000 
0.001235 0.964010 0.001198 -1.186114 5.674967 3.321644 2.151441 -0.209380 -2.088570 0.724818 0.029189 -2.473450 -1.039797 2.676779 9.679807 0.000000 0.000000 0.000000 -1.140494 0.475766 -4.927518 -1.257771 0.178925 0.711706 1.700520 -0.041126 9.820025 0.000000 0.000000 0.000000 0.879725 -0.065179 0.986011 0.060506 0.212510 -5.681736 0.189006 -2.309650 9.238401 1.116636 0.548464 -16.690240 0.000000 0.000000 0.000000 -6.910355 1.362425 -1.191615 -50.800293 -7.035970 -3.549548 1.279253 -6.344921 0.174804 0.000000 0.000000 0.000000 6.728769 -2.537403 -1.523835 56.753340 6.879358 -2.631906 -3.893400 5.211880 0.090654 0.000000 0.000000 0.000000 
0.002490 0.963152 0.002388 -1.055740 5.602923 3.333139 1.937896 -0.190130 -1.866088 0.660347 0.006160 -1.757620 -0.988389 2.192973 8.370204 0.000000 0.000000 0.000000 -1.384895 0.462032 -4.836785 -0.858588 0.138068 0.884007 2.110061 1.170349 8.882511 0.000000 0.000000 0.000000 1.193712 -0.075451 1.013573 -0.009543 0.292622 -7.080203 -0.420977 -1.999016 10.667529 0.936281 0.739722 -17.248081 0.000000 0.000000 0.000000 -6.483133 1.335163 -1.150821 -51.687644 -6.632596 -3.920690 1.178077 -8.223303 0.231929 0.000000 0.000000 0.000000 7.510040 -2.329138 -1.457752 56.404175 6.151559 -3.082417 -3.249285 5.260478 0.108082 0.000000 0.000000 0.000000 
0.003504 0.963522 0.003603 -1.287122 5.838699 3.332468 2.096960 -0.222539 -2.281183 0.721690 -0.014295 -1.367001 -1.375840 1.465726 8.222296 0.000000 0.000000 0.000000 -1.485887 0.484304 -5.129599 -0.640054 0.127800 1.280002 2.577285 2.060691 9.169589 0.000000 0.000000 0.000000 1.076250 -0.054866 0.668594 -0.230733 0.359865 -6.346231 0.347791 -2.975954 10.503943 -0.328859 1.357012 -16.588629 0.000000 0.000000 0.000000 -5.834575 2.389213 -1.432419 -53.389402 -6.618370 -3.987985 1.927359 -8.077617 0.191691 0.000000 0.000000 0.000000 6.861258 -2.028028 -1.356312 57.075164 5.872969 -3.281145 -3.526167 4.991623 0.095333 0.000000 0.000000 0.000000 
0.004261 0.963606 0.004874 -1.085620 6.039649 3.293577 2.049326 -0.205471 -2.047782 0.481784 0.009061 -1.436390 -1.583898 1.119890 8.233294 0.000000 0.000000 0.000000 -1.799971 0.483803 -5.241123 -0.550173 0.135638 1.760546 2.149390 1.247104 9.028472 0.000000 0.000000 0.000000 0.932973 -0.058151 0.818946 0.040962 0.276895 -6.998165 -0.041928 -2.754111 10.868181 -0.436763 1.434231 -15.950216 0.000000 0.000000 0.000000 -5.351874 2.244577 -1.345677 -54.221189 -5.929385 -4.411269 1.711113 -8.865250 0.221570 0.000000 0.000000 0.000000 6.814260 -2.273202 -1.414938 57.163985 4.607405 -3.887999 -3.005237 6.101822 0.116797 0.000000 0.000000 0.000000 
0.004776 0.963449 0.006235 -1.160375 6.581170 3.115109 1.975698 -0.221062 -2.277672 0.924654 -0.062612 -0.617434 -1.672062 0.789499 7.756410 0.000000 0.000000 0.000000 -1.728332 0.481953 -5.225474 -0.692965 0.161708 1.938795 2.164689 1.379259 8.944766 0.000000 0.000000 0.000000 0.812943 -0.063238 1.005348 0.176134 0.237355 -7.112147 0.272425 -3.522680 11.102494 -1.130425 1.820718 -16.185494 0.000000 0.000000 0.000000 -5.378439 3.242269 -1.709055 -55.085209 -5.478229 -4.678123 2.115646 -8.956994 0.204301 0.000000 0.000000 0.000000 6.015825 -2.477426 -1.455908 58.089227 4.383433 -4.109386 -4.007548 5.711552 0.086862 0.000000 0.000000 0.000000 
0.005049 0.962913 0.007695 -1.131939 6.516310 3.197822 2.092852 -0.213859 -2.149700 0.772433 -0.036417 -0.913815 -1.573581 1.133068 8.119338 0.000000 0.000000 0.000000 -1.719945 0.497662 -5.408524 -0.928584 0.201803 2.141271 2.171974 1.439541 8.817435 0.000000 0.000000 0.000000 0.812108 -0.067208 1.084272 0.253568 0.201256 -7.021720 0.112159 -3.631448 10.951796 -1.060682 1.761869 -16.155742 0.000000 0.000000 0.000000 -5.179898 3.670300 -1.849082 -55.715801 -4.182667 -5.296980 1.819634 -9.198771 0.233115 0.000000 0.000000 0.000000 5.677336 -2.860877 -1.586174 58.573420 3.834548 -4.398496 -4.187005 5.767965 0.081432 0.000000 0.000000 0.000000 
0.005211 0.962666 0.009209 -1.204449 6.570645 3.279636 2.037250 -0.222428 -2.274773 1.114686 -0.075080 -0.726222 -1.388834 1.347583 7.863878 0.000000 0.000000 0.000000 -1.545894 0.499625 -5.362279 -1.139631 0.218079 1.862648 1.923563 0.938770 8.782361 0.000000 0.000000 0.000000 0.755214 -0.077591 1.329875 0.374530 0.163474 -7.268702 0.054275 -3.769945 10.886863 -0.976652 1.666421 -15.531518 0.000000 0.000000 0.000000 -4.480233 4.289597 -2.003343 -55.874546 -2.490001 -6.066182 1.753758 -9.626332 0.250201 0.000000 0.000000 0.000000 4.536732 -3.572339 -1.750096 59.247901 2.865091 -4.912507 -4.557285 5.335304 0.074349 0.000000 0.000000 0.000000 
0.005345 0.962998 0.010516 -1.248867 6.568914 3.556511 2.104056 -0.229527 -2.343540 1.180702 -0.056256 -1.274970 -1.362526 1.610614 8.327214 0.000000 0.000000 0.000000 -1.500468 0.502622 -5.365378 -1.213467 0.211231 1.498085 1.725686 0.483371 8.890479 0.000000 0.000000 0.000000 0.833134 -0.073934 1.185152 0.234778 0.217462 -7.231933 0.222499 -3.911434 10.701388 -0.829399 1.540667 -15.280131 0.000000 0.000000 0.000000 -3.794759 4.983165 -2.179035 -56.240328 -0.931927 -6.782984 1.436222 -9.497018 0.272746 0.000000 0.000000 0.000000 3.517754 -4.094891 -1.841952 59.636603 2.239027 -5.248876 -5.264225 4.296116 0.071040 0.000000 0.000000 0.000000 
0.005567 0.963077 0.011578 -1.176449 6.860215 4.034461 1.930129 -0.252896 -2.668118 1.434334 -0.062196 -1.594784 -1.350325 1.769320 8.562450 0.000000 0.000000 0.000000 -1.554535 0.520040 -5.576551 -1.288594 0.194810 0.933016 1.330122 -0.430699 9.231902 0.000000 0.000000 0.000000 0.811840 -0.063994 0.960067 0.299282 0.211137 -7.602223 0.138024 -4.112732 10.764260 -0.875861 1.559065 -15.121570 0.000000 0.000000 0.000000 -2.729566 5.706065 -2.313432 -56.459420 0.998858 -7.687634 0.826328 -9.924377 0.333808 0.000000 0.000000 0.000000 2.057868 -4.773175 -1.919196 60.378919 0.575801 -6.141181 -5.642179 4.168097 0.068717 0.000000 0.000000 0.000000 
0.005724 0.963133 0.012335 -1.208385 7.221404 4.233187 1.985860 -0.271299 -2.893054 1.457458 -0.054894 -1.771484 -1.326838 1.896698 8.671519 0.000000 0.000000 0.000000 -1.542569 0.527648 -5.664051 -1.381621 0.199693 0.779782 1.062207 -0.952589 9.263913 0.000000 0.000000 0.000000 0.860559 -0.070600 1.051946 0.262606 0.236511 -7.713447 0.174114 -4.285959 10.823115 -0.845313 1.560734 -15.490565 0.000000 0.000000 0.000000 -2.049142 6.348025 -2.458339 -56.409613 2.347636 -8.303833 0.591612 -9.371015 0.331755 0.000000 0.000000 0.000000 1.105319 -5.615605 -2.104263 60.248318 -0.758567 -6.789565 -5.332553 3.663551 0.079248 0.000000 0.000000 0.000000 
0.005775 0.963011 0.012989 -1.253996 7.533809 4.571619 2.127580 -0.304603 -3.304929 1.266147 -0.041031 -1.719601 -0.984327 2.371289 8.337501 0.000000 0.000000 0.000000 -1.524795 0.546631 -5.874335 -1.296599 0.177028 0.514229 0.532884 -2.002090 9.229725 0.000000 0.000000 0.000000 0.918330 -0.075501 1.087177 0.189422 0.270999 -7.738895 0.272310 -4.468148 10.688439 -0.587018 1.396260 -15.543754 0.000000 0.000000 0.000000 -0.993210 7.425850 -2.696153 -56.465747 4.425827 -9.237320 0.241029 -9.520735 0.364007 0.000000 0.000000 0.000000 -0.350970 -6.884835 -2.352919 60.646999 -2.811850 -7.845581 -4.837039 4.466626 0.074362 0.000000 0.000000 0.000000 
0.005596 0.962944 0.013733 -1.138180 7.714263 4.930692 2.031553 -0.333128 -3.687268 1.249791 -0.030860 -1.908066 -1.247309 1.982559 8.459947 0.000000 0.000000 0.000000 -1.601899 0.577566 -6.275638 -1.192101 0.170231 0.642015 0.306540 -2.537080 9.526626 0.000000 0.000000 0.000000 0.860185 -0.077854 1.151586 0.096319 0.310109 -7.734209 0.305324 -4.516629 10.558056 -0.607695 1.414889 -15.564596 0.000000 0.000000 0.000000 0.141048 8.881384 -3.030635 -55.443750 6.040332 -9.752647 -0.972452 -9.586754 0.458927 0.000000 0.000000 0.000000 -1.402048 -8.379864 -2.707461 60.009203 -5.153368 -8.881440 -3.113658 5.335006 0.103337 0.000000 0.000000 0.000000 
0.005302 0.963026 0.014812 -1.037110 8.546295 5.228436 2.063025 -0.360492 -4.024534 1.214190 -0.031728 -1.784713 -1.420509 1.603251 8.141516 0.000000 0.000000 0.000000 -1.711629 0.588655 -6.486383 -1.201571 0.170110 0.588749 -0.117333 -3.350333 9.689779 0.000000 0.000000 0.000000 0.730972 -0.075238 1.173657 0.324850 0.244355 -7.954808 0.157013 -5.068206 10.802125 -0.484148 1.319433 -15.430379 0.000000 0.000000 0.000000 1.055999 10.297342 -3.364236 -53.998683 8.624465 -10.582854 -2.032531 -8.973606 0.505149 0.000000 0.000000 0.000000 -2.474019 -9.994938 -3.072187 58.277516 -8.241642 -10.066812 -0.917200 6.708791 0.187137 0.000000 0.000000 0.000000 
0.004912 0.963680 0.016389 -0.946820 8.606508 5.344690 1.922177 -0.358978 -4.012026 1.405650 -0.038654 -1.953805 -1.828212 1.014138 8.399019 0.000000 0.000000 0.000000 -1.786642 0.615776 -6.871947 -1.094586 0.175048 1.002855 0.079268 -3.034792 10.036539 0.000000 0.000000 0.000000 0.720865 -0.085209 1.384945 0.159282 0.326842 -8.372912 0.200476 -4.834584 11.385808 -0.371829 1.265933 -15.272816 0.000000 0.000000 0.000000 2.224911 11.889221 -3.680114 -51.441777 10.275019 -10.756653 -3.726520 -7.325274 0.504249 0.000000 0.000000 0.000000 -3.354835 -11.726932 -3.503134 55.590832 -11.405608 -10.937854 1.853004 7.084000 0.305758 0.000000 0.000000 0.000000 
0.004503 0.964382 0.018250 -0.836758 8.777493 5.614551 1.559755 -0.382046 -4.333998 1.742174 -0.064483 -1.935513 -2.018551 0.694928 8.396882 0.000000 0.000000 0.000000 -2.135775 0.643425 -7.448281 -0.825443 0.158248 1.440997 -0.089131 -3.464247 10.450899 0.000000 0.000000 0.000000 0.718797 -0.072688 1.104941 0.197043 0.319553 -8.477597 0.059624 -4.943076 11.772147 -0.154501 1.092453 -14.741235 0.000000 0.000000 0.000000 3.675300 13.485864 -3.918582 -48.580962 12.444490 -10.913969 -4.486658 -5.628505 0.413512 0.000000 0.000000 0.000000 -4.690359 -13.804443 -3.914752 51.598809 -14.798970 -11.414967 4.706185 8.215931 0.503841 0.000000 0.000000 0.000000 
0.004031 0.965400 0.020024 -0.747620 9.085349 5.754217 1.354060 -0.387068 -4.407244 1.769565 -0.066637 -1.913880 -2.121268 0.517477 8.347876 0.000000 0.000000 0.000000 -2.355531 0.661330 -7.870059 -0.603882 0.148562 1.971505 -0.246225 -3.758257 10.517112 0.000000 0.000000 0.000000 0.734685 -0.072643 1.081404 0.312057 0.293796 -8.784737 -0.089288 -4.868556 12.430138 0.023699 0.994331 -14.608069 0.000000 0.000000 0.000000 5.039322 15.057145 -4.116079 -45.177516 13.549414 -10.494770 -5.165372 -3.479773 0.260522 0.000000 0.000000 0.000000 -6.015939 -15.672573 -4.258700 47.367911 -17.527247 -11.315885 6.985102 8.630890 0.660442 0.000000 0.000000 0.000000 
0.003421 0.966160 0.021273 -0.611889 9.105211 5.978603 1.280556 -0.404800 -4.624626 1.831379 -0.080259 -1.728379 -2.294183 0.281117 8.483540 0.000000 0.000000 0.000000 -2.442913 0.698526 -8.462780 -0.536239 0.166203 2.734906 -0.293102 -3.796168 10.301706 0.000000 0.000000 0.000000 0.702394 -0.072284 1.085331 0.188872 0.364594 -9.389422 0.159505 -4.760420 13.054348 -0.241746 1.145412 -14.161633 0.000000 0.000000 0.000000 6.461194 16.419497 -4.220862 -42.007682 14.265285 -9.927953 -5.116654 -2.044187 0.139306 0.000000 0.000000 0.000000 -7.025328 -17.202127 -4.528641 42.891434 -19.358537 -10.685930 8.509627 8.413001 0.718925 0.000000 0.000000 0.000000 
0.002738 0.966424 0.021869 -0.521772 9.301607 6.077204 1.350022 -0.443310 -5.092089 1.445239 -0.089565 -0.880101 -2.207094 0.151796 7.910351 0.000000 0.000000 0.000000 -2.554094 0.737001 -9.162335 -0.486738 0.198651 3.951065 -0.258475 -3.571338 9.786209 0.000000 0.000000 0.000000 0.768020 -0.074397 1.070587 0.326083 0.311927 -9.266893 0.187148 -4.849866 13.192280 -0.517547 1.318507 -14.033543 0.000000 0.000000 0.000000 7.367633 17.530831 -4.334841 -39.101502 14.147483 -9.115660 -5.020642 -0.609758 0.020262 0.000000 0.000000 0.000000 -7.686602 -17.876904 -4.585029 39.138879 -19.930494 -9.771713 8.641331 8.276894 0.707489 0.000000 0.000000 0.000000 
0.001984 0.966188 0.021747 -0.325506 9.448605 5.688833 1.354652 -0.474007 -5.475277 1.048539 -0.125471 0.634101 -2.078533 0.071333 7.299573 0.000000 0.000000 0.000000 -2.606393 0.757483 -9.619779 -0.768652 0.289699 5.404714 -0.290904 -3.447172 9.095324 0.000000 0.000000 0.000000 0.671691 -0.104624 1.819120 0.511119 0.253149 -9.427028 0.324475 -4.493814 13.429181 -0.742134 1.499132 -13.777875 0.000000 0.000000 0.000000 7.476928 17.474261 -4.255614 -36.886520 13.392488 -8.382974 -4.871728 -0.267991 -0.006885 0.000000 0.000000 0.000000 -6.929152 -18.009676 -4.847652 36.209628 -19.621816 -8.833170 8.472028 8.174292 0.690301 0.000000 0.000000 0.000000 
0.001096 0.965530 0.020618 -0.195194 9.650369 5.256941 1.510812 -0.506888 -5.896962 0.545329 -0.149629 2.261467 -1.616814 0.583878 6.655669 0.000000 0.000000 0.000000 -2.729302 0.751840 -9.752155 -0.973484 0.363547 6.672791 -0.545486 -3.681811 7.975021 0.000000 0.000000 0.000000 0.703076 -0.146418 2.669522 0.662430 0.185999 -9.110301 0.440484 -4.469450 13.315223 -0.721258 1.498050 -13.827718 0.000000 0.000000 0.000000 7.188286 17.168491 -4.220867 -35.610397 12.338664 -7.788212 -4.689241 -0.937199 0.045722 0.000000 0.000000 0.000000 -6.624138 -17.410197 -4.742225 35.611817 -18.587821 -8.404804 7.602653 8.284124 0.657158 0.000000 0.000000 0.000000 
-0.000144 0.965103 0.018134 -0.100488 9.822744 4.699839 1.297345 -0.566643 -6.593139 0.155498 -0.214729 4.621233 -0.997788 1.228402 5.687362 0.000000 0.000000 0.000000 -2.411958 0.781897 -9.962907 -1.721783 0.548386 8.118704 -0.534317 -3.355696 6.842482 0.000000 0.000000 0.000000 0.995090 -0.243434 4.234880 0.335280 0.301358 -8.807823 0.580500 -4.511180 13.151837 -0.988219 1.712340 -14.504145 0.000000 0.000000 0.000000 6.391959 16.098651 -4.092081 -35.612032 11.306281 -7.529006 -5.420365 -2.722676 0.197871 0.000000 0.000000 0.000000 -5.101205 -16.348726 -4.738738 35.960688 -16.734325 -8.053755 7.517018 8.889790 0.713764 0.000000 0.000000 0.000000 
-0.001863 0.964055 0.013501 -0.000705 10.292651 4.359106 1.156625 -0.654737 -7.571287 0.298879 -0.337895 6.592017 -0.834941 1.217590 5.034858 0.000000 0.000000 0.000000 -2.375958 0.801215 -10.343922 -1.811829 0.591685 9.035126 -0.939024 -4.022578 6.103559 0.000000 0.000000 0.000000 1.031112 -0.323215 5.579767 0.782612 0.123977 -8.513090 0.263787 -4.455428 12.883448 -1.036097 1.817734 -15.138650 0.000000 0.000000 0.000000 5.723183 14.327654 -3.675891 -37.495449 10.680587 -7.819658 -5.696040 -6.072179 0.491225 0.000000 0.000000 0.000000 -4.054157 -14.181237 -4.279275 37.868579 -15.020976 -8.062816 7.789995 10.413071 0.891857 0.000000 0.000000 0.000000 
-0.004140 0.962615 0.006287 -0.115982 10.763143 4.123607 1.226660 -0.816825 -9.362785 0.477566 -0.522401 9.180938 -0.585170 1.590279 4.795242 0.000000 0.000000 0.000000 -1.993746 0.907967 -11.644015 -1.914921 0.669784 11.184569 -1.289786 -4.637220 5.540881 0.000000 0.000000 0.000000 1.379659 -0.508347 7.995942 0.862890 0.081799 -8.115149 0.516852 -4.415600 12.093721 -1.145142 2.007645 -16.970084 0.000000 0.000000 0.000000 4.411443 12.386380 -3.335163 -40.291231 8.603790 -7.830004 -6.009060 -9.134919 0.778371 0.000000 0.000000 0.000000 -3.547402 -12.270622 -3.754119 41.597489 -12.112652 -8.033745 7.256146 11.761013 0.994030 0.000000 0.000000 0.000000 
-0.006847 0.959043 -0.003037 -0.316793 10.808124 3.977316 1.012347 -1.078743 -11.929323 1.379818 -0.950006 12.756751 -0.617002 1.161729 4.113760 0.000000 0.000000 0.000000 -1.949465 1.023530 -13.528745 -1.543616 0.637806 13.665887 -1.662640 -5.272025 4.596113 0.000000 0.000000 0.000000 1.539674 -0.706539 10.472142 0.989380 0.022639 -7.954338 0.679766 -3.855162 11.844834 -1.074881 2.136124 -18.985232 0.000000 0.000000 0.000000 3.247280 9.887214 -2.755932 -43.438280 5.972993 -7.677066 -5.592579 -11.271135 0.923951 0.000000 0.000000 0.000000 -2.948582 -9.930487 -3.111006 45.507614 -9.869026 -8.062557 7.536593 13.903568 1.254535 0.000000 0.000000 0.000000 
-0.009418 0.954129 -0.013019 -0.472176 11.285690 3.821036 0.742065 -1.454965 -15.188671 1.748461 -1.446648 17.291803 -0.129216 1.158994 2.373482 0.000000 0.000000 0.000000 -2.043084 1.160749 -16.538867 -1.126646 0.557421 17.836701 -2.270331 -6.478677 3.803564 0.000000 0.000000 0.000000 2.192097 -1.036087 13.331722 1.070599 -0.034276 -7.373500 0.865925 -4.585254 11.513621 -1.297337 2.309356 -21.446057 0.000000 0.000000 0.000000 2.352088 7.838208 -2.288593 -46.389580 4.017107 -7.495460 -5.617428 -12.580034 1.053046 0.000000 0.000000 0.000000 -3.113615 -7.575049 -2.289255 49.667859 -8.220753 -8.284604 8.088128 16.655633 1.610768 0.000000 0.000000 0.000000 
-0.011701 0.949268 -0.021060 -0.490059 11.132696 4.484975 0.548283 -1.834930 -18.263064 1.805761 -1.775905 20.528663 0.221279 1.443789 1.624588 0.000000 0.000000 0.000000 -2.205667 1.289696 -19.759747 -0.575095 0.399301 21.119284 -2.490608 -6.817989 2.837168 0.000000 0.000000 0.000000 2.134790 -1.262111 15.803748 0.837627 0.019147 -6.761786 1.298640 -4.228467 10.618518 -1.624519 2.551405 -22.770752 0.000000 0.000000 0.000000 2.079469 6.485690 -1.892011 -47.683885 2.711655 -7.171039 -7.349535 -12.945274 1.270289 0.000000 0.000000 0.000000 -3.243674 -6.468990 -1.911168 52.511708 -8.268272 -8.726501 10.700262 18.455119 2.191799 0.000000 0.000000 0.000000 
-0.013310 0.944798 -0.025729 -0.247548 10.703840 5.410270 0.591212 -2.210105 -21.386531 1.181381 -1.888858 23.690629 0.400618 1.149931 0.454810 0.000000 0.000000 0.000000 -2.819919 1.321116 -23.138079 0.059331 0.186324 24.421042 -2.417024 -6.592001 2.530359 0.000000 0.000000 0.000000 2.516742 -1.471806 17.272982 0.076814 0.305230 -6.578315 1.531635 -4.968348 10.965026 -2.846056 3.085661 -23.354345 0.000000 0.000000 0.000000 2.813343 7.442017 -2.140585 -47.716876 5.401678 -8.094647 -12.070739 -14.346286 2.019054 0.000000 0.000000 0.000000 -4.419551 -6.361975 -1.687636 53.969612 -10.734464 -10.195438 15.768560 21.546355 3.466713 0.000000 0.000000 0.000000 
-0.014394 0.942127 -0.026858 0.005327 10.414276 6.495717 0.770538 -2.543309 -24.260680 0.417357 -1.875740 26.329165 0.607717 1.620744 0.483562 0.000000 0.000000 0.000000 -2.929255 1.390488 -25.606664 -0.202884 0.280285 26.484524 -2.243483 -6.113146 2.177302 0.000000 0.000000 0.000000 2.393400 -1.526355 18.018029 -0.061497 0.330278 -6.100720 1.736990 -4.722602 10.869243 -3.228681 3.282211 -23.348324 0.000000 0.000000 0.000000 4.937167 9.104958 -2.334822 -47.911328 9.090406 -9.455607 -17.312352 -15.000300 2.800767 0.000000 0.000000 0.000000 -6.677108 -8.249336 -1.954284 54.676536 -15.337550 -12.278951 21.869483 22.741814 4.840758 0.000000 0.000000 0.000000 
-0.015024 0.936832 -0.025826 0.051380 9.656639 7.648207 1.254561 -2.930040 -28.187212 -0.607157 -1.856888 30.923380 0.718374 1.375092 -0.410510 0.000000 0.000000 0.000000 -3.557990 1.383163 -28.941259 0.723755 -0.051789 29.847034 -2.291472 -5.968462 0.934062 0.000000 0.000000 0.000000 2.450030 -1.494459 17.695329 -0.505398 0.502198 -6.292117 1.924864 -4.614354 11.815164 -3.170753 3.207670 -23.087184 0.000000 0.000000 0.000000 6.033731 11.432132 -2.892616 -47.206204 14.086937 -11.095966 -23.419200 -14.693916 3.555014 0.000000 0.000000 0.000000 -8.842406 -10.712052 -2.315526 54.215806 -20.031242 -14.240251 29.484739 23.969085 6.699353 0.000000 0.000000 0.000000 
-0.015328 0.924669 -0.023644 -0.020743 9.397591 8.162741 2.066774 -3.289596 -32.405450 -2.450229 -1.588550 37.465800 1.351232 2.213515 -1.510844 0.000000 0.000000 0.000000 -4.097055 1.315741 -32.497603 1.923901 -0.665822 34.869323 -2.296027 -5.512958 -0.859720 0.000000 0.000000 0.000000 2.804372 -1.634968 18.419310 -0.682111 0.561375 -6.157029 2.140025 -4.154538 11.799660 -2.197285 2.696491 -22.558157 0.000000 0.000000 0.000000 6.475625 12.853880 -3.216676 -47.240686 17.727673 -12.429073 -27.783659 -13.850349 3.877050 0.000000 0.000000 0.000000 -10.276258 -12.668879 -2.623628 54.163285 -23.994758 -15.838384 35.532530 23.512679 7.842732 0.000000 0.000000 0.000000 
-0.015367 0.903144 -0.021457 -0.042192 9.199224 8.018046 2.601467 -3.819283 -37.559384 -4.858981 -0.922957 46.497239 2.420602 3.862023 -3.200066 0.000000 0.000000 0.000000 -4.569687 1.214485 -37.154399 2.859978 -1.398124 42.519960 -3.101971 -6.894055 -3.419668 0.000000 0.000000 0.000000 3.075740 -1.871569 20.186823 -0.762116 0.574440 -5.749417 2.202381 -3.890326 11.296791 -2.102039 2.641046 -22.296459 0.000000 0.000000 0.000000 6.375732 13.456740 -3.401855 -47.801822 20.341099 -13.520131 -31.055579 -13.011625 4.020146 0.000000 0.000000 0.000000 -11.690068 -13.520474 -2.572464 54.500738 -27.348427 -17.350673 40.623100 23.152590 8.785314 0.000000 0.000000 0.000000 
-0.014904 0.871124 -0.019412 -0.214133 8.749553 7.337867 3.684740 -3.996054 -41.840453 -7.350216 0.376535 55.139706 3.733793 5.754736 -6.136425 0.000000 0.000000 0.000000 -4.711534 1.208758 -42.087885 3.995103 -2.405729 51.318386 -4.506549 -9.889734 -6.721342 0.000000 0.000000 0.000000 3.237927 -2.299411 23.931932 -1.053474 0.712746 -6.550882 2.378887 -3.199990 11.138444 -2.142825 2.689371 -21.951475 0.000000 0.000000 0.000000 5.689580 12.561749 -3.249770 -48.896810 21.536049 -14.385306 -33.144010 -12.462443 4.068819 0.000000 0.000000 0.000000 -11.390799 -13.308288 -2.611749 54.264382 -29.219644 -18.005485 43.450513 22.543325 9.162179 0.000000 0.000000 0.000000 
-0.014501 0.833695 -0.018809 -0.025611 9.316854 6.794467 3.452806 -4.843973 -46.539064 -8.808754 1.180783 64.366977 4.787290 7.840391 -7.776489 0.000000 0.000000 0.000000 -4.681784 1.040924 -47.250115 4.091918 -3.191500 61.204520 -5.337989 -11.508936 -9.795636 0.000000 0.000000 0.000000 3.190586 -2.866365 28.454706 -0.886782 0.637077 -6.108451 2.768264 -2.719428 9.243736 -2.631916 2.984586 -21.461685 0.000000 0.000000 0.000000 2.887145 11.420901 -3.387344 -48.190612 22.051627 -14.270669 -35.436153 -14.297223 4.948674 0.000000 0.000000 0.000000 -11.507384 -12.350722 -2.349491 56.083880 -30.824644 -19.235601 45.677610 24.680363 10.711578 0.000000 0.000000 0.000000 
-0.014658 0.794257 -0.019886 0.107257 9.745105 6.698652 4.952870 -4.979538 -51.038769 -11.570163 3.641403 71.388442 6.285233 10.901905 -10.867263 0.000000 0.000000 0.000000 -4.972645 0.688035 -52.529868 4.183576 -3.756984 69.009049 -6.031652 -12.969277 -12.482735 0.000000 0.000000 0.000000 3.566975 -3.616039 32.830381 -1.082895 0.680247 -5.058737 2.756838 -2.444475 7.833561 -2.910332 3.139225 -21.452098 0.000000 0.000000 0.000000 1.591199 9.000800 -2.824458 -48.787923 22.206479 -14.447971 -37.295307 -17.987401 6.585062 0.000000 0.000000 0.000000 -10.636908 -10.857098 -2.097959 55.609305 -31.616632 -19.286423 47.662062 28.339673 13.034799 0.000000 0.000000 0.000000 
-0.015904 0.765265 -0.021021 -0.363699 9.584190 7.333737 7.002250 -4.691172 -56.039619 -12.310287 5.114685 77.644314 5.856706 10.040925 -10.265059 0.000000 0.000000 0.000000 -4.715600 0.708285 -57.834334 3.963939 -3.618818 75.106720 -6.218821 -13.399861 -12.559158 0.000000 0.000000 0.000000 3.115807 -4.123321 37.428308 -1.355931 0.845930 -7.221774 3.470632 -2.211583 9.259097 -3.598384 3.564800 -25.099401 0.000000 0.000000 0.000000 3.609567 10.780766 -3.066897 -50.986130 23.291354 -15.713179 -42.681147 -18.998962 8.006951 0.000000 0.000000 0.000000 -10.471180 -10.928817 -2.188626 55.903367 -30.935562 -19.184662 50.929340 31.430110 15.721473 0.000000 0.000000 0.000000 
-0.017934 0.744232 -0.019473 -0.596948 10.054602 9.098985 9.576365 -4.141920 -61.241193 -14.638802 8.280910 81.617032 7.020663 13.635669 -8.186474 0.000000 0.000000 0.000000 -4.443414 0.531529 -63.341279 3.799324 -3.450353 79.231446 -6.281906 -13.531164 -12.459963 0.000000 0.000000 0.000000 2.533998 -4.341185 39.763947 -0.433834 0.490529 -7.398846 3.442103 -1.427296 8.651804 -4.240394 3.968688 -26.964168 0.000000 0.000000 0.000000 4.340779 11.656498 -3.165186 -51.447977 26.170244 -17.080967 -49.724677 -21.118667 10.272827 0.000000 0.000000 0.000000 -11.353262 -12.647139 -2.586048 55.362039 -32.407651 -19.263067 59.215204 33.942395 20.335273 0.000000 0.000000 0.000000 
-0.020939 0.733155 -0.012279 -1.043259 9.616108 11.479371 10.926621 -3.541172 -64.354878 -14.910897 9.546350 84.102836 7.328411 14.277752 -8.999074 0.000000 0.000000 0.000000 -3.363191 1.276246 -67.255291 4.033034 -3.319994 81.723116 -6.673748 -14.718655 -13.327612 0.000000 0.000000 0.000000 2.539012 -4.278505 39.559413 -1.454054 0.898219 -8.740268 4.383217 -0.694651 9.804743 -3.909813 3.853782 -27.327735 0.000000 0.000000 0.000000 6.551032 11.531468 -2.697259 -54.879802 26.150851 -18.589982 -52.984445 -22.362338 11.602497 0.000000 0.000000 0.000000 -11.357739 -12.337088 -2.639262 58.634294 -31.468405 -20.052447 63.294725 38.366585 25.300486 0.000000 0.000000 0.000000 
-0.024043 0.727891 0.001957 -0.931321 9.331571 13.619338 11.270281 -3.298614 -65.350295 -14.699609 9.602128 83.991941 7.911464 15.598691 -10.514604 0.000000 0.000000 0.000000 -4.089527 0.901630 -69.200579 5.625642 -4.828115 82.238838 -7.353678 -17.024872 -14.106049 0.000000 0.000000 0.000000 3.150124 -4.317063 38.220485 -1.280854 0.831712 -9.171818 3.677260 -0.237942 8.624359 -5.924237 4.777948 -28.913415 0.000000 0.000000 0.000000 1.438540 9.774383 -3.185951 -56.486524 22.278872 -17.323932 -52.352796 -27.885295 14.404835 0.000000 0.000000 0.000000 -9.311717 -10.042899 -2.382865 63.000260 -24.675624 -18.136689 61.683281 46.926446 30.949319 0.000000 0.000000 0.000000 
-0.026960 0.726019 0.022083 -0.747471 9.340342 12.500530 9.413199 -3.944320 -61.058738 -12.828592 6.887637 82.963617 8.522111 17.013494 -12.363338 0.000000 0.000000 0.000000 -3.433675 1.363676 -66.165243 5.496697 -4.962678 82.255801 -8.027412 -19.314090 -17.212773 0.000000 0.000000 0.000000 3.399050 -4.045575 35.881484 -0.818459 0.638415 -7.993026 2.843573 -1.323661 7.536081 -5.074168 4.317440 -29.483152 0.000000 0.000000 0.000000 -0.603321 2.264494 -0.886962 -61.646557 11.933899 -13.839838 -44.162680 -42.174975 19.224138 0.000000 0.000000 0.000000 -4.991586 -2.516479 -0.520701 62.990633 -10.864047 -11.346780 52.568022 61.667450 35.765994 0.000000 0.000000 0.000000 
-0.029866 0.736002 0.045116 -0.446177 9.284966 9.760130 6.491392 -4.708458 -55.010282 -9.657215 2.669849 81.171367 8.967388 17.962453 -14.321857 0.000000 0.000000 0.000000 -2.255566 2.100501 -60.886664 4.583862 -4.385758 81.744730 -8.731363 -22.058476 -17.516787 0.000000 0.000000 0.000000 3.379810 -3.638944 33.423514 0.023458 0.370212 -8.910073 1.791352 -3.906834 7.750276 -6.365297 4.674771 -30.484736 0.000000 0.000000 0.000000 -3.371243 -4.909224 1.655961 -58.799740 -6.237777 -4.111225 -27.994558 -59.282668 19.202645 0.000000 0.000000 0.000000 -6.072346 6.962919 2.522265 59.807144 9.617343 -1.058824 28.596998 74.541046 25.375400 0.000000 0.000000 0.000000 
-0.032952 0.765682 0.071288 -0.524819 10.831705 5.941531 3.460118 -5.030954 -45.921523 -6.939524 -1.474917 75.853677 8.699920 16.475791 -16.900260 0.000000 0.000000 0.000000 -2.225135 1.721866 -51.571194 4.632554 -5.377696 76.559851 -8.384529 -20.813479 -17.013221 0.000000 0.000000 0.000000 3.326859 -3.523768 31.984277 0.707916 0.234067 -10.829467 0.907391 -5.507189 9.304558 -4.259980 3.750588 -30.818964 0.000000 0.000000 0.000000 2.851154 -9.722252 3.370359 -58.474543 -23.760708 4.745946 -0.728740 -72.326002 4.960035 0.000000 0.000000 0.000000 -11.276626 11.978298 3.788401 55.426411 24.318173 5.666724 -35.192824 81.202208 -26.127157 0.000000 0.000000 0.000000 
-0.036334 0.826524 0.102697 -1.313321 10.745924 4.300703 3.299893 -3.746994 -37.199406 -4.250722 -3.354671 65.132239 6.157012 11.056564 -7.826715 0.000000 0.000000 0.000000 -1.874277 1.903945 -40.136435 5.627287 -5.468789 63.767928 -7.210125 -17.337397 -10.713819 0.000000 0.000000 0.000000 2.222686 -2.250995 24.946243 1.241511 -0.183378 -6.291077 1.895249 -5.192838 5.905872 -5.072150 4.124906 -25.615175 0.000000 0.000000 0.000000 8.987302 -13.086582 4.127908 -57.140708 -30.664315 8.528977 46.866987 -80.286848 -35.242858 0.000000 0.000000 0.000000 -15.098041 13.150237 3.934368 53.683132 26.668567 6.814872 -101.917638 82.878452 -90.151549 0.000000 0.000000 0.000000 
-0.039268 0.911279 0.137695 0.118435 12.447988 4.249771 1.046344 -2.862089 -26.318924 -0.338433 -4.472312 47.691376 3.219675 6.288801 -1.396379 0.000000 0.000000 0.000000 -4.385933 0.938113 -28.631085 8.697314 -6.053895 46.770452 -6.501773 -15.985258 0.550560 0.000000 0.000000 0.000000 -0.637944 -0.968780 17.544803 1.294911 -0.203426 -5.823750 3.701403 -9.621859 8.124257 -6.069176 4.266406 -22.821393 0.000000 0.000000 0.000000 9.718761 -9.237822 2.768664 -56.791909 -29.610502 8.418873 116.343513 -85.854086 -104.692879 0.000000 0.000000 0.000000 -18.356473 9.474089 3.578651 57.786221 24.222497 5.073892 165.573496 80.221232 166.128557 0.000000 0.000000 0.000000 
-0.041909 0.997349 0.169935 0.202538 11.268538 5.644486 2.013709 -1.531518 -17.042528 0.383870 -2.019910 27.140964 -2.670416 3.525968 16.635777 0.000000 0.000000 0.000000 -4.678649 0.941564 -23.405315 7.139013 -3.327785 33.934703 -1.794851 -8.654932 20.553208 0.000000 0.000000 0.000000 -1.331303 -0.303632 8.936871 1.915801 -0.566745 -4.518123 1.498480 -8.597607 8.310129 -6.511761 4.746799 -17.774329 0.000000 0.000000 0.000000 11.452767 -7.818730 2.441296 -61.506915 -22.901709 5.435083 -123.867041 -82.622800 124.992264 0.000000 0.000000 0.000000 -15.510455 6.658481 2.858992 59.852526 12.680548 -0.313853 124.843804 69.605600 109.178581 0.000000 0.000000 0.000000 
-0.044995 1.056076 0.192861 -0.025349 12.170180 6.032992 1.525796 -1.442449 -15.634994 1.315514 -1.839695 22.103815 -6.598955 1.979380 25.839713 0.000000 0.000000 0.000000 -5.769981 0.667745 -20.999705 6.922591 -2.727661 27.751726 -1.503160 -8.785262 26.106601 0.000000 0.000000 0.000000 -0.913231 -0.147552 4.662846 1.753988 -0.549831 -3.693598 0.486723 -10.390398 8.547592 -6.772393 4.871900 -15.108862 0.000000 0.000000 0.000000 9.320463 -2.612912 1.031449 -61.451534 -14.884771 1.129226 -98.296593 -69.976046 85.607413 0.000000 0.000000 0.000000 -14.747736 6.609653 2.971033 59.362264 3.658253 -5.083942 110.986392 60.851759 82.267914 0.000000 0.000000 0.000000 
-0.047911 1.076322 0.206029 -0.102055 13.121723 4.863284 1.111096 -1.618511 -16.729328 -0.759320 -1.638625 25.624510 -4.655144 3.136252 21.990733 0.000000 0.000000 0.000000 -5.921473 0.571093 -20.827652 6.749653 -2.745582 27.546754 -1.846411 -8.840989 24.199249 0.000000 0.000000 0.000000 -0.196457 -0.326928 7.144701 1.029548 -0.083310 -5.783164 0.765034 -9.170626 9.719972 -4.121796 3.397484 -16.876970 0.000000 0.000000 0.000000 5.288412 -3.309935 1.274029 -57.787349 -9.254797 -2.501253 -91.129208 -63.939094 71.097108 0.000000 0.000000 0.000000 -12.308233 2.275286 1.648948 56.216182 -4.342083 -8.171164 96.705580 51.082692 57.780046 0.000000 0.000000 0.000000 
-0.050506 1.062605 0.213520 0.525803 13.939880 3.975605 0.000066 -1.968651 -18.395073 -0.817970 -1.782760 26.599642 -3.021960 5.539078 22.079790 0.000000 0.000000 0.000000 -6.592988 0.366354 -21.915109 6.940897 -2.831805 26.922480 -0.579972 -6.384950 21.810155 0.000000 0.000000 0.000000 -0.096103 -0.519776 10.052494 1.750403 -0.406780 -5.312301 0.622319 -8.720279 9.933074 -4.834586 3.925468 -18.834174 0.000000 0.000000 0.000000 3.398336 -2.065001 0.864991 -58.407225 -3.303111 -5.633270 -84.250939 -56.307997 56.629615 0.000000 0.000000 0.000000 -10.634471 0.702840 1.064812 57.073020 -8.949993 -10.319076 88.427522 46.786294 46.911421 0.000000 0.000000 0.000000 
-0.052358 1.012485 0.220090 0.605059 13.033944 4.079270 -0.528855 -2.618735 -22.500267 0.677258 -2.552915 29.471165 -4.740734 1.320480 18.249823 0.000000 0.000000 0.000000 -5.294505 0.662611 -24.943657 5.370172 -2.487719 31.195980 0.711757 -3.810228 18.493414 0.000000 0.000000 0.000000 0.815463 -0.792678 12.462507 -0.148069 0.392984 -5.618434 2.154044 -8.771928 10.489154 -5.253724 4.091589 -17.892495 0.000000 0.000000 0.000000 1.840107 0.786031 -0.151015 -59.771955 2.328843 -8.563218 -70.006239 -47.722693 38.637761 0.000000 0.000000 0.000000 -6.933970 1.573797 1.069063 56.901790 -12.979574 -12.363878 81.714721 46.147870 41.244912 0.000000 0.000000 0.000000 
-0.054151 0.927880 0.225624 0.348215 13.496399 2.491675 0.014422 -3.443049 -28.091706 -1.337443 -3.895199 45.621044 -1.275598 -0.641118 3.412859 0.000000 0.000000 0.000000 -4.587005 0.741582 -28.201428 5.395778 -4.177499 45.355148 -3.511601 -8.697565 0.209206 0.000000 0.000000 0.000000 1.102837 -1.199755 16.551876 1.598989 -0.402342 -4.558289 1.325427 -5.418216 9.714720 -4.656777 4.151228 -19.337937 0.000000 0.000000 0.000000 1.994658 1.609007 -0.328387 -61.390899 4.518060 -10.457332 -59.080437 -37.674280 23.831331 0.000000 0.000000 0.000000 -5.467575 -0.909314 0.031975 59.350691 -15.332510 -13.418399 72.664580 43.969333 35.106739 0.000000 0.000000 0.000000 
-0.057551 0.842968 0.223355 0.588324 14.857989 -0.281249 0.069501 -5.013570 -35.974667 -5.700172 -4.072849 66.042433 3.636432 5.558990 -5.539917 0.000000 0.000000 0.000000 -5.590791 0.092289 -34.654526 4.688557 -6.603740 64.365838 -6.018911 -13.658433 -10.349027 0.000000 0.000000 0.000000 1.923487 -2.557985 26.430724 0.175971 0.299954 -5.755231 2.368409 -5.009190 8.440322 -3.800858 3.737818 -21.439156 0.000000 0.000000 0.000000 -1.331013 0.546163 -0.321462 -60.531427 6.433293 -11.240168 -46.627878 -32.758805 15.846812 0.000000 0.000000 0.000000 -2.914524 -0.594240 -0.029178 61.434132 -15.060391 -13.833289 62.056466 45.047604 30.012705 0.000000 0.000000 0.000000 
-0.062768 0.796436 0.218687 -0.027147 15.043595 -0.792555 1.498122 -5.643051 -41.168882 -8.472963 -2.504435 75.894148 5.735397 9.883540 -8.516466 0.000000 0.000000 0.000000 -4.243393 0.199673 -41.964524 2.154675 -5.723792 77.395740 -7.489342 -17.770676 -9.287911 0.000000 0.000000 0.000000 1.991831 -3.625125 33.289493 0.250530 0.267495 -5.870578 3.429387 -3.555960 6.447552 -4.716143 4.341877 -24.546714 0.000000 0.000000 0.000000 -3.515937 0.877879 -0.713409 -61.099935 8.900991 -12.518096 -39.638759 -27.525616 11.021849 0.000000 0.000000 0.000000 -0.019111 -0.230470 -0.081271 62.694521 -12.942557 -12.844056 51.696252 47.430709 26.130002 0.000000 0.000000 0.000000 
-0.068964 0.781424 0.213777 0.325875 15.198325 1.588850 3.241944 -6.041907 -46.274925 -10.697299 -0.041059 78.717434 7.059898 13.405009 -8.660753 0.000000 0.000000 0.000000 -4.749234 -0.309499 -46.772649 2.360027 -5.811827 79.891295 -7.970600 -19.088824 -10.002870 0.000000 0.000000 0.000000 2.058385 -3.902744 34.592685 0.524773 0.182095 -6.577390 3.521252 -2.739658 5.547167 -5.862720 4.955130 -25.021441 0.000000 0.000000 0.000000 -4.626352 -0.372223 -0.426808 -61.134812 9.186278 -12.576281 -37.680149 -23.744545 8.836199 0.000000 0.000000 0.000000 -0.468532 0.841809 0.311457 63.979625 -10.632615 -11.609660 46.396324 49.017674 24.365520 0.000000 0.000000 0.000000 
-0.075108 0.786306 0.207026 0.330711 14.723076 5.162787 5.365426 -5.903129 -50.712392 -11.996235 2.071007 79.395945 6.830603 13.599211 -5.625396 0.000000 0.000000 0.000000 -4.294219 -0.287152 -51.697195 3.175327 -5.869541 79.332069 -7.508720 -17.686458 -10.417125 0.000000 0.000000 0.000000 1.778357 -4.033053 36.065578 0.467285 0.286057 -8.518222 3.539498 -1.651367 4.337644 -4.324594 4.210180 -25.343552 0.000000 0.000000 0.000000 -3.559339 -1.985453 0.251449 -62.295417 8.583257 -12.422728 -37.583381 -22.655720 8.230200 0.000000 0.000000 0.000000 0.343916 1.760708 0.622089 63.755742 -7.210264 -9.392558 42.045153 52.022209 23.788534 0.000000 0.000000 0.000000 
-0.080335 0.798577 0.200178 0.897258 14.122702 9.338079 5.729919 -6.025398 -53.267123 -11.779705 2.472954 76.913204 6.675472 13.355046 -5.598980 0.000000 0.000000 0.000000 -4.240650 -0.305647 -55.277986 4.159980 -6.090447 77.897023 -7.383932 -17.414354 -9.793355 0.000000 0.000000 0.000000 1.896137 -3.901680 35.166978 0.437042 0.317289 -9.413584 2.993112 -1.241401 3.846503 -5.436514 4.700823 -27.105199 0.000000 0.000000 0.000000 -5.770070 -1.659938 -0.175036 -60.220365 6.221039 -10.486405 -36.873649 -24.914295 8.843347 0.000000 0.000000 0.000000 -0.930227 1.914140 0.719247 63.808367 -2.585999 -6.610405 40.187007 55.770273 24.851943 0.000000 0.000000 0.000000 
-0.084331 0.808194 0.196837 0.859082 12.518344 11.498145 5.451174 -5.839425 -53.833366 -10.273346 1.748366 74.361981 6.307419 12.102709 -7.277627 0.000000 0.000000 0.000000 -3.760669 0.310563 -57.328887 4.794866 -5.842280 77.364614 -7.123116 -16.722810 -9.500386 0.000000 0.000000 0.000000 1.755270 -3.373695 33.056287 0.288443 0.363485 -9.893682 2.013286 -0.772602 5.339631 -3.718371 4.002107 -30.264453 0.000000 0.000000 0.000000 -4.664324 -5.467758 1.439639 -60.735987 -0.414203 -7.360191 -33.167308 -35.181669 11.589533 0.000000 0.000000 0.000000 -0.930775 4.799637 1.769412 62.159983 5.480991 -2.271699 31.066621 61.153257 22.302903 0.000000 0.000000 0.000000 
-0.087426 0.820010 0.199917 0.976421 12.658939 11.296431 2.756699 -6.481940 -50.697181 -6.965620 -1.567890 71.630536 6.162849 10.912930 -9.842847 0.000000 0.000000 0.000000 -2.931208 0.780721 -55.368802 4.382761 -5.581724 76.430621 -6.978778 -16.388139 -8.765416 0.000000 0.000000 0.000000 1.550583 -3.036202 31.094753 0.245094 0.342137 -8.874345 2.259896 -3.895467 4.585508 -5.144006 4.257888 -30.590008 0.000000 0.000000 0.000000 -5.356301 -9.080928 3.136347 -58.506525 -9.235432 -2.420665 -29.835843 -50.350767 16.299326 0.000000 0.000000 0.000000 -2.728024 10.394892 3.643020 58.627859 16.138974 2.733965 15.007957 68.038156 13.566183 0.000000 0.000000 0.000000 
-0.090444 0.838903 0.212645 0.787781 12.616693 9.478467 1.827156 -5.648131 -44.286497 -5.409448 -2.966876 67.203457 6.660213 11.385555 -11.753647 0.000000 0.000000 0.000000 -2.865797 1.009171 -50.016113 4.785582 -6.066394 73.256237 -6.277129 -14.471314 -7.915871 0.000000 0.000000 0.000000 1.761171 -2.901303 29.793935 -0.479871 0.664898 -10.201846 1.735870 -5.264278 7.462528 -4.503232 3.938522 -32.400058 0.000000 0.000000 0.000000 0.664677 -11.339215 4.026287 -57.977234 -21.560337 3.536100 -33.963967 -70.157671 28.162275 0.000000 0.000000 0.000000 -8.618280 10.238776 3.401463 57.232159 25.503809 6.932552 -10.974917 76.057530 -4.374486 0.000000 0.000000 0.000000 
-0.094606 0.900105 0.237950 -0.077742 11.925269 8.138280 1.049628 -3.977254 -33.774321 -1.290253 -4.522727 53.668860 4.296457 7.154840 -5.482352 0.000000 0.000000 0.000000 -1.104485 1.966299 -39.928079 3.808770 -4.211768 61.254660 -5.053232 -12.168023 -2.211801 0.000000 0.000000 0.000000 0.823210 -1.947217 24.613040 0.764974 0.078958 -7.399816 1.638008 -6.490004 7.517189 -4.993252 4.034098 -35.231223 0.000000 0.000000 0.000000 11.428920 -6.977528 2.513023 -61.660810 -24.890432 6.214929 -108.865942 -82.989032 108.493400 0.000000 0.000000 0.000000 -18.751520 7.976087 2.936356 59.951611 29.146454 9.170682 -74.693533 79.694789 -60.318657 0.000000 0.000000 0.000000 
-0.099636 1.005646 0.278606 0.517748 12.964498 8.395710 0.611830 -2.312215 -21.708538 2.632066 -3.574921 31.656776 -1.988226 1.871675 10.182505 0.000000 0.000000 0.000000 -1.461927 1.571106 -26.323534 5.074208 -3.264714 39.955408 -3.190767 -9.210780 7.889191 0.000000 0.000000 0.000000 -1.436803 -0.843169 17.679271 1.204930 0.061717 -9.661388 2.453055 -9.212781 10.764618 -5.873711 4.231665 -30.982740 0.000000 0.000000 0.000000 16.601074 -3.374888 1.426528 -61.753602 -23.233040 5.645175 -158.671607 -70.388323 160.079248 0.000000 0.000000 0.000000 -23.919267 3.094838 2.512139 62.943159 24.634318 6.280536 -161.353733 79.675876 -152.655782 0.000000 0.000000 0.000000 
-0.104703 1.146217 0.325428 -0.457629 11.496030 10.486825 3.349923 -0.931080 -11.237837 2.664164 -0.699164 6.778085 -9.118404 3.870273 39.496592 0.000000 0.000000 0.000000 -1.166086 1.302000 -16.452167 3.707194 -0.787884 16.248177 4.862109 -1.846433 34.187899 0.000000 0.000000 0.000000 -1.799013 -0.127367 6.381735 2.124696 -0.365074 -8.639757 1.413138 -7.230262 10.818689 -5.607030 4.360753 -23.728476 0.000000 0.000000 0.000000 18.800412 -2.392861 1.596348 -65.885438 -17.907943 2.584195 -150.048778 -60.698658 140.407548 0.000000 0.000000 0.000000 -25.302921 -0.319640 1.860755 68.364156 14.617862 1.626779 147.980416 69.667749 141.164249 0.000000 0.000000 0.000000 
-0.108489 1.258832 0.357832 -0.468303 11.340782 11.155537 2.887051 -0.797110 -9.345779 1.930450 -0.326676 2.783154 -11.632239 4.476044 49.888679 0.000000 0.000000 0.000000 -1.255243 1.023047 -11.987654 2.967724 -0.387695 6.978456 6.432967 -3.093355 44.699525 0.000000 0.000000 0.000000 -2.267174 0.095450 -0.593758 1.073965 -0.122679 -5.926887 1.375370 -8.524515 9.653132 -4.728488 3.725967 -19.315142 0.000000 0.000000 0.000000 16.613348 0.380133 0.774402 -66.760043 -12.331402 -0.227348 -138.470391 -57.446567 120.338183 0.000000 0.000000 0.000000 -21.470788 1.443721 2.182337 68.981135 7.501177 -3.319378 131.559568 65.377142 113.969988 0.000000 0.000000 0.000000 
-0.111458 1.340634 0.374360 -0.145229 10.730215 8.982639 0.546286 -1.087662 -11.750422 -0.263590 -0.790586 15.449807 -9.215597 4.213880 41.514852 0.000000 0.000000 0.000000 -1.863199 1.021231 -12.862784 4.891416 -1.081164 15.877157 5.019680 -3.413949 39.709090 0.000000 0.000000 0.000000 -2.454376 0.028066 2.512071 1.247399 -0.150192 -6.713694 1.031567 -6.320553 10.426716 -3.318256 3.162989 -19.847276 0.000000 0.000000 0.000000 12.288239 -0.794932 1.037202 -66.875590 -11.313248 -1.716702 -130.313314 -59.123195 109.345724 0.000000 0.000000 0.000000 -16.015511 -1.035180 0.954996 67.966256 1.794828 -6.027960 115.648585 60.438606 89.965703 0.000000 0.000000 0.000000 
-0.113947 1.394178 0.386440 0.245297 10.337973 8.542758 -1.941919 -1.484821 -13.795599 0.606592 -1.432436 20.853865 -7.228096 4.561906 36.131764 0.000000 0.000000 0.000000 -3.309477 0.999153 -15.276170 5.668326 -1.513390 19.983803 3.276864 -4.820136 36.755730 0.000000 0.000000 0.000000 -1.968812 -0.011717 2.971770 0.283880 0.225925 -6.658262 1.363290 -7.828371 10.488564 -4.493132 3.615255 -17.078829 0.000000 0.000000 0.000000 7.089899 0.779145 0.155245 -66.094733 -6.509627 -4.142514 -128.999782 -57.112537 106.481109 0.000000 0.000000 0.000000 -12.908691 0.152168 1.212117 69.197459 -1.681017 -8.919789 105.301792 59.272981 76.219930 0.000000 0.000000 0.000000 
-0.117000 1.426300 0.399441 0.207892 9.131585 8.861555 -1.944326 -1.608831 -14.820973 -0.218788 -0.923657 17.914368 -7.091090 3.232471 32.182823 0.000000 0.000000 0.000000 -3.906742 1.050649 -17.483292 4.495062 -0.939894 17.239121 2.601849 -6.060912 37.745101 0.000000 0.000000 0.000000 -0.580227 -0.079593 2.670371 -0.643349 0.613399 -7.778914 0.810095 -6.108880 11.593567 -4.444851 3.708487 -14.362717 0.000000 0.000000 0.000000 5.579961 1.678026 -0.134763 -65.840209 -3.698579 -6.126999 -129.722301 -55.959556 105.413120 0.000000 0.000000 0.000000 -10.866363 -1.559287 0.470485 66.367684 -6.836231 -11.115693 103.793065 55.787912 71.143734 0.000000 0.000000 0.000000 
-0.121006 1.436021 0.411860 1.511512 8.714614 9.375951 -3.080379 -1.980005 -16.746431 1.149461 -0.923792 13.614449 -7.514695 3.346743 33.999306 0.000000 0.000000 0.000000 -5.306917 0.874660 -17.308235 3.340319 -0.494252 12.880417 3.827792 -5.033257 39.350317 0.000000 0.000000 0.000000 -1.286513 -0.019452 2.161815 -1.875507 1.078179 -7.811917 1.626587 -6.527654 11.925885 -4.882959 3.915569 -15.125264 0.000000 0.000000 0.000000 5.123875 3.253997 -0.692775 -65.589288 -0.389980 -7.841590 -132.927687 -56.223565 110.715589 0.000000 0.000000 0.000000 -10.399212 -1.826307 0.439379 64.314871 -11.375937 -13.401329 108.491876 53.589947 72.640732 0.000000 0.000000 0.000000 
-0.125694 1.414478 0.423091 1.829794 8.874612 8.914326 -4.303715 -2.326637 -18.043989 2.395111 -1.074020 12.132616 -9.747291 1.262607 35.086423 0.000000 0.000000 0.000000 -6.377467 0.700479 -16.340628 4.514825 -0.722771 10.594360 5.572095 -2.922138 39.200543 0.000000 0.000000 0.000000 -1.887875 -0.008599 2.858055 -1.820102 1.050449 -7.281875 1.545963 -6.991062 10.472616 -2.623523 2.397304 -13.430458 0.000000 0.000000 0.000000 5.951875 2.814620 -0.506273 -65.430376 2.259132 -9.072290 -138.051179 -56.419825 118.331894 0.000000 0.000000 0.000000 -10.718010 -3.337379 0.177941 63.837771 -14.752319 -15.096583 109.385914 50.236698 68.797782 0.000000 0.000000 0.000000 
-0.131485 1.372823 0.432512 0.687007 8.546392 8.299496 -2.681987 -2.466791 -20.354513 1.969330 -1.150584 14.263167 -10.667990 -0.492104 33.642298 0.000000 0.000000 0.000000 -5.235728 0.869045 -16.986367 4.339608 -0.688701 11.278759 6.125804 -2.262659 38.848148 0.000000 0.000000 0.000000 -1.039168 -0.041459 2.305082 -1.580767 0.892519 -5.080012 1.604715 -6.630397 9.497006 -2.759929 2.454677 -11.675757 0.000000 0.000000 0.000000 7.686095 2.910048 -0.383477 -65.329997 4.617011 -10.246424 -144.679105 -53.241311 125.085961 0.000000 0.000000 0.000000 -12.630268 -4.240602 0.222946 63.639937 -18.265398 -16.861853 116.087015 46.312867 70.424880 0.000000 0.000000 0.000000 
-0.137731 1.306784 0.441898 0.030045 7.619428 7.214368 -0.216246 -2.136150 -20.618422 1.445698 -1.005105 14.182896 -10.313451 0.704759 36.172856 0.000000 0.000000 0.000000 -4.582762 0.983732 -17.287770 4.376582 -0.734714 14.007396 5.392136 -3.156590 38.169160 0.000000 0.000000 0.000000 -0.667223 -0.057901 2.169241 0.137956 0.166615 -4.896733 -0.712251 -4.606126 10.683651 0.408391 0.389206 -10.109183 0.000000 0.000000 0.000000 10.568544 2.722876 0.077014 -65.863388 3.697710 -10.393625 -152.310311 -49.779059 133.933702 0.000000 0.000000 0.000000 -13.001018 -3.966869 0.034191 61.601097 -19.962057 -16.610827 122.743561 44.859542 77.398063 0.000000 0.000000 0.000000 
-0.143857 1.221227 0.451893 -0.061160 5.104014 4.384314 0.643007 -1.622833 -17.538784 -0.228153 -0.598667 14.712282 -9.247380 2.565012 39.469373 0.000000 0.000000 0.000000 -3.523058 1.160526 -17.010608 4.371527 -0.749379 19.672828 4.432922 -3.943220 34.781675 0.000000 0.000000 0.000000 -0.906287 -0.072358 2.740411 -0.818364 0.474727 -2.725739 1.010279 -4.375199 10.871588 -2.234289 2.117088 -10.477662 0.000000 0.000000 0.000000 12.775501 1.364952 0.363140 -67.207365 5.343735 -11.107781 -162.925953 -45.447182 153.488536 0.000000 0.000000 0.000000 -15.517828 -3.725416 0.596490 60.667812 -17.003322 -15.311705 129.741270 43.788393 83.708839 0.000000 0.000000 0.000000 
-0.148642 1.110750 0.461233 -0.095164 3.939258 2.431306 0.097864 -1.622454 -17.049239 0.560511 -1.247694 23.152562 -8.860805 -1.409379 28.269161 0.000000 0.000000 0.000000 -2.537211 1.398418 -18.455575 4.110382 -0.775549 29.126447 3.264184 -1.961032 21.850414 0.000000 0.000000 0.000000 -1.132987 -0.160062 5.484184 -1.109527 0.637971 -4.164924 2.226803 -6.306381 12.194968 -4.835798 3.700760 -10.936792 0.000000 0.000000 0.000000 11.419903 6.035767 -1.266012 -63.765297 8.020338 -11.314736 -168.362606 -40.403484 166.091767 0.000000 0.000000 0.000000 -15.357919 -1.038787 1.515628 59.852322 -10.708419 -12.804348 141.623783 45.366741 102.037274 0.000000 0.000000 0.000000 
-0.151850 1.004753 0.468026 -1.099445 4.276459 -1.562240 0.839378 -1.370992 -15.363439 0.090720 -2.066065 36.519516 -3.557318 -3.115339 7.456395 0.000000 0.000000 0.000000 0.273423 1.932238 -19.992722 4.607374 -1.494489 43.081261 -1.480317 -4.138670 1.046878 0.000000 0.000000 0.000000 0.733094 -0.493855 9.685418 -0.258254 0.231256 -2.743919 0.883071 -5.464526 11.226385 -3.279978 2.757959 -13.371432 0.000000 0.000000 0.000000 11.020257 4.692298 -0.788504 -64.198996 7.399526 -11.451605 -172.976422 -37.338748 176.560429 0.000000 0.000000 0.000000 -11.715771 -2.356625 0.671532 59.460084 -6.133092 -10.111798 151.981269 45.139415 121.993076 0.000000 0.000000 0.000000 
-0.153561 0.940887 0.469776 -1.280349 5.975564 -4.443863 0.370165 -1.519667 -15.970764 -0.301782 -3.159588 46.943406 0.653668 -1.589551 -5.365835 0.000000 0.000000 0.000000 -0.421391 1.995960 -23.122057 6.639400 -4.015235 55.711280 -3.265259 -6.984562 -4.055529 0.000000 0.000000 0.000000 1.481187 -0.863276 14.158368 -0.074976 0.178758 -2.961496 0.485357 -7.661972 11.185752 -2.828560 2.327890 -13.863311 0.000000 0.000000 0.000000 8.805514 5.008468 -1.173892 -63.079632 7.879788 -11.306075 -172.816233 -33.744753 175.786186 0.000000 0.000000 0.000000 -7.843092 -1.719723 0.497279 61.554589 -0.572907 -7.960410 156.796462 49.060775 135.249488 0.000000 0.000000 0.000000 
-0.153968 0.935067 0.471179 -1.138470 5.676044 -4.311463 0.740049 -1.352453 -14.853948 -0.402939 -2.873677 45.367289 0.639919 -1.325474 -4.891359 0.000000 0.000000 0.000000 -0.873846 1.919264 -23.128924 6.864403 -3.949314 54.624075 -3.082566 -7.165022 -1.890172 0.000000 0.000000 0.000000 0.859868 -0.757513 13.759763 0.740688 -0.332086 -0.393651 1.050449 -7.248470 8.954365 -3.622921 2.863238 -11.603394 0.000000 0.000000 0.000000 7.726309 5.300865 -1.275683 -65.967685 8.183591 -11.867547 -166.992471 -34.055011 156.898327 0.000000 0.000000 0.000000 -4.581080 -0.941011 0.317176 63.871023 1.645913 -6.819311 152.304457 53.549051 130.838524 0.000000 0.000000 0.000000 
-0.153703 0.969762 0.471853 -0.587623 5.874169 -2.500538 1.518336 -1.288036 -15.093597 -1.572432 -1.833926 40.226628 -1.975411 -2.167802 3.511139 0.000000 0.000000 0.000000 -0.528395 1.883088 -21.788623 6.291595 -3.115979 48.262944 -2.221439 -7.000135 4.821877 0.000000 0.000000 0.000000 0.574615 -0.577193 11.230426 1.387646 -0.589426 -1.307032 0.467867 -7.000907 9.352641 -4.316228 3.396042 -9.379872 0.000000 0.000000 0.000000 6.338738 7.691439 -2.034981 -65.740823 10.995819 -13.531080 -157.605087 -37.782374 134.518163 0.000000 0.000000 0.000000 -3.287430 -1.500944 -0.052677 64.459757 -0.223573 -7.799262 145.461829 55.194934 121.436992 0.000000 0.000000 0.000000 
-0.153238 1.010117 0.470051 0.646879 5.973597 -0.424487 0.590167 -1.382162 -14.944318 -2.026895 -1.285808 35.688162 -5.068534 -2.870326 12.734534 0.000000 0.000000 0.000000 -1.213962 1.581217 -19.270273 5.065085 -1.809585 38.297218 -0.606426 -5.706697 12.647371 0.000000 0.000000 0.000000 -0.382950 -0.349187 8.527745 1.376967 -0.620185 -0.707116 0.960341 -5.785543 8.651777 -3.718174 3.036300 -5.927823 0.000000 0.000000 0.000000 5.751776 7.099159 -1.817771 -65.057540 12.705723 -14.524696 -148.257588 -40.995022 116.955875 0.000000 0.000000 0.000000 -3.732397 -3.250512 -0.574831 63.783042 -4.867692 -9.896544 137.691237 53.723091 108.227198 0.000000 0.000000 0.000000 
-0.152766 1.033437 0.464755 0.749066 6.419227 0.703433 0.104554 -1.462460 -15.153966 -1.862590 -1.404776 35.504804 -5.692625 -2.404214 15.576424 0.000000 0.000000 0.000000 -0.722715 1.526772 -17.644135 3.673401 -1.002491 32.782529 0.482903 -4.628534 16.466271 0.000000 0.000000 0.000000 -0.363301 -0.284803 7.087969 1.351819 -0.579139 -1.146364 0.541109 -5.693052 9.107872 -2.224850 1.867259 -3.435521 0.000000 0.000000 0.000000 7.163670 10.205443 -2.495934 -64.237285 15.022676 -15.603913 -135.103121 -44.683215 98.682145 0.000000 0.000000 0.000000 -3.714230 -4.457911 -0.974537 62.340103 -8.657352 -11.528106 121.933846 55.173664 88.923176 0.000000 0.000000 0.000000 
-0.152740 1.031293 0.457666 0.847637 8.248230 1.014727 -0.352004 -1.301187 -13.137771 -0.866526 -1.924668 33.655743 -4.508268 -3.522294 9.306064 0.000000 0.000000 0.000000 -1.329527 1.307484 -16.329754 3.672544 -1.101085 29.525558 -0.071325 -4.765079 14.327497 0.000000 0.000000 0.000000 -0.408173 -0.291324 7.161614 1.413763 -0.586686 -1.382033 0.599263 -6.058353 9.733174 -2.753650 2.275731 -2.057401 0.000000 0.000000 0.000000 6.160387 9.476232 -2.391436 -63.630756 15.308410 -15.833169 -117.991787 -49.552965 82.056756 0.000000 0.000000 0.000000 -2.693531 -5.384425 -1.448591 62.614491 -13.459368 -14.032186 101.189312 57.126251 69.294428 0.000000 0.000000 0.000000 
-0.152988 1.012473 0.448548 0.197360 9.442969 0.270954 0.992930 -0.920842 -10.419522 -0.282607 -1.991930 30.359304 -3.672812 -6.129009 2.501872 0.000000 0.000000 0.000000 -0.680303 1.298762 -15.318128 4.149267 -1.468396 29.899313 -1.159321 -5.599474 9.760320 0.000000 0.000000 0.000000 -0.096343 -0.399164 8.663370 1.680879 -0.562550 -3.367837 0.301359 -6.623779 11.363012 -2.310098 1.967922 -3.671310 0.000000 0.000000 0.000000 5.576798 8.679198 -2.247602 -62.783454 15.114479 -15.716066 -97.342303 -51.786669 63.485147 0.000000 0.000000 0.000000 -1.753515 -6.334316 -1.916187 61.714811 -15.366862 -14.868762 74.550910 55.881557 45.893756 0.000000 0.000000 0.000000 
-0.153108 0.988545 0.436125 -0.193543 10.352268 0.060113 1.854766 -0.856511 -10.247050 -0.294626 -1.879814 28.392723 -2.305507 -6.500980 -2.030913 0.000000 0.000000 0.000000 -0.463411 1.300773 -15.171365 3.748260 -1.429740 30.113158 -1.990759 -5.933401 3.684843 0.000000 0.000000 0.000000 0.712479 -0.601116 10.602142 1.493927 -0.400603 -4.394785 0.107926 -6.135549 12.234237 -0.829307 0.893315 -4.715811 0.000000 0.000000 0.000000 4.831039 7.154267 -1.824652 -63.660512 12.795485 -15.092363 -69.413708 -51.976736 41.288551 0.000000 0.000000 0.000000 -1.069674 -6.469798 -2.098178 63.112382 -15.864562 -15.397760 49.260688 52.521210 27.489178 0.000000 0.000000 0.000000 
-0.152537 0.973774 0.422538 -0.286868 10.402812 -0.076574 2.102991 -0.897092 -10.862246 -0.505390 -1.744838 27.697302 -0.539642 -3.580881 -3.586134 0.000000 0.000000 0.000000 -0.343193 1.308262 -15.077816 3.667609 -1.355261 29.295454 -2.695909 -7.092446 1.279786 0.000000 0.000000 0.000000 0.983525 -0.666834 11.133282 1.255692 -0.293737 -4.427926 0.464569 -5.952812 13.228401 -0.717130 0.895454 -6.128704 0.000000 0.000000 0.000000 4.168078 4.798117 -1.193893 -66.024504 9.268689 -13.948827 -44.660110 -45.979221 22.697786 0.000000 0.000000 0.000000 -0.695627 -5.742563 -1.911275 64.667993 -12.153389 -13.907850 30.634880 45.894407 14.952032 0.000000 0.000000 0.000000 
-0.151603 0.966789 0.409893 -0.395859 10.243091 0.860076 1.634999 -1.059489 -12.249216 0.031375 -1.733949 25.848933 0.208220 -2.229662 -4.149282 0.000000 0.000000 0.000000 0.074156 1.351651 -14.893677 2.865457 -0.884591 26.638387 -2.917652 -7.655331 1.371432 0.000000 0.000000 0.000000 1.246126 -0.694677 11.079445 1.729522 -0.492820 -4.575327 0.239574 -6.051503 13.393663 -0.552989 0.806015 -6.886457 0.000000 0.000000 0.000000 2.782288 3.572075 -0.959485 -66.744622 8.122547 -13.464069 -31.717555 -35.817032 12.498523 0.000000 0.000000 0.000000 0.154049 -5.128911 -1.810237 65.337733 -9.329592 -12.539305 18.765622 37.919171 7.809789 0.000000 0.000000 0.000000 
-0.150665 0.965198 0.399229 -0.122723 10.279071 1.668954 1.615180 -1.172084 -13.354651 0.109139 -1.556618 23.718264 -0.140890 -1.842918 -2.398348 0.000000 0.000000 0.000000 0.418514 1.331588 -14.113756 1.842901 -0.365782 22.467359 -3.326499 -8.888546 2.948250 0.000000 0.000000 0.000000 1.159820 -0.665346 10.762605 1.636156 -0.434394 -4.842532 0.511962 -5.917322 13.903470 -0.696490 0.932109 -7.032113 0.000000 0.000000 0.000000 2.010774 2.238603 -0.597240 -67.390753 7.590293 -13.404601 -26.990639 -26.360733 7.784081 0.000000 0.000000 0.000000 0.201290 -4.712622 -1.676929 66.585666 -7.475915 -11.777222 12.507675 30.404047 4.432238 0.000000 0.000000 0.000000 
-0.149989 0.966571 0.390541 -0.054215 10.401664 2.323060 1.502689 -1.206936 -13.583060 0.687586 -1.490373 21.082901 -0.601357 -1.735186 -0.687951 0.000000 0.000000 0.000000 0.343171 1.227789 -12.940450 1.319546 -0.109448 17.935784 -3.234604 -8.822229 4.027418 0.000000 0.000000 0.000000 1.296019 -0.653654 10.346629 1.580769 -0.445010 -4.309566 0.496730 -5.966073 13.939042 -0.703015 0.883642 -6.136887 0.000000 0.000000 0.000000 1.842216 1.820821 -0.473884 -66.763626 8.498252 -13.783431 -26.952574 -18.903350 5.485678 0.000000 0.000000 0.000000 0.571099 -4.541179 -1.663311 66.621925 -6.530623 -11.244756 10.836418 26.139431 3.352618 0.000000 0.000000 0.000000 
-0.149558 0.967831 0.383750 0.115545 10.344834 2.837860 1.235579 -1.193409 -13.232756 1.194113 -1.400124 18.628422 -0.916263 -1.244667 1.115694 0.000000 0.000000 0.000000 0.349297 1.133571 -11.780074 -0.005014 0.274202 14.239778 -3.054762 -8.532850 4.881082 0.000000 0.000000 0.000000 1.231164 -0.644271 10.300476 1.430417 -0.378554 -4.340869 0.756369 -5.191662 14.489600 0.141569 0.257643 -5.814822 0.000000 0.000000 0.000000 1.843090 1.870187 -0.476201 -65.669525 10.381330 -14.775037 -28.648234 -14.816004 4.486055 0.000000 0.000000 0.000000 0.864761 -5.924819 -2.198888 65.858132 -7.041888 -11.279270 12.831855 24.379800 3.542066 0.000000 0.000000 0.000000 
-0.149269 0.969185 0.379089 0.026635 10.375803 3.204714 1.468160 -1.132446 -12.797885 1.397814 -1.222518 16.063680 -1.311781 -1.244382 2.416127 0.000000 0.000000 0.000000 -0.082526 0.955354 -10.067563 -0.213738 0.287103 10.391584 -2.276092 -6.927542 5.761801 0.000000 0.000000 0.000000 1.233138 -0.605174 9.719857 1.570701 -0.443068 -4.279017 0.775869 -4.612921 14.864438 0.508387 -0.022468 -5.367418 0.000000 0.000000 0.000000 1.901571 2.582546 -0.691197 -64.048989 12.547741 -15.662572 -31.502049 -11.405383 3.727107 0.000000 0.000000 0.000000 0.196160 -6.648878 -2.385308 65.158035 -7.800604 -11.449683 14.874632 23.547649 3.835839 0.000000 0.000000 0.000000 
-0.148978 0.969982 0.376321 -0.072048 10.482340 3.200303 1.568792 -1.037589 -11.896532 1.563457 -1.105886 14.235857 -1.676756 -1.572830 3.063104 0.000000 0.000000 0.000000 -0.390865 0.836057 -8.896800 -0.107045 0.231547 8.348695 -2.291420 -6.988878 5.941602 0.000000 0.000000 0.000000 1.324148 -0.581402 9.237330 1.487565 -0.437992 -3.809846 0.991805 -4.009102 14.724314 0.796425 -0.296576 -4.383264 0.000000 0.000000 0.000000 2.164452 3.159526 -0.834321 -62.488676 14.531397 -16.350408 -33.268810 -10.113718 3.425997 0.000000 0.000000 0.000000 -0.206618 -6.766796 -2.386997 64.372752 -8.550183 -11.559469 15.895221 24.549619 4.264897 0.000000 0.000000 0.000000 
-0.148534 0.970202 0.374817 -0.080727 10.326284 2.974268 1.654054 -0.877502 -10.263487 1.353373 -0.852052 11.661058 -2.155609 -1.692284 4.405021 0.000000 0.000000 0.000000 -0.949572 0.704392 -7.714354 0.341100 0.114483 6.442931 -1.996078 -6.463248 6.543422 0.000000 0.000000 0.000000 1.225686 -0.509700 8.373287 1.266786 -0.413002 -2.770932 1.020489 -3.528874 14.217707 0.375226 -0.001114 -3.631348 0.000000 0.000000 0.000000 2.834369 3.441204 -0.833177 -61.613280 15.294884 -16.494373 -35.442322 -9.928054 3.540803 0.000000 0.000000 0.000000 -0.596065 -6.342219 -2.195138 63.346080 -8.798739 -11.386950 17.271608 25.864140 4.844325 0.000000 0.000000 0.000000 
-0.148039 0.970116 0.374021 -0.147148 10.400239 2.774104 1.687939 -0.718156 -8.503955 1.490293 -0.683372 9.026036 -2.669210 -2.219149 5.144674 0.000000 0.000000 0.000000 -1.268704 0.558471 -6.129911 0.476146 0.046368 4.165075 -1.905297 -6.356471 7.026290 0.000000 0.000000 0.000000 1.187230 -0.466812 7.787918 1.097306 -0.352178 -2.536593 0.916327 -3.178344 14.082623 0.664838 -0.280382 -2.949174 0.000000 0.000000 0.000000 3.128028 3.240416 -0.718226 -59.858725 15.097624 -15.905952 -38.302949 -10.345451 3.936674 0.000000 0.000000 0.000000 -1.040996 -5.973585 -2.027651 61.233349 -8.486220 -10.736849 20.476333 27.635779 6.029484 0.000000 0.000000 0.000000 
-0.147632 0.969074 0.373540 -0.285633 10.221026 1.914297 2.131547 -0.512180 -6.187888 1.410587 -0.492082 6.405258 -3.272424 -2.601755 6.387012 0.000000 0.000000 0.000000 -1.733145 0.390255 -4.341291 0.670070 -0.009510 2.973135 -1.388660 -5.429119 7.815050 0.000000 0.000000 0.000000 1.391822 -0.454867 7.428446 0.680531 -0.244121 -1.310115 0.621338 -2.731487 13.368939 0.546877 -0.283926 -1.762411 0.000000 0.000000 0.000000 3.595482 2.757254 -0.492731 -59.186600 13.516665 -14.936890 -38.697955 -13.081060 5.020765 0.000000 0.000000 0.000000 -1.229641 -5.075585 -1.699501 59.744179 -7.608817 -9.944274 21.262644 29.261801 6.652603 0.000000 0.000000 0.000000 
-0.147263 0.967874 0.373043 -0.367529 10.518364 1.379030 2.230706 -0.407903 -4.850272 1.492213 -0.397176 4.696911 -3.823482 -3.343055 6.802872 0.000000 0.000000 0.000000 -1.763054 0.279228 -3.064936 0.293605 0.017338 1.858024 -0.980744 -4.593242 8.084852 0.000000 0.000000 0.000000 1.258265 -0.410949 6.943223 0.544378 -0.205531 -0.912932 0.409764 -2.947107 13.107683 0.128214 0.050721 -1.637138 0.000000 0.000000 0.000000 3.661357 2.484239 -0.398239 -58.440780 11.959598 -13.939127 -37.982773 -16.679292 6.331475 0.000000 0.000000 0.000000 -1.549129 -4.284355 -1.397976 59.201677 -6.980392 -9.530476 20.837361 31.218501 7.036431 0.000000 0.000000 0.000000 
-0.147019 0.966094 0.372605 -0.503420 10.713001 0.864877 2.295392 -0.336642 -3.895369 1.882349 -0.402392 3.955930 -4.619214 -4.765918 6.880465 0.000000 0.000000 0.000000 -1.831541 0.211011 -2.324811 0.170676 0.023912 1.492230 -0.936377 -4.474736 8.038188 0.000000 0.000000 0.000000 1.089425 -0.365306 6.442735 0.495260 -0.222864 -0.299764 0.301579 -2.862227 12.521375 0.140922 0.030210 -1.467612 0.000000 0.000000 0.000000 2.718126 1.400821 -0.162257 -58.702068 9.272889 -12.691886 -32.772128 -20.363623 6.736109 0.000000 0.000000 0.000000 -1.275129 -2.811840 -0.914945 59.146424 -5.467922 -8.738394 17.226691 30.519518 5.862139 0.000000 0.000000 0.000000 
-0.146839 0.964867 0.372478 -0.413332 10.886984 0.270819 2.199576 -0.272462 -3.025314 1.849814 -0.374992 3.580149 -4.798638 -4.785678 7.320805 0.000000 0.000000 0.000000 -2.018710 0.143279 -1.628697 0.082688 0.032352 1.366961 -0.832010 -4.227407 7.977657 0.000000 0.000000 0.000000 0.909848 -0.340725 6.271475 0.568870 -0.276594 -0.014507 -0.078253 -3.013373 11.913608 -0.075065 0.207141 -1.454254 0.000000 0.000000 0.000000 1.602913 0.321200 0.060146 -59.511725 6.620202 -11.522083 -25.136357 -22.727340 5.921553 0.000000 0.000000 0.000000 -0.760828 -1.315130 -0.426659 60.351200 -3.689091 -8.010455 12.122923 29.149608 4.248518 0.000000 0.000000 0.000000 
-0.146819 0.963635 0.372874 -0.555503 11.181269 -0.163416 2.331908 -0.210657 -2.107632 1.979541 -0.351438 2.950264 -5.050834 -5.077652 7.531896 0.000000 0.000000 0.000000 -1.763534 0.071971 -0.823200 -0.286074 0.078387 1.205790 -1.024593 -4.658084 8.181473 0.000000 0.000000 0.000000 0.837901 -0.306265 5.780832 0.776409 -0.375425 -0.016677 -0.346415 -3.327871 11.857884 -0.102494 0.248539 -1.715185 0.000000 0.000000 0.000000 0.503413 -0.975922 0.371619 -59.329766 3.432700 -9.882021 -18.399498 -23.568633 4.710187 0.000000 0.000000 0.000000 -0.132049 0.257915 0.093922 61.170853 -1.432453 -7.008136 7.652308 26.247358 2.757599 0.000000 0.000000 0.000000 
-0.146853 0.963350 0.373847 -0.501818 11.059322 -0.547222 2.150787 -0.168301 -1.551086 2.263774 -0.382985 2.902190 -4.936773 -4.993273 7.346384 0.000000 0.000000 0.000000 -2.035868 0.027774 -0.380507 -0.083301 0.052999 1.285724 -0.999052 -4.615414 8.147644 0.000000 0.000000 0.000000 0.710744 -0.277313 5.433239 0.765485 -0.354834 -0.209412 -0.306474 -3.107090 11.708163 -0.149227 0.300030 -1.763934 0.000000 0.000000 0.000000 0.118015 -2.347409 0.790807 -59.447761 0.689582 -8.549831 -12.860562 -23.261178 3.486070 0.000000 0.000000 0.000000 0.245063 1.052395 0.362013 61.926411 0.170238 -6.239772 3.875126 23.886117 1.739624 0.000000 0.000000 0.000000 
-0.146884 0.963124 0.375200 -0.453615 10.907408 -0.756921 2.558499 -0.142162 -1.022676 1.667028 -0.272731 2.221012 -4.579236 -4.081811 7.738033 0.000000 0.000000 0.000000 -1.893265 -0.030846 0.269311 -0.386768 0.076156 0.744406 -0.913100 -4.428621 8.057817 0.000000 0.000000 0.000000 0.746189 -0.256680 5.056518 0.651179 -0.243632 -0.992794 -0.715469 -2.614798 12.258829 -0.050982 0.255704 -1.882194 0.000000 0.000000 0.000000 0.185779 -2.982772 1.003812 -59.189335 -1.515765 -7.529617 -8.892818 -23.316078 2.658216 0.000000 0.000000 0.000000 0.738444 1.167851 0.396388 62.179546 0.814453 -5.909865 2.661325 23.191985 1.484270 0.000000 0.000000 0.000000 
-0.146795 0.963096 0.376494 -0.401135 10.689650 -0.753237 2.400142 -0.094415 -0.336874 1.761246 -0.218403 1.058108 -4.442328 -4.110994 7.329437 0.000000 0.000000 0.000000 -2.067794 -0.052413 0.517687 -0.514772 0.082192 0.452493 -0.611796 -3.870658 8.318956 0.000000 0.000000 0.000000 0.617563 -0.203947 4.201297 0.479522 -0.187071 -0.638703 -0.386435 -3.022227 11.900554 -0.642061 0.678076 -1.422476 0.000000 0.000000 0.000000 0.022584 -3.322963 1.108069 -57.930418 -3.085028 -6.484450 -7.027910 -23.172836 2.284218 0.000000 0.000000 0.000000 0.173250 1.870110 0.653349 62.684554 0.881182 -5.967976 1.619934 22.978773 1.250936 0.000000 0.000000 0.000000 
-0.146385 0.962802 0.377396 -0.245766 9.593251 -0.629064 2.411759 -0.056792 0.211038 1.169173 -0.132511 0.499635 -3.528772 -2.422070 7.503438 0.000000 0.000000 0.000000 -2.087986 -0.046659 0.528068 -0.433093 0.061833 0.213018 -0.420562 -3.558760 8.242837 0.000000 0.000000 0.000000 0.202735 -0.173653 3.938812 0.718025 -0.244338 -1.520061 -0.446786 -2.411129 11.993178 -0.974369 1.091027 -2.936265 0.000000 0.000000 0.000000 -1.781353 -3.108616 0.899071 -56.803522 -3.839182 -5.978154 -5.724396 -22.944984 1.993499 0.000000 0.000000 0.000000 1.236947 1.881077 0.637718 62.172098 1.999757 -5.376232 0.372437 22.589896 1.012647 0.000000 0.000000 0.000000 
-0.145770 0.963423 0.377902 -0.309332 8.277102 -0.478840 2.309373 -0.049592 0.183314 1.143941 -0.142466 0.707388 -3.492197 -2.400292 7.650295 0.000000 0.000000 0.000000 -1.924579 0.014707 -0.081743 -0.509614 0.108220 1.162979 0.093389 -2.473870 7.812367 0.000000 0.000000 0.000000 0.112981 -0.147526 3.451200 0.327843 -0.056111 -1.761917 0.023127 -2.035721 11.675322 -0.437262 0.605081 -2.512370 0.000000 0.000000 0.000000 -1.174437 -2.345528 0.690606 -57.166985 -3.879430 -5.929462 -5.071822 -24.106385 1.978779 0.000000 0.000000 0.000000 0.066119 2.163384 0.756970 62.725006 2.381805 -5.209196 -1.082315 22.085689 0.720050 0.000000 0.000000 0.000000 
-0.144850 0.966021 0.378031 -0.022313 7.890251 -0.608957 2.520872 -0.033480 0.501381 0.343924 -0.039574 0.165651 -3.057155 -0.740306 9.329256 0.000000 0.000000 0.000000 -1.553695 -0.006397 0.144985 -1.699278 0.279778 1.484093 0.643122 -1.394456 8.015538 0.000000 0.000000 0.000000 -0.177802 -0.153035 3.816712 0.836219 -0.233727 -2.781744 -0.618714 -1.157115 12.377724 0.214762 0.101022 -2.374513 0.000000 0.000000 0.000000 -1.968587 -3.257767 0.926642 -56.016488 -4.011833 -5.867134 -4.557558 -25.039833 1.905588 0.000000 0.000000 0.000000 1.647484 1.809528 0.613660 61.964776 2.523403 -5.082257 -0.757017 21.702157 0.793884 0.000000 0.000000 0.000000 
