HIERARCHY
ROOT Hips
{
	OFFSET -0.001795 -0.223333 0.028219
	CHANNELS 6 Xposition Yposition Zposition Zrotation Yrotation Xrotation 
	JOINT LeftUpLeg
	{
		OFFSET 0.069520 -0.091406 -0.006815
		CHANNELS 3 Zrotation Yrotation Xrotation
		JOINT LeftLeg
		{
			OFFSET 0.034277 -0.375199 -0.004496
			CHANNELS 3 Zrotation Yrotation Xrotation
			JOINT LeftFoot
			{
				OFFSET -0.013596 -0.397961 -0.043693
				CHANNELS 3 Zrotation Yrotation Xrotation
				JOINT LeftToe
				{
					OFFSET 0.026358 -0.055791 0.119288
					CHANNELS 3 Zrotation Yrotation Xrotation
					End Site
					{
						OFFSET 0.000000 0.000000 0.000000
					}
				}
			}
		}
	}
	JOINT RightUpLeg
	{
		OFFSET -0.067670 -0.090522 -0.004320
		CHANNELS 3 Zrotation Yrotation Xrotation
		JOINT RightLeg
		{
			OFFSET -0.038290 -0.382569 -0.008850
			CHANNELS 3 Zrotation Yrotation Xrotation
			JOINT RightFoot
			{
				OFFSET 0.015774 -0.398415 -0.042312
				CHANNELS 3 Zrotation Yrotation Xrotation
				JOINT RightToe
				{
					OFFSET -0.025372 -0.048144 0.123348
					CHANNELS 3 Zrotation Yrotation Xrotation
					End Site
					{
						OFFSET 0.000000 0.000000 0.000000
					}
				}
			}
		}
	}
	JOINT Spine
	{
		OFFSET -0.002533 0.108963 -0.026696
		CHANNELS 3 Zrotation Yrotation Xrotation
		JOINT Spine1
		{
			OFFSET 0.005487 0.135180 0.001092
			CHANNELS 3 Zrotation Yrotation Xrotation
			JOINT Spine2
			{
				OFFSET 0.001457 0.052922 0.025425
				CHANNELS 3 Zrotation Yrotation Xrotation
				JOINT Neck
				{
					OFFSET -0.002778 0.213870 -0.042857
					CHANNELS 3 Zrotation Yrotation Xrotation
					JOINT Head
					{
						OFFSET 0.005152 0.064970 0.051349
						CHANNELS 3 Zrotation Yrotation Xrotation
						End Site
						{
							OFFSET 0.000000 0.000000 0.000000
						}
					}
				}
				JOINT LeftShoulder
				{
					OFFSET 0.078845 0.121749 -0.034090
					CHANNELS 3 Zrotation Yrotation Xrotation
					JOINT LeftArm
					{
						OFFSET 0.090977 0.030469 -0.008868
						CHANNELS 3 Zrotation Yrotation Xrotation
						JOINT LeftForeArm
						{
							OFFSET 0.259612 -0.012772 -0.027456
							CHANNELS 3 Zrotation Yrotation Xrotation
							JOINT LeftHand
							{
								OFFSET 0.249234 0.008986 -0.001171
								CHANNELS 3 Zrotation Yrotation Xrotation
								End Site
								{
									OFFSET 0.000000 0.000000 0.000000
								}
							}
						}
					}
				}
				JOINT RightShoulder
				{
					OFFSET -0.081759 0.118833 -0.038615
					CHANNELS 3 Zrotation Yrotation Xrotation
					JOINT RightArm
					{
						OFFSET -0.096012 0.032551 -0.009143
						CHANNELS 3 Zrotation Yrotation Xrotation
						JOINT RightForeArm
						{
							OFFSET -0.253742 -0.013329 -0.021401
							CHANNELS 3 Zrotation Yrotation Xrotation
							JOINT RightHand
							{
								OFFSET -0.255298 0.007772 -0.005559
								CHANNELS 3 Zrotation Yrotation Xrotation
								End Site
								{
									OFFSET 0.000000 0.000000 0.000000
								}
							}
						}
					}
				}
			}
		}
	}
}
MOTION
Frames: 100
Frame Time: 0.050000
0.000000 0.964659 0.000000 -1.051910 5.423807 1.687052 1.836739 -0.059417 -0.174625 1.186125 -0.017196 -2.244644 -2.350759 1.754174 12.633224 0.000000 0.000000 0.000000 -0.097264 0.329837 -3.232443 -2.480172 0.306606 0.368883 1.262377 -2.031483 12.969595 0.000000 0.000000 0.000000 0.320489 -0.186501 4.127098 1.369222 -0.540262 -1.930705 -0.472268 -1.107412 1.106694 1.443918 -0.512122 -5.794008 0.000000 0.000000 0.000000 -13.627753 -0.338873 -1.520641 -43.359402 -3.359515 -3.612074 0.048444 -7.177660 0.244423 0.000000 0.000000 0.000000 13.348556 -0.633936 -1.279994 49.907715 4.040539 -2.921632 -3.922090 4.228339 0.082817 0.000000 0.000000 0.000000 
0.001235 0.964010 0.001198 -1.190676 5.644504 1.874865 1.856991 -0.078491 -0.418387 1.276042 0.001056 -2.812410 -2.390169 2.245433 13.870335 0.000000 0.000000 0.000000 -0.738531 0.317543 -3.180284 -1.917551 0.232323 0.201514 2.109759 -0.329221 12.853724 0.000000 0.000000 0.000000 0.535464 -0.198797 4.151880 0.440398 -0.118502 -1.841726 0.596533 -1.630431 0.603505 0.590431 0.199705 -7.263127 0.000000 0.000000 0.000000 -13.559956 -0.299311 -1.426762 -45.026236 -3.454205 -3.716169 1.776883 -6.264486 0.129423 0.000000 0.000000 0.000000 12.814288 -1.432960 -1.733840 50.825507 3.546781 -3.104437 -4.246037 5.270555 0.068731 0.000000 0.000000 0.000000 
0.002490 0.963152 0.002388 -1.052397 5.587086 1.831383 1.639464 -0.052769 -0.142378 1.214341 -0.024369 -2.124172 -2.154492 1.694420 11.697610 0.000000 0.000000 0.000000 -0.986478 0.299741 -3.022218 -1.539373 0.196024 0.356993 1.635135 -1.006227 12.136426 0.000000 0.000000 0.000000 0.890814 -0.222992 4.284025 0.346089 0.010676 -3.612847 -0.111338 -1.482153 2.410994 0.411493 0.380136 -7.746273 0.000000 0.000000 0.000000 -13.231665 -0.347231 -1.381613 -45.771029 -3.080492 -4.068758 1.678487 -8.114180 0.171787 0.000000 0.000000 0.000000 13.877922 -1.150747 -1.598202 50.238698 2.877937 -3.532356 -3.616891 5.286442 0.088220 0.000000 0.000000 0.000000 
0.003504 0.963522 0.003603 -1.296286 5.789524 1.860136 1.814077 -0.088449 -0.567319 1.265708 -0.043926 -1.768674 -2.179093 1.963068 12.341397 0.000000 0.000000 0.000000 -1.055745 0.328523 -3.347604 -1.350064 0.192487 0.737457 1.986171 -0.530772 12.817152 0.000000 0.000000 0.000000 0.756176 -0.193759 3.830758 0.063811 0.092470 -2.646235 0.933157 -2.365641 2.140603 -0.987176 1.257248 -7.172209 0.000000 0.000000 0.000000 -12.663084 0.707311 -1.642664 -47.487231 -3.262229 -4.179745 2.501962 -7.967188 0.125775 0.000000 0.000000 0.000000 13.050307 -0.845754 -1.549104 51.011851 2.572407 -3.668856 -3.908318 5.014177 0.074881 0.000000 0.000000 0.000000 
0.004261 0.963606 0.004874 -1.089971 6.012416 1.826574 1.756195 -0.072385 -0.356632 1.042626 -0.022779 -1.815500 -2.488838 1.412769 12.177874 0.000000 0.000000 0.000000 -1.369360 0.331937 -3.449791 -1.267750 0.203739 1.182605 1.886567 -0.671628 12.770137 0.000000 0.000000 0.000000 0.608767 -0.194243 3.991877 0.422807 -0.024514 -3.490540 0.405332 -2.167975 2.682971 -1.082970 1.305345 -6.431094 0.000000 0.000000 0.000000 -12.234409 0.526713 -1.571041 -48.248542 -2.533017 -4.570150 2.318659 -8.740219 0.145526 0.000000 0.000000 0.000000 13.092989 -1.068489 -1.569881 51.047485 1.369983 -4.217936 -3.406846 6.098177 0.092049 0.000000 0.000000 0.000000 
0.004776 0.963449 0.006235 -1.157177 6.550280 1.669212 1.680333 -0.088489 -0.594030 1.461531 -0.092699 -1.041050 -2.847937 0.737864 11.830646 0.000000 0.000000 0.000000 -1.307468 0.331637 -3.452840 -1.402059 0.229698 1.352171 1.857686 -0.884444 13.489977 0.000000 0.000000 0.000000 0.452969 -0.193985 4.146100 0.601226 -0.088711 -3.646775 0.832465 -2.860769 3.003433 -1.838919 1.839866 -6.769015 0.000000 0.000000 0.000000 -12.311304 1.521923 -1.955191 -49.081976 -2.225633 -4.822445 2.760704 -8.823936 0.122648 0.000000 0.000000 0.000000 12.203647 -1.256980 -1.635338 52.025318 1.183594 -4.410635 -4.444687 5.712055 0.061111 0.000000 0.000000 0.000000 
0.005049 0.962913 0.007695 -1.121469 6.494912 1.755274 1.782827 -0.083082 -0.482058 1.322861 -0.067899 -1.311923 -3.021129 0.502535 11.961689 0.000000 0.000000 0.000000 -1.308817 0.347599 -3.631356 -1.624085 0.267220 1.538871 2.016798 -0.603482 13.529421 0.000000 0.000000 0.000000 0.440982 -0.198098 4.242310 0.705663 -0.140688 -3.547302 0.656837 -2.979443 2.806082 -1.767050 1.778151 -6.709636 0.000000 0.000000 0.000000 -12.093018 1.960287 -2.116268 -49.710833 -0.968958 -5.370351 2.507934 -9.049511 0.145178 0.000000 0.000000 0.000000 11.866620 -1.614424 -1.786446 52.509358 0.646589 -4.658233 -4.652607 5.764758 0.053832 0.000000 0.000000 0.000000 
0.005211 0.962666 0.009209 -1.196666 6.541195 1.845156 1.735051 -0.091696 -0.612856 1.645986 -0.104491 -1.136153 -3.130114 0.290182 11.880600 0.000000 0.000000 0.000000 -1.136410 0.348760 -3.603322 -1.822816 0.279917 1.279898 2.051907 -0.649047 13.885599 0.000000 0.000000 0.000000 0.370065 -0.207776 4.510817 0.868512 -0.193359 -3.879660 0.586949 -3.086714 2.789498 -1.675509 1.675170 -6.050672 0.000000 0.000000 0.000000 -11.330949 2.573818 -2.287539 -49.950228 0.635829 -6.040567 2.525365 -9.458235 0.150708 0.000000 0.000000 0.000000 10.659774 -2.304297 -1.972478 53.280316 -0.250936 -5.111212 -5.106867 5.325950 0.046626 0.000000 0.000000 0.000000 
0.005345 0.962998 0.010516 -1.241140 6.534970 2.124261 1.799715 -0.099901 -0.693014 1.709292 -0.084491 -1.653610 -3.351037 0.265188 12.602810 0.000000 0.000000 0.000000 -1.090814 0.352336 -3.623112 -1.893185 0.271274 0.943842 2.182628 -0.437408 13.992150 0.000000 0.000000 0.000000 0.454364 -0.206619 4.382995 0.684144 -0.114137 -3.872870 0.820702 -3.238198 2.604174 -1.542974 1.552530 -5.754383 0.000000 0.000000 0.000000 -10.599821 3.261455 -2.473776 -50.402124 2.103421 -6.670343 2.303838 -9.321219 0.167778 0.000000 0.000000 0.000000 9.595095 -2.799017 -2.092134 53.716332 -0.845160 -5.396397 -5.873051 4.295145 0.047089 0.000000 0.000000 0.000000 
0.005567 0.963077 0.011578 -1.173697 6.829851 2.585481 1.635354 -0.120605 -1.006020 1.946237 -0.087930 -1.956385 -3.586388 -0.001087 12.769438 0.000000 0.000000 0.000000 -1.138275 0.370536 -3.826094 -1.964245 0.252286 0.409376 2.115376 -0.689875 14.525411 0.000000 0.000000 0.000000 0.447917 -0.199039 4.214594 0.766657 -0.120909 -4.353148 0.731471 -3.448633 2.730469 -1.600574 1.583852 -5.570655 0.000000 0.000000 0.000000 -9.486890 3.979276 -2.629527 -50.714697 3.930562 -7.465114 1.815249 -9.735865 0.214504 0.000000 0.000000 0.000000 8.088395 -3.436168 -2.176132 54.556814 -2.424397 -6.195772 -6.356346 4.152523 0.043685 0.000000 0.000000 0.000000 
0.005724 0.963133 0.012335 -1.210618 7.183472 2.781794 1.694182 -0.139220 -1.225811 1.968102 -0.079719 -2.128675 -3.805852 -0.128448 13.144225 0.000000 0.000000 0.000000 -1.119092 0.379498 -3.921160 -2.055123 0.256816 0.273468 2.173901 -0.605439 14.794183 0.000000 0.000000 0.000000 0.505931 -0.209443 4.351926 0.716228 -0.085033 -4.534032 0.796063 -3.614410 2.815249 -1.570567 1.583683 -5.966154 0.000000 0.000000 0.000000 -8.752324 4.607665 -2.792426 -50.752492 5.195654 -7.991033 1.670259 -9.184609 0.213534 0.000000 0.000000 0.000000 7.022723 -4.274100 -2.382493 54.551568 -3.660260 -6.745555 -6.116295 3.638168 0.058612 0.000000 0.000000 0.000000 
0.005775 0.963011 0.012989 -1.255335 7.493643 3.106026 1.827579 -0.171938 -1.616977 1.790498 -0.066707 -2.084576 -3.805133 -0.114069 13.086840 0.000000 0.000000 0.000000 -1.100577 0.398567 -4.123536 -1.973401 0.234615 0.027893 2.034972 -0.893415 15.064530 0.000000 0.000000 0.000000 0.562602 -0.219136 4.462095 0.623794 -0.038445 -4.605128 0.938942 -3.788016 2.649060 -1.306960 1.393298 -6.020442 0.000000 0.000000 0.000000 -7.613554 5.674607 -3.063592 -50.928735 7.156696 -8.797490 1.442728 -9.344879 0.234492 0.000000 0.000000 0.000000 5.388229 -5.545201 -2.669111 55.140320 -5.588870 -7.669697 -5.717017 4.426382 0.046566 0.000000 0.000000 0.000000 
0.005596 0.962944 0.013733 -1.138689 7.685939 3.455506 1.728759 -0.198436 -1.989659 1.774945 -0.056028 -2.264679 -3.903167 0.002443 13.599625 0.000000 0.000000 0.000000 -1.177596 0.430970 -4.507070 -1.872057 0.229103 0.142965 1.708929 -1.453364 15.054177 0.000000 0.000000 0.000000 0.509191 -0.223826 4.602862 0.510193 0.013847 -4.642302 0.993468 -3.858510 2.475693 -1.331576 1.411894 -6.040503 0.000000 0.000000 0.000000 -6.311571 7.152158 -3.452620 -50.090853 8.630157 -9.196296 0.351856 -9.442656 0.320334 0.000000 0.000000 0.000000 4.161114 -7.055960 -3.067876 54.664238 -7.786667 -8.538942 -4.078992 5.291897 0.068190 0.000000 0.000000 0.000000 
0.005302 0.963026 0.014812 -1.038134 8.534042 3.749375 1.753443 -0.225296 -2.321802 1.748566 -0.056967 -2.152304 -4.352739 -0.749774 13.307755 0.000000 0.000000 0.000000 -1.284931 0.444880 -4.713061 -1.880358 0.229682 0.091090 1.497111 -1.822636 15.509712 0.000000 0.000000 0.000000 0.381126 -0.220736 4.672517 0.794101 -0.079878 -4.938393 0.848384 -4.375614 2.755003 -1.188218 1.300424 -5.904604 0.000000 0.000000 0.000000 -5.297558 8.558566 -3.827016 -48.772380 11.038746 -9.858171 -0.563826 -8.870549 0.367445 0.000000 0.000000 0.000000 2.902920 -8.719568 -3.483356 53.115307 -10.684059 -9.504383 -2.000173 6.669299 0.137145 0.000000 0.000000 0.000000 
0.004912 0.963680 0.016389 -0.950340 8.603823 3.852346 1.618249 -0.221752 -2.301112 1.929947 -0.062690 -2.311080 -4.519078 -0.787061 13.745007 0.000000 0.000000 0.000000 -1.354274 0.472640 -5.066449 -1.780177 0.237032 0.469503 1.355719 -2.224551 16.057640 0.000000 0.000000 0.000000 0.383734 -0.234999 4.953593 0.592198 0.036223 -5.484751 0.885574 -4.193671 3.433158 -1.079027 1.221314 -5.700026 0.000000 0.000000 0.000000 -4.001341 10.174954 -4.207180 -46.354206 12.511454 -9.890645 -2.161538 -7.292786 0.393898 0.000000 0.000000 0.000000 1.855381 -10.473455 -3.937491 50.596074 -13.623080 -10.179943 0.647763 7.079378 0.250233 0.000000 0.000000 0.000000 
0.004503 0.964382 0.018250 -0.836254 8.790257 4.114820 1.262402 -0.240428 -2.613883 2.243037 -0.086205 -2.296224 -4.363029 -0.209569 14.331664 0.000000 0.000000 0.000000 -1.694205 0.505826 -5.614832 -1.531144 0.225702 0.872419 1.597414 -1.994487 16.884349 0.000000 0.000000 0.000000 0.389769 -0.222678 4.693148 0.643395 0.023884 -5.600989 0.722060 -4.317099 3.826593 -0.838364 1.008066 -5.095373 0.000000 0.000000 0.000000 -2.426519 11.787137 -4.484479 -43.644378 14.489289 -9.914237 -2.798611 -5.679086 0.332465 0.000000 0.000000 0.000000 0.339459 -12.597339 -4.399245 46.795005 -16.782197 -10.448551 3.336680 8.287447 0.432451 0.000000 0.000000 0.000000 
0.004031 0.965400 0.020024 -0.754842 9.101508 4.230380 1.071391 -0.241546 -2.662180 2.263060 -0.087493 -2.277722 -4.101685 0.328991 14.481608 0.000000 0.000000 0.000000 -1.896160 0.526686 -5.995002 -1.327590 0.222059 1.363981 1.640383 -2.063351 17.593799 0.000000 0.000000 0.000000 0.432231 -0.227412 4.728799 0.781956 -0.008547 -5.959959 0.518089 -4.250007 4.519657 -0.656567 0.873352 -4.899771 0.000000 0.000000 0.000000 -0.927944 13.397651 -4.734901 -40.369021 15.419900 -9.407127 -3.443080 -3.602686 0.222037 0.000000 0.000000 0.000000 -1.081185 -14.494973 -4.772625 42.666034 -19.279927 -10.193538 5.506480 8.803906 0.588624 0.000000 0.000000 0.000000 
0.003421 0.966160 0.021273 -0.617449 9.136310 4.440026 0.993216 -0.256998 -2.865053 2.325683 -0.101393 -2.099516 -4.310470 0.055265 14.593912 0.000000 0.000000 0.000000 -1.985358 0.565339 -6.547957 -1.259578 0.243160 2.073316 1.484571 -2.359737 17.699602 0.000000 0.000000 0.000000 0.411051 -0.229443 4.789966 0.632924 0.095688 -6.754954 0.777226 -4.175594 5.322894 -0.956173 1.064583 -4.346939 0.000000 0.000000 0.000000 0.574479 14.793212 -4.879563 -37.331631 15.964480 -8.802759 -3.355422 -2.221135 0.129063 0.000000 0.000000 0.000000 -2.191278 -16.061128 -5.070429 38.250106 -20.915864 -9.463864 6.996896 8.670885 0.660334 0.000000 0.000000 0.000000 
0.002738 0.966424 0.021869 -0.521620 9.344255 4.534343 1.046678 -0.294058 -3.312308 1.966529 -0.113884 -1.298574 -4.022249 0.326416 14.152409 0.000000 0.000000 0.000000 -2.099850 0.607257 -7.209803 -1.211629 0.282048 3.209878 1.469455 -2.317439 17.581218 0.000000 0.000000 0.000000 0.487220 -0.234837 4.797358 0.799574 0.022690 -6.583126 0.782166 -4.242152 5.398321 -1.243073 1.274083 -4.201319 0.000000 0.000000 0.000000 1.679692 15.957955 -5.000092 -34.613378 15.713343 -8.011688 -3.273764 -0.804702 0.036007 0.000000 0.000000 0.000000 -2.948461 -16.762196 -5.129632 34.542111 -21.394251 -8.510385 7.149050 8.573857 0.658151 0.000000 0.000000 0.000000 
0.001984 0.966188 0.021747 -0.324093 9.515453 4.155181 1.039972 -0.323318 -3.676394 1.600844 -0.154872 0.129491 -3.843646 0.420065 13.709677 0.000000 0.000000 0.000000 -2.159421 0.629818 -7.629746 -1.474491 0.374803 4.559350 1.473959 -2.331113 17.754718 0.000000 0.000000 0.000000 0.397200 -0.267586 5.569929 1.042604 -0.057266 -6.815104 0.830691 -3.872257 5.700732 -1.497565 1.474470 -3.971088 0.000000 0.000000 0.000000 1.832973 15.917643 -4.931449 -32.426962 14.946940 -7.296351 -3.159994 -0.455333 0.013879 0.000000 0.000000 0.000000 -2.165908 -16.889629 -5.385303 31.507429 -21.025992 -7.550227 7.068655 8.463527 0.646738 0.000000 0.000000 0.000000 
0.001096 0.965530 0.020618 -0.198140 9.730973 3.728071 1.185150 -0.355543 -4.068220 1.138124 -0.186474 1.659981 -3.687429 0.328680 12.966327 0.000000 0.000000 0.000000 -2.277771 0.626283 -7.737097 -1.671670 0.452054 5.745778 1.758512 -1.597957 17.011282 0.000000 0.000000 0.000000 0.453179 -0.318295 6.453323 1.211707 -0.141213 -6.492293 0.915964 -3.813126 5.580130 -1.474034 1.473632 -4.177607 0.000000 0.000000 0.000000 1.587457 15.623158 -4.885302 -31.194430 13.883055 -6.742836 -3.004941 -1.108690 0.054470 0.000000 0.000000 0.000000 -1.845363 -16.294831 -5.262917 30.881493 -20.002722 -7.154622 6.248720 8.543915 0.610751 0.000000 0.000000 0.000000 
-0.000144 0.965103 0.018134 -0.101590 9.919985 3.180779 0.969892 -0.409669 -4.722298 0.773247 -0.259505 3.879577 -2.534026 1.656004 11.761987 0.000000 0.000000 0.000000 -1.982220 0.651888 -7.915761 -2.370947 0.627646 7.089787 1.809112 -1.299779 16.383668 0.000000 0.000000 0.000000 0.787969 -0.442318 8.128509 0.745752 0.038049 -6.255814 1.145974 -3.923256 5.378388 -1.750471 1.726850 -5.008080 0.000000 0.000000 0.000000 0.767239 14.521566 -4.720024 -31.152961 12.945604 -6.514755 -3.802129 -2.876419 0.179424 0.000000 0.000000 0.000000 -0.297734 -15.225475 -5.227907 31.148416 -18.232677 -6.866345 6.264847 9.090832 0.659422 0.000000 0.000000 0.000000 
-0.001863 0.964055 0.013501 -0.024096 10.388288 2.871185 0.850682 -0.493408 -5.677477 0.915814 -0.382853 5.711910 -2.472016 1.449904 11.009480 0.000000 0.000000 0.000000 -1.925437 0.677553 -8.303742 -2.457718 0.674183 7.939315 1.518456 -1.691243 16.211716 0.000000 0.000000 0.000000 0.866869 -0.540242 9.509473 1.279556 -0.187340 -6.032406 0.702061 -3.819283 5.179700 -1.792066 1.831727 -5.965295 0.000000 0.000000 0.000000 0.069642 12.759399 -4.271579 -33.011113 12.446414 -6.842460 -4.127675 -6.185058 0.419434 0.000000 0.000000 0.000000 0.873507 -13.006319 -4.692809 33.022903 -16.657668 -6.977531 6.567842 10.565870 0.817171 0.000000 0.000000 0.000000 
-0.004140 0.962615 0.006287 -0.131114 10.856056 2.636704 0.897565 -0.646457 -7.373424 1.105734 -0.566881 8.107699 -2.389614 1.474032 10.671003 0.000000 0.000000 0.000000 -1.562766 0.783783 -9.527123 -2.542409 0.757223 9.924828 0.925763 -2.533669 15.647507 0.000000 0.000000 0.000000 1.213243 -0.775631 12.190542 1.323386 -0.207909 -5.895185 0.970167 -3.706872 4.425943 -1.871610 2.028990 -8.282676 0.000000 0.000000 0.000000 -1.240857 10.784676 -3.872224 -35.800721 10.557605 -6.966710 -4.559615 -9.181138 0.660392 0.000000 0.000000 0.000000 1.336935 -11.122918 -4.097855 36.833695 -13.905437 -7.145499 6.121406 11.841968 0.903012 0.000000 0.000000 0.000000 
-0.006847 0.959043 -0.003037 -0.325046 10.883159 2.516419 0.675155 -0.894474 -9.839307 1.978977 -0.977522 11.420100 -2.156769 1.569805 10.076980 0.000000 0.000000 0.000000 -1.513860 0.909809 -11.352411 -2.193429 0.747105 12.231135 0.805103 -2.592178 14.965968 0.000000 0.000000 0.000000 1.329009 -1.013717 14.892643 1.452839 -0.254102 -6.044897 1.080696 -3.067759 4.330812 -1.762140 2.137524 -10.768340 0.000000 0.000000 0.000000 -2.448534 8.241567 -3.227160 -38.927075 8.140821 -6.958039 -4.257069 -11.240174 0.775445 0.000000 0.000000 0.000000 1.960898 -8.782256 -3.346832 40.825591 -11.800013 -7.374654 6.458275 13.920727 1.138218 0.000000 0.000000 0.000000 
-0.009418 0.954129 -0.013019 -0.490634 11.347395 2.357589 0.406814 -1.245656 -12.937327 2.358346 -1.460204 15.634734 -1.353812 2.752636 9.610819 0.000000 0.000000 0.000000 -1.578380 1.068733 -14.223521 -1.796427 0.704908 16.126054 0.579956 -3.009395 15.139589 0.000000 0.000000 0.000000 2.008730 -1.433253 18.070234 1.470859 -0.273446 -5.779375 1.355836 -3.713098 4.107551 -1.983728 2.391799 -13.867010 0.000000 0.000000 0.000000 -3.449951 6.187483 -2.659759 -41.820431 6.268207 -6.915303 -4.388080 -12.503765 0.890594 0.000000 0.000000 0.000000 1.758790 -6.424686 -2.459226 45.101124 -10.290911 -7.746098 7.025333 16.637982 1.459078 0.000000 0.000000 0.000000 
-0.011701 0.949268 -0.021060 -0.480829 11.202430 3.000588 0.158418 -1.610420 -15.866300 2.449603 -1.791459 18.647735 -0.421836 4.042760 9.005782 0.000000 0.000000 0.000000 -1.761254 1.210893 -17.299572 -1.254115 0.578644 19.195465 0.114685 -3.834639 14.763085 0.000000 0.000000 0.000000 1.857009 -1.705560 20.957372 1.165512 -0.167638 -5.564190 1.843619 -3.309159 3.297626 -2.287291 2.653945 -15.609659 0.000000 0.000000 0.000000 -3.592661 4.838378 -2.194855 -43.239950 5.025639 -6.696448 -6.198045 -12.853041 1.108399 0.000000 0.000000 0.000000 1.397593 -5.383135 -2.039108 48.190403 -10.366008 -8.277063 9.679462 18.408880 2.018822 0.000000 0.000000 0.000000 
-0.013310 0.944798 -0.025729 -0.243307 10.792178 3.908163 0.160414 -1.980591 -18.871258 1.900221 -1.937909 21.615631 0.208938 5.136518 9.136809 0.000000 0.000000 0.000000 -2.350117 1.270766 -20.551760 -0.643654 0.405270 22.310260 0.109650 -4.000037 14.929939 0.000000 0.000000 0.000000 2.295840 -1.983768 22.720924 0.180178 0.239678 -5.736554 2.271717 -4.204482 3.838188 -3.601043 3.342097 -16.532860 0.000000 0.000000 0.000000 -2.731533 5.883512 -2.412179 -43.434479 7.433529 -7.530405 -10.810774 -14.300207 1.827030 0.000000 0.000000 0.000000 0.048936 -5.259877 -1.831355 49.865222 -12.735926 -9.643501 14.590194 21.565723 3.225863 0.000000 0.000000 0.000000 
-0.014394 0.942127 -0.026858 -0.003602 10.516409 4.948393 0.301708 -2.311985 -21.615155 1.211971 -1.970639 24.109086 0.572341 6.066848 9.982712 0.000000 0.000000 0.000000 -2.447028 1.351467 -22.902896 -0.886490 0.497079 24.241130 -0.569967 -4.590519 11.716644 0.000000 0.000000 0.000000 2.196708 -2.069138 23.722536 -0.013605 0.296021 -5.473522 2.465714 -3.966975 3.862637 -3.968804 3.556395 -16.862068 0.000000 0.000000 0.000000 -0.352203 7.617851 -2.645284 -43.899389 10.851035 -8.750399 -15.929611 -15.084104 2.594835 0.000000 0.000000 0.000000 -2.500805 -7.220286 -2.140914 50.915290 -17.054484 -11.556863 20.489438 22.915418 4.571593 0.000000 0.000000 0.000000 
-0.015024 0.936832 -0.025826 0.034401 9.750577 6.068139 0.736239 -2.712057 -25.390648 0.270721 -2.029879 28.492013 1.320157 7.559000 10.913162 0.000000 0.000000 0.000000 -3.031227 1.374499 -26.116597 -0.011777 0.221377 27.442968 -0.845440 -4.345591 7.819628 0.000000 0.000000 0.000000 2.281494 -2.038828 23.536652 -0.555682 0.517201 -5.813160 2.698631 -3.934090 4.956103 -3.895567 3.483121 -16.775804 0.000000 0.000000 0.000000 0.887317 10.033719 -3.269191 -43.363267 15.534604 -10.194712 -21.891276 -14.983887 3.375049 0.000000 0.000000 0.000000 -4.823670 -9.755555 -2.569791 50.687127 -21.448749 -13.325882 27.879675 24.403493 6.434038 0.000000 0.000000 0.000000 
-0.015328 0.924669 -0.023644 -0.031061 9.489588 6.570577 1.465424 -3.097398 -29.438600 -1.446146 -1.907943 34.766467 -0.091553 2.522569 5.032712 0.000000 0.000000 0.000000 -3.550070 1.341319 -29.538068 1.150343 -0.311567 32.246412 -1.145200 -3.798401 3.077318 0.000000 0.000000 0.000000 2.634150 -2.218230 24.446842 -0.791795 0.608892 -5.892648 2.883473 -3.475222 5.007737 -2.838982 2.868091 -16.296613 0.000000 0.000000 0.000000 1.518691 11.498418 -3.633212 -43.541620 19.053592 -11.409383 -26.238346 -14.298324 3.752135 0.000000 0.000000 0.000000 -6.476274 -11.793858 -2.902303 50.874389 -25.230242 -14.830935 33.849108 24.148165 7.647889 0.000000 0.000000 0.000000 
-0.015367 0.903144 -0.021457 -0.061993 9.285877 6.428212 1.935330 -3.651984 -34.388555 -3.756202 -1.477352 43.522281 1.577123 4.709824 2.745653 0.000000 0.000000 0.000000 -3.999381 1.284141 -34.022573 2.085191 -0.962702 39.610795 -1.862378 -4.313033 -1.131040 0.000000 0.000000 0.000000 2.906726 -2.504167 26.377219 -0.925058 0.649180 -5.649634 2.916460 -3.189728 4.541594 -2.687999 2.778803 -16.253652 0.000000 0.000000 0.000000 1.598417 12.144732 -3.822103 -44.205114 21.595208 -12.432758 -29.556380 -13.569093 3.949679 0.000000 0.000000 0.000000 -8.061243 -12.706563 -2.852899 51.410092 -28.487586 -16.283391 38.935256 23.968716 8.686790 0.000000 0.000000 0.000000 
-0.014904 0.871124 -0.019412 -0.222680 8.827621 5.788948 2.933395 -3.890680 -38.534223 -6.204554 -0.456265 51.992046 3.547219 7.445256 -0.600314 0.000000 0.000000 0.000000 -4.149747 1.306731 -38.803326 3.223971 -1.882560 48.152934 -3.221568 -6.668817 -5.172677 0.000000 0.000000 0.000000 2.965787 -2.976986 30.395389 -1.279411 0.832265 -7.065949 3.064726 -2.518523 4.731905 -2.696055 2.804299 -16.015880 0.000000 0.000000 0.000000 1.114019 11.260616 -3.622472 -45.412617 22.845846 -13.314537 -31.732410 -13.044184 4.031977 0.000000 0.000000 0.000000 -7.918686 -12.502622 -2.856037 51.287553 -30.353552 -16.957036 41.874430 23.399467 9.131110 0.000000 0.000000 0.000000 
-0.014501 0.833695 -0.018809 -0.022486 9.426167 5.283813 2.623419 -4.764192 -43.101564 -7.708979 0.093242 61.116037 5.565381 10.622790 -4.705135 0.000000 0.000000 0.000000 -4.183401 1.152422 -43.811224 3.377781 -2.661822 57.817437 -4.938662 -10.537683 -9.119248 0.000000 0.000000 0.000000 2.800149 -3.629485 35.270095 -1.097584 0.768953 -7.100056 3.379900 -1.891249 2.933655 -3.121158 3.076993 -15.756272 0.000000 0.000000 0.000000 -1.375124 10.125353 -3.713469 -44.754322 23.519305 -13.232941 -34.224873 -14.805655 4.890755 0.000000 0.000000 0.000000 -8.349875 -11.586486 -2.529094 53.311964 -32.058266 -18.261504 44.229132 25.484749 10.665646 0.000000 0.000000 0.000000 
-0.014658 0.794257 -0.019886 0.131662 9.889958 5.249756 3.993192 -5.022904 -47.544964 -10.532776 2.234928 68.178049 6.719149 12.327098 -9.247896 0.000000 0.000000 0.000000 -4.534689 0.807015 -48.998359 3.470625 -3.226827 65.538356 -6.076572 -13.392824 -11.742338 0.000000 0.000000 0.000000 3.072375 -4.490018 39.946090 -1.389606 0.863249 -6.470660 3.350792 -1.623679 1.716715 -3.352375 3.217220 -16.201069 0.000000 0.000000 0.000000 -2.338421 7.779136 -3.065841 -45.577936 23.736632 -13.498218 -36.196600 -18.440724 6.482864 0.000000 0.000000 0.000000 -7.733888 -10.137068 -2.222213 53.015193 -32.857781 -18.374474 46.377405 29.069958 12.956779 0.000000 0.000000 0.000000 
-0.015904 0.765265 -0.021021 -0.333062 9.681025 5.898734 5.991160 -4.853526 -52.449389 -11.433131 3.592862 74.443963 5.896740 9.824067 -10.936633 0.000000 0.000000 0.000000 -4.260651 0.853952 -54.236487 3.191510 -3.044162 71.665687 -5.995996 -12.841177 -12.037556 0.000000 0.000000 0.000000 2.340952 -4.938233 44.861132 -1.633078 1.019017 -9.493060 4.162823 -1.314301 4.077161 -4.108887 3.751331 -20.830983 0.000000 0.000000 0.000000 0.049439 9.777347 -3.334393 -48.267125 24.380307 -14.844200 -41.534776 -19.592775 7.942969 0.000000 0.000000 0.000000 -7.792499 -10.278448 -2.314712 53.580447 -31.886927 -18.329340 49.678038 32.235602 15.690164 0.000000 0.000000 0.000000 
-0.017934 0.744232 -0.019473 -0.544346 10.133390 7.627159 8.451716 -4.494852 -57.529454 -13.892391 6.551078 78.532140 6.165957 10.789742 -10.663884 0.000000 0.000000 0.000000 -4.001896 0.686612 -59.630563 2.956273 -2.838985 75.833252 -6.174356 -13.718789 -9.750572 0.000000 0.000000 0.000000 1.513945 -5.099454 47.537000 -0.524107 0.629096 -10.215959 4.060306 -0.308021 4.031613 -4.692191 4.168353 -23.581841 0.000000 0.000000 0.000000 1.281901 10.841161 -3.434001 -49.163760 27.001421 -16.273695 -48.648293 -21.780472 10.238000 0.000000 0.000000 0.000000 -9.007572 -12.138896 -2.742159 53.373831 -33.089499 -18.406901 58.068518 34.828263 20.485916 0.000000 0.000000 0.000000 
-0.020939 0.733155 -0.012279 -0.960187 9.653829 9.959406 9.782841 -4.003643 -60.578554 -14.280018 7.806659 81.014705 6.828921 12.103372 -12.960823 0.000000 0.000000 0.000000 -2.913052 1.398219 -63.474274 3.124836 -2.632006 78.390864 -6.804826 -15.644804 -9.966722 0.000000 0.000000 0.000000 1.395688 -4.965934 47.542191 -1.592382 1.026022 -11.956071 5.070515 0.329636 5.601478 -4.372451 4.050989 -24.353453 0.000000 0.000000 0.000000 3.673324 10.811296 -2.951932 -52.873146 26.817074 -17.827522 -51.879750 -23.092274 11.601219 0.000000 0.000000 0.000000 -9.137175 -11.859483 -2.761310 56.817106 -31.985469 -19.261613 62.114909 39.295404 25.417545 0.000000 0.000000 0.000000 
-0.024043 0.727891 0.001957 -0.834538 9.376556 11.995042 10.083259 -3.826431 -61.482427 -14.062164 7.839532 80.883108 7.366921 13.312728 -14.719449 0.000000 0.000000 0.000000 -3.610159 1.061237 -65.309216 4.674856 -3.996085 78.964051 -7.171189 -16.728334 -10.683539 0.000000 0.000000 0.000000 2.054876 -5.074766 46.457765 -1.419383 0.967446 -12.652610 4.260320 0.721971 4.502560 -6.401286 5.010386 -26.031440 0.000000 0.000000 0.000000 -1.350828 9.050454 -3.450321 -54.350049 23.112231 -16.611311 -51.294263 -28.434619 14.231718 0.000000 0.000000 0.000000 -7.042513 -9.526705 -2.460471 61.115497 -25.318007 -17.500610 60.425921 47.655901 30.727019 0.000000 0.000000 0.000000 
-0.026960 0.726019 0.022083 -0.564809 9.459611 10.933816 8.164682 -4.389305 -57.300095 -12.126437 5.210551 79.712414 8.017049 14.328120 -19.116926 0.000000 0.000000 0.000000 -3.092008 1.380922 -62.323883 4.581886 -4.196917 78.910612 -8.062296 -19.497137 -13.569239 0.000000 0.000000 0.000000 2.378340 -4.820720 43.893012 -0.881059 0.761951 -11.021665 3.415051 -0.441514 2.801615 -5.575793 4.532012 -25.854249 0.000000 0.000000 0.000000 -3.908757 1.307873 -0.995271 -59.105784 13.405200 -13.441827 -42.930224 -42.366254 18.490287 0.000000 0.000000 0.000000 -2.306426 -1.788995 -0.456274 60.703101 -12.153021 -11.133138 51.189873 61.862275 34.743253 0.000000 0.000000 0.000000 
-0.029866 0.736002 0.045116 -0.321386 9.398558 8.272094 5.400104 -4.893562 -51.398700 -8.844045 1.233886 77.732951 7.827338 13.713368 -17.842318 0.000000 0.000000 0.000000 -1.938704 2.073168 -57.187926 3.766119 -3.742982 78.305811 -8.690324 -21.578315 -12.501693 0.000000 0.000000 0.000000 2.595920 -4.418157 40.923694 0.040772 0.464367 -11.251955 2.440110 -2.999884 2.295441 -7.039324 5.027342 -25.819121 0.000000 0.000000 0.000000 -7.623788 -6.077629 1.849248 -55.545365 -3.897257 -4.508802 -27.782152 -58.788754 18.388669 0.000000 0.000000 0.000000 -2.664570 8.080374 2.857242 57.133771 7.348540 -1.629872 29.502623 74.083385 25.488127 0.000000 0.000000 0.000000 
-0.032952 0.765682 0.071288 -0.402371 10.942794 4.533541 2.511254 -4.963616 -42.514955 -5.953476 -2.645448 72.267532 8.123008 15.118519 -13.298264 0.000000 0.000000 0.000000 -1.944102 1.710962 -48.051249 3.919580 -4.798996 73.032909 -8.620092 -21.226712 -9.413472 0.000000 0.000000 0.000000 2.587411 -4.290969 38.837235 0.860299 0.279467 -12.694216 1.587558 -4.513249 3.740043 -4.906958 4.051946 -25.604743 0.000000 0.000000 0.000000 -2.284300 -11.380293 4.023764 -54.747363 -20.944755 3.267596 -4.799034 -71.951910 7.107089 0.000000 0.000000 0.000000 -7.263548 13.515715 4.394279 52.685546 21.541486 4.487163 -26.223115 81.839927 -18.988964 0.000000 0.000000 0.000000 
-0.036334 0.826524 0.102697 -1.286843 10.687689 2.839057 2.653843 -3.543638 -33.991313 -3.225488 -4.052632 61.661152 6.288900 13.400694 0.587017 0.000000 0.000000 0.000000 -1.375645 1.949051 -36.907591 4.907792 -4.760756 60.406877 -6.230816 -14.913087 -4.520293 0.000000 0.000000 0.000000 1.556657 -2.802751 31.227251 1.619201 -0.308078 -6.527733 2.596707 -3.791320 -1.317778 -5.762807 4.469754 -18.620572 0.000000 0.000000 0.000000 3.302348 -15.469818 5.170402 -53.588749 -27.104053 6.534877 35.425229 -81.586516 -27.181531 0.000000 0.000000 0.000000 -10.895559 15.100992 4.685103 51.199881 23.260309 5.531264 -105.936163 84.959237 -96.974965 0.000000 0.000000 0.000000 
-0.039268 0.911279 0.137695 0.116707 12.507189 2.653812 0.511548 -2.595523 -23.405697 0.690163 -4.771754 44.667632 1.826657 9.842033 15.703148 0.000000 0.000000 0.000000 -3.857977 0.979118 -25.646371 7.877664 -5.306536 43.887011 -4.341163 -11.938143 11.304781 0.000000 0.000000 0.000000 -1.203325 -1.317370 23.203994 1.925583 -0.511040 -4.946099 4.995172 -8.063623 0.455535 -7.123697 5.052632 -15.308349 0.000000 0.000000 0.000000 3.403814 -11.703261 3.937801 -52.835687 -26.463725 6.260806 141.227955 -88.056609 -133.530037 0.000000 0.000000 0.000000 -14.463271 11.505596 4.046383 55.159405 20.801318 3.964514 154.883747 79.890872 152.349834 0.000000 0.000000 0.000000 
-0.041909 0.997349 0.169935 0.265407 11.409079 4.098337 1.452094 -1.349364 -14.668481 1.272005 -2.161579 25.072950 -1.665523 9.932320 32.985511 0.000000 0.000000 0.000000 -4.225500 0.918410 -20.730290 6.245708 -2.779683 31.542255 3.258010 -3.918454 32.851339 0.000000 0.000000 0.000000 -1.926645 -0.468101 13.626443 2.835408 -1.165519 -2.130199 2.476310 -7.280221 -0.074918 -7.419386 5.494523 -9.541867 0.000000 0.000000 0.000000 5.156609 -10.320068 3.452523 -57.475297 -19.692733 3.524023 -113.173063 -81.132778 110.525951 0.000000 0.000000 0.000000 -11.107842 8.641720 3.265436 56.730016 9.304139 -1.074789 121.427182 68.915499 103.378485 0.000000 0.000000 0.000000 
-0.044995 1.056076 0.192861 0.100998 12.324816 4.489712 0.937168 -1.256317 -13.338662 2.108553 -1.921328 20.303377 -5.207238 7.513608 37.520449 0.000000 0.000000 0.000000 -5.329965 0.652790 -18.432863 5.946800 -2.224801 25.655327 6.596855 -2.168761 41.706906 0.000000 0.000000 0.000000 -1.554698 -0.279273 8.861553 2.619488 -1.222825 -0.527693 1.720302 -9.198589 -0.150949 -7.622353 5.702592 -6.615816 0.000000 0.000000 0.000000 2.995448 -4.864998 1.742314 -57.120296 -12.042469 -0.216825 -95.354982 -68.690557 79.708323 0.000000 0.000000 0.000000 -10.152266 8.543116 3.312326 56.102783 0.280854 -5.437310 108.815617 60.504072 78.602633 0.000000 0.000000 0.000000 
-0.047911 1.076322 0.206029 -0.064563 13.236169 3.308053 0.639816 -1.401495 -14.325794 0.101119 -1.764299 23.616947 -4.681596 6.254141 30.475351 0.000000 0.000000 0.000000 -5.363031 0.590673 -18.227323 5.749845 -2.223439 25.421977 3.529219 -4.583990 38.627790 0.000000 0.000000 0.000000 -0.640074 -0.529068 11.478005 1.664735 -0.531304 -3.170330 1.895265 -8.150808 1.466039 -4.952506 3.909402 -8.383234 0.000000 0.000000 0.000000 -1.232067 -5.454872 1.860281 -53.240915 -6.172494 -3.302133 -88.955440 -63.074229 66.874868 0.000000 0.000000 0.000000 -7.769380 3.978174 1.874243 52.672768 -7.361567 -8.179945 95.059838 50.886812 55.447149 0.000000 0.000000 0.000000 
-0.050506 1.062605 0.213520 0.552227 14.104027 2.483832 -0.464366 -1.723627 -15.948022 0.063020 -1.905561 24.472114 -4.579860 5.580218 27.521098 0.000000 0.000000 0.000000 -6.043186 0.415399 -19.278966 5.963353 -2.312787 24.724955 1.433073 -5.168592 30.951126 0.000000 0.000000 0.000000 -0.437303 -0.778006 14.461360 2.428023 -0.899897 -2.815535 1.558549 -7.619489 1.763251 -5.700620 4.464296 -10.612583 0.000000 0.000000 0.000000 -2.990544 -4.137837 1.282446 -53.839155 -0.343807 -6.014539 -82.249501 -55.978101 53.428656 0.000000 0.000000 0.000000 -5.992956 2.267134 1.217760 53.307155 -11.782685 -10.087699 86.915521 46.952459 45.441389 0.000000 0.000000 0.000000 
-0.052358 1.012485 0.220090 0.616425 13.200942 2.507926 -1.013938 -2.330818 -19.773241 1.541942 -2.641591 27.060747 -6.005817 3.399182 26.978155 0.000000 0.000000 0.000000 -4.802127 0.694252 -22.103547 4.546769 -2.020873 28.761606 1.582521 -3.487214 23.600387 0.000000 0.000000 0.000000 0.577354 -1.154150 17.360409 0.052742 0.212383 -3.614273 3.488637 -7.922804 2.403661 -6.256081 4.787586 -9.474299 0.000000 0.000000 0.000000 -4.595148 -1.132122 0.139741 -55.071225 4.992712 -8.575509 -68.103328 -47.762093 36.642762 0.000000 0.000000 0.000000 -2.248947 3.066534 1.211185 52.812509 -15.922759 -11.937186 80.370547 46.545651 40.068561 0.000000 0.000000 0.000000 
-0.054151 0.927880 0.225624 0.340223 13.662860 1.143569 -0.529529 -3.163050 -25.329188 -0.226608 -4.225701 42.585181 -2.017112 2.842337 12.524422 0.000000 0.000000 0.000000 -4.124704 0.792241 -25.432704 4.739441 -3.632291 42.388973 -2.887540 -8.155816 5.785215 0.000000 0.000000 0.000000 0.852698 -1.623453 21.349243 2.117883 -0.792788 -2.457599 1.908099 -4.279022 1.462539 -5.495497 4.510206 -11.163935 0.000000 0.000000 0.000000 -4.033576 -0.315878 -0.354904 -56.841423 7.400857 -10.204934 -57.306099 -37.891368 22.413270 0.000000 0.000000 0.000000 -0.740818 0.448964 0.203187 55.232701 -17.971033 -12.924275 71.217796 44.493728 34.190188 0.000000 0.000000 0.000000 
-0.057551 0.842968 0.223355 0.575542 15.049646 -1.595342 -0.641070 -4.701998 -32.866016 -4.449292 -5.021824 62.625422 2.492343 6.063151 1.672781 0.000000 0.000000 0.000000 -5.179993 0.228386 -31.573126 4.205054 -6.118746 60.891179 -5.606074 -13.101812 -6.372214 0.000000 0.000000 0.000000 1.576456 -3.279332 32.056790 0.215661 0.281680 -5.212121 3.171653 -3.982551 0.886690 -4.580590 3.972997 -13.470343 0.000000 0.000000 0.000000 -7.007182 -1.253405 -0.327230 -56.168976 9.420913 -10.961559 -45.196974 -32.846864 14.958626 0.000000 0.000000 0.000000 1.403032 0.591865 0.113387 57.483703 -17.760016 -13.533108 60.844389 45.292299 28.973588 0.000000 0.000000 0.000000 
-0.062768 0.796436 0.218687 -0.004379 15.212933 -2.115339 0.643688 -5.381271 -37.863154 -7.360343 -3.808262 72.472538 4.975787 9.170736 -4.570668 0.000000 0.000000 0.000000 -3.946051 0.317752 -38.660520 1.625920 -5.418693 73.833091 -7.147928 -17.063707 -6.727493 0.000000 0.000000 0.000000 1.254106 -4.452180 39.644312 0.312080 0.297288 -6.320030 4.183867 -2.233283 -0.648660 -5.484218 4.602905 -17.340994 0.000000 0.000000 0.000000 -8.606583 -0.681352 -0.850874 -57.072027 11.838165 -12.200359 -38.561700 -27.569718 10.426012 0.000000 0.000000 0.000000 3.737494 0.760684 0.043526 59.103050 -15.579150 -12.737705 50.793236 47.394309 25.166583 0.000000 0.000000 0.000000 
-0.068964 0.781424 0.213777 0.367105 15.408838 0.213565 2.198992 -5.912609 -42.833224 -9.660885 -1.608720 75.404966 5.790469 11.095107 -4.912969 0.000000 0.000000 0.000000 -4.505788 -0.188149 -43.332811 1.770029 -5.513092 76.335763 -7.650983 -18.327635 -7.746430 0.000000 0.000000 0.000000 1.261526 -4.816345 41.374337 0.606095 0.239874 -7.682282 4.142818 -1.385782 -1.110088 -6.587622 5.238854 -18.342843 0.000000 0.000000 0.000000 -9.420687 -1.811136 -0.586167 -57.318096 12.106315 -12.289219 -36.771873 -23.754202 8.376800 0.000000 0.000000 0.000000 3.048831 1.778960 0.498653 60.698597 -13.152459 -11.684472 45.642472 48.849245 23.488641 0.000000 0.000000 0.000000 
-0.075108 0.786306 0.207026 0.408701 14.938583 3.667993 4.161626 -5.937047 -47.098190 -11.023673 0.363054 76.169778 5.854039 11.103428 -5.900160 0.000000 0.000000 0.000000 -4.086973 -0.204176 -48.091279 2.517542 -5.507014 75.843674 -7.153262 -16.853654 -8.222061 0.000000 0.000000 0.000000 0.775957 -4.966155 43.582601 0.590326 0.385461 -10.869502 4.101251 -0.301993 -1.534531 -4.912250 4.345082 -19.018432 0.000000 0.000000 0.000000 -7.812418 -3.338024 0.149437 -58.997598 11.435990 -12.322752 -36.817409 -22.609574 7.825006 0.000000 0.000000 0.000000 3.530990 2.636491 0.859077 60.810043 -9.641186 -9.685852 41.668234 51.711517 23.101551 0.000000 0.000000 0.000000 
-0.080335 0.798577 0.200178 1.014121 14.384384 7.683028 4.410546 -6.168221 -49.509574 -10.750465 0.743785 73.708611 6.249960 11.859316 -6.964457 0.000000 0.000000 0.000000 -4.079748 -0.278809 -51.497211 3.471856 -5.687152 74.462137 -7.018813 -16.532052 -7.592827 0.000000 0.000000 0.000000 0.940172 -4.900905 43.168713 0.513144 0.446939 -12.293361 3.461553 -0.022114 -1.638895 -5.947410 4.853685 -21.407500 0.000000 0.000000 0.000000 -9.566198 -2.852982 -0.328732 -57.128670 8.887344 -10.407245 -36.316910 -24.776422 8.449018 0.000000 0.000000 0.000000 2.026631 2.748148 0.966562 61.152084 -4.814801 -7.031825 40.057113 55.387754 24.275801 0.000000 0.000000 0.000000 
-0.084331 0.808194 0.196837 1.018042 12.793313 9.826208 4.150537 -6.027656 -50.119931 -9.220253 0.173835 71.104864 6.266205 12.038859 -6.479163 0.000000 0.000000 0.000000 -3.611461 0.268934 -53.542812 4.082655 -5.386522 73.979322 -6.740876 -15.812937 -7.296266 0.000000 0.000000 0.000000 0.887028 -4.269726 41.018832 0.403969 0.462007 -12.666664 2.397623 0.191683 -0.116034 -4.188490 4.092854 -24.903683 0.000000 0.000000 0.000000 -8.652405 -6.666959 1.407057 -57.607119 2.339488 -7.508641 -32.714000 -34.903685 11.074326 0.000000 0.000000 0.000000 2.337616 5.737981 2.161244 59.371229 3.240140 -2.956006 31.487227 60.691864 22.035323 0.000000 0.000000 0.000000 
-0.087426 0.820010 0.199917 1.083667 12.913718 9.594747 1.632613 -6.471231 -47.021393 -5.867528 -2.842422 68.211537 5.967175 10.886199 -7.565445 0.000000 0.000000 0.000000 -2.759090 0.734228 -51.610345 3.716587 -5.174600 73.010565 -6.587657 -15.505004 -6.378455 0.000000 0.000000 0.000000 0.798475 -3.925425 38.990988 0.335981 0.445213 -11.402720 2.897030 -2.884950 -1.255348 -5.793829 4.509553 -24.746715 0.000000 0.000000 0.000000 -9.906548 -10.376351 3.411057 -55.124173 -6.137364 -3.070417 -30.084155 -49.779066 15.777465 0.000000 0.000000 0.000000 0.864425 11.526633 4.158546 55.791312 13.314852 1.684135 17.461002 67.618733 14.692443 0.000000 0.000000 0.000000 
-0.090444 0.838903 0.212645 0.900943 12.877666 7.853895 0.818936 -5.542488 -40.866869 -4.237735 -4.039369 63.776374 6.010753 10.469114 -8.426198 0.000000 0.000000 0.000000 -2.692204 0.964380 -46.411137 4.183581 -5.652165 69.807926 -5.849485 -13.672199 -5.180130 0.000000 0.000000 0.000000 1.075305 -3.746666 37.274432 -0.484590 0.774464 -12.491800 2.521708 -4.445078 1.678059 -5.189804 4.203269 -26.685374 0.000000 0.000000 0.000000 -4.591934 -13.048585 4.713627 -54.208899 -18.381568 2.186935 -36.139795 -69.208163 28.538871 0.000000 0.000000 0.000000 -4.707504 11.668639 3.970237 54.292541 22.617090 5.520260 -4.451030 76.208851 0.132100 0.000000 0.000000 0.000000 
-0.094606 0.900105 0.237950 0.026405 12.069114 6.545983 0.312272 -3.765672 -30.751338 -0.212386 -5.009150 50.505970 3.026044 6.254566 -0.644397 0.000000 0.000000 0.000000 -0.871759 1.891240 -36.683361 3.272280 -3.805542 58.002316 -4.534076 -11.453046 1.753461 0.000000 0.000000 0.000000 0.098534 -2.512963 31.343581 1.132527 0.000361 -8.199834 2.526927 -5.412944 0.915935 -5.878761 4.416848 -29.872476 0.000000 0.000000 0.000000 6.210861 -9.043116 3.170773 -58.164170 -22.143457 4.588570 -102.535421 -81.476903 99.079603 0.000000 0.000000 0.000000 -15.119415 9.833604 3.410747 57.513525 26.386521 7.809495 -71.068591 81.350185 -59.129740 0.000000 0.000000 0.000000 
-0.099636 1.005646 0.278606 0.488802 13.078542 6.529979 0.160198 -2.036730 -18.915825 3.423434 -3.641745 29.387430 -3.607312 1.886405 15.483181 0.000000 0.000000 0.000000 -1.044532 1.503102 -23.291767 4.422616 -2.800300 37.354229 -2.536874 -8.545048 13.022508 0.000000 0.000000 0.000000 -1.988056 -1.243656 24.096638 1.782557 -0.090476 -10.193376 3.567422 -8.002468 4.455045 -6.959658 4.859572 -25.214507 0.000000 0.000000 0.000000 11.403522 -5.635029 2.091185 -58.696635 -20.998081 4.055390 -152.417023 -70.056065 149.762505 0.000000 0.000000 0.000000 -20.687338 4.930115 2.746398 60.834250 22.119443 5.214599 -170.346879 80.413737 -164.351868 0.000000 0.000000 0.000000 
-0.104703 1.146217 0.325428 -0.284164 11.626501 8.705526 2.694898 -0.770827 -9.090130 3.324595 -0.743468 5.954986 -9.787025 4.230981 42.363738 0.000000 0.000000 0.000000 -0.953574 1.144332 -14.000309 2.963604 -0.569190 14.847967 5.737008 -1.820381 38.108802 0.000000 0.000000 0.000000 -2.663040 -0.255220 11.726038 3.228771 -0.830485 -7.756935 2.161515 -6.092700 3.923890 -6.597491 5.002029 -16.604381 0.000000 0.000000 0.000000 13.378316 -4.812499 2.176265 -62.807808 -15.539161 1.086587 -145.718759 -60.368672 131.491218 0.000000 0.000000 0.000000 -21.791884 1.597472 2.009928 66.148941 12.189151 0.722777 143.268552 69.524257 133.886788 0.000000 0.000000 0.000000 
-0.108489 1.258832 0.357832 -0.304782 11.461498 9.341919 2.284989 -0.632023 -7.275635 2.564418 -0.367631 2.230395 -11.989736 4.778578 51.734413 0.000000 0.000000 0.000000 -1.035768 0.856568 -9.742663 2.227060 -0.254453 6.146576 7.218182 -3.090067 47.618909 0.000000 0.000000 0.000000 -3.153282 0.033851 4.097029 2.014575 -0.678379 -3.520279 2.540702 -7.484956 1.612779 -5.703422 4.362934 -11.148534 0.000000 0.000000 0.000000 10.795060 -1.971106 1.256556 -63.257758 -9.905345 -1.488217 -134.896144 -57.028989 112.758658 0.000000 0.000000 0.000000 -17.543086 3.454671 2.429507 66.293292 4.753955 -4.052765 128.355005 65.304453 108.557897 0.000000 0.000000 0.000000 
-0.111458 1.340634 0.374360 -0.064937 10.858256 7.321298 0.119570 -0.898333 -9.647914 0.429287 -0.878434 14.222849 -9.866358 4.548349 44.370639 0.000000 0.000000 0.000000 -1.533717 0.881317 -10.673484 4.057623 -0.829773 14.604157 5.882963 -3.340300 43.169127 0.000000 0.000000 0.000000 -3.196478 -0.043564 6.991101 2.167701 -0.674545 -4.423594 1.850631 -5.353454 2.583322 -4.205104 3.554923 -11.490311 0.000000 0.000000 0.000000 6.095887 -3.089187 1.432975 -62.725754 -8.526740 -2.822951 -127.231446 -58.794112 102.890150 0.000000 0.000000 0.000000 -11.629443 0.752685 1.145198 64.628292 -0.819080 -6.515432 113.191868 60.409475 86.096764 0.000000 0.000000 0.000000 
-0.113947 1.394178 0.386440 0.245513 10.443923 6.918453 -2.187408 -1.248635 -11.616699 1.182622 -1.484541 19.286821 -8.045014 4.870013 39.601899 0.000000 0.000000 0.000000 -2.827547 0.904381 -13.020021 4.745641 -1.178018 18.464686 4.183468 -4.589792 40.387066 0.000000 0.000000 0.000000 -2.479710 -0.115268 7.380747 0.874364 -0.137412 -4.295633 2.547681 -7.015190 2.486361 -5.496446 4.275553 -8.190327 0.000000 0.000000 0.000000 0.582953 -1.288339 0.493121 -61.474082 -3.771020 -4.988524 -126.388730 -57.009713 101.147594 0.000000 0.000000 0.000000 -8.322082 1.964187 1.389861 65.503897 -4.510556 -9.229542 103.155688 59.541725 73.148665 0.000000 0.000000 0.000000 
-0.117000 1.426300 0.399441 0.237001 9.245159 7.245225 -2.232194 -1.376312 -12.614075 0.379995 -0.989925 16.431075 -8.026768 3.561932 35.943454 0.000000 0.000000 0.000000 -3.431900 0.968086 -15.157958 3.597847 -0.666510 15.766769 3.499751 -5.757436 41.166163 0.000000 0.000000 0.000000 -0.973310 -0.229366 7.068423 -0.347334 0.430315 -5.693095 1.825420 -5.653148 3.952506 -5.344086 4.257793 -5.329710 0.000000 0.000000 0.000000 -0.949223 -0.320164 0.051678 -61.022523 -0.986606 -6.653368 -127.486648 -56.156679 101.095023 0.000000 0.000000 0.000000 -5.885744 0.161911 0.594690 62.342339 -9.495543 -11.156155 101.929709 56.258468 68.746510 0.000000 0.000000 0.000000 
-0.121006 1.436021 0.411860 1.427631 8.890446 7.664763 -3.257388 -1.705774 -14.398269 1.653086 -0.946336 12.264293 -8.386638 3.660404 37.497905 0.000000 0.000000 0.000000 -4.700499 0.818618 -14.915455 2.472107 -0.288874 11.582346 4.681463 -4.842204 42.613174 0.000000 0.000000 0.000000 -1.385184 -0.173843 6.687621 -1.978720 1.085852 -5.837503 2.902770 -6.287430 4.386849 -5.811917 4.550746 -6.363626 0.000000 0.000000 0.000000 -1.513637 1.290936 -0.547791 -60.699020 2.060522 -8.087000 -130.945625 -56.693143 107.201747 0.000000 0.000000 0.000000 -5.561217 -0.211396 0.512252 60.411556 -13.943569 -13.209955 106.774486 54.301639 70.541779 0.000000 0.000000 0.000000 
-0.125694 1.414478 0.423091 1.691193 9.045933 7.232138 -4.385920 -2.016168 -15.663991 2.783547 -1.054585 10.782470 -10.484415 1.794043 38.428931 0.000000 0.000000 0.000000 -5.681997 0.668383 -14.026744 3.567509 -0.507471 9.433791 6.395230 -2.871377 42.423104 0.000000 0.000000 0.000000 -1.932764 -0.151900 7.334697 -1.916237 1.044841 -5.113725 2.891663 -6.726449 2.636930 -3.470903 2.809501 -4.683151 0.000000 0.000000 0.000000 -0.593988 0.907970 -0.340706 -60.742303 4.779015 -9.231849 -136.221877 -56.939361 114.918598 0.000000 0.000000 0.000000 -5.964894 -1.739144 0.177262 59.945012 -17.306846 -14.714180 107.905879 51.082785 67.096269 0.000000 0.000000 0.000000 
-0.131485 1.372823 0.432512 0.672582 8.689712 6.710495 -2.955318 -2.194006 -17.929793 2.436241 -1.143186 12.718010 -11.429690 0.169788 37.137726 0.000000 0.000000 0.000000 -4.691052 0.810681 -14.715526 3.423369 -0.476632 10.063115 6.933967 -2.272529 42.117610 0.000000 0.000000 0.000000 -1.343769 -0.174818 6.508517 -1.535731 0.785218 -2.348905 2.951031 -6.243526 1.357694 -3.594055 2.879386 -2.957667 0.000000 0.000000 0.000000 1.386810 1.019496 -0.233124 -60.999767 7.029861 -10.266343 -143.086659 -53.868200 121.703584 0.000000 0.000000 0.000000 -7.992579 -2.607532 0.222294 59.997074 -20.638935 -16.303942 114.836958 47.386074 69.199079 0.000000 0.000000 0.000000 
-0.137731 1.306784 0.441898 0.075138 7.746339 5.662566 -0.651081 -1.924655 -18.172868 2.030448 -1.030694 12.599074 -11.035827 1.265248 39.476710 0.000000 0.000000 0.000000 -4.099694 0.907781 -14.986971 3.454720 -0.497067 12.634750 6.225647 -3.107820 41.517604 0.000000 0.000000 0.000000 -1.119805 -0.181043 6.168522 0.613038 -0.188916 -1.945546 -0.069473 -4.160171 2.589409 -0.231807 0.269005 -1.203548 0.000000 0.000000 0.000000 4.428798 0.701753 0.194527 -61.608616 6.154978 -10.405072 -151.011723 -50.321895 130.074075 0.000000 0.000000 0.000000 -7.815267 -2.205580 0.083442 57.790517 -22.313199 -15.942039 121.771714 45.969488 76.710794 0.000000 0.000000 0.000000 
-0.143857 1.221227 0.451893 -0.167661 5.151194 2.823356 0.396890 -1.414785 -15.110080 0.385196 -0.665378 13.153431 -9.905968 2.917218 42.361923 0.000000 0.000000 0.000000 -2.890744 1.071344 -14.618020 3.436616 -0.464068 18.006317 5.324489 -3.846559 38.434090 0.000000 0.000000 0.000000 -1.147949 -0.190849 6.394125 -0.670545 0.260228 1.242766 1.992819 -3.784633 2.170606 -2.956917 2.394869 -1.618075 0.000000 0.000000 0.000000 6.632479 -0.799381 0.707704 -63.331772 7.584074 -11.168613 -161.795207 -45.899706 149.197623 0.000000 0.000000 0.000000 -10.457171 -1.958692 0.623122 56.938351 -19.398089 -14.641145 128.952101 44.698542 82.597169 0.000000 0.000000 0.000000 
-0.148642 1.110750 0.461233 -0.095673 4.032462 0.945971 -0.256960 -1.423573 -14.631051 1.208175 -1.342833 21.209469 -9.804052 -0.833789 32.275464 0.000000 0.000000 0.000000 -2.081513 1.270852 -15.972219 3.267719 -0.448198 26.997433 4.261622 -1.919138 26.494649 0.000000 0.000000 0.000000 -1.610735 -0.252229 9.153116 -0.884568 0.442424 -0.651803 3.623146 -5.694879 3.888134 -5.737198 4.552023 -2.177619 0.000000 0.000000 0.000000 4.925149 4.162708 -1.077179 -59.502930 9.808622 -11.180643 -167.112228 -40.567239 161.139385 0.000000 0.000000 0.000000 -10.427977 0.934664 1.583592 56.103408 -13.416876 -12.305377 140.906059 45.983738 100.095703 0.000000 0.000000 0.000000 
-0.151850 1.004753 0.468026 -1.055871 4.318255 -2.815851 0.467194 -1.195951 -13.089396 0.802716 -2.223412 34.014546 -5.095334 -2.873409 12.996985 0.000000 0.000000 0.000000 0.603506 1.755077 -17.558986 3.843488 -1.053444 40.386853 -0.447993 -3.665942 6.497067 0.000000 0.000000 0.000000 0.261228 -0.622476 12.989728 0.053830 -0.083092 1.375602 1.940297 -4.774994 2.346584 -4.085455 3.267358 -4.623810 0.000000 0.000000 0.000000 4.808102 2.783971 -0.564248 -59.987572 9.478428 -11.291249 -171.764015 -37.408145 170.865651 0.000000 0.000000 0.000000 -6.703072 -0.537367 0.674375 55.468881 -8.865630 -9.680763 151.137785 45.490218 118.967705 0.000000 0.000000 0.000000 
-0.153561 0.940887 0.469776 -1.260033 5.974867 -5.649462 0.060742 -1.309869 -13.592799 0.461414 -3.345647 44.016563 -0.971125 -1.899426 0.314488 0.000000 0.000000 0.000000 -0.006624 1.862200 -20.493530 5.872633 -3.339963 52.601605 -2.437435 -6.353469 0.728964 0.000000 0.000000 0.000000 1.088620 -1.047283 17.585487 0.188427 -0.121366 0.864371 1.760929 -6.921889 2.391749 -3.628546 2.880970 -5.113536 0.000000 0.000000 0.000000 2.687804 3.202876 -0.927077 -58.885741 9.893578 -11.141824 -171.583842 -33.845310 169.792973 0.000000 0.000000 0.000000 -2.864223 0.011488 0.412830 57.339461 -3.490835 -7.708634 155.937839 49.396996 131.849403 0.000000 0.000000 0.000000 
-0.153968 0.935067 0.471179 -1.109302 5.679870 -5.520994 0.401796 -1.159004 -12.518156 0.366754 -3.066847 42.502471 -1.026123 -1.609119 1.026997 0.000000 0.000000 0.000000 -0.463787 1.792347 -20.517860 6.075527 -3.272948 51.544693 -2.236067 -6.540058 2.978139 0.000000 0.000000 0.000000 0.396247 -0.910255 17.179306 1.180754 -0.836268 4.109334 2.260483 -6.199786 -0.624891 -4.449533 3.501236 -2.646245 0.000000 0.000000 0.000000 1.814449 3.564989 -1.079039 -61.859330 10.336024 -11.755318 -165.840983 -34.300587 150.979930 0.000000 0.000000 0.000000 0.326642 0.718435 0.202087 59.427864 -1.549232 -6.653359 151.538446 53.878786 127.717525 0.000000 0.000000 0.000000 
-0.153703 0.969762 0.471853 -0.595275 5.938367 -3.755895 1.144550 -1.115741 -12.794824 -0.723574 -2.093551 37.586857 -3.625470 -2.139728 9.247046 0.000000 0.000000 0.000000 -0.139647 1.740147 -19.235841 5.539173 -2.562400 45.358334 -1.333865 -6.449208 9.933043 0.000000 0.000000 0.000000 0.219897 -0.731697 14.630248 1.997058 -1.201434 3.103844 1.407570 -6.004988 -0.138743 -5.125144 4.081405 0.062561 0.000000 0.000000 0.000000 0.401977 6.009489 -2.013295 -61.416941 13.095808 -13.195280 -156.581966 -38.271122 130.067762 0.000000 0.000000 0.000000 1.815835 0.169055 -0.182533 59.775626 -3.441294 -7.577746 144.772152 55.614255 118.913980 0.000000 0.000000 0.000000 
-0.153238 1.010117 0.470051 0.516512 6.067451 -1.777025 0.340695 -1.181610 -12.648487 -1.173498 -1.544715 33.271984 -6.566089 -2.537718 17.992988 0.000000 0.000000 0.000000 -0.712620 1.457837 -16.784667 4.310724 -1.390198 35.724231 0.368502 -5.296732 17.978000 0.000000 0.000000 0.000000 -0.468520 -0.503608 11.995174 1.912271 -1.221263 3.939150 1.697630 -4.784206 -1.071306 -4.490716 3.561236 3.757852 0.000000 0.000000 0.000000 -0.114352 5.403910 -1.847662 -60.770737 14.952033 -14.047761 -147.245722 -41.695535 113.456919 0.000000 0.000000 0.000000 1.271132 -1.704647 -0.739623 59.144573 -7.898711 -9.450295 137.036610 54.234065 106.165587 0.000000 0.000000 0.000000 
-0.152766 1.033437 0.464755 0.660435 6.549868 -0.702126 -0.186608 -1.253161 -12.833459 -1.005955 -1.661938 33.127637 -7.103366 -2.039065 20.564020 0.000000 0.000000 0.000000 -0.305074 1.377795 -15.197802 2.986511 -0.693192 30.442686 1.461938 -4.334763 21.720973 0.000000 0.000000 0.000000 -0.495714 -0.435339 10.618640 1.906453 -1.180065 3.365884 1.249523 -4.808866 -0.483785 -2.994549 2.236898 6.422127 0.000000 0.000000 0.000000 1.445151 8.585997 -2.675412 -60.018033 17.030750 -14.926081 -133.929254 -45.583240 96.097438 0.000000 0.000000 0.000000 1.299434 -2.892336 -1.150072 57.689709 -11.542580 -10.900360 121.150213 55.874087 87.483958 0.000000 0.000000 0.000000 
-0.152740 1.031293 0.457666 0.770120 8.403138 -0.451438 -0.631194 -1.080307 -10.850028 -0.029209 -2.124073 31.370331 -6.215789 -3.198263 14.952216 0.000000 0.000000 0.000000 -0.910252 1.172284 -13.880410 2.977270 -0.795150 27.327519 0.910647 -4.402993 19.975255 0.000000 0.000000 0.000000 -0.563286 -0.454365 10.849657 2.006414 -1.224440 2.966090 1.340812 -5.142944 0.275015 -3.571418 2.705078 7.919377 0.000000 0.000000 0.000000 0.220507 7.870244 -2.622156 -59.195168 17.368287 -15.031341 -116.627783 -50.664109 80.153244 0.000000 0.000000 0.000000 2.457573 -3.875799 -1.660038 57.756328 -16.167418 -13.129622 100.215017 58.205886 68.469808 0.000000 0.000000 0.000000 
-0.152988 1.012473 0.448548 0.136298 9.545983 -1.185344 0.689967 -0.731524 -8.230056 0.529651 -2.138610 28.235111 -5.758116 -5.754727 8.962207 0.000000 0.000000 0.000000 -0.274050 1.156041 -12.909450 3.435223 -1.122566 27.726550 -0.209877 -5.095276 15.695937 0.000000 0.000000 0.000000 -0.333185 -0.582820 12.440070 2.360721 -1.183179 0.431163 1.050745 -5.653025 2.411964 -3.135643 2.354505 6.320223 0.000000 0.000000 0.000000 -0.543919 7.005506 -2.448845 -58.244800 17.180081 -14.916620 -95.378580 -52.989918 61.621717 0.000000 0.000000 0.000000 3.539678 -4.874086 -2.171596 56.668294 -17.924839 -13.811885 72.780615 57.009240 44.860501 0.000000 0.000000 0.000000 
-0.153108 0.988545 0.436125 -0.242932 10.416743 -1.414743 1.520845 -0.677085 -8.022884 0.522262 -2.007220 26.315239 -4.612474 -6.245727 4.884688 0.000000 0.000000 0.000000 -0.052633 1.157257 -12.738029 3.022481 -1.070066 27.898480 -1.070616 -5.336275 10.096239 0.000000 0.000000 0.000000 0.481324 -0.843462 14.614852 2.095573 -0.908900 -1.185134 0.788292 -5.255544 3.800532 -1.683853 1.078723 4.907995 0.000000 0.000000 0.000000 -1.331454 5.493579 -2.035496 -59.081046 14.927235 -14.367845 -66.662655 -52.855707 39.167233 0.000000 0.000000 0.000000 4.295512 -5.023408 -2.300579 58.054336 -18.201908 -14.372535 46.872946 53.374410 26.097342 0.000000 0.000000 0.000000 
-0.152537 0.973774 0.422538 -0.344674 10.457628 -1.573440 1.768691 -0.715542 -8.579771 0.319570 -1.872675 25.622988 -2.750434 -3.597262 3.293415 0.000000 0.000000 0.000000 0.080463 1.161811 -12.615274 2.933599 -0.999615 27.093986 -1.838123 -6.414213 7.780109 0.000000 0.000000 0.000000 0.785599 -0.932917 15.220988 1.758772 -0.737911 -1.314867 1.188898 -5.075432 4.971055 -1.561430 1.062923 3.333942 0.000000 0.000000 0.000000 -2.202527 3.046249 -1.282033 -61.345028 11.451677 -13.416697 -41.791684 -46.375032 20.811723 0.000000 0.000000 0.000000 4.742632 -4.337547 -2.083792 59.556457 -14.421133 -13.070289 28.437406 46.278384 13.732738 0.000000 0.000000 0.000000 
-0.151603 0.966789 0.409893 -0.432792 10.290490 -0.627752 1.296183 -0.867377 -9.954029 0.800121 -1.829330 23.830896 -1.952741 -2.351441 2.731290 0.000000 0.000000 0.000000 0.461472 1.195336 -12.491163 2.154744 -0.582551 24.563324 -2.067794 -6.920880 7.996090 0.000000 0.000000 0.000000 1.030100 -0.972673 15.269889 2.331939 -0.984176 -1.620401 0.856641 -5.086980 5.226642 -1.341242 0.929614 2.394309 0.000000 0.000000 0.000000 -3.728847 1.791024 -0.991146 -61.853954 10.387420 -13.015274 -29.352797 -35.969101 11.284397 0.000000 0.000000 0.000000 5.639771 -3.777895 -1.981811 60.171132 -11.627013 -11.843918 17.003472 37.993324 7.001157 0.000000 0.000000 0.000000 
-0.150665 0.965198 0.399229 -0.167373 10.353816 0.128609 1.261211 -0.972667 -10.995208 0.881896 -1.648764 21.779981 -2.261276 -1.941345 4.353038 0.000000 0.000000 0.000000 0.781521 1.160839 -11.714717 1.187065 -0.141087 20.579429 -2.514912 -8.071721 9.641854 0.000000 0.000000 0.000000 0.985008 -0.954568 15.090081 2.211458 -0.893273 -2.023531 1.117744 -4.968598 5.843435 -1.481010 1.060259 2.243206 0.000000 0.000000 0.000000 -4.665047 0.406583 -0.559076 -62.367684 9.914318 -12.978658 -24.921914 -26.489909 7.032682 0.000000 0.000000 0.000000 5.673091 -3.391623 -1.820432 61.436802 -9.735739 -11.213505 11.026145 30.338534 3.894475 0.000000 0.000000 0.000000 
-0.149989 0.966571 0.390541 -0.096892 10.480372 0.782286 1.148132 -1.006817 -11.245770 1.416099 -1.556558 19.267218 -2.688375 -1.754757 5.972941 0.000000 0.000000 0.000000 0.700621 1.057034 -10.624127 0.672257 0.068938 16.284633 -2.413818 -7.985945 10.747846 0.000000 0.000000 0.000000 1.146424 -0.951543 14.720218 2.124035 -0.906726 -1.383214 1.113215 -5.009010 5.717835 -1.470296 0.988394 3.287201 0.000000 0.000000 0.000000 -4.828264 -0.047847 -0.398341 -61.775889 10.852160 -13.294446 -25.029889 -19.129023 5.013243 0.000000 0.000000 0.000000 6.023535 -3.242340 -1.805610 61.482248 -8.821118 -10.736251 9.506705 26.044255 2.940793 0.000000 0.000000 0.000000 
-0.149558 0.967831 0.383750 0.069944 10.441792 1.248687 0.890408 -0.987453 -10.883130 1.882898 -1.448680 16.939205 -2.956294 -1.043634 8.005506 0.000000 0.000000 0.000000 0.698543 0.954718 -9.478462 -0.598373 0.393200 12.780079 -2.556900 -8.433479 12.094708 0.000000 0.000000 0.000000 1.100417 -0.953180 14.828322 1.944127 -0.815020 -1.476858 1.297408 -4.245386 6.248856 -0.622529 0.211034 3.621182 0.000000 0.000000 0.000000 -4.825679 -0.043166 -0.435691 -60.704410 12.766989 -14.108745 -26.775686 -15.220141 4.167217 0.000000 0.000000 0.000000 6.221158 -4.675688 -2.360419 60.772436 -9.177998 -10.735669 11.521834 24.318948 3.168068 0.000000 0.000000 0.000000 
-0.149269 0.969185 0.379089 -0.023302 10.456422 1.594759 1.128737 -0.931209 -10.461183 2.056999 -1.260101 14.504490 -3.514678 -0.776026 10.218164 0.000000 0.000000 0.000000 0.292727 0.779899 -7.845092 -0.829380 0.387608 9.177860 -2.348206 -8.251500 13.764990 0.000000 0.000000 0.000000 1.097219 -0.909171 14.270783 2.131924 -0.912739 -1.357893 1.201358 -3.606772 6.578523 -0.244141 -0.174190 4.063862 0.000000 0.000000 0.000000 -4.667674 0.659013 -0.724815 -59.165367 14.910024 -14.818477 -29.655877 -11.983081 3.531466 0.000000 0.000000 0.000000 5.485281 -5.420072 -2.532614 60.196020 -9.825992 -10.875023 13.503182 23.518200 3.469271 0.000000 0.000000 0.000000 
-0.148978 0.969982 0.376321 -0.122932 10.553268 1.600240 1.240427 -0.843114 -9.613208 2.196912 -1.136417 12.785103 -4.075887 -0.882063 11.737239 0.000000 0.000000 0.000000 0.000116 0.664219 -6.745815 -0.746938 0.327844 7.275432 -2.811994 -9.239373 14.925234 0.000000 0.000000 0.000000 1.191499 -0.880087 13.722151 2.023392 -0.921369 -0.672908 1.372245 -2.971242 6.252868 0.015954 -0.532714 5.173896 0.000000 0.000000 0.000000 -4.332354 1.218614 -0.933735 -57.675785 16.926820 -15.355347 -31.420673 -10.818909 3.297920 0.000000 0.000000 0.000000 5.013711 -5.546587 -2.500501 59.506863 -10.564095 -10.981867 14.475942 24.525789 3.866342 0.000000 0.000000 0.000000 
-0.148534 0.970202 0.374817 -0.134694 10.400586 1.386445 1.339893 -0.693731 -8.062153 1.975782 -0.885393 10.376698 -4.331301 -0.598797 13.069349 0.000000 0.000000 0.000000 -0.533608 0.538208 -5.623594 -0.341740 0.212291 5.495088 -2.822117 -9.458315 16.347874 0.000000 0.000000 0.000000 1.098638 -0.785442 12.703066 1.734293 -0.910785 0.784296 1.404624 -2.513035 5.432564 -0.419108 -0.230174 5.977939 0.000000 0.000000 0.000000 -3.597410 1.477180 -0.955731 -56.882128 17.728242 -15.437343 -33.541704 -10.735159 3.438246 0.000000 0.000000 0.000000 4.623363 -5.107629 -2.274522 58.528748 -10.877839 -10.818494 15.820038 25.859153 4.405113 0.000000 0.000000 0.000000 
-0.148039 0.970116 0.374021 -0.203922 10.466982 1.213806 1.393321 -0.545687 -6.406652 2.083922 -0.712083 7.913729 -4.613046 -0.838444 13.439864 0.000000 0.000000 0.000000 -0.838650 0.394704 -4.142063 -0.228419 0.137226 3.383279 -2.589447 -9.152570 17.215259 0.000000 0.000000 0.000000 1.060239 -0.726873 11.975109 1.519084 -0.843448 1.217531 1.293654 -2.201611 5.181966 -0.150470 -0.579406 6.768698 0.000000 0.000000 0.000000 -3.258920 1.253203 -0.844634 -55.157289 17.619551 -14.840519 -36.392286 -11.185954 3.834978 0.000000 0.000000 0.000000 4.201218 -4.716165 -2.063856 56.446396 -10.616659 -10.206804 19.007920 27.656172 5.540777 0.000000 0.000000 0.000000 
-0.147632 0.969074 0.373540 -0.327878 10.284419 0.397934 1.820002 -0.359231 -4.207634 2.008109 -0.523525 5.465287 -5.386963 -2.001917 13.655145 0.000000 0.000000 0.000000 -1.301450 0.228852 -2.449399 -0.065311 0.081601 2.292960 -1.140796 -6.513214 16.299651 0.000000 0.000000 0.000000 1.251333 -0.700347 11.398908 0.989313 -0.724664 2.951713 1.019974 -1.852953 4.071494 -0.289743 -0.603735 8.003539 0.000000 0.000000 0.000000 -2.689781 0.772227 -0.607665 -54.535894 16.170569 -13.926460 -36.766396 -13.828678 4.818614 0.000000 0.000000 0.000000 4.040837 -3.767145 -1.677277 54.988866 -9.874920 -9.482719 19.850996 29.261794 6.117555 0.000000 0.000000 0.000000 
-0.147263 0.967874 0.373043 -0.397830 10.582728 -0.089270 1.911451 -0.265293 -2.963409 2.081361 -0.426639 3.868034 -5.769109 -2.423032 13.919548 0.000000 0.000000 0.000000 -1.347266 0.117921 -1.264417 -0.425805 0.099203 1.265778 -0.453631 -5.186359 16.043267 0.000000 0.000000 0.000000 1.070675 -0.630834 10.698340 0.850147 -0.716203 3.638962 0.867957 -2.088603 3.668062 -0.712005 -0.221158 8.144922 0.000000 0.000000 0.000000 -2.598784 0.508723 -0.501238 -53.787446 14.663997 -12.997300 -36.021601 -17.292716 5.996373 0.000000 0.000000 0.000000 3.788358 -2.939729 -1.339817 54.432221 -9.330726 -9.116512 19.430280 31.199988 6.450277 0.000000 0.000000 0.000000 
-0.147019 0.966094 0.372605 -0.522751 10.772270 -0.576072 1.970962 -0.200188 -2.058864 2.451102 -0.427434 3.177122 -6.138540 -3.329460 13.337454 0.000000 0.000000 0.000000 -1.422708 0.049976 -0.567638 -0.551255 0.104399 0.930955 0.101458 -4.100243 15.777918 0.000000 0.000000 0.000000 0.843819 -0.560969 10.021517 0.813428 -0.783832 4.571643 0.771422 -1.980676 2.872836 -0.708768 -0.258963 8.315183 0.000000 0.000000 0.000000 -3.618870 -0.570279 -0.253328 -53.905638 12.169119 -11.860942 -30.884846 -20.730273 6.261017 0.000000 0.000000 0.000000 4.111389 -1.440605 -0.784335 54.367253 -7.974193 -8.448129 15.966637 30.421907 5.330660 0.000000 0.000000 0.000000 
-0.146839 0.964867 0.372478 -0.433427 10.953349 -1.143255 1.880671 -0.140122 -1.235147 2.417905 -0.400547 2.834289 -6.124740 -3.494862 12.964192 0.000000 0.000000 0.000000 -1.607667 -0.016425 0.095456 -0.640801 0.112287 0.813007 0.307963 -3.686670 15.702709 0.000000 0.000000 0.000000 0.656746 -0.521018 9.692647 0.902089 -0.880950 5.081096 0.383062 -2.153120 2.118339 -0.910954 -0.075331 8.321435 0.000000 0.000000 0.000000 -4.735806 -1.617097 -0.006187 -54.636004 9.680633 -10.853697 -23.390294 -22.810738 5.382229 0.000000 0.000000 0.000000 4.739293 0.069017 -0.242085 55.508220 -6.373456 -7.879398 11.027754 28.982891 3.796354 0.000000 0.000000 0.000000 
-0.146819 0.963635 0.372874 -0.575422 11.231622 -1.548122 2.017301 -0.085713 -0.372074 2.537524 -0.375648 2.252815 -6.179470 -4.015917 12.177127 0.000000 0.000000 0.000000 -1.361282 -0.090604 0.843809 -0.992157 0.154333 0.680155 0.480630 -3.098051 14.756893 0.000000 0.000000 0.000000 0.561348 -0.470737 9.025832 1.158186 -1.041001 5.237445 0.121440 -2.435013 2.036730 -0.934669 -0.028160 8.111957 0.000000 0.000000 0.000000 -5.958539 -2.901147 0.352177 -54.293675 6.658964 -9.394939 -16.886862 -23.445433 4.197216 0.000000 0.000000 0.000000 5.496425 1.656789 0.347185 56.245871 -4.262847 -7.050222 6.712240 26.037004 2.411566 0.000000 0.000000 0.000000 
-0.146853 0.963350 0.373847 -0.523112 11.115358 -1.918254 1.846664 -0.044474 0.158860 2.803298 -0.404702 2.216601 -6.171482 -4.104156 12.028604 0.000000 0.000000 0.000000 -1.623954 -0.132408 1.268835 -0.808064 0.133119 0.760212 0.803528 -2.491018 14.618091 0.000000 0.000000 0.000000 0.429439 -0.429214 8.554008 1.160094 -1.029751 5.150816 0.123928 -2.213506 1.852474 -0.990996 0.000988 8.190892 0.000000 0.000000 0.000000 -6.422595 -4.297592 0.831743 -54.357643 4.103833 -8.250918 -11.547553 -23.019402 3.035601 0.000000 0.000000 0.000000 5.989273 2.443531 0.658590 56.896989 -2.770632 -6.431131 3.067347 23.675076 1.469256 0.000000 0.000000 0.000000 
-0.146884 0.963124 0.375200 -0.480980 10.965038 -2.123477 2.242010 -0.024935 0.664979 2.248109 -0.301640 1.581413 -6.590004 -4.331124 12.845157 0.000000 0.000000 0.000000 -1.485591 -0.194474 1.892020 -1.092391 0.149699 0.259781 0.832288 -2.406128 14.406906 0.000000 0.000000 0.000000 0.488860 -0.403803 8.085775 1.035326 -0.874379 4.284581 -0.387395 -1.849156 2.571373 -0.914243 -0.111478 8.281669 0.000000 0.000000 0.000000 -6.419759 -4.959510 1.054626 -54.004260 2.013179 -7.341597 -7.715686 -23.027918 2.251414 0.000000 0.000000 0.000000 6.741387 2.582959 0.748728 56.935665 -2.124103 -6.194240 1.883008 22.991540 1.232164 0.000000 0.000000 0.000000 
-0.146795 0.963096 0.376494 -0.434024 10.749978 -2.116167 2.099071 0.021106 1.312747 2.327426 -0.245643 0.498317 -6.454880 -3.874906 13.273253 0.000000 0.000000 0.000000 -1.648132 -0.214321 2.124256 -1.221844 0.153854 -0.009122 1.391860 -1.390485 14.380535 0.000000 0.000000 0.000000 0.370556 -0.338570 7.109607 0.803241 -0.794095 4.805255 0.078964 -2.229324 2.159071 -1.492373 0.412664 8.842733 0.000000 0.000000 0.000000 -6.674608 -5.325323 1.227757 -52.696763 0.467418 -6.393055 -5.967564 -22.885739 1.913348 0.000000 0.000000 0.000000 6.169597 3.279761 0.993588 57.461076 -2.148602 -6.255038 0.853911 22.789422 1.006491 0.000000 0.000000 0.000000 
-0.146385 0.962802 0.377396 -0.314550 9.637048 -2.025122 2.149237 0.058881 1.869673 1.756527 -0.164512 -0.016687 -5.679732 -2.993681 12.862571 0.000000 0.000000 0.000000 -1.632446 -0.210342 2.154813 -1.144295 0.132110 -0.226636 1.198154 -1.788334 13.847707 0.000000 0.000000 0.000000 -0.014268 -0.299537 6.870432 1.131299 -0.848201 3.695424 -0.157976 -1.622016 2.463146 -1.806252 0.836118 7.355691 0.000000 0.000000 0.000000 -8.525241 -5.040119 0.943272 -51.384987 -0.202309 -5.919613 -4.848338 -22.640661 1.666143 0.000000 0.000000 0.000000 7.438818 3.280539 0.987791 56.718138 -1.087630 -5.729884 -0.313629 22.418374 0.793360 0.000000 0.000000 0.000000 
-0.145770 0.963423 0.377902 -0.367000 8.313655 -1.879478 2.043948 0.069754 1.843194 1.723333 -0.176025 0.192990 -4.861524 -1.860772 12.812995 0.000000 0.000000 0.000000 -1.483101 -0.149140 1.576377 -1.216604 0.178846 0.656744 1.378698 -1.390999 12.946879 0.000000 0.000000 0.000000 -0.141338 -0.264423 6.344855 0.691125 -0.571796 3.394685 0.360171 -1.271528 2.243861 -1.250816 0.313907 7.749971 0.000000 0.000000 0.000000 -7.857075 -4.289976 0.737075 -51.832902 -0.342679 -5.911440 -4.145750 -23.779746 1.620704 0.000000 0.000000 0.000000 6.283640 3.600198 1.107279 57.293928 -0.759609 -5.611926 -1.775930 21.935444 0.507842 0.000000 0.000000 0.000000 
-0.144850 0.966021 0.378031 -0.112806 7.929212 -2.032350 2.273522 0.083996 2.176374 0.968496 -0.079000 -0.318464 -5.517338 -2.028126 14.642837 0.000000 0.000000 0.000000 -1.103923 -0.178081 1.825444 -2.335357 0.335278 0.954412 1.364216 -1.371362 12.620005 0.000000 0.000000 0.000000 -0.374229 -0.269589 6.756013 1.317527 -0.789370 2.074584 -0.584951 -0.446212 3.242213 -0.618406 -0.353369 8.020795 0.000000 0.000000 0.000000 -8.602310 -5.179490 0.951011 -50.670969 -0.365620 -5.833011 -3.712847 -24.675645 1.552133 0.000000 0.000000 0.000000 8.059635 3.230392 1.020343 56.345057 -0.523839 -5.499499 -1.415092 21.533646 0.598742 0.000000 0.000000 0.000000 
