HIERARCHY
ROOT Hips
{
	OFFSET -0.001795 -0.223333 0.028219
	CHANNELS 6 Xposition Yposition Zposition Zrotation Yrotation Xrotation 
	JOINT LeftUpLeg
	{
		OFFSET 0.069520 -0.091406 -0.006815
		CHANNELS 3 Zrotation Yrotation Xrotation
		JOINT LeftLeg
		{
			OFFSET 0.034277 -0.375199 -0.004496
			CHANNELS 3 Zrotation Yrotation Xrotation
			JOINT LeftFoot
			{
				OFFSET -0.013596 -0.397961 -0.043693
				CHANNELS 3 Zrotation Yrotation Xrotation
				JOINT LeftToe
				{
					OFFSET 0.026358 -0.055791 0.119288
					CHANNELS 3 Zrotation Yrotation Xrotation
					End Site
					{
						OFFSET 0.000000 0.000000 0.000000
					}
				}
			}
		}
	}
	JOINT RightUpLeg
	{
		OFFSET -0.067670 -0.090522 -0.004320
		CHANNELS 3 Zrotation Yrotation Xrotation
		JOINT RightLeg
		{
			OFFSET -0.038290 -0.382569 -0.008850
			CHANNELS 3 Zrotation Yrotation Xrotation
			JOINT RightFoot
			{
				OFFSET 0.015774 -0.398415 -0.042312
				CHANNELS 3 Zrotation Yrotation Xrotation
				JOINT RightToe
				{
					OFFSET -0.025372 -0.048144 0.123348
					CHANNELS 3 Zrotation Yrotation Xrotation
					End Site
					{
						OFFSET 0.000000 0.000000 0.000000
					}
				}
			}
		}
	}
	JOINT Spine
	{
		OFFSET -0.002533 0.108963 -0.026696
		CHANNELS 3 Zrotation Yrotation Xrotation
		JOINT Spine1
		{
			OFFSET 0.005487 0.135180 0.001092
			CHANNELS 3 Zrotation Yrotation Xrotation
			JOINT Spine2
			{
				OFFSET 0.001457 0.052922 0.025425
				CHANNELS 3 Zrotation Yrotation Xrotation
				JOINT Neck
				{
					OFFSET -0.002778 0.213870 -0.042857
					CHANNELS 3 Zrotation Yrotation Xrotation
					JOINT Head
					{
						OFFSET 0.005152 0.064970 0.051349
						CHANNELS 3 Zrotation Yrotation Xrotation
						End Site
						{
							OFFSET 0.000000 0.000000 0.000000
						}
					}
				}
				JOINT LeftShoulder
				{
					OFFSET 0.078845 0.121749 -0.034090
					CHANNELS 3 Zrotation Yrotation Xrotation
					JOINT LeftArm
					{
						OFFSET 0.090977 0.030469 -0.008868
						CHANNELS 3 Zrotation Yrotation Xrotation
						JOINT LeftForeArm
						{
							OFFSET 0.259612 -0.012772 -0.027456
							CHANNELS 3 Zrotation Yrotation Xrotation
							JOINT LeftHand
							{
								OFFSET 0.249234 0.008986 -0.001171
								CHANNELS 3 Zrotation Yrotation Xrotation
								End Site
								{
									OFFSET 0.000000 0.000000 0.000000
								}
							}
						}
					}
				}
				JOINT RightShoulder
				{
					OFFSET -0.081759 0.118833 -0.038615
					CHANNELS 3 Zrotation Yrotation Xrotation
					JOINT RightArm
					{
						OFFSET -0.096012 0.032551 -0.009143
						CHANNELS 3 Zrotation Yrotation Xrotation
						JOINT RightForeArm
						{
							OFFSET -0.253742 -0.013329 -0.021401
							CHANNELS 3 Zrotation Yrotation Xrotation
							JOINT RightHand
							{
								OFFSET -0.255298 0.007772 -0.005559
								CHANNELS 3 Zrotation Yrotation Xrotation
								End Site
								{
									OFFSET 0.000000 0.000000 0.000000
								}
							}
						}
					}
				}
			}
		}
	}
}
MOTION
Frames: 124
Frame Time: 0.050000
0.000000 0.928490 0.000000 -0.592090 -1.532984 2.430804 0.590391 0.541004 6.234250 -0.549016 0.172735 -3.812847 3.188900 6.577535 -0.622160 0.000000 0.000000 0.000000 0.525518 0.266186 -2.725321 2.763588 -0.210715 4.244238 -4.256789 -9.867682 -2.690081 0.000000 0.000000 0.000000 3.758918 0.090533 -2.051261 -1.376613 0.662614 -0.727167 -2.615524 3.683691 8.508712 6.538088 -2.814038 -14.505337 0.000000 0.000000 0.000000 -20.383536 -3.798672 -0.678154 -30.694579 6.874817 -5.011214 -12.181934 -33.405526 4.677295 0.000000 0.000000 0.000000 18.051331 -1.485731 -1.586404 34.301010 -5.439557 -5.040725 15.195619 43.786515 7.869302 0.000000 0.000000 0.000000 
-0.001883 0.927831 -0.000125 -0.996182 -2.385955 2.955724 1.097404 0.541302 6.574008 -1.224404 0.268435 -5.484386 3.918926 7.914397 -1.569195 0.000000 0.000000 0.000000 1.335948 0.381874 -3.864666 2.892356 -0.217413 4.357581 -4.645581 -10.756566 -2.912596 0.000000 0.000000 0.000000 4.466117 0.133796 -2.640352 -2.086891 0.995207 -0.104076 -2.336186 4.242676 8.059100 7.457791 -3.116629 -16.095212 0.000000 0.000000 0.000000 -18.505081 -3.595394 -0.625108 -31.225560 7.575562 -5.242438 -10.960276 -32.812248 4.214361 0.000000 0.000000 0.000000 16.666975 -2.571904 -2.049524 34.822647 -6.842055 -5.426036 16.913287 45.580845 9.028931 0.000000 0.000000 0.000000 
-0.004875 0.927868 0.000080 -0.815682 -1.941874 3.218861 1.488728 0.494226 6.423710 -1.910425 0.299595 -4.884377 3.428213 6.783243 -1.723530 0.000000 0.000000 0.000000 1.421534 0.564133 -5.469362 3.071028 -0.213972 6.447577 -4.860544 -11.154460 -3.695455 0.000000 0.000000 0.000000 4.769013 0.117967 -2.503985 -1.238485 0.604147 -1.770073 -3.396970 4.249114 9.778309 7.390831 -3.113036 -15.900294 0.000000 0.000000 0.000000 -17.423882 -3.488588 -0.593639 -31.371136 7.868862 -5.421929 -10.829140 -33.428233 4.232822 0.000000 0.000000 0.000000 17.107547 -2.717803 -2.040649 34.014608 -7.981281 -5.684826 17.177691 47.594110 9.673912 0.000000 0.000000 0.000000 
-0.009561 0.928258 0.000890 -0.842099 -2.481944 3.164888 1.626950 0.493586 6.458684 -1.643500 0.266139 -4.058490 3.858615 7.616278 -2.225296 0.000000 0.000000 0.000000 1.975817 0.616470 -5.864009 3.279571 -0.235619 6.678452 -4.879384 -11.219657 -3.459667 0.000000 0.000000 0.000000 4.628562 0.119310 -2.493368 -1.428995 0.684667 -0.743147 -3.039506 4.098101 9.126221 7.177339 -2.955971 -16.216701 0.000000 0.000000 0.000000 -17.867803 -2.841257 -0.886556 -30.388685 8.385988 -5.325608 -9.191894 -33.625091 3.797718 0.000000 0.000000 0.000000 17.051402 -3.160875 -2.395285 33.360451 -8.926502 -5.706478 17.205923 50.004168 10.179702 0.000000 0.000000 0.000000 
-0.015764 0.929004 0.002462 -0.908344 -2.537505 3.100529 2.142344 0.469142 6.607636 -1.556826 0.251400 -3.674091 3.837193 7.691315 -1.778711 0.000000 0.000000 0.000000 2.336129 0.642854 -6.028210 3.250572 -0.224134 7.078889 -4.787127 -11.086292 -3.057685 0.000000 0.000000 0.000000 4.595438 0.065973 -1.840223 -0.716960 0.351245 -0.728040 -3.478424 4.001969 9.087988 7.560626 -3.298703 -15.640658 0.000000 0.000000 0.000000 -17.797195 -2.872489 -0.850227 -29.852506 9.056735 -5.363598 -7.896886 -34.580696 3.511471 0.000000 0.000000 0.000000 17.188347 -3.479699 -2.592735 33.306109 -9.545840 -5.826410 17.913217 51.590847 10.893239 0.000000 0.000000 0.000000 
-0.023316 0.928860 0.005141 -1.171829 -3.230983 2.929113 2.588113 0.421548 6.268979 -1.277535 0.185643 -1.754737 4.518467 9.128000 -2.163727 0.000000 0.000000 0.000000 2.870489 0.603718 -5.660456 3.219349 -0.211015 6.964199 -4.484802 -10.159660 -3.277810 0.000000 0.000000 0.000000 4.802328 0.028541 -1.347475 -0.720646 0.343492 0.267189 -3.158318 3.504046 8.576622 6.903108 -2.957826 -15.650194 0.000000 0.000000 0.000000 -17.395134 -2.420636 -0.843006 -30.792653 9.347956 -5.648841 -5.079002 -35.178721 2.758560 0.000000 0.000000 0.000000 16.761585 -3.622982 -2.830570 34.488279 -9.223668 -5.890178 14.697035 52.406418 9.383073 0.000000 0.000000 0.000000 
-0.031629 0.928199 0.008903 -1.321569 -4.196684 2.714500 3.442653 0.309370 5.235488 -1.706219 0.177041 1.395092 5.104630 10.333574 -2.966643 0.000000 0.000000 0.000000 3.606949 0.503795 -4.858398 2.973484 -0.180416 5.908481 -4.229807 -9.181297 -3.846751 0.000000 0.000000 0.000000 4.955691 -0.038115 -0.511334 -0.818494 0.391098 0.545756 -3.131188 3.517884 8.459589 6.917410 -3.086251 -15.182745 0.000000 0.000000 0.000000 -17.570305 -1.783419 -1.078331 -31.873596 8.826749 -5.780408 -2.420416 -35.155625 1.968692 0.000000 0.000000 0.000000 17.494723 -3.758896 -3.087189 36.426704 -8.883548 -6.142705 10.707241 53.259345 7.539465 0.000000 0.000000 0.000000 
-0.040206 0.926594 0.013806 -1.624981 -4.133338 2.036446 4.583558 0.115588 2.814968 -2.724671 0.282425 8.637475 5.937353 11.805288 -5.334212 0.000000 0.000000 0.000000 4.697246 0.352486 -3.659027 2.542656 -0.127764 5.539101 -4.258421 -8.888039 -4.808506 0.000000 0.000000 0.000000 5.126717 -0.119477 0.548486 -0.804587 0.384167 0.543938 -2.742240 2.854513 8.923257 6.854904 -3.014722 -15.991152 0.000000 0.000000 0.000000 -18.367835 -1.968826 -0.874169 -34.051983 7.188009 -5.903864 0.295437 -35.678444 1.216001 0.000000 0.000000 0.000000 18.361694 -3.219256 -3.044413 39.231746 -7.850209 -6.378367 4.668039 52.988632 4.474818 0.000000 0.000000 0.000000 
-0.048320 0.924090 0.020742 -2.084365 -4.458619 1.293806 5.649078 -0.076842 -1.075652 -3.307521 0.506201 18.977732 6.465989 12.916056 -6.079195 0.000000 0.000000 0.000000 5.521251 0.145286 -2.195104 2.443931 -0.118170 5.269736 -4.024060 -7.640465 -6.115184 0.000000 0.000000 0.000000 5.316042 -0.230616 1.950700 -0.363202 0.173253 0.249416 -2.802752 3.021150 9.466171 6.957566 -3.032180 -16.422945 0.000000 0.000000 0.000000 -19.160597 -2.538428 -0.624869 -37.617577 4.618406 -5.930861 2.894025 -34.622321 0.413124 0.000000 0.000000 0.000000 18.874250 -2.584667 -2.737212 43.283870 -6.911054 -6.862103 0.822247 51.908403 2.637020 0.000000 0.000000 0.000000 
-0.055542 0.921416 0.030004 -2.428260 -5.196972 0.563289 6.712644 -0.186742 -5.557479 -4.465222 1.266573 30.056178 7.411935 15.232495 -4.182404 0.000000 0.000000 0.000000 6.359622 -0.017791 -1.141390 2.368613 -0.062666 6.732105 -4.179094 -7.540728 -7.075488 0.000000 0.000000 0.000000 5.389592 -0.301108 2.923371 -0.157148 0.068958 0.951073 -2.731561 3.071402 8.741787 6.883478 -3.038776 -16.144123 0.000000 0.000000 0.000000 -20.277351 -1.835058 -1.062964 -40.412784 3.100671 -5.924992 4.263466 -35.441555 0.031288 0.000000 0.000000 0.000000 18.809983 -1.591915 -2.283103 45.761325 -6.183293 -6.967999 -0.138492 49.669324 2.019290 0.000000 0.000000 0.000000 
-0.061897 0.919323 0.042136 -2.602306 -6.051581 -0.143305 7.003867 -0.255313 -10.295520 -4.675203 1.939634 39.487750 8.135505 16.811183 -2.691099 0.000000 0.000000 0.000000 6.965301 -0.290136 0.574260 2.009458 0.029219 7.621946 -3.831297 -5.966502 -7.861784 0.000000 0.000000 0.000000 5.547669 -0.341683 3.521839 -0.514535 0.245749 1.345766 -2.258643 4.175908 8.488096 6.704074 -2.723683 -17.001872 0.000000 0.000000 0.000000 -21.976194 -2.321272 -1.152605 -42.562668 2.116316 -5.874170 2.961334 -36.118274 0.398529 0.000000 0.000000 0.000000 18.390727 -1.896583 -2.255683 48.340261 -5.350384 -7.102819 2.914054 48.117753 3.396230 0.000000 0.000000 0.000000 
-0.067469 0.918671 0.056470 -2.832931 -6.860662 -1.453118 7.070125 -0.264999 -13.830718 -4.922489 2.611981 45.649842 8.579087 17.665413 -2.723909 0.000000 0.000000 0.000000 7.951923 -0.691772 3.025334 1.308048 0.162232 7.980295 -3.606582 -4.814814 -8.442728 0.000000 0.000000 0.000000 5.224436 -0.395499 4.636550 0.089427 -0.046468 0.090785 -2.232482 5.234632 9.569002 8.006640 -3.469005 -17.208746 0.000000 0.000000 0.000000 -22.798306 -1.983139 -1.572882 -45.084684 1.988618 -6.265411 1.156176 -37.178079 0.989423 0.000000 0.000000 0.000000 18.673371 -1.318677 -1.796059 50.123514 -4.122742 -7.047746 3.696969 47.192832 3.803378 0.000000 0.000000 0.000000 
-0.072566 0.919398 0.072652 -2.904661 -7.315725 -2.368725 7.006092 -0.278222 -16.601585 -5.742186 3.127925 45.279389 8.910393 18.308845 -3.163959 0.000000 0.000000 0.000000 8.618714 -1.017660 4.951996 0.724383 0.270187 8.197984 -3.345389 -3.969472 -8.397613 0.000000 0.000000 0.000000 4.568812 -0.403329 5.293398 0.104240 -0.056824 0.301911 -2.036441 6.951727 9.266002 8.659422 -3.663509 -17.446474 0.000000 0.000000 0.000000 -22.904628 -2.755209 -1.617773 -46.323466 2.760677 -6.602752 -1.624948 -37.424436 1.770599 0.000000 0.000000 0.000000 19.380495 -1.188923 -1.415818 51.449294 -3.538926 -7.071997 5.071349 46.153837 4.511104 0.000000 0.000000 0.000000 
-0.076939 0.919768 0.090789 -2.935695 -8.055604 -2.816754 7.087867 -0.243043 -19.368485 -5.519760 2.788304 41.006323 8.621693 17.682126 -3.250711 0.000000 0.000000 0.000000 9.342005 -1.371982 6.901393 -0.059892 0.406293 8.214054 -2.939105 -2.580639 -8.429457 0.000000 0.000000 0.000000 3.976112 -0.384005 5.490640 0.335589 -0.169647 0.128868 -2.163277 8.411346 9.414029 9.903534 -4.232410 -17.920664 0.000000 0.000000 0.000000 -22.374864 -2.405608 -2.076194 -48.465110 3.460510 -7.176205 -3.877692 -38.261519 2.472503 0.000000 0.000000 0.000000 19.452961 -1.337554 -1.220847 53.875305 -1.634566 -6.645633 4.739529 45.530614 4.526651 0.000000 0.000000 0.000000 
-0.080490 0.919262 0.111208 -2.935805 -8.519669 -3.119708 7.004947 -0.233396 -20.516881 -5.108045 2.029196 32.646430 7.876848 16.138428 -2.778895 0.000000 0.000000 0.000000 9.676346 -1.663663 8.579665 -0.581448 0.491026 8.135270 -2.721469 -1.895757 -8.350979 0.000000 0.000000 0.000000 3.825618 -0.379819 5.601965 -0.260689 0.118388 0.025400 -1.655139 9.547450 9.349554 9.921165 -4.152481 -17.893175 0.000000 0.000000 0.000000 -22.173364 -2.340157 -2.334823 -49.005744 4.014133 -7.429032 -5.841938 -38.123888 3.039744 0.000000 0.000000 0.000000 19.304955 -1.563080 -1.139754 54.463744 -0.660867 -6.304901 5.623128 46.123546 5.117636 0.000000 0.000000 0.000000 
-0.083219 0.916418 0.133692 -3.125914 -9.128708 -3.164243 6.971852 -0.205911 -21.251564 -4.273407 1.225809 23.537324 6.580939 13.489871 -1.771785 0.000000 0.000000 0.000000 9.709783 -1.843232 9.720859 -0.590380 0.530778 8.692030 -2.474512 -0.742480 -8.771895 0.000000 0.000000 0.000000 3.871777 -0.390802 5.780325 -0.242931 0.107808 -0.236949 -1.651690 10.772630 9.349194 10.417272 -4.301385 -18.149387 0.000000 0.000000 0.000000 -21.560651 -2.230446 -2.574087 -49.449851 4.715280 -7.739076 -7.462291 -38.277057 3.495517 0.000000 0.000000 0.000000 18.982184 -1.563828 -0.904535 55.122905 1.348868 -5.492887 5.215318 46.426337 5.171936 0.000000 0.000000 0.000000 
-0.085347 0.912143 0.158144 -3.011708 -10.065881 -3.409493 6.819165 -0.181591 -21.550354 -3.793762 0.781866 15.047326 5.996111 12.382792 -0.638512 0.000000 0.000000 0.000000 9.488363 -2.041134 11.279112 -0.656047 0.602749 9.527107 -2.684040 -0.208884 -10.112802 0.000000 0.000000 0.000000 3.746875 -0.391321 5.973656 -0.891185 0.422298 -0.024551 -1.118854 11.826942 9.347561 10.514331 -4.136306 -18.938417 0.000000 0.000000 0.000000 -21.804873 -2.159413 -2.805937 -49.435976 5.589049 -8.035556 -7.888259 -38.809523 3.633637 0.000000 0.000000 0.000000 19.280517 -1.019490 -0.485229 54.587975 3.922444 -4.356454 2.839924 46.468462 4.276732 0.000000 0.000000 0.000000 
-0.086830 0.905514 0.184713 -3.018802 -11.016328 -3.826063 6.365058 -0.223130 -21.270403 -3.062695 0.457795 7.613712 4.734664 10.010016 1.284065 0.000000 0.000000 0.000000 8.939133 -2.194210 12.991159 -0.491087 0.601056 9.821402 -2.796892 0.929973 -11.694462 0.000000 0.000000 0.000000 3.963311 -0.442091 6.791003 -1.802201 0.839791 -0.980400 -0.482847 12.704826 10.296000 11.052300 -4.424430 -19.172077 0.000000 0.000000 0.000000 -21.553504 -3.357785 -2.133843 -49.940297 5.753446 -8.278650 -6.599963 -39.010779 3.210543 0.000000 0.000000 0.000000 20.332803 -0.368399 -0.036411 53.927716 6.345692 -3.436131 -0.265081 46.285142 3.050119 0.000000 0.000000 0.000000 
-0.087478 0.899655 0.213618 -2.989215 -12.113687 -3.720011 5.762722 -0.294607 -21.660279 -2.522997 0.340046 4.631076 4.031937 8.712685 2.268267 0.000000 0.000000 0.000000 8.187411 -2.172768 13.770555 -0.756434 0.742312 10.962826 -3.349688 0.279804 -12.769689 0.000000 0.000000 0.000000 3.521967 -0.446610 7.277990 -1.569013 0.722811 -0.975856 -0.689537 13.588956 10.540922 11.720606 -4.562531 -20.283462 0.000000 0.000000 0.000000 -21.669160 -3.599505 -2.112200 -49.361466 6.123928 -8.299003 -6.260129 -41.464032 3.245032 0.000000 0.000000 0.000000 21.067369 0.896495 0.797263 53.349266 8.497002 -2.569949 -4.260382 45.492491 1.418059 0.000000 0.000000 0.000000 
-0.087511 0.894318 0.245968 -2.574504 -12.605664 -2.943037 5.146792 -0.406263 -22.778715 -2.860462 0.415123 5.495545 3.922892 8.620065 3.469591 0.000000 0.000000 0.000000 7.515570 -2.114300 14.028404 -1.020076 0.935780 12.660644 -3.501804 0.242518 -13.142051 0.000000 0.000000 0.000000 3.284616 -0.446779 7.362292 -1.911584 0.901325 -0.475386 -0.848432 13.859654 9.772652 12.052187 -4.815596 -19.899894 0.000000 0.000000 0.000000 -21.433828 -4.683165 -1.514255 -49.373950 6.415387 -8.349481 -5.682010 -43.366507 3.146067 0.000000 0.000000 0.000000 21.805853 1.114658 0.934401 52.744628 9.310740 -2.185334 -5.803785 45.034884 0.762970 0.000000 0.000000 0.000000 
-0.087296 0.893307 0.282872 -2.009559 -14.291792 -2.170619 4.426525 -0.476191 -23.318987 -2.566709 0.419422 8.007142 3.991681 8.944282 6.228680 0.000000 0.000000 0.000000 6.246521 -1.931692 14.433561 -1.962321 1.390580 15.082015 -3.053047 1.163857 -12.043633 0.000000 0.000000 0.000000 2.520297 -0.369097 6.619433 -1.619449 0.750017 -0.681169 -0.814429 14.895017 10.299144 12.349876 -4.962556 -20.061591 0.000000 0.000000 0.000000 -20.854499 -4.376045 -1.585625 -49.023172 7.101735 -8.597896 -7.222285 -46.811181 4.053893 0.000000 0.000000 0.000000 21.689179 1.414688 1.145914 52.963063 9.414059 -2.187618 -6.996903 44.725877 0.327582 0.000000 0.000000 0.000000 
-0.087467 0.895812 0.323913 -1.327655 -15.009852 -1.889717 3.864352 -0.574208 -22.877360 -3.361052 0.662091 9.806555 4.414878 9.808447 8.147358 0.000000 0.000000 0.000000 4.837525 -1.707352 14.582221 -2.367409 1.821060 17.939815 -2.194619 1.402959 -9.222395 0.000000 0.000000 0.000000 1.897310 -0.298140 5.741401 -2.096824 0.989265 -0.406450 -0.308511 14.668462 10.686289 11.670265 -4.598739 -20.222145 0.000000 0.000000 0.000000 -21.192842 -5.743698 -0.679912 -48.663423 6.384197 -8.269159 -5.003261 -48.976162 3.368056 0.000000 0.000000 0.000000 21.294994 1.953190 1.261712 53.622958 8.660267 -2.480442 -7.666909 43.129787 -0.047234 0.000000 0.000000 0.000000 
-0.088091 0.902508 0.366745 -0.573703 -15.260810 -1.857408 2.703482 -0.817409 -20.910748 -3.547745 0.758775 10.858685 4.503720 9.911248 7.400442 0.000000 0.000000 0.000000 3.326581 -1.308278 12.552529 -1.610363 2.485703 24.679736 -1.413378 0.134387 -5.041471 0.000000 0.000000 0.000000 0.877557 -0.233341 5.390540 -1.820292 0.824216 -1.168227 -0.511199 14.093242 11.891987 11.620636 -4.709065 -20.181204 0.000000 0.000000 0.000000 -20.097111 -5.447481 -0.414714 -48.956897 3.989775 -7.589393 -3.989318 -51.877527 3.265597 0.000000 0.000000 0.000000 21.485428 1.904944 1.063633 54.348925 7.416127 -3.141110 -5.203249 41.851408 0.770249 0.000000 0.000000 0.000000 
-0.089193 0.908613 0.407983 0.444158 -15.886321 -1.674136 1.396824 -1.030043 -19.156903 -3.751433 0.822474 10.568136 5.217486 11.155595 7.282464 0.000000 0.000000 0.000000 1.073041 -0.625261 7.169084 1.061155 3.248500 36.120455 -0.624264 -2.697791 1.913649 0.000000 0.000000 0.000000 -0.409383 -0.147842 4.698000 -1.168383 0.513178 -1.239488 -0.776232 13.995619 12.351617 11.420461 -4.564670 -20.593701 0.000000 0.000000 0.000000 -20.260520 -7.117717 0.626594 -47.827914 0.092164 -5.954258 -1.276488 -53.758549 2.133931 0.000000 0.000000 0.000000 19.973899 2.395620 1.194673 56.892599 5.892647 -3.822124 -3.995536 38.776716 1.008014 0.000000 0.000000 0.000000 
-0.090998 0.913213 0.445199 0.749056 -15.962809 -1.994350 0.559655 -1.102389 -16.694755 -4.354753 0.994848 10.830488 5.611955 11.872187 4.992692 0.000000 0.000000 0.000000 -0.197397 -0.011312 0.346188 4.899246 3.389587 48.940210 -1.839100 -8.467395 8.758160 0.000000 0.000000 0.000000 -0.463659 -0.172634 6.044140 -1.117065 0.467637 -1.836882 -0.877243 11.902874 12.149035 11.639928 -4.930191 -20.750734 0.000000 0.000000 0.000000 -19.915569 -7.922838 1.729240 -47.387089 -4.705266 -4.266213 0.158204 -56.708611 1.978938 0.000000 0.000000 0.000000 19.034425 1.994624 0.383459 58.420778 4.513655 -4.406017 -2.389156 36.794402 1.181239 0.000000 0.000000 0.000000 
-0.094503 0.917466 0.478798 0.426261 -15.436753 -2.262907 0.194856 -1.035295 -13.789972 -4.224040 0.908897 9.944412 5.527152 11.776635 3.802057 0.000000 0.000000 0.000000 -0.879524 0.559030 -5.863500 7.973701 2.193658 54.224501 -5.620087 -15.285037 7.132740 0.000000 0.000000 0.000000 0.066717 -0.230510 7.169937 0.112596 -0.097496 -1.934133 -2.200423 9.422903 12.278209 11.096770 -4.772842 -21.239514 0.000000 0.000000 0.000000 -20.017569 -9.635790 3.267571 -45.143383 -9.606653 -2.507725 5.700208 -58.868386 -0.571307 0.000000 0.000000 0.000000 19.163611 1.861087 -0.212517 59.039105 2.567302 -5.374554 -1.363795 36.025299 1.248654 0.000000 0.000000 0.000000 
-0.099698 0.922401 0.510158 -0.232834 -15.390275 -2.680661 0.125081 -0.828457 -10.184999 -3.542339 0.697799 8.694653 5.629611 12.046036 2.760268 0.000000 0.000000 0.000000 -0.926057 1.075892 -10.765603 9.183010 1.350856 53.385437 -8.129174 -19.834877 3.744284 0.000000 0.000000 0.000000 0.603356 -0.293985 8.359734 0.981178 -0.497570 -2.207536 -2.599227 6.401393 12.716343 10.075512 -4.506099 -21.588217 0.000000 0.000000 0.000000 -19.931814 -11.176733 5.012909 -43.080840 -14.815477 -0.955955 12.917640 -60.113867 -4.011943 0.000000 0.000000 0.000000 19.037957 2.340675 -0.709695 59.071684 0.682315 -6.277680 -0.327682 35.779550 1.237844 0.000000 0.000000 0.000000 
-0.106402 0.928518 0.539246 -1.004644 -16.371931 -3.131876 0.606500 -0.497582 -6.223651 -3.712140 0.682479 6.444952 6.341690 13.578515 2.340477 0.000000 0.000000 0.000000 -0.637876 1.569499 -14.571931 7.820982 1.578482 46.072904 -8.526919 -20.509558 2.004713 0.000000 0.000000 0.000000 1.287771 -0.382645 10.357563 1.718993 -0.839583 -2.443375 -2.948695 4.608384 12.493233 8.881735 -4.113203 -21.368076 0.000000 0.000000 0.000000 -19.208134 -12.845759 6.492367 -41.407523 -19.685965 0.506959 19.478616 -59.028192 -7.193402 0.000000 0.000000 0.000000 19.233393 2.570981 -1.204862 58.633126 -1.369932 -7.138406 2.087762 36.966445 1.777247 0.000000 0.000000 0.000000 
-0.114531 0.931782 0.565959 -1.652121 -17.128697 -2.561482 1.179624 -0.277779 -3.868841 -3.530924 0.615640 4.996211 6.084927 13.167217 1.340586 0.000000 0.000000 0.000000 0.209326 2.116882 -17.752858 4.172097 2.098526 35.491432 -6.455568 -15.836930 0.915445 0.000000 0.000000 0.000000 2.120883 -0.470905 11.154824 2.128290 -1.021893 -1.496946 -3.539325 2.022227 11.584143 8.056918 -3.897127 -21.611321 0.000000 0.000000 0.000000 -17.424330 -13.696457 7.437758 -41.158506 -24.805286 2.207505 25.651526 -56.215323 -9.528146 0.000000 0.000000 0.000000 18.864484 2.637321 -1.887899 58.799354 -3.435719 -7.991890 4.018557 38.949945 2.124278 0.000000 0.000000 0.000000 
-0.124194 0.932598 0.590976 -1.907375 -18.222552 -2.159485 1.386851 -0.047541 -1.168918 -3.309499 0.540571 2.806615 6.454022 14.135036 0.358725 0.000000 0.000000 0.000000 0.125413 2.366968 -19.276524 0.976184 1.670544 22.542784 -2.987660 -8.508801 2.014658 0.000000 0.000000 0.000000 2.870846 -0.571679 12.827345 2.817161 -1.332308 -1.405392 -4.645818 1.042478 10.593774 8.177315 -4.032116 -21.837068 0.000000 0.000000 0.000000 -15.044255 -15.165447 8.087012 -40.919553 -28.889738 3.777673 28.742788 -53.576163 -10.399455 0.000000 0.000000 0.000000 19.586380 2.132232 -2.644196 58.317165 -4.907301 -8.444566 5.918172 40.477367 2.651951 0.000000 0.000000 0.000000 
-0.135520 0.930396 0.615095 -1.580942 -18.138377 -1.655828 1.483454 0.041922 -0.126613 -3.510101 0.559611 1.858942 6.323587 13.933219 -0.189523 0.000000 0.000000 0.000000 0.299804 2.266757 -18.545161 -0.986999 1.006134 12.392550 -0.333677 -4.343835 4.992642 0.000000 0.000000 0.000000 3.073997 -0.606660 13.113830 3.097392 -1.455741 -0.391660 -5.417062 -0.291255 9.622575 8.157031 -4.017192 -22.302976 0.000000 0.000000 0.000000 -14.011383 -17.315825 9.175070 -39.200038 -32.291517 4.831078 30.755025 -49.465176 -10.429913 0.000000 0.000000 0.000000 20.401291 2.768360 -2.771374 58.598021 -6.539867 -9.105520 5.422583 42.291813 2.411135 0.000000 0.000000 0.000000 
-0.148274 0.927523 0.638105 -1.198607 -17.325997 -1.581178 1.303353 0.107083 0.699209 -3.388850 0.536589 2.396469 6.478543 14.389874 -1.587881 0.000000 0.000000 0.000000 0.292216 2.218354 -18.333102 -0.976170 0.843845 10.807201 0.564560 -3.852349 7.407158 0.000000 0.000000 0.000000 3.593477 -0.701828 14.107774 3.304732 -1.557071 0.623460 -6.259443 -1.270179 8.830482 7.809901 -3.853948 -21.996952 0.000000 0.000000 0.000000 -13.484927 -19.371703 10.131161 -36.289079 -35.800241 5.508407 31.030456 -46.938224 -10.092732 0.000000 0.000000 0.000000 21.233149 2.575389 -3.124626 57.774855 -6.991968 -9.003528 5.516842 44.231185 2.477180 0.000000 0.000000 0.000000 
-0.161357 0.924928 0.658956 -1.154509 -16.779527 -1.045402 1.868255 0.127817 0.869091 -3.980609 0.649893 3.118923 6.681033 14.951575 -3.062495 0.000000 0.000000 0.000000 0.477829 2.213985 -18.233862 -0.955124 0.893053 11.447912 0.167533 -5.086746 8.210181 0.000000 0.000000 0.000000 4.249430 -0.823278 14.973723 3.757598 -1.768609 0.748304 -6.819878 -2.136339 8.717854 7.200779 -3.536597 -22.234576 0.000000 0.000000 0.000000 -13.407595 -20.908697 10.991402 -33.766062 -38.539681 5.796637 31.697447 -43.451174 -9.583030 0.000000 0.000000 0.000000 22.083387 3.570574 -2.900745 57.001682 -7.707895 -9.053315 4.411340 45.324576 2.021569 0.000000 0.000000 0.000000 
-0.173764 0.924447 0.676781 -1.296957 -16.799316 0.294660 2.545094 0.049293 -0.143657 -4.325591 0.752039 4.499148 7.499993 16.913237 -3.620736 0.000000 0.000000 0.000000 0.840928 2.332557 -18.733901 -0.670008 0.954857 12.668329 0.000640 -5.074532 7.559713 0.000000 0.000000 0.000000 5.031952 -0.963462 15.523646 4.222220 -1.967166 0.696779 -7.163631 -2.426582 9.051992 6.550416 -3.129827 -23.050877 0.000000 0.000000 0.000000 -14.655138 -22.803483 12.418150 -29.850275 -40.458172 5.199783 32.913683 -40.283429 -9.332911 0.000000 0.000000 0.000000 23.224707 4.038378 -2.955189 55.420193 -7.441480 -8.487753 4.355241 47.182923 2.031029 0.000000 0.000000 0.000000 
-0.184552 0.925648 0.691675 -1.425900 -17.057643 1.698584 3.346572 -0.053813 -1.811582 -4.914780 0.940569 6.195867 8.112552 18.264075 -3.370645 0.000000 0.000000 0.000000 1.157001 2.595719 -20.089410 -0.419655 1.108532 14.714140 0.055441 -4.496714 6.714090 0.000000 0.000000 0.000000 5.822712 -1.117924 16.291007 4.655524 -2.155103 1.276794 -7.396539 -3.328070 8.739210 5.980074 -2.916150 -22.953474 0.000000 0.000000 0.000000 -14.768144 -24.310742 13.487658 -27.433348 -42.044121 4.951059 33.991981 -35.954328 -8.576976 0.000000 0.000000 0.000000 23.160996 5.252311 -2.582288 55.070983 -6.380284 -7.782752 1.513602 48.366989 0.653456 0.000000 0.000000 0.000000 
-0.193597 0.927629 0.705197 -1.516488 -17.406829 3.247493 3.958479 -0.117490 -3.137753 -5.208010 1.072610 7.429767 9.215858 20.524231 -2.155012 0.000000 0.000000 0.000000 1.394602 2.850805 -21.354643 0.130163 1.106635 15.762055 0.016569 -4.515525 6.536097 0.000000 0.000000 0.000000 6.414027 -1.237734 16.638067 5.279725 -2.418636 1.454609 -7.580786 -3.854413 9.088552 5.290931 -2.597903 -23.366638 0.000000 0.000000 0.000000 -15.300014 -26.083546 14.836988 -25.222056 -43.123761 4.505974 34.956645 -32.210160 -7.890858 0.000000 0.000000 0.000000 23.270024 6.314291 -2.254663 54.425891 -5.091462 -6.989935 -0.672596 49.061856 -0.441865 0.000000 0.000000 0.000000 
-0.201241 0.930086 0.717906 -1.442891 -17.545484 4.691089 4.072387 -0.185123 -4.275611 -5.141516 1.065482 7.509662 10.016944 21.922602 -0.700025 0.000000 0.000000 0.000000 1.429712 3.001765 -22.176692 0.489735 1.068580 16.110437 -0.258599 -5.010864 6.324301 0.000000 0.000000 0.000000 6.966574 -1.356463 16.839394 5.655696 -2.569787 1.693239 -7.805970 -4.450326 9.064806 5.165251 -2.546150 -23.828709 0.000000 0.000000 0.000000 -14.296264 -27.089277 15.237140 -25.160322 -44.216500 4.816864 35.953323 -29.808905 -7.454551 0.000000 0.000000 0.000000 22.701580 7.359119 -1.792715 54.597520 -4.229152 -6.571914 -3.067356 49.355099 -1.660213 0.000000 0.000000 0.000000 
-0.208173 0.932004 0.730035 -1.484549 -18.063902 5.910510 4.219340 -0.215488 -4.926726 -5.064199 1.042285 7.155555 11.217913 24.055164 0.879619 0.000000 0.000000 0.000000 1.596313 3.097501 -22.529595 0.882420 1.010606 16.217581 -0.319152 -5.034644 6.055311 0.000000 0.000000 0.000000 7.271969 -1.426141 17.073629 5.849015 -2.631503 1.842680 -7.777299 -4.444102 9.255583 4.601070 -2.243838 -24.222404 0.000000 0.000000 0.000000 -13.340770 -28.081994 15.528456 -25.241172 -45.090359 5.119032 37.948155 -28.853839 -7.644727 0.000000 0.000000 0.000000 22.082660 7.737774 -1.552244 54.377905 -3.288523 -6.133940 -3.740505 49.716054 -2.042627 0.000000 0.000000 0.000000 
-0.214672 0.933038 0.741447 -1.501777 -18.260220 6.866586 4.480108 -0.211817 -5.011965 -4.783092 0.953124 6.533043 11.525811 24.538346 1.472521 0.000000 0.000000 0.000000 1.717750 3.149041 -22.710673 1.323657 0.905724 16.012381 -0.877587 -6.201167 5.936299 0.000000 0.000000 0.000000 7.653321 -1.496388 16.946582 6.177225 -2.765348 2.078909 -7.895128 -5.032593 9.262986 4.499611 -2.239632 -24.446157 0.000000 0.000000 0.000000 -12.007018 -27.979729 15.184200 -26.246272 -45.854822 5.746176 40.066561 -29.212969 -8.152717 0.000000 0.000000 0.000000 21.539162 8.259702 -1.400495 54.661391 -2.925381 -5.981662 -4.743743 49.497455 -2.629998 0.000000 0.000000 0.000000 
-0.220735 0.932898 0.751786 -1.513822 -18.632890 7.428784 4.679744 -0.195783 -4.875820 -4.903533 0.958131 5.895551 11.940963 25.195898 2.182733 0.000000 0.000000 0.000000 2.050911 3.136687 -22.372175 1.462406 0.906954 16.193105 -1.089807 -6.451967 5.520215 0.000000 0.000000 0.000000 7.744374 -1.523794 17.201402 6.602433 -2.952255 2.562152 -7.995669 -5.069067 9.073076 4.319639 -2.169172 -24.219913 0.000000 0.000000 0.000000 -11.418494 -28.279092 15.167387 -26.668324 -46.282168 6.064640 42.735107 -30.076415 -9.054976 0.000000 0.000000 0.000000 21.551039 8.375199 -1.396071 54.344973 -2.504130 -5.692918 -5.281340 49.548400 -2.919408 0.000000 0.000000 0.000000 
-0.226126 0.932489 0.760818 -1.392597 -19.005728 7.794132 4.845918 -0.193462 -5.043366 -4.885471 0.976591 6.204241 11.847113 25.080157 2.007360 0.000000 0.000000 0.000000 2.127227 3.158941 -22.414057 1.596815 0.922912 16.542392 -1.492327 -7.068307 5.022676 0.000000 0.000000 0.000000 7.751680 -1.538201 17.572625 6.755205 -3.018643 3.081775 -7.965446 -5.132003 8.724530 4.538763 -2.315284 -23.774141 0.000000 0.000000 0.000000 -11.217502 -28.609477 15.308339 -26.767295 -46.580547 6.215063 44.941198 -30.710682 -9.812614 0.000000 0.000000 0.000000 21.593644 8.757865 -1.256307 54.498078 -2.128570 -5.483893 -5.273003 49.473468 -2.955248 0.000000 0.000000 0.000000 
-0.230687 0.931854 0.768330 -1.334638 -18.915357 8.142003 5.158649 -0.195616 -5.492865 -5.108752 1.052273 6.782134 11.893108 25.230642 1.753978 0.000000 0.000000 0.000000 2.327893 3.199444 -22.520625 1.549649 0.996526 17.246516 -1.736741 -7.424266 4.711762 0.000000 0.000000 0.000000 7.880448 -1.589649 17.977790 7.041711 -3.162112 3.647835 -7.930961 -5.418013 8.426251 4.621284 -2.308332 -24.241285 0.000000 0.000000 0.000000 -10.974307 -28.677897 15.303524 -27.189508 -47.295610 6.603944 47.073078 -31.569172 -10.663043 0.000000 0.000000 0.000000 21.635015 9.067724 -1.152919 54.587427 -1.383487 -5.103052 -6.199957 49.097110 -3.379294 0.000000 0.000000 0.000000 
-0.234311 0.931637 0.774677 -1.246924 -19.184986 8.221217 5.318388 -0.194547 -5.893887 -5.435638 1.178023 7.554931 11.723685 24.958305 1.493884 0.000000 0.000000 0.000000 2.321554 3.248578 -22.745583 1.602718 1.082184 18.140185 -1.910086 -7.542492 4.215753 0.000000 0.000000 0.000000 7.889437 -1.611837 18.677247 7.139799 -3.204736 3.878376 -7.962875 -5.437042 8.223256 4.704797 -2.333131 -24.339363 0.000000 0.000000 0.000000 -10.647137 -28.698488 15.206176 -28.161738 -47.681857 7.112956 48.168919 -32.605414 -11.350145 0.000000 0.000000 0.000000 21.658712 9.720829 -0.820818 54.724572 -0.512061 -4.693949 -7.095969 48.989012 -3.782748 0.000000 0.000000 0.000000 
-0.237267 0.931585 0.780481 -1.072472 -19.530352 8.108422 5.126080 -0.206244 -5.966089 -5.404949 1.215192 8.125287 11.682790 24.929580 1.373523 0.000000 0.000000 0.000000 2.252112 3.242591 -22.725327 1.732614 1.148924 18.961528 -1.997564 -7.623418 4.000990 0.000000 0.000000 0.000000 7.854621 -1.613481 19.345623 7.077179 -3.170963 3.889480 -7.959944 -5.005277 8.224036 5.263097 -2.548930 -24.593234 0.000000 0.000000 0.000000 -10.727156 -28.823142 15.231003 -29.305719 -47.697606 7.521557 48.113072 -33.475821 -11.703868 0.000000 0.000000 0.000000 21.189069 9.699399 -0.625867 55.072051 0.375010 -4.423445 -7.523559 48.808909 -3.889694 0.000000 0.000000 0.000000 
-0.239582 0.931727 0.786130 -1.027774 -19.365316 7.951052 4.877751 -0.223273 -5.911661 -5.188092 1.162241 8.180395 11.370181 24.332519 1.209433 0.000000 0.000000 0.000000 2.258003 3.217055 -22.605202 1.665380 1.232930 19.665548 -2.003981 -7.436516 3.672406 0.000000 0.000000 0.000000 8.163255 -1.688153 19.813818 7.182129 -3.226207 3.747862 -8.380866 -4.588579 8.329009 6.038772 -2.883656 -24.508539 0.000000 0.000000 0.000000 -11.114422 -29.238990 15.452152 -30.469262 -47.345387 7.788574 46.714423 -34.631074 -11.817438 0.000000 0.000000 0.000000 20.902918 9.510290 -0.469047 55.255422 0.969812 -4.279776 -8.267729 49.375101 -4.163364 0.000000 0.000000 0.000000 
-0.241327 0.931589 0.791434 -0.838414 -19.429656 7.712357 4.284669 -0.244531 -5.407688 -4.787049 1.039766 7.675124 11.413424 24.480784 1.159463 0.000000 0.000000 0.000000 2.009182 3.160557 -22.482214 1.477005 1.333786 20.156585 -1.673215 -6.396150 3.188889 0.000000 0.000000 0.000000 8.243977 -1.701087 20.015823 7.321881 -3.302620 4.084789 -8.774433 -3.873273 8.112206 6.955311 -3.239602 -24.499451 0.000000 0.000000 0.000000 -11.653523 -29.658702 15.667543 -32.310137 -46.928436 8.272123 44.858269 -35.353959 -11.605906 0.000000 0.000000 0.000000 20.143484 9.038239 -0.307694 55.901354 1.487872 -4.259954 -8.573129 50.466288 -4.269374 0.000000 0.000000 0.000000 
-0.242346 0.931183 0.795624 -0.599475 -19.549678 7.461749 3.952025 -0.245930 -5.009267 -4.706681 1.007508 7.359538 11.408306 24.556608 0.997981 0.000000 0.000000 0.000000 1.757453 3.107386 -22.362839 1.395322 1.417665 20.675493 -1.829057 -6.468224 2.721154 0.000000 0.000000 0.000000 8.384067 -1.710539 19.932622 7.278748 -3.283542 4.128760 -8.925267 -3.579384 8.202922 7.273165 -3.443393 -23.981545 0.000000 0.000000 0.000000 -12.782334 -29.661953 16.012384 -33.826647 -46.099184 8.435162 42.629632 -35.467254 -10.975758 0.000000 0.000000 0.000000 20.041186 8.857914 -0.299476 55.567818 1.570123 -4.225283 -8.645528 51.457900 -4.362344 0.000000 0.000000 0.000000 
-0.242817 0.930648 0.798111 -0.508450 -19.739686 7.425918 3.824599 -0.244184 -4.838268 -4.916691 1.043041 7.024217 11.384242 24.545264 0.949358 0.000000 0.000000 0.000000 1.507929 3.141851 -22.688792 1.414535 1.487526 21.258894 -1.929144 -6.365975 2.160813 0.000000 0.000000 0.000000 8.495403 -1.705512 19.522586 7.372621 -3.334750 4.831801 -9.398771 -2.882037 7.667778 7.637275 -3.574678 -23.539198 0.000000 0.000000 0.000000 -13.630108 -30.080649 16.335124 -34.901191 -45.510612 8.566928 40.552419 -34.718601 -10.176080 0.000000 0.000000 0.000000 20.346203 8.529098 -0.268416 55.253512 1.532208 -4.206309 -8.743890 52.389904 -4.343852 0.000000 0.000000 0.000000 
-0.243215 0.930265 0.798955 -0.342462 -19.527864 7.293739 3.745579 -0.245363 -4.732573 -4.983398 1.047576 6.920944 11.284162 24.347335 0.887241 0.000000 0.000000 0.000000 1.295056 3.135295 -22.837320 1.456732 1.518591 21.717806 -2.008660 -6.424044 1.956589 0.000000 0.000000 0.000000 8.666991 -1.741299 19.536159 7.476672 -3.393293 4.775125 -9.583617 -2.548325 7.933336 7.867620 -3.711377 -23.154327 0.000000 0.000000 0.000000 -14.133608 -30.537466 16.652416 -35.537739 -45.329286 8.672356 39.463272 -33.075450 -9.373542 0.000000 0.000000 0.000000 20.142343 8.210154 -0.257450 55.087759 2.003033 -4.056750 -8.661230 53.012485 -4.260773 0.000000 0.000000 0.000000 
-0.243982 0.930015 0.798954 -0.419526 -19.459760 7.258513 4.180210 -0.217830 -4.730407 -5.348038 1.126322 6.869895 11.195769 24.132849 0.923200 0.000000 0.000000 0.000000 1.480249 3.170431 -22.892886 1.567506 1.536814 22.147261 -2.052061 -6.361952 1.689504 0.000000 0.000000 0.000000 8.741505 -1.748412 19.342427 7.557955 -3.437736 4.932464 -9.740027 -2.320773 8.039453 7.743765 -3.674720 -22.754492 0.000000 0.000000 0.000000 -14.861382 -30.595251 16.864276 -35.997953 -44.583545 8.505895 38.978233 -33.010520 -9.237454 0.000000 0.000000 0.000000 20.577659 8.060631 -0.304062 54.811380 2.201601 -3.948754 -8.560727 52.804530 -4.100660 0.000000 0.000000 0.000000 
-0.245259 0.929861 0.799139 -0.487981 -19.240388 7.241309 4.231343 -0.214096 -4.682364 -5.198116 1.097576 7.066149 11.080091 23.897577 0.859905 0.000000 0.000000 0.000000 1.640147 3.177065 -22.840951 1.695671 1.510596 22.307054 -2.062619 -6.258193 1.489843 0.000000 0.000000 0.000000 8.812724 -1.748219 18.866944 7.389037 -3.373364 5.417127 -9.523228 -2.341327 7.903580 7.793332 -3.720190 -22.487718 0.000000 0.000000 0.000000 -15.505936 -30.353805 16.941066 -36.576547 -43.699344 8.341219 40.034733 -34.583493 -10.028819 0.000000 0.000000 0.000000 20.486782 8.080889 -0.256865 54.935343 2.141196 -3.989100 -8.600085 52.660067 -4.091636 0.000000 0.000000 0.000000 
-0.246780 0.929795 0.800067 -0.606667 -19.374508 7.109343 4.225567 -0.192651 -4.286331 -5.201981 1.099516 7.010044 11.320723 24.418480 0.896352 0.000000 0.000000 0.000000 1.869271 3.129203 -22.403927 1.777178 1.495473 22.271813 -1.750706 -5.191754 1.023059 0.000000 0.000000 0.000000 8.664362 -1.685641 18.274512 7.469112 -3.419544 6.029199 -9.736621 -1.908060 7.908945 8.081108 -3.958975 -21.507510 0.000000 0.000000 0.000000 -15.886941 -30.231670 16.869945 -37.367855 -42.782678 8.244603 41.364464 -36.406164 -11.069775 0.000000 0.000000 0.000000 20.530576 8.005601 -0.159672 55.237761 2.120000 -4.073034 -8.536833 52.052743 -3.886315 0.000000 0.000000 0.000000 
-0.248255 0.929391 0.801722 -0.601615 -19.305508 6.801467 4.119842 -0.169708 -3.737207 -4.956423 1.039601 6.976095 11.312280 24.471440 0.749444 0.000000 0.000000 0.000000 1.958854 3.025674 -21.811191 1.982200 1.432143 22.207096 -1.930775 -5.350463 0.622292 0.000000 0.000000 0.000000 8.687064 -1.661700 17.822005 7.456485 -3.427215 6.354687 -9.922288 -1.899314 7.841202 8.347020 -4.180522 -20.847431 0.000000 0.000000 0.000000 -16.668708 -29.655646 16.781516 -37.907196 -41.316554 7.815603 42.950092 -39.827115 -12.782955 0.000000 0.000000 0.000000 20.611630 7.381296 -0.476895 55.206297 1.185504 -4.503422 -6.825144 51.661400 -3.013175 0.000000 0.000000 0.000000 
-0.249500 0.929008 0.803532 -0.494492 -19.240593 6.526654 4.119344 -0.142375 -3.253234 -5.149576 1.073847 6.813714 11.456697 24.767895 0.815637 0.000000 0.000000 0.000000 2.001998 2.866810 -20.951921 1.932276 1.406713 21.870856 -2.034932 -5.270152 0.151022 0.000000 0.000000 0.000000 8.676175 -1.628780 17.322612 7.505514 -3.466320 6.799236 -10.242071 -1.835779 7.794979 8.294342 -4.163050 -20.625498 0.000000 0.000000 0.000000 -17.199536 -29.366738 16.735265 -37.712079 -41.017202 7.623729 44.013372 -41.778829 -13.923076 0.000000 0.000000 0.000000 20.759295 7.097608 -0.606094 55.605152 0.369398 -4.922800 -6.503585 51.036881 -2.782786 0.000000 0.000000 0.000000 
-0.250644 0.928724 0.804942 -0.511977 -18.795356 6.222901 4.301216 -0.111907 -2.832515 -5.265292 1.097416 6.971603 11.351811 24.611078 0.549358 0.000000 0.000000 0.000000 2.014557 2.754642 -20.383383 2.330102 1.254229 21.620068 -2.155854 -5.496939 0.059303 0.000000 0.000000 0.000000 8.712045 -1.633236 17.150086 7.587123 -3.530871 6.722051 -10.401069 -2.207051 7.803525 8.477000 -4.251176 -20.834487 0.000000 0.000000 0.000000 -17.191712 -29.195074 16.664952 -37.422434 -40.968974 7.518781 44.807990 -42.638691 -14.548564 0.000000 0.000000 0.000000 21.302383 6.798783 -0.901822 55.105335 -0.629032 -5.266707 -5.486478 49.986839 -2.262692 0.000000 0.000000 0.000000 
-0.251956 0.928536 0.805646 -0.616121 -18.620749 5.974855 4.746271 -0.069699 -2.444512 -5.546904 1.161300 7.058812 11.169542 24.271498 0.367602 0.000000 0.000000 0.000000 2.224489 2.636898 -19.625290 2.481421 1.151631 21.078453 -2.235122 -5.634916 -0.003983 0.000000 0.000000 0.000000 8.693745 -1.622246 16.998282 7.603458 -3.554306 6.780062 -10.475883 -2.973694 7.531889 8.059999 -4.067234 -20.890586 0.000000 0.000000 0.000000 -17.352049 -28.650033 16.568527 -36.346111 -41.750232 7.476163 43.663756 -41.942774 -13.800961 0.000000 0.000000 0.000000 21.570668 6.811341 -1.155206 55.097477 -1.461457 -5.544213 -4.671511 48.322297 -1.925808 0.000000 0.000000 0.000000 
-0.253411 0.928339 0.805890 -0.937584 -18.297631 5.993621 5.183940 -0.047016 -2.331799 -5.476993 1.134194 7.025289 10.962760 23.859644 0.188461 0.000000 0.000000 0.000000 2.613790 2.584338 -19.123360 2.598352 1.034453 20.337767 -2.117429 -5.393271 0.082395 0.000000 0.000000 0.000000 8.595758 -1.615007 16.907273 7.779564 -3.653598 6.634500 -10.583638 -3.536494 7.260094 7.920858 -4.003248 -20.976261 0.000000 0.000000 0.000000 -16.682326 -28.906852 16.578713 -35.395480 -42.834297 7.629043 42.829706 -39.820444 -12.719687 0.000000 0.000000 0.000000 21.873095 6.937786 -1.275802 54.790484 -1.899152 -5.605052 -3.652813 46.753837 -1.477544 0.000000 0.000000 0.000000 
-0.254843 0.927896 0.805872 -1.202886 -18.287482 6.023361 5.517274 -0.028139 -2.253811 -5.588471 1.161553 7.075985 10.762806 23.609217 -0.417722 0.000000 0.000000 0.000000 2.794612 2.549072 -18.826970 2.653375 0.978315 19.897483 -2.083310 -5.210847 -0.056219 0.000000 0.000000 0.000000 8.559330 -1.596758 16.633724 7.657738 -3.598170 6.878024 -10.656774 -4.035452 6.777161 7.832976 -4.040401 -20.447094 0.000000 0.000000 0.000000 -16.112933 -28.658690 16.338803 -35.002784 -43.713102 7.878792 41.028400 -38.300393 -11.541915 0.000000 0.000000 0.000000 21.755253 7.130115 -1.289547 54.834951 -2.063283 -5.615974 -3.060497 45.021505 -1.221675 0.000000 0.000000 0.000000 
-0.255726 0.927707 0.805585 -1.499842 -18.751868 6.191176 5.910797 -0.003039 -2.220883 -5.702269 1.197170 7.034905 10.733475 23.603017 -0.498124 0.000000 0.000000 0.000000 3.103135 2.540914 -18.575322 2.589828 0.948899 19.199117 -1.965311 -5.020989 0.111676 0.000000 0.000000 0.000000 8.405870 -1.561702 16.606882 7.260564 -3.369819 6.483834 -10.544089 -3.862737 7.013322 7.668229 -3.997014 -20.301453 0.000000 0.000000 0.000000 -15.777307 -28.856589 16.375405 -34.810397 -44.041536 7.938748 39.938308 -37.565433 -10.932306 0.000000 0.000000 0.000000 21.760938 7.030221 -1.386403 54.913670 -1.963295 -5.601183 -2.468434 43.932788 -0.946578 0.000000 0.000000 0.000000 
-0.255876 0.927550 0.804827 -1.787354 -18.848605 6.532970 6.203818 -0.006757 -2.620144 -5.782789 1.218321 7.043640 10.674916 23.567910 -0.838207 0.000000 0.000000 0.000000 3.353170 2.603573 -18.767608 2.418858 0.944124 18.689798 -1.904954 -4.967481 0.245111 0.000000 0.000000 0.000000 8.439162 -1.563230 16.408282 6.924193 -3.193116 6.728035 -10.468082 -4.121296 6.357242 7.945030 -4.162874 -20.072900 0.000000 0.000000 0.000000 -15.453917 -28.371294 16.052902 -35.466419 -43.904746 8.173106 38.495569 -37.952402 -10.540753 0.000000 0.000000 0.000000 21.467643 7.193749 -1.331638 55.052210 -2.147004 -5.645919 -2.250302 43.328647 -0.889061 0.000000 0.000000 0.000000 
-0.255043 0.927311 0.803372 -1.885311 -19.132155 6.873142 6.118334 -0.026844 -3.000277 -5.745396 1.207353 6.883393 10.922916 24.090357 -0.734474 0.000000 0.000000 0.000000 3.313028 2.629815 -18.929577 2.305532 0.917561 18.020700 -1.793279 -4.832048 0.446012 0.000000 0.000000 0.000000 8.217759 -1.537144 16.543198 6.627155 -3.022009 6.109284 -10.449873 -3.610371 6.342354 8.254473 -4.293373 -20.143479 0.000000 0.000000 0.000000 -15.815275 -28.011119 15.914650 -36.249664 -42.581909 7.927121 37.276043 -39.951702 -10.724223 0.000000 0.000000 0.000000 21.957745 6.991248 -1.435515 54.591181 -1.900904 -5.451652 -2.056538 43.152703 -0.755197 0.000000 0.000000 0.000000 
-0.253464 0.927558 0.801168 -2.074023 -19.233432 7.313809 5.877240 -0.057150 -3.305886 -5.709182 1.158290 6.135011 10.962351 24.272565 -0.991091 0.000000 0.000000 0.000000 3.437057 2.709782 -19.280967 1.981119 0.926927 17.331558 -1.766264 -4.914364 0.648897 0.000000 0.000000 0.000000 8.127960 -1.523042 16.363161 6.262864 -2.830402 6.286732 -10.269372 -3.276063 5.807958 8.610030 -4.487032 -19.692073 0.000000 0.000000 0.000000 -15.872991 -27.276093 15.448677 -37.695269 -41.300713 7.944205 34.841470 -41.393608 -10.246464 0.000000 0.000000 0.000000 21.760543 7.101266 -1.251115 54.355656 -1.616769 -5.271171 -2.187421 43.466576 -0.784957 0.000000 0.000000 0.000000 
-0.251218 0.927716 0.798239 -2.037143 -18.862397 7.582483 5.413483 -0.105721 -3.618205 -5.580101 1.072678 5.220591 11.110380 24.480766 -0.719504 0.000000 0.000000 0.000000 3.254997 2.742255 -19.599347 1.691191 0.934674 16.900132 -1.641404 -4.757144 0.853322 0.000000 0.000000 0.000000 7.966456 -1.518836 16.393769 5.984654 -2.702372 6.236355 -9.952980 -2.917952 5.654625 8.723922 -4.539990 -19.369921 0.000000 0.000000 0.000000 -16.159941 -26.927222 15.241959 -38.705841 -39.839204 7.694045 32.625710 -42.015764 -9.601027 0.000000 0.000000 0.000000 21.626060 6.914792 -1.183334 54.194289 -0.889308 -4.952101 -2.513854 44.302734 -0.881757 0.000000 0.000000 0.000000 
-0.248794 0.927629 0.794631 -2.053234 -18.446960 7.750846 4.865332 -0.166127 -4.137571 -5.417120 0.993818 4.472301 10.887406 24.141477 -1.300657 0.000000 0.000000 0.000000 3.308747 2.778313 -19.795703 1.394560 0.962794 16.678139 -1.915357 -5.355221 0.743085 0.000000 0.000000 0.000000 7.756663 -1.500730 16.300725 5.777731 -2.610124 6.036695 -9.836724 -2.431665 5.583986 9.375866 -4.825059 -19.426243 0.000000 0.000000 0.000000 -16.655609 -26.277128 14.864071 -39.403551 -37.670835 7.062210 30.654649 -42.521525 -9.018939 0.000000 0.000000 0.000000 21.585768 7.037394 -0.895833 54.033802 -0.723514 -4.904676 -2.796656 45.367036 -0.926925 0.000000 0.000000 0.000000 
-0.246214 0.927611 0.790207 -1.951324 -18.012466 7.624419 4.288738 -0.207813 -4.257585 -5.299985 0.936401 3.888353 10.553213 23.512748 -1.760136 0.000000 0.000000 0.000000 3.136917 2.780693 -19.947145 1.030425 1.038826 16.815686 -1.983019 -5.269429 0.357688 0.000000 0.000000 0.000000 7.376268 -1.468355 16.612101 5.548173 -2.514259 5.892784 -9.590380 -1.847527 5.538788 9.817603 -4.936038 -19.820025 0.000000 0.000000 0.000000 -16.797064 -25.792257 14.435165 -40.077444 -35.954737 6.598851 29.145591 -41.558533 -8.284810 0.000000 0.000000 0.000000 21.482207 7.016927 -0.646083 53.917092 -0.220094 -4.727369 -3.107936 46.233675 -0.962153 0.000000 0.000000 0.000000 
-0.243562 0.927152 0.784841 -1.974324 -17.454241 7.122614 3.822169 -0.237271 -4.351993 -5.641970 0.977395 3.507404 10.108761 22.686440 -2.554131 0.000000 0.000000 0.000000 3.170940 2.776163 -19.923233 0.507691 1.137187 16.840052 -1.976507 -5.626380 0.940185 0.000000 0.000000 0.000000 7.075659 -1.443527 17.002566 5.430223 -2.486412 5.810471 -9.659924 -1.348348 5.694526 10.287017 -5.095447 -20.047904 0.000000 0.000000 0.000000 -16.641217 -25.340581 13.919787 -40.336021 -34.382924 6.086525 28.370805 -40.950577 -7.930153 0.000000 0.000000 0.000000 21.810323 7.097328 -0.386217 53.702234 0.486222 -4.454927 -2.939266 46.578874 -0.755073 0.000000 0.000000 0.000000 
-0.240570 0.926417 0.778450 -1.857634 -16.898497 6.619795 3.313875 -0.291378 -4.875757 -5.988477 1.061829 4.132946 9.899706 22.289312 -3.175757 0.000000 0.000000 0.000000 2.943852 2.787744 -20.153723 0.748449 1.136912 17.568067 -2.213627 -6.173218 0.902372 0.000000 0.000000 0.000000 6.655828 -1.387839 17.115845 4.993077 -2.294411 5.963462 -9.340159 -0.641465 5.585821 10.391251 -5.136775 -19.610781 0.000000 0.000000 0.000000 -17.504777 -25.118777 13.755435 -40.147328 -32.941256 5.518098 27.722814 -40.529741 -7.712227 0.000000 0.000000 0.000000 22.179069 7.261512 -0.027256 53.713487 1.275004 -4.165834 -3.006700 47.163899 -0.629613 0.000000 0.000000 0.000000 
-0.237300 0.926127 0.771083 -1.859507 -16.784119 6.082134 2.933823 -0.335053 -5.358431 -6.203215 1.116521 4.437249 9.385155 21.223114 -3.823924 0.000000 0.000000 0.000000 2.903481 2.965330 -21.098859 1.023119 1.198956 18.898825 -2.975313 -8.580230 1.950189 0.000000 0.000000 0.000000 6.433607 -1.364312 17.634346 4.463014 -2.039639 5.334267 -8.959861 0.062024 6.211527 10.314161 -5.191877 -18.947979 0.000000 0.000000 0.000000 -18.113159 -24.333735 13.311660 -40.666670 -31.698041 5.111178 28.434462 -40.909744 -8.071020 0.000000 0.000000 0.000000 22.713776 7.374331 0.193053 53.529743 2.785461 -3.582493 -2.378682 45.772183 -0.204026 0.000000 0.000000 0.000000 
-0.233229 0.925477 0.762436 -1.931268 -17.128308 5.947003 3.099126 -0.383652 -6.594817 -6.888518 1.319141 5.414804 9.030751 20.579804 -4.755495 0.000000 0.000000 0.000000 2.394067 3.215962 -22.729689 1.574783 1.231799 20.490496 -3.549701 -10.072701 2.195155 0.000000 0.000000 0.000000 6.259030 -1.335769 18.006815 3.493330 -1.544432 5.238324 -8.298011 0.958770 5.805944 10.356518 -5.211526 -18.490902 0.000000 0.000000 0.000000 -19.709743 -23.112022 12.779756 -40.944026 -30.385338 4.693312 28.318105 -42.693681 -8.480910 0.000000 0.000000 0.000000 23.165189 8.092832 0.788180 53.798823 3.633360 -3.241547 -2.821963 43.412789 -0.228520 0.000000 0.000000 0.000000 
-0.228635 0.925218 0.752296 -1.483246 -16.630526 4.840269 2.594402 -0.431086 -6.896878 -7.780605 1.570447 6.478217 8.698911 19.707587 -4.886217 0.000000 0.000000 0.000000 1.885951 3.384885 -24.043621 1.348235 1.487977 22.655439 -3.843380 -11.133093 3.050093 0.000000 0.000000 0.000000 5.620963 -1.254095 19.120633 3.356284 -1.512462 4.432583 -8.441857 1.989906 6.501977 11.259986 -5.553335 -19.117157 0.000000 0.000000 0.000000 -19.440551 -22.784512 12.153821 -42.171330 -30.062968 4.817810 28.681631 -42.568530 -8.705248 0.000000 0.000000 0.000000 23.413981 8.464268 1.436751 54.579724 4.765091 -2.981126 -2.637473 41.388830 0.070613 0.000000 0.000000 0.000000 
-0.223613 0.925224 0.740328 -1.356025 -15.786118 3.849213 2.193840 -0.484986 -7.336197 -8.303157 1.726514 7.359874 9.204055 20.655394 -4.504065 0.000000 0.000000 0.000000 1.291497 3.442806 -25.018029 2.067960 1.427234 24.620090 -4.018115 -11.770615 3.724550 0.000000 0.000000 0.000000 5.141593 -1.210958 20.222077 3.366992 -1.555266 4.016548 -8.402386 2.772686 7.066012 11.602707 -5.459023 -20.288177 0.000000 0.000000 0.000000 -20.291218 -23.443397 12.346569 -41.632026 -29.064536 4.368240 29.689912 -42.553887 -9.256863 0.000000 0.000000 0.000000 23.305311 8.480973 1.887381 54.543654 5.531203 -2.814490 -0.596816 39.485114 0.945128 0.000000 0.000000 0.000000 
-0.219157 0.925106 0.727297 -1.568112 -15.114206 3.604327 2.542793 -0.526646 -8.633556 -8.553924 1.817398 8.097080 8.318404 18.395171 -4.170597 0.000000 0.000000 0.000000 0.566120 3.726946 -27.404433 4.381616 1.016280 28.666237 -5.341548 -14.578799 3.437333 0.000000 0.000000 0.000000 5.335529 -1.282562 20.616288 2.696638 -1.237366 3.690029 -7.811590 2.540834 6.546659 11.792761 -5.870487 -18.554942 0.000000 0.000000 0.000000 -20.400239 -22.671996 11.888222 -41.749878 -27.742698 3.958130 28.258157 -42.557915 -8.720191 0.000000 0.000000 0.000000 23.041372 9.246157 2.326558 54.873162 5.021540 -3.008290 0.067576 39.234653 1.146739 0.000000 0.000000 0.000000 
-0.216217 0.926331 0.714239 -1.242970 -15.225116 3.748511 1.988927 -0.605462 -9.180831 -8.042609 1.608831 6.856890 8.103868 17.670659 -2.422311 0.000000 0.000000 0.000000 -0.402365 3.940131 -29.599289 5.114071 1.087636 32.548076 -6.796905 -17.826012 3.656835 0.000000 0.000000 0.000000 4.660807 -1.143780 20.185022 2.771101 -1.266825 3.979894 -7.715325 2.991137 6.384128 10.759801 -5.315279 -18.054378 0.000000 0.000000 0.000000 -20.825927 -22.737639 11.874608 -41.095045 -26.197512 3.353331 29.365587 -42.184236 -9.135310 0.000000 0.000000 0.000000 23.058910 10.557051 3.251005 54.679865 4.890419 -3.078001 -1.109700 38.229036 0.781778 0.000000 0.000000 0.000000 
-0.215931 0.926597 0.701975 -1.059024 -13.838466 3.191753 1.614151 -0.674826 -9.650328 -7.596141 1.477536 7.058593 7.444903 16.057902 -1.959028 0.000000 0.000000 0.000000 -0.309436 3.779136 -29.052155 5.364218 0.988715 34.373255 -7.578363 -19.375122 3.576710 0.000000 0.000000 0.000000 4.664370 -1.213163 21.004270 3.182256 -1.498964 2.816203 -8.283632 3.326560 6.646365 11.712449 -5.960624 -17.265120 0.000000 0.000000 0.000000 -21.096495 -22.272462 11.306673 -41.061575 -25.404034 3.134319 26.687786 -41.274794 -8.045799 0.000000 0.000000 0.000000 24.059818 10.958834 3.852967 53.979023 5.625473 -2.824772 -1.365501 36.789302 0.785417 0.000000 0.000000 0.000000 
-0.218085 0.927392 0.689984 -1.081819 -12.945821 2.609952 1.677648 -0.673486 -9.645574 -7.457214 1.461800 7.728559 7.761209 16.676909 -1.813287 0.000000 0.000000 0.000000 0.029505 3.594449 -27.878184 6.135153 0.654466 35.436774 -6.946603 -17.994693 3.824560 0.000000 0.000000 0.000000 4.280474 -1.160327 20.626229 2.687330 -1.276701 3.177512 -7.544456 3.517171 6.691253 11.598244 -5.893717 -17.062340 0.000000 0.000000 0.000000 -21.370133 -21.628996 10.796943 -40.718730 -24.370294 2.777260 23.680808 -39.965163 -6.743610 0.000000 0.000000 0.000000 23.284527 10.738456 3.886550 54.319819 7.125300 -2.231164 -0.821852 36.510482 0.998149 0.000000 0.000000 0.000000 
-0.221499 0.927751 0.678250 -1.210584 -11.681970 2.119520 1.960894 -0.637242 -9.305248 -7.075766 1.292624 6.906566 7.267204 15.490416 -0.777517 0.000000 0.000000 0.000000 -0.131566 2.959921 -24.533105 6.513555 0.370307 35.819391 -7.986830 -19.553324 0.058382 0.000000 0.000000 0.000000 3.876107 -1.102584 19.702390 3.103143 -1.490657 2.128282 -7.485331 4.858904 7.573248 12.369863 -6.055697 -17.975611 0.000000 0.000000 0.000000 -21.798193 -20.618090 9.689049 -40.492837 -21.254244 1.799380 19.415904 -39.927315 -5.384998 0.000000 0.000000 0.000000 22.891114 8.934535 3.444218 54.793473 7.292229 -2.420278 1.520697 37.217688 1.972085 0.000000 0.000000 0.000000 
-0.224929 0.928011 0.666330 -1.195275 -11.707081 1.833186 2.069681 -0.624835 -9.288141 -6.719800 1.194037 6.390455 6.948340 14.793965 0.138210 0.000000 0.000000 0.000000 -0.255261 2.613481 -22.351732 6.290587 0.739582 39.710018 -8.580703 -20.563454 -2.417589 0.000000 0.000000 0.000000 3.380180 -0.946897 17.592880 2.642127 -1.259338 1.607914 -6.113984 5.664530 8.750579 11.026041 -5.156105 -18.476914 0.000000 0.000000 0.000000 -22.443282 -18.916085 8.678257 -40.785256 -18.427992 0.821655 15.890683 -40.165342 -4.148619 0.000000 0.000000 0.000000 20.148924 9.022033 3.592924 56.023480 7.513549 -2.471040 1.606316 38.699156 2.171655 0.000000 0.000000 0.000000 
-0.228459 0.926834 0.654026 -0.924418 -11.432323 1.655310 1.430807 -0.726338 -9.985682 -5.902630 1.022578 6.423935 6.461890 13.760304 0.095391 0.000000 0.000000 0.000000 -0.607228 2.096591 -19.045169 5.112493 1.400343 41.443464 -8.615720 -20.310029 -4.467855 0.000000 0.000000 0.000000 3.430754 -0.880734 15.304186 2.255153 -1.073708 1.567395 -5.907489 7.028645 8.766690 11.203606 -4.882414 -19.635452 0.000000 0.000000 0.000000 -22.449024 -17.330003 7.250556 -41.113740 -15.773701 0.112164 12.377526 -39.730913 -2.999597 0.000000 0.000000 0.000000 18.725423 8.018763 3.383675 56.607085 7.592803 -2.491896 0.805259 39.173142 2.095647 0.000000 0.000000 0.000000 
-0.232502 0.924586 0.640211 -0.106834 -10.199975 1.003768 0.592180 -0.824536 -10.149496 -5.549992 0.944777 6.975366 5.933884 12.631429 0.283761 0.000000 0.000000 0.000000 -1.644108 1.521473 -15.420163 3.938072 1.879814 42.764488 -8.177397 -19.108592 -4.900835 0.000000 0.000000 0.000000 3.259671 -0.782750 13.128664 1.610612 -0.767884 0.955114 -5.419027 8.071050 8.886398 10.911439 -4.479993 -19.985557 0.000000 0.000000 0.000000 -21.238033 -15.302565 5.528407 -42.517330 -12.939753 -0.688950 9.592794 -39.712946 -2.173780 0.000000 0.000000 0.000000 16.965153 5.886644 2.551099 57.051010 6.964324 -2.809500 1.292326 40.421242 2.554156 0.000000 0.000000 0.000000 
-0.237450 0.921254 0.623663 0.836572 -9.072699 0.791116 -0.271664 -1.002616 -11.301135 -4.923297 0.803010 7.284808 5.000372 10.661505 0.331199 0.000000 0.000000 0.000000 -2.220266 0.975809 -10.603421 0.836970 3.083888 41.519528 -7.071864 -15.984420 -5.670531 0.000000 0.000000 0.000000 3.465262 -0.729055 11.277625 1.113336 -0.533874 1.010948 -6.007277 9.242530 7.764994 12.178266 -4.599560 -21.790320 0.000000 0.000000 0.000000 -20.246564 -13.735109 4.016921 -42.622468 -9.594014 -1.569249 5.504225 -40.376877 -0.980971 0.000000 0.000000 0.000000 16.719319 4.361945 2.132260 56.258131 5.802755 -3.247714 2.533526 41.730302 3.312942 0.000000 0.000000 0.000000 
-0.243591 0.916632 0.602566 2.138259 -8.216394 0.500639 -0.773479 -1.217781 -13.216273 -5.094530 0.855143 8.507107 4.667843 9.996088 0.753280 0.000000 0.000000 0.000000 -3.058893 0.596020 -6.531637 -1.094590 3.434944 37.939375 -6.344359 -13.503270 -7.203908 0.000000 0.000000 0.000000 3.235424 -0.637836 9.916148 0.602525 -0.289696 0.952490 -6.054516 10.585032 7.064720 11.839209 -4.158913 -21.869525 0.000000 0.000000 0.000000 -18.592726 -12.249359 2.751213 -43.564566 -7.959503 -2.022615 2.841941 -39.569150 -0.243012 0.000000 0.000000 0.000000 15.384365 2.574397 1.503950 56.730214 5.396694 -3.310943 1.955547 42.889113 3.461650 0.000000 0.000000 0.000000 
-0.251272 0.910898 0.575502 3.119208 -7.891963 0.390101 -1.184377 -1.450903 -15.389158 -4.987811 0.842685 9.124458 4.473750 9.691831 1.556943 0.000000 0.000000 0.000000 -3.229221 0.373021 -3.543400 -1.610174 2.931643 32.319136 -6.119347 -11.641091 -10.280569 0.000000 0.000000 0.000000 3.517882 -0.658678 9.841221 0.586357 -0.279392 0.276412 -6.972972 11.811117 6.590795 12.355729 -4.074202 -22.752419 0.000000 0.000000 0.000000 -17.923463 -11.064426 1.752026 -43.372742 -6.634053 -2.338631 -0.089155 -39.647130 0.593263 0.000000 0.000000 0.000000 15.302128 1.447799 1.216314 55.608263 5.788516 -3.077830 1.283349 43.941451 3.543958 0.000000 0.000000 0.000000 
-0.260111 0.906798 0.542647 3.418716 -8.181798 0.224275 -0.630804 -1.494754 -17.028224 -5.364446 0.904135 8.307216 4.811631 10.496553 2.751987 0.000000 0.000000 0.000000 -2.841080 0.287582 -2.433723 -1.990948 2.521497 27.295173 -6.300012 -10.751790 -13.179816 0.000000 0.000000 0.000000 3.937782 -0.706607 10.106436 0.223850 -0.105007 0.041948 -6.681262 12.870242 6.532524 11.893630 -3.463146 -23.934515 0.000000 0.000000 0.000000 -17.719049 -9.616446 0.802010 -43.935613 -5.575706 -2.689048 -1.412802 -39.343727 0.930675 0.000000 0.000000 0.000000 15.398494 0.992297 1.154722 54.247782 6.640593 -2.713460 0.417593 44.112724 3.361248 0.000000 0.000000 0.000000 
-0.269980 0.905012 0.506300 3.061348 -8.426824 0.624664 0.701002 -1.418976 -19.262792 -4.956640 0.809628 7.896233 4.815462 10.642893 4.171233 0.000000 0.000000 0.000000 -2.272947 0.310834 -2.865890 -0.855795 1.754742 23.381720 -6.252512 -9.852426 -14.378064 0.000000 0.000000 0.000000 5.246355 -0.864522 10.574194 -0.172889 0.085994 0.060576 -6.405323 13.185905 6.548167 10.773531 -2.716546 -24.494254 0.000000 0.000000 0.000000 -18.451629 -8.315299 -0.017968 -43.844805 -5.493597 -2.654632 -2.360120 -40.556526 1.251419 0.000000 0.000000 0.000000 15.227703 1.018015 1.211430 53.207181 7.462016 -2.387578 0.012803 44.422799 3.294569 0.000000 0.000000 0.000000 
-0.279668 0.905502 0.471104 2.446211 -7.852867 0.608317 2.295966 -1.200793 -20.156178 -5.248605 0.816051 6.551651 4.567767 10.411294 5.922199 0.000000 0.000000 0.000000 -0.791718 0.326955 -3.334274 0.182792 1.189018 20.674176 -6.473573 -10.868379 -14.263494 0.000000 0.000000 0.000000 6.414368 -1.057783 11.501895 -0.263446 0.128605 -0.046788 -6.135801 13.084116 6.941498 10.585503 -2.331563 -25.966378 0.000000 0.000000 0.000000 -18.212262 -8.544555 0.098687 -44.772274 -5.137182 -2.885394 -3.469575 -42.044570 1.674507 0.000000 0.000000 0.000000 14.853579 1.157754 1.299183 52.170887 8.720397 -1.869771 -1.074670 43.191100 2.764820 0.000000 0.000000 0.000000 
-0.287958 0.909239 0.441742 1.818730 -7.799823 1.194297 3.666101 -1.005231 -21.730136 -4.743419 0.701010 5.866451 5.390136 12.091915 7.883780 0.000000 0.000000 0.000000 0.453835 0.464326 -4.788198 1.053457 0.879057 19.725804 -6.660617 -12.399947 -12.374500 0.000000 0.000000 0.000000 7.331555 -1.095135 10.640525 -0.159466 0.082157 1.228711 -5.876250 11.963779 5.916495 9.099931 -1.748583 -25.429791 0.000000 0.000000 0.000000 -18.938915 -6.276311 -0.930170 -45.123083 -3.537037 -3.465524 -6.850863 -44.344721 3.218316 0.000000 0.000000 0.000000 14.017424 2.385523 1.666669 51.343361 8.357945 -1.866697 0.181156 41.499441 2.846517 0.000000 0.000000 0.000000 
-0.294622 0.914105 0.419432 2.108100 -7.462989 1.290759 4.212592 -0.922000 -21.957189 -5.839367 0.937294 7.183043 6.359733 13.768066 7.279644 0.000000 0.000000 0.000000 1.065170 0.551300 -5.548862 0.668100 0.937269 19.279009 -6.300691 -11.708659 -11.422527 0.000000 0.000000 0.000000 7.708202 -1.086734 10.083918 -0.549742 0.269238 0.629538 -5.503523 12.344398 6.599078 8.864326 -1.609921 -25.295765 0.000000 0.000000 0.000000 -19.216373 -7.404718 -0.477101 -44.850963 -1.875906 -4.032493 -8.489457 -46.459178 4.036733 0.000000 0.000000 0.000000 14.802668 0.520983 0.835589 50.641185 6.936778 -2.569484 2.468114 41.281512 3.730326 0.000000 0.000000 0.000000 
-0.299447 0.919756 0.401963 2.349375 -7.318951 0.764693 4.361665 -0.854145 -20.412773 -6.527114 1.231485 10.988269 7.207510 15.167959 4.499680 0.000000 0.000000 0.000000 1.689370 0.450483 -4.596990 0.042039 0.969433 17.485728 -5.925200 -11.233932 -9.633212 0.000000 0.000000 0.000000 7.879357 -1.051231 9.698177 -0.516612 0.248599 -0.461021 -5.166679 10.917439 7.214195 9.008654 -1.966382 -24.839319 0.000000 0.000000 0.000000 -18.977266 -5.427123 -1.016505 -45.161331 -0.246583 -4.858942 -10.822643 -47.429560 5.400716 0.000000 0.000000 0.000000 14.892984 0.172708 0.372658 50.413625 5.824116 -3.041834 4.887339 39.333437 4.142663 0.000000 0.000000 0.000000 
-0.302875 0.923755 0.387373 2.671998 -6.693509 0.667095 4.167067 -0.874418 -19.111564 -6.790677 1.502501 15.644783 7.438180 15.557310 2.342767 0.000000 0.000000 0.000000 1.504200 0.426886 -4.370436 -0.052286 0.862459 15.876710 -5.504676 -10.529728 -8.533753 0.000000 0.000000 0.000000 7.597170 -0.981797 9.174117 -0.060223 0.037779 -1.399477 -5.146935 9.767603 7.630652 8.912588 -2.189766 -23.941729 0.000000 0.000000 0.000000 -19.053930 -4.576464 -1.203553 -44.811927 0.140625 -5.055702 -12.925890 -46.206158 6.319241 0.000000 0.000000 0.000000 15.178585 -0.695465 -0.244565 49.765335 3.850003 -3.824217 7.412648 37.667865 4.640146 0.000000 0.000000 0.000000 
-0.305350 0.926393 0.374599 2.740118 -6.088539 0.905640 4.323609 -0.795515 -16.891641 -6.484575 1.537497 18.572875 8.012026 16.665606 0.445539 0.000000 0.000000 0.000000 1.444212 0.393154 -4.059351 -0.101452 0.701548 13.427183 -5.302178 -10.275696 -7.941169 0.000000 0.000000 0.000000 7.614165 -0.879631 7.968036 -0.305150 0.154316 -1.428667 -4.842863 8.791341 7.728923 8.570986 -2.374671 -22.283976 0.000000 0.000000 0.000000 -19.142122 -4.303022 -1.150511 -43.722358 0.196689 -4.981397 -13.413401 -44.414302 6.387968 0.000000 0.000000 0.000000 15.097030 -1.995787 -1.057226 49.631110 2.048567 -4.493040 7.896620 36.011682 4.467421 0.000000 0.000000 0.000000 
-0.307155 0.927453 0.363812 2.765411 -6.153454 1.363614 4.608473 -0.667841 -14.378440 -6.883524 1.724347 19.604971 8.523423 17.756393 -2.103437 0.000000 0.000000 0.000000 1.555178 0.418773 -4.306042 -0.205286 0.663487 12.427333 -4.695401 -8.895435 -6.994420 0.000000 0.000000 0.000000 7.569660 -0.797211 7.033306 -0.048430 0.039138 -1.857121 -5.055494 7.830627 7.813631 8.247050 -2.294892 -22.420053 0.000000 0.000000 0.000000 -18.699243 -4.002693 -0.973917 -43.455678 0.371239 -5.096693 -13.407690 -42.542398 6.249627 0.000000 0.000000 0.000000 15.657955 -2.285326 -1.420326 48.507301 -0.077475 -5.203504 9.228401 35.236515 4.635303 0.000000 0.000000 0.000000 
-0.308036 0.927546 0.355624 2.899085 -5.980092 1.428885 3.695837 -0.664725 -11.707346 -5.843315 1.457840 20.910661 7.795914 16.182434 -4.946068 0.000000 0.000000 0.000000 1.304188 0.345809 -3.649177 0.281205 0.466769 10.712643 -3.909502 -6.655430 -6.947606 0.000000 0.000000 0.000000 7.309638 -0.690862 6.081787 -0.468362 0.231004 -1.598331 -4.806225 7.215847 7.475350 8.467761 -2.636118 -21.459063 0.000000 0.000000 0.000000 -18.383258 -5.702386 0.084830 -41.956462 0.511619 -4.949173 -13.094454 -40.582368 5.900660 0.000000 0.000000 0.000000 16.625709 -3.628817 -2.302507 47.247855 -2.371134 -5.882099 10.113489 34.036573 4.633824 0.000000 0.000000 0.000000 
-0.307485 0.926796 0.350288 2.313559 -5.801599 1.440004 3.824691 -0.502129 -8.629835 -5.443724 1.284592 20.151862 6.952151 14.167095 -6.457920 0.000000 0.000000 0.000000 1.671043 0.354084 -3.723141 1.049123 0.293494 10.138522 -4.138607 -7.650632 -6.329909 0.000000 0.000000 0.000000 7.449540 -0.563670 4.705268 -0.417522 0.205834 -1.037879 -5.003099 5.749270 7.514804 8.389216 -3.048294 -19.689485 0.000000 0.000000 0.000000 -18.657713 -5.205254 0.151996 -40.533145 0.016758 -4.703881 -12.412848 -38.575935 5.510505 0.000000 0.000000 0.000000 16.986678 -3.343070 -2.462371 46.517208 -3.898249 -6.290774 9.258254 33.117433 4.100632 0.000000 0.000000 0.000000 
-0.304854 0.926257 0.347336 1.863931 -4.889255 2.308221 3.534380 -0.363414 -5.483407 -4.313666 0.745595 15.219564 6.133602 12.246353 -5.858237 0.000000 0.000000 0.000000 1.644966 0.428773 -4.370200 1.712431 0.124341 9.230390 -4.049581 -7.805183 -5.760126 0.000000 0.000000 0.000000 7.757985 -0.382120 2.567830 -0.459967 0.226327 -0.585892 -5.027834 4.726972 7.029643 8.258153 -3.143798 -18.901681 0.000000 0.000000 0.000000 -18.432757 -6.105131 0.764160 -40.134684 0.651270 -4.838588 -12.965245 -36.880086 5.487029 0.000000 0.000000 0.000000 17.027533 -4.446174 -3.171248 45.972294 -5.274306 -6.615620 9.292483 32.352248 3.944705 0.000000 0.000000 0.000000 
-0.300250 0.926050 0.345887 1.317323 -4.745443 2.896734 3.436400 -0.148785 -1.780617 -3.623298 0.470600 8.245275 5.505978 10.973151 -4.722029 0.000000 0.000000 0.000000 1.917735 0.506758 -5.044590 1.469029 0.169072 9.332359 -4.275870 -8.756684 -5.080304 0.000000 0.000000 0.000000 7.936886 -0.215309 0.830878 -0.524432 0.258045 -0.751002 -4.963906 4.318292 7.058922 8.462169 -3.360225 -18.564860 0.000000 0.000000 0.000000 -18.113294 -5.762990 0.703090 -39.441350 1.325640 -4.974526 -15.426945 -35.681389 6.125030 0.000000 0.000000 0.000000 17.043438 -5.438695 -3.773147 44.910055 -5.976010 -6.668795 10.453640 31.264790 4.064427 0.000000 0.000000 0.000000 
-0.294496 0.925429 0.344532 0.934949 -4.480269 3.543587 3.182787 -0.024401 0.247505 -2.814966 0.317144 2.734167 4.790213 9.461630 -3.914836 0.000000 0.000000 0.000000 2.237786 0.492448 -4.926904 0.993585 0.193792 7.965449 -4.416367 -9.065613 -5.371199 0.000000 0.000000 0.000000 8.121715 -0.073507 -0.634401 -0.588817 0.287942 -0.606158 -5.130446 4.195018 6.574213 8.612351 -3.447341 -18.416290 0.000000 0.000000 0.000000 -17.189900 -5.316922 0.507526 -39.525827 1.940981 -5.129968 -16.943970 -34.991148 6.461974 0.000000 0.000000 0.000000 16.111225 -6.013026 -3.954869 45.654678 -6.455879 -6.889067 10.052529 31.087300 3.939999 0.000000 0.000000 0.000000 
-0.288560 0.925852 0.343151 0.813984 -4.254687 3.780029 2.609457 0.033712 0.991905 -2.213635 0.252129 0.629321 4.609558 9.183334 -3.190242 0.000000 0.000000 0.000000 2.590508 0.415254 -4.291536 0.138971 0.266164 6.530111 -4.584238 -9.807821 -4.674493 0.000000 0.000000 0.000000 7.901336 0.002541 -1.367427 -0.762168 0.369787 -0.697841 -5.052723 4.507104 6.147858 8.582504 -3.425822 -18.080925 0.000000 0.000000 0.000000 -16.423280 -4.635643 0.111303 -39.240878 2.369122 -5.161742 -18.812087 -34.943190 6.988712 0.000000 0.000000 0.000000 16.085422 -6.750687 -4.258944 44.909535 -5.849864 -6.542157 10.685817 30.284223 4.017386 0.000000 0.000000 0.000000 
-0.283071 0.926116 0.341655 0.642221 -4.060119 4.068482 2.342392 0.054882 1.239973 -1.855750 0.230512 -0.856651 4.120249 8.168467 -2.748590 0.000000 0.000000 0.000000 2.803791 0.345741 -3.744050 -0.445821 0.277894 4.993097 -4.645607 -10.185238 -4.120410 0.000000 0.000000 0.000000 7.647306 0.071811 -2.066844 -0.727104 0.353943 -0.752918 -5.211479 4.859666 5.680543 8.825382 -3.590893 -17.568278 0.000000 0.000000 0.000000 -15.536874 -3.970757 -0.257787 -38.763983 2.497437 -5.071985 -20.096022 -34.780183 7.291421 0.000000 0.000000 0.000000 15.453615 -6.850378 -4.149172 44.656806 -5.888853 -6.477674 11.444588 30.657503 4.310432 0.000000 0.000000 0.000000 
-0.278413 0.926759 0.339799 0.513869 -3.985834 4.278754 2.039137 0.057212 1.193918 -1.535926 0.202504 -1.235237 3.903027 7.699541 -2.658132 0.000000 0.000000 0.000000 2.970796 0.305909 -3.445751 -1.035308 0.299056 3.852556 -4.522314 -10.027176 -3.635961 0.000000 0.000000 0.000000 7.367195 0.088104 -2.272904 -0.742829 0.362518 -0.946568 -5.099782 5.286011 5.565957 8.728047 -3.471806 -17.616235 0.000000 0.000000 0.000000 -14.985760 -3.209601 -0.662125 -38.218931 2.380260 -4.929879 -20.775184 -35.406364 7.590074 0.000000 0.000000 0.000000 14.863029 -6.930201 -4.044913 44.119079 -5.068474 -6.117623 12.406523 31.142341 4.688125 0.000000 0.000000 0.000000 
-0.274391 0.927114 0.337504 0.440210 -3.858669 4.442502 1.760865 0.050921 1.042698 -1.242489 0.175882 -1.447837 3.718603 7.401487 -2.175683 0.000000 0.000000 0.000000 2.831558 0.300131 -3.392721 -1.197679 0.289781 3.294667 -4.558515 -10.292852 -3.168766 0.000000 0.000000 0.000000 7.144306 0.079784 -2.241725 -0.866922 0.423421 -1.530480 -4.959698 5.720295 5.670244 9.015280 -3.625178 -17.474613 0.000000 0.000000 0.000000 -14.124918 -2.904792 -0.787160 -37.592772 1.889623 -4.692476 -20.810062 -35.431879 7.546966 0.000000 0.000000 0.000000 14.277374 -7.023024 -3.948608 43.361147 -4.260332 -5.760076 13.494036 31.269931 5.048671 0.000000 0.000000 0.000000 
-0.270976 0.927474 0.335072 0.407951 -3.994996 4.564635 1.476923 0.028271 0.681604 -0.993303 0.154653 -1.622584 3.595581 7.175582 -2.020769 0.000000 0.000000 0.000000 2.602302 0.319917 -3.549917 -1.320512 0.285977 2.948613 -4.343886 -9.831132 -2.850582 0.000000 0.000000 0.000000 7.034579 0.067943 -2.153423 -0.980937 0.475464 -1.628934 -4.824932 6.073202 5.561520 9.254866 -3.720506 -17.574498 0.000000 0.000000 0.000000 -13.523535 -2.632667 -0.885092 -37.155400 1.434250 -4.491698 -19.806415 -35.537151 7.210309 0.000000 0.000000 0.000000 13.901129 -7.004524 -3.861246 42.709849 -3.480807 -5.418197 13.951881 31.768429 5.292175 0.000000 0.000000 0.000000 
-0.268025 0.927681 0.332869 0.443437 -3.889516 4.537364 1.178997 0.023385 0.546702 -0.865610 0.142119 -1.645796 3.487468 7.001336 -1.750455 0.000000 0.000000 0.000000 2.399392 0.291134 -3.290049 -1.381049 0.257814 2.302335 -4.244372 -9.775831 -2.281188 0.000000 0.000000 0.000000 6.855824 0.050342 -1.982085 -1.039578 0.503535 -1.848401 -4.691654 6.145768 5.684341 9.431579 -3.843044 -17.456420 0.000000 0.000000 0.000000 -13.240194 -2.328266 -1.002672 -36.417703 0.771741 -4.212986 -18.214377 -35.172387 6.611987 0.000000 0.000000 0.000000 13.175748 -6.783956 -3.661971 42.427822 -2.911359 -5.198824 14.490782 31.764853 5.451070 0.000000 0.000000 0.000000 
-0.265465 0.928050 0.331121 0.644698 -3.671017 4.438375 0.957880 0.021353 0.468163 -1.040757 0.166129 -1.911431 3.445136 7.004221 -1.345998 0.000000 0.000000 0.000000 1.939942 0.303971 -3.340612 -1.451115 0.274092 2.440923 -4.115431 -9.459228 -2.290668 0.000000 0.000000 0.000000 6.691788 0.026497 -1.733824 -0.977094 0.474946 -1.627219 -4.507880 5.959549 5.407752 9.510459 -3.896859 -17.438075 0.000000 0.000000 0.000000 -12.985072 -2.187741 -1.021155 -36.021170 0.365022 -4.042169 -16.753492 -34.448719 6.022963 0.000000 0.000000 0.000000 12.573805 -6.439308 -3.452241 42.182574 -2.521171 -5.014912 13.888644 31.504723 5.218247 0.000000 0.000000 0.000000 
-0.263295 0.928098 0.329942 0.693521 -3.429991 4.439322 0.911587 0.006838 0.291931 -1.162050 0.181913 -2.086935 3.395916 6.969955 -1.037746 0.000000 0.000000 0.000000 1.439936 0.303591 -3.278682 -1.384090 0.245532 2.059370 -4.092991 -9.594627 -1.774952 0.000000 0.000000 0.000000 6.660760 0.034181 -1.817770 -0.917308 0.448830 -1.660786 -4.406463 5.690391 5.532612 9.438295 -3.875485 -17.429358 0.000000 0.000000 0.000000 -12.934768 -2.045680 -1.048148 -35.590699 0.161260 -3.947543 -15.318850 -33.953205 5.513555 0.000000 0.000000 0.000000 12.022591 -5.942137 -3.181922 42.074281 -2.298172 -4.925842 13.619120 30.985434 5.026563 0.000000 0.000000 0.000000 
-0.261717 0.928259 0.329177 0.755522 -3.342397 4.317412 0.749257 0.019549 0.397544 -1.190478 0.192704 -2.429088 3.376153 6.931925 -1.008254 0.000000 0.000000 0.000000 1.347834 0.280314 -3.052755 -1.520511 0.245939 1.776664 -3.951047 -9.296582 -1.601829 0.000000 0.000000 0.000000 6.709781 0.040497 -1.855175 -1.017906 0.494134 -1.478867 -4.237938 5.675161 5.698041 9.456338 -3.970314 -17.026443 0.000000 0.000000 0.000000 -12.730476 -2.231089 -0.930578 -35.191692 0.258625 -3.935115 -14.168459 -33.360260 5.072148 0.000000 0.000000 0.000000 11.592838 -5.509731 -2.935046 41.902067 -2.471637 -4.966613 13.508732 30.226173 4.848363 0.000000 0.000000 0.000000 
-0.260828 0.928530 0.328635 0.831679 -3.252012 4.320388 0.694456 0.020570 0.396783 -1.255378 0.204229 -2.669293 3.403928 7.104831 -0.567418 0.000000 0.000000 0.000000 1.147124 0.267302 -2.906594 -1.373242 0.219604 1.597025 -3.780646 -8.904891 -1.501216 0.000000 0.000000 0.000000 6.595968 0.058935 -2.035020 -0.963916 0.470894 -1.659848 -4.026234 5.462411 6.200476 9.338849 -3.926867 -17.087354 0.000000 0.000000 0.000000 -12.514381 -2.064496 -0.925220 -35.219892 0.041694 -3.932594 -13.529475 -33.038237 4.859782 0.000000 0.000000 0.000000 11.138387 -5.317829 -2.825890 41.875757 -2.270815 -4.925460 13.205033 29.612282 4.640398 0.000000 0.000000 0.000000 
-0.260678 0.928592 0.328179 0.640682 -3.119983 4.268712 0.741031 0.024853 0.456907 -1.167582 0.196996 -2.712729 3.371318 6.980158 -0.758977 0.000000 0.000000 0.000000 1.168996 0.266081 -2.890429 -1.075432 0.194746 1.761064 -3.755741 -8.891245 -1.383173 0.000000 0.000000 0.000000 6.586053 0.080965 -2.244195 -0.891893 0.438674 -1.668721 -3.996364 5.551766 6.423460 9.321658 -3.956847 -16.833131 0.000000 0.000000 0.000000 -12.378769 -2.434156 -0.759757 -34.974370 0.384689 -3.997397 -12.932887 -32.687271 4.620746 0.000000 0.000000 0.000000 11.094033 -5.170800 -2.730097 42.098808 -2.659922 -5.093580 13.258748 29.461458 4.639547 0.000000 0.000000 0.000000 
-0.260959 0.928529 0.327850 0.426326 -3.246544 4.162376 0.884299 0.028577 0.530089 -1.136641 0.190715 -2.559190 3.492319 7.213797 -0.870770 0.000000 0.000000 0.000000 1.149895 0.258441 -2.818435 -0.833210 0.168302 1.785311 -3.572097 -8.469650 -1.246969 0.000000 0.000000 0.000000 6.561415 0.096139 -2.362194 -0.967196 0.472726 -1.690639 -3.985286 5.573134 6.831134 9.246679 -4.059762 -16.155904 0.000000 0.000000 0.000000 -12.350360 -2.740181 -0.596699 -34.777185 0.754401 -4.098933 -12.498816 -32.190635 4.435527 0.000000 0.000000 0.000000 11.282886 -5.059283 -2.693861 42.074677 -2.775625 -5.165042 12.992055 29.768080 4.625939 0.000000 0.000000 0.000000 
-0.261461 0.928057 0.327915 0.257818 -3.527346 4.142434 1.039774 0.016216 0.417055 -0.960667 0.167472 -2.275439 3.608845 7.419483 -1.080471 0.000000 0.000000 0.000000 1.171003 0.272341 -2.956515 -0.615418 0.155706 2.043492 -3.599384 -8.530161 -1.233181 0.000000 0.000000 0.000000 6.509157 0.131630 -2.691678 -1.244062 0.599023 -2.022963 -3.829704 5.684663 7.458652 8.887796 -3.927544 -15.810474 0.000000 0.000000 0.000000 -12.353909 -2.922286 -0.483525 -34.584164 0.788422 -4.127467 -12.356636 -31.400007 4.298009 0.000000 0.000000 0.000000 11.363113 -4.939344 -2.644332 42.501530 -2.917045 -5.312508 12.945321 30.342959 4.722754 0.000000 0.000000 0.000000 
-0.261826 0.927313 0.328499 0.102149 -3.998973 4.183322 1.017864 0.009498 0.325791 -0.849916 0.151470 -2.049286 3.850364 7.872952 -1.444281 0.000000 0.000000 0.000000 1.103816 0.269740 -2.941426 -0.325514 0.129079 2.188351 -3.562378 -8.383952 -1.315661 0.000000 0.000000 0.000000 6.615845 0.185980 -3.200598 -1.380717 0.658470 -1.874303 -3.688346 5.835567 7.563705 8.272885 -3.737027 -14.808476 0.000000 0.000000 0.000000 -12.460070 -3.008753 -0.431166 -34.529659 1.181421 -4.234419 -12.506484 -30.517687 4.228632 0.000000 0.000000 0.000000 11.376182 -5.012118 -2.695854 42.184956 -2.973847 -5.296318 13.389873 30.582024 4.871942 0.000000 0.000000 0.000000 
-0.262050 0.926633 0.329463 0.102705 -4.041691 4.029808 1.015776 0.036288 0.631618 -0.891532 0.155870 -2.056160 4.013387 8.203587 -1.558239 0.000000 0.000000 0.000000 1.010496 0.241031 -2.660574 -0.408929 0.140378 2.223467 -3.654696 -8.600474 -1.344565 0.000000 0.000000 0.000000 6.514722 0.208090 -3.390777 -1.405270 0.669524 -2.176429 -3.722799 5.761141 7.808321 8.004471 -3.604390 -14.684643 0.000000 0.000000 0.000000 -12.497223 -2.923799 -0.449733 -34.809794 1.410264 -4.355919 -12.874385 -29.776160 4.231236 0.000000 0.000000 0.000000 11.074634 -5.035557 -2.691446 41.867380 -3.025599 -5.282847 14.049888 31.026375 5.124286 0.000000 0.000000 0.000000 
-0.262078 0.926496 0.330355 0.164245 -4.208827 3.865271 0.957189 0.077637 1.085763 -0.795959 0.152098 -2.253478 4.159621 8.562182 -1.415865 0.000000 0.000000 0.000000 0.776238 0.223242 -2.456640 -0.312721 0.129859 2.235707 -3.695004 -8.673692 -1.391301 0.000000 0.000000 0.000000 6.543307 0.225166 -3.511159 -1.540739 0.729756 -2.300368 -3.821987 5.789582 7.740846 7.514845 -3.326471 -14.490290 0.000000 0.000000 0.000000 -12.135559 -2.876100 -0.420915 -35.434990 1.324800 -4.428538 -13.101442 -28.869194 4.160500 0.000000 0.000000 0.000000 10.481032 -5.154942 -2.702446 41.706235 -3.065132 -5.256628 14.526597 31.536296 5.349027 0.000000 0.000000 0.000000 
-0.262023 0.926663 0.330949 0.115177 -4.261413 3.802110 0.959517 0.093756 1.268308 -0.782725 0.154759 -2.394527 4.249020 8.798617 -1.227956 0.000000 0.000000 0.000000 0.666963 0.211868 -2.328534 -0.175413 0.114177 2.239618 -3.818952 -9.000319 -1.338379 0.000000 0.000000 0.000000 6.578101 0.252027 -3.750367 -1.674728 0.789984 -2.315959 -3.951607 5.783364 7.728443 7.391325 -3.258363 -14.424551 0.000000 0.000000 0.000000 -11.663732 -3.151407 -0.239957 -35.952057 1.342745 -4.513339 -13.181375 -28.374172 4.107852 0.000000 0.000000 0.000000 10.171977 -5.128079 -2.664768 40.875761 -2.718404 -5.043806 15.043861 31.408570 5.459609 0.000000 0.000000 0.000000 
-0.261942 0.927144 0.331200 0.069248 -4.158263 3.551902 1.008658 0.125440 1.641291 -0.743454 0.151517 -2.414184 4.193328 8.696207 -1.122801 0.000000 0.000000 0.000000 0.609191 0.181447 -2.017046 -0.181011 0.106893 2.062519 -3.887933 -9.321187 -0.922846 0.000000 0.000000 0.000000 6.627768 0.244935 -3.624900 -1.814629 0.852808 -2.628347 -4.119505 5.819985 7.857466 6.860521 -3.049353 -13.576564 0.000000 0.000000 0.000000 -11.438469 -3.240551 -0.189209 -36.386833 0.943435 -4.476185 -12.977784 -27.700766 3.951142 0.000000 0.000000 0.000000 10.150080 -5.045795 -2.610389 40.304224 -2.875198 -5.036022 15.274705 31.708178 5.590388 0.000000 0.000000 0.000000 
-0.261832 0.927703 0.331269 0.097798 -3.983576 3.486939 1.036761 0.130230 1.708867 -0.710344 0.153488 -2.601573 4.125977 8.584376 -0.935660 0.000000 0.000000 0.000000 0.574409 0.154077 -1.739679 -0.310606 0.109823 1.800606 -3.766122 -9.124015 -0.641402 0.000000 0.000000 0.000000 6.555285 0.240727 -3.589006 -1.847947 0.869501 -2.533899 -4.213493 5.845946 7.644701 6.752780 -2.990189 -13.386767 0.000000 0.000000 0.000000 -11.241531 -3.252036 -0.190759 -36.919389 0.608365 -4.438241 -12.930694 -27.207975 3.855051 0.000000 0.000000 0.000000 10.113184 -5.290872 -2.705571 39.639240 -2.705532 -4.893164 15.320976 31.346622 5.538696 0.000000 0.000000 0.000000 
-0.261686 0.928294 0.331245 0.095361 -3.773952 3.311298 0.884355 0.150643 1.892440 -0.518068 0.136383 -2.633083 3.880878 8.100682 -0.719170 0.000000 0.000000 0.000000 0.635570 0.124029 -1.455744 -0.519340 0.121197 1.538758 -3.655424 -9.070510 -0.026861 0.000000 0.000000 0.000000 6.505854 0.216397 -3.331934 -1.939165 0.913315 -2.321310 -4.303645 5.893950 7.189556 6.385260 -2.764722 -13.116798 0.000000 0.000000 0.000000 -11.204699 -3.145421 -0.275342 -37.188700 0.184437 -4.317523 -12.811656 -27.037129 3.784206 0.000000 0.000000 0.000000 10.254726 -5.374254 -2.740462 39.486966 -2.581960 -4.812487 14.643863 30.638481 5.220670 0.000000 0.000000 0.000000 
-0.261532 0.928786 0.331012 0.244604 -3.375107 3.062128 0.901042 0.172131 2.148381 -0.611850 0.141589 -2.521425 3.819331 7.939486 -0.782793 0.000000 0.000000 0.000000 0.417324 0.106701 -1.219439 -0.473320 0.104168 1.276605 -3.579718 -9.017586 0.329816 0.000000 0.000000 0.000000 6.296809 0.188727 -3.050090 -1.941050 0.917493 -2.216818 -4.373897 5.845394 6.952348 6.386618 -2.735326 -13.166098 0.000000 0.000000 0.000000 -11.511759 -3.128450 -0.357583 -37.406441 -0.042273 -4.251776 -12.417295 -27.228611 3.702729 0.000000 0.000000 0.000000 10.725972 -5.415531 -2.780068 39.392476 -2.597139 -4.805097 13.832630 29.853861 4.864314 0.000000 0.000000 0.000000 
-0.261344 0.929353 0.330519 0.301952 -3.117961 2.906678 0.997396 0.189962 2.394566 -0.561893 0.140677 -2.649708 3.651451 7.660167 -0.436028 0.000000 0.000000 0.000000 0.558489 0.073946 -0.929921 -0.753680 0.112586 0.804691 -3.662447 -9.353510 0.738862 0.000000 0.000000 0.000000 6.150564 0.163680 -2.791129 -1.936635 0.917498 -2.159639 -4.418933 5.986869 6.666565 6.313736 -2.614387 -13.408444 0.000000 0.000000 0.000000 -11.636645 -3.282153 -0.359906 -37.736935 -0.290789 -4.187924 -12.229135 -26.935490 3.596889 0.000000 0.000000 0.000000 11.145524 -5.383228 -2.767684 39.706663 -2.648693 -4.851594 12.476927 28.548431 4.296835 0.000000 0.000000 0.000000 
-0.261091 0.929414 0.329647 0.287782 -2.882196 2.925992 1.065811 0.189217 2.425440 -0.294067 0.119488 -2.754416 3.471115 7.289673 -0.363106 0.000000 0.000000 0.000000 0.531651 0.087256 -1.047521 -0.681699 0.105358 0.808336 -3.875482 -9.930700 0.949852 0.000000 0.000000 0.000000 6.077653 0.150473 -2.677845 -1.863183 0.885560 -2.115741 -4.502772 6.219890 6.437596 6.346644 -2.546530 -13.694150 0.000000 0.000000 0.000000 -11.714659 -3.403455 -0.384819 -37.968875 -0.906150 -4.003600 -11.568015 -26.357911 3.341091 0.000000 0.000000 0.000000 11.523888 -5.178918 -2.653618 40.511207 -2.692771 -4.960369 10.834899 27.228244 3.705240 0.000000 0.000000 0.000000 
-0.260798 0.929670 0.328515 0.271875 -2.693408 2.906052 1.150458 0.159320 2.115634 -0.161788 0.113287 -2.925742 3.397476 7.137454 -0.328000 0.000000 0.000000 0.000000 0.756982 0.067179 -0.908831 -0.952905 0.118123 0.474451 -3.877629 -9.920283 0.888109 0.000000 0.000000 0.000000 5.850401 0.100499 -2.166001 -1.752872 0.836813 -2.627550 -4.478602 6.332096 6.526864 6.438138 -2.593506 -13.652227 0.000000 0.000000 0.000000 -11.837120 -3.703377 -0.301491 -37.868347 -1.147060 -3.910054 -10.758876 -25.892799 3.088144 0.000000 0.000000 0.000000 12.151213 -4.828454 -2.498918 40.402399 -2.360504 -4.883868 9.937543 25.879313 3.301058 0.000000 0.000000 0.000000 
-0.260342 0.929601 0.327284 0.234038 -2.679665 2.913929 1.355806 0.150867 2.097209 -0.172344 0.123778 -3.213913 3.282017 6.971799 -0.037420 0.000000 0.000000 0.000000 0.444556 0.059621 -0.750916 -0.793243 0.084108 0.107404 -3.832181 -9.919395 1.248251 0.000000 0.000000 0.000000 5.839643 0.093088 -2.093178 -1.905494 0.905579 -2.478082 -4.545700 6.151541 6.371896 6.335448 -2.453803 -14.163907 0.000000 0.000000 0.000000 -11.134478 -3.794460 -0.145601 -38.210576 -1.877978 -3.755693 -9.771803 -24.729978 2.747171 0.000000 0.000000 0.000000 12.171578 -4.557497 -2.394249 41.564382 -1.978743 -4.878293 8.172864 24.711468 2.753841 0.000000 0.000000 0.000000 
-0.259712 0.930325 0.326038 0.121948 -3.077634 2.679967 1.557186 0.118676 1.746396 -0.207098 0.108429 -2.654042 3.395062 7.337998 0.428276 0.000000 0.000000 0.000000 0.187344 0.070060 -0.783407 -0.278376 0.039397 0.275216 -3.697273 -9.732579 1.694751 0.000000 0.000000 0.000000 6.084619 0.057466 -1.646546 -2.166392 1.021930 -2.267205 -4.420591 6.073751 6.359472 6.131609 -2.333782 -14.304352 0.000000 0.000000 0.000000 -12.308622 -4.286080 -0.018782 -37.565296 -1.578190 -3.766885 -8.892496 -24.002627 2.511268 0.000000 0.000000 0.000000 13.758758 -3.987349 -2.266801 41.230193 -0.885359 -4.551948 6.728171 24.779462 2.446195 0.000000 0.000000 0.000000 
-0.258841 0.930420 0.324748 0.101487 -3.164571 2.997098 1.663011 0.084945 1.380367 -0.483537 0.138995 -2.831125 3.225943 6.973564 0.378950 0.000000 0.000000 0.000000 -0.193413 0.113351 -1.117396 0.356768 -0.019824 0.401180 -3.940216 -9.947769 0.517259 0.000000 0.000000 0.000000 5.847277 0.088750 -2.055598 -2.537421 1.200619 -1.024553 -3.964418 5.677793 5.397144 6.737140 -2.906828 -13.371700 0.000000 0.000000 0.000000 -11.436951 -3.845794 -0.049983 -37.327638 -2.125418 -3.565545 -8.859367 -24.209308 2.544709 0.000000 0.000000 0.000000 12.725948 -4.122941 -2.351679 42.816566 -0.484628 -4.465573 4.747368 24.691193 2.021863 0.000000 0.000000 0.000000 
-0.257957 0.931559 0.323519 0.505355 -3.020917 2.482585 1.783890 0.082620 1.360789 -0.931956 0.160606 -2.113110 3.483921 7.746104 1.331543 0.000000 0.000000 0.000000 -0.951070 0.074521 -0.465422 0.994381 -0.085864 0.373030 -3.483251 -9.025293 1.045603 0.000000 0.000000 0.000000 4.741035 0.046299 -1.476914 -2.502687 1.180723 -1.638729 -3.009184 5.583416 5.585440 6.378994 -2.774640 -12.923340 0.000000 0.000000 0.000000 -12.300460 -4.166926 0.034114 -35.823406 -2.490430 -3.314492 -7.254357 -22.651780 2.082063 0.000000 0.000000 0.000000 13.004765 -3.212910 -1.959474 42.542306 0.242075 -4.233920 3.445198 22.870277 1.591425 0.000000 0.000000 0.000000 
