HIERARCHY
ROOT Hips
{
	OFFSET -0.001795 -0.223333 0.028219
	CHANNELS 6 Xposition Yposition Zposition Zrotation Yrotation Xrotation 
	JOINT LeftUpLeg
	{
		OFFSET 0.069520 -0.091406 -0.006815
		CHANNELS 3 Zrotation Yrotation Xrotation
		JOINT LeftLeg
		{
			OFFSET 0.034277 -0.375199 -0.004496
			CHANNELS 3 Zrotation Yrotation Xrotation
			JOINT LeftFoot
			{
				OFFSET -0.013596 -0.397961 -0.043693
				CHANNELS 3 Zrotation Yrotation Xrotation
				JOINT LeftToe
				{
					OFFSET 0.026358 -0.055791 0.119288
					CHANNELS 3 Zrotation Yrotation Xrotation
					End Site
					{
						OFFSET 0.000000 0.000000 0.000000
					}
				}
			}
		}
	}
	JOINT RightUpLeg
	{
		OFFSET -0.067670 -0.090522 -0.004320
		CHANNELS 3 Zrotation Yrotation Xrotation
		JOINT RightLeg
		{
			OFFSET -0.038290 -0.382569 -0.008850
			CHANNELS 3 Zrotation Yrotation Xrotation
			JOINT RightFoot
			{
				OFFSET 0.015774 -0.398415 -0.042312
				CHANNELS 3 Zrotation Yrotation Xrotation
				JOINT RightToe
				{
					OFFSET -0.025372 -0.048144 0.123348
					CHANNELS 3 Zrotation Yrotation Xrotation
					End Site
					{
						OFFSET 0.000000 0.000000 0.000000
					}
				}
			}
		}
	}
	JOINT Spine
	{
		OFFSET -0.002533 0.108963 -0.026696
		CHANNELS 3 Zrotation Yrotation Xrotation
		JOINT Spine1
		{
			OFFSET 0.005487 0.135180 0.001092
			CHANNELS 3 Zrotation Yrotation Xrotation
			JOINT Spine2
			{
				OFFSET 0.001457 0.052922 0.025425
				CHANNELS 3 Zrotation Yrotation Xrotation
				JOINT Neck
				{
					OFFSET -0.002778 0.213870 -0.042857
					CHANNELS 3 Zrotation Yrotation Xrotation
					JOINT Head
					{
						OFFSET 0.005152 0.064970 0.051349
						CHANNELS 3 Zrotation Yrotation Xrotation
						End Site
						{
							OFFSET 0.000000 0.000000 0.000000
						}
					}
				}
				JOINT LeftShoulder
				{
					OFFSET 0.078845 0.121749 -0.034090
					CHANNELS 3 Zrotation Yrotation Xrotation
					JOINT LeftArm
					{
						OFFSET 0.090977 0.030469 -0.008868
						CHANNELS 3 Zrotation Yrotation Xrotation
						JOINT LeftForeArm
						{
							OFFSET 0.259612 -0.012772 -0.027456
							CHANNELS 3 Zrotation Yrotation Xrotation
							JOINT LeftHand
							{
								OFFSET 0.249234 0.008986 -0.001171
								CHANNELS 3 Zrotation Yrotation Xrotation
								End Site
								{
									OFFSET 0.000000 0.000000 0.000000
								}
							}
						}
					}
				}
				JOINT RightShoulder
				{
					OFFSET -0.081759 0.118833 -0.038615
					CHANNELS 3 Zrotation Yrotation Xrotation
					JOINT RightArm
					{
						OFFSET -0.096012 0.032551 -0.009143
						CHANNELS 3 Zrotation Yrotation Xrotation
						JOINT RightForeArm
						{
							OFFSET -0.253742 -0.013329 -0.021401
							CHANNELS 3 Zrotation Yrotation Xrotation
							JOINT RightHand
							{
								OFFSET -0.255298 0.007772 -0.005559
								CHANNELS 3 Zrotation Yrotation Xrotation
								End Site
								{
									OFFSET 0.000000 0.000000 0.000000
								}
							}
						}
					}
				}
			}
		}
	}
}
MOTION
Frames: 104
Frame Time: 0.050000
0.000000 0.951238 0.000000 -0.245323 3.687248 -4.057636 1.100131 0.698362 9.483971 1.524394 -0.038259 -2.548938 -1.678434 1.517042 9.956321 0.000000 0.000000 0.000000 0.857700 -0.816909 7.126774 -0.677381 0.090003 0.272133 3.565383 5.962968 5.238902 0.000000 0.000000 0.000000 0.858277 -0.214836 4.562833 0.419877 -0.567858 7.306349 -0.974438 0.550415 -3.809965 2.457677 -2.116428 1.468512 0.000000 0.000000 0.000000 -27.431448 2.841910 -5.742023 -41.501918 3.218230 -5.029348 -4.057021 -20.403206 1.331615 0.000000 0.000000 0.000000 27.336488 -3.865046 -4.601698 47.058064 -1.069219 -4.436089 1.518726 20.979697 0.952536 0.000000 0.000000 0.000000 
0.000250 0.950225 -0.000346 -0.303957 4.152921 -4.153000 1.518774 0.664077 9.703544 0.987428 0.020841 -2.879250 -1.887294 1.078735 9.659856 0.000000 0.000000 0.000000 0.553360 -0.800143 7.124082 0.265847 -0.025317 0.152902 3.211589 4.998048 5.574018 0.000000 0.000000 0.000000 0.622794 -0.212698 4.681565 0.117802 -0.453378 8.102167 -0.983066 0.226303 -4.774776 2.195379 -1.766154 0.493192 0.000000 0.000000 0.000000 -26.881696 3.545474 -6.048945 -43.369071 2.832792 -5.106784 -2.220265 -20.388073 0.993514 0.000000 0.000000 0.000000 27.665468 -4.117772 -4.895102 47.860034 -2.299982 -4.876821 0.619356 22.622452 0.857290 0.000000 0.000000 0.000000 
0.000389 0.949632 -0.000660 -0.182151 4.045366 -3.998633 1.466470 0.641041 9.247759 0.785433 0.015908 -2.357754 -1.766453 1.161321 9.404275 0.000000 0.000000 0.000000 0.718752 -0.807912 7.102764 -0.299199 0.013150 -0.527125 3.285566 4.892861 6.061888 0.000000 0.000000 0.000000 0.766538 -0.236456 5.051181 0.134195 -0.344653 5.960422 -1.201431 -0.462533 -3.396691 1.848196 -1.472522 0.269968 0.000000 0.000000 0.000000 -26.720167 3.291403 -5.618001 -43.988083 2.656794 -5.297545 -2.688701 -20.238105 1.104339 0.000000 0.000000 0.000000 27.467143 -3.389821 -4.566732 47.693190 -2.208236 -4.891851 0.851061 22.270191 0.871852 0.000000 0.000000 0.000000 
0.000283 0.949992 -0.000871 -0.227209 4.347214 -4.772942 1.355441 0.709409 10.182134 1.193586 -0.006993 -2.612306 -1.952830 0.925478 9.522652 0.000000 0.000000 0.000000 0.787331 -0.919491 7.993837 -0.148989 0.011674 -0.149258 2.913955 4.445252 5.363649 0.000000 0.000000 0.000000 0.447399 -0.266556 5.953026 -0.134052 -0.274949 7.412644 -0.438141 -1.058715 -4.951571 1.492180 -1.271185 1.113728 0.000000 0.000000 0.000000 -27.629511 4.279861 -6.205379 -43.947886 2.023341 -5.019931 -2.410097 -20.137717 1.059608 0.000000 0.000000 0.000000 27.077349 -3.204715 -4.708410 47.565697 -2.281900 -4.704070 1.350351 22.078518 0.900898 0.000000 0.000000 0.000000 
-0.000023 0.950374 -0.001093 -0.232627 4.630544 -4.928621 1.421688 0.708062 10.360359 1.193260 -0.001574 -2.725877 -2.130774 0.709979 9.658570 0.000000 0.000000 0.000000 0.997166 -0.952214 8.109559 -0.499709 0.061550 0.065995 2.848725 4.393059 5.226645 0.000000 0.000000 0.000000 0.227126 -0.296661 6.780487 0.633619 -0.721590 7.368700 -1.224603 -0.661099 -5.711494 1.819738 -1.614254 1.746060 0.000000 0.000000 0.000000 -27.806877 4.034719 -6.371813 -43.495594 1.938975 -4.794221 -3.295913 -20.622080 1.204938 0.000000 0.000000 0.000000 26.700005 -3.931445 -4.882413 47.651993 -1.924564 -4.570460 1.660033 21.262657 0.939623 0.000000 0.000000 0.000000 
-0.000477 0.950410 -0.001099 -0.342717 4.956193 -4.944916 1.628779 0.685374 10.462073 1.169100 0.011517 -2.972709 -2.302880 0.460296 9.683915 0.000000 0.000000 0.000000 1.044965 -0.957949 8.093215 -0.480267 0.058020 0.030181 3.031850 4.684966 5.527429 0.000000 0.000000 0.000000 0.227830 -0.326511 7.380017 0.788694 -0.793199 6.935865 -1.302227 -1.139051 -5.893421 1.799096 -1.580671 1.688616 0.000000 0.000000 0.000000 -28.265643 4.354027 -6.562650 -43.231340 1.398233 -4.590355 -4.619380 -20.641404 1.453563 0.000000 0.000000 0.000000 26.506775 -4.098304 -5.064037 47.696022 -2.136920 -4.610321 2.108587 21.188779 0.995703 0.000000 0.000000 0.000000 
-0.000979 0.950432 -0.001037 -0.326692 4.835919 -4.982970 1.691960 0.686466 10.535182 1.062964 0.020446 -2.994252 -2.265733 0.531978 9.727965 0.000000 0.000000 0.000000 1.066201 -0.926436 7.834529 -0.626982 0.079591 0.131755 3.291043 4.914551 6.190024 0.000000 0.000000 0.000000 0.030368 -0.332669 7.744871 0.951755 -0.875177 6.827677 -1.512972 -1.235235 -6.123606 1.976344 -1.746066 1.936852 0.000000 0.000000 0.000000 -28.685951 4.193256 -6.528995 -42.607088 1.530549 -4.542264 -5.155103 -21.196032 1.593614 0.000000 0.000000 0.000000 26.405180 -4.176502 -5.133746 47.639767 -2.356587 -4.656054 2.307964 21.471215 1.037623 0.000000 0.000000 0.000000 
-0.001328 0.950222 -0.000877 -0.464754 4.503209 -5.013264 1.611614 0.682195 10.214396 1.429374 -0.040572 -2.293884 -1.994880 0.847355 9.465744 0.000000 0.000000 0.000000 1.176876 -0.883825 7.448860 -0.634802 0.097691 0.535620 3.542320 5.243282 6.574453 0.000000 0.000000 0.000000 0.038022 -0.352071 8.164517 0.962583 -0.883707 7.011560 -1.509207 -1.106859 -6.348579 2.071468 -1.936776 2.882728 0.000000 0.000000 0.000000 -28.855405 4.238537 -6.591740 -42.329295 0.952225 -4.297895 -5.808209 -21.456967 1.733452 0.000000 0.000000 0.000000 26.371880 -4.354361 -5.254445 47.732391 -2.242770 -4.598345 2.351042 22.043835 1.070814 0.000000 0.000000 0.000000 
-0.001521 0.950019 -0.000503 -0.624300 3.966274 -5.046232 1.595831 0.699774 10.270453 1.672284 -0.068410 -2.175125 -1.690090 1.273048 9.356211 0.000000 0.000000 0.000000 1.286157 -0.846296 7.119253 0.648054 -0.059923 0.476926 2.381960 2.145610 7.504593 0.000000 0.000000 0.000000 0.115503 -0.365509 8.384473 0.905798 -0.857824 7.375239 -1.531360 -0.773144 -6.486754 2.040919 -1.971730 3.321280 0.000000 0.000000 0.000000 -28.439327 4.033329 -6.422240 -42.743496 0.450400 -4.156758 -5.791477 -21.095346 1.694509 0.000000 0.000000 0.000000 26.616351 -4.486137 -5.346855 47.699214 -1.945323 -4.478608 2.310810 22.495938 1.089553 0.000000 0.000000 0.000000 
-0.001565 0.949454 0.000233 -0.742689 3.645031 -5.034564 1.779144 0.685044 10.207517 1.516367 -0.067529 -1.923862 -1.480151 1.498236 9.108252 0.000000 0.000000 0.000000 1.579439 -0.809782 6.681496 1.172839 -0.123104 0.465307 1.445921 -0.372424 8.574799 0.000000 0.000000 0.000000 0.173974 -0.385886 8.749407 0.977769 -0.890308 7.403789 -1.774453 -0.319264 -6.626358 2.202692 -2.226016 4.119149 0.000000 0.000000 0.000000 -28.202385 3.888610 -6.429814 -42.866987 0.238569 -4.045347 -5.751633 -20.866738 1.649748 0.000000 0.000000 0.000000 26.590663 -4.516495 -5.237880 48.085929 -1.825707 -4.494443 2.057477 23.125784 1.092670 0.000000 0.000000 0.000000 
-0.001420 0.949177 0.001446 -0.816875 3.355541 -5.069178 1.710143 0.683243 9.980084 1.700007 -0.118064 -1.245878 -1.249383 1.770594 8.868911 0.000000 0.000000 0.000000 1.705656 -0.786138 6.441780 1.046620 -0.089942 1.067728 1.497975 -0.198717 8.345521 0.000000 0.000000 0.000000 0.331647 -0.414931 9.151005 0.991133 -0.890186 7.426631 -1.831073 -0.179377 -6.777734 2.164942 -2.277998 4.720280 0.000000 0.000000 0.000000 -27.860203 3.837183 -6.347444 -43.349485 0.308856 -4.109529 -5.359918 -20.752774 1.565721 0.000000 0.000000 0.000000 26.813097 -4.388037 -5.187979 48.071807 -1.611516 -4.402472 2.040180 23.110454 1.087663 0.000000 0.000000 0.000000 
-0.001275 0.948833 0.003506 -0.880807 3.510440 -4.997833 1.907936 0.659965 9.970241 1.512359 -0.103370 -1.167345 -1.299805 1.632086 8.715649 0.000000 0.000000 0.000000 1.892614 -0.767069 6.183246 0.877804 -0.052113 1.642074 1.349871 -0.392173 8.096738 0.000000 0.000000 0.000000 0.224012 -0.423514 9.461984 1.059600 -0.935122 7.427961 -1.491721 -0.156093 -6.587378 1.826377 -2.084551 5.370917 0.000000 0.000000 0.000000 -27.886056 4.057000 -6.468372 -43.308702 0.424548 -4.166766 -5.439797 -20.865059 1.591968 0.000000 0.000000 0.000000 26.979046 -4.224077 -5.112932 47.769139 -1.722166 -4.433270 2.217515 23.641591 1.149143 0.000000 0.000000 0.000000 
-0.001290 0.948335 0.006847 -0.771493 3.633381 -4.992613 1.692826 0.677485 9.962969 1.737931 -0.143377 -0.794116 -1.285017 1.582953 8.517779 0.000000 0.000000 0.000000 2.047708 -0.748187 5.954560 0.453745 0.030008 2.464761 1.158547 -0.604846 7.645967 0.000000 0.000000 0.000000 0.072697 -0.419601 9.599301 1.333768 -1.121577 7.807361 -1.644041 -0.142941 -6.629235 1.541560 -1.932760 5.982667 0.000000 0.000000 0.000000 -27.527571 4.047835 -6.424252 -43.609864 0.401582 -4.183183 -5.301178 -20.929352 1.566006 0.000000 0.000000 0.000000 26.985955 -3.985052 -4.934400 47.889185 -1.537384 -4.380878 2.100014 23.873543 1.142919 0.000000 0.000000 0.000000 
-0.001634 0.947866 0.011897 -0.758277 3.817594 -4.999366 1.543127 0.694627 10.071642 2.107324 -0.198674 -0.437239 -1.288974 1.507325 8.321052 0.000000 0.000000 0.000000 2.180041 -0.774782 6.093881 0.299908 0.063512 2.843295 1.012171 -0.780925 7.345980 0.000000 0.000000 0.000000 -0.142871 -0.413501 9.782101 1.462546 -1.219557 8.056407 -1.474344 0.179972 -6.490366 1.309184 -1.756504 5.948901 0.000000 0.000000 0.000000 -27.257122 4.569834 -6.782470 -43.649427 0.672693 -4.271683 -5.733212 -21.395355 1.666722 0.000000 0.000000 0.000000 27.045390 -4.208303 -4.963198 47.663672 -1.518072 -4.398071 2.888154 24.113831 1.327014 0.000000 0.000000 0.000000 
-0.002332 0.947665 0.018554 -0.708886 4.104330 -4.899410 1.518523 0.718034 10.496133 2.283467 -0.201597 -0.691868 -1.431371 1.302891 8.370566 0.000000 0.000000 0.000000 2.347680 -0.763600 5.915194 0.109034 0.121805 3.772221 0.795596 -1.106141 7.050227 0.000000 0.000000 0.000000 -0.371030 -0.405780 9.942711 1.698678 -1.332231 7.583566 -1.535865 0.141764 -5.868277 1.241100 -1.751755 6.281310 0.000000 0.000000 0.000000 -26.787546 5.002355 -6.954689 -43.794089 1.077502 -4.476384 -6.200187 -21.988079 1.800729 0.000000 0.000000 0.000000 26.856463 -4.067241 -4.783082 48.129425 -2.135111 -4.749834 2.983486 24.781104 1.402514 0.000000 0.000000 0.000000 
-0.003271 0.947167 0.026176 -0.548513 4.579855 -4.757462 1.556965 0.722788 10.819690 2.229345 -0.190007 -0.769864 -1.657905 0.935305 8.349381 0.000000 0.000000 0.000000 2.618986 -0.785111 5.935361 -0.396591 0.220503 4.412277 0.474282 -1.618686 6.665804 0.000000 0.000000 0.000000 -0.789562 -0.377978 9.976821 2.178528 -1.580987 7.024199 -1.845144 0.168040 -5.091558 1.094958 -1.625402 6.092100 0.000000 0.000000 0.000000 -26.023922 5.338820 -7.060427 -44.263091 1.662600 -4.784315 -6.970734 -22.605928 1.992531 0.000000 0.000000 0.000000 26.822353 -4.476008 -4.891388 48.292845 -3.014002 -5.204442 3.735448 25.383420 1.624976 0.000000 0.000000 0.000000 
-0.004550 0.946252 0.034479 -0.524396 4.610172 -4.546508 1.791515 0.707027 10.986960 2.018770 -0.181747 -0.528486 -1.632805 0.899420 8.172170 0.000000 0.000000 0.000000 2.796018 -0.789414 5.879796 -0.514739 0.263816 5.069114 0.358235 -1.707578 6.225041 0.000000 0.000000 0.000000 -0.987630 -0.361286 9.951276 2.304302 -1.644283 6.912127 -1.727829 0.257140 -4.423511 0.944114 -1.506501 6.139558 0.000000 0.000000 0.000000 -25.797794 5.588582 -7.153429 -44.374509 1.828763 -4.908410 -7.274092 -23.445832 2.131547 0.000000 0.000000 0.000000 26.493821 -4.214360 -4.634872 48.868445 -3.892068 -5.675557 3.700378 25.981817 1.675324 0.000000 0.000000 0.000000 
-0.006279 0.945407 0.043516 -0.299550 4.289901 -4.557213 1.696861 0.698981 10.552385 1.933874 -0.275975 1.383202 -1.370244 1.229147 7.938291 0.000000 0.000000 0.000000 3.163172 -0.845453 6.141177 -1.393979 0.434242 5.669312 0.323852 -1.608566 5.693874 0.000000 0.000000 0.000000 -1.529316 -0.329449 10.315943 2.365329 -1.679255 7.045158 -1.447861 0.141315 -4.115379 0.255175 -0.846688 5.754298 0.000000 0.000000 0.000000 -25.159979 6.007931 -7.135362 -45.046919 2.359072 -5.253013 -7.727814 -25.372474 2.426871 0.000000 0.000000 0.000000 26.372422 -4.123371 -4.665493 49.233477 -4.106973 -5.806999 2.925075 26.258138 1.514736 0.000000 0.000000 0.000000 
-0.008771 0.943763 0.054706 -0.201150 3.725629 -4.613301 1.971321 0.653202 10.032966 1.769748 -0.404261 4.096813 -1.434774 0.672097 7.083459 0.000000 0.000000 0.000000 3.721528 -0.899606 6.297729 -2.318771 0.647816 6.753136 0.321416 -1.361608 4.945186 0.000000 0.000000 0.000000 -1.551743 -0.330485 10.537522 2.008002 -1.442486 6.842155 -1.268304 -0.114356 -3.372430 0.121306 -0.636237 5.193562 0.000000 0.000000 0.000000 -25.410687 6.264157 -7.153989 -44.961998 2.038881 -5.228797 -7.159386 -25.917811 2.394048 0.000000 0.000000 0.000000 26.072426 -3.562487 -4.432816 50.191144 -4.711499 -6.197157 2.063830 26.160966 1.304196 0.000000 0.000000 0.000000 
-0.012347 0.940003 0.068968 -0.192317 3.622202 -4.663998 2.321839 0.521304 8.373640 1.859333 -0.730594 9.446078 -1.419133 -0.325444 4.961632 0.000000 0.000000 0.000000 4.234571 -0.988378 6.686841 -2.728025 0.783024 7.848981 0.060533 -1.444485 3.633523 0.000000 0.000000 0.000000 -1.718359 -0.335012 11.101455 1.893978 -1.358969 6.622287 -0.868483 -0.056401 -3.251867 0.304735 -0.695864 4.355833 0.000000 0.000000 0.000000 -25.969047 6.500365 -7.377568 -44.799057 2.342259 -5.332950 -7.891773 -27.266494 2.705765 0.000000 0.000000 0.000000 25.613995 -3.978030 -4.653363 50.364083 -4.540148 -6.150245 1.767528 25.571723 1.206333 0.000000 0.000000 0.000000 
-0.016840 0.935340 0.086050 -0.529870 2.640882 -4.544224 2.383926 0.348233 5.475381 2.665140 -1.421476 17.230752 -1.013879 -0.302866 3.534698 0.000000 0.000000 0.000000 5.007551 -1.130220 7.286751 -3.124376 0.898297 8.463232 0.134168 -0.688873 2.194495 0.000000 0.000000 0.000000 -1.811950 -0.316940 11.098249 2.505959 -1.742241 7.494525 -1.251145 -0.003845 -4.034314 0.113448 -0.525673 4.352371 0.000000 0.000000 0.000000 -26.593363 7.538018 -8.073708 -45.334934 2.393185 -5.380891 -6.840273 -27.954593 2.517735 0.000000 0.000000 0.000000 26.107235 -2.689757 -4.059454 49.945943 -4.415313 -5.946255 0.327325 25.078546 0.861121 0.000000 0.000000 0.000000 
-0.021666 0.929567 0.104920 -1.121447 0.788234 -4.157237 3.837054 -0.057457 -0.744719 0.429611 -1.420535 30.799255 -0.404061 1.416615 4.920493 0.000000 0.000000 0.000000 5.566804 -1.150973 7.169603 0.527096 0.268610 9.568813 -3.671632 -9.599785 1.199449 0.000000 0.000000 0.000000 -1.199939 -0.351161 11.025896 2.078027 -1.453316 7.816877 -1.219294 1.637881 -4.570364 0.443600 -0.734742 3.385181 0.000000 0.000000 0.000000 -27.280988 7.932979 -8.752981 -44.985152 2.896496 -5.386367 -6.534618 -29.428752 2.500934 0.000000 0.000000 0.000000 26.305657 -2.890139 -3.947763 48.725704 -3.534208 -5.455488 0.863015 22.842213 0.910282 0.000000 0.000000 0.000000 
-0.026381 0.925403 0.126883 -1.516342 -0.404875 -4.702667 5.093520 -0.417884 -8.946984 -2.061383 -0.666647 48.396183 -0.501165 3.406465 10.778171 0.000000 0.000000 0.000000 6.555017 -1.631944 9.810331 0.395330 0.247625 7.905208 -4.583147 -11.788427 1.377127 0.000000 0.000000 0.000000 -0.675650 -0.433665 12.281438 1.455838 -0.990178 6.372872 0.065240 2.152359 -3.115773 -0.217579 -0.093856 2.587158 0.000000 0.000000 0.000000 -28.950807 8.689614 -9.473319 -44.635971 3.009612 -5.530812 -7.876861 -29.649690 2.930096 0.000000 0.000000 0.000000 24.831627 -1.930153 -3.241230 49.131411 -1.824815 -4.945606 1.627483 22.266379 1.020832 0.000000 0.000000 0.000000 
-0.030123 0.923316 0.153888 -1.423110 -1.371892 -5.278940 6.017757 -0.628742 -17.232400 -4.161383 0.938871 58.313387 -0.793331 6.331193 22.207704 0.000000 0.000000 0.000000 6.571394 -2.010257 12.366706 -0.119554 0.334174 7.597297 -4.151609 -10.820350 1.681209 0.000000 0.000000 0.000000 -1.186343 -0.403202 13.413984 0.830505 -0.571370 5.016185 1.232129 3.889810 -2.580254 0.582805 -0.726266 2.222928 0.000000 0.000000 0.000000 -29.402742 8.393440 -9.704614 -44.856550 3.177801 -5.582311 -7.730095 -28.930226 2.761057 0.000000 0.000000 0.000000 24.142926 -1.780479 -2.767860 48.477011 -0.502619 -4.490295 3.116718 22.014920 1.308192 0.000000 0.000000 0.000000 
-0.033283 0.923019 0.187144 -0.553924 -3.121103 -5.897633 5.375244 -0.841723 -22.243495 -4.894832 2.033074 55.737116 1.369782 9.920474 26.765669 0.000000 0.000000 0.000000 5.717170 -2.417454 16.368537 -1.017930 0.404920 5.820912 -3.599168 -9.611132 2.104261 0.000000 0.000000 0.000000 -2.375516 -0.258041 14.415582 0.296366 -0.245865 5.037920 1.311078 5.672505 -2.989922 0.568507 -0.826173 2.905323 0.000000 0.000000 0.000000 -28.854383 8.015710 -9.632094 -44.227588 4.593145 -5.885217 -9.886249 -27.898833 3.127056 0.000000 0.000000 0.000000 25.175808 -1.371652 -2.349938 47.327503 1.203643 -3.809137 4.043031 22.963838 1.571665 0.000000 0.000000 0.000000 
-0.036139 0.920152 0.226199 -0.152945 -4.620202 -6.598208 5.855011 -0.733065 -25.808005 -3.859633 1.283008 42.514424 0.978988 7.971614 21.045161 0.000000 0.000000 0.000000 4.834115 -2.684810 20.217045 -0.950987 0.345255 4.843009 -3.377696 -9.452506 3.284746 0.000000 0.000000 0.000000 -2.646631 -0.205558 15.283047 -0.583174 0.265969 5.827554 1.746313 6.974557 -4.278516 0.719191 -0.935251 2.577840 0.000000 0.000000 0.000000 -28.673032 8.376049 -9.998057 -44.199922 6.134657 -6.292947 -10.841375 -27.858361 3.298144 0.000000 0.000000 0.000000 24.823401 -0.622610 -1.753950 48.251808 3.317811 -2.993318 4.159713 24.722106 1.743604 0.000000 0.000000 0.000000 
-0.038278 0.912366 0.271121 -0.031714 -6.544643 -6.685844 6.110176 -0.534317 -26.507299 -1.354764 0.030449 23.364040 -0.910724 6.273123 26.472228 0.000000 0.000000 0.000000 3.934731 -2.752780 23.684582 -0.982407 0.309769 4.088510 -3.046296 -8.891226 3.854409 0.000000 0.000000 0.000000 -2.210173 -0.216803 15.524640 -1.641722 0.900208 5.775747 2.121552 8.187803 -4.548051 0.899454 -0.969579 1.680304 0.000000 0.000000 0.000000 -28.068753 8.368013 -9.915894 -44.571877 7.515090 -6.812175 -12.130936 -26.764493 3.441018 0.000000 0.000000 0.000000 24.730074 0.110797 -1.230155 47.346904 4.350220 -2.556594 4.849768 28.399219 2.222866 0.000000 0.000000 0.000000 
-0.039838 0.900471 0.321804 0.184225 -7.692270 -6.563901 6.443166 -0.356883 -26.176864 0.609360 -0.419193 12.497565 -4.017266 0.874864 22.321727 0.000000 0.000000 0.000000 3.598922 -2.819767 26.302477 -1.539351 0.433190 4.880244 -3.816392 -10.815861 4.877559 0.000000 0.000000 0.000000 -2.096345 -0.203886 15.317680 -1.507391 0.864840 6.288439 1.556099 8.993916 -4.575811 1.279349 -1.092070 0.347852 0.000000 0.000000 0.000000 -27.696993 8.830397 -10.231303 -44.705056 7.861517 -6.937485 -11.077390 -26.636232 3.146227 0.000000 0.000000 0.000000 24.316138 0.675751 -0.702964 47.442045 5.709942 -2.082355 4.716404 31.647666 2.530993 0.000000 0.000000 0.000000 
-0.040982 0.886910 0.379321 0.804114 -9.437675 -7.637277 5.791152 -0.383158 -24.944579 1.748400 -0.685151 14.041920 -5.023836 -2.258898 18.083480 0.000000 0.000000 0.000000 2.386596 -2.588273 30.527206 -2.562598 0.637205 5.701288 -3.659898 -11.157456 7.182692 0.000000 0.000000 0.000000 -3.255729 -0.010606 15.963411 -2.236841 1.316576 6.164823 2.928068 10.221829 -2.857023 1.225343 -0.701090 -2.066742 0.000000 0.000000 0.000000 -29.464300 6.498958 -9.330417 -43.438316 6.923573 -6.410612 -7.411308 -26.017693 2.273810 0.000000 0.000000 0.000000 24.168440 1.550093 -0.099614 47.104570 8.172389 -1.302134 3.323201 35.103875 2.477597 0.000000 0.000000 0.000000 
-0.041549 0.876379 0.445778 1.799269 -9.875013 -7.881043 3.984092 -0.815846 -25.649372 2.647948 -1.069939 22.849072 -5.614260 -4.563939 14.443709 0.000000 0.000000 0.000000 1.443459 -2.316365 32.223500 -3.564453 1.169958 10.076693 -3.779638 -12.717815 12.381188 0.000000 0.000000 0.000000 -4.902730 0.204111 15.409998 -2.444694 1.522188 7.555584 3.650756 9.914398 -3.436374 1.693407 -1.312009 -0.277678 0.000000 0.000000 0.000000 -29.155365 5.216987 -8.269487 -44.221846 6.903983 -6.531026 -6.763182 -26.570315 2.194921 0.000000 0.000000 0.000000 23.403295 2.745229 0.396961 47.522023 7.075509 -1.575215 3.812517 38.216153 2.821755 0.000000 0.000000 0.000000 
-0.042778 0.875216 0.517329 3.523653 -10.387759 -7.555346 1.603157 -1.387612 -25.645457 2.572188 -0.992349 30.409307 -3.680484 -2.922818 10.738747 0.000000 0.000000 0.000000 -1.592137 -1.193708 28.380023 -1.992128 2.028894 22.384338 -0.363962 -8.485719 17.406470 0.000000 0.000000 0.000000 -7.268882 0.489679 14.131159 -1.680200 1.174277 9.089899 2.666777 10.262935 -3.767550 2.255635 -1.559756 -1.552307 0.000000 0.000000 0.000000 -30.188677 4.236207 -8.065159 -42.680701 5.817871 -5.789165 -4.887331 -27.870994 1.830667 0.000000 0.000000 0.000000 23.067011 2.277375 0.240983 48.553252 4.752906 -2.487288 5.125673 42.847227 3.803241 0.000000 0.000000 0.000000 
-0.047692 0.885303 0.584620 5.131781 -10.373706 -7.673905 -0.428820 -1.672819 -21.261852 1.979401 -0.682484 30.819718 -2.684497 -2.506639 7.424138 0.000000 0.000000 0.000000 -4.077535 -0.445924 19.073225 1.711121 2.811662 41.162732 1.321261 -8.388291 26.362763 0.000000 0.000000 0.000000 -8.868367 0.819254 15.636963 -0.837530 0.602513 7.476297 1.791111 7.488842 -3.433567 2.631840 -1.814965 -1.898061 0.000000 0.000000 0.000000 -29.284761 2.398531 -5.744249 -41.555261 4.013591 -5.308174 -6.827732 -27.840605 2.481520 0.000000 0.000000 0.000000 23.023407 2.357668 -0.509683 48.289131 1.010817 -3.738192 8.845493 44.836991 5.128292 0.000000 0.000000 0.000000 
-0.059149 0.899945 0.644413 5.559835 -11.322812 -8.134870 -0.716439 -1.229392 -13.778984 1.510768 -0.454119 26.178230 -1.956883 -1.947136 5.659587 0.000000 0.000000 0.000000 -5.268880 0.003763 5.402727 7.460614 1.897810 58.887054 -0.765319 -12.121075 32.702596 0.000000 0.000000 0.000000 -9.020012 1.019452 17.530915 -0.737508 0.630805 8.924488 1.112382 4.010525 -4.365873 1.621947 -1.042177 -2.302275 0.000000 0.000000 0.000000 -28.015123 1.363028 -3.678497 -41.271814 1.006955 -4.604837 -7.329510 -30.295155 3.067655 0.000000 0.000000 0.000000 23.453379 3.183269 -1.185783 49.385691 -1.906497 -4.616092 9.245853 44.396101 4.675872 0.000000 0.000000 0.000000 
-0.076882 0.915740 0.700837 5.610614 -12.459411 -8.698676 -1.095467 -0.543080 -5.103888 2.560019 -0.800283 19.205275 -1.645077 -1.303217 6.339067 0.000000 0.000000 0.000000 -5.224942 0.555266 -7.037238 14.047601 -1.792480 66.102713 -7.422385 -19.639480 25.526999 0.000000 0.000000 0.000000 -8.602325 1.195979 20.007945 0.155021 0.116861 8.458019 0.662549 0.252894 -4.220685 1.026033 -0.563378 -3.645880 0.000000 0.000000 0.000000 -27.399935 0.139835 -1.466015 -39.487215 -2.980227 -3.608381 -6.743023 -36.396022 3.892475 0.000000 0.000000 0.000000 22.793656 3.373971 -2.205917 48.273767 -5.255345 -5.505791 14.602213 43.343091 6.052321 0.000000 0.000000 0.000000 
-0.100548 0.927500 0.756992 4.432392 -13.471120 -8.784216 0.658894 0.548667 4.935569 3.374739 -0.884908 10.141652 -2.066075 -2.342047 6.037101 0.000000 0.000000 0.000000 -5.016480 1.351256 -16.840442 18.591423 -4.706500 61.130783 -10.540521 -24.426481 12.867189 0.000000 0.000000 0.000000 -7.473178 1.169980 21.854265 1.560416 -0.667991 9.002749 0.942421 -3.817971 -5.227239 -0.914785 0.789120 -3.550213 0.000000 0.000000 0.000000 -27.996213 0.768408 -0.498080 -37.941919 -7.202390 -2.621308 -7.251969 -42.091663 5.199949 0.000000 0.000000 0.000000 22.923085 3.306939 -3.572794 46.413813 -8.920562 -6.197176 17.791159 41.400087 6.353071 0.000000 0.000000 0.000000 
-0.130565 0.931110 0.814074 3.941064 -14.911528 -9.172520 2.126272 1.391740 12.396510 4.189845 -0.895898 6.030925 -2.689541 -3.252040 7.299491 0.000000 0.000000 0.000000 -4.878784 2.139258 -23.438184 19.824799 -4.731606 51.227956 -11.871038 -27.537224 3.721194 0.000000 0.000000 0.000000 -6.647487 1.288900 24.400376 2.546598 -1.243082 7.583546 1.853686 -7.454636 -5.171107 -3.171827 2.220816 -6.373674 0.000000 0.000000 0.000000 -26.809436 1.691558 0.301854 -38.904792 -9.954991 -2.208665 -3.134578 -50.871319 5.290907 0.000000 0.000000 0.000000 21.837969 2.334283 -5.061709 46.044415 -11.564900 -6.942417 17.616680 39.360526 5.422556 0.000000 0.000000 0.000000 
-0.169458 0.926892 0.874556 4.094258 -16.515301 -8.937011 3.873355 2.184372 19.209911 4.566414 -0.840371 3.569108 -3.761105 -5.801155 6.359330 0.000000 0.000000 0.000000 -3.687069 3.059613 -27.811388 17.147458 -2.927881 41.052921 -10.340221 -24.586091 3.875960 0.000000 0.000000 0.000000 -7.456131 1.520855 23.885313 3.957464 -1.977599 8.245696 3.336184 -10.913514 -7.201741 -5.814031 3.830118 -7.669499 0.000000 0.000000 0.000000 -25.384755 4.557567 -0.414846 -40.247773 -11.043707 -1.968111 3.607985 -56.333283 3.437387 0.000000 0.000000 0.000000 17.116515 2.406231 -4.688309 49.340560 -15.652721 -9.504209 19.850688 40.512136 5.626632 0.000000 0.000000 0.000000 
-0.218281 0.918874 0.941690 4.378624 -19.184468 -7.452909 5.595052 2.587093 22.487560 5.018634 -0.965720 4.422795 -4.814759 -6.426602 10.577100 0.000000 0.000000 0.000000 -0.741961 4.256512 -29.894400 14.461489 -1.502950 35.330945 -11.051231 -26.281572 15.400587 0.000000 0.000000 0.000000 -6.404496 1.078648 19.900571 5.248171 -2.533878 8.527376 1.054169 -12.531748 -8.302106 -7.157202 4.479998 -9.180733 0.000000 0.000000 0.000000 -24.312996 6.208032 -1.083081 -41.319392 -7.934938 -2.793138 6.275501 -61.220434 2.874434 0.000000 0.000000 0.000000 17.025813 0.341748 -5.984105 47.687378 -19.162574 -10.455187 25.409908 39.704313 7.120288 0.000000 0.000000 0.000000 
-0.276501 0.908811 1.017167 5.140415 -21.703102 -7.029024 7.095361 2.427354 21.371480 5.398905 -1.341177 13.135023 -5.950906 -5.313801 19.570618 0.000000 0.000000 0.000000 3.029887 3.788928 -23.697983 12.026104 -0.273570 33.365341 -10.496113 -25.536932 14.677293 0.000000 0.000000 0.000000 -5.116467 0.566660 15.105228 3.845352 -1.549175 9.541233 0.192074 -12.742191 -8.541310 -7.275016 5.053896 -5.364817 0.000000 0.000000 0.000000 -23.862603 7.593459 -1.687636 -42.091527 -3.734753 -4.120570 3.647533 -64.794110 5.195874 0.000000 0.000000 0.000000 15.544846 1.569042 -5.171917 52.037543 -20.867224 -12.761368 26.570260 40.585627 7.401951 0.000000 0.000000 0.000000 
-0.335992 0.900366 1.091139 6.800537 -26.571277 -9.160020 2.829158 1.848445 13.282193 11.167147 -2.408376 32.640617 -8.129316 -6.256201 26.358053 0.000000 0.000000 0.000000 7.183577 1.984656 -12.587390 8.717513 1.498081 32.948667 -9.670669 -21.455063 0.140263 0.000000 0.000000 0.000000 -4.518908 0.550442 14.753187 0.928201 0.320447 9.351448 1.569289 -9.307615 -9.683613 -6.198603 4.253102 -5.795941 0.000000 0.000000 0.000000 -27.004152 9.920239 -3.587592 -40.494789 1.847683 -5.618230 -8.869885 -64.696289 12.325851 0.000000 0.000000 0.000000 17.004708 0.435702 -5.984358 49.747384 -20.283765 -11.480412 28.778867 37.169252 7.561454 0.000000 0.000000 0.000000 
-0.391477 0.900870 1.155601 6.994045 -32.084672 -10.478625 -1.820960 -0.001485 0.339146 17.672101 -2.387165 49.912590 -6.992978 -9.258167 12.530615 0.000000 0.000000 0.000000 10.280127 0.238145 -2.452126 4.602443 2.592773 28.745810 -8.845256 -16.775274 -3.847075 0.000000 0.000000 0.000000 -3.632852 0.652567 16.099279 0.649804 0.682971 9.105280 0.400922 -5.489849 -10.306421 -4.387481 2.882259 -7.615400 0.000000 0.000000 0.000000 -27.535185 11.425069 -5.281870 -40.640557 7.335108 -7.028830 -18.150182 -61.325829 16.549642 0.000000 0.000000 0.000000 16.518045 0.614331 -5.252323 49.557963 -14.841429 -9.112372 30.048727 39.641212 8.808127 0.000000 0.000000 0.000000 
-0.445384 0.917906 1.215824 9.156988 -40.294089 -12.393200 -6.371425 -1.502715 -10.758609 15.661245 1.578774 50.287848 -6.261927 -15.891929 -8.393138 0.000000 0.000000 0.000000 9.453259 -0.899664 8.267966 1.297813 2.540714 21.963436 -6.243383 -10.484260 -2.349574 0.000000 0.000000 0.000000 -3.924574 1.064178 17.031333 -3.067836 2.439565 5.441907 2.406429 -0.500284 -6.055985 -3.942389 2.292064 -10.218302 0.000000 0.000000 0.000000 -28.006936 12.319541 -5.580171 -41.821946 9.201862 -8.187012 -23.760050 -58.222998 19.100294 0.000000 0.000000 0.000000 13.311225 1.296750 -3.891712 51.681845 -8.632723 -7.635574 31.675614 45.095751 10.552318 0.000000 0.000000 0.000000 
-0.502813 0.939715 1.273588 12.866355 -46.397769 -14.563290 -11.612528 -2.352035 -18.815474 10.324273 0.940310 31.327973 -10.451206 -20.057930 -4.128594 0.000000 0.000000 0.000000 4.598832 -0.152416 13.403782 2.816625 2.207417 20.893219 -1.714377 -6.992554 4.912748 0.000000 0.000000 0.000000 -5.737829 1.772610 17.594336 -4.853022 3.027909 3.070394 3.178357 2.669034 -4.569347 -4.524908 2.593423 -9.791970 0.000000 0.000000 0.000000 -25.832966 12.951730 -5.620879 -43.228184 10.016285 -8.660863 -29.109080 -55.243536 21.421195 0.000000 0.000000 0.000000 11.952422 -2.081201 -4.868667 51.927169 -3.860984 -6.004079 37.791133 43.585207 12.007379 0.000000 0.000000 0.000000 
-0.566805 0.952698 1.328863 13.820252 -52.407316 -15.449885 -10.200018 -1.877624 -18.888956 4.309753 0.446828 15.451812 -11.884065 -16.046817 14.851212 0.000000 0.000000 0.000000 1.809129 0.495368 12.454168 6.996091 4.049874 31.410792 1.460621 -7.566128 13.276557 0.000000 0.000000 0.000000 -6.190345 1.931005 16.864194 -6.371022 4.998608 6.231285 4.689505 0.186381 -6.746744 -3.933336 2.416010 -6.850426 0.000000 0.000000 0.000000 -24.962250 13.461674 -5.108044 -43.829938 7.678223 -7.790600 -24.751325 -54.628236 19.346255 0.000000 0.000000 0.000000 10.808788 0.937083 -3.819397 50.222640 -3.821879 -5.557097 44.596989 47.447193 15.224940 0.000000 0.000000 0.000000 
-0.638187 0.942688 1.380707 15.295154 -56.910244 -18.025919 -10.683108 -1.841841 -16.418964 2.332961 1.794117 17.244506 -7.584021 -11.400864 12.354992 0.000000 0.000000 0.000000 -2.289739 0.929718 7.647826 16.162167 6.006386 46.022534 0.045469 -13.468624 24.200741 0.000000 0.000000 0.000000 -7.600269 2.988407 19.059092 -4.844144 3.232730 3.166159 3.815666 -0.312954 -2.678072 -6.528868 4.033366 -6.774711 0.000000 0.000000 0.000000 -26.556542 10.540577 -1.986096 -42.634599 2.934846 -6.937177 -16.369776 -57.041463 15.853687 0.000000 0.000000 0.000000 12.640416 1.875841 -4.678719 48.323703 -4.136102 -5.403332 43.754158 48.572439 14.932075 0.000000 0.000000 0.000000 
-0.715283 0.919141 1.426122 15.321017 -58.996724 -19.828848 -10.829297 -1.845008 -14.115661 3.385561 4.534054 26.770917 -6.494829 -10.809956 -0.263361 0.000000 0.000000 0.000000 -5.804096 1.046509 -0.171651 27.743171 5.166105 58.653363 -6.975981 -21.142990 31.188922 0.000000 0.000000 0.000000 -8.923767 4.762102 23.395314 -3.881553 2.439552 2.196809 5.128255 -4.409116 -1.476982 -9.079364 4.872136 -11.306363 0.000000 0.000000 0.000000 -30.156359 11.791476 -0.977836 -37.797411 -8.108632 -4.536508 -3.724997 -60.324490 10.461410 0.000000 0.000000 0.000000 14.475687 4.465414 -5.313317 44.543006 -6.553478 -5.102437 45.666825 48.729463 15.047635 0.000000 0.000000 0.000000 
-0.797934 0.896512 1.468091 14.793691 -60.889867 -19.968120 -11.191320 -1.708859 -9.765198 6.323141 5.584458 31.606353 -6.225585 -10.470606 -11.497998 0.000000 0.000000 0.000000 -8.044677 1.629177 -11.022494 36.534043 2.926942 64.927469 -16.767894 -31.846325 23.551301 0.000000 0.000000 0.000000 -9.211213 5.697217 25.389398 -3.173925 2.483507 3.630033 4.864972 -9.385751 -2.591211 -10.030058 4.556587 -15.273963 0.000000 0.000000 0.000000 -31.427360 10.659654 1.663975 -34.512019 -16.854093 -2.823856 21.767531 -61.619369 -3.464931 0.000000 0.000000 0.000000 15.930677 6.831501 -6.075103 43.256049 -8.279915 -4.848827 41.279738 47.562287 12.252511 0.000000 0.000000 0.000000 
-0.886220 0.881776 1.512412 9.552349 -61.828157 -17.035052 -10.881209 -0.941661 -2.485584 11.342639 4.882050 35.046682 -6.147008 -10.941743 -19.098588 0.000000 0.000000 0.000000 -7.274633 2.454134 -17.760333 40.413033 1.160324 64.979284 -19.944175 -41.766551 2.263868 0.000000 0.000000 0.000000 -8.481881 6.729654 28.992417 -1.818159 1.258282 1.544643 5.285565 -10.114916 -1.276970 -10.134851 4.048717 -18.601445 0.000000 0.000000 0.000000 -28.977980 7.260451 4.020268 -32.959932 -21.381757 -1.551046 43.143090 -66.175985 -17.431470 0.000000 0.000000 0.000000 16.353000 5.601666 -6.822673 39.440446 -12.160480 -5.654176 43.287379 48.882428 14.214963 0.000000 0.000000 0.000000 
-0.979718 0.874085 1.563032 3.058991 -62.864302 -11.254652 -8.817616 0.288364 3.713483 13.974852 4.244587 36.115522 -6.040025 -11.090601 -17.964343 0.000000 0.000000 0.000000 -6.692289 4.253629 -25.150171 40.939749 0.733766 62.486331 -20.121394 -44.665157 -0.173301 0.000000 0.000000 0.000000 -7.178147 5.899907 28.332951 -0.138689 1.373985 5.028699 5.588779 -11.764087 -5.402731 -8.966135 3.562229 -18.617658 0.000000 0.000000 0.000000 -27.257842 7.810377 2.935700 -34.646074 -23.520371 -0.097344 65.139749 -70.314880 -34.367659 0.000000 0.000000 0.000000 17.200780 5.438948 -7.232544 33.800179 -15.017389 -5.135035 44.781921 46.439985 14.947355 0.000000 0.000000 0.000000 
-1.076865 0.878617 1.623024 -2.673253 -62.795072 -6.295092 -5.579277 1.594244 8.938320 15.057995 3.534559 36.420142 -9.018835 -16.400959 0.009762 0.000000 0.000000 0.000000 -7.272274 5.563857 -29.472756 38.403328 1.075949 55.636653 -20.579634 -43.791230 3.756718 0.000000 0.000000 0.000000 -5.371459 4.982464 27.964265 -1.425489 1.968367 4.659824 7.337823 -13.371512 -5.878665 -10.065034 4.636567 -15.997407 0.000000 0.000000 0.000000 -25.111748 7.843659 2.951112 -37.894161 -24.106919 0.790898 85.560893 -75.137891 -53.461123 0.000000 0.000000 0.000000 16.143330 3.932080 -7.684738 32.750651 -17.135163 -5.719178 45.445570 47.208774 15.432318 0.000000 0.000000 0.000000 
-1.178498 0.898730 1.691585 -8.205951 -62.474698 -0.837658 -4.391987 3.025882 13.856427 17.172734 2.338845 36.258082 -11.219471 -16.349088 16.557299 0.000000 0.000000 0.000000 -5.842988 5.941840 -30.105640 31.655110 2.667793 48.673020 -15.583394 -34.402872 0.758517 0.000000 0.000000 0.000000 -2.517316 2.922203 24.578009 -1.497340 3.128579 7.802893 8.474132 -14.054626 -9.016294 -9.072500 4.970638 -12.698587 0.000000 0.000000 0.000000 -24.222153 8.882410 1.770253 -42.537815 -17.814950 -0.149398 108.074263 -80.677513 -79.930454 0.000000 0.000000 0.000000 14.640597 1.629591 -7.554033 32.208769 -15.266114 -5.356393 45.903124 48.295928 16.243372 0.000000 0.000000 0.000000 
-1.282535 0.923736 1.764166 -11.072073 -63.423762 2.231102 -3.570197 3.104432 14.147005 17.323033 4.436761 41.839019 -14.288167 -14.603267 30.709504 0.000000 0.000000 0.000000 -5.255588 5.035200 -27.159771 23.315441 3.236059 34.798466 -9.583825 -21.600649 2.957489 0.000000 0.000000 0.000000 -0.966896 1.752585 21.242595 -2.711570 4.428525 8.876972 10.986062 -13.947825 -11.017582 -16.275367 11.094972 -8.723161 0.000000 0.000000 0.000000 -27.685787 12.703629 0.076083 -44.834629 -10.900290 -2.900357 159.223064 -86.265488 -137.646278 0.000000 0.000000 0.000000 11.888579 -0.013800 -6.770553 32.891918 -9.569001 -4.140078 45.200101 48.475934 15.065866 0.000000 0.000000 0.000000 
-1.385634 0.932976 1.835473 -15.080318 -64.551430 4.431902 0.055226 1.538214 7.700050 21.985675 8.808916 58.348486 -18.422249 -14.475458 35.440563 0.000000 0.000000 0.000000 -2.008839 3.200914 -20.382708 15.623986 2.683617 24.162355 -3.092587 -12.839827 8.150025 0.000000 0.000000 0.000000 1.829919 1.129806 20.858143 -5.150273 6.572530 9.864983 12.433542 -12.001708 -12.349099 -17.750197 14.111771 -4.279506 0.000000 0.000000 0.000000 -27.724631 15.103880 -2.385845 -46.126153 -2.921946 -5.272321 -85.579090 -83.857537 97.660806 0.000000 0.000000 0.000000 10.475696 1.610822 -5.166749 33.498335 -8.057455 -3.848382 50.212609 54.487922 19.853163 0.000000 0.000000 0.000000 
-1.486631 0.912035 1.903397 -11.312557 -62.034946 -2.931869 3.319085 0.939077 -2.252864 28.434102 8.014271 75.052665 -18.307479 -16.470444 27.162132 0.000000 0.000000 0.000000 -2.563511 1.462942 -12.884674 8.793054 3.801769 27.832764 -0.881691 -6.283038 5.046688 0.000000 0.000000 0.000000 -2.117234 2.293154 23.347889 -5.643508 6.999867 10.836859 14.786647 -7.217319 -12.688963 -16.469351 13.138127 -2.791129 0.000000 0.000000 0.000000 -32.601049 14.857627 -3.668811 -42.737204 2.021827 -6.928991 -62.784840 -79.478994 67.121525 0.000000 0.000000 0.000000 11.596991 0.641344 -5.204971 33.973423 -4.768202 -2.753322 51.683872 61.676132 25.412073 0.000000 0.000000 0.000000 
-1.581740 0.881581 1.968650 -10.641519 -59.147617 -9.647410 7.701248 2.499053 -10.917221 28.889835 5.136678 81.281926 -12.618655 -29.095847 -3.086172 0.000000 0.000000 0.000000 -1.284189 0.321211 -2.318585 6.215716 6.872925 37.468667 -6.596895 -5.865236 -7.517475 0.000000 0.000000 0.000000 -2.953583 4.023082 29.500547 -7.303499 6.929031 9.070236 16.244878 -2.124986 -11.468246 -17.132532 13.602817 -2.167454 0.000000 0.000000 0.000000 -32.872913 16.285618 -7.042132 -40.769336 6.244210 -7.548241 -56.101041 -72.607925 52.553652 0.000000 0.000000 0.000000 12.408460 0.318851 -4.839502 34.552991 -1.523448 -1.883418 53.050655 68.563483 31.260972 0.000000 0.000000 0.000000 
-1.667281 0.863066 2.037544 -9.423974 -56.066910 -13.537259 7.924484 4.097199 -21.095790 16.504869 10.261273 73.119323 -2.503908 -26.139366 -28.408370 0.000000 0.000000 0.000000 -3.838332 0.793975 6.566587 9.048838 6.274231 41.037547 -8.589198 -8.725038 -10.691942 0.000000 0.000000 0.000000 -4.502326 4.204472 29.558799 -8.591667 7.135761 7.853517 15.418695 1.198332 -7.671795 -16.406405 12.762874 -3.106812 0.000000 0.000000 0.000000 -34.948313 17.747747 -9.575838 -36.175339 10.344905 -7.886932 -44.574783 -71.576985 40.603713 0.000000 0.000000 0.000000 13.404537 1.777616 -4.100483 35.482311 0.281587 -1.498155 48.339353 69.718796 29.343662 0.000000 0.000000 0.000000 
-1.743675 0.864046 2.116137 -8.882937 -52.589942 -14.245841 4.428791 2.973728 -24.838987 0.525067 9.996633 44.941232 -5.109155 -10.983577 -6.202936 0.000000 0.000000 0.000000 -4.795468 2.334248 17.382963 8.443794 4.593974 38.239611 -7.647279 -7.495322 -10.453201 0.000000 0.000000 0.000000 -5.295830 3.474568 27.122744 -12.113343 9.430610 7.522630 16.549821 5.608552 -9.705502 -16.693100 13.588706 0.954105 0.000000 0.000000 0.000000 -32.964903 17.615238 -10.752110 -33.989542 13.139043 -7.473974 -35.380903 -70.314074 31.512115 0.000000 0.000000 0.000000 12.378961 -0.194169 -3.894658 38.975333 -1.546342 -2.502671 48.286210 66.069085 28.244147 0.000000 0.000000 0.000000 
-1.811384 0.869606 2.206375 -10.821053 -47.841351 -13.904429 -0.070549 0.135137 -19.433516 -4.035436 3.543658 19.159788 -1.863210 -1.231380 21.963871 0.000000 0.000000 0.000000 -6.634025 3.958177 24.496054 11.703255 2.470923 38.169249 0.374826 -2.003946 3.402393 0.000000 0.000000 0.000000 -4.141206 1.988907 23.151840 -10.871434 7.992439 6.646048 14.204944 7.233701 -8.510210 -16.983196 15.434487 6.924239 0.000000 0.000000 0.000000 -30.310304 20.392204 -12.932107 -33.703305 15.991852 -7.770209 -32.664081 -67.373052 27.492451 0.000000 0.000000 0.000000 12.781444 -0.541168 -3.779649 39.603837 -4.399365 -3.694118 49.798500 58.527606 25.983297 0.000000 0.000000 0.000000 
-1.867715 0.870359 2.298478 -11.902893 -42.179662 -15.742368 -5.673945 -1.521319 -11.935986 -2.577700 1.534817 12.465667 0.190471 2.751217 30.919959 0.000000 0.000000 0.000000 -8.355245 3.766577 24.685083 14.211374 2.389333 48.135746 6.089883 -2.054852 21.209181 0.000000 0.000000 0.000000 -3.533188 1.255308 21.374571 -10.943278 7.397229 5.215285 13.504298 7.906252 -5.029125 -16.468835 16.166178 10.576728 0.000000 0.000000 0.000000 -26.766187 19.208767 -11.844753 -37.182714 16.758052 -8.875957 -29.272758 -67.180440 24.820005 0.000000 0.000000 0.000000 16.993631 -1.494787 -4.959952 38.889381 -8.418807 -4.967100 47.054572 57.398007 24.783653 0.000000 0.000000 0.000000 
-1.912151 0.866911 2.378690 -11.548314 -34.866594 -17.986932 -12.073517 -1.543878 -5.055078 -4.344691 2.090979 14.454922 9.247966 15.635862 20.462790 0.000000 0.000000 0.000000 -10.194943 2.317789 18.356473 16.279411 2.452519 62.137063 5.010814 -5.090728 29.114899 0.000000 0.000000 0.000000 -4.517317 0.984793 20.437203 -10.878205 7.586232 6.816652 12.780065 5.939780 -3.899892 -17.761756 15.730269 4.820032 0.000000 0.000000 0.000000 -23.803394 17.744486 -10.538079 -38.840615 12.699217 -8.140166 -25.851472 -65.375000 21.611381 0.000000 0.000000 0.000000 20.560690 -0.202216 -5.077936 39.631350 -9.354238 -5.302994 36.576234 54.192172 17.841513 0.000000 0.000000 0.000000 
-1.944363 0.868452 2.445496 -11.469249 -25.765757 -19.401396 -15.751211 -0.628100 -0.089350 -4.724418 2.210712 18.608798 9.230514 17.805316 13.767914 0.000000 0.000000 0.000000 -9.864152 0.713175 9.832365 15.590049 1.438499 69.686653 -1.916874 -11.763799 21.896384 0.000000 0.000000 0.000000 -5.862418 0.985261 22.014110 -8.300466 5.564223 6.979965 10.114399 3.628475 -3.940562 -16.402123 14.032233 3.128725 0.000000 0.000000 0.000000 -23.483752 14.547658 -8.942234 -39.721070 9.077223 -7.335423 -23.173104 -66.727307 19.878931 0.000000 0.000000 0.000000 23.929842 0.477394 -5.081579 40.017637 -11.627766 -6.165061 30.316609 48.183857 13.140166 0.000000 0.000000 0.000000 
-1.966492 0.874525 2.502532 -12.591110 -15.690264 -19.624855 -16.612935 0.558166 4.680480 -2.966734 1.074545 20.944750 5.675918 12.845856 11.810271 0.000000 0.000000 0.000000 -5.944118 0.049047 -0.593589 9.507986 2.234743 70.845574 -5.000725 -14.368760 10.098557 0.000000 0.000000 0.000000 -5.168125 0.468727 23.765494 -7.260763 4.753262 7.964125 9.565259 0.043333 -4.963613 -17.640146 14.989248 3.139041 0.000000 0.000000 0.000000 -23.563153 10.447464 -6.745223 -40.615075 4.293125 -6.044373 -23.706741 -66.061372 19.757501 0.000000 0.000000 0.000000 24.850043 0.321442 -5.221292 40.997316 -14.008417 -7.129042 25.152154 42.523668 9.496683 0.000000 0.000000 0.000000 
-1.981031 0.883368 2.552870 -14.816844 -4.740211 -20.376588 -15.220496 1.810512 10.592043 -0.860908 -0.355984 21.221578 2.678882 8.833360 11.899394 0.000000 0.000000 0.000000 -1.465833 0.648675 -7.611924 3.798047 0.842803 61.339998 -5.711797 -15.467375 10.268572 0.000000 0.000000 0.000000 -3.885636 -0.374804 25.676423 -4.030299 2.396497 9.062382 7.894449 -2.335994 -5.076575 -16.058885 12.826865 -0.135970 0.000000 0.000000 0.000000 -23.089326 8.444602 -6.092711 -42.100993 -1.829989 -4.131771 -28.292438 -68.322967 23.129198 0.000000 0.000000 0.000000 24.391510 0.350512 -4.302723 41.819336 -15.455851 -8.077879 22.582487 37.952635 7.848661 0.000000 0.000000 0.000000 
-1.990811 0.889791 2.598451 -17.366264 6.189873 -20.429236 -12.821236 2.277510 15.503897 2.102583 -1.762850 20.303697 0.091045 4.994322 10.100850 0.000000 0.000000 0.000000 2.479710 1.659952 -13.509013 -0.892935 -0.013755 47.135473 1.457808 1.829306 3.895078 0.000000 0.000000 0.000000 -3.739025 -1.342900 28.875841 -0.936519 0.244357 6.441468 8.157261 -3.320816 -3.632016 -15.180453 11.781815 -2.624852 0.000000 0.000000 0.000000 -22.179216 5.349756 -4.969412 -43.603899 -8.867083 -1.720809 -30.550368 -69.925201 24.408335 0.000000 0.000000 0.000000 21.299857 -0.990573 -3.426472 45.166936 -14.501831 -9.032880 18.424482 32.999862 5.898231 0.000000 0.000000 0.000000 
-1.993707 0.885351 2.641688 -19.455593 15.131255 -20.986428 -9.408793 1.826571 18.540027 2.735361 -2.404208 21.062922 -2.085218 1.334949 8.419222 0.000000 0.000000 0.000000 5.116745 2.381148 -17.989618 -0.971725 -0.993356 34.252052 9.892112 21.021029 3.659142 0.000000 0.000000 0.000000 -2.848832 -2.658277 31.677892 1.646833 -1.237223 4.657090 6.934692 -3.152884 -1.578091 -15.062209 11.731846 -2.852508 0.000000 0.000000 0.000000 -21.118168 1.126327 -3.531244 -43.474897 -14.075578 0.323616 -32.271852 -74.896632 26.537269 0.000000 0.000000 0.000000 20.985850 -1.716049 -2.572466 44.759824 -13.804925 -9.124595 17.709361 32.262047 5.992432 0.000000 0.000000 0.000000 
-1.986768 0.876734 2.686423 -21.582160 24.139626 -20.293518 -6.592245 0.975087 20.109974 4.139693 -2.807654 19.368477 -4.070951 -0.246603 9.836239 0.000000 0.000000 0.000000 7.309653 2.713029 -22.077506 -1.215747 -1.013551 25.592201 19.100466 29.174328 14.895411 0.000000 0.000000 0.000000 1.065176 -3.993509 29.450884 2.673849 -2.345648 6.691856 6.637386 -4.740765 -3.153374 -15.064089 11.237976 -5.761752 0.000000 0.000000 0.000000 -23.445332 -1.253785 -3.249596 -42.868773 -17.819845 2.008724 -35.432438 -73.125555 27.451241 0.000000 0.000000 0.000000 20.374491 -2.101264 -2.238964 44.930211 -14.161479 -9.185312 15.331821 31.987880 5.428568 0.000000 0.000000 0.000000 
-1.966126 0.864054 2.736544 -22.975901 31.846159 -21.114914 -4.528182 -0.214700 23.925287 2.492203 -2.707912 20.249792 -1.312017 2.224708 6.371086 0.000000 0.000000 0.000000 8.997965 2.682164 -24.617165 -3.580809 -1.906365 31.999927 18.846281 27.871146 15.337576 0.000000 0.000000 0.000000 4.841330 -5.131932 27.627415 3.719385 -3.469298 7.812560 5.556159 -6.252837 -4.545651 -15.898318 11.835402 -3.759860 0.000000 0.000000 0.000000 -23.246635 -2.378176 -3.167670 -43.424524 -17.787925 2.279945 -40.336182 -71.638723 29.839165 0.000000 0.000000 0.000000 20.208461 -2.268588 -1.884587 44.292917 -12.226485 -8.350207 12.570883 32.593571 4.915318 0.000000 0.000000 0.000000 
-1.936480 0.861380 2.786354 -23.301957 36.928103 -21.565476 0.115906 -1.414026 21.305286 -5.855000 -2.760369 30.922234 -3.165790 3.323641 12.696321 0.000000 0.000000 0.000000 11.464359 2.856395 -23.180916 -8.211078 -1.725451 37.222959 13.138628 23.192168 7.908504 0.000000 0.000000 0.000000 7.491042 -5.374392 25.042718 4.531842 -5.072520 10.633481 5.370991 -3.570453 -8.931957 -15.846285 11.415675 -0.074260 0.000000 0.000000 0.000000 -26.654192 -2.242572 -5.186054 -43.031515 -11.759218 0.993294 -46.132617 -63.770873 28.654073 0.000000 0.000000 0.000000 19.006569 -1.734728 -0.895542 43.904576 -11.614588 -7.742491 10.756298 31.698643 4.442591 0.000000 0.000000 0.000000 
-1.905504 0.871433 2.826290 -24.759350 43.341201 -23.823071 6.541457 -2.200591 13.361498 -19.191557 -2.473511 46.506937 1.118328 12.146849 22.655378 0.000000 0.000000 0.000000 11.109431 2.454064 -19.025550 -9.605179 -2.647787 37.473181 11.146883 20.013975 7.353802 0.000000 0.000000 0.000000 9.167116 -6.090566 24.481419 4.751148 -5.509640 10.431896 4.503495 -0.313857 -10.275122 -15.299934 10.477255 3.892755 0.000000 0.000000 0.000000 -26.692847 -0.858944 -7.858224 -43.920537 -5.511316 -0.646374 -49.660173 -55.522196 24.928179 0.000000 0.000000 0.000000 19.957870 -1.582942 0.535135 42.931347 -9.119133 -7.003634 8.914468 33.119383 4.536296 0.000000 0.000000 0.000000 
-1.874631 0.889347 2.855998 -23.530671 48.817159 -24.274088 10.966347 -2.035761 3.624357 -33.711608 0.411377 52.913824 9.968338 21.548201 32.809511 0.000000 0.000000 0.000000 8.722787 1.798606 -11.800222 -7.594571 -3.708427 33.855661 6.188221 12.487181 3.156993 0.000000 0.000000 0.000000 7.690129 -6.420135 25.718743 4.272286 -4.890915 8.968979 3.264160 4.094798 -10.072833 -11.646316 7.259788 3.768904 0.000000 0.000000 0.000000 -23.797554 -1.705033 -8.553384 -45.913606 1.672999 -3.144381 -45.121616 -52.029960 18.978452 0.000000 0.000000 0.000000 20.674060 -1.696479 2.303015 43.592695 -2.709436 -5.609861 4.863294 34.139927 3.990428 0.000000 0.000000 0.000000 
-1.840500 0.911280 2.879083 -20.945135 53.349128 -22.950528 13.633569 -1.925415 -7.875870 -41.884837 1.470940 52.212279 16.946680 28.178540 30.675780 0.000000 0.000000 0.000000 4.910204 0.816410 -4.845894 -5.050956 -3.699717 28.078588 5.029010 10.102504 5.067683 0.000000 0.000000 0.000000 5.579174 -5.799287 25.274710 3.534784 -5.258753 10.306348 0.048693 8.877736 -12.716177 -8.931048 3.660374 7.036179 0.000000 0.000000 0.000000 -23.097880 -0.042579 -10.790315 -42.049381 7.828175 -4.465749 -45.644103 -46.337698 16.189775 0.000000 0.000000 0.000000 23.242082 -2.642347 3.888324 42.679888 2.069130 -4.568341 2.048012 37.250226 4.042206 0.000000 0.000000 0.000000 
-1.801360 0.927041 2.897494 -18.549660 56.915235 -21.833868 15.586005 -2.543467 -15.595077 -40.602397 -0.217611 43.745591 21.102332 33.640491 19.054330 0.000000 0.000000 0.000000 1.910232 -0.461720 2.605018 -2.059990 -3.300461 21.812921 2.033803 4.461539 7.045810 0.000000 0.000000 0.000000 4.025061 -5.301728 24.813518 2.684516 -4.934488 10.164249 -2.933137 12.901008 -12.661455 -3.835616 -0.303694 5.321595 0.000000 0.000000 0.000000 -21.387130 1.109415 -12.029034 -40.494496 11.100168 -5.383517 -40.314341 -44.578563 12.650379 0.000000 0.000000 0.000000 25.047309 -2.255063 6.638103 40.921325 8.706703 -3.300396 -3.100479 39.352461 2.978006 0.000000 0.000000 0.000000 
-1.755869 0.933919 2.911927 -18.107221 60.026324 -20.833279 18.145838 -3.635080 -21.423779 -30.375752 -2.112757 30.984638 23.235272 35.381968 11.720697 0.000000 0.000000 0.000000 -0.128943 -1.683520 7.953062 -0.233374 -2.995212 17.431484 0.653411 1.945955 8.205977 0.000000 0.000000 0.000000 3.374187 -4.100273 21.515844 2.670222 -5.389128 10.318451 -5.456490 17.112754 -11.160227 -0.349528 -3.449200 5.062219 0.000000 0.000000 0.000000 -20.550569 1.431651 -13.492049 -38.235079 12.211605 -5.336183 -38.549202 -41.110039 10.385866 0.000000 0.000000 0.000000 23.302866 -3.509488 7.457066 41.820558 13.575830 -2.000414 -6.363641 44.694465 3.449290 0.000000 0.000000 0.000000 
-1.702645 0.931440 2.922296 -20.281442 63.301242 -22.453671 20.690879 -4.550598 -24.117108 -19.749282 -1.981336 17.233062 20.204419 30.628206 14.450729 0.000000 0.000000 0.000000 -1.911690 -3.100511 12.824555 -0.081826 -2.506541 14.738954 2.376679 5.837361 11.018973 0.000000 0.000000 0.000000 2.484471 -3.474896 19.774612 2.631479 -5.294246 9.460668 -6.124336 21.154146 -9.968594 3.446811 -6.240833 3.676788 0.000000 0.000000 0.000000 -19.991322 -0.643478 -14.119249 -38.499560 14.777026 -6.215937 -32.255122 -39.648112 7.473944 0.000000 0.000000 0.000000 23.091686 -4.934118 8.230722 40.015925 17.600355 -1.095475 -10.302924 48.010375 2.838648 0.000000 0.000000 0.000000 
-1.639377 0.922393 2.927644 -21.625816 65.305638 -24.600180 21.609146 -4.867637 -24.275001 -10.985877 -1.150189 8.532842 11.826919 24.543092 24.445409 0.000000 0.000000 0.000000 -3.638785 -4.738008 17.573702 -0.890510 -2.186536 14.544983 2.629115 6.754452 14.959571 0.000000 0.000000 0.000000 0.771684 -2.856082 18.551642 3.137190 -5.248453 8.260585 -4.502243 22.682439 -7.628336 3.770662 -4.667672 0.245165 0.000000 0.000000 0.000000 -19.146858 1.466476 -15.271538 -39.730453 15.160842 -7.118084 -28.245570 -34.964758 5.068122 0.000000 0.000000 0.000000 22.140388 -4.250620 9.442120 38.095081 21.334906 -0.424397 -16.466805 48.719351 0.730095 0.000000 0.000000 0.000000 
-1.564210 0.914316 2.928017 -21.341112 67.510032 -25.454095 19.653504 -4.680052 -23.744643 -9.233417 -1.126248 9.062559 7.174969 21.997424 28.761849 0.000000 0.000000 0.000000 -5.873051 -6.992201 23.356273 -3.837995 -1.213134 15.176869 3.177670 7.933982 17.052279 0.000000 0.000000 0.000000 -0.546896 -2.478290 17.666983 2.931767 -4.136948 5.819382 -3.653030 25.544125 -4.941624 6.527529 -6.625646 -0.326338 0.000000 0.000000 0.000000 -20.875279 -0.443609 -17.584832 -38.352585 16.657029 -6.756040 -20.418867 -31.410094 2.682724 0.000000 0.000000 0.000000 22.099034 -7.689236 8.110378 39.232397 20.825621 -0.432058 -15.061551 49.330604 1.913179 0.000000 0.000000 0.000000 
-1.480068 0.907832 2.923222 -20.188186 71.206281 -25.262030 14.318912 -4.106960 -22.685327 -10.580668 -2.170335 16.613187 7.493859 19.487586 17.775912 0.000000 0.000000 0.000000 -9.629092 -8.494074 26.466717 -7.524633 -1.055921 19.117819 8.431296 14.297150 25.412488 0.000000 0.000000 0.000000 -2.092794 -1.992450 16.201667 4.135434 -4.822155 5.256149 -5.284133 26.320308 -6.055125 7.083946 -8.031475 0.452767 0.000000 0.000000 0.000000 -18.593656 -0.494009 -16.575319 -40.875632 16.738493 -8.042072 -16.155486 -27.771196 1.166420 0.000000 0.000000 0.000000 21.814624 -9.834370 7.023152 41.683343 16.226227 -1.284655 -6.887338 48.751836 5.274543 0.000000 0.000000 0.000000 
-1.398713 0.905726 2.916046 -18.743015 74.969546 -24.664001 9.160402 -3.629758 -21.452189 -10.125328 -3.970919 23.981771 5.918185 14.367405 10.061738 0.000000 0.000000 0.000000 -9.672814 -7.988900 24.191223 -14.464051 -2.410308 28.477360 15.207266 16.790596 37.780472 0.000000 0.000000 0.000000 -2.681525 -1.908721 15.959993 3.987902 -3.799520 2.639921 -5.214486 24.866362 -5.185655 6.508011 -7.284586 -0.276662 0.000000 0.000000 0.000000 -19.538327 -0.686749 -18.024581 -39.279708 16.854389 -7.341096 -14.233826 -25.381486 0.785584 0.000000 0.000000 0.000000 24.035369 -13.056612 6.317659 42.534593 12.112360 -3.283675 0.344391 48.108699 8.439848 0.000000 0.000000 0.000000 
-1.328671 0.908389 2.910108 -17.088987 77.798153 -24.019909 5.308252 -2.617557 -17.850401 -10.604988 -4.959702 26.720423 6.981232 12.865085 6.496761 0.000000 0.000000 0.000000 -7.403195 -5.644785 17.411430 -24.101232 -5.975124 42.723990 21.985286 18.613372 43.408579 0.000000 0.000000 0.000000 -2.365985 -2.295123 17.331982 3.077123 -4.045463 3.859337 -6.160926 22.693703 -7.368668 4.590713 -7.760376 2.443206 0.000000 0.000000 0.000000 -19.868112 -2.216491 -16.878688 -40.592477 13.597200 -6.265589 -11.854269 -23.622552 0.371014 0.000000 0.000000 0.000000 24.528497 -12.815390 5.910052 45.633022 9.385306 -3.609693 0.506507 44.623430 7.097279 0.000000 0.000000 0.000000 
-1.267117 0.919133 2.907117 -19.727554 81.049052 -27.850750 2.360250 -1.149307 -10.932367 -8.876997 -4.757007 24.699748 7.663558 9.373928 2.509402 0.000000 0.000000 0.000000 -2.997930 -2.930437 9.309824 -33.586587 -9.496100 55.418269 23.342252 21.774212 38.684720 0.000000 0.000000 0.000000 -2.145360 -2.685880 18.509057 3.476265 -4.757358 4.371612 -6.992349 19.238240 -7.627825 3.771650 -6.682606 1.917528 0.000000 0.000000 0.000000 -18.322614 -1.816558 -14.866809 -41.926974 9.759067 -5.651507 -12.242804 -24.033579 0.459163 0.000000 0.000000 0.000000 26.579809 -12.831760 6.295034 46.481807 8.426791 -4.535411 2.643244 38.522620 5.927620 0.000000 0.000000 0.000000 
-1.210070 0.932988 2.906593 -31.657197 83.129710 -40.733475 1.941370 -0.589913 -3.541125 -6.921526 -3.416356 19.379036 6.156619 6.887295 3.125770 0.000000 0.000000 0.000000 1.070332 -0.853510 1.501910 -35.639826 -11.994590 60.158964 20.177398 24.709677 26.081149 0.000000 0.000000 0.000000 -2.206540 -3.485077 20.757371 3.677086 -3.084221 0.634995 -4.800758 15.465762 -4.621850 2.244036 -5.411184 2.336793 0.000000 0.000000 0.000000 -17.998125 -2.454543 -14.264368 -42.529275 7.674458 -5.134454 -14.246677 -24.594901 0.861464 0.000000 0.000000 0.000000 25.875134 -12.928183 5.516216 48.132554 5.189166 -5.504565 3.458221 37.792236 5.923814 0.000000 0.000000 0.000000 
-1.155409 0.944673 2.906574 -53.587137 84.218817 -63.925505 2.354295 -1.233697 3.391094 -4.101731 -2.181463 14.271831 0.546332 2.979059 6.214016 0.000000 0.000000 0.000000 3.002702 -0.152804 -7.947542 -30.718246 -14.860843 59.805504 12.958417 19.179020 17.448160 0.000000 0.000000 0.000000 -1.577095 -4.425454 22.730919 5.147798 -3.427322 -0.150885 -5.171594 13.560220 -4.800497 2.393404 -6.186332 3.593099 0.000000 0.000000 0.000000 -15.429762 -1.587722 -12.258598 -44.575463 4.804197 -5.268003 -15.972026 -27.033572 1.051930 0.000000 0.000000 0.000000 24.573549 -12.784217 4.651059 48.732761 2.919503 -5.819144 5.399899 34.361258 5.556776 0.000000 0.000000 0.000000 
-1.101110 0.949285 2.907005 -66.212032 83.551151 -77.138768 2.872023 -2.751178 9.576107 -2.505735 -1.377694 10.668499 -1.552734 1.215223 6.728730 0.000000 0.000000 0.000000 5.394616 -0.244013 -14.243647 -18.694644 -14.614498 48.242927 10.243720 17.013429 4.929323 0.000000 0.000000 0.000000 -0.774505 -5.082475 23.721316 4.852749 -2.843069 -0.947430 -3.307882 12.177299 -3.265726 2.523775 -4.465673 1.313515 0.000000 0.000000 0.000000 -15.065980 -1.855877 -11.938043 -44.650034 3.472983 -4.742808 -16.263211 -29.476932 1.093409 0.000000 0.000000 0.000000 22.434772 -12.316446 3.842279 49.795014 0.612300 -6.069657 5.383121 34.311049 5.560859 0.000000 0.000000 0.000000 
-1.045599 0.948122 2.907587 -83.370551 83.522560 -95.478628 2.575643 -4.944725 15.716169 -2.420181 -0.968491 8.328757 -1.550074 1.624608 7.160380 0.000000 0.000000 0.000000 7.034436 -0.559635 -17.554574 -6.402189 -10.958526 32.029745 8.315546 12.632563 7.562673 0.000000 0.000000 0.000000 0.425394 -6.595851 26.008503 4.985405 -2.206793 -2.392203 -4.351746 11.770741 -2.968191 5.397947 -6.000939 0.213213 0.000000 0.000000 0.000000 -13.136839 -3.089672 -10.257551 -44.807373 1.473489 -4.352757 -17.984178 -31.608710 1.285687 0.000000 0.000000 0.000000 22.317202 -13.502618 2.986115 49.956784 -0.432439 -6.267710 4.404977 33.847300 5.310403 0.000000 0.000000 0.000000 
-0.987199 0.942001 2.907847 -88.764313 83.147007 -101.832374 2.056084 -7.301227 21.331964 -4.053570 -0.776573 6.771501 1.187314 5.271650 8.510282 0.000000 0.000000 0.000000 6.736521 -0.747388 -17.959594 1.838772 -7.284437 18.560884 6.541701 10.515425 23.449777 0.000000 0.000000 0.000000 2.209121 -6.617604 25.182049 3.493738 -2.247695 -0.753612 -3.179104 11.526802 -3.465749 5.308066 -5.580555 0.042553 0.000000 0.000000 0.000000 -14.768955 -3.566801 -11.049704 -43.357127 2.004351 -3.767841 -17.289541 -32.408949 1.370367 0.000000 0.000000 0.000000 21.018218 -13.185165 2.271623 50.648609 -2.391708 -6.365139 4.382932 33.233612 5.119211 0.000000 0.000000 0.000000 
-0.925272 0.933805 2.906968 -98.767380 83.670564 -112.353239 0.538931 -9.031215 25.492646 -5.621915 -0.857991 7.960651 2.569125 7.075177 9.372678 0.000000 0.000000 0.000000 7.586228 -0.370216 -16.996581 4.832706 -5.261079 10.476580 2.157755 4.776624 43.401359 0.000000 0.000000 0.000000 3.784960 -6.654895 24.290516 3.081650 -1.563600 -2.099947 -3.871951 8.528048 -2.237218 4.875804 -5.678283 1.348068 0.000000 0.000000 0.000000 -16.687696 -4.008781 -12.105425 -42.637484 3.700327 -3.830557 -15.069134 -33.760442 1.065037 0.000000 0.000000 0.000000 21.659212 -13.242719 2.295116 49.362826 -2.570093 -6.708483 2.547482 31.695098 4.209781 0.000000 0.000000 0.000000 
-0.859059 0.926376 2.905432 -108.068839 84.939260 -121.999288 -0.338968 -9.718036 27.418045 -8.280986 -1.237262 11.452459 -0.417360 8.003051 15.140064 0.000000 0.000000 0.000000 9.247003 0.390797 -14.482177 5.394296 -5.616040 10.178967 -13.619584 -8.653007 48.777726 0.000000 0.000000 0.000000 4.543431 -6.220064 23.089574 2.290343 -1.728834 -1.189541 -4.390887 7.463331 -4.635093 5.357054 -6.029275 1.267071 0.000000 0.000000 0.000000 -15.855115 -3.842232 -11.183709 -43.921531 5.425099 -4.911471 -14.991092 -34.043798 1.011559 0.000000 0.000000 0.000000 21.049516 -14.256218 0.933982 48.011632 -4.149324 -6.763383 4.286616 31.431534 4.690958 0.000000 0.000000 0.000000 
-0.793043 0.922329 2.905284 -85.014930 85.633585 -98.574359 3.712784 -9.565464 24.408501 -16.038216 -2.626500 20.749980 -6.643444 7.668080 24.882228 0.000000 0.000000 0.000000 11.891029 0.966571 -13.497737 4.124320 -7.868249 16.486219 -20.729881 -20.333583 36.787716 0.000000 0.000000 0.000000 6.142611 -5.329707 20.639556 2.631440 -2.450236 0.063379 -5.103972 4.841974 -7.091392 0.599158 -4.777869 6.074961 0.000000 0.000000 0.000000 -16.017179 0.235217 -11.727081 -43.266999 9.199102 -6.557406 -18.242781 -33.755127 2.259466 0.000000 0.000000 0.000000 19.552498 -12.376859 1.051662 48.001890 -4.457553 -6.514490 4.101036 29.116497 4.025414 0.000000 0.000000 0.000000 
-0.736633 0.924909 2.906836 -43.427199 83.950535 -57.342817 9.199751 -7.532369 16.453080 -27.734429 -4.677333 36.038767 -7.665492 9.089313 34.776027 0.000000 0.000000 0.000000 14.702472 1.456805 -10.053152 0.807914 -7.699763 20.334825 -17.013916 -21.163429 26.192795 0.000000 0.000000 0.000000 7.267343 -5.017087 19.618139 4.327830 -3.787437 1.701554 -7.999612 5.755880 -7.716925 1.571178 -6.404817 7.480417 0.000000 0.000000 0.000000 -15.740116 0.289001 -11.107719 -44.619657 9.611468 -7.114084 -17.418694 -31.624349 1.950840 0.000000 0.000000 0.000000 21.955083 -11.492317 2.154909 45.592319 -2.192343 -6.162329 3.247749 28.670364 3.562635 0.000000 0.000000 0.000000 
-0.692756 0.929864 2.909433 -23.470292 78.654738 -37.180447 13.562316 -4.915996 5.898189 -35.824377 -4.910602 48.925326 -7.965367 8.742214 41.225563 0.000000 0.000000 0.000000 16.755379 1.282358 -5.875105 -0.319218 -6.907176 21.491462 -11.077180 -17.639168 16.100221 0.000000 0.000000 0.000000 5.806121 -4.872554 20.684363 4.466517 -3.696529 2.210590 -6.170776 8.031941 -8.299933 3.788820 -6.769182 5.186351 0.000000 0.000000 0.000000 -16.656172 -0.628609 -10.958008 -45.110512 10.993008 -7.463051 -16.072589 -28.725805 1.659447 0.000000 0.000000 0.000000 22.280962 -9.667060 3.097865 44.289665 1.638477 -5.195582 3.223491 29.978432 3.690050 0.000000 0.000000 0.000000 
-0.655417 0.939757 2.912381 -11.116279 71.299515 -24.816445 13.458748 -2.832479 -2.168708 -32.002859 -5.130711 50.799338 0.890759 14.720035 31.860869 0.000000 0.000000 0.000000 16.687506 0.355287 -0.649596 -1.461202 -4.132257 18.728695 -6.833461 -10.786655 13.712629 0.000000 0.000000 0.000000 2.981946 -4.124319 21.188796 4.567674 -3.613027 2.645639 -4.807014 9.152695 -8.463716 4.300586 -6.999942 5.108842 0.000000 0.000000 0.000000 -18.018895 -0.914335 -11.028256 -45.953734 13.104218 -8.107889 -14.403877 -26.150992 1.371549 0.000000 0.000000 0.000000 24.135024 -6.625186 5.168673 43.091952 5.588879 -4.512358 1.617433 32.490896 3.518906 0.000000 0.000000 0.000000 
-0.619097 0.949353 2.914242 -4.981114 62.986885 -18.216291 12.081299 -1.862675 -6.117997 -18.026677 -5.790310 42.897295 2.539599 10.357128 10.022544 0.000000 0.000000 0.000000 15.209799 -0.510127 2.987874 -3.096766 -2.109690 17.354986 -2.198713 -2.358084 11.903832 0.000000 0.000000 0.000000 1.741888 -3.028666 19.442587 2.417710 -2.900040 4.565832 -2.104014 9.424822 -8.566106 4.615432 -6.403592 4.373990 0.000000 0.000000 0.000000 -20.669417 -0.380942 -11.728264 -45.418199 14.586867 -8.091491 -13.533901 -25.051076 1.481097 0.000000 0.000000 0.000000 23.664299 -3.159588 6.120399 44.353973 7.356847 -3.664388 0.697360 35.745598 3.581939 0.000000 0.000000 0.000000 
-0.581943 0.954358 2.915824 -1.113856 52.758046 -14.206095 10.660336 -1.302006 -6.414247 -4.691638 -3.899132 28.012450 -2.591921 -2.794075 2.699737 0.000000 0.000000 0.000000 12.212232 -1.397240 6.681727 -4.046815 -0.619597 15.873358 2.244304 5.660974 9.067753 0.000000 0.000000 0.000000 0.496931 -2.216542 18.112242 1.747748 -2.640842 6.077115 -1.227319 10.690603 -8.773775 3.621254 -4.758653 3.142737 0.000000 0.000000 0.000000 -22.197838 -0.736437 -11.393696 -44.569886 15.673033 -8.073593 -12.963314 -23.516670 1.575012 0.000000 0.000000 0.000000 22.130495 -1.486199 5.607801 45.741821 9.762998 -2.226631 1.519524 38.470208 4.186710 0.000000 0.000000 0.000000 
-0.542737 0.952768 2.917840 0.029778 44.271082 -13.458874 8.487346 -0.835877 -5.134681 5.260407 -2.683540 15.532024 -16.592877 -19.544452 12.139652 0.000000 0.000000 0.000000 9.347913 -1.925776 9.201042 -5.321557 0.300883 16.030038 6.211519 13.540173 7.611856 0.000000 0.000000 0.000000 1.090543 -1.975861 17.569010 -0.268462 -1.774376 8.376713 1.408583 9.348263 -9.342401 1.859982 -3.238008 3.982818 0.000000 0.000000 0.000000 -25.422918 0.136852 -11.519380 -43.350720 15.494108 -7.554508 -12.265837 -22.607444 1.785745 0.000000 0.000000 0.000000 20.042594 1.597057 5.232109 46.342932 10.477474 -1.180708 3.126031 38.965829 4.332935 0.000000 0.000000 0.000000 
-0.501198 0.949403 2.920301 1.529107 36.162726 -12.954598 6.326004 -0.493298 -3.197496 7.505555 -2.238061 11.337422 -24.249896 -23.296621 21.955314 0.000000 0.000000 0.000000 5.522653 -2.167222 11.285213 -6.034535 0.871377 17.508444 7.925890 18.153110 4.299806 0.000000 0.000000 0.000000 0.484944 -1.425499 15.946965 -1.100769 -1.410839 10.590373 2.251943 9.165167 -8.988280 1.345326 -2.590125 4.009046 0.000000 0.000000 0.000000 -25.889691 -1.368631 -9.584252 -42.672495 14.579381 -7.228620 -12.601202 -22.272762 2.096735 0.000000 0.000000 0.000000 22.395503 2.294424 4.995544 44.178120 12.813571 -0.450234 1.872256 38.622387 3.482181 0.000000 0.000000 0.000000 
-0.459647 0.944952 2.922069 1.400309 30.188264 -12.854868 5.750501 -0.364060 -2.107273 6.436007 -2.149597 12.134124 -24.208706 -23.193902 22.751760 0.000000 0.000000 0.000000 2.582589 -1.982169 11.602958 -6.125255 1.152857 19.054497 9.167506 21.601014 3.071077 0.000000 0.000000 0.000000 1.513094 -1.271101 14.856300 -1.409419 -1.008173 11.148373 2.945335 6.842663 -8.595301 1.726176 -3.346469 6.665493 0.000000 0.000000 0.000000 -27.188762 -2.351814 -7.978976 -42.035757 13.061321 -6.774240 -12.270288 -22.545121 2.329217 0.000000 0.000000 0.000000 23.688546 2.882488 4.230570 43.105843 12.162587 -0.555763 1.437638 37.949669 2.922857 0.000000 0.000000 0.000000 
-0.421936 0.944118 2.922117 2.351739 24.442961 -12.308288 2.907633 -0.128946 -0.219533 5.889546 -2.341411 14.188572 -17.131689 -19.720935 14.762222 0.000000 0.000000 0.000000 -0.374898 -1.642122 11.195090 -6.332178 1.547003 20.008676 8.671806 20.082495 3.632858 0.000000 0.000000 0.000000 1.682342 -1.152961 14.630231 -2.226964 -0.308072 12.028444 4.266888 5.174992 -8.999379 0.612675 -1.844805 5.714849 0.000000 0.000000 0.000000 -27.551685 -2.165173 -6.617601 -42.430727 9.890363 -6.083385 -11.185906 -23.470874 2.418323 0.000000 0.000000 0.000000 23.966025 3.263006 3.078890 43.417019 10.503896 -0.719380 -0.457051 36.275911 1.847178 0.000000 0.000000 0.000000 
-0.390832 0.945921 2.922704 2.878754 18.586575 -11.233138 0.727575 0.009875 0.699263 4.709055 -2.066901 14.771228 -11.592186 -14.066886 10.642639 0.000000 0.000000 0.000000 -3.280805 -1.086017 8.992525 -4.931867 1.446123 20.892614 8.410091 17.201025 6.607516 0.000000 0.000000 0.000000 1.956374 -1.014069 13.969317 -2.128252 -0.105428 12.661461 4.050934 3.473865 -9.163430 -0.002518 -0.864858 4.473851 0.000000 0.000000 0.000000 -26.653398 -1.044455 -5.667547 -42.767743 6.141365 -5.233420 -10.687189 -23.946967 2.545102 0.000000 0.000000 0.000000 23.970824 4.180250 2.399284 45.149071 8.406441 -1.024714 -2.135967 33.762931 0.922383 0.000000 0.000000 0.000000 
-0.366299 0.949436 2.924605 3.084823 13.534236 -10.600636 -0.949354 0.169480 2.137034 3.474979 -1.501868 13.191844 -7.611157 -7.757522 10.045967 0.000000 0.000000 0.000000 -4.931659 -0.669967 6.381793 -3.084632 1.157576 22.241521 4.721775 7.825357 7.983130 0.000000 0.000000 0.000000 1.711669 -0.940487 14.255975 -2.457301 0.372923 13.198121 4.637506 2.363106 -10.135126 -0.139732 -0.637347 4.885761 0.000000 0.000000 0.000000 -25.560951 -0.939138 -4.435035 -43.246495 3.198393 -4.523077 -8.829756 -25.166764 2.424008 0.000000 0.000000 0.000000 23.289361 4.439631 1.439020 46.720711 5.880684 -1.523733 -0.750117 31.290613 0.956578 0.000000 0.000000 0.000000 
-0.347014 0.952302 2.927578 3.124797 8.667510 -9.802049 -2.129563 0.301626 3.109439 2.976802 -1.196804 11.900119 -5.077189 -4.279706 9.283057 0.000000 0.000000 0.000000 -6.026026 -0.439664 5.182541 -0.823808 0.706208 21.403544 0.435896 -1.363290 6.268281 0.000000 0.000000 0.000000 0.954040 -0.790130 14.262010 -2.543443 0.859531 11.091672 5.167793 1.020391 -8.403045 -0.652184 0.029311 4.395717 0.000000 0.000000 0.000000 -25.300744 -0.258597 -3.738149 -42.187169 1.550343 -4.236858 -7.789594 -26.401639 2.500573 0.000000 0.000000 0.000000 24.510687 3.976721 0.220256 45.626332 3.457248 -2.265757 0.644022 28.337334 1.022489 0.000000 0.000000 0.000000 
-0.332003 0.953379 2.930932 2.641210 4.359871 -8.953444 -1.538085 0.360147 3.683608 1.225984 -0.658775 10.157431 -3.751748 -2.216932 9.618822 0.000000 0.000000 0.000000 -5.767334 -0.304710 4.650788 0.658925 0.413665 18.282578 -2.371875 -7.549765 5.134945 0.000000 0.000000 0.000000 1.144541 -0.697670 13.483577 -4.412537 2.233504 11.871100 6.600039 -0.038047 -9.302271 -0.354486 -0.073370 4.915491 0.000000 0.000000 0.000000 -25.051575 -0.061617 -2.848150 -41.888254 0.140345 -3.937809 -6.751854 -26.774703 2.467221 0.000000 0.000000 0.000000 24.664760 4.082256 -0.821665 46.502024 1.322097 -2.689464 0.651902 25.466021 0.744864 0.000000 0.000000 0.000000 
-0.319984 0.954097 2.933903 2.385604 0.459104 -7.895539 -2.013527 0.334458 3.180091 -0.298629 -0.292203 9.962401 -0.299835 3.259846 9.275763 0.000000 0.000000 0.000000 -5.028991 -0.162929 3.291449 0.552387 0.563632 17.221078 -3.708865 -10.495904 4.571974 0.000000 0.000000 0.000000 0.951198 -0.596386 12.811333 -5.189332 2.837693 8.555651 7.365898 -0.063661 -5.895735 -0.352806 0.110821 3.195957 0.000000 0.000000 0.000000 -25.730097 0.247196 -2.468227 -41.333354 -0.244876 -4.181513 -5.971419 -28.376413 2.567810 0.000000 0.000000 0.000000 25.191377 2.665103 -2.073560 44.815901 0.640862 -2.962010 0.567929 24.544083 0.674859 0.000000 0.000000 0.000000 
-0.310329 0.954995 2.936922 1.885162 -2.901593 -7.363962 -1.367336 0.271260 2.638321 -1.211303 -0.046908 9.748679 0.122274 3.845338 9.819468 0.000000 0.000000 0.000000 -4.273205 -0.124704 3.132268 0.686886 0.552025 15.203271 -3.854530 -10.700184 3.849070 0.000000 0.000000 0.000000 0.755166 -0.483750 11.429951 -6.147069 3.658076 10.483610 8.999163 -0.260000 -7.383209 -0.699312 0.476920 3.375902 0.000000 0.000000 0.000000 -25.469755 1.376956 -2.515562 -41.944184 -0.040030 -4.364027 -3.763980 -28.947551 2.173473 0.000000 0.000000 0.000000 23.080879 1.953771 -2.911200 46.559814 -0.957748 -3.398688 -1.936595 23.534980 0.048549 0.000000 0.000000 0.000000 
-0.302565 0.956026 2.939847 1.594150 -4.737597 -6.235829 -2.960881 0.266662 2.375088 -0.207485 -0.205579 8.888216 1.795588 6.421738 9.308303 0.000000 0.000000 0.000000 -4.171949 -0.076128 2.837548 0.598839 0.451284 11.906119 -2.714479 -9.110319 6.441038 0.000000 0.000000 0.000000 1.196004 -0.440716 9.756190 -6.025770 3.558434 9.117706 7.772609 -1.168436 -5.166586 -0.637191 0.455731 3.674263 0.000000 0.000000 0.000000 -24.813173 1.950159 -2.337139 -42.054451 -0.589515 -4.467933 -4.174670 -30.812741 2.568214 0.000000 0.000000 0.000000 24.455929 1.876920 -3.469095 45.197078 -2.655180 -3.935909 -1.200575 24.021500 0.169821 0.000000 0.000000 0.000000 
