HIERARCHY
ROOT Hips
{
	OFFSET -0.001795 -0.223333 0.028219
	CHANNELS 6 Xposition Yposition Zposition Zrotation Yrotation Xrotation 
	JOINT LeftUpLeg
	{
		OFFSET 0.069520 -0.091406 -0.006815
		CHANNELS 3 Zrotation Yrotation Xrotation
		JOINT LeftLeg
		{
			OFFSET 0.034277 -0.375199 -0.004496
			CHANNELS 3 Zrotation Yrotation Xrotation
			JOINT LeftFoot
			{
				OFFSET -0.013596 -0.397961 -0.043693
				CHANNELS 3 Zrotation Yrotation Xrotation
				JOINT LeftToe
				{
					OFFSET 0.026358 -0.055791 0.119288
					CHANNELS 3 Zrotation Yrotation Xrotation
					End Site
					{
						OFFSET 0.000000 0.000000 0.000000
					}
				}
			}
		}
	}
	JOINT RightUpLeg
	{
		OFFSET -0.067670 -0.090522 -0.004320
		CHANNELS 3 Zrotation Yrotation Xrotation
		JOINT RightLeg
		{
			OFFSET -0.038290 -0.382569 -0.008850
			CHANNELS 3 Zrotation Yrotation Xrotation
			JOINT RightFoot
			{
				OFFSET 0.015774 -0.398415 -0.042312
				CHANNELS 3 Zrotation Yrotation Xrotation
				JOINT RightToe
				{
					OFFSET -0.025372 -0.048144 0.123348
					CHANNELS 3 Zrotation Yrotation Xrotation
					End Site
					{
						OFFSET 0.000000 0.000000 0.000000
					}
				}
			}
		}
	}
	JOINT Spine
	{
		OFFSET -0.002533 0.108963 -0.026696
		CHANNELS 3 Zrotation Yrotation Xrotation
		JOINT Spine1
		{
			OFFSET 0.005487 0.135180 0.001092
			CHANNELS 3 Zrotation Yrotation Xrotation
			JOINT Spine2
			{
				OFFSET 0.001457 0.052922 0.025425
				CHANNELS 3 Zrotation Yrotation Xrotation
				JOINT Neck
				{
					OFFSET -0.002778 0.213870 -0.042857
					CHANNELS 3 Zrotation Yrotation Xrotation
					JOINT Head
					{
						OFFSET 0.005152 0.064970 0.051349
						CHANNELS 3 Zrotation Yrotation Xrotation
						End Site
						{
							OFFSET 0.000000 0.000000 0.000000
						}
					}
				}
				JOINT LeftShoulder
				{
					OFFSET 0.078845 0.121749 -0.034090
					CHANNELS 3 Zrotation Yrotation Xrotation
					JOINT LeftArm
					{
						OFFSET 0.090977 0.030469 -0.008868
						CHANNELS 3 Zrotation Yrotation Xrotation
						JOINT LeftForeArm
						{
							OFFSET 0.259612 -0.012772 -0.027456
							CHANNELS 3 Zrotation Yrotation Xrotation
							JOINT LeftHand
							{
								OFFSET 0.249234 0.008986 -0.001171
								CHANNELS 3 Zrotation Yrotation Xrotation
								End Site
								{
									OFFSET 0.000000 0.000000 0.000000
								}
							}
						}
					}
				}
				JOINT RightShoulder
				{
					OFFSET -0.081759 0.118833 -0.038615
					CHANNELS 3 Zrotation Yrotation Xrotation
					JOINT RightArm
					{
						OFFSET -0.096012 0.032551 -0.009143
						CHANNELS 3 Zrotation Yrotation Xrotation
						JOINT RightForeArm
						{
							OFFSET -0.253742 -0.013329 -0.021401
							CHANNELS 3 Zrotation Yrotation Xrotation
							JOINT RightHand
							{
								OFFSET -0.255298 0.007772 -0.005559
								CHANNELS 3 Zrotation Yrotation Xrotation
								End Site
								{
									OFFSET 0.000000 0.000000 0.000000
								}
							}
						}
					}
				}
			}
		}
	}
}
MOTION
Frames: 96
Frame Time: 0.050000
0.000000 0.960874 0.000000 -1.679643 10.124492 0.158537 4.213200 0.094055 6.340450 -3.204937 0.272662 -7.889324 3.494264 11.108733 11.934131 0.000000 0.000000 0.000000 0.791348 -0.300469 2.525346 1.563289 -0.236854 -1.552898 -1.630683 -6.572434 10.913387 0.000000 0.000000 0.000000 -0.533685 -0.154804 4.179281 3.986839 -0.174784 -24.469892 -2.077707 -5.618070 29.791480 1.180052 0.989454 -26.762151 0.000000 0.000000 0.000000 -27.479095 0.987173 -2.709914 -52.642023 -3.835043 -7.115279 -13.865909 -23.083936 4.030761 0.000000 0.000000 0.000000 18.071193 1.953545 0.484044 58.581213 4.337121 -6.438718 9.396088 27.254655 3.563605 0.000000 0.000000 0.000000 
0.000378 0.960068 0.000528 -1.869349 10.176585 0.814636 4.108970 0.081931 5.908047 -2.307531 0.256281 -8.574854 4.271389 12.314493 12.084396 0.000000 0.000000 0.000000 0.363264 -0.193219 1.705329 2.434482 -0.330746 -1.058052 -1.425469 -5.948930 9.882471 0.000000 0.000000 0.000000 -0.051245 -0.132656 3.223218 3.766373 -0.120460 -24.405359 -2.570747 -5.804324 30.073866 1.736454 0.668137 -27.100107 0.000000 0.000000 0.000000 -27.156679 1.916798 -3.225342 -52.888997 -3.691908 -7.233608 -14.257951 -23.319118 4.173168 0.000000 0.000000 0.000000 17.902664 2.011355 0.493515 59.792082 3.953794 -6.730098 8.497460 28.358270 3.536717 0.000000 0.000000 0.000000 
0.000703 0.959590 0.000926 -1.702355 9.492701 1.041452 3.874646 0.106754 5.684768 -2.394412 0.266070 -8.034681 4.461196 12.593148 12.277205 0.000000 0.000000 0.000000 0.381537 -0.185988 1.643364 1.952448 -0.273459 -1.278093 -1.252095 -5.691002 9.979544 0.000000 0.000000 0.000000 0.069953 -0.133457 3.141986 3.824758 -0.131501 -24.724188 -2.624222 -5.671942 30.431028 0.831506 1.152282 -27.368229 0.000000 0.000000 0.000000 -27.280581 1.788549 -3.005948 -52.608217 -3.524885 -7.341253 -14.085810 -23.469470 4.187980 0.000000 0.000000 0.000000 17.495618 2.318411 0.583288 60.049774 4.151556 -6.659677 8.461141 28.324613 3.495717 0.000000 0.000000 0.000000 
0.001047 0.959762 0.001447 -1.937020 9.650750 0.887734 3.811948 0.123400 6.070906 -1.943091 0.257364 -8.279308 5.226970 13.747382 12.374926 0.000000 0.000000 0.000000 0.463178 -0.173411 1.515347 2.318472 -0.311639 -0.922341 -0.747770 -4.664201 10.095650 0.000000 0.000000 0.000000 0.335812 -0.157194 3.418172 4.160196 -0.192102 -25.258404 -2.993055 -5.823677 30.841168 1.286447 0.857855 -27.096906 0.000000 0.000000 0.000000 -27.962838 2.231599 -3.357426 -52.228064 -2.917212 -7.571162 -14.884489 -23.624692 4.397086 0.000000 0.000000 0.000000 17.136139 2.647621 0.772872 59.870960 4.278542 -6.619519 9.301415 28.764069 3.768006 0.000000 0.000000 0.000000 
0.001472 0.959856 0.002159 -1.924414 9.570537 0.840285 3.648507 0.144320 6.175793 -1.704514 0.254671 -8.242642 5.037642 13.483631 12.464542 0.000000 0.000000 0.000000 0.425847 -0.179570 1.576468 2.188080 -0.293912 -0.838085 -0.765942 -4.598545 9.604833 0.000000 0.000000 0.000000 0.520805 -0.191616 3.951525 4.672635 -0.333909 -24.787597 -3.437686 -5.493136 30.019897 1.450042 0.758681 -26.232996 0.000000 0.000000 0.000000 -27.837018 2.059965 -3.357584 -51.882665 -2.140374 -7.732758 -16.227967 -24.619233 4.875546 0.000000 0.000000 0.000000 17.065388 2.239297 0.583767 59.512773 4.268678 -6.489881 9.908158 29.306934 4.006323 0.000000 0.000000 0.000000 
0.002067 0.959796 0.003182 -1.883270 9.503625 0.699448 3.579140 0.165873 6.510105 -1.447536 0.252873 -8.443464 5.177209 13.733763 12.719133 0.000000 0.000000 0.000000 0.315547 -0.223796 1.986769 2.236608 -0.299919 -0.860810 -0.552682 -4.177802 9.642495 0.000000 0.000000 0.000000 0.369636 -0.189665 4.058530 4.775239 -0.354770 -24.908283 -3.499191 -5.625587 30.430321 1.502709 0.684551 -26.156788 0.000000 0.000000 0.000000 -27.974676 2.172513 -3.363258 -51.561686 -1.900456 -7.844768 -17.144889 -25.319690 5.255566 0.000000 0.000000 0.000000 16.833833 2.412595 0.651600 59.452563 4.134490 -6.597318 10.103848 29.953869 4.159088 0.000000 0.000000 0.000000 
0.002786 0.959791 0.004494 -1.810828 9.585472 0.695362 3.541479 0.171268 6.589328 -1.538141 0.254197 -8.607240 5.095773 13.686440 13.048066 0.000000 0.000000 0.000000 0.275549 -0.231392 2.061779 2.091829 -0.279407 -0.686380 -0.401648 -3.766696 9.286824 0.000000 0.000000 0.000000 0.339070 -0.195442 4.204155 4.824729 -0.380585 -24.584954 -3.740338 -5.786047 30.402984 1.716119 0.537016 -26.172440 0.000000 0.000000 0.000000 -27.980606 2.127178 -3.281899 -51.332659 -1.597480 -7.951551 -17.590674 -26.333545 5.602504 0.000000 0.000000 0.000000 16.692523 2.349309 0.596759 59.430402 4.125569 -6.600495 10.390533 30.572945 4.337842 0.000000 0.000000 0.000000 
0.003653 0.959462 0.005897 -1.878214 9.490991 0.600436 3.435689 0.172606 6.308661 -1.415498 0.247658 -7.767878 5.484012 14.066783 12.154080 0.000000 0.000000 0.000000 0.184887 -0.242975 2.185148 2.208241 -0.286062 -0.247714 -0.436076 -3.763952 8.934221 0.000000 0.000000 0.000000 0.446388 -0.218367 4.552641 4.669964 -0.357177 -24.345450 -3.764403 -5.699953 30.528321 1.807535 0.463353 -25.919701 0.000000 0.000000 0.000000 -27.813418 2.178136 -3.292027 -50.832850 -1.460464 -7.951832 -18.681667 -27.620786 6.177939 0.000000 0.000000 0.000000 16.496955 2.238091 0.551545 59.178802 4.281860 -6.523340 10.948210 30.902871 4.547012 0.000000 0.000000 0.000000 
0.004641 0.959217 0.007441 -1.913874 9.584109 0.561119 3.457909 0.151099 5.850736 -1.498301 0.241736 -6.909207 5.281616 13.602960 11.310748 0.000000 0.000000 0.000000 0.289410 -0.271112 2.404390 2.009205 -0.261184 -0.246169 -0.413834 -3.569507 8.392397 0.000000 0.000000 0.000000 0.446475 -0.236619 4.899861 4.583908 -0.343493 -24.157377 -3.655862 -5.309661 30.511856 1.901686 0.457373 -25.595135 0.000000 0.000000 0.000000 -27.307879 2.041406 -3.300113 -50.887337 -1.476275 -7.925067 -18.941690 -28.009682 6.310723 0.000000 0.000000 0.000000 16.645516 2.312846 0.689595 58.687338 4.147537 -6.557760 10.843116 31.165382 4.587486 0.000000 0.000000 0.000000 
0.005999 0.958774 0.009217 -1.897650 9.674882 0.737626 3.364438 0.133546 5.278616 -1.953934 0.244211 -5.481838 5.510770 13.655736 9.927870 0.000000 0.000000 0.000000 0.202518 -0.274722 2.458180 1.879039 -0.241527 -0.073247 -0.453181 -3.478789 7.749281 0.000000 0.000000 0.000000 0.522258 -0.249735 5.063166 4.277452 -0.253012 -24.366321 -3.516266 -5.018337 30.992870 1.723569 0.649198 -26.053934 0.000000 0.000000 0.000000 -26.801223 2.380355 -3.549341 -50.820165 -1.554318 -7.919394 -19.833350 -28.487988 6.660473 0.000000 0.000000 0.000000 16.600912 2.049081 0.650445 58.246901 4.516610 -6.412657 11.120707 31.121847 4.689792 0.000000 0.000000 0.000000 
0.008203 0.958400 0.011718 -1.879117 9.577712 0.791094 3.447224 0.098498 4.573880 -2.546365 0.263615 -4.416225 5.598250 13.585470 8.980972 0.000000 0.000000 0.000000 0.063082 -0.288429 2.617548 1.699186 -0.217897 -0.069467 -0.333930 -3.087435 7.211642 0.000000 0.000000 0.000000 0.340706 -0.261768 5.479998 4.063959 -0.201715 -24.391605 -3.211026 -4.549488 31.120579 1.764183 0.713896 -26.324161 0.000000 0.000000 0.000000 -26.393544 2.556236 -3.735691 -50.754333 -1.677816 -7.858539 -20.119440 -28.872234 6.812771 0.000000 0.000000 0.000000 16.676816 2.007871 0.723367 57.826746 4.429216 -6.449980 11.679043 31.159811 4.871703 0.000000 0.000000 0.000000 
0.011844 0.957825 0.015461 -1.882481 10.156758 0.908592 3.461468 0.059602 3.891688 -3.009232 0.276598 -2.899340 5.648902 13.449287 7.948867 0.000000 0.000000 0.000000 0.067661 -0.315305 2.842010 1.424060 -0.184441 -0.066407 -0.506374 -3.396177 7.153299 0.000000 0.000000 0.000000 0.034366 -0.258351 5.740484 4.148385 -0.206671 -24.579792 -2.977798 -4.984753 31.641364 1.318214 0.986349 -26.780003 0.000000 0.000000 0.000000 -26.361259 3.314392 -4.174269 -50.826483 -1.683984 -7.925181 -20.973749 -29.347297 7.197020 0.000000 0.000000 0.000000 16.493799 1.955655 0.705032 57.486618 4.403096 -6.494928 12.155227 31.818255 5.136712 0.000000 0.000000 0.000000 
0.017281 0.956653 0.020899 -1.923700 10.501130 0.885523 2.932554 0.067996 3.335072 -2.959213 0.264593 -1.655210 5.992070 13.719837 6.718010 0.000000 0.000000 0.000000 -0.080701 -0.340970 3.099958 1.031099 -0.129024 0.161109 -0.341367 -2.759218 6.233186 0.000000 0.000000 0.000000 -0.419467 -0.258112 6.278660 4.373041 -0.249684 -24.760404 -2.618629 -4.984598 31.963723 1.296422 1.039254 -26.936705 0.000000 0.000000 0.000000 -26.288726 3.657617 -4.443270 -50.682652 -1.656043 -7.942065 -22.133541 -29.518844 7.563248 0.000000 0.000000 0.000000 16.332323 1.923051 0.753139 57.129123 3.845257 -6.769762 13.075456 33.156426 5.694448 0.000000 0.000000 0.000000 
0.024544 0.954909 0.027998 -1.751246 11.093730 1.082926 2.403503 0.073299 2.862514 -2.849468 0.239721 -0.234112 6.097304 13.639468 5.660829 0.000000 0.000000 0.000000 -0.483125 -0.284210 2.693476 1.100177 -0.109321 1.494199 -1.073752 -4.060290 4.922316 0.000000 0.000000 0.000000 -0.786516 -0.248868 6.571302 4.458171 -0.245703 -25.040273 -2.407760 -5.371813 32.274737 0.985877 1.225342 -27.197761 0.000000 0.000000 0.000000 -26.235787 4.239615 -4.789244 -50.786040 -1.271797 -8.152652 -23.338619 -30.414587 8.184078 0.000000 0.000000 0.000000 16.847051 1.753160 0.672477 56.161996 3.469400 -6.919842 14.017238 33.849855 6.120755 0.000000 0.000000 0.000000 
0.033503 0.952634 0.036623 -1.624399 11.588296 1.407729 1.847405 0.085117 2.525027 -2.683607 0.212636 0.539853 6.109695 13.365043 4.535877 0.000000 0.000000 0.000000 -0.921167 -0.150503 1.532449 1.327296 -0.100214 4.458724 -1.520993 -4.794655 3.609754 0.000000 0.000000 0.000000 -1.090545 -0.238812 6.780765 4.596101 -0.273536 -24.987717 -2.299120 -5.627558 32.230878 1.186274 1.088870 -26.823454 0.000000 0.000000 0.000000 -26.081894 4.472873 -4.940193 -50.865472 -1.120902 -8.215483 -23.688379 -31.197101 8.512226 0.000000 0.000000 0.000000 16.688276 1.528217 0.571940 56.171604 2.304802 -7.439043 14.757000 35.025128 6.623496 0.000000 0.000000 0.000000 
0.043720 0.949815 0.046588 -1.390299 12.912695 1.221343 1.215217 0.158199 3.196146 -2.528055 0.163932 2.053629 5.986807 12.449012 2.290042 0.000000 0.000000 0.000000 -0.888895 0.077748 -0.763846 1.254841 -0.092461 10.344527 -2.170378 -5.931154 1.441080 0.000000 0.000000 0.000000 -1.208394 -0.296753 8.075026 4.537915 -0.243876 -24.953196 -2.516777 -6.258587 32.177035 0.944204 1.351487 -28.201766 0.000000 0.000000 0.000000 -25.528711 4.481439 -4.933910 -51.236498 -1.224599 -8.202183 -25.121569 -32.429343 9.308456 0.000000 0.000000 0.000000 16.511347 0.879369 0.278167 56.368371 1.445914 -7.822312 16.419891 37.109769 7.721063 0.000000 0.000000 0.000000 
0.054314 0.945188 0.057885 -1.245816 14.391472 0.406050 1.154257 0.205554 4.123995 -3.023955 0.167627 3.722390 5.968121 11.682349 0.369866 0.000000 0.000000 0.000000 -0.660803 0.342487 -3.557910 0.997101 -0.246050 18.545830 -2.899725 -7.833280 2.545944 0.000000 0.000000 0.000000 -1.789698 -0.347650 9.786044 5.244846 -0.428798 -24.257547 -3.061156 -6.688908 31.964587 0.485481 1.664996 -27.904745 0.000000 0.000000 0.000000 -25.686988 4.525792 -5.140343 -50.799819 -1.955188 -7.773529 -25.751171 -35.178029 10.317443 0.000000 0.000000 0.000000 16.330807 0.782733 0.330722 56.563277 0.982135 -8.039522 19.127922 39.831772 9.521198 0.000000 0.000000 0.000000 
0.064346 0.941101 0.071009 -0.972934 15.986504 -0.259587 0.649860 0.299355 5.364798 -2.903136 0.100642 5.281008 5.542251 9.873886 -1.863991 0.000000 0.000000 0.000000 -1.467888 0.745013 -9.644471 2.007101 -1.742533 33.129619 -3.878295 -10.164216 3.950641 0.000000 0.000000 0.000000 -2.379805 -0.445544 12.263885 4.981361 -0.308080 -25.024286 -3.198798 -8.931000 33.086007 0.052486 1.744618 -29.635599 0.000000 0.000000 0.000000 -26.609280 4.295434 -4.622772 -48.744745 -4.113750 -6.894262 -27.445238 -39.702108 12.629442 0.000000 0.000000 0.000000 15.920974 0.078754 -0.274421 55.486646 0.170891 -8.404152 24.211524 43.132211 12.450736 0.000000 0.000000 0.000000 
0.073544 0.937803 0.088131 -1.086912 17.107017 -0.809672 0.905052 0.377879 8.071321 -3.047967 0.139932 4.134304 5.405346 9.183612 -2.497748 0.000000 0.000000 0.000000 -2.036952 0.980471 -17.004517 3.276476 -4.179560 45.799214 -5.475566 -13.712941 6.865718 0.000000 0.000000 0.000000 -2.813762 -0.540931 14.238500 5.943377 -0.539383 -25.014301 -4.369594 -10.463320 32.774780 -0.300572 1.733438 -29.092694 0.000000 0.000000 0.000000 -26.041223 4.246305 -4.163021 -48.123994 -6.288419 -6.042378 -29.715839 -45.808536 16.017879 0.000000 0.000000 0.000000 15.278334 -0.607724 -0.846254 55.793490 -1.436531 -9.046054 30.582548 45.800002 16.053972 0.000000 0.000000 0.000000 
0.082270 0.933329 0.110169 -1.321730 17.615605 -0.877489 0.919569 0.430908 10.116388 -2.701202 0.113229 3.736985 5.284518 8.002209 -4.281741 0.000000 0.000000 0.000000 -2.156791 1.037168 -24.450156 3.801286 -5.457101 51.746910 -4.881601 -12.413287 6.647286 0.000000 0.000000 0.000000 -2.435491 -0.752012 16.366053 6.240905 -0.574569 -25.707865 -5.109753 -12.569462 33.165084 -1.161824 1.857959 -29.185925 0.000000 0.000000 0.000000 -26.453111 3.613433 -3.093707 -46.449121 -9.684256 -4.900683 -35.268321 -54.374281 23.083527 0.000000 0.000000 0.000000 13.498797 -1.144125 -1.371925 55.658220 -3.407314 -9.927769 40.910419 49.762653 22.529601 0.000000 0.000000 0.000000 
0.091180 0.927612 0.137779 -1.795262 17.509189 -0.513659 1.262957 0.434457 12.465062 -2.453196 0.138193 1.900886 4.992649 7.311666 -4.430977 0.000000 0.000000 0.000000 -2.132529 0.999206 -30.408159 5.070515 -5.718791 49.930251 -5.534980 -13.563471 4.310589 0.000000 0.000000 0.000000 -1.716136 -0.929790 17.289949 7.042665 -0.784214 -25.277205 -6.113485 -14.074794 33.301687 -2.232107 2.184721 -30.026299 0.000000 0.000000 0.000000 -26.616720 3.188887 -2.222859 -45.323373 -12.743630 -3.928131 -44.984180 -63.135909 34.734736 0.000000 0.000000 0.000000 12.423036 -1.699358 -1.853042 55.644612 -4.492847 -10.428261 51.481664 52.381105 29.423367 0.000000 0.000000 0.000000 
0.100560 0.922158 0.170774 -2.488980 16.640712 -0.567721 1.057301 0.545317 15.949723 -1.867217 0.132003 0.323139 5.419108 7.782248 -5.365105 0.000000 0.000000 0.000000 -1.981617 1.046114 -34.748356 6.063413 -4.841892 43.332291 -5.116840 -12.611654 5.693899 0.000000 0.000000 0.000000 -0.777070 -1.277467 19.562663 7.992957 -0.981120 -26.133838 -6.467069 -14.841327 33.692531 -3.447564 2.615920 -30.496192 0.000000 0.000000 0.000000 -26.497139 3.219427 -1.683738 -44.332461 -17.197620 -2.509185 -61.377891 -70.218769 53.389798 0.000000 0.000000 0.000000 11.167008 -1.954806 -2.076597 54.871248 -5.402796 -10.728320 62.794813 55.711255 38.233527 0.000000 0.000000 0.000000 
0.110303 0.915959 0.209276 -2.667880 16.717597 0.534873 0.911451 0.583371 18.133535 -1.397401 0.140222 -1.723457 6.067935 9.373387 -4.684761 0.000000 0.000000 0.000000 -2.814796 0.669767 -37.702736 7.298773 -4.054923 34.290647 -5.507549 -13.304826 7.143794 0.000000 0.000000 0.000000 0.262371 -1.463703 19.476068 8.149865 -1.058131 -25.285617 -6.637479 -17.461331 33.462887 -4.600149 2.803330 -31.854703 0.000000 0.000000 0.000000 -26.085966 2.648903 -0.396544 -44.290059 -21.230841 -1.282861 -84.667203 -75.857250 81.449217 0.000000 0.000000 0.000000 8.879801 -2.175200 -2.242424 55.385407 -6.591423 -11.453054 76.451473 56.911684 47.630494 0.000000 0.000000 0.000000 
0.120126 0.910169 0.254081 -2.566581 16.619302 2.758484 0.412386 0.707786 20.458571 0.515562 0.108773 -4.641997 5.475994 9.069573 -2.639009 0.000000 0.000000 0.000000 -3.397161 0.384487 -39.817812 6.234938 -2.496831 25.774157 -5.763284 -13.705759 6.847137 0.000000 0.000000 0.000000 1.247624 -1.748255 20.231951 9.700637 -1.315231 -26.501849 -8.235711 -18.269772 33.882084 -3.544788 2.081237 -32.789817 0.000000 0.000000 0.000000 -24.322058 1.959145 0.379102 -44.124528 -24.826085 0.032483 -118.737005 -76.169560 118.760552 0.000000 0.000000 0.000000 10.253050 -2.015356 -2.614236 53.324839 -6.881262 -10.999579 86.337416 58.677866 56.342332 0.000000 0.000000 0.000000 
0.129560 0.905978 0.305620 -2.567791 17.417671 5.041506 0.274645 0.686262 21.647432 2.105182 0.070934 -5.449902 5.731845 10.116817 -0.953338 0.000000 0.000000 0.000000 -3.993051 -0.046584 -41.542747 5.718372 -2.022771 22.526340 -6.387054 -14.870002 6.937645 0.000000 0.000000 0.000000 2.130322 -1.925557 19.758045 11.651763 -1.832682 -25.618531 -8.580198 -19.346314 32.841299 -3.151777 1.843349 -34.567603 0.000000 0.000000 0.000000 -21.533041 1.706871 0.583393 -46.571331 -27.639434 1.750964 -143.028405 -72.703830 146.331789 0.000000 0.000000 0.000000 9.633804 -2.517318 -2.895601 52.508461 -6.803671 -10.640575 96.218743 61.850096 67.766689 0.000000 0.000000 0.000000 
0.138070 0.905202 0.364834 -2.807909 18.069860 7.571057 0.798728 0.506709 21.653788 2.513593 -0.001749 -4.060390 5.180411 10.280794 2.145147 0.000000 0.000000 0.000000 -2.714483 0.165343 -44.384730 4.312285 -1.763786 25.511614 -5.527853 -13.125904 9.461842 0.000000 0.000000 0.000000 4.047449 -2.257493 18.735163 12.278538 -2.060797 -24.478443 -9.046175 -20.969852 31.333879 -2.658679 1.451006 -35.169458 0.000000 0.000000 0.000000 -20.496517 2.246163 0.469254 -47.039911 -27.942431 2.196063 -150.965236 -66.541025 154.229656 0.000000 0.000000 0.000000 10.063123 -1.181305 -2.631460 50.649693 -6.933246 -10.022534 104.295907 63.956894 76.877052 0.000000 0.000000 0.000000 
0.144978 0.908084 0.430487 -3.262250 17.509350 10.009709 1.926561 0.288746 19.809941 2.052379 -0.202520 0.596508 3.045687 8.338359 6.135342 0.000000 0.000000 0.000000 -1.370669 0.715533 -47.014572 3.961958 -1.987251 31.028204 -4.264539 -10.909059 9.582771 0.000000 0.000000 0.000000 5.810922 -2.447133 17.214143 12.190078 -1.905416 -25.466061 -9.464703 -21.196003 32.547133 -4.672119 2.291840 -35.505143 0.000000 0.000000 0.000000 -20.526797 3.069714 0.229352 -47.650661 -25.454890 1.034871 -146.089945 -61.246380 144.450852 0.000000 0.000000 0.000000 10.264969 -0.746648 -2.613346 48.194634 -5.895237 -9.101667 109.154844 65.355803 82.962042 0.000000 0.000000 0.000000 
0.149753 0.911705 0.498799 -3.881111 17.218106 10.665204 4.123833 -0.145428 15.228986 1.046222 -0.874011 12.068940 2.117959 8.756566 11.036511 0.000000 0.000000 0.000000 0.351653 1.596764 -44.990582 3.915952 -2.306773 34.483488 -3.846319 -9.922202 6.463835 0.000000 0.000000 0.000000 7.627203 -2.924524 17.486177 11.093707 -1.612501 -25.668381 -7.355698 -20.509310 32.088784 -6.217305 3.079494 -37.427020 0.000000 0.000000 0.000000 -24.275053 2.111498 0.963233 -44.820567 -23.508898 -0.434716 -145.835778 -58.474791 141.028103 0.000000 0.000000 0.000000 8.358957 -0.550575 -2.075253 49.289447 -4.992090 -9.141831 112.158953 64.890294 85.976556 0.000000 0.000000 0.000000 
0.153669 0.912441 0.565748 -4.284924 15.370224 10.533095 5.475097 -0.284446 6.858650 -2.619692 -1.572593 30.389797 4.869953 12.830742 11.157160 0.000000 0.000000 0.000000 2.327921 2.703740 -42.182259 3.063438 -1.945180 36.899153 -3.232630 -8.427548 3.481464 0.000000 0.000000 0.000000 7.395063 -3.073865 19.077024 11.277315 -1.684755 -25.293441 -6.443899 -18.145490 31.213300 -5.821544 3.070959 -36.073938 0.000000 0.000000 0.000000 -25.870566 1.842559 0.798758 -43.181519 -20.145570 -1.745559 -140.684941 -57.089228 130.194290 0.000000 0.000000 0.000000 9.436182 2.244323 -0.821721 47.030526 -3.557162 -8.052332 116.433204 66.023199 92.648732 0.000000 0.000000 0.000000 
0.158300 0.911261 0.631476 -4.822834 14.220896 9.947398 7.479640 -0.623083 -4.392344 -8.868622 -0.204298 48.616309 8.514651 17.826870 6.296119 0.000000 0.000000 0.000000 3.851452 3.183578 -35.770437 2.718768 -1.612214 35.140592 -3.307123 -8.096701 -0.565970 0.000000 0.000000 0.000000 6.227441 -3.035360 20.915764 10.876106 -1.572960 -25.691867 -4.260426 -15.644697 31.342313 -6.740370 3.779150 -37.814704 0.000000 0.000000 0.000000 -28.537054 1.117675 0.726734 -41.837292 -16.841282 -2.895538 -137.906748 -55.920649 123.008416 0.000000 0.000000 0.000000 8.987637 4.480533 0.536339 47.248415 0.680032 -6.678233 121.073594 68.521939 102.340242 0.000000 0.000000 0.000000 
0.164502 0.917777 0.698568 -4.643480 11.519724 9.616958 9.069068 -0.883320 -15.169296 -14.647485 3.905691 57.024406 11.656651 23.428567 2.996184 0.000000 0.000000 0.000000 4.669745 3.181743 -28.891009 2.232875 -0.939740 32.074096 -2.573014 -5.676516 -3.442646 0.000000 0.000000 0.000000 4.019778 -2.475177 21.822911 10.306416 -1.486848 -25.490482 -2.812576 -10.916830 30.941686 -6.308139 4.116075 -37.163175 0.000000 0.000000 0.000000 -27.375840 1.613990 -0.907444 -42.915666 -12.122618 -4.006592 -134.336226 -55.115545 114.575884 0.000000 0.000000 0.000000 9.960005 5.896197 1.620934 45.854263 4.730890 -5.105625 126.892188 68.515174 111.684280 0.000000 0.000000 0.000000 
0.172338 0.929428 0.770505 -3.386349 9.873302 9.370081 9.045338 -1.261713 -25.457576 -16.085322 5.615795 57.959225 12.801507 25.825160 2.265875 0.000000 0.000000 0.000000 4.666574 2.348815 -19.501631 1.193956 -0.178694 26.150142 -1.303128 -1.998221 -3.977728 0.000000 0.000000 0.000000 0.332407 -1.433230 21.201431 9.972848 -1.415101 -25.640582 -1.189779 -7.405930 31.313531 -7.400290 5.076723 -36.950465 0.000000 0.000000 0.000000 -27.343857 3.282370 -3.108864 -42.419023 -6.990875 -5.307179 -133.200532 -51.823789 106.724755 0.000000 0.000000 0.000000 9.623409 5.626842 1.942153 46.320628 9.702375 -3.506687 134.777294 66.882193 122.498931 0.000000 0.000000 0.000000 
0.183609 0.945064 0.848945 -2.427848 8.071950 9.736695 9.421988 -1.419654 -32.568167 -13.982080 4.547632 50.875774 12.391168 25.068859 5.345729 0.000000 0.000000 0.000000 3.865766 1.173471 -9.903947 0.218806 0.320372 18.671928 0.699450 2.721176 -1.859546 0.000000 0.000000 0.000000 -2.679913 -0.546409 19.061106 8.836678 -1.198869 -25.299453 0.542900 -3.534498 30.655617 -6.761507 5.311277 -35.251809 0.000000 0.000000 0.000000 -24.781632 5.360123 -5.260136 -43.303798 -1.453245 -6.768008 -132.577183 -45.363850 95.075920 0.000000 0.000000 0.000000 9.033532 4.454492 1.828551 49.042154 13.840277 -1.931943 141.236558 63.499837 131.331499 0.000000 0.000000 0.000000 
0.200371 0.959125 0.933699 -1.631968 7.676131 9.202555 8.690903 -1.603928 -33.569003 -8.873258 1.590234 36.256123 11.640548 23.822010 8.661386 0.000000 0.000000 0.000000 2.291093 -0.062914 -0.062137 -0.489786 0.429484 12.011193 3.368494 6.730099 3.569638 0.000000 0.000000 0.000000 -5.455331 0.068523 17.128980 8.431709 -1.153064 -25.074658 1.604849 -1.658785 30.034306 -5.875666 5.200399 -33.759774 0.000000 0.000000 0.000000 -22.676795 7.819811 -6.984101 -43.726679 2.973053 -8.030465 -133.701965 -39.461551 86.398588 0.000000 0.000000 0.000000 6.191704 5.934799 2.549414 53.079182 15.995030 -0.596487 144.768676 61.118836 136.643228 0.000000 0.000000 0.000000 
0.223506 0.969835 1.023290 -1.586066 7.171233 8.398384 7.277661 -1.684137 -30.538037 -4.730993 0.334098 17.484722 10.526502 22.030870 8.873817 0.000000 0.000000 0.000000 1.114786 -0.808019 6.398879 -1.595641 0.702587 12.443231 5.096788 7.304490 9.598502 0.000000 0.000000 0.000000 -7.045499 0.361614 14.537215 7.783520 -1.061403 -24.630592 2.326120 0.088388 30.643351 -4.419725 4.757895 -35.274001 0.000000 0.000000 0.000000 -19.521760 9.672944 -7.750450 -45.440045 5.180344 -9.105343 -131.771651 -36.554232 77.863696 0.000000 0.000000 0.000000 4.126443 4.576882 1.966288 55.822732 19.175461 1.323007 143.351975 59.025527 134.453258 0.000000 0.000000 0.000000 
0.253130 0.966656 1.116316 -1.241400 8.607935 6.668991 5.304098 -1.825316 -25.888553 -4.102640 0.304008 7.711961 9.174203 19.490779 5.538876 0.000000 0.000000 0.000000 0.587395 -1.130087 9.232498 -3.340211 1.336679 19.190642 5.384022 6.002361 13.672724 0.000000 0.000000 0.000000 -7.939092 0.408653 13.545375 7.142054 -0.941057 -24.328905 3.411126 0.016116 30.932615 -3.424094 4.438903 -33.833667 0.000000 0.000000 0.000000 -18.294058 10.272346 -7.963430 -46.937835 4.682951 -9.249646 -128.402877 -35.456185 71.071582 0.000000 0.000000 0.000000 -0.173257 4.429963 1.600824 59.676190 18.250798 1.746368 141.067975 56.861137 129.847853 0.000000 0.000000 0.000000 
0.285915 0.944636 1.208085 -0.117009 11.708757 4.176288 1.469531 -2.127223 -21.514566 -3.620315 0.051450 12.075722 8.061180 16.655410 1.225055 0.000000 0.000000 0.000000 0.415332 -0.919214 7.542738 -4.550580 1.784206 35.118430 4.534106 4.913303 12.912250 0.000000 0.000000 0.000000 -9.588041 0.485189 15.218589 7.125454 -0.903161 -24.643166 3.188639 -3.383942 31.532666 -5.008693 4.981791 -32.449630 0.000000 0.000000 0.000000 -19.111959 9.913307 -7.484768 -47.364714 3.025164 -8.920645 -125.923628 -36.581588 71.325511 0.000000 0.000000 0.000000 -1.855540 4.769578 1.595767 62.054759 15.729808 0.351727 140.466247 53.527528 124.474158 0.000000 0.000000 0.000000 
0.316542 0.913677 1.292877 0.791578 14.369274 1.567346 -0.678080 -2.105903 -18.550162 -4.383922 -0.466671 23.405516 8.159479 14.508441 -6.580175 0.000000 0.000000 0.000000 0.423948 0.116427 -1.061229 -6.391964 1.714020 57.099134 2.887621 2.613044 9.794519 0.000000 0.000000 0.000000 -10.112104 0.395066 19.217810 8.852048 -1.297204 -24.895567 -0.116562 -5.313150 31.472329 -4.912544 4.829843 -33.440545 0.000000 0.000000 0.000000 -21.567488 6.297433 -5.658728 -46.863965 -2.933242 -6.794718 -120.683473 -42.077104 74.389887 0.000000 0.000000 0.000000 2.102922 5.034353 1.945001 61.216290 12.518918 -1.909124 135.033642 53.656938 115.449612 0.000000 0.000000 0.000000 
0.342934 0.896655 1.374357 1.025129 17.666027 -0.998146 -1.131797 -1.254507 -11.851441 -5.109060 -0.893523 27.959430 9.599867 14.841771 -12.902235 0.000000 0.000000 0.000000 0.251218 1.055759 -12.052215 -8.041932 1.111489 70.048390 2.273237 2.982852 5.368196 0.000000 0.000000 0.000000 -9.673357 -0.014670 24.024914 9.608276 -1.411366 -25.681030 -2.595079 -9.909161 33.008151 -6.036653 4.857995 -36.309586 0.000000 0.000000 0.000000 -24.771020 1.942744 -2.403645 -44.745661 -13.431051 -3.358490 -116.631505 -51.250364 84.420742 0.000000 0.000000 0.000000 5.887162 4.995443 1.932260 59.064765 9.537451 -4.229577 127.434989 55.283761 103.791257 0.000000 0.000000 0.000000 
0.367375 0.900484 1.459632 0.520170 20.133637 -1.689181 -1.057403 -0.110846 -1.675809 -2.052441 -1.435274 22.847489 9.314700 13.104497 -11.935186 0.000000 0.000000 0.000000 0.390597 1.461771 -23.458503 -6.528107 -0.976174 69.401143 -0.100620 -0.527650 0.671627 0.000000 0.000000 0.000000 -7.643725 -0.685380 26.001110 10.175990 -1.457683 -26.648847 -4.436850 -14.988384 33.002730 -8.511621 5.456465 -35.783438 0.000000 0.000000 0.000000 -22.791311 2.214231 -1.199535 -46.751161 -19.842054 -1.323783 -119.044772 -54.536042 94.410078 0.000000 0.000000 0.000000 6.875267 2.440802 0.519948 55.346443 3.631191 -7.006452 120.622898 52.919688 87.954932 0.000000 0.000000 0.000000 
0.391891 0.917938 1.552719 -1.367241 21.143808 -1.509366 -0.042025 0.378883 7.177374 0.993389 -1.379380 15.978800 6.859453 9.783371 -6.311622 0.000000 0.000000 0.000000 1.006582 1.583591 -29.576036 -1.555177 -2.997379 53.788651 -2.579309 -5.907638 -2.017870 0.000000 0.000000 0.000000 -4.662807 -1.211408 24.295369 10.680889 -1.542434 -27.021842 -5.011499 -19.463171 33.745126 -9.934106 5.467785 -38.047881 0.000000 0.000000 0.000000 -22.462216 3.934150 -1.156517 -47.854903 -22.600558 -0.467069 -128.320769 -52.703801 107.341390 0.000000 0.000000 0.000000 4.855326 0.880034 -0.264051 51.464743 -1.992904 -9.021698 120.322263 50.359132 80.346591 0.000000 0.000000 0.000000 
0.416758 0.940645 1.654116 -1.919246 22.607137 0.216569 2.259385 0.070835 13.647587 1.824033 -0.905433 10.233300 0.728954 1.751407 0.674865 0.000000 0.000000 0.000000 -0.931357 0.868164 -31.175072 3.134422 -2.389778 29.438004 -2.002458 -5.235458 3.382392 0.000000 0.000000 0.000000 -2.552215 -1.262082 20.511405 10.942939 -1.362238 -30.022278 -7.693820 -23.079995 35.978484 -12.878154 6.730196 -34.552591 0.000000 0.000000 0.000000 -20.380475 6.825683 -2.168223 -49.540979 -22.705487 -0.483595 -132.577674 -47.761969 110.353743 0.000000 0.000000 0.000000 2.872565 -0.252398 -0.623678 50.501402 -7.972072 -11.497200 118.947398 46.057801 70.590385 0.000000 0.000000 0.000000 
0.440646 0.950234 1.758646 -0.416376 24.131057 0.880311 3.277827 -0.313037 17.135093 1.234984 -1.063255 12.809201 -4.755885 -2.905706 8.234120 0.000000 0.000000 0.000000 -1.863989 0.585237 -28.557595 3.459025 -0.982061 12.514057 -2.924488 -7.381536 11.607476 0.000000 0.000000 0.000000 -2.598396 -0.972980 17.564970 11.634410 -1.510808 -29.809165 -9.936357 -23.513313 35.787421 -11.130531 6.040784 -30.713783 0.000000 0.000000 0.000000 -20.131908 6.065310 -1.907938 -48.783446 -20.549540 -1.250412 -137.092400 -43.643360 111.259359 0.000000 0.000000 0.000000 1.590590 -1.469807 -0.880224 52.335262 -12.510808 -13.743291 117.172304 43.632955 65.524024 0.000000 0.000000 0.000000 
0.461414 0.936123 1.857813 -0.096100 25.117873 -0.669745 7.070725 -1.151257 15.981546 -1.231484 -2.031164 25.092238 -2.465323 -0.317447 6.362524 0.000000 0.000000 0.000000 -0.400998 0.900864 -28.035866 3.596401 -1.494807 17.720776 -3.628904 -8.691578 14.119683 0.000000 0.000000 0.000000 -1.652484 -1.027162 16.529610 10.338364 -1.346740 -27.241422 -8.098263 -22.390444 32.211531 -8.539252 5.260379 -22.885030 0.000000 0.000000 0.000000 -18.302396 5.200883 -1.999637 -49.545637 -17.121230 -2.140240 -136.987084 -40.051463 103.815461 0.000000 0.000000 0.000000 0.854528 -1.910524 -0.843482 53.272786 -16.249250 -15.238730 117.930025 43.207103 67.109829 0.000000 0.000000 0.000000 
0.476394 0.909295 1.942513 -0.770168 25.380975 -3.162376 9.769868 -1.032504 6.986536 -3.797478 -5.137215 46.561389 2.805035 5.409036 -0.009146 0.000000 0.000000 0.000000 2.499165 1.640986 -28.105888 1.725068 -2.563788 32.076216 -5.207715 -12.209413 5.017211 0.000000 0.000000 0.000000 -0.637170 -1.690402 20.597099 11.244550 -1.587966 -26.896983 -7.348930 -17.670793 30.883194 -5.613906 4.147764 -24.031873 0.000000 0.000000 0.000000 -18.951078 5.048294 -3.020932 -48.207227 -12.757880 -3.630763 -136.369130 -39.679244 97.508145 0.000000 0.000000 0.000000 5.778706 -0.685989 -0.654777 50.827311 -13.146684 -12.797928 120.390338 48.944102 81.333508 0.000000 0.000000 0.000000 
0.487230 0.891202 2.010593 -2.124550 23.238945 -5.620945 10.312184 -0.652693 -5.584800 -9.933604 -4.552528 63.670250 7.967006 15.697292 -0.700250 0.000000 0.000000 0.000000 6.286552 2.756273 -26.866655 -0.752639 -2.518371 42.174511 -4.650115 -11.356761 0.542630 0.000000 0.000000 0.000000 0.058904 -2.778802 27.414865 11.067390 -1.594134 -26.841962 -2.155775 -11.399785 30.356715 -5.926954 5.171926 -24.626607 0.000000 0.000000 0.000000 -23.346385 3.217184 -3.577051 -45.745322 -10.123428 -4.325639 -131.509031 -41.522053 89.049464 0.000000 0.000000 0.000000 8.489604 2.419946 0.993481 50.644690 -3.333957 -9.005608 121.016580 58.635568 98.431818 0.000000 0.000000 0.000000 
0.498919 0.894587 2.071733 -1.490184 19.458711 -3.739638 8.936867 -1.264682 -20.052204 -11.938320 -1.950982 67.657045 8.994093 18.279958 -1.149200 0.000000 0.000000 0.000000 7.321561 3.049837 -24.495671 -1.615852 -1.507499 43.961137 -3.319361 -8.026226 -1.972389 0.000000 0.000000 0.000000 -0.657819 -2.687744 29.784476 10.106106 -1.323155 -27.377163 0.074471 -4.924172 31.540509 -4.217845 4.919259 -25.055226 0.000000 0.000000 0.000000 -23.882405 2.526638 -4.526757 -44.463806 -7.428313 -4.900774 -123.497482 -45.719179 81.398839 0.000000 0.000000 0.000000 10.148695 4.300280 2.408848 49.551357 6.626060 -5.148355 128.058014 63.924940 116.847445 0.000000 0.000000 0.000000 
0.513655 0.910465 2.135283 -0.278222 16.384913 -1.134519 5.776617 -2.628667 -29.611013 -10.555029 -0.610325 59.254377 9.731354 20.087829 0.727317 0.000000 0.000000 0.000000 6.758890 2.506752 -18.663471 -1.083954 -0.882762 40.500251 -2.507617 -5.721341 -3.460906 0.000000 0.000000 0.000000 -2.671903 -1.918229 30.051131 9.311555 -1.174031 -27.075038 2.867532 -0.868175 31.514545 -2.873265 4.551929 -26.003699 0.000000 0.000000 0.000000 -26.332878 2.577586 -5.972681 -42.085826 -1.717598 -6.067618 -120.777822 -47.240155 78.346548 0.000000 0.000000 0.000000 9.300265 6.652001 3.642295 47.405084 14.403792 -1.891756 141.799502 67.325710 139.923153 0.000000 0.000000 0.000000 
0.531603 0.934774 2.205440 0.291763 12.839507 2.053393 3.376170 -3.464153 -33.613758 -6.603616 -0.649408 43.037337 8.565357 18.433510 4.036058 0.000000 0.000000 0.000000 5.960702 1.670508 -12.213830 -0.483526 -0.161951 33.413752 -1.415471 -3.330972 -1.128802 0.000000 0.000000 0.000000 -3.837913 -1.013841 26.589246 7.954967 -0.813527 -27.897723 4.084063 2.118382 32.716236 -1.144562 3.808506 -26.027967 0.000000 0.000000 0.000000 -26.091220 5.640854 -8.433816 -39.966317 3.248352 -7.109447 -119.854271 -42.669880 69.613046 0.000000 0.000000 0.000000 8.981610 6.414911 3.714545 46.589235 18.875348 -0.266058 144.840199 65.773288 144.646986 0.000000 0.000000 0.000000 
0.550993 0.959167 2.281622 0.259322 11.826777 3.397952 1.249856 -3.736029 -32.463947 -3.064182 -0.655295 24.130190 6.489806 14.344154 2.505569 0.000000 0.000000 0.000000 5.774927 0.716178 -5.366328 -1.214220 0.466025 26.469505 0.851496 0.576368 4.318055 0.000000 0.000000 0.000000 -5.031499 -0.536187 24.493554 7.741716 -0.805283 -27.591708 4.971197 4.058855 31.272619 0.673356 2.896058 -24.814410 0.000000 0.000000 0.000000 -23.332527 7.565889 -9.367362 -39.779294 7.404092 -8.086701 -123.925646 -38.448914 66.488895 0.000000 0.000000 0.000000 4.294516 6.066032 2.917439 50.624196 20.688994 1.758334 144.980999 62.227116 143.710772 0.000000 0.000000 0.000000 
0.570187 0.975222 2.362375 -0.194098 11.097267 3.526474 0.496873 -3.161001 -27.972006 -2.382940 0.056617 6.234117 4.910704 11.575644 3.544822 0.000000 0.000000 0.000000 5.329736 -0.480746 2.445587 -1.241275 0.598873 21.485169 2.546871 3.040522 7.879700 0.000000 0.000000 0.000000 -5.513369 -0.297320 22.410476 7.203323 -0.701958 -27.627366 5.675806 3.858680 31.172602 -0.543110 3.595575 -25.835333 0.000000 0.000000 0.000000 -22.534884 9.127709 -9.876716 -39.208192 9.603261 -8.652295 -125.655950 -35.068489 63.120574 0.000000 0.000000 0.000000 3.049464 5.264617 2.369979 50.766093 22.072044 2.543434 140.077629 59.025482 133.007161 0.000000 0.000000 0.000000 
0.589320 0.978471 2.447884 -0.492431 9.466779 3.170084 1.567345 -2.479361 -25.145226 -4.203710 0.360697 1.419607 5.735151 12.874876 3.172757 0.000000 0.000000 0.000000 3.930796 -1.164985 7.324114 -0.459251 0.456366 22.622138 4.314320 3.464959 14.979499 0.000000 0.000000 0.000000 -6.012506 -0.021295 18.775489 7.223819 -0.802903 -26.455481 4.723897 4.470359 32.535630 0.378899 3.154905 -27.460497 0.000000 0.000000 0.000000 -21.715657 12.102952 -11.264092 -39.130224 8.830937 -8.547780 -125.814792 -33.660480 60.993440 0.000000 0.000000 0.000000 2.455229 4.537898 1.989235 50.841013 22.716128 2.757112 137.009593 57.709741 127.206766 0.000000 0.000000 0.000000 
0.609064 0.965531 2.536326 0.078437 9.634450 0.548410 -0.877775 -2.395534 -21.108992 -3.753872 0.278455 5.205896 5.056147 12.338711 6.025996 0.000000 0.000000 0.000000 2.942590 -1.602261 10.848605 -0.537248 0.436354 28.907031 5.396434 4.287360 17.515852 0.000000 0.000000 0.000000 -8.834142 0.371448 18.391376 7.816196 -1.043348 -25.757863 5.447192 3.672647 32.879689 -0.251946 3.421089 -27.741945 0.000000 0.000000 0.000000 -21.602687 12.045374 -10.931947 -38.611899 8.795615 -8.451911 -123.820730 -37.039691 64.590927 0.000000 0.000000 0.000000 0.121157 3.545613 1.266333 55.193082 20.964853 2.766357 132.771345 54.117886 117.116390 0.000000 0.000000 0.000000 
0.629173 0.942138 2.623854 0.311205 10.468191 -1.447254 -3.005863 -2.370193 -18.467192 -3.051154 -0.110193 14.284287 3.961721 9.231633 2.617448 0.000000 0.000000 0.000000 2.510922 -1.146083 8.170835 -2.332732 0.880326 42.984084 5.139764 5.515668 13.421413 0.000000 0.000000 0.000000 -10.108793 0.483625 19.405621 8.691244 -1.224550 -26.243994 3.208543 0.965503 33.435729 -1.677566 3.891144 -30.480562 0.000000 0.000000 0.000000 -23.767151 13.396055 -11.657065 -36.667372 5.676393 -7.307148 -120.276328 -39.333627 65.621139 0.000000 0.000000 0.000000 2.183720 3.929855 1.613638 55.202151 18.653154 0.965251 128.417186 52.229408 106.875034 0.000000 0.000000 0.000000 
0.648734 0.920188 2.706994 0.558318 12.885933 -4.144380 -3.903915 -1.965486 -14.774826 -2.934250 -0.740749 22.780663 4.548920 8.314642 -2.310352 0.000000 0.000000 0.000000 2.207652 -0.177550 1.420108 -3.680500 0.392929 58.875235 4.313851 5.531768 9.555802 0.000000 0.000000 0.000000 -9.872247 0.255884 21.088624 8.371655 -1.258135 -24.919448 0.827624 -2.192843 33.773416 -1.797711 3.643290 -32.107267 0.000000 0.000000 0.000000 -25.242364 10.813566 -9.758848 -38.216629 -0.760478 -6.069344 -119.731738 -45.183968 75.158892 0.000000 0.000000 0.000000 5.110021 2.547297 1.243388 56.403875 12.940475 -2.208112 123.652691 52.390152 99.196329 0.000000 0.000000 0.000000 
0.667351 0.913308 2.788432 0.462037 15.556858 -6.981846 -4.232415 -0.873994 -7.164244 -2.274910 -1.395367 25.740855 5.121187 7.518874 -5.889192 0.000000 0.000000 0.000000 2.682516 0.778285 -6.180443 -5.321403 0.085581 65.687900 2.193978 3.314335 4.412059 0.000000 0.000000 0.000000 -8.229618 -0.275416 23.633177 7.914127 -1.115370 -25.112623 -2.512799 -6.818301 34.005268 -3.065128 3.725766 -32.495379 0.000000 0.000000 0.000000 -26.288760 7.875938 -6.889111 -38.471913 -7.672322 -4.612855 -120.625555 -49.682677 84.740361 0.000000 0.000000 0.000000 7.451115 0.057210 0.049277 54.548029 5.730256 -5.924178 117.744226 49.915610 85.317958 0.000000 0.000000 0.000000 
0.685035 0.919492 2.871541 -0.840381 17.528191 -8.655459 -1.970021 0.164415 1.706458 -1.689191 -1.472796 23.621272 5.246056 6.321928 -7.811987 0.000000 0.000000 0.000000 1.784235 1.429644 -14.434169 -4.249555 -1.203570 61.045673 0.247159 1.104884 -1.234661 0.000000 0.000000 0.000000 -5.831012 -0.884106 24.423922 7.853520 -0.990762 -26.442601 -5.538715 -12.428366 35.043837 -4.869286 3.879171 -33.103859 0.000000 0.000000 0.000000 -27.053383 6.084081 -4.276850 -38.701522 -14.670175 -3.201790 -123.299375 -52.152379 94.133883 0.000000 0.000000 0.000000 8.322192 -1.317473 -0.990223 50.374696 -0.962826 -8.478986 115.470495 48.336019 76.067699 0.000000 0.000000 0.000000 
0.702679 0.936660 2.958267 -2.369420 19.454830 -9.390640 0.449075 0.460635 11.208310 0.232100 -1.301859 17.166035 2.461681 2.572250 -3.609781 0.000000 0.000000 0.000000 0.260205 1.343383 -18.596230 1.020678 -3.191414 44.501494 -0.224581 -0.186655 -1.534167 0.000000 0.000000 0.000000 -3.245029 -1.342855 23.125325 7.939000 -0.901311 -28.016639 -7.311250 -17.914435 35.626821 -6.906823 4.232431 -31.578896 0.000000 0.000000 0.000000 -25.735058 5.341415 -2.311475 -42.096368 -18.061872 -2.649639 -126.924752 -51.111562 101.366612 0.000000 0.000000 0.000000 4.187609 -3.559581 -1.783011 47.564151 -7.392254 -10.469936 116.530119 47.794462 72.373223 0.000000 0.000000 0.000000 
0.720663 0.950808 3.047276 -2.211238 21.113279 -8.731863 1.137158 0.279835 18.583678 1.103120 -0.764603 10.098950 0.136553 3.282421 4.856568 0.000000 0.000000 0.000000 -1.448911 0.950756 -19.019918 4.964233 -2.469603 23.817561 -0.778344 -2.723489 3.890422 0.000000 0.000000 0.000000 -2.068005 -1.325233 20.517267 7.939518 -0.891173 -27.885641 -9.255650 -23.124497 36.444964 -8.028829 4.043398 -32.811571 0.000000 0.000000 0.000000 -23.557382 6.195983 -1.578611 -46.377567 -20.104265 -2.017664 -129.069802 -49.768536 107.074568 0.000000 0.000000 0.000000 0.426259 -5.413284 -2.013044 45.505593 -11.743815 -11.672673 118.063302 46.367407 68.020130 0.000000 0.000000 0.000000 
0.738654 0.956203 3.135550 -1.441803 20.256675 -7.947189 1.143645 0.251003 22.349493 1.025457 -0.749252 10.258701 -1.563357 2.193896 8.233474 0.000000 0.000000 0.000000 -1.842788 0.896069 -18.503464 2.639165 -0.502082 7.759186 -0.982652 -3.677274 8.122633 0.000000 0.000000 0.000000 -1.779068 -0.964250 16.928533 8.614091 -1.031523 -28.100528 -11.106445 -23.791285 37.022979 -10.943157 5.677492 -29.805612 0.000000 0.000000 0.000000 -22.073967 5.406352 -0.793832 -48.421040 -20.681663 -1.699085 -127.332321 -50.626989 107.365561 0.000000 0.000000 0.000000 -2.384282 -6.000338 -1.661724 45.976096 -14.269441 -12.905760 119.196524 45.939614 67.697124 0.000000 0.000000 0.000000 
0.754042 0.944168 3.220332 -1.604230 19.955883 -8.359116 4.092324 -0.358085 21.200323 -2.887552 -0.881707 21.394809 -1.320135 1.184724 5.879607 0.000000 0.000000 0.000000 -1.531394 0.987105 -19.453761 1.952775 -0.315854 6.507065 -1.283038 -4.712369 11.591787 0.000000 0.000000 0.000000 0.821720 -1.165669 15.861464 7.695518 -0.777005 -28.510922 -12.320887 -22.830768 37.436471 -10.226453 5.471983 -28.006884 0.000000 0.000000 0.000000 -22.111987 5.259585 -0.874781 -49.877250 -20.793999 -1.528110 -125.201755 -49.438192 102.958113 0.000000 0.000000 0.000000 -1.836308 -5.067718 -1.474030 46.162980 -13.656192 -12.642755 123.101182 49.073847 77.343232 0.000000 0.000000 0.000000 
0.764374 0.917026 3.299452 -1.669859 20.141686 -9.909243 8.208544 -0.805194 14.122278 -8.119077 -1.115713 40.419157 2.930023 6.583394 1.753574 0.000000 0.000000 0.000000 -1.317498 1.041105 -21.970491 2.293116 -0.868995 17.927211 -0.712831 -4.108237 13.910497 0.000000 0.000000 0.000000 2.278132 -1.377646 16.212274 6.417442 -0.503480 -27.439976 -9.810923 -20.467350 36.140021 -9.857187 5.968601 -24.565735 0.000000 0.000000 0.000000 -23.739598 2.341112 0.127476 -48.701647 -19.530788 -2.011384 -121.842647 -48.315249 94.413586 0.000000 0.000000 0.000000 1.009623 -4.195783 -1.633151 45.801670 -11.108818 -11.356304 128.658238 53.975771 93.541460 0.000000 0.000000 0.000000 
0.769209 0.895332 3.365802 -2.626811 19.264608 -12.752523 10.452791 -0.590834 5.019909 -11.720985 -1.046807 55.731372 6.154368 12.305882 0.392950 0.000000 0.000000 0.000000 1.943345 1.854829 -22.877965 -0.754934 -0.714107 31.591700 -1.869491 -5.901385 9.267452 0.000000 0.000000 0.000000 2.963123 -2.001306 20.387478 6.326781 -0.481496 -27.895106 -7.372978 -15.632868 35.286738 -6.775203 4.769700 -25.851305 0.000000 0.000000 0.000000 -25.479545 -0.365239 0.365460 -46.604680 -16.644859 -2.889395 -116.963389 -50.684843 87.409835 0.000000 0.000000 0.000000 7.489116 -1.969668 -1.314842 45.307818 -2.680029 -8.245018 132.690066 59.734165 110.300926 0.000000 0.000000 0.000000 
0.772191 0.897790 3.419182 -2.714247 16.516747 -14.496202 10.293820 -0.281436 -3.422692 -13.460041 0.452622 58.312355 9.675204 19.151613 0.726994 0.000000 0.000000 0.000000 5.607357 2.622598 -20.318745 -3.836463 0.708346 35.736613 -0.960294 -4.082817 7.710920 0.000000 0.000000 0.000000 2.229654 -2.153157 23.232897 6.482372 -0.628396 -26.768960 -4.073334 -11.236108 33.277818 -5.936997 4.824483 -24.693986 0.000000 0.000000 0.000000 -27.034416 -1.564340 0.051271 -44.386191 -12.534999 -3.894004 -111.912425 -51.877166 80.507614 0.000000 0.000000 0.000000 8.310183 3.071349 1.024168 48.298021 7.381170 -4.894278 137.083257 66.179469 125.730940 0.000000 0.000000 0.000000 
0.776966 0.916820 3.464180 -1.900517 14.242041 -13.443459 8.204020 -0.387696 -9.345685 -10.667252 0.106135 49.541005 9.609911 18.723344 -1.567365 0.000000 0.000000 0.000000 4.664381 2.175535 -16.833311 -1.672649 0.204125 32.570771 -1.080646 -4.607998 8.266694 0.000000 0.000000 0.000000 0.620535 -1.773618 23.418502 6.406978 -0.594359 -27.895185 -2.441732 -6.360299 33.135783 -4.245791 4.411363 -23.543607 0.000000 0.000000 0.000000 -24.533541 -2.028485 -0.672280 -44.568993 -9.282514 -4.675072 -108.501256 -52.323596 75.298162 0.000000 0.000000 0.000000 9.059483 5.083730 2.226093 49.848223 16.335282 -1.285278 143.736180 67.539410 138.954478 0.000000 0.000000 0.000000 
0.784648 0.937939 3.504505 -1.350626 13.512011 -11.714340 5.645721 -0.573211 -10.029251 -5.832143 -0.641589 32.360390 8.409583 16.615349 0.417961 0.000000 0.000000 0.000000 3.372382 1.606996 -13.103429 0.066836 -0.179439 26.942155 -1.191553 -5.002593 8.936379 0.000000 0.000000 0.000000 -0.548185 -1.428568 22.341087 5.547706 -0.433610 -26.996310 -0.943946 -4.302030 31.472803 -2.235140 3.400764 -23.346801 0.000000 0.000000 0.000000 -23.656266 -1.069838 -1.770399 -43.607864 -6.205856 -5.285767 -111.393931 -51.308085 75.695644 0.000000 0.000000 0.000000 8.449028 6.244825 2.814556 52.152184 23.097659 2.200722 149.422528 67.378769 148.091666 0.000000 0.000000 0.000000 
0.794874 0.953654 3.542405 -1.174958 12.602594 -10.320993 4.429653 -0.557512 -8.664576 -3.228492 -0.334601 17.637812 3.791711 9.905599 5.571422 0.000000 0.000000 0.000000 2.784854 1.132439 -9.191173 0.949053 -0.225102 21.716255 -1.621702 -6.140520 10.008301 0.000000 0.000000 0.000000 -1.418126 -1.131532 21.063830 4.475459 -0.158718 -27.643644 0.906118 -3.505161 31.203811 -1.767473 3.164664 -23.474589 0.000000 0.000000 0.000000 -23.447834 0.008553 -2.472624 -43.265805 -4.878633 -5.667409 -112.798728 -49.913837 75.182812 0.000000 0.000000 0.000000 8.258202 6.295891 2.859853 52.969603 25.172963 3.307718 146.950249 65.043705 143.339297 0.000000 0.000000 0.000000 
0.807445 0.961372 3.579125 -1.568128 12.691246 -9.095305 4.360524 -0.439776 -6.625121 -2.683279 -0.051915 9.850990 1.108451 7.518618 10.983011 0.000000 0.000000 0.000000 2.910088 0.781449 -5.992745 1.034027 -0.144887 17.584295 -1.829994 -6.547766 10.109557 0.000000 0.000000 0.000000 -1.399792 -0.958127 18.711970 4.375570 -0.130298 -27.631360 0.953554 -3.133814 30.789597 -1.667277 3.181199 -23.249760 0.000000 0.000000 0.000000 -22.546472 0.504301 -2.833097 -44.607836 -4.271338 -5.983429 -112.614225 -48.960883 73.526969 0.000000 0.000000 0.000000 8.715448 5.964552 2.819391 52.627372 24.911437 3.173486 144.685393 62.875558 138.711125 0.000000 0.000000 0.000000 
0.821422 0.962631 3.613219 -1.882605 12.396442 -8.107581 4.663772 -0.292224 -3.997920 -2.716092 0.110203 5.541147 0.125854 6.523125 12.453429 0.000000 0.000000 0.000000 3.211092 0.461293 -3.274458 0.590774 0.040496 14.848562 -1.922829 -6.540061 8.666967 0.000000 0.000000 0.000000 -1.105256 -0.805887 16.183810 4.125235 -0.067130 -27.804189 0.993494 -3.755277 31.365124 -1.628190 3.043352 -23.357973 0.000000 0.000000 0.000000 -22.403181 1.591976 -3.235572 -45.122401 -4.277118 -6.161162 -113.449262 -48.693741 74.588721 0.000000 0.000000 0.000000 9.191286 5.797746 2.733868 51.354558 23.103424 2.046993 142.914035 62.699215 135.415486 0.000000 0.000000 0.000000 
0.835668 0.960263 3.643198 -1.975890 12.024919 -7.300281 4.470842 -0.193628 -1.927655 -3.139054 0.211895 3.585788 0.464409 6.542823 11.303448 0.000000 0.000000 0.000000 2.770549 0.218380 -1.512901 0.310213 0.138046 13.839555 -2.018563 -6.542232 7.100194 0.000000 0.000000 0.000000 -1.238823 -0.655433 14.268689 4.425186 -0.160924 -27.179336 0.153542 -4.168260 30.716763 -1.506911 2.900095 -24.630089 0.000000 0.000000 0.000000 -22.027063 1.897041 -3.205058 -45.356257 -4.307595 -6.165217 -112.672319 -48.815076 74.179549 0.000000 0.000000 0.000000 10.675741 5.292177 2.510873 50.155191 20.927591 0.956642 137.340283 63.185935 126.887334 0.000000 0.000000 0.000000 
0.849137 0.958827 3.668809 -1.833970 12.536277 -6.904513 4.370231 -0.111610 0.066916 -3.535173 0.267594 2.414134 0.674719 6.456845 10.180229 0.000000 0.000000 0.000000 2.013083 0.048973 -0.283914 0.354393 0.114772 13.515158 -2.113564 -6.652036 6.625683 0.000000 0.000000 0.000000 -1.340442 -0.565068 12.879287 4.330586 -0.141707 -26.758971 -0.521796 -5.572439 30.625082 -1.620787 2.788920 -25.074229 0.000000 0.000000 0.000000 -22.034789 1.939307 -2.940247 -45.784781 -5.812922 -5.738993 -112.026345 -48.951066 74.331365 0.000000 0.000000 0.000000 11.046582 4.673790 2.110366 50.301979 18.083832 -0.275720 131.330736 63.414001 118.079461 0.000000 0.000000 0.000000 
0.861218 0.958554 3.691100 -1.715653 12.954668 -6.006168 4.010138 -0.054778 1.413729 -3.710981 0.295013 0.694847 0.823325 6.623983 9.962705 0.000000 0.000000 0.000000 1.333506 -0.127292 1.081845 0.277039 0.130214 12.367381 -2.053192 -6.439701 6.224568 0.000000 0.000000 0.000000 -1.495631 -0.467414 11.384555 4.549620 -0.190419 -26.721837 -1.380860 -6.575231 30.722319 -2.285262 3.067188 -25.289723 0.000000 0.000000 0.000000 -21.647183 1.805794 -2.625871 -46.592285 -7.467949 -5.262571 -110.197813 -49.020669 72.996006 0.000000 0.000000 0.000000 11.586346 4.012682 1.725339 50.827712 15.669141 -1.295501 123.759692 62.739860 107.042242 0.000000 0.000000 0.000000 
0.871448 0.959521 3.710685 -1.647475 12.859446 -5.228392 3.323090 0.006979 2.221831 -3.268110 0.269552 -0.691694 1.064350 6.995610 9.966534 0.000000 0.000000 0.000000 1.133279 -0.242539 2.011483 0.293601 0.130667 11.004094 -2.112833 -6.579969 6.184363 0.000000 0.000000 0.000000 -1.297743 -0.416874 10.249695 4.330228 -0.139104 -26.609433 -1.839855 -7.525331 30.594183 -2.295685 2.910927 -25.693093 0.000000 0.000000 0.000000 -21.774189 1.923558 -2.450353 -46.812801 -8.969071 -4.757504 -108.659152 -49.413785 72.460076 0.000000 0.000000 0.000000 11.134787 3.365324 1.274645 51.551296 13.742965 -2.060343 118.614238 61.468626 98.595271 0.000000 0.000000 0.000000 
0.879696 0.960493 3.728424 -1.566645 12.541951 -4.665888 2.519201 0.103459 3.344641 -2.915102 0.255904 -1.967452 1.720907 7.999016 9.956031 0.000000 0.000000 0.000000 0.833620 -0.386283 3.200273 0.329860 0.122079 8.970464 -1.900738 -6.106427 6.026819 0.000000 0.000000 0.000000 -1.423894 -0.359055 9.391213 4.449933 -0.157242 -27.114217 -2.363512 -8.006192 30.890305 -2.575765 2.974024 -26.092848 0.000000 0.000000 0.000000 -21.127393 2.242414 -2.369867 -47.229974 -9.937287 -4.494031 -109.243347 -49.697728 73.938897 0.000000 0.000000 0.000000 11.038428 2.947049 0.989782 51.779051 12.105679 -2.777709 116.186938 59.819907 93.337886 0.000000 0.000000 0.000000 
0.885953 0.960606 3.744592 -1.710954 12.472423 -4.296846 2.357113 0.175608 4.675664 -2.781359 0.255967 -3.901528 1.997401 8.589466 10.447937 0.000000 0.000000 0.000000 0.863817 -0.458192 3.766776 0.413084 0.092161 7.359737 -1.731491 -5.836314 6.645557 0.000000 0.000000 0.000000 -1.377372 -0.330544 8.763999 4.603365 -0.198835 -27.000710 -2.697403 -8.577638 30.613086 -2.464567 2.793818 -25.799771 0.000000 0.000000 0.000000 -21.052494 2.543862 -2.392211 -47.395043 -10.618146 -4.232334 -110.292670 -49.828554 75.535641 0.000000 0.000000 0.000000 10.618179 2.769009 0.820351 52.135242 10.987588 -3.213188 116.515386 58.831533 92.098404 0.000000 0.000000 0.000000 
0.890628 0.960139 3.759008 -1.706779 11.858677 -3.780645 2.124620 0.238353 5.520903 -2.804110 0.261895 -5.098202 2.989217 10.155402 10.718290 0.000000 0.000000 0.000000 0.742572 -0.542659 4.477881 0.448225 0.076921 6.142256 -1.359146 -5.094065 6.835041 0.000000 0.000000 0.000000 -1.411199 -0.294323 8.139918 4.534343 -0.191670 -26.990233 -2.729787 -8.542026 30.645849 -2.048960 2.471470 -25.266515 0.000000 0.000000 0.000000 -20.644154 2.631406 -2.310567 -47.179686 -10.990470 -4.100946 -111.742710 -50.602387 78.260530 0.000000 0.000000 0.000000 10.844869 2.425447 0.604924 51.873875 10.175071 -3.552666 117.641642 58.239027 92.429001 0.000000 0.000000 0.000000 
0.894154 0.959688 3.771566 -1.761025 11.705242 -3.477551 2.347849 0.247463 6.096311 -2.973898 0.267800 -5.510967 3.257893 10.461004 10.440192 0.000000 0.000000 0.000000 0.861948 -0.584450 4.775331 0.673155 0.028559 5.575713 -1.238923 -4.829908 6.777068 0.000000 0.000000 0.000000 -1.653381 -0.261695 7.768349 4.739755 -0.238723 -27.050611 -2.811601 -8.876656 30.773883 -2.096480 2.424671 -25.300383 0.000000 0.000000 0.000000 -20.768825 2.999726 -2.416568 -47.065370 -11.160987 -4.061640 -113.347184 -51.432508 81.320597 0.000000 0.000000 0.000000 10.907838 2.004270 0.346076 51.987331 9.500964 -3.851940 120.120770 57.703770 94.490120 0.000000 0.000000 0.000000 
0.897062 0.959081 3.782331 -1.867965 10.965277 -3.077756 2.332249 0.279480 6.568687 -2.764292 0.267221 -5.752742 3.736803 11.137873 10.424945 0.000000 0.000000 0.000000 0.744583 -0.617140 5.092230 0.881462 -0.020180 4.418411 -0.884920 -4.213988 7.257555 0.000000 0.000000 0.000000 -1.779583 -0.231278 7.305678 4.980989 -0.309596 -26.888204 -2.722753 -8.696601 30.677739 -2.003281 2.326392 -25.352805 0.000000 0.000000 0.000000 -20.841067 3.582003 -2.682527 -47.163626 -11.153076 -4.070895 -114.131980 -52.004281 83.102396 0.000000 0.000000 0.000000 11.012472 1.904428 0.243460 52.125465 9.317675 -3.914999 122.392792 58.527860 98.062621 0.000000 0.000000 0.000000 
0.899727 0.958737 3.791657 -1.903023 10.655332 -2.733477 2.445618 0.279734 6.716523 -2.755401 0.269605 -5.759567 3.711022 11.084466 10.460322 0.000000 0.000000 0.000000 0.686023 -0.639012 5.296610 1.088978 -0.063649 3.755666 -0.731655 -3.876909 7.143004 0.000000 0.000000 0.000000 -1.759257 -0.220365 7.066306 5.164385 -0.366838 -26.532470 -2.757416 -8.313766 30.428778 -1.792160 2.230734 -25.295148 0.000000 0.000000 0.000000 -20.994452 3.642576 -2.785202 -47.103146 -10.862981 -4.147144 -115.270544 -52.431876 84.805321 0.000000 0.000000 0.000000 11.640931 1.618624 0.097405 52.007780 9.344274 -3.871648 124.120444 59.806275 101.850898 0.000000 0.000000 0.000000 
0.902214 0.958319 3.799890 -1.972092 10.297423 -2.319113 2.465088 0.287764 6.847120 -2.655323 0.269043 -5.768618 3.813415 11.122138 10.128133 0.000000 0.000000 0.000000 0.494644 -0.647025 5.446716 1.465851 -0.127124 3.454906 -0.654877 -3.741609 7.139673 0.000000 0.000000 0.000000 -1.656251 -0.208540 6.681463 5.216360 -0.402949 -26.077808 -2.651257 -7.959313 30.066773 -1.827153 2.265322 -24.884803 0.000000 0.000000 0.000000 -21.273059 3.840007 -2.970734 -47.063724 -10.274051 -4.327223 -115.520606 -52.658075 85.250597 0.000000 0.000000 0.000000 12.053313 1.523195 0.038511 52.014947 9.445618 -3.785519 125.770975 61.159589 105.569604 0.000000 0.000000 0.000000 
0.904337 0.958389 3.807299 -2.145796 9.948468 -2.041815 2.596326 0.294413 7.179386 -2.531077 0.267882 -6.159589 3.566697 10.770262 10.336641 0.000000 0.000000 0.000000 0.315146 -0.677255 5.778850 1.707119 -0.178191 2.392324 -0.511343 -3.571859 7.583330 0.000000 0.000000 0.000000 -1.426884 -0.209191 6.419400 5.186557 -0.401664 -26.072236 -2.486913 -7.489337 30.026007 -1.699560 2.236354 -24.867653 0.000000 0.000000 0.000000 -21.286112 4.021375 -3.152445 -47.123814 -9.328803 -4.659511 -114.554027 -52.612936 83.887936 0.000000 0.000000 0.000000 12.737903 1.107911 -0.155984 51.798640 9.638126 -3.692479 125.265752 62.528013 106.639098 0.000000 0.000000 0.000000 
0.905836 0.958364 3.813801 -2.186077 9.692960 -1.698192 2.750077 0.292607 7.410548 -2.449187 0.267629 -6.480933 3.473024 10.607857 10.355340 0.000000 0.000000 0.000000 0.127681 -0.687369 5.958929 1.965891 -0.220026 2.055714 -0.522129 -3.568870 7.382480 0.000000 0.000000 0.000000 -1.337534 -0.202899 6.181777 5.150264 -0.411339 -25.731812 -2.309301 -6.833513 29.703974 -1.439350 2.160496 -24.615598 0.000000 0.000000 0.000000 -21.339496 4.136688 -3.372659 -47.108507 -8.430535 -4.930127 -112.486462 -52.243223 80.728862 0.000000 0.000000 0.000000 13.348992 0.643758 -0.337736 51.627356 9.285165 -3.803545 124.558934 63.335693 106.924925 0.000000 0.000000 0.000000 
0.906815 0.958511 3.819204 -2.321496 9.491361 -1.514553 2.922093 0.283938 7.551107 -2.636214 0.274628 -6.407234 3.486133 10.581609 10.251777 0.000000 0.000000 0.000000 0.160386 -0.681408 5.906087 2.081140 -0.240579 1.695298 -0.938362 -4.526048 7.506482 0.000000 0.000000 0.000000 -1.276357 -0.199940 6.043203 5.180171 -0.419307 -25.778379 -2.212523 -6.374553 29.565816 -1.359832 2.182079 -24.790341 0.000000 0.000000 0.000000 -21.493811 4.204510 -3.532758 -46.974630 -7.249895 -5.316861 -108.494426 -51.850126 75.624615 0.000000 0.000000 0.000000 13.884507 0.330105 -0.465177 51.205252 8.392647 -4.141722 122.532071 63.748105 104.969717 0.000000 0.000000 0.000000 
0.907525 0.958212 3.823492 -2.452014 9.365043 -1.112506 2.932769 0.279762 7.481114 -2.758323 0.279201 -6.328242 3.673513 10.760956 9.883137 0.000000 0.000000 0.000000 -0.004095 -0.664030 5.846078 2.302789 -0.276796 1.267636 -1.144585 -5.053172 7.800563 0.000000 0.000000 0.000000 -1.241456 -0.184231 5.626600 5.094352 -0.423912 -25.296538 -2.079183 -6.059491 29.096456 -1.299948 2.205265 -25.097229 0.000000 0.000000 0.000000 -21.845680 4.535548 -3.863981 -46.531104 -5.807361 -5.722228 -103.773857 -51.021994 69.478168 0.000000 0.000000 0.000000 14.344738 0.114862 -0.570847 50.879525 7.260988 -4.525966 116.891578 64.728239 99.217425 0.000000 0.000000 0.000000 
0.908036 0.957894 3.826970 -2.547607 9.462337 -0.756149 3.191347 0.243058 7.315378 -2.965519 0.284388 -6.056271 3.795315 10.791834 9.300670 0.000000 0.000000 0.000000 0.033598 -0.608826 5.363922 2.489409 -0.304648 1.173148 -1.490664 -5.769689 7.720675 0.000000 0.000000 0.000000 -1.217342 -0.170296 5.258227 5.035290 -0.396876 -25.513776 -2.286592 -5.863931 29.279446 -0.985826 2.062121 -25.068754 0.000000 0.000000 0.000000 -22.555702 4.227177 -3.854139 -46.205583 -5.189119 -5.899749 -97.360441 -51.307277 63.505943 0.000000 0.000000 0.000000 14.828351 -0.254323 -0.729536 50.611418 5.553986 -5.209003 108.106927 64.949461 89.555955 0.000000 0.000000 0.000000 
0.908375 0.957333 3.829912 -2.540556 9.346654 -0.437658 3.170939 0.242208 7.231518 -2.913314 0.282955 -6.487023 3.889789 11.007701 9.563407 0.000000 0.000000 0.000000 -0.124757 -0.595500 5.330676 2.694684 -0.336539 0.749520 -1.691656 -6.272772 8.007406 0.000000 0.000000 0.000000 -1.314734 -0.145446 4.752730 5.075898 -0.438463 -24.859538 -2.555520 -5.785886 28.771577 -0.741855 1.928502 -25.223506 0.000000 0.000000 0.000000 -23.513367 4.428118 -4.132335 -46.368431 -4.337227 -6.156967 -87.922550 -50.804939 54.721357 0.000000 0.000000 0.000000 15.431483 -0.183667 -0.747868 50.864215 4.123602 -5.739162 93.312935 64.814044 73.968427 0.000000 0.000000 0.000000 
0.908490 0.956900 3.832416 -2.622008 9.464516 -0.144487 3.353737 0.222560 7.312234 -3.046991 0.284380 -6.644512 4.054772 11.237847 9.448785 0.000000 0.000000 0.000000 0.126477 -0.589503 5.165701 2.579521 -0.324614 0.461587 -1.777410 -6.452511 8.064986 0.000000 0.000000 0.000000 -1.380636 -0.126975 4.345658 5.006127 -0.409003 -25.051662 -2.724500 -5.774108 29.089082 -0.438291 1.748448 -24.962987 0.000000 0.000000 0.000000 -24.579760 3.840939 -3.945774 -46.553748 -3.994593 -6.320123 -75.340945 -50.580173 44.879997 0.000000 0.000000 0.000000 16.140066 0.087978 -0.613504 51.322009 3.126495 -6.222058 74.133909 63.532150 55.444821 0.000000 0.000000 0.000000 
0.908497 0.955893 3.834552 -2.575479 9.420966 -0.038392 3.351528 0.234014 7.600149 -2.905721 0.279789 -7.030866 4.018137 11.247380 9.726983 0.000000 0.000000 0.000000 0.303198 -0.608026 5.245139 2.330495 -0.295675 0.127758 -1.782774 -6.436473 7.904445 0.000000 0.000000 0.000000 -1.356891 -0.120937 4.159979 4.881507 -0.389857 -24.834462 -2.989843 -5.517785 28.853260 -0.478074 1.849551 -25.660806 0.000000 0.000000 0.000000 -25.276718 3.871375 -4.154663 -47.344730 -2.829710 -6.785749 -58.193243 -47.737756 31.454488 0.000000 0.000000 0.000000 16.895169 0.536537 -0.371832 52.170728 2.478569 -6.556658 52.770133 58.886850 35.585600 0.000000 0.000000 0.000000 
0.908589 0.954869 3.836159 -2.645868 9.350714 0.109367 3.570968 0.206817 7.473546 -3.065474 0.284026 -6.985278 4.083604 11.396954 9.918004 0.000000 0.000000 0.000000 0.620509 -0.609182 5.118926 2.048361 -0.262338 -0.092752 -1.940255 -6.829342 8.185241 0.000000 0.000000 0.000000 -1.168908 -0.120011 3.935464 4.536550 -0.300465 -24.988538 -3.073278 -5.641911 29.042932 -0.285344 1.724677 -25.948462 0.000000 0.000000 0.000000 -25.777080 3.753633 -4.091642 -48.801844 -2.027722 -7.306871 -41.296579 -41.464316 19.135975 0.000000 0.000000 0.000000 17.357694 1.093052 -0.123765 53.063006 2.055906 -6.841142 36.599487 50.767081 21.001974 0.000000 0.000000 0.000000 
0.908859 0.954094 3.837164 -2.713154 8.980956 0.281642 3.338520 0.239333 7.544087 -2.692987 0.278298 -7.308036 3.874824 11.153147 10.305545 0.000000 0.000000 0.000000 0.712505 -0.607279 5.076062 2.031399 -0.268497 -0.638926 -1.762778 -6.524491 8.396439 0.000000 0.000000 0.000000 -0.785885 -0.130598 3.825091 4.305018 -0.248606 -25.015516 -3.199046 -5.370505 29.298083 -0.523094 1.908270 -26.677209 0.000000 0.000000 0.000000 -26.480543 3.688763 -4.157168 -49.299488 -1.629631 -7.540266 -29.222186 -34.004528 11.203401 0.000000 0.000000 0.000000 18.002450 1.109370 -0.127910 54.149438 2.434235 -6.822951 24.812261 41.869590 11.904429 0.000000 0.000000 0.000000 
0.909342 0.953447 3.837709 -2.593634 8.767490 0.377566 3.102097 0.267360 7.542006 -2.459537 0.275261 -7.495207 3.933371 11.177154 10.095872 0.000000 0.000000 0.000000 0.535580 -0.569141 4.851160 2.054388 -0.273724 -0.819041 -2.043836 -7.132302 8.362853 0.000000 0.000000 0.000000 -0.655506 -0.132694 3.755943 4.303808 -0.251196 -25.007115 -3.354406 -5.146679 29.514597 -0.218671 1.778076 -27.305892 0.000000 0.000000 0.000000 -27.179007 3.375691 -4.071589 -50.338220 -1.184684 -7.878643 -21.889414 -27.891470 7.070201 0.000000 0.000000 0.000000 18.660405 1.727659 0.210107 55.158148 3.096658 -6.668299 15.801154 34.007353 6.514618 0.000000 0.000000 0.000000 
0.909853 0.953118 3.838000 -2.511941 8.667342 0.204007 2.944766 0.299063 7.834953 -2.507198 0.277462 -7.938918 4.177050 11.739256 10.845213 0.000000 0.000000 0.000000 0.604758 -0.607279 5.138556 2.005694 -0.275928 -1.235786 -2.063578 -7.226074 8.579545 0.000000 0.000000 0.000000 -0.513889 -0.156492 4.188977 4.498158 -0.294380 -25.123725 -3.729301 -4.581546 29.499172 -0.132867 1.838626 -27.666775 0.000000 0.000000 0.000000 -27.308448 3.362938 -4.270657 -50.510472 -0.977852 -7.924332 -17.745331 -23.987493 5.042707 0.000000 0.000000 0.000000 19.218969 1.681343 0.295676 55.578985 3.522778 -6.530415 10.607025 28.367477 3.994831 0.000000 0.000000 0.000000 
0.910339 0.953032 3.838192 -2.302828 9.244868 0.172474 2.857394 0.303927 7.993511 -2.652857 0.272305 -8.348458 4.047079 11.570944 10.842863 0.000000 0.000000 0.000000 0.422800 -0.583791 5.005157 2.143541 -0.292412 -1.124393 -2.254874 -7.510666 8.203402 0.000000 0.000000 0.000000 -0.610014 -0.156423 4.286169 4.078200 -0.182614 -25.183400 -3.639245 -5.345259 29.648631 -0.414364 1.963839 -28.526759 0.000000 0.000000 0.000000 -28.120208 3.402400 -4.255460 -50.112602 -0.816628 -7.990391 -14.683641 -21.188250 3.833006 0.000000 0.000000 0.000000 18.954262 2.090745 0.433480 55.714540 2.961281 -6.797612 8.125520 24.568712 2.814306 0.000000 0.000000 0.000000 
0.910601 0.953353 3.838217 -2.216185 8.824733 0.188892 2.980322 0.303817 8.077941 -2.786636 0.278407 -8.611767 4.173588 11.856507 11.315142 0.000000 0.000000 0.000000 0.197253 -0.565909 4.973606 2.157050 -0.302930 -1.679815 -2.295506 -7.678105 8.459104 0.000000 0.000000 0.000000 -0.472095 -0.164376 4.340154 3.776505 -0.132796 -24.752438 -3.301817 -4.956077 29.173371 -0.571253 2.065158 -28.213228 0.000000 0.000000 0.000000 -28.248764 3.304610 -4.280272 -49.910842 -0.836724 -7.882827 -13.128854 -19.914464 3.289351 0.000000 0.000000 0.000000 19.412708 1.893524 0.315795 55.282299 2.767461 -6.786370 6.373262 23.392779 2.307540 0.000000 0.000000 0.000000 
0.910565 0.953582 3.837916 -2.063808 8.173814 0.442476 2.768209 0.330462 7.890906 -2.687368 0.286271 -8.571213 4.502631 12.054103 10.174248 0.000000 0.000000 0.000000 0.037864 -0.438003 3.970948 2.276388 -0.297678 -0.824570 -2.280717 -7.528151 7.528475 0.000000 0.000000 0.000000 -1.139372 -0.113938 3.803227 3.971264 -0.208306 -24.318574 -2.729465 -4.687173 28.859478 -0.408632 1.932842 -27.782362 0.000000 0.000000 0.000000 -28.204183 3.694216 -4.466790 -49.817137 -0.745874 -7.903332 -13.312089 -19.880476 3.324045 0.000000 0.000000 0.000000 18.221036 1.972491 0.351232 55.980818 2.708025 -6.845934 5.194879 21.872067 1.912102 0.000000 0.000000 0.000000 
0.910382 0.954637 3.837314 -2.091494 8.301974 -0.222353 3.576356 0.279523 8.677620 -3.957301 0.299850 -8.722965 4.140791 11.637203 10.765276 0.000000 0.000000 0.000000 0.053925 -0.533930 4.786603 2.167376 -0.302869 -1.710163 -1.819916 -6.779514 8.735180 0.000000 0.000000 0.000000 -1.146093 -0.143741 4.568719 3.874681 -0.188009 -24.239016 -2.274756 -4.331160 28.997392 0.804549 1.250426 -26.732252 0.000000 0.000000 0.000000 -28.298297 3.119496 -4.261376 -48.924721 -0.759953 -7.742039 -12.805506 -20.302829 3.278260 0.000000 0.000000 0.000000 19.204871 1.448232 0.145234 54.184128 3.721510 -6.291914 5.783400 21.356489 1.964273 0.000000 0.000000 0.000000 
