HIERARCHY
ROOT Hips
{
	OFFSET -0.001795 -0.223333 0.028219
	CHANNELS 6 Xposition Yposition Zposition Zrotation Yrotation Xrotation 
	JOINT LeftUpLeg
	{
		OFFSET 0.069520 -0.091406 -0.006815
		CHANNELS 3 Zrotation Yrotation Xrotation
		JOINT LeftLeg
		{
			OFFSET 0.034277 -0.375199 -0.004496
			CHANNELS 3 Zrotation Yrotation Xrotation
			JOINT LeftFoot
			{
				OFFSET -0.013596 -0.397961 -0.043693
				CHANNELS 3 Zrotation Yrotation Xrotation
				JOINT LeftToe
				{
					OFFSET 0.026358 -0.055791 0.119288
					CHANNELS 3 Zrotation Yrotation Xrotation
					End Site
					{
						OFFSET 0.000000 0.000000 0.000000
					}
				}
			}
		}
	}
	JOINT RightUpLeg
	{
		OFFSET -0.067670 -0.090522 -0.004320
		CHANNELS 3 Zrotation Yrotation Xrotation
		JOINT RightLeg
		{
			OFFSET -0.038290 -0.382569 -0.008850
			CHANNELS 3 Zrotation Yrotation Xrotation
			JOINT RightFoot
			{
				OFFSET 0.015774 -0.398415 -0.042312
				CHANNELS 3 Zrotation Yrotation Xrotation
				JOINT RightToe
				{
					OFFSET -0.025372 -0.048144 0.123348
					CHANNELS 3 Zrotation Yrotation Xrotation
					End Site
					{
						OFFSET 0.000000 0.000000 0.000000
					}
				}
			}
		}
	}
	JOINT Spine
	{
		OFFSET -0.002533 0.108963 -0.026696
		CHANNELS 3 Zrotation Yrotation Xrotation
		JOINT Spine1
		{
			OFFSET 0.005487 0.135180 0.001092
			CHANNELS 3 Zrotation Yrotation Xrotation
			JOINT Spine2
			{
				OFFSET 0.001457 0.052922 0.025425
				CHANNELS 3 Zrotation Yrotation Xrotation
				JOINT Neck
				{
					OFFSET -0.002778 0.213870 -0.042857
					CHANNELS 3 Zrotation Yrotation Xrotation
					JOINT Head
					{
						OFFSET 0.005152 0.064970 0.051349
						CHANNELS 3 Zrotation Yrotation Xrotation
						End Site
						{
							OFFSET 0.000000 0.000000 0.000000
						}
					}
				}
				JOINT LeftShoulder
				{
					OFFSET 0.078845 0.121749 -0.034090
					CHANNELS 3 Zrotation Yrotation Xrotation
					JOINT LeftArm
					{
						OFFSET 0.090977 0.030469 -0.008868
						CHANNELS 3 Zrotation Yrotation Xrotation
						JOINT LeftForeArm
						{
							OFFSET 0.259612 -0.012772 -0.027456
							CHANNELS 3 Zrotation Yrotation Xrotation
							JOINT LeftHand
							{
								OFFSET 0.249234 0.008986 -0.001171
								CHANNELS 3 Zrotation Yrotation Xrotation
								End Site
								{
									OFFSET 0.000000 0.000000 0.000000
								}
							}
						}
					}
				}
				JOINT RightShoulder
				{
					OFFSET -0.081759 0.118833 -0.038615
					CHANNELS 3 Zrotation Yrotation Xrotation
					JOINT RightArm
					{
						OFFSET -0.096012 0.032551 -0.009143
						CHANNELS 3 Zrotation Yrotation Xrotation
						JOINT RightForeArm
						{
							OFFSET -0.253742 -0.013329 -0.021401
							CHANNELS 3 Zrotation Yrotation Xrotation
							JOINT RightHand
							{
								OFFSET -0.255298 0.007772 -0.005559
								CHANNELS 3 Zrotation Yrotation Xrotation
								End Site
								{
									OFFSET 0.000000 0.000000 0.000000
								}
							}
						}
					}
				}
			}
		}
	}
}
MOTION
Frames: 96
Frame Time: 0.050000
0.000000 0.960874 0.000000 -1.824179 9.861400 -1.048824 4.150591 0.153849 7.652274 -2.329371 0.263325 -8.317135 2.907670 11.569760 17.039070 0.000000 0.000000 0.000000 1.116274 -0.462385 3.767873 1.085695 -0.184359 -1.666294 -0.205916 -4.468104 14.119916 0.000000 0.000000 0.000000 -0.628302 -0.254149 6.615955 4.936358 -0.330501 -25.389331 -2.297476 -4.737909 28.706456 0.881670 1.037634 -23.049199 0.000000 0.000000 0.000000 -32.139165 -0.209991 -2.825750 -47.913960 -2.592676 -6.871994 -13.515579 -22.784155 3.809099 0.000000 0.000000 0.000000 22.850004 2.799038 1.091501 53.690090 3.541971 -6.548640 8.938549 27.117309 3.408751 0.000000 0.000000 0.000000 
0.000378 0.960068 0.000528 -2.020605 9.890961 -0.408222 4.056794 0.143830 7.237420 -1.841521 0.256282 -8.826761 2.979023 11.642814 16.909167 0.000000 0.000000 0.000000 0.716766 -0.349820 2.961464 1.910931 -0.268675 -1.177134 0.158319 -3.607844 13.444156 0.000000 0.000000 0.000000 -0.106702 -0.239977 5.674978 4.659969 -0.265045 -25.321502 -2.791413 -4.934517 28.988989 1.490363 0.656112 -23.459230 0.000000 0.000000 0.000000 -31.744006 0.705775 -3.354035 -48.209838 -2.530456 -6.975518 -13.855808 -23.014433 3.934447 0.000000 0.000000 0.000000 22.709228 2.876627 1.103203 54.911324 3.182755 -6.824508 7.991918 28.194107 3.364167 0.000000 0.000000 0.000000 
0.000703 0.959590 0.000926 -1.840601 9.230884 -0.221652 3.812056 0.176106 7.060797 -1.906488 0.263868 -8.592567 3.347653 12.069122 16.888124 0.000000 0.000000 0.000000 0.715136 -0.347982 2.955984 1.451167 -0.217561 -1.408151 0.380717 -3.177546 13.026093 0.000000 0.000000 0.000000 0.007556 -0.245472 5.682935 4.737018 -0.271212 -25.736865 -2.883254 -4.805765 29.423020 0.549473 1.215479 -23.794703 0.000000 0.000000 0.000000 -31.887473 0.580111 -3.104502 -47.903737 -2.396459 -7.073939 -13.676442 -23.166288 3.945925 0.000000 0.000000 0.000000 22.255472 3.178342 1.183088 55.240894 3.389092 -6.761320 7.953829 28.139257 3.325638 0.000000 0.000000 0.000000 
0.001047 0.959762 0.001447 -2.090285 9.356066 -0.366722 3.770803 0.189769 7.436245 -1.362114 0.257626 -9.017948 3.285616 12.009416 16.940849 0.000000 0.000000 0.000000 0.819336 -0.334601 2.813205 1.795873 -0.250289 -1.053126 0.240010 -3.534912 13.444434 0.000000 0.000000 0.000000 0.301278 -0.276531 5.943762 5.117762 -0.333369 -26.329314 -3.296964 -4.885916 29.920320 1.039829 0.885630 -23.543440 0.000000 0.000000 0.000000 -32.528916 1.008917 -3.488262 -47.533760 -1.829647 -7.254801 -14.453341 -23.326424 4.143884 0.000000 0.000000 0.000000 21.947465 3.514086 1.411443 55.039064 3.535378 -6.727993 8.764606 28.595839 3.592469 0.000000 0.000000 0.000000 
0.001472 0.959856 0.002159 -2.074245 9.281901 -0.398562 3.608174 0.211024 7.519051 -1.152489 0.256064 -8.990666 3.325680 12.061178 16.961662 0.000000 0.000000 0.000000 0.779088 -0.338526 2.857466 1.668270 -0.232979 -0.971149 0.436318 -3.170578 13.439022 0.000000 0.000000 0.000000 0.495489 -0.318172 6.492643 5.681924 -0.494705 -25.812746 -3.817274 -4.495776 28.960279 1.252339 0.747011 -22.484887 0.000000 0.000000 0.000000 -32.349781 0.842770 -3.537143 -47.215972 -0.946761 -7.383569 -15.780236 -24.339368 4.599050 0.000000 0.000000 0.000000 21.896416 3.091807 1.214918 54.697238 3.503186 -6.603275 9.369041 29.143935 3.829184 0.000000 0.000000 0.000000 
0.002067 0.959796 0.003182 -2.037198 9.215522 -0.534320 3.544889 0.231493 7.840922 -1.141079 0.256632 -8.979307 3.239695 11.854816 16.613790 0.000000 0.000000 0.000000 0.672210 -0.382095 3.252530 1.713859 -0.238488 -0.984183 0.510471 -2.884217 12.845616 0.000000 0.000000 0.000000 0.343475 -0.313001 6.587118 5.806382 -0.518472 -25.952010 -3.888840 -4.617894 29.419781 1.301421 0.676508 -22.446403 0.000000 0.000000 0.000000 -32.482045 0.948054 -3.532584 -46.910555 -0.745924 -7.474220 -16.644588 -25.048889 4.952891 0.000000 0.000000 0.000000 21.657388 3.278328 1.291400 54.657054 3.382489 -6.691729 9.522028 29.792614 3.967634 0.000000 0.000000 0.000000 
0.002786 0.959791 0.004494 -1.969133 9.301402 -0.540223 3.511828 0.236165 7.918142 -1.215198 0.255911 -8.881420 3.107578 11.640351 16.444198 0.000000 0.000000 0.000000 0.636125 -0.389908 3.327494 1.571739 -0.217835 -0.815100 0.503409 -2.818838 12.600396 0.000000 0.000000 0.000000 0.321835 -0.320103 6.744768 5.858047 -0.549197 -25.586788 -4.143294 -4.776760 29.333317 1.533641 0.506006 -22.449542 0.000000 0.000000 0.000000 -32.491633 0.902797 -3.447608 -46.673795 -0.437866 -7.559519 -17.054476 -26.069808 5.274167 0.000000 0.000000 0.000000 21.545254 3.227319 1.231320 54.620277 3.366695 -6.684110 9.782993 30.420440 4.136921 0.000000 0.000000 0.000000 
0.003653 0.959462 0.005897 -2.030160 9.209084 -0.631143 3.404702 0.239497 7.643667 -1.036595 0.244670 -7.901460 3.283047 11.714900 15.743418 0.000000 0.000000 0.000000 0.541968 -0.400555 3.446672 1.679679 -0.221354 -0.386259 0.656990 -2.331417 11.865112 0.000000 0.000000 0.000000 0.411880 -0.345754 7.106928 5.698126 -0.524277 -25.319066 -4.163022 -4.707387 29.427541 1.629005 0.421675 -22.206622 0.000000 0.000000 0.000000 -32.315304 0.965821 -3.453632 -46.192878 -0.328968 -7.543963 -18.091458 -27.358252 5.815810 0.000000 0.000000 0.000000 21.341891 3.129913 1.180434 54.388094 3.530181 -6.607587 10.314669 30.760464 4.333543 0.000000 0.000000 0.000000 
0.004641 0.959217 0.007441 -2.059827 9.305042 -0.673283 3.421565 0.219567 7.203174 -1.150408 0.237103 -7.057574 3.534941 12.078414 15.734297 0.000000 0.000000 0.000000 0.635675 -0.430602 3.666145 1.488433 -0.197781 -0.383210 0.623120 -2.305734 11.583572 0.000000 0.000000 0.000000 0.395583 -0.366190 7.483275 5.603010 -0.511106 -25.121019 -4.047481 -4.324977 29.379499 1.733825 0.400027 -21.852247 0.000000 0.000000 0.000000 -31.805878 0.830020 -3.472441 -46.261096 -0.329739 -7.514523 -18.337804 -27.753542 5.944043 0.000000 0.000000 0.000000 21.482735 3.194045 1.344238 53.913683 3.407594 -6.644330 10.203783 31.016965 4.364614 0.000000 0.000000 0.000000 
0.005999 0.958774 0.009217 -2.034316 9.407812 -0.503922 3.319752 0.205400 6.650049 -1.622748 0.239491 -5.924973 4.325995 12.947168 14.591247 0.000000 0.000000 0.000000 0.538494 -0.434277 3.726026 1.362629 -0.178256 -0.214376 0.761228 -1.793910 10.817989 0.000000 0.000000 0.000000 0.461222 -0.383537 7.692467 5.239358 -0.403926 -25.409358 -3.874027 -4.078657 29.937639 1.548389 0.606355 -22.378567 0.000000 0.000000 0.000000 -31.322469 1.143014 -3.716152 -46.184766 -0.457059 -7.495342 -19.169303 -28.267320 6.277619 0.000000 0.000000 0.000000 21.455081 2.941738 1.319507 53.448755 3.822440 -6.519183 10.475979 30.983536 4.462858 0.000000 0.000000 0.000000 
0.008203 0.958400 0.011718 -2.012283 9.317793 -0.452329 3.398782 0.172359 5.963288 -2.203438 0.256340 -5.118227 5.086405 14.214227 15.643518 0.000000 0.000000 0.000000 0.397387 -0.447235 3.883826 1.184763 -0.155448 -0.209138 0.986073 -1.295001 10.630082 0.000000 0.000000 0.000000 0.260053 -0.394635 8.147916 4.991108 -0.346733 -25.473260 -3.530075 -3.637028 30.083603 1.588599 0.669813 -22.688518 0.000000 0.000000 0.000000 -30.929483 1.302865 -3.910059 -46.118176 -0.590612 -7.428731 -19.428540 -28.669540 6.423802 0.000000 0.000000 0.000000 21.501520 2.890354 1.406428 53.055307 3.760038 -6.558821 11.029368 31.022960 4.637827 0.000000 0.000000 0.000000 
0.011844 0.957825 0.015461 -2.012805 9.896759 -0.345094 3.408212 0.135038 5.310037 -2.524554 0.260158 -4.007431 5.169765 14.340730 15.431681 0.000000 0.000000 0.000000 0.394585 -0.475955 4.108972 0.919009 -0.122976 -0.199367 0.771004 -1.602426 10.456336 0.000000 0.000000 0.000000 -0.081967 -0.387276 8.454068 5.127258 -0.355137 -25.722846 -3.284844 -4.050269 30.669971 1.098642 1.005511 -23.265764 0.000000 0.000000 0.000000 -30.918001 2.030766 -4.365416 -46.193780 -0.678188 -7.476110 -20.220750 -29.168998 6.784370 0.000000 0.000000 0.000000 21.273099 2.837490 1.392494 52.743614 3.778440 -6.587640 11.462882 31.687143 4.886131 0.000000 0.000000 0.000000 
0.017281 0.956653 0.020899 -2.060496 10.236681 -0.367719 2.904331 0.147229 4.766646 -1.966575 0.214018 -2.636311 5.347240 14.580892 15.232345 0.000000 0.000000 0.000000 0.256784 -0.501080 4.354638 0.527477 -0.067199 0.028228 0.921109 -1.258867 10.488754 0.000000 0.000000 0.000000 -0.569847 -0.379968 9.021419 5.425871 -0.407533 -25.950340 -2.925381 -4.007212 31.038707 1.056468 1.083477 -23.485953 0.000000 0.000000 0.000000 -30.870959 2.351594 -4.660814 -46.049391 -0.679445 -7.473866 -21.346042 -29.368718 7.139582 0.000000 0.000000 0.000000 21.059388 2.796468 1.459703 52.434982 3.267747 -6.829380 12.309647 33.041990 5.410437 0.000000 0.000000 0.000000 
0.024544 0.954909 0.027998 -1.889236 10.842573 -0.189323 2.387831 0.157538 4.318216 -1.929816 0.188363 -1.290160 5.266839 14.329529 14.272749 0.000000 0.000000 0.000000 -0.133863 -0.442874 3.977181 0.580870 -0.039395 1.313990 0.222037 -2.509867 10.099696 0.000000 0.000000 0.000000 -0.951351 -0.368655 9.383519 5.533247 -0.401400 -26.331192 -2.699702 -4.388399 31.420059 0.711700 1.313495 -23.813810 0.000000 0.000000 0.000000 -30.824616 2.906507 -5.019175 -46.175367 -0.348464 -7.656721 -22.471330 -30.298517 7.723340 0.000000 0.000000 0.000000 21.529216 2.620079 1.382341 51.480641 2.918268 -6.941130 13.217324 33.754104 5.818663 0.000000 0.000000 0.000000 
0.033503 0.952634 0.036623 -1.775749 11.342560 0.131794 1.859367 0.172336 3.978517 -1.931779 0.165672 -0.171688 5.269169 14.150169 13.235306 0.000000 0.000000 0.000000 -0.537796 -0.301987 2.838260 0.776311 -0.010354 4.182237 -0.669736 -4.016547 8.871568 0.000000 0.000000 0.000000 -1.249802 -0.357192 9.627320 5.688356 -0.431306 -26.291293 -2.580156 -4.633884 31.355327 0.907535 1.170061 -23.433304 0.000000 0.000000 0.000000 -30.676262 3.131594 -5.187032 -46.271248 -0.206889 -7.708701 -22.783642 -31.083592 8.026143 0.000000 0.000000 0.000000 21.333309 2.389155 1.273845 51.536400 1.784464 -7.397710 13.872545 34.945197 6.286891 0.000000 0.000000 0.000000 
0.043720 0.949815 0.046588 -1.548502 12.685569 -0.053492 1.248611 0.241747 4.620755 -1.845377 0.142863 0.308804 4.818435 13.266383 11.914359 0.000000 0.000000 0.000000 -0.481246 -0.066521 0.615952 0.686246 0.035939 9.837958 -2.763981 -8.278997 8.686295 0.000000 0.000000 0.000000 -1.362344 -0.427949 10.982445 5.607805 -0.392243 -26.293185 -2.777181 -5.279289 31.273302 0.645756 1.465566 -24.984567 0.000000 0.000000 0.000000 -30.118791 3.150682 -5.195304 -46.665724 -0.315485 -7.700810 -24.177630 -32.342942 8.792457 0.000000 0.000000 0.000000 21.124557 1.740657 0.959700 51.772093 0.983593 -7.733505 15.423802 37.070594 7.331303 0.000000 0.000000 0.000000 
0.054314 0.945188 0.057885 -1.416650 14.165922 -0.827030 1.199859 0.276860 5.486809 -2.465316 0.158505 1.727489 4.468624 12.275537 9.967673 0.000000 0.000000 0.000000 -0.221057 0.214225 -2.126594 0.424674 -0.055193 17.742214 -4.800392 -12.450311 9.480862 0.000000 0.000000 0.000000 -1.963513 -0.480219 12.660363 6.409576 -0.609950 -25.485906 -3.364221 -5.613820 30.918014 0.204826 1.806876 -24.694451 0.000000 0.000000 0.000000 -30.225178 3.172544 -5.462136 -46.243640 -0.969567 -7.282811 -24.775840 -35.089146 9.726411 0.000000 0.000000 0.000000 21.018384 1.634611 1.051928 51.920838 0.557218 -7.922729 18.003713 39.869805 9.068937 0.000000 0.000000 0.000000 
0.064346 0.941101 0.071009 -1.164603 15.766730 -1.504095 0.725965 0.360524 6.711960 -2.311659 0.114893 2.592280 4.023204 11.143752 8.408343 0.000000 0.000000 0.000000 -0.944494 0.672190 -8.009823 1.433388 -1.392149 31.829875 -5.973512 -14.658624 12.372142 0.000000 0.000000 0.000000 -2.569360 -0.596895 15.253862 6.094762 -0.462499 -26.462903 -3.376719 -7.874240 32.211795 -0.324653 1.969973 -26.762545 0.000000 0.000000 0.000000 -31.164344 2.951321 -4.843037 -44.214997 -3.207986 -6.498353 -26.343183 -39.609649 11.869418 0.000000 0.000000 0.000000 20.475356 0.963046 0.356411 50.943164 -0.199132 -8.179933 22.873963 43.307879 11.919851 0.000000 0.000000 0.000000 
0.073544 0.937803 0.088131 -1.283333 16.874722 -2.038519 0.973066 0.416130 9.334495 -2.589350 0.155038 1.701565 3.511005 9.498826 6.163941 0.000000 0.000000 0.000000 -1.455894 0.992586 -15.173569 2.769436 -3.698193 44.105775 -8.125414 -18.091101 21.740284 0.000000 0.000000 0.000000 -3.061455 -0.702125 17.281549 7.211100 -0.725101 -26.482451 -4.584222 -9.251641 31.818264 -0.679629 1.993663 -26.200700 0.000000 0.000000 0.000000 -30.536695 2.934039 -4.384119 -43.639553 -5.327635 -5.766062 -28.525217 -45.701723 15.008017 0.000000 0.000000 0.000000 19.747253 0.271724 -0.293588 51.390240 -1.781239 -8.708975 29.068507 46.119093 15.510710 0.000000 0.000000 0.000000 
0.082270 0.933329 0.110169 -1.504355 17.378903 -2.092814 0.968359 0.456925 11.307732 -2.245593 0.122721 1.790656 3.562141 8.516350 3.646674 0.000000 0.000000 0.000000 -1.570430 1.132640 -22.431443 3.355067 -4.955199 49.847548 -10.328075 -20.645502 32.640437 0.000000 0.000000 0.000000 -2.733962 -0.946861 19.545672 7.561290 -0.752128 -27.395192 -5.310019 -11.265692 32.283470 -1.591472 2.192006 -26.338726 0.000000 0.000000 0.000000 -30.879715 2.351104 -3.205994 -42.018768 -8.706153 -4.806424 -33.867902 -54.270824 21.605123 0.000000 0.000000 0.000000 17.801200 -0.254033 -0.950265 51.494392 -3.764855 -9.462986 39.159615 50.308501 22.001225 0.000000 0.000000 0.000000 
0.091180 0.927612 0.137779 -1.978013 17.232057 -1.739489 1.295934 0.449874 13.600925 -2.080536 0.132286 0.904186 3.834301 8.210022 1.957329 0.000000 0.000000 0.000000 -1.522045 1.165695 -28.241055 4.589468 -5.197344 47.996159 -11.654278 -22.144231 31.355408 0.000000 0.000000 0.000000 -2.029731 -1.158017 20.610968 8.465926 -0.974775 -27.025674 -6.349302 -12.625563 32.332341 -2.724049 2.611925 -27.286296 0.000000 0.000000 0.000000 -30.963048 1.974370 -2.281306 -40.938789 -11.724301 -3.984795 -43.278109 -63.099888 32.597216 0.000000 0.000000 0.000000 16.668322 -0.785751 -1.528110 51.587102 -4.869546 -9.859187 49.671482 53.177953 29.086865 0.000000 0.000000 0.000000 
0.100560 0.922158 0.170774 -2.653656 16.314981 -1.795925 1.067408 0.557624 17.008025 -1.521806 0.116100 -0.018054 5.110168 9.840348 0.447473 0.000000 0.000000 0.000000 -1.350807 1.259479 -32.475360 5.503924 -4.332001 41.472065 -7.011760 -16.140290 16.917309 0.000000 0.000000 0.000000 -1.158791 -1.543472 23.069501 9.546702 -1.166636 -28.116961 -6.737147 -13.186455 32.814335 -3.992903 3.143841 -27.907777 0.000000 0.000000 0.000000 -30.742921 2.035778 -1.709000 -40.002139 -16.165239 -2.786202 -59.534979 -70.279545 50.654096 0.000000 0.000000 0.000000 15.272700 -1.051253 -1.825366 50.995107 -5.786882 -10.099496 61.032218 56.711574 38.208522 0.000000 0.000000 0.000000 
0.110303 0.915959 0.209276 -2.858932 16.363570 -0.738330 0.930422 0.588723 19.153529 -1.153057 0.126841 -1.652191 5.655422 11.331437 1.991548 0.000000 0.000000 0.000000 -2.130525 0.954503 -35.363063 6.654197 -3.580209 32.568249 -5.137114 -12.628569 9.897916 0.000000 0.000000 0.000000 -0.047401 -1.790308 23.140584 9.634218 -1.230392 -27.250073 -6.808757 -15.794780 32.427109 -5.281570 3.419896 -29.419295 0.000000 0.000000 0.000000 -30.377428 1.524392 -0.270376 -39.903921 -20.221122 -1.824100 -82.718017 -76.018096 78.123465 0.000000 0.000000 0.000000 12.822993 -1.257144 -2.155131 51.679640 -7.082365 -10.711798 75.014458 58.125446 48.196068 0.000000 0.000000 0.000000 
0.120126 0.910169 0.254081 -2.788325 16.250685 1.391581 0.439857 0.708999 21.469956 0.707414 0.095484 -4.406774 3.954486 9.309498 4.391812 0.000000 0.000000 0.000000 -2.678210 0.719429 -37.404695 5.560609 -2.125680 24.187517 -5.379807 -12.947577 9.741631 0.000000 0.000000 0.000000 0.985110 -2.168132 24.295561 11.363620 -1.444158 -28.919023 -8.591774 -16.323012 32.965370 -4.109723 2.616045 -30.516728 0.000000 0.000000 0.000000 -28.357448 0.921915 0.507693 -39.946358 -23.782201 -0.740467 -117.322486 -76.269573 115.408836 0.000000 0.000000 0.000000 14.099714 -1.124739 -2.493368 49.727397 -7.351751 -10.269916 85.249719 59.910077 57.448325 0.000000 0.000000 0.000000 
0.129560 0.905978 0.305620 -2.827616 17.036364 3.619874 0.307935 0.679955 22.628607 2.254749 0.052030 -5.123838 3.311512 9.112675 6.751013 0.000000 0.000000 0.000000 -3.236595 0.342990 -39.116396 5.025711 -1.688285 21.007436 -5.584227 -13.231457 10.975654 0.000000 0.000000 0.000000 1.935134 -2.428364 24.050811 13.459022 -1.963901 -28.041897 -8.968043 -17.188364 31.692920 -3.722662 2.369792 -32.461674 0.000000 0.000000 0.000000 -25.437358 0.731658 0.701309 -42.568350 -26.604477 0.713699 -141.439866 -72.672302 142.220253 0.000000 0.000000 0.000000 13.218562 -1.690582 -2.807400 49.153029 -7.267109 -9.921174 95.401550 63.034792 69.226186 0.000000 0.000000 0.000000 
0.138070 0.905202 0.364834 -3.079697 17.666310 6.068571 0.804278 0.502470 22.675878 2.641560 -0.025245 -3.732491 3.292440 9.984861 9.315545 0.000000 0.000000 0.000000 -1.987946 0.560733 -41.880339 3.531056 -1.378734 23.748925 -4.221706 -10.940347 15.798173 0.000000 0.000000 0.000000 3.919112 -2.883724 23.311364 14.018240 -2.164306 -26.930863 -9.358588 -18.749709 29.919759 -3.221280 1.947958 -33.033079 0.000000 0.000000 0.000000 -24.226620 1.332077 0.572771 -43.270459 -26.913065 1.112986 -149.564925 -66.472320 149.932084 0.000000 0.000000 0.000000 13.476232 -0.392516 -2.531058 47.418968 -7.539184 -9.345051 103.781519 65.004433 78.568114 0.000000 0.000000 0.000000 
0.144978 0.908084 0.430487 -3.507636 17.111075 8.457765 1.888983 0.301312 20.890249 2.183799 -0.230911 0.825107 1.907593 8.947870 12.269589 0.000000 0.000000 0.000000 -0.691990 1.073075 -44.429919 2.957526 -1.465080 29.090297 -2.567996 -8.608124 17.704916 0.000000 0.000000 0.000000 5.698214 -3.141382 22.008225 13.937913 -1.953184 -28.214851 -9.861317 -18.945999 31.321989 -5.324436 2.894887 -33.463714 0.000000 0.000000 0.000000 -24.201681 2.161603 0.338255 -43.916899 -24.555202 0.068775 -145.198683 -61.233875 140.700996 0.000000 0.000000 0.000000 13.689391 0.059664 -2.490659 44.967869 -6.503612 -8.484452 108.852647 66.331819 84.866685 0.000000 0.000000 0.000000 
0.149753 0.911705 0.498799 -4.098351 16.797481 9.070242 4.035024 -0.115159 16.473228 1.185731 -0.898156 11.944595 1.111236 8.927524 15.618816 0.000000 0.000000 0.000000 1.006644 1.871221 -42.380663 2.509102 -1.507063 31.906681 -2.045876 -7.562902 15.834139 0.000000 0.000000 0.000000 7.479361 -3.707415 22.450794 12.613631 -1.614112 -28.551498 -7.604808 -18.354289 30.996392 -7.027849 3.754102 -35.513803 0.000000 0.000000 0.000000 -27.979647 1.171937 1.044647 -41.106029 -22.482201 -1.154442 -145.357343 -58.596326 137.914364 0.000000 0.000000 0.000000 11.656028 0.234206 -1.980265 46.158733 -5.630930 -8.574655 112.000693 65.811415 87.930778 0.000000 0.000000 0.000000 
0.153669 0.912441 0.565748 -4.439706 14.965153 8.983650 5.345646 -0.222770 8.292083 -2.371826 -1.604239 29.638782 4.149129 12.670680 14.713051 0.000000 0.000000 0.000000 2.909379 2.843701 -39.634632 1.541237 -1.087828 34.296633 -1.300615 -6.233838 14.207841 0.000000 0.000000 0.000000 7.082627 -3.809030 24.154723 12.912742 -1.675853 -28.383270 -6.801621 -15.949528 30.210956 -6.533866 3.732004 -33.987849 0.000000 0.000000 0.000000 -29.394382 0.909708 0.760302 -39.682703 -18.992567 -2.212367 -140.306228 -57.273369 127.406143 0.000000 0.000000 0.000000 12.684455 2.974422 -0.577134 43.964154 -4.293744 -7.636492 116.258022 66.758305 94.364052 0.000000 0.000000 0.000000 
0.158300 0.911261 0.631476 -4.950683 13.793646 8.401863 7.305159 -0.534128 -2.607373 -8.414644 -0.396936 47.230013 7.974285 17.320970 9.502620 0.000000 0.000000 0.000000 4.396113 3.208723 -33.348129 1.585970 -0.922499 32.022283 -1.377794 -5.328678 8.524047 0.000000 0.000000 0.000000 5.719875 -3.673108 26.041817 12.532344 -1.573916 -28.809526 -4.499446 -13.471055 30.473090 -7.531609 4.476350 -35.942209 0.000000 0.000000 0.000000 -32.008694 0.150634 0.599566 -38.441404 -15.628107 -3.124924 -137.646643 -56.235293 120.717067 0.000000 0.000000 0.000000 12.124206 5.150338 0.888867 44.254832 -0.068634 -6.452512 120.894467 69.111346 103.754071 0.000000 0.000000 0.000000 
0.164502 0.917777 0.698568 -4.780011 11.091497 8.087495 8.863782 -0.780282 -13.069945 -14.056012 3.440774 55.335579 11.346930 22.728548 5.680024 0.000000 0.000000 0.000000 5.185691 3.107610 -26.645845 1.476434 -0.493642 29.057652 -0.643548 -3.278212 5.672197 0.000000 0.000000 0.000000 3.440286 -2.943967 26.902920 11.963079 -1.504137 -28.550082 -3.048232 -8.852291 30.081917 -7.033876 4.793592 -35.187303 0.000000 0.000000 0.000000 -30.745725 0.640002 -1.130110 -39.644220 -10.955852 -4.056392 -133.998738 -55.512199 112.647992 0.000000 0.000000 0.000000 13.130185 6.525468 2.124017 42.827197 3.969488 -5.077836 126.638219 68.959384 112.603946 0.000000 0.000000 0.000000 
0.172338 0.929428 0.770505 -3.552774 9.517758 7.820681 8.818216 -1.140575 -23.062330 -15.402171 4.983648 56.153145 12.539183 25.044223 4.521358 0.000000 0.000000 0.000000 5.107339 2.193041 -17.472717 0.314233 0.187179 22.954388 -0.031769 -1.364064 3.719782 0.000000 0.000000 0.000000 -0.222889 -1.716392 26.180000 11.701796 -1.459535 -28.635444 -1.465200 -5.470929 30.530165 -8.190717 5.824082 -34.961566 0.000000 0.000000 0.000000 -30.686595 2.258960 -3.436886 -39.203808 -5.928542 -5.137075 -132.826238 -52.371760 105.250875 0.000000 0.000000 0.000000 12.807358 6.243907 2.509627 43.232368 8.989364 -3.681002 134.424833 67.218214 122.967930 0.000000 0.000000 0.000000 
0.183609 0.945064 0.848945 -2.636689 7.754101 8.178767 9.181851 -1.308833 -30.008008 -13.244844 3.975374 49.069400 12.047024 24.237537 7.586846 0.000000 0.000000 0.000000 4.262209 0.984282 -8.152347 -0.429304 0.475627 15.779828 1.640600 1.625224 5.811523 0.000000 0.000000 0.000000 -3.184714 -0.676913 23.887253 10.515599 -1.273687 -28.138581 0.278115 -1.785820 29.814540 -7.487197 6.023430 -32.991833 0.000000 0.000000 0.000000 -28.239664 4.275325 -5.669750 -40.020154 -0.477900 -6.405594 -132.188507 -46.018595 94.079450 0.000000 0.000000 0.000000 12.401718 5.093636 2.453033 45.704944 13.138476 -2.357567 140.780374 63.705504 131.307203 0.000000 0.000000 0.000000 
0.200371 0.959125 0.933699 -1.889638 7.383347 7.664528 8.505299 -1.472856 -31.012810 -7.673562 1.082952 30.711293 11.062706 22.781286 12.794993 0.000000 0.000000 0.000000 2.671720 -0.255291 1.384371 -0.812694 0.459533 10.288608 4.076932 4.656774 10.794570 0.000000 0.000000 0.000000 -5.920399 0.046330 21.635821 10.063299 -1.277216 -27.505248 1.428683 -0.026575 29.028796 -6.571884 5.864359 -31.333743 0.000000 0.000000 0.000000 -26.437197 6.626466 -7.506449 -40.219548 3.870528 -7.454678 -133.378612 -40.242599 85.913436 0.000000 0.000000 0.000000 9.727787 6.619221 3.252581 49.583787 15.207416 -1.258028 144.098901 61.211624 136.104804 0.000000 0.000000 0.000000 
0.223506 0.969835 1.023290 -1.826526 6.892134 6.892039 7.127566 -1.535185 -28.061487 -3.593980 0.211936 10.363064 8.240995 19.208626 21.075626 0.000000 0.000000 0.000000 1.444136 -0.992208 7.646553 -1.933626 0.754369 11.671042 6.709111 7.669418 14.960621 0.000000 0.000000 0.000000 -7.583977 0.417574 18.744895 9.447532 -1.240131 -26.777203 2.151209 1.635973 29.621993 -5.037160 5.327734 -32.930842 0.000000 0.000000 0.000000 -23.534325 8.397700 -8.363413 -41.772412 5.971767 -8.387806 -131.430083 -37.459523 77.724757 0.000000 0.000000 0.000000 7.838804 5.291247 2.668667 52.126114 18.477022 0.414622 142.388638 59.000326 133.355672 0.000000 0.000000 0.000000 
0.253130 0.966656 1.116316 -1.470997 8.350800 5.216161 5.210613 -1.639983 -23.566687 -3.368628 0.250500 4.415990 5.985276 16.537394 21.477590 0.000000 0.000000 0.000000 0.897957 -1.310957 10.379169 -3.801379 1.462169 18.845939 8.068302 7.679528 20.187771 0.000000 0.000000 0.000000 -8.498140 0.477253 17.417693 8.713746 -1.151923 -26.159019 3.364351 1.445784 29.902635 -4.032257 4.969121 -31.429312 0.000000 0.000000 0.000000 -22.580552 8.930716 -8.644724 -43.109028 5.437528 -8.483535 -127.978683 -36.425809 71.070803 0.000000 0.000000 0.000000 3.486483 5.182696 2.246366 56.082114 17.588979 0.781363 139.916477 56.802291 128.505475 0.000000 0.000000 0.000000 
0.285915 0.944636 1.208085 -0.383653 11.496695 2.783827 1.512407 -1.871065 -19.355585 -2.674534 -0.061122 10.480746 5.372602 14.905192 14.226129 0.000000 0.000000 0.000000 0.786455 -1.107008 8.723773 -5.001064 1.977906 34.279727 7.278130 6.057561 21.497598 0.000000 0.000000 0.000000 -10.120022 0.556326 18.858172 8.703283 -1.132252 -26.385798 3.237662 -1.984344 30.591514 -5.758849 5.639835 -30.042441 0.000000 0.000000 0.000000 -23.562846 8.545589 -8.080796 -43.449004 3.704401 -8.214537 -125.485175 -37.605435 71.261573 0.000000 0.000000 0.000000 1.739766 5.549693 2.158647 58.536428 15.058688 -0.458276 139.503817 53.589321 123.634414 0.000000 0.000000 0.000000 
0.316542 0.913677 1.292877 0.511689 14.208854 0.232429 -0.578246 -1.821261 -16.496398 -3.358228 -0.613042 21.207938 7.058463 14.953907 2.695634 0.000000 0.000000 0.000000 0.882586 -0.046765 0.386620 -6.731864 1.931097 55.550808 4.793463 3.378275 16.942054 0.000000 0.000000 0.000000 -10.650954 0.438096 22.867925 10.740528 -1.568377 -26.824138 -0.354865 -3.651769 30.548825 -5.555229 5.467307 -31.060509 0.000000 0.000000 0.000000 -25.877219 4.948528 -6.153543 -42.811888 -1.935055 -6.351318 -120.269374 -42.877452 73.695028 0.000000 0.000000 0.000000 5.956375 5.822641 2.614636 57.503235 11.874523 -2.521719 134.422635 53.878766 115.536956 0.000000 0.000000 0.000000 
0.342934 0.896655 1.374357 0.732765 17.516354 -2.250865 -0.966910 -1.022918 -10.032024 -4.012873 -1.008475 25.287022 7.929939 13.201682 -6.495235 0.000000 0.000000 0.000000 0.790412 0.981936 -10.300226 -8.280219 1.213998 68.012814 2.701037 2.914216 7.714245 0.000000 0.000000 0.000000 -10.237746 -0.048945 27.659522 11.595017 -1.678565 -27.793993 -2.855828 -8.094224 32.213743 -6.812543 5.582824 -34.285391 0.000000 0.000000 0.000000 -28.988692 0.697162 -2.639438 -40.644348 -12.245098 -3.401388 -116.135345 -51.705903 82.823001 0.000000 0.000000 0.000000 9.718684 5.779103 2.560733 55.327482 8.934567 -4.516789 127.117551 55.778609 104.721019 0.000000 0.000000 0.000000 
0.367375 0.900484 1.459632 0.268740 19.956618 -2.934964 -0.895154 0.011512 -0.126927 -1.384376 -1.214715 19.199809 6.987682 9.562712 -7.954594 0.000000 0.000000 0.000000 0.907849 1.502921 -21.363410 -6.712530 -0.896010 67.159712 0.264876 -0.501915 2.911146 0.000000 0.000000 0.000000 -8.250864 -0.830281 29.742712 12.241237 -1.708767 -28.962097 -4.713933 -12.981967 32.232682 -9.429200 6.340429 -33.689523 0.000000 0.000000 0.000000 -26.991426 1.044713 -1.241887 -42.610707 -18.768640 -1.808089 -118.545172 -54.748976 92.120169 0.000000 0.000000 0.000000 10.521770 3.225337 0.921697 51.834623 3.028060 -6.892370 120.344409 53.647382 89.480062 0.000000 0.000000 0.000000 
0.391891 0.917938 1.552719 -1.595701 20.855795 -2.779625 0.088484 0.410488 8.516588 2.169154 -1.291096 13.012860 4.299352 8.125328 0.215794 0.000000 0.000000 0.000000 1.568611 1.703695 -27.318831 -1.206802 -2.311190 46.067910 -2.762501 -6.861386 0.814269 0.000000 0.000000 0.000000 -5.252602 -1.454000 28.042092 12.764005 -1.795514 -29.314349 -5.213166 -17.336351 32.990515 -11.126928 6.478379 -36.174968 0.000000 0.000000 0.000000 -26.780404 2.770922 -1.063033 -43.590757 -21.768621 -1.194934 -127.893076 -52.900780 104.645622 0.000000 0.000000 0.000000 8.227077 1.683205 -0.073863 48.269566 -2.607170 -8.617936 120.024872 51.251501 82.306592 0.000000 0.000000 0.000000 
0.416758 0.940645 1.654116 -2.163234 22.279545 -1.209580 2.289453 0.048059 14.943642 2.128203 -0.770509 8.219581 -0.992365 6.028079 13.673763 0.000000 0.000000 0.000000 -0.297965 1.083715 -28.787480 2.843673 -1.152923 18.079639 -1.465132 -5.795951 19.831372 0.000000 0.000000 0.000000 -2.995755 -1.603265 24.451954 13.184393 -1.554801 -32.861502 -8.212523 -20.736309 35.695931 -14.135271 8.030114 -32.431084 0.000000 0.000000 0.000000 -24.681828 5.685958 -2.008613 -45.230108 -22.243099 -1.363119 -132.165762 -47.948725 107.374430 0.000000 0.000000 0.000000 6.315362 0.610252 -0.543542 47.433851 -8.538162 -10.881466 118.650125 47.157633 73.231489 0.000000 0.000000 0.000000 
0.440646 0.950234 1.758646 -0.724829 23.868880 -0.581394 3.286947 -0.367509 18.321038 1.367677 -0.960332 11.454519 -5.520484 3.603098 21.954218 0.000000 0.000000 0.000000 -1.217392 0.794377 -26.242431 2.828139 -0.563317 6.809885 -1.507561 -6.691064 30.244151 0.000000 0.000000 0.000000 -2.762541 -1.325884 21.373125 13.950880 -1.708265 -32.648383 -10.797166 -21.126311 35.466594 -12.150602 7.285309 -28.065263 0.000000 0.000000 0.000000 -24.398841 4.933332 -1.802504 -44.491766 -19.934413 -2.006479 -136.750656 -43.861227 108.153162 0.000000 0.000000 0.000000 5.246634 -0.547192 -0.857050 49.273448 -13.070182 -12.949441 116.827507 44.950760 68.517645 0.000000 0.000000 0.000000 
0.461414 0.936123 1.857813 -0.436956 24.872494 -2.068767 7.005954 -1.219683 17.151919 -1.047160 -1.974012 24.080732 -7.471692 1.768521 23.781223 0.000000 0.000000 0.000000 0.219732 1.082617 -25.768494 2.259731 -0.958773 16.023948 -3.009715 -8.272676 26.748723 0.000000 0.000000 0.000000 -1.624949 -1.394859 20.019978 12.311748 -1.550596 -29.572308 -8.853394 -20.345339 31.461212 -9.223171 6.309970 -19.259040 0.000000 0.000000 0.000000 -22.726707 4.031333 -1.903691 -45.271731 -16.299607 -2.749514 -136.566818 -40.270119 100.808416 0.000000 0.000000 0.000000 4.525826 -0.990833 -0.823251 50.216989 -16.948611 -14.398065 117.567751 44.561592 69.838023 0.000000 0.000000 0.000000 
0.476394 0.909295 1.942513 -1.050051 25.103532 -4.456409 9.632150 -1.077420 8.395161 -3.251163 -5.199522 45.191466 -3.968388 3.818225 19.361183 0.000000 0.000000 0.000000 3.020214 1.751467 -25.867376 0.356815 -1.732675 29.825791 -4.561923 -10.500693 17.474078 0.000000 0.000000 0.000000 -0.750678 -2.132017 24.108784 13.378958 -1.814747 -29.301449 -8.259635 -15.387432 30.099585 -6.118750 4.904265 -20.357135 0.000000 0.000000 0.000000 -23.030579 3.868611 -3.241143 -44.273021 -11.639629 -3.871589 -135.972764 -39.967848 94.917462 0.000000 0.000000 0.000000 9.679838 0.177557 -0.303991 47.454953 -13.780734 -12.156516 120.242218 50.127346 83.814861 0.000000 0.000000 0.000000 
0.487230 0.891202 2.010593 -2.332997 22.924757 -6.781133 10.175769 -0.631284 -3.856334 -9.169348 -4.880299 61.769800 5.702814 14.365453 11.220932 0.000000 0.000000 0.000000 6.731157 2.740374 -24.709507 -1.383678 -1.896285 39.298057 -4.407924 -10.724498 11.120938 0.000000 0.000000 0.000000 -0.363226 -3.261198 31.112271 13.214639 -1.797979 -29.467528 -2.876872 -9.007013 29.839289 -6.493296 5.994215 -21.140207 0.000000 0.000000 0.000000 -27.310697 1.986172 -4.026874 -41.942939 -8.748570 -4.307766 -131.102470 -41.856111 87.118767 0.000000 0.000000 0.000000 12.229387 3.136913 1.665259 47.146938 -3.921984 -8.843641 120.892842 59.450564 100.014743 0.000000 0.000000 0.000000 
0.498919 0.894587 2.071733 -1.682930 19.197399 -4.929624 8.751692 -1.123084 -17.945578 -11.092122 -2.563991 65.617307 8.592050 17.601775 0.779836 0.000000 0.000000 0.000000 7.693613 2.941086 -22.381199 -1.700644 -1.112631 39.741046 -3.318752 -8.842842 8.215032 0.000000 0.000000 0.000000 -1.159142 -3.130799 33.842082 12.069141 -1.435204 -30.423823 -0.524023 -2.707630 31.329573 -4.615333 5.535131 -21.891631 0.000000 0.000000 0.000000 -27.565673 1.311735 -5.070363 -40.890392 -6.079179 -4.730186 -122.941832 -46.075846 80.009309 0.000000 0.000000 0.000000 13.852129 4.922841 3.324438 45.966390 6.132908 -5.458474 127.887516 64.407553 117.562348 0.000000 0.000000 0.000000 
0.513655 0.910465 2.135283 -0.500800 16.184786 -2.385914 5.577175 -2.388224 -27.279478 -9.696770 -1.185694 57.238502 9.261316 19.278784 2.696006 0.000000 0.000000 0.000000 7.112091 2.345160 -16.701611 -1.497462 -0.307623 34.786787 -2.049437 -5.814894 3.734603 0.000000 0.000000 0.000000 -3.137913 -2.259884 34.329360 11.094871 -1.254289 -30.164416 2.449301 1.094945 31.272900 -3.246647 5.064182 -23.031133 0.000000 0.000000 0.000000 -29.875266 1.374906 -6.602664 -38.640760 -0.416367 -5.669366 -120.134681 -47.676032 77.453078 0.000000 0.000000 0.000000 12.772637 7.198767 4.609210 43.951158 13.803404 -2.530176 141.279193 67.503371 139.540850 0.000000 0.000000 0.000000 
0.531603 0.934774 2.205440 0.053873 12.672517 0.744117 3.200876 -3.187109 -31.201850 -5.872085 -0.948768 41.161004 7.950190 17.611750 6.475248 0.000000 0.000000 0.000000 6.297690 1.479725 -10.449424 -1.279885 0.344713 28.122926 -0.465876 -2.102529 3.067857 0.000000 0.000000 0.000000 -4.202822 -1.244334 30.960514 9.595146 -0.855671 -31.164716 3.722105 3.787755 32.645054 -1.429946 4.162658 -23.135463 0.000000 0.000000 0.000000 -29.615786 4.386151 -9.105443 -36.526587 4.294714 -6.519813 -119.198602 -43.281886 69.317419 0.000000 0.000000 0.000000 12.573039 6.983189 4.750870 42.933132 18.306987 -1.143473 144.170834 65.840483 143.725926 0.000000 0.000000 0.000000 
0.550993 0.959167 2.281622 -0.032249 11.618250 2.053884 1.225340 -3.398420 -30.071907 -2.582000 -0.712695 22.510251 5.764664 13.678907 5.426023 0.000000 0.000000 0.000000 6.131447 0.509285 -3.818024 -1.794720 0.703080 23.331466 1.114144 0.010195 7.854834 0.000000 0.000000 0.000000 -5.349922 -0.697865 28.784884 9.279319 -0.868215 -30.549628 4.730066 5.681804 30.920324 0.474168 3.064101 -21.797049 0.000000 0.000000 0.000000 -26.851080 6.305059 -10.141001 -36.405903 8.433892 -7.364956 -123.277907 -39.086545 66.391718 0.000000 0.000000 0.000000 7.775395 6.651705 3.859802 47.162982 20.088468 0.676104 143.740168 62.091985 141.940465 0.000000 0.000000 0.000000 
0.570187 0.975222 2.362375 -0.445695 10.879815 2.210155 0.515391 -2.850985 -25.718742 -2.017655 0.084908 3.668343 3.187785 10.963098 11.369452 0.000000 0.000000 0.000000 5.595950 -0.687271 3.729928 -1.642609 0.720429 20.061176 2.963594 2.682521 11.060588 0.000000 0.000000 0.000000 -5.916955 -0.388437 26.517228 8.759673 -0.796418 -30.393293 5.500994 5.399739 30.767013 -0.826601 3.866696 -22.716062 0.000000 0.000000 0.000000 -26.276897 7.794402 -10.685206 -35.673016 10.572906 -7.812529 -125.068451 -35.816666 63.320114 0.000000 0.000000 0.000000 6.518401 5.868049 3.234000 47.304748 21.431439 1.399016 138.771377 58.776894 131.032699 0.000000 0.000000 0.000000 
0.589320 0.978471 2.447884 -0.685231 9.266725 1.841336 1.518342 -2.228426 -22.922836 -3.661927 0.324581 -1.202435 2.669543 11.760899 18.358785 0.000000 0.000000 0.000000 4.139457 -1.359400 8.509031 -0.859532 0.587428 22.062990 4.730942 3.923635 15.745383 0.000000 0.000000 0.000000 -6.501207 -0.034096 22.685912 8.889527 -0.952913 -28.929364 4.429546 5.956031 32.075048 0.179269 3.362937 -24.516527 0.000000 0.000000 0.000000 -25.600713 10.712045 -12.166138 -35.489891 9.605497 -7.651352 -125.236998 -34.524090 61.371874 0.000000 0.000000 0.000000 6.191255 5.204430 2.890913 47.146132 22.164761 1.558124 135.743428 57.460866 125.280383 0.000000 0.000000 0.000000 
0.609064 0.965531 2.536326 -0.143762 9.445813 -0.700648 -0.810662 -2.116822 -19.031639 -2.713533 0.186186 3.253230 1.802615 11.296875 21.378818 0.000000 0.000000 0.000000 3.181568 -1.787397 11.901291 -0.954792 0.603680 28.242267 5.970663 3.835084 20.954953 0.000000 0.000000 0.000000 -9.375946 0.452475 21.808613 9.589142 -1.289669 -27.593918 5.221058 5.165495 32.222911 -0.590482 3.746034 -24.898630 0.000000 0.000000 0.000000 -25.819181 10.567668 -11.883303 -34.755232 9.576804 -7.481896 -123.251744 -37.996592 65.018370 0.000000 0.000000 0.000000 3.847853 4.245244 2.060193 51.473799 20.477471 1.603748 131.576172 53.862134 115.517553 0.000000 0.000000 0.000000 
0.629173 0.942138 2.623854 0.075674 10.289876 -2.633873 -2.854657 -2.065604 -16.485995 -1.323183 -0.352902 11.927038 2.430291 10.610640 14.937310 0.000000 0.000000 0.000000 2.805795 -1.332164 9.280538 -2.726001 1.098308 41.864613 6.404634 5.517513 18.494780 0.000000 0.000000 0.000000 -10.714973 0.599517 22.659365 10.713693 -1.510615 -28.150581 2.866076 2.575471 32.921306 -2.107827 4.364927 -27.867993 0.000000 0.000000 0.000000 -28.028912 11.868330 -12.581709 -32.715338 6.365569 -6.423841 -119.691730 -40.318386 65.792290 0.000000 0.000000 0.000000 6.135885 4.678754 2.430037 51.261671 18.151398 -0.025364 127.542026 52.146287 106.088018 0.000000 0.000000 0.000000 
0.648734 0.920188 2.706994 0.321164 12.732327 -5.243315 -3.715263 -1.671951 -12.937834 -1.788521 -0.904422 20.561704 4.245937 10.782498 5.653664 0.000000 0.000000 0.000000 2.570332 -0.351699 2.699818 -3.998138 0.631535 57.249369 4.954042 5.438694 12.527019 0.000000 0.000000 0.000000 -10.457319 0.331673 24.092729 10.284542 -1.586844 -26.506148 0.495113 -0.637227 33.063208 -2.249838 4.113001 -29.707849 0.000000 0.000000 0.000000 -29.626712 9.272436 -10.507902 -34.038640 0.034548 -5.375855 -119.208719 -46.136793 74.966944 0.000000 0.000000 0.000000 9.296068 3.336919 2.018426 52.250204 12.550394 -2.819998 123.136868 52.692600 99.346772 0.000000 0.000000 0.000000 
0.667351 0.913308 2.788432 0.231720 15.411169 -7.992528 -3.998212 -0.652811 -5.584035 -1.477803 -1.379000 23.059320 4.621483 8.780424 -0.936110 0.000000 0.000000 0.000000 3.077199 0.632488 -4.707548 -5.549240 0.251367 63.745546 2.723692 3.297111 7.113946 0.000000 0.000000 0.000000 -8.747526 -0.281910 26.465447 9.736946 -1.434068 -26.656661 -2.905759 -5.279739 33.235640 -3.561000 4.242098 -30.039069 0.000000 0.000000 0.000000 -30.680626 6.413850 -7.358014 -34.140661 -6.741209 -4.212091 -120.174745 -50.528624 83.965607 0.000000 0.000000 0.000000 11.749884 0.921167 0.629271 50.428060 5.365872 -6.007273 117.394115 50.662339 86.317759 0.000000 0.000000 0.000000 
0.685035 0.919492 2.871541 -1.020625 17.322341 -9.612052 -1.794964 0.266389 3.034503 -1.298451 -1.277909 20.696862 3.436195 5.489617 -2.350579 0.000000 0.000000 0.000000 2.238204 1.360226 -12.755594 -4.484052 -0.973077 58.975124 0.762606 1.174297 1.741342 0.000000 0.000000 0.000000 -6.377322 -0.959153 27.167814 9.703974 -1.284837 -28.177568 -5.970478 -10.797309 34.452731 -5.517868 4.532458 -30.680689 0.000000 0.000000 0.000000 -31.345051 4.754146 -4.463890 -34.393310 -13.723845 -3.172968 -122.830316 -52.860327 92.612781 0.000000 0.000000 0.000000 12.498303 -0.394079 -0.641850 46.507787 -1.387721 -8.133577 115.096453 49.388784 77.658259 0.000000 0.000000 0.000000 
0.702679 0.936660 2.958267 -2.513689 19.148069 -10.375562 0.526358 0.472838 12.343929 0.279548 -1.071830 14.817612 0.081314 1.962731 2.768331 0.000000 0.000000 0.000000 0.805406 1.360608 -16.780819 0.607237 -2.769654 42.627705 0.294008 0.033491 1.988319 0.000000 0.000000 0.000000 -3.765834 -1.492551 25.830321 9.778519 -1.162170 -29.913567 -7.743068 -16.165881 35.224872 -7.707972 5.071562 -28.995770 0.000000 0.000000 0.000000 -30.183311 4.085260 -2.226599 -37.600230 -17.246036 -2.943987 -126.580127 -51.760084 99.439185 0.000000 0.000000 0.000000 8.131158 -2.616238 -1.761035 44.093521 -7.887648 -9.849053 116.133473 48.950230 74.416362 0.000000 0.000000 0.000000 
0.720663 0.950808 3.047276 -2.374891 20.795270 -9.754379 1.150151 0.254317 19.524427 1.297159 -0.733768 9.307024 -3.136224 2.426175 13.007966 0.000000 0.000000 0.000000 -0.848012 1.022371 -17.187043 4.351582 -2.096446 22.369477 -0.717878 -2.652452 4.361023 0.000000 0.000000 0.000000 -2.423991 -1.523281 23.135847 9.703473 -1.146565 -29.665172 -9.707482 -21.422747 35.969651 -9.009649 4.977072 -30.280104 0.000000 0.000000 0.000000 -28.235154 4.979771 -1.225151 -41.588097 -19.612484 -2.657580 -128.818203 -50.369191 104.851035 0.000000 0.000000 0.000000 4.266877 -4.433094 -2.277089 42.275482 -12.343652 -10.852105 117.726388 47.594415 70.461245 0.000000 0.000000 0.000000 
0.738654 0.956203 3.135550 -1.628475 19.986989 -9.055472 1.141878 0.216950 23.249311 1.194778 -0.756690 9.928461 -4.420291 3.913102 20.600459 0.000000 0.000000 0.000000 -1.247781 0.956284 -16.590517 1.586266 -0.232843 5.103333 -0.501956 -3.861444 16.514671 0.000000 0.000000 0.000000 -1.977737 -1.150865 19.493925 10.519359 -1.298230 -29.892822 -11.893226 -22.039587 36.622899 -11.969691 6.898839 -26.896205 0.000000 0.000000 0.000000 -26.813872 4.236171 -0.333952 -43.456110 -20.234445 -2.524208 -127.066378 -51.137270 104.955889 0.000000 0.000000 0.000000 1.578644 -4.968974 -2.036139 42.853338 -14.940382 -12.002408 118.916811 47.222893 70.442341 0.000000 0.000000 0.000000 
0.754042 0.944168 3.220332 -1.778477 19.697824 -9.432372 4.004636 -0.389231 22.113216 -2.577536 -0.921370 20.812728 -4.071655 3.897742 19.993928 0.000000 0.000000 0.000000 -0.958521 1.046963 -17.548114 0.534731 -0.026790 3.913081 -0.460738 -4.906156 23.711247 0.000000 0.000000 0.000000 0.812407 -1.406664 18.288772 9.232912 -0.953375 -30.297253 -13.149126 -21.290294 37.177411 -11.133553 6.605100 -24.886319 0.000000 0.000000 0.000000 -26.907047 4.087683 -0.392636 -44.741845 -20.375387 -2.412782 -124.968596 -49.934195 100.784415 0.000000 0.000000 0.000000 2.322496 -3.984966 -1.799192 42.928088 -14.365736 -11.770772 122.981188 50.325670 80.050297 0.000000 0.000000 0.000000 
0.764374 0.917026 3.299452 -1.837570 19.867699 -10.881140 8.035944 -0.838905 15.186925 -7.598469 -1.236720 39.206747 -0.853181 6.792937 17.087768 0.000000 0.000000 0.000000 -0.746143 1.131633 -20.078759 0.880765 -0.336626 15.734554 -1.225493 -5.480709 17.962959 0.000000 0.000000 0.000000 2.387513 -1.635678 18.390451 7.702344 -0.640196 -28.980829 -10.580668 -19.138502 35.821693 -10.653471 7.070296 -21.100274 0.000000 0.000000 0.000000 -28.586369 1.155995 0.584033 -43.580290 -18.780253 -2.725084 -121.580682 -48.857825 92.547039 0.000000 0.000000 0.000000 5.275286 -3.120872 -1.787553 42.317539 -11.784711 -10.592749 128.763171 55.122864 95.982486 0.000000 0.000000 0.000000 
0.769209 0.895332 3.365802 -2.727688 18.930232 -13.628744 10.235594 -0.624103 6.374647 -11.053161 -1.274299 53.985974 4.418223 12.080676 10.341159 0.000000 0.000000 0.000000 2.449769 1.881409 -20.969288 -1.390911 -0.266673 28.722461 -1.816405 -5.538474 7.096863 0.000000 0.000000 0.000000 2.935294 -2.279632 22.563304 7.637342 -0.624023 -29.569532 -8.109622 -14.197389 35.091334 -7.424803 5.577594 -22.500331 0.000000 0.000000 0.000000 -30.112051 -1.536787 0.606797 -41.821083 -15.537231 -3.288200 -116.501690 -51.229807 85.766847 0.000000 0.000000 0.000000 11.976776 -0.931430 -1.070484 41.287177 -3.282299 -7.826289 132.964626 60.701095 112.263556 0.000000 0.000000 0.000000 
0.772191 0.897790 3.419182 -2.760759 16.200878 -15.220577 10.073657 -0.287787 -1.936068 -12.722003 0.112987 56.376357 9.184497 18.527836 3.391642 0.000000 0.000000 0.000000 5.976152 2.519115 -18.563368 -4.200277 0.944909 33.235868 -1.469117 -4.404686 3.375457 0.000000 0.000000 0.000000 2.051142 -2.364195 25.248840 7.880986 -0.830270 -28.200328 -4.697665 -9.827044 32.835025 -6.562010 5.583134 -21.103824 0.000000 0.000000 0.000000 -31.706527 -2.755139 0.129305 -39.729825 -11.168769 -3.990999 -111.226877 -52.430848 78.947846 0.000000 0.000000 0.000000 12.777677 4.028274 1.577360 44.079965 6.502237 -5.022715 136.959960 66.744459 126.374846 0.000000 0.000000 0.000000 
0.776966 0.916820 3.464180 -1.984882 13.957115 -14.223753 8.061006 -0.339177 -7.684302 -9.940673 -0.165287 47.630193 7.999243 14.425543 -6.028174 0.000000 0.000000 0.000000 5.042058 2.054366 -15.137171 -2.151260 0.456901 30.878288 -0.721904 -2.620568 2.787165 0.000000 0.000000 0.000000 0.429718 -1.951943 25.578057 7.838009 -0.784514 -29.615359 -3.080470 -4.948420 32.924206 -4.690107 4.965864 -19.935620 0.000000 0.000000 0.000000 -29.070996 -3.242376 -0.724823 -40.126417 -7.871118 -4.623489 -107.614210 -52.833108 73.877068 0.000000 0.000000 0.000000 13.576936 5.958482 3.048262 45.461198 15.473506 -2.003050 142.938438 67.794863 138.250006 0.000000 0.000000 0.000000 
0.784648 0.937939 3.504505 -1.470545 13.241070 -12.528856 5.582663 -0.481423 -8.379367 -4.980205 -0.653260 28.504499 5.318587 9.908407 -1.909418 0.000000 0.000000 0.000000 3.766837 1.489566 -11.530643 -0.477485 0.054226 25.904391 -0.213962 -1.829060 4.260566 0.000000 0.000000 0.000000 -0.731420 -1.583199 24.565793 6.792282 -0.605264 -28.561810 -1.373103 -3.068434 30.994606 -2.625886 3.757023 -19.588909 0.000000 0.000000 0.000000 -28.202383 -2.301111 -1.930012 -39.248423 -4.763883 -5.075655 -110.473216 -51.834078 74.462197 0.000000 0.000000 0.000000 12.887433 7.062715 3.688678 47.721934 22.099354 0.993160 147.753971 67.354279 145.799618 0.000000 0.000000 0.000000 
0.794874 0.953654 3.542405 -1.326351 12.321297 -11.219656 4.428374 -0.449886 -6.995019 -2.194396 -0.282800 12.769311 1.013565 7.510854 11.400152 0.000000 0.000000 0.000000 3.200890 1.000014 -7.674984 0.348347 -0.005203 20.781845 0.213792 -1.215907 5.468802 0.000000 0.000000 0.000000 -1.606364 -1.266599 23.431854 5.593028 -0.291072 -29.405156 0.666367 -2.404628 30.876443 -2.188780 3.495238 -19.765698 0.000000 0.000000 0.000000 -28.033539 -1.237014 -2.635290 -38.944493 -3.536949 -5.402834 -111.879799 -50.496198 74.147087 0.000000 0.000000 0.000000 12.578767 7.079569 3.708636 48.544456 24.150138 1.928043 145.189633 64.880219 140.701431 0.000000 0.000000 0.000000 
0.807445 0.961372 3.579125 -1.709720 12.386321 -10.055630 4.360624 -0.340233 -4.968290 -1.335159 -0.065749 5.375273 -0.550542 7.988325 19.070731 0.000000 0.000000 0.000000 3.300351 0.628312 -4.533252 0.494906 0.029157 16.678332 0.102473 -1.607635 6.122686 0.000000 0.000000 0.000000 -1.625591 -1.082956 21.112903 5.528772 -0.268439 -29.363169 0.723255 -2.013784 30.430936 -2.077063 3.490175 -19.452463 0.000000 0.000000 0.000000 -27.104484 -0.747007 -3.042158 -40.319407 -2.929317 -5.708381 -111.671953 -49.543176 72.524441 0.000000 0.000000 0.000000 13.043365 6.739201 3.689424 48.190226 23.892121 1.786258 143.057721 62.689152 136.146183 0.000000 0.000000 0.000000 
0.821422 0.962631 3.613219 -2.024420 12.073324 -9.102009 4.661333 -0.210530 -2.400293 -1.367807 0.085170 1.223852 -0.509763 8.428651 20.433982 0.000000 0.000000 0.000000 3.578066 0.291973 -1.883425 0.101193 0.177142 13.970999 -0.109423 -1.819168 5.122387 0.000000 0.000000 0.000000 -1.307362 -0.927364 18.532784 5.212666 -0.197866 -29.473321 0.827050 -2.700557 31.061148 -2.081387 3.375959 -19.592324 0.000000 0.000000 0.000000 -27.070999 0.303467 -3.425096 -40.745311 -3.047218 -5.867853 -112.569357 -49.385874 73.737096 0.000000 0.000000 0.000000 13.520650 6.578590 3.575465 46.908004 22.095876 0.813598 141.497800 62.588178 133.179824 0.000000 0.000000 0.000000 
0.835668 0.960263 3.643198 -2.109641 11.716810 -8.337971 4.456268 -0.118252 -0.363698 -1.352682 0.145189 -1.143429 -0.110358 8.923155 20.586599 0.000000 0.000000 0.000000 3.120462 0.044692 -0.139801 -0.182094 0.264126 13.037088 0.164083 -0.709025 3.415627 0.000000 0.000000 0.000000 -1.462706 -0.764480 16.618953 5.588905 -0.316759 -28.710528 -0.083148 -3.080031 30.254421 -1.938923 3.215167 -20.887151 0.000000 0.000000 0.000000 -26.647525 0.630113 -3.400791 -41.001229 -3.060554 -5.888005 -111.769920 -49.481774 73.196131 0.000000 0.000000 0.000000 15.028245 6.066707 3.314981 45.735809 19.889326 -0.093402 136.067387 63.132967 124.955697 0.000000 0.000000 0.000000 
0.849137 0.958827 3.668809 -1.968446 12.243670 -7.949973 4.346398 -0.045503 1.566060 -2.401934 0.231072 -2.148102 0.013689 8.537944 18.644260 0.000000 0.000000 0.000000 2.364751 -0.118187 1.047867 -0.147974 0.242890 12.763695 -0.019465 -1.108338 3.354936 0.000000 0.000000 0.000000 -1.551525 -0.668310 15.169141 5.480322 -0.301005 -28.170543 -0.765682 -4.522816 30.082899 -2.079442 3.120434 -21.330555 0.000000 0.000000 0.000000 -26.698120 0.683936 -3.083100 -41.375457 -4.582415 -5.543110 -111.124032 -49.586187 73.223749 0.000000 0.000000 0.000000 15.465111 5.478573 2.852351 45.836576 17.044911 -1.139726 130.275641 63.446255 116.610995 0.000000 0.000000 0.000000 
0.861218 0.958554 3.691100 -1.860797 12.672168 -7.084235 3.995833 0.008669 2.882147 -2.839583 0.259341 -3.366219 0.037008 8.214935 17.459989 0.000000 0.000000 0.000000 1.694783 -0.291994 2.381196 -0.233838 0.253266 11.698344 0.041901 -0.748787 2.694607 0.000000 0.000000 0.000000 -1.688324 -0.566598 13.672930 5.735702 -0.355219 -28.074858 -1.671265 -5.518654 30.139171 -2.771085 3.454731 -21.598701 0.000000 0.000000 0.000000 -26.302416 0.574055 -2.735615 -42.171093 -6.249289 -5.167684 -109.259932 -49.582891 71.717474 0.000000 0.000000 0.000000 16.079942 4.845728 2.432577 46.301843 14.666425 -2.010912 122.890498 62.869061 106.025807 0.000000 0.000000 0.000000 
0.871448 0.959521 3.710685 -1.801159 12.577704 -6.331416 3.330586 0.073813 3.672418 -2.427443 0.240352 -3.678482 0.243026 8.241610 16.750264 0.000000 0.000000 0.000000 1.493850 -0.408407 3.285635 -0.214358 0.244765 10.417967 -0.396462 -2.075773 3.650699 0.000000 0.000000 0.000000 -1.447002 -0.520446 12.553066 5.437632 -0.291258 -27.934426 -2.098389 -6.518158 29.971659 -2.800862 3.300976 -22.003279 0.000000 0.000000 0.000000 -26.462631 0.702058 -2.508481 -42.335564 -7.766199 -4.752373 -107.717546 -49.925231 71.071204 0.000000 0.000000 0.000000 15.669366 4.231562 1.900834 47.011321 12.737330 -2.655540 117.833515 61.650598 97.845566 0.000000 0.000000 0.000000 
0.879696 0.960493 3.728424 -1.735076 12.257146 -5.784641 2.560539 0.172164 4.762340 -1.666714 0.212104 -4.334385 0.486392 8.408037 16.384379 0.000000 0.000000 0.000000 1.203184 -0.552068 4.436415 -0.178953 0.224647 8.483927 -0.525470 -2.832460 5.380657 0.000000 0.000000 0.000000 -1.545814 -0.458193 11.689632 5.574565 -0.306816 -28.492791 -2.657998 -6.983992 30.345309 -3.091176 3.389437 -22.460943 0.000000 0.000000 0.000000 -25.830839 1.025101 -2.396424 -42.725813 -8.786333 -4.557630 -108.320980 -50.192913 72.476962 0.000000 0.000000 0.000000 15.616936 3.839895 1.580617 47.228679 11.127499 -3.269052 115.482616 60.086483 92.863944 0.000000 0.000000 0.000000 
0.885953 0.960606 3.744592 -1.879671 12.178685 -5.427999 2.401833 0.239531 6.061594 -1.408282 0.212058 -5.366246 0.582872 8.395372 16.018464 0.000000 0.000000 0.000000 1.228484 -0.626033 4.986998 -0.093748 0.186535 6.943545 -0.869738 -4.294052 8.456848 0.000000 0.000000 0.000000 -1.498591 -0.428727 11.064901 5.739493 -0.356507 -28.341322 -2.988644 -7.538152 30.014245 -2.977338 3.202213 -22.124778 0.000000 0.000000 0.000000 -25.742574 1.335027 -2.412402 -42.896783 -9.471489 -4.344795 -109.381460 -50.292797 73.969866 0.000000 0.000000 0.000000 15.206060 3.674349 1.367394 47.605327 9.987963 -3.633379 115.848436 59.133730 91.769395 0.000000 0.000000 0.000000 
0.890628 0.960139 3.759008 -1.877902 11.564990 -4.922372 2.174460 0.302160 6.881467 -1.217973 0.214358 -5.902624 0.985419 8.766404 15.672642 0.000000 0.000000 0.000000 1.103395 -0.710239 5.675845 -0.056131 0.164324 5.790021 -0.893447 -4.598604 9.349181 0.000000 0.000000 0.000000 -1.532224 -0.388116 10.453853 5.678717 -0.348840 -28.330621 -3.029688 -7.507906 30.045430 -2.542238 2.845998 -21.533090 0.000000 0.000000 0.000000 -25.343653 1.433517 -2.309269 -42.679914 -9.867663 -4.240066 -110.838950 -51.056280 76.641734 0.000000 0.000000 0.000000 15.433723 3.341546 1.122938 47.350523 9.183156 -3.912504 117.017024 58.591035 92.211717 0.000000 0.000000 0.000000 
0.894154 0.959688 3.771566 -1.934204 11.407406 -4.631914 2.391729 0.307985 7.448795 -1.602981 0.228304 -5.937598 1.140593 8.829490 15.276355 0.000000 0.000000 0.000000 1.218236 -0.754488 5.970325 0.166649 0.114775 5.255266 -1.596618 -6.358646 10.853378 0.000000 0.000000 0.000000 -1.792084 -0.349079 10.097752 5.935147 -0.405264 -28.398066 -3.120695 -7.814825 30.184317 -2.604179 2.816890 -21.590264 0.000000 0.000000 0.000000 -25.466204 1.802679 -2.414450 -42.569640 -10.074485 -4.208572 -112.454621 -51.905907 79.660699 0.000000 0.000000 0.000000 15.480511 2.929316 0.830101 47.470957 8.533911 -4.154636 119.566879 58.108543 94.448632 0.000000 0.000000 0.000000 
0.897062 0.959081 3.782331 -2.037883 10.661623 -4.240061 2.372847 0.341373 7.910452 -1.535746 0.232183 -6.091229 1.602247 9.318640 15.017226 0.000000 0.000000 0.000000 1.097568 -0.785537 6.277114 0.371007 0.061454 4.150339 -1.564325 -6.693674 12.585261 0.000000 0.000000 0.000000 -1.942399 -0.311568 9.645227 6.240423 -0.490180 -28.195361 -3.050851 -7.600673 30.046188 -2.511900 2.719376 -21.647405 0.000000 0.000000 0.000000 -25.545095 2.382353 -2.699702 -42.653981 -10.099208 -4.215108 -113.247745 -52.490758 81.417997 0.000000 0.000000 0.000000 15.575343 2.826812 0.707037 47.613032 8.350902 -4.195740 121.861805 58.944403 98.080065 0.000000 0.000000 0.000000 
0.899727 0.958737 3.791657 -2.069026 10.356005 -3.902959 2.477516 0.341990 8.053724 -1.798478 0.241002 -5.818945 1.821574 9.516390 14.759896 0.000000 0.000000 0.000000 1.033985 -0.807172 6.478397 0.573895 0.016110 3.515592 -1.899330 -7.607449 13.921767 0.000000 0.000000 0.000000 -1.928654 -0.300576 9.434058 6.446838 -0.558986 -27.804797 -3.104964 -7.198875 29.724481 -2.277943 2.600007 -21.529687 0.000000 0.000000 0.000000 -25.681029 2.434592 -2.826290 -42.594289 -9.774522 -4.268104 -114.409051 -52.931596 83.124167 0.000000 0.000000 0.000000 16.220527 2.539077 0.565315 47.463967 8.381699 -4.149374 123.633227 60.233246 101.897222 0.000000 0.000000 0.000000 
0.902214 0.958319 3.799890 -2.133246 9.997099 -3.507638 2.488808 0.352552 8.196176 -1.860127 0.245351 -5.788461 2.059024 9.762195 14.581341 0.000000 0.000000 0.000000 0.839513 -0.814693 6.636059 0.937418 -0.045594 3.238068 -1.919653 -7.739967 14.145409 0.000000 0.000000 0.000000 -1.831539 -0.289997 9.089609 6.499718 -0.603122 -27.289732 -2.993840 -6.840913 29.264617 -2.305734 2.631863 -21.052846 0.000000 0.000000 0.000000 -25.964314 2.625719 -3.038987 -42.537901 -9.165936 -4.407540 -114.677806 -53.180803 83.609470 0.000000 0.000000 0.000000 16.638926 2.435230 0.504626 47.450439 8.471603 -4.068006 125.305360 61.579397 105.594479 0.000000 0.000000 0.000000 
0.904337 0.958389 3.807299 -2.298500 9.641086 -3.238717 2.608085 0.359731 8.525822 -1.900695 0.250381 -5.981592 2.242581 9.990855 14.605491 0.000000 0.000000 0.000000 0.653845 -0.843278 6.960290 1.170985 -0.099814 2.222822 -1.561981 -7.434607 15.926771 0.000000 0.000000 0.000000 -1.612528 -0.293707 8.852136 6.469882 -0.601960 -27.295551 -2.828310 -6.366026 29.223337 -2.171501 2.591272 -21.014112 0.000000 0.000000 0.000000 -25.976978 2.799376 -3.243152 -42.600819 -8.225915 -4.686858 -113.703161 -53.173757 82.325906 0.000000 0.000000 0.000000 17.334709 2.016088 0.314111 47.192363 8.693065 -3.983422 124.809548 62.953830 106.653915 0.000000 0.000000 0.000000 
0.905836 0.958364 3.813801 -2.331048 9.390604 -2.902498 2.747066 0.358333 8.750758 -2.169606 0.262566 -6.214586 2.346461 10.127554 14.679748 0.000000 0.000000 0.000000 0.459643 -0.851584 7.136861 1.422142 -0.141583 1.908386 -1.374107 -7.182863 16.174001 0.000000 0.000000 0.000000 -1.534515 -0.288192 8.640882 6.426547 -0.615912 -26.913994 -2.649512 -5.719074 28.829737 -1.887429 2.481756 -20.715140 0.000000 0.000000 0.000000 -26.025962 2.909353 -3.503000 -42.584085 -7.302615 -4.899830 -111.624109 -52.814035 79.242791 0.000000 0.000000 0.000000 17.953769 1.541295 0.136430 46.999050 8.367837 -4.079918 124.121817 63.779838 106.936940 0.000000 0.000000 0.000000 
0.906815 0.958511 3.819204 -2.462612 9.181631 -2.716939 2.910962 0.349306 8.883322 -2.251056 0.266484 -6.171310 2.453839 10.267000 14.713684 0.000000 0.000000 0.000000 0.489537 -0.844430 7.077343 1.534114 -0.163191 1.564568 -1.392681 -7.540580 17.811955 0.000000 0.000000 0.000000 -1.485198 -0.284947 8.504168 6.469153 -0.626243 -26.964315 -2.559604 -5.245771 28.686704 -1.795043 2.490482 -20.881662 0.000000 0.000000 0.000000 -26.164605 2.972718 -3.691641 -42.463915 -6.110656 -5.220929 -107.578646 -52.438492 74.205694 0.000000 0.000000 0.000000 18.491013 1.215859 0.016482 46.576897 7.505201 -4.373752 122.100489 64.233647 105.024076 0.000000 0.000000 0.000000 
0.907525 0.958212 3.823492 -2.577355 9.058669 -2.319282 2.905188 0.347238 8.809123 -2.057764 0.261211 -6.316486 2.559918 10.389103 14.653305 0.000000 0.000000 0.000000 0.312354 -0.824466 7.015958 1.749942 -0.200185 1.157607 -0.880665 -6.784727 18.411112 0.000000 0.000000 0.000000 -1.484695 -0.266943 8.098404 6.375383 -0.639588 -26.398973 -2.402434 -4.947238 28.106537 -1.731089 2.501206 -21.189833 0.000000 0.000000 0.000000 -26.501380 3.301714 -4.063767 -42.034706 -4.658074 -5.539735 -102.792120 -51.624281 68.128067 0.000000 0.000000 0.000000 18.935173 0.988278 -0.098072 46.268813 6.369668 -4.698296 116.384256 65.246974 99.204767 0.000000 0.000000 0.000000 
0.908036 0.957894 3.826970 -2.667031 9.153153 -1.970720 3.148198 0.310679 8.651060 -2.297971 0.268037 -6.353191 2.537247 10.334452 14.549646 0.000000 0.000000 0.000000 0.346617 -0.769153 6.546956 1.932146 -0.227393 1.063544 -1.155327 -7.515555 19.965231 0.000000 0.000000 0.000000 -1.475742 -0.252556 7.745302 6.314069 -0.607139 -26.654073 -2.615420 -4.752872 28.328794 -1.379577 2.316514 -21.187827 0.000000 0.000000 0.000000 -27.196060 2.988850 -4.061102 -41.690291 -4.020221 -5.676303 -96.281308 -51.892145 62.173004 0.000000 0.000000 0.000000 19.452819 0.620394 -0.248457 45.989703 4.716948 -5.292791 107.476910 65.555417 89.528165 0.000000 0.000000 0.000000 
0.908375 0.957333 3.829912 -2.658765 9.039102 -1.661245 3.126755 0.310960 8.569805 -2.293588 0.268992 -6.434301 2.633556 10.430914 14.442862 0.000000 0.000000 0.000000 0.189433 -0.754729 6.516652 2.131203 -0.260172 0.658079 -1.067151 -7.464857 20.370564 0.000000 0.000000 0.000000 -1.579762 -0.224235 7.239108 6.355053 -0.662309 -25.878075 -2.889923 -4.678295 27.673417 -1.109562 2.148930 -21.315358 0.000000 0.000000 0.000000 -28.105049 3.197099 -4.374904 -41.850869 -3.145519 -5.885617 -86.719872 -51.321411 53.368295 0.000000 0.000000 0.000000 20.074918 0.683139 -0.271814 46.240064 3.266991 -5.749110 92.340973 65.420025 73.639362 0.000000 0.000000 0.000000 
0.908490 0.956900 3.832416 -2.737767 9.152262 -1.373432 3.299628 0.290662 8.649483 -2.399043 0.271908 -6.888347 2.579631 10.350677 14.410555 0.000000 0.000000 0.000000 0.431874 -0.750464 6.354485 2.026044 -0.251031 0.380983 -1.417944 -8.123792 21.010803 0.000000 0.000000 0.000000 -1.660175 -0.203263 6.835979 6.290272 -0.629315 -26.102592 -3.060983 -4.667088 28.037397 -0.780781 1.935747 -21.044326 0.000000 0.000000 0.000000 -29.164542 2.608003 -4.176064 -42.000561 -2.779433 -6.030276 -74.006874 -50.970827 43.509744 0.000000 0.000000 0.000000 20.827462 0.955438 -0.102825 46.658081 2.295386 -6.187446 72.761333 64.076897 54.759740 0.000000 0.000000 0.000000 
0.908497 0.955893 3.834552 -2.691632 9.111624 -1.271321 3.295571 0.301857 8.930288 -2.455340 0.274055 -7.298965 2.626425 10.365326 14.250831 0.000000 0.000000 0.000000 0.601982 -0.770717 6.435454 1.790282 -0.225947 0.056473 -1.784644 -8.772919 21.294062 0.000000 0.000000 0.000000 -1.629477 -0.197576 6.649992 6.136416 -0.608545 -25.844696 -3.331497 -4.430230 27.745087 -0.804586 2.025776 -21.761808 0.000000 0.000000 0.000000 -29.808866 2.647245 -4.410503 -42.793637 -1.609533 -6.444883 -56.859151 -47.916240 30.229419 0.000000 0.000000 0.000000 21.637895 1.394603 0.171526 47.461057 1.631835 -6.505667 51.313229 59.226226 34.772327 0.000000 0.000000 0.000000 
0.908589 0.954869 3.836159 -2.759400 9.037710 -1.124247 3.506104 0.274517 8.806329 -2.705336 0.280430 -7.168710 2.742612 10.437882 13.921195 0.000000 0.000000 0.000000 0.909329 -0.773688 6.310952 1.523288 -0.196160 -0.159331 -2.214882 -9.542270 21.769645 0.000000 0.000000 0.000000 -1.435457 -0.199602 6.420620 5.721457 -0.501948 -26.014790 -3.371086 -4.600877 27.969171 -0.605658 1.880445 -22.093306 0.000000 0.000000 0.000000 -30.338313 2.527018 -4.321274 -44.196443 -0.847417 -6.939034 -40.171043 -41.456747 18.241453 0.000000 0.000000 0.000000 22.150966 1.953876 0.436605 48.296753 1.191504 -6.776681 35.391610 50.931033 20.386606 0.000000 0.000000 0.000000 
0.908859 0.954094 3.837164 -2.820219 8.667022 -0.948866 3.274714 0.309652 8.866012 -2.290517 0.274003 -7.416726 2.996738 10.740871 13.788835 0.000000 0.000000 0.000000 0.993989 -0.771046 6.264963 1.508962 -0.205580 -0.691198 -2.452436 -10.073005 22.385989 0.000000 0.000000 0.000000 -1.040444 -0.217145 6.317462 5.438836 -0.439172 -26.057021 -3.491947 -4.357749 28.244832 -0.847573 2.078528 -22.880157 0.000000 0.000000 0.000000 -31.022386 2.461423 -4.379720 -44.670539 -0.470463 -7.149919 -28.382775 -33.866480 10.627547 0.000000 0.000000 0.000000 22.833360 1.980395 0.443727 49.328586 1.592600 -6.781323 23.898456 41.897279 11.501166 0.000000 0.000000 0.000000 
0.909342 0.953447 3.837709 -2.706147 8.458088 -0.861044 3.048907 0.339572 8.869300 -2.209507 0.274206 -7.433855 3.136783 10.893113 13.659615 0.000000 0.000000 0.000000 0.827738 -0.732351 6.053977 1.529350 -0.211683 -0.873354 -2.705640 -10.640422 23.410200 0.000000 0.000000 0.000000 -0.882128 -0.223202 6.263428 5.417071 -0.436745 -26.054407 -3.668366 -4.139729 28.473607 -0.510685 1.915738 -23.591527 0.000000 0.000000 0.000000 -31.695760 2.152237 -4.288746 -45.690999 -0.033134 -7.470395 -21.264247 -27.685690 6.689979 0.000000 0.000000 0.000000 23.533778 2.588585 0.822424 50.281893 2.252899 -6.673611 15.145665 33.926449 6.262979 0.000000 0.000000 0.000000 
0.909853 0.953118 3.838000 -2.625896 8.364111 -1.014635 2.896661 0.370327 9.132354 -2.163872 0.274434 -7.508725 3.184938 10.940653 13.602513 0.000000 0.000000 0.000000 0.893498 -0.768736 6.316087 1.489261 -0.216637 -1.275034 -3.469867 -11.899118 23.997448 0.000000 0.000000 0.000000 -0.724051 -0.250494 6.681103 5.635617 -0.482167 -26.192164 -4.113229 -3.547431 28.465432 -0.381258 1.952001 -23.958396 0.000000 0.000000 0.000000 -31.775928 2.136517 -4.525788 -45.860109 0.203715 -7.500197 -17.264244 -23.746542 4.768306 0.000000 0.000000 0.000000 24.171528 2.540382 0.954905 50.631932 2.709500 -6.573242 10.104775 28.239570 3.825686 0.000000 0.000000 0.000000 
0.910339 0.953032 3.838192 -2.435913 8.939586 -1.060050 2.826931 0.372317 9.301987 -2.315422 0.272961 -7.761108 2.853528 10.497315 13.585211 0.000000 0.000000 0.000000 0.733144 -0.746868 6.195875 1.621635 -0.230930 -1.167357 -4.239578 -13.046869 25.047369 0.000000 0.000000 0.000000 -0.780727 -0.252600 6.794933 5.129353 -0.348183 -26.263353 -3.954873 -4.366388 28.635748 -0.706240 2.110384 -24.926010 0.000000 0.000000 0.000000 -32.630904 2.175427 -4.477404 -45.423814 0.322959 -7.546660 -14.287552 -20.922318 3.618909 0.000000 0.000000 0.000000 23.861965 2.942301 1.065772 50.812245 2.121359 -6.808518 7.698993 24.412368 2.687104 0.000000 0.000000 0.000000 
0.910601 0.953353 3.838217 -2.343728 8.537783 -1.026850 2.940160 0.372236 9.360415 -2.811515 0.287411 -7.806926 2.975298 10.700074 13.824804 0.000000 0.000000 0.000000 0.508211 -0.724554 6.150998 1.636563 -0.244502 -1.712098 -4.211270 -13.213639 26.698799 0.000000 0.000000 0.000000 -0.637686 -0.261833 6.829358 4.767091 -0.293087 -25.765161 -3.586023 -4.034422 28.072675 -0.875757 2.215350 -24.528846 0.000000 0.000000 0.000000 -32.766993 2.087360 -4.500420 -45.212293 0.335119 -7.442390 -12.790729 -19.633215 3.105969 0.000000 0.000000 0.000000 24.292238 2.738463 0.919409 50.388054 1.889290 -6.786050 5.997758 23.213120 2.194637 0.000000 0.000000 0.000000 
0.910565 0.953582 3.837916 -2.198530 7.890996 -0.802574 2.741805 0.403461 9.205457 -2.898743 0.297059 -7.831953 3.254289 11.114121 14.086947 0.000000 0.000000 0.000000 0.368948 -0.598023 5.209622 1.739137 -0.235450 -0.911288 -4.803376 -14.221947 27.430120 0.000000 0.000000 0.000000 -1.325190 -0.197287 6.318425 5.011820 -0.390790 -25.262517 -3.003506 -3.737693 27.682940 -0.706255 2.074664 -24.098949 0.000000 0.000000 0.000000 -32.763715 2.451701 -4.700182 -45.097689 0.433472 -7.449101 -12.953641 -19.615047 3.135426 0.000000 0.000000 0.000000 23.094030 2.814609 0.934845 51.109832 1.802363 -6.850674 4.829956 21.697699 1.814354 0.000000 0.000000 0.000000 
0.910382 0.954637 3.837314 -2.214244 8.031930 -1.440393 3.516526 0.345563 9.954729 -4.151160 0.318708 -8.016198 2.977061 10.815617 14.491434 0.000000 0.000000 0.000000 0.368378 -0.692961 5.992891 1.641824 -0.245422 -1.769229 -4.933446 -14.562229 29.950417 0.000000 0.000000 0.000000 -1.356797 -0.225671 7.039282 4.892068 -0.368429 -25.150158 -2.510443 -3.415098 27.832378 0.549633 1.295740 -22.984846 0.000000 0.000000 0.000000 -32.861073 1.887420 -4.485215 -44.237730 0.439290 -7.278868 -12.448042 -20.016197 3.089434 0.000000 0.000000 0.000000 24.016024 2.278783 0.722887 49.303887 2.846576 -6.321611 5.461557 21.188967 1.870391 0.000000 0.000000 0.000000 
