HIERARCHY
ROOT Hips
{
	OFFSET -0.001795 -0.223333 0.028219
	CHANNELS 6 Xposition Yposition Zposition Zrotation Yrotation Xrotation 
	JOINT LeftUpLeg
	{
		OFFSET 0.069520 -0.091406 -0.006815
		CHANNELS 3 Zrotation Yrotation Xrotation
		JOINT LeftLeg
		{
			OFFSET 0.034277 -0.375199 -0.004496
			CHANNELS 3 Zrotation Yrotation Xrotation
			JOINT LeftFoot
			{
				OFFSET -0.013596 -0.397961 -0.043693
				CHANNELS 3 Zrotation Yrotation Xrotation
				JOINT LeftToe
				{
					OFFSET 0.026358 -0.055791 0.119288
					CHANNELS 3 Zrotation Yrotation Xrotation
					End Site
					{
						OFFSET 0.000000 0.000000 0.000000
					}
				}
			}
		}
	}
	JOINT RightUpLeg
	{
		OFFSET -0.067670 -0.090522 -0.004320
		CHANNELS 3 Zrotation Yrotation Xrotation
		JOINT RightLeg
		{
			OFFSET -0.038290 -0.382569 -0.008850
			CHANNELS 3 Zrotation Yrotation Xrotation
			JOINT RightFoot
			{
				OFFSET 0.015774 -0.398415 -0.042312
				CHANNELS 3 Zrotation Yrotation Xrotation
				JOINT RightToe
				{
					OFFSET -0.025372 -0.048144 0.123348
					CHANNELS 3 Zrotation Yrotation Xrotation
					End Site
					{
						OFFSET 0.000000 0.000000 0.000000
					}
				}
			}
		}
	}
	JOINT Spine
	{
		OFFSET -0.002533 0.108963 -0.026696
		CHANNELS 3 Zrotation Yrotation Xrotation
		JOINT Spine1
		{
			OFFSET 0.005487 0.135180 0.001092
			CHANNELS 3 Zrotation Yrotation Xrotation
			JOINT Spine2
			{
				OFFSET 0.001457 0.052922 0.025425
				CHANNELS 3 Zrotation Yrotation Xrotation
				JOINT Neck
				{
					OFFSET -0.002778 0.213870 -0.042857
					CHANNELS 3 Zrotation Yrotation Xrotation
					JOINT Head
					{
						OFFSET 0.005152 0.064970 0.051349
						CHANNELS 3 Zrotation Yrotation Xrotation
						End Site
						{
							OFFSET 0.000000 0.000000 0.000000
						}
					}
				}
				JOINT LeftShoulder
				{
					OFFSET 0.078845 0.121749 -0.034090
					CHANNELS 3 Zrotation Yrotation Xrotation
					JOINT LeftArm
					{
						OFFSET 0.090977 0.030469 -0.008868
						CHANNELS 3 Zrotation Yrotation Xrotation
						JOINT LeftForeArm
						{
							OFFSET 0.259612 -0.012772 -0.027456
							CHANNELS 3 Zrotation Yrotation Xrotation
							JOINT LeftHand
							{
								OFFSET 0.249234 0.008986 -0.001171
								CHANNELS 3 Zrotation Yrotation Xrotation
								End Site
								{
									OFFSET 0.000000 0.000000 0.000000
								}
							}
						}
					}
				}
				JOINT RightShoulder
				{
					OFFSET -0.081759 0.118833 -0.038615
					CHANNELS 3 Zrotation Yrotation Xrotation
					JOINT RightArm
					{
						OFFSET -0.096012 0.032551 -0.009143
						CHANNELS 3 Zrotation Yrotation Xrotation
						JOINT RightForeArm
						{
							OFFSET -0.253742 -0.013329 -0.021401
							CHANNELS 3 Zrotation Yrotation Xrotation
							JOINT RightHand
							{
								OFFSET -0.255298 0.007772 -0.005559
								CHANNELS 3 Zrotation Yrotation Xrotation
								End Site
								{
									OFFSET 0.000000 0.000000 0.000000
								}
							}
						}
					}
				}
			}
		}
	}
}
MOTION
Frames: 108
Frame Time: 0.050000
0.000000 0.946188 0.000000 0.640265 23.473631 -3.157784 7.013742 -0.446707 3.115710 -1.727053 -0.070869 4.859747 -0.331955 6.743331 12.238683 0.000000 0.000000 0.000000 -5.182639 -0.036864 -4.309951 -1.465796 0.342077 7.610088 -20.487905 -31.911446 32.251042 0.000000 0.000000 0.000000 4.999901 -0.905523 8.996314 -7.747766 2.808060 -23.652328 0.576397 2.311777 29.431296 13.352441 -3.853813 -25.290167 0.000000 0.000000 0.000000 -10.749246 -3.061780 -1.876048 -51.398476 7.030421 -11.510331 -28.503826 -33.806740 8.396635 0.000000 0.000000 0.000000 16.243266 -5.803032 -0.313498 63.032024 2.958243 -6.527358 18.608509 37.092042 10.356819 0.000000 0.000000 0.000000 
0.003764 0.944858 -0.005555 1.327313 19.814733 -2.074962 6.601806 -0.334642 4.819961 -3.624871 0.218949 1.110239 1.349772 9.037673 12.750569 0.000000 0.000000 0.000000 -7.019936 -0.035473 -8.767846 -0.359051 0.101996 12.233923 -17.475430 -29.071109 29.465119 0.000000 0.000000 0.000000 5.206493 -1.062829 10.230368 -8.019504 2.736961 -24.745809 -0.847019 1.296819 29.796510 14.413454 -5.499255 -23.978799 0.000000 0.000000 0.000000 -9.968584 -4.041036 -0.661679 -54.126032 6.322881 -12.130421 -30.628928 -39.065122 11.278854 0.000000 0.000000 0.000000 16.773436 -3.977355 0.104392 61.062557 0.630114 -8.050244 23.453692 39.212056 12.566162 0.000000 0.000000 0.000000 
0.005828 0.943007 -0.010361 1.257008 14.037607 -1.940227 5.987767 -0.129923 6.004592 -4.128269 0.317056 0.060533 4.294304 12.943639 13.340381 0.000000 0.000000 0.000000 -7.361357 0.116913 -10.722267 0.252422 0.106868 12.623881 -14.253222 -26.245610 25.963621 0.000000 0.000000 0.000000 5.898629 -1.168616 10.924146 -8.257844 2.766072 -24.531775 -0.639764 1.139854 30.424298 11.539073 -3.719000 -26.758369 0.000000 0.000000 0.000000 -10.262672 -5.281343 0.510644 -52.725284 4.101083 -10.915452 -41.307434 -44.743468 18.719438 0.000000 0.000000 0.000000 17.424769 -3.832377 -0.564392 59.982784 -1.485132 -9.388377 23.757700 42.076515 13.329211 0.000000 0.000000 0.000000 
0.005418 0.940047 -0.012334 1.739838 9.987163 -1.574578 4.833569 0.094542 7.013951 -4.020055 0.350427 -1.305134 6.396017 15.721982 13.829479 0.000000 0.000000 0.000000 -8.203731 0.177111 -14.538619 1.618771 -0.145414 16.588961 -13.296628 -25.691798 24.502831 0.000000 0.000000 0.000000 6.155931 -1.359146 12.638860 -8.449334 2.696568 -25.391790 -1.587744 -0.912287 31.325607 12.649169 -5.149769 -27.362378 0.000000 0.000000 0.000000 -9.975728 -5.717705 1.482929 -52.349371 1.516781 -9.855896 -54.470210 -50.006168 29.882591 0.000000 0.000000 0.000000 17.011386 -3.706829 -1.495433 59.243059 -4.065121 -10.748799 32.215528 42.919340 16.668033 0.000000 0.000000 0.000000 
0.001295 0.937925 -0.009627 1.323505 4.562386 -2.050355 4.381811 0.330164 8.856238 -3.342098 0.346506 -2.064233 9.214030 19.489244 15.235512 0.000000 0.000000 0.000000 -7.856125 0.482345 -17.206769 3.293035 -0.384494 19.409385 -11.927480 -24.590080 23.883904 0.000000 0.000000 0.000000 6.373001 -1.552562 14.981239 -6.496189 2.189367 -26.028319 -3.107887 -0.737237 31.255901 13.082553 -5.827823 -27.831072 0.000000 0.000000 0.000000 -8.702630 -7.129264 2.568073 -50.143434 -2.550438 -7.780273 -76.996393 -54.709157 49.876473 0.000000 0.000000 0.000000 16.481139 -5.568795 -3.199429 57.837647 -7.131438 -11.976861 42.874538 43.292895 21.063959 0.000000 0.000000 0.000000 
-0.007194 0.936731 -0.000760 0.941397 -0.837388 -2.155530 3.827716 0.630989 10.857471 -2.174579 0.290289 -3.063543 11.989654 23.024963 17.899884 0.000000 0.000000 0.000000 -7.227482 0.885930 -19.389494 4.693243 -0.474513 21.427475 -10.213357 -22.966130 24.196797 0.000000 0.000000 0.000000 6.646029 -1.592786 16.235007 -4.755582 1.706333 -27.442484 -4.151161 -1.604815 32.223982 12.606047 -6.149541 -28.478467 0.000000 0.000000 0.000000 -7.704704 -7.604792 3.243333 -50.636388 -4.466685 -7.061905 -95.561133 -55.156338 68.738488 0.000000 0.000000 0.000000 15.680106 -6.368259 -4.395645 56.923649 -9.588737 -13.086406 48.663520 42.363662 22.162715 0.000000 0.000000 0.000000 
-0.021078 0.935898 0.014927 0.761440 -6.323992 -2.121351 3.736175 0.930634 12.569422 -1.953782 0.288323 -2.889809 14.792153 26.139086 21.674482 0.000000 0.000000 0.000000 -6.273456 1.334802 -20.444767 6.242728 -0.530734 22.919165 -8.875445 -21.937826 22.557670 0.000000 0.000000 0.000000 6.799854 -1.485141 16.386063 -3.375147 1.332187 -26.943971 -5.335429 -2.456273 32.230245 11.745814 -6.457449 -27.633609 0.000000 0.000000 0.000000 -5.693893 -7.058555 3.208736 -51.966200 -5.499688 -6.406127 -108.210242 -55.730773 85.218185 0.000000 0.000000 0.000000 14.356495 -7.066322 -5.363638 57.011661 -13.401047 -14.981138 54.423837 41.662810 23.125128 0.000000 0.000000 0.000000 
-0.041720 0.937886 0.036387 1.226202 -12.874809 -2.420523 2.811097 1.549848 15.326508 -1.583403 0.256910 -2.314385 16.453278 27.383137 25.716418 0.000000 0.000000 0.000000 -4.912173 1.752203 -20.197446 6.415850 -0.065385 23.378034 -6.752788 -19.812885 21.224744 0.000000 0.000000 0.000000 6.010198 -1.189648 16.244968 -1.293324 0.766870 -26.985876 -5.902667 -2.206392 33.096378 10.824677 -6.487465 -28.141576 0.000000 0.000000 0.000000 -3.578540 -4.924410 2.306746 -54.384286 -4.194375 -6.659196 -114.267498 -54.331806 93.599940 0.000000 0.000000 0.000000 14.334511 -7.985617 -6.581469 55.387119 -14.513296 -15.188128 59.580425 42.230567 24.578905 0.000000 0.000000 0.000000 
-0.068204 0.940736 0.061139 1.411833 -18.594569 -1.687800 2.904740 1.675537 14.716766 -2.358863 0.359570 2.208097 17.659043 27.510241 30.769055 0.000000 0.000000 0.000000 -3.571658 1.929345 -18.920297 6.316767 0.224555 21.082021 -3.825098 -16.410968 20.672169 0.000000 0.000000 0.000000 6.541690 -1.043416 14.392088 -0.694277 0.512530 -26.213703 -6.234316 -1.531477 32.610952 10.338051 -6.948081 -26.340079 0.000000 0.000000 0.000000 -2.334543 -3.537442 1.677493 -55.727420 0.424886 -8.170463 -115.041008 -53.511400 95.055424 0.000000 0.000000 0.000000 13.573938 -7.919461 -6.923596 56.092530 -17.434068 -16.883066 63.474656 43.012847 25.931213 0.000000 0.000000 0.000000 
-0.097254 0.942881 0.085532 0.832690 -24.555672 -1.484480 5.325100 1.564904 13.621905 -5.305451 1.447230 9.685309 15.906189 24.303929 34.645612 0.000000 0.000000 0.000000 -1.314186 1.927608 -16.709203 6.519414 0.432487 19.675539 -1.621548 -13.741773 19.490154 0.000000 0.000000 0.000000 8.076943 -1.074159 14.314601 0.468642 0.196955 -26.653445 -6.580817 -0.133124 32.756693 8.446573 -6.365673 -25.305967 0.000000 0.000000 0.000000 -2.741629 -1.878363 1.172210 -56.358233 4.679793 -9.846084 -110.824963 -54.241154 91.784861 0.000000 0.000000 0.000000 12.839506 -7.097583 -6.735867 55.826320 -19.081299 -17.774782 66.267365 43.763804 27.029566 0.000000 0.000000 0.000000 
-0.126219 0.941080 0.108090 1.591818 -31.038152 -2.455493 6.548484 1.452005 10.925684 -7.175077 4.110696 20.965002 11.141854 18.107139 36.035059 0.000000 0.000000 0.000000 -0.349292 1.738121 -14.790080 6.445456 0.854155 20.083504 0.331630 -11.184504 18.112654 0.000000 0.000000 0.000000 8.783757 -1.005529 16.428171 -0.022210 0.230418 -26.908609 -5.997195 0.895054 32.820987 8.053203 -6.613098 -25.441414 0.000000 0.000000 0.000000 -3.886877 -0.326074 0.876878 -56.337461 9.508768 -11.723369 -104.848010 -54.312264 86.056888 0.000000 0.000000 0.000000 11.718308 -6.932123 -6.813224 56.587657 -17.271175 -17.415423 68.069105 44.086740 27.007755 0.000000 0.000000 0.000000 
-0.153884 0.933482 0.128567 2.571121 -36.430610 -3.632772 6.648872 1.197856 6.872109 -6.065344 7.331635 31.989862 6.547486 12.487007 35.261363 0.000000 0.000000 0.000000 0.714447 1.542763 -13.233498 5.184528 1.688982 22.161885 1.757918 -7.237802 13.605121 0.000000 0.000000 0.000000 9.028467 -0.787887 19.736387 -0.220305 0.407455 -28.666031 -5.061557 0.844413 33.413159 7.263089 -6.738176 -24.475812 0.000000 0.000000 0.000000 -5.527558 0.907641 0.875156 -57.059489 12.438023 -12.917373 -94.336470 -55.162728 76.609612 0.000000 0.000000 0.000000 12.439442 -5.718759 -7.226386 55.235458 -15.969389 -16.143890 67.925642 46.344219 27.316018 0.000000 0.000000 0.000000 
-0.182012 0.924443 0.148848 3.969684 -42.640642 -5.400320 4.778515 0.908256 3.658166 -3.273426 9.487975 38.154865 5.716581 10.488429 24.020416 0.000000 0.000000 0.000000 1.812669 1.450701 -12.489366 3.322632 3.290749 26.219686 3.006949 -2.812965 9.850309 0.000000 0.000000 0.000000 7.952379 -0.173142 22.514136 0.767526 -0.011803 -27.409175 -5.116564 2.631402 32.326114 7.078219 -6.801223 -24.821694 0.000000 0.000000 0.000000 -6.907404 2.472678 0.603208 -58.173417 13.987703 -13.737271 -83.730904 -53.222736 64.604040 0.000000 0.000000 0.000000 14.412019 -4.151727 -7.739224 53.929447 -13.966694 -14.282475 68.390096 49.360914 29.198419 0.000000 0.000000 0.000000 
-0.211089 0.916719 0.170521 5.256279 -46.962521 -7.010205 2.031438 0.272527 -1.081642 2.646466 9.327114 43.574806 1.540133 3.618388 3.000499 0.000000 0.000000 0.000000 2.713772 1.075527 -10.305573 1.142183 4.581193 27.845118 3.319011 1.084656 6.138174 0.000000 0.000000 0.000000 7.304227 0.358438 24.037806 1.603723 -0.301027 -26.600285 -4.878696 3.459852 32.359128 6.308202 -6.625681 -24.382269 0.000000 0.000000 0.000000 -7.616011 3.375587 0.468909 -59.860855 14.785686 -14.184964 -73.863259 -52.687111 55.549886 0.000000 0.000000 0.000000 13.587076 -2.987976 -7.252469 54.582850 -11.538168 -13.442448 66.515198 51.036204 28.743335 0.000000 0.000000 0.000000 
-0.240615 0.914918 0.193908 6.585410 -51.532333 -7.895281 -0.206385 -0.293287 -7.215806 7.070772 9.258590 46.624576 -2.596041 -6.871645 -17.211813 0.000000 0.000000 0.000000 3.225958 0.621561 -7.596004 -1.726774 5.314025 26.761875 4.600958 5.811438 4.263530 0.000000 0.000000 0.000000 6.911530 0.819022 24.740625 2.159809 -0.468121 -26.235372 -4.836489 5.787503 32.723911 5.362339 -6.227820 -23.640547 0.000000 0.000000 0.000000 -6.852523 4.529383 -0.186090 -61.857777 16.548576 -14.962369 -68.563789 -49.752510 48.686763 0.000000 0.000000 0.000000 13.849422 -2.936434 -7.576864 54.521161 -9.612260 -12.469772 65.029176 53.214901 29.222136 0.000000 0.000000 0.000000 
-0.270505 0.918863 0.218884 7.947841 -55.930031 -8.722784 -2.373550 -0.522972 -13.092860 9.477444 8.600688 45.899143 -4.520894 -13.108406 -24.334961 0.000000 0.000000 0.000000 3.070831 0.110217 -3.240752 -4.927652 4.761859 22.149722 7.255170 10.969267 4.482646 0.000000 0.000000 0.000000 5.970579 1.221618 24.563466 3.214676 -0.796033 -25.272484 -4.181286 9.002001 32.488350 5.086668 -6.023543 -22.686110 0.000000 0.000000 0.000000 -6.837416 5.251529 -0.515258 -62.857517 17.978524 -15.732548 -65.621837 -48.126227 44.798367 0.000000 0.000000 0.000000 11.931888 -3.064794 -6.717834 55.985938 -7.632694 -12.422301 65.131667 54.514007 30.249860 0.000000 0.000000 0.000000 
-0.301824 0.925519 0.245238 8.705553 -59.419491 -8.359730 -3.738553 -0.249501 -18.507068 8.981717 7.288614 41.082501 -4.873033 -9.583006 -15.944137 0.000000 0.000000 0.000000 2.168154 -0.002167 0.069190 -5.550778 3.875974 18.896272 9.127335 12.395428 5.965601 0.000000 0.000000 0.000000 4.969636 1.441204 23.804307 3.623601 -0.859787 -25.052501 -3.428106 12.190533 32.490405 5.103882 -5.931906 -22.160037 0.000000 0.000000 0.000000 -5.721365 6.942398 -1.595556 -63.362475 20.573133 -16.671465 -65.521408 -44.072942 41.109620 0.000000 0.000000 0.000000 11.229885 -4.076187 -6.722056 56.735241 -6.293522 -12.259183 63.900259 55.254948 30.328906 0.000000 0.000000 0.000000 
-0.335751 0.933128 0.273432 9.236138 -62.328184 -7.716310 -3.878627 0.352343 -21.832430 5.823292 5.083437 31.219732 -0.567892 -1.294208 9.029371 0.000000 0.000000 0.000000 0.410566 0.315988 4.106757 -4.855679 2.538390 14.800489 11.408446 13.625863 8.041073 0.000000 0.000000 0.000000 4.244625 1.348968 22.034641 4.402307 -1.244839 -23.030490 -3.596515 15.178643 31.053294 3.947591 -4.993471 -21.315345 0.000000 0.000000 0.000000 -3.753782 7.504569 -2.306327 -63.965220 22.886996 -17.381756 -66.352751 -42.301389 39.720547 0.000000 0.000000 0.000000 9.208748 -4.813893 -5.979191 58.211208 -5.136980 -12.486933 65.604452 54.748030 31.174601 0.000000 0.000000 0.000000 
-0.373090 0.938988 0.303307 10.181297 -64.165142 -7.981248 -4.674134 0.642707 -23.950056 3.184005 2.832285 21.225005 -1.698518 -3.324101 16.572842 0.000000 0.000000 0.000000 -1.767360 1.102137 7.545627 -3.747526 2.111274 13.906631 13.178788 14.976641 9.489109 0.000000 0.000000 0.000000 2.548519 1.550167 21.186202 4.666260 -1.272653 -22.848338 -2.993838 15.985071 30.417235 3.387779 -4.694296 -20.286290 0.000000 0.000000 0.000000 -2.845187 9.181191 -3.289804 -62.640855 25.608323 -17.689396 -68.373652 -40.200068 39.037456 0.000000 0.000000 0.000000 8.424973 -4.650731 -5.587654 58.296392 -4.599640 -12.421235 66.661570 54.451380 31.309859 0.000000 0.000000 0.000000 
-0.415378 0.943894 0.334876 10.755967 -66.371932 -7.810284 -5.053991 0.861089 -24.678497 0.186849 2.318568 14.753934 -3.390889 -5.662110 16.103583 0.000000 0.000000 0.000000 -3.347936 1.938719 9.730791 -3.127007 2.230123 14.832705 15.021971 14.904702 12.017302 0.000000 0.000000 0.000000 1.906182 1.415066 19.588082 2.790210 -1.007677 -22.896202 -1.436386 17.287016 31.188503 2.389190 -4.107271 -19.169102 0.000000 0.000000 0.000000 -1.567746 7.809850 -2.950069 -63.280448 25.432564 -17.315332 -68.741240 -40.935315 39.974331 0.000000 0.000000 0.000000 8.397918 -6.243967 -6.358398 58.860543 -6.712011 -13.769977 69.884562 49.954565 29.385989 0.000000 0.000000 0.000000 
-0.463004 0.946778 0.368267 11.428596 -69.178820 -9.029565 -5.910046 0.571637 -23.473625 -0.103193 2.771022 15.196412 -1.259194 -3.330432 17.376292 0.000000 0.000000 0.000000 -4.975321 2.861832 10.875019 -1.553133 3.214844 19.595721 16.025652 12.089346 15.410397 0.000000 0.000000 0.000000 0.254598 1.669817 18.770775 4.433004 -1.204420 -22.665840 -3.153621 18.558384 31.440928 3.395946 -5.061458 -19.188382 0.000000 0.000000 0.000000 -0.353171 8.766823 -3.683071 -62.570684 25.709107 -16.666606 -68.278974 -41.288690 40.064569 0.000000 0.000000 0.000000 12.274345 -4.580708 -7.717605 55.685308 -7.495426 -12.389993 70.400117 49.511543 28.815806 0.000000 0.000000 0.000000 
-0.514539 0.943204 0.403816 12.487452 -72.159156 -11.094572 -7.546156 0.098403 -22.127679 2.143354 4.399062 21.858046 1.354086 0.690168 11.576260 0.000000 0.000000 0.000000 -7.570554 3.316998 8.142840 2.574332 5.918992 30.185461 16.974421 6.774324 22.116535 0.000000 0.000000 0.000000 -1.720962 1.907828 17.746856 4.432426 -1.470111 -21.310793 -2.963061 18.829888 29.994368 3.447856 -5.217906 -18.577949 0.000000 0.000000 0.000000 -0.359704 8.631669 -3.706442 -62.145943 24.476543 -15.646349 -65.363069 -39.858132 37.177023 0.000000 0.000000 0.000000 13.953105 -3.117642 -8.133940 53.639897 -10.621357 -12.647821 69.769105 47.924865 26.683978 0.000000 0.000000 0.000000 
-0.565029 0.931810 0.438923 15.132582 -73.515551 -15.420103 -8.493524 -0.401140 -19.952414 2.827447 7.759459 29.147103 1.153486 2.112901 4.594513 0.000000 0.000000 0.000000 -10.305143 3.300680 2.902458 10.646898 9.628430 45.030053 12.756614 -2.770423 29.688612 0.000000 0.000000 0.000000 -3.128948 2.478407 18.479898 5.530314 -1.589994 -21.495996 -4.627125 16.690619 29.322151 4.286482 -6.214690 -16.507084 0.000000 0.000000 0.000000 -0.990909 8.657164 -3.665402 -61.754741 21.223049 -13.731942 -63.074258 -42.220381 38.467898 0.000000 0.000000 0.000000 15.896714 -2.335539 -9.426851 51.380905 -13.172974 -12.555082 69.208583 46.025270 24.369013 0.000000 0.000000 0.000000 
-0.610846 0.920671 0.469771 16.890515 -75.030188 -18.333154 -8.931103 -0.890493 -16.384828 4.676286 9.459915 32.935050 -2.174229 -1.940273 -1.934514 0.000000 0.000000 0.000000 -12.796480 3.271157 -4.184719 20.938155 10.694836 57.134955 5.527160 -11.202950 36.380458 0.000000 0.000000 0.000000 -2.938054 2.729417 19.344430 4.115996 -1.660506 -20.423360 -6.065320 14.254892 27.564696 4.946558 -6.952136 -16.845529 0.000000 0.000000 0.000000 0.169593 6.892938 -3.184094 -62.393638 16.648820 -11.019147 -61.783176 -47.125980 42.307989 0.000000 0.000000 0.000000 17.899604 -1.772720 -11.065504 49.787556 -15.948371 -12.553291 68.657330 45.160250 23.147258 0.000000 0.000000 0.000000 
-0.654025 0.921137 0.496171 15.191746 -75.164474 -17.738694 -9.188226 -1.260014 -11.016470 4.386339 9.260483 31.516235 -3.311826 -3.289525 -3.688960 0.000000 0.000000 0.000000 -12.985390 3.130606 -11.276773 29.152089 9.070459 62.552520 -7.964323 -22.906747 31.319418 0.000000 0.000000 0.000000 -2.927245 2.863139 19.839631 5.039299 -1.827344 -19.689480 -8.070967 10.987559 26.842153 3.127456 -6.050240 -15.131234 0.000000 0.000000 0.000000 0.137379 5.311630 -2.509680 -63.124072 11.390326 -8.157606 -58.916998 -55.498865 47.733311 0.000000 0.000000 0.000000 17.407166 -1.468412 -11.481901 49.168279 -17.580367 -13.012349 65.856851 42.452748 19.585047 0.000000 0.000000 0.000000 
-0.697633 0.931564 0.519204 10.014454 -74.865234 -13.779845 -8.949769 -1.056519 -5.070564 3.667328 7.630689 27.559996 -2.603759 -2.431303 -0.412329 0.000000 0.000000 0.000000 -9.762464 2.985110 -16.787699 27.170378 9.715027 60.327884 -12.278762 -26.530020 11.296204 0.000000 0.000000 0.000000 -2.028605 2.695750 20.340202 4.498706 -1.916339 -18.668271 -8.377287 8.082488 26.668804 1.853510 -5.426985 -16.022834 0.000000 0.000000 0.000000 1.564892 5.972321 -3.211899 -64.568002 7.596588 -5.217449 -66.115606 -66.026121 64.668126 0.000000 0.000000 0.000000 18.262847 -1.626938 -12.820304 47.480180 -19.308791 -12.719061 63.810702 41.716457 18.154708 0.000000 0.000000 0.000000 
-0.743192 0.950047 0.541157 1.310642 -72.679748 -5.429389 -8.076209 -0.397757 -0.118269 5.509273 4.655676 23.877919 -3.407356 -5.148954 4.991833 0.000000 0.000000 0.000000 -5.734734 3.307701 -20.386396 18.934250 9.325609 49.247696 -10.044466 -17.154057 -3.514157 0.000000 0.000000 0.000000 -0.637507 1.933620 19.422070 4.780959 -2.026282 -17.994383 -9.018223 5.133228 27.704473 1.164465 -5.194429 -17.119320 0.000000 0.000000 0.000000 3.092891 7.707840 -4.404220 -67.586713 6.461913 -3.160732 -79.389578 -74.987118 87.582130 0.000000 0.000000 0.000000 17.999427 -2.107210 -13.423872 46.583013 -19.977763 -12.736499 62.053175 40.853657 16.901123 0.000000 0.000000 0.000000 
-0.790428 0.967946 0.564646 -3.501956 -71.340330 -0.589348 -7.428782 0.137611 2.661635 6.886631 3.825847 23.553059 -3.568425 -6.488016 11.176405 0.000000 0.000000 0.000000 -1.822372 3.278042 -20.336487 7.358825 6.346370 31.917193 -3.138093 -4.128146 -0.553183 0.000000 0.000000 0.000000 0.580665 1.271338 17.897568 4.441280 -2.000162 -17.102219 -8.781555 4.301125 28.388916 -0.343338 -4.283851 -16.963022 0.000000 0.000000 0.000000 4.349712 9.014975 -5.314368 -70.734069 7.931437 -2.616123 -116.024329 -76.606970 129.884687 0.000000 0.000000 0.000000 17.201079 -2.227016 -13.276835 47.240604 -21.972563 -14.002338 60.286859 42.796156 17.333627 0.000000 0.000000 0.000000 
-0.838446 0.978101 0.591663 -8.809998 -69.037693 5.018033 -6.630782 -0.153885 0.866406 9.731294 5.006407 30.070228 -3.909842 -7.068929 16.426365 0.000000 0.000000 0.000000 0.863381 3.008318 -19.093481 2.014662 2.691620 17.870686 6.736416 -3.749225 14.951438 0.000000 0.000000 0.000000 3.327589 0.601933 17.013612 5.467893 -2.169777 -15.904124 -9.254590 5.251851 26.354620 -1.186284 -3.293167 -17.565936 0.000000 0.000000 0.000000 4.560318 8.244058 -4.764478 -72.086963 9.743504 -4.411243 -128.885999 -71.266765 139.641696 0.000000 0.000000 0.000000 15.304215 -3.921302 -11.784035 47.201971 -23.545391 -15.252228 58.448721 43.370421 17.717638 0.000000 0.000000 0.000000 
-0.885716 0.965665 0.621487 -6.570847 -66.548551 1.991364 -7.013893 -0.701522 -2.997350 13.447003 9.147645 44.197726 -4.779650 -7.390645 16.235338 0.000000 0.000000 0.000000 0.127868 2.422935 -17.186051 1.947735 2.246717 16.363586 4.496355 -10.718932 20.078259 0.000000 0.000000 0.000000 4.157526 0.645945 18.236294 3.685958 -1.705299 -19.280124 -6.822975 6.141818 29.678336 -2.336226 -2.363196 -18.132008 0.000000 0.000000 0.000000 1.492116 8.549656 -4.055840 -69.664574 8.372440 -5.626021 -125.134397 -66.987934 131.995827 0.000000 0.000000 0.000000 12.857185 -5.613386 -10.487784 46.946190 -23.181113 -15.831140 60.383419 43.264386 18.489624 0.000000 0.000000 0.000000 
-0.931561 0.940887 0.650662 -5.665334 -63.520772 -1.401576 -6.465969 -1.013972 -7.664630 19.649307 10.581593 57.858025 -5.140093 -8.671381 6.371165 0.000000 0.000000 0.000000 0.154048 1.490170 -13.065613 0.486408 4.332104 23.646839 0.400148 -6.012625 7.221104 0.000000 0.000000 0.000000 5.575429 1.075896 22.278933 3.519147 -1.592814 -20.747290 -6.888160 7.781993 29.941365 -0.537021 -3.077047 -19.653112 0.000000 0.000000 0.000000 -0.917810 10.001361 -3.958684 -67.512866 8.617626 -8.012381 -117.734597 -62.976982 117.958847 0.000000 0.000000 0.000000 13.070933 -5.866390 -9.627772 48.872707 -21.772629 -16.055103 59.211326 46.816541 21.336687 0.000000 0.000000 0.000000 
-0.974890 0.920155 0.679147 -4.628679 -60.921515 -3.788244 -4.006146 -0.712922 -12.167165 17.774090 12.544492 63.477561 -0.857155 -4.709530 -18.187642 0.000000 0.000000 0.000000 -0.721000 1.081126 -10.583236 1.409486 5.554444 28.436075 -3.608374 -7.824638 1.828415 0.000000 0.000000 0.000000 6.119428 1.388547 25.003066 2.874302 -1.068867 -24.325451 -5.814342 10.980222 33.467525 -0.669435 -2.436788 -21.102401 0.000000 0.000000 0.000000 -4.669575 9.096938 -2.741352 -65.445212 8.911967 -10.916278 -106.595121 -61.593397 101.473841 0.000000 0.000000 0.000000 14.146335 -7.072865 -9.521258 47.913766 -16.199754 -13.508101 60.347495 48.266929 23.967918 0.000000 0.000000 0.000000 
-1.016312 0.918434 0.711291 -4.118878 -58.276096 -4.184984 -2.709114 -0.280972 -16.338712 11.079690 12.459303 56.414316 0.900990 2.760199 -25.886880 0.000000 0.000000 0.000000 -1.631259 0.636013 -6.284145 0.630146 5.322320 27.864953 -4.007723 -6.291109 -0.512661 0.000000 0.000000 0.000000 5.372247 1.323325 24.699503 2.168239 -0.727515 -25.344018 -2.979102 14.415139 34.141614 -1.492288 -0.946728 -21.190372 0.000000 0.000000 0.000000 -5.800338 10.978918 -3.605743 -63.317051 11.848572 -13.339638 -92.294353 -53.530777 75.086967 0.000000 0.000000 0.000000 11.840918 -7.679265 -7.616047 51.329792 -11.599105 -13.230946 62.857253 49.003314 27.017415 0.000000 0.000000 0.000000 
-1.056977 0.930627 0.750052 -3.267845 -53.411842 -3.816523 -2.325608 -0.221030 -18.482322 -0.647398 8.813735 35.949713 6.885188 21.837175 -12.386836 0.000000 0.000000 0.000000 -3.496755 0.577819 -1.161952 1.746702 3.838805 25.151884 -3.271338 -6.651361 1.143642 0.000000 0.000000 0.000000 5.080926 0.478738 20.774239 0.729993 -0.402556 -25.324304 -1.311948 16.406112 34.252425 -2.414326 0.476341 -21.062759 0.000000 0.000000 0.000000 -5.258113 11.473757 -4.103029 -62.175694 17.191535 -16.236260 -84.234743 -49.680662 61.189632 0.000000 0.000000 0.000000 9.656578 -8.100452 -6.225431 54.291654 -8.085997 -12.879682 69.244681 47.991139 31.014790 0.000000 0.000000 0.000000 
-1.096666 0.948255 0.794188 -3.723611 -46.990551 -4.156694 -4.321388 -1.047142 -16.413259 -2.990578 2.065295 12.762199 36.566881 45.047434 34.191698 0.000000 0.000000 0.000000 -2.562276 0.397032 4.306959 1.142254 3.488151 24.794393 -1.147762 -8.357077 7.963399 0.000000 0.000000 0.000000 3.770221 0.103473 18.054603 1.301988 -0.348396 -25.799282 0.933432 19.363036 35.711774 -1.361859 0.938736 -18.663515 0.000000 0.000000 0.000000 -1.482178 10.595215 -4.087814 -61.976699 20.945946 -18.714733 -84.840749 -42.301808 51.250773 0.000000 0.000000 0.000000 9.191253 -11.543830 -6.643559 54.971329 -6.282617 -12.227049 76.387282 45.770245 36.039664 0.000000 0.000000 0.000000 
-1.133857 0.960248 0.841656 -4.895806 -40.305329 -4.698943 -5.348017 -1.389144 -13.306862 -3.766189 1.011684 3.725415 66.015292 51.998472 67.998612 0.000000 0.000000 0.000000 -2.753718 0.297111 5.347524 3.927996 4.037039 32.187814 3.564699 -6.249379 17.955935 0.000000 0.000000 0.000000 4.092568 -0.274132 15.752899 0.014711 -0.200961 -23.887278 0.281805 18.174522 34.024352 -2.868417 2.596295 -16.421043 0.000000 0.000000 0.000000 1.053470 12.728980 -4.870218 -63.222513 24.098125 -20.820755 -82.853319 -40.902661 46.537734 0.000000 0.000000 0.000000 6.261034 -11.108595 -5.318406 58.158128 -5.959230 -12.637686 77.737765 41.071677 34.284797 0.000000 0.000000 0.000000 
-1.166407 0.952417 0.890802 -5.642535 -32.660884 -6.960950 -7.570424 -1.588520 -10.416606 -3.222699 0.965241 7.416324 72.540321 56.011966 68.163255 0.000000 0.000000 0.000000 -3.606668 0.228930 4.240722 7.645886 4.536422 44.709570 7.782951 -1.807886 25.504369 0.000000 0.000000 0.000000 3.279207 -0.345226 16.349341 -2.794350 0.623064 -24.413531 3.528314 15.970903 34.023180 -3.941984 3.865964 -16.828150 0.000000 0.000000 0.000000 1.309942 10.663263 -3.914725 -63.351910 24.205117 -21.798431 -80.641818 -41.663754 44.166984 0.000000 0.000000 0.000000 6.308821 -11.783061 -5.363101 59.453037 -7.542180 -13.255284 81.986182 39.083915 36.670866 0.000000 0.000000 0.000000 
-1.192247 0.925367 0.937920 -6.266343 -24.303396 -9.678071 -9.405123 -1.560959 -8.213548 -2.668702 1.179411 15.581808 70.010810 60.820022 56.378883 0.000000 0.000000 0.000000 -5.294753 0.281128 1.084400 10.738194 3.444365 57.544320 10.052077 1.042757 31.146667 0.000000 0.000000 0.000000 3.047375 -0.500145 17.754223 -2.790958 0.774633 -24.196473 2.240876 17.349292 34.135107 -3.689147 4.762314 -20.315556 0.000000 0.000000 0.000000 2.151361 9.127235 -2.989971 -62.689685 19.677670 -21.043999 -76.535689 -44.059763 41.017385 0.000000 0.000000 0.000000 10.010549 -12.544679 -5.784741 58.092820 -7.414146 -12.335429 79.901269 40.550460 40.427100 0.000000 0.000000 0.000000 
-1.210161 0.902923 0.978689 -6.161273 -15.997398 -11.457410 -11.865936 -1.668007 -7.528662 -0.735421 0.629744 24.321531 61.559853 61.869273 42.984510 0.000000 0.000000 0.000000 -6.964687 0.323318 -2.425606 9.548411 2.189672 63.151758 7.049821 -1.743910 30.935207 0.000000 0.000000 0.000000 3.270134 -0.767845 18.604576 -4.206881 1.353817 -23.921443 1.894938 16.121896 33.892493 -2.829355 4.808315 -22.014397 0.000000 0.000000 0.000000 -1.130452 8.387766 -3.134821 -61.153166 15.681723 -19.268003 -72.594832 -48.237061 40.247446 0.000000 0.000000 0.000000 12.154472 -10.814117 -4.730151 57.231558 -5.732261 -11.167491 74.197247 41.636069 39.453293 0.000000 0.000000 0.000000 
-1.221213 0.900305 1.013075 -6.899291 -6.559750 -12.144099 -13.614843 -1.487665 -5.937351 2.742799 -1.509842 29.017260 49.936650 58.417618 30.829088 0.000000 0.000000 0.000000 -5.674468 0.330912 -5.507366 3.857276 2.411529 60.975414 -2.324003 -10.095475 13.557156 0.000000 0.000000 0.000000 4.039849 -1.180511 18.749546 -5.084827 1.812703 -24.087738 2.523624 15.357655 34.550547 -3.318967 5.956737 -22.298884 0.000000 0.000000 0.000000 -2.954872 6.207563 -2.845354 -61.431159 12.499773 -18.480183 -73.152689 -49.910620 39.784322 0.000000 0.000000 0.000000 13.399506 -10.530243 -3.978532 56.175825 -5.100620 -10.484363 70.636364 41.436733 38.826700 0.000000 0.000000 0.000000 
-1.227916 0.911289 1.041636 -8.350806 3.998700 -12.326852 -13.830223 -0.969283 -3.521778 6.709925 -4.199318 29.613350 38.188772 51.733307 20.000428 0.000000 0.000000 0.000000 -3.694023 0.397486 -6.647523 -1.387576 1.727206 51.979964 -1.676696 -5.093737 2.393966 0.000000 0.000000 0.000000 5.018700 -1.623227 18.170476 -4.150623 1.786390 -23.814660 1.590481 13.370485 34.827739 -3.775111 6.879719 -21.427302 0.000000 0.000000 0.000000 -4.139980 7.163136 -3.836917 -62.540800 11.857605 -19.045763 -78.449087 -48.572815 40.029049 0.000000 0.000000 0.000000 12.518568 -9.672860 -2.987204 56.923067 -5.162550 -10.140630 67.025180 41.848164 38.366292 0.000000 0.000000 0.000000 
-1.232415 0.929966 1.064557 -9.435615 12.430781 -11.840656 -14.144919 -0.927108 -3.424235 9.673035 -6.308159 29.986528 33.051409 46.094631 18.208895 0.000000 0.000000 0.000000 -2.185799 0.504774 -7.311513 -4.346634 1.295505 39.645374 2.221878 7.889047 -4.127798 0.000000 0.000000 0.000000 5.328726 -1.898484 17.695675 -3.943267 1.838876 -24.783553 2.602486 12.342537 35.281648 -3.952998 7.573070 -20.758257 0.000000 0.000000 0.000000 -3.383983 8.651468 -4.507854 -65.206450 11.652340 -20.753060 -84.419555 -44.898826 38.705128 0.000000 0.000000 0.000000 10.947127 -10.294288 -3.032719 57.148416 -5.456517 -9.583462 66.425016 41.634054 39.108120 0.000000 0.000000 0.000000 
-1.235283 0.944225 1.081989 -10.814914 21.196639 -11.107601 -11.736534 -1.078656 -5.371417 8.521908 -7.076850 31.265323 29.017592 41.807350 15.070267 0.000000 0.000000 0.000000 -0.913000 0.589756 -7.612075 -6.458500 1.330305 27.691809 7.188776 15.466280 3.937561 0.000000 0.000000 0.000000 6.964239 -2.176469 16.149476 -4.348655 2.145517 -23.558725 2.792875 12.777120 34.376817 -3.880073 8.163837 -19.535344 0.000000 0.000000 0.000000 -2.325192 8.140753 -4.365198 -66.997848 11.824910 -22.559244 -87.242310 -43.478929 36.346127 0.000000 0.000000 0.000000 11.272600 -10.869946 -2.781153 57.282824 -7.573529 -9.638121 66.839108 45.504459 44.167989 0.000000 0.000000 0.000000 
-1.237409 0.949293 1.094821 -11.173678 32.129963 -11.694276 -9.940648 -1.416130 -8.189253 3.569132 -7.710111 36.245051 27.124447 39.472914 11.356829 0.000000 0.000000 0.000000 -2.678890 0.083864 -4.912265 -4.938000 0.317864 20.968549 8.603885 14.683411 12.814559 0.000000 0.000000 0.000000 8.635236 -3.004524 17.089882 -6.819369 2.788714 -23.515764 4.064813 11.874040 33.653911 -1.745443 7.288259 -17.649268 0.000000 0.000000 0.000000 -3.019665 6.388049 -4.579369 -64.947351 9.916697 -20.948798 -88.353532 -43.728476 34.186968 0.000000 0.000000 0.000000 11.302302 -12.367983 -3.174200 56.281484 -9.559751 -9.415680 68.421343 48.308694 49.032000 0.000000 0.000000 0.000000 
-1.237921 0.942453 1.105328 -11.671802 43.931179 -13.381440 -7.918933 -2.021668 -12.315822 -4.296234 -8.517562 43.603095 27.985809 39.719206 11.091971 0.000000 0.000000 0.000000 -4.375243 -0.536747 -2.072264 -3.362756 -1.506979 22.720242 6.071710 11.057224 12.378983 0.000000 0.000000 0.000000 9.161121 -3.797108 18.128095 -7.442640 3.145536 -22.198768 3.965660 11.170983 32.680487 0.542540 6.071616 -15.285175 0.000000 0.000000 0.000000 -5.051283 4.105716 -5.583755 -61.258702 9.297855 -18.648587 -89.731759 -46.285151 34.440954 0.000000 0.000000 0.000000 9.257744 -12.150082 -3.215348 56.880784 -10.665205 -8.290555 68.116814 50.887229 51.925666 0.000000 0.000000 0.000000 
-1.234876 0.928445 1.113980 -12.963044 53.413964 -15.835681 -4.510782 -2.634962 -16.617140 -14.557190 -7.898111 49.463273 31.425010 42.493185 15.904440 0.000000 0.000000 0.000000 -4.599115 -1.048861 1.134932 -3.782709 -2.538394 23.369261 4.749351 9.251454 11.028696 0.000000 0.000000 0.000000 9.873430 -4.843254 19.561883 -8.472410 3.218769 -22.832436 5.858406 11.699503 33.431277 -0.433986 7.329045 -14.761485 0.000000 0.000000 0.000000 -9.388183 1.016830 -8.498703 -55.405106 10.876351 -15.399770 -87.782604 -49.630055 33.990954 0.000000 0.000000 0.000000 7.558030 -12.590446 -3.672417 57.188482 -11.652433 -7.232405 69.074992 52.682476 56.179967 0.000000 0.000000 0.000000 
-1.225298 0.921361 1.120432 -13.899909 61.555350 -18.230310 -0.608956 -2.991469 -19.357130 -24.408484 -6.442027 50.822042 34.402927 43.290071 25.526024 0.000000 0.000000 0.000000 -4.396251 -1.770818 5.565439 -4.509436 -3.139210 23.016158 2.585722 5.485287 9.267369 0.000000 0.000000 0.000000 9.473257 -5.356455 20.238601 -7.994474 2.983424 -23.722554 5.849670 12.834141 34.833520 0.851906 7.118398 -14.633299 0.000000 0.000000 0.000000 -10.044688 0.446864 -10.505132 -52.103025 13.134305 -14.767482 -90.032738 -48.508606 32.466233 0.000000 0.000000 0.000000 7.991351 -12.949898 -3.335917 57.408093 -10.775656 -6.027503 69.377137 54.011995 59.121410 0.000000 0.000000 0.000000 
-1.207853 0.920857 1.123173 -15.489068 67.776899 -21.239632 3.300942 -2.833060 -19.341409 -27.067572 -6.035734 45.648821 32.645803 37.794333 40.982124 0.000000 0.000000 0.000000 -4.870751 -3.053893 10.860070 -4.148231 -3.038876 20.361779 1.216381 3.222566 10.966087 0.000000 0.000000 0.000000 7.660906 -5.436334 21.219315 -7.300174 2.789801 -24.359425 6.979556 14.792487 35.723582 3.823180 6.072788 -14.991371 0.000000 0.000000 0.000000 -8.999648 0.190055 -11.596493 -51.673274 15.483792 -15.760892 -89.275854 -46.644937 28.575644 0.000000 0.000000 0.000000 6.443312 -13.384066 -3.768821 58.986382 -12.384704 -4.798283 73.184852 54.693248 64.320384 0.000000 0.000000 0.000000 
-1.183067 0.924052 1.120401 -18.311125 73.923351 -23.870328 4.636485 -2.837416 -18.874304 -20.541369 -6.392028 36.722150 18.725622 21.491386 68.502968 0.000000 0.000000 0.000000 -5.850459 -4.334543 14.320020 -2.576147 -3.574763 18.320859 -1.044062 -0.003873 14.502380 0.000000 0.000000 0.000000 7.179681 -4.774522 19.439625 -8.053639 2.779800 -23.485134 7.538249 14.783706 36.313584 6.080953 5.232487 -15.339479 0.000000 0.000000 0.000000 -6.998364 1.611991 -12.201683 -52.665760 16.610870 -17.641911 -90.180386 -44.323087 25.706355 0.000000 0.000000 0.000000 4.221592 -13.678443 -4.560426 63.688960 -11.857722 -1.798987 70.089672 57.341660 64.285357 0.000000 0.000000 0.000000 
-1.151656 0.927896 1.110824 -28.737721 80.214478 -33.709931 3.687064 -2.664662 -17.754915 -14.348624 -5.838340 28.754984 -7.074512 -3.300880 100.557384 0.000000 0.000000 0.000000 -5.456478 -5.552041 17.156118 -2.316160 -3.950450 17.056930 -3.426365 -2.228306 20.083169 0.000000 0.000000 0.000000 6.366535 -4.188242 18.128105 -8.617753 2.673981 -22.659195 8.975744 14.728241 36.235518 8.337558 5.297063 -17.855592 0.000000 0.000000 0.000000 -6.222403 1.156221 -13.658061 -53.682654 18.075842 -18.988289 -87.538959 -43.474055 22.646051 0.000000 0.000000 0.000000 3.345676 -14.146747 -4.755362 65.061994 -12.558842 0.010621 74.193175 59.696937 71.003727 0.000000 0.000000 0.000000 
-1.113780 0.930121 1.093663 -50.407731 83.762903 -54.435694 2.955395 -2.327413 -16.316250 -12.035294 -4.919060 23.242878 -35.355182 -13.952217 122.490527 0.000000 0.000000 0.000000 -7.000535 -6.777737 19.133023 -1.462769 -4.679030 16.758723 -2.280735 0.920276 25.561985 0.000000 0.000000 0.000000 5.816205 -3.414106 16.233290 -8.023702 2.376529 -23.379008 9.818387 15.795071 38.402478 9.168129 5.708172 -19.112716 0.000000 0.000000 0.000000 -4.335436 1.186224 -14.519930 -56.245172 18.994082 -21.825918 -86.029659 -40.078266 17.684490 0.000000 0.000000 0.000000 2.475680 -14.344391 -4.661533 67.920123 -11.528361 3.162772 70.826182 63.613916 71.598969 0.000000 0.000000 0.000000 
-1.070935 0.934016 1.069543 -99.400320 85.146475 -101.877354 1.087524 -2.050056 -15.352296 -11.319392 -4.905540 21.392333 -41.791089 -16.354145 128.972200 0.000000 0.000000 0.000000 -7.728586 -6.871770 17.982735 -3.626388 -6.039237 20.208393 3.267228 7.484742 34.242069 0.000000 0.000000 0.000000 4.999644 -2.552088 14.042253 -7.144876 2.402837 -21.531903 9.363997 17.209573 35.498116 9.224583 4.966450 -18.366384 0.000000 0.000000 0.000000 -3.429893 0.560769 -15.453874 -56.829570 19.945291 -23.007246 -84.935250 -37.407919 14.018060 0.000000 0.000000 0.000000 1.493893 -13.994591 -4.208673 69.266815 -14.042016 4.154474 70.164143 65.127835 71.855803 0.000000 0.000000 0.000000 
-1.025879 0.935726 1.042014 -138.450080 82.440275 -140.344803 -0.781099 -1.430329 -12.942391 -9.429396 -4.976740 20.443726 -44.535920 -18.018940 131.757105 0.000000 0.000000 0.000000 -6.815393 -5.892880 14.207540 -9.480154 -10.010864 29.312558 10.443668 10.477993 42.928501 0.000000 0.000000 0.000000 4.388896 -2.272252 13.384616 -7.249271 2.100785 -22.222033 10.980389 16.945759 35.995457 9.397127 5.636270 -19.856191 0.000000 0.000000 0.000000 -3.235247 -0.981197 -17.649682 -57.808638 23.278242 -25.436464 -84.570998 -33.719885 10.676573 0.000000 0.000000 0.000000 0.796749 -14.252405 -3.940229 70.930457 -13.785810 6.506968 67.765577 68.458873 72.819665 0.000000 0.000000 0.000000 
-0.980781 0.930642 1.013994 -153.540120 77.945396 -155.848181 -2.231478 -0.857167 -10.314213 -8.633677 -5.888053 22.395314 -39.558616 -19.329554 129.559695 0.000000 0.000000 0.000000 -3.900416 -3.916136 8.203163 -22.838491 -15.505833 43.632418 20.357070 13.741150 45.847331 0.000000 0.000000 0.000000 4.077613 -2.713595 14.730576 -6.479214 2.048825 -22.041940 10.338811 16.417136 34.813602 8.978259 6.141545 -21.255538 0.000000 0.000000 0.000000 -4.485397 -2.462134 -20.204333 -55.821622 24.557511 -23.980689 -86.191665 -35.147511 13.142147 0.000000 0.000000 0.000000 1.284391 -15.025757 -3.486454 71.649319 -13.946851 7.312573 65.723442 70.737554 73.183721 0.000000 0.000000 0.000000 
-0.934944 0.920036 0.985315 -160.640159 71.770680 -164.080283 -3.119301 -0.385678 -6.893897 -7.081784 -6.963819 24.335949 -37.240978 -21.081796 129.949162 0.000000 0.000000 0.000000 -1.042260 -2.352812 1.715729 -43.114879 -19.174452 61.279788 38.289054 23.931546 43.972060 0.000000 0.000000 0.000000 4.377467 -3.612057 16.487134 -5.882633 1.951465 -21.437390 9.024584 13.971043 33.578164 8.881159 6.391198 -22.064153 0.000000 0.000000 0.000000 -6.471032 -3.530257 -23.402396 -53.803517 25.619071 -21.912739 -86.654839 -37.539809 16.939000 0.000000 0.000000 0.000000 1.776868 -14.331463 -2.277006 71.799715 -12.754458 7.884667 60.317880 72.645537 69.235193 0.000000 0.000000 0.000000 
-0.887104 0.912600 0.955025 -164.038267 66.043687 -168.497217 -3.113379 -0.373965 -2.766930 -7.127381 -8.187437 26.508401 -24.778832 -21.668777 121.604236 0.000000 0.000000 0.000000 2.042618 -1.535759 -5.422653 -62.940651 -17.007098 73.495427 68.212896 50.290779 43.575036 0.000000 0.000000 0.000000 4.160753 -4.374490 17.913155 -4.591800 1.903546 -21.513069 7.881410 11.469856 33.717772 8.515720 7.305364 -24.384714 0.000000 0.000000 0.000000 -8.123191 -5.896623 -26.223754 -52.865551 26.418520 -20.452645 -87.346662 -40.370817 21.383828 0.000000 0.000000 0.000000 3.522955 -15.350394 -1.117302 71.509818 -10.155165 8.653573 43.079850 72.867593 53.228594 0.000000 0.000000 0.000000 
-0.836161 0.912362 0.921480 -164.224272 59.993183 -169.540235 -2.321770 -1.563517 3.373851 -4.115781 -7.327068 24.356948 -13.543890 -22.458468 113.941811 0.000000 0.000000 0.000000 6.007885 -1.766127 -12.742166 -68.642481 -16.630388 75.916133 70.505646 67.919861 33.431375 0.000000 0.000000 0.000000 5.891605 -5.358863 18.439032 -5.717784 1.451970 -21.960391 9.100493 7.700668 33.317955 7.130505 7.768963 -24.164664 0.000000 0.000000 0.000000 -9.209635 -6.725843 -28.857089 -50.732458 27.957217 -19.231682 -90.573954 -41.394894 25.556400 0.000000 0.000000 0.000000 3.284086 -15.239973 -1.105359 70.798774 -12.020082 7.935820 35.506248 71.858923 45.268660 0.000000 0.000000 0.000000 
-0.782411 0.926406 0.882978 -163.996676 56.563568 -169.632395 -1.857445 -4.734195 11.267978 -3.059810 -4.624485 18.332519 -1.537809 -18.645375 102.140332 0.000000 0.000000 0.000000 9.562736 -3.673053 -20.443216 -59.511907 -18.608144 69.214424 61.717881 54.942649 28.630787 0.000000 0.000000 0.000000 6.427432 -6.204551 19.256659 -4.153077 1.610792 -23.048503 7.731151 3.491497 33.109511 6.090598 8.768706 -25.528780 0.000000 0.000000 0.000000 -8.406857 -5.113131 -27.486254 -53.240864 26.164038 -20.597531 -94.582883 -40.557936 26.862371 0.000000 0.000000 0.000000 3.861976 -16.051644 -1.821634 67.785464 -12.634545 6.133483 37.151543 69.391828 44.951419 0.000000 0.000000 0.000000 
-0.725290 0.948609 0.839462 -164.191911 54.729049 -169.079761 -2.435829 -7.814154 16.954618 -3.197657 -3.029108 13.733994 3.707435 -11.712038 92.344356 0.000000 0.000000 0.000000 12.645775 -4.698605 -24.228209 -35.907159 -20.296099 52.653473 24.259132 22.032389 23.200304 0.000000 0.000000 0.000000 7.243290 -5.760429 17.854717 -2.678603 1.792702 -22.397569 6.414123 -0.703700 32.014577 4.253811 9.507675 -26.889443 0.000000 0.000000 0.000000 -6.736296 -2.629386 -25.062138 -56.661127 25.005857 -23.577203 -98.009637 -38.659955 26.210725 0.000000 0.000000 0.000000 1.043588 -15.000524 -3.543874 68.305778 -17.051234 5.233718 37.410414 68.564227 44.594900 0.000000 0.000000 0.000000 
-0.665559 0.969717 0.792497 -165.013530 53.595129 -168.706994 -3.019294 -9.820564 20.075782 -3.861187 -2.551227 11.775416 3.212330 -6.457915 87.177782 0.000000 0.000000 0.000000 12.680505 -4.939418 -24.451072 -12.745307 -16.120954 32.322238 12.823747 11.910249 27.057300 0.000000 0.000000 0.000000 7.698548 -5.387927 16.816201 -2.019089 1.740207 -24.984679 5.222714 -3.974552 32.559268 2.246253 9.382533 -25.636961 0.000000 0.000000 0.000000 -5.112898 -0.636584 -23.645204 -58.079104 23.860903 -25.278324 -97.249731 -35.113107 21.090810 0.000000 0.000000 0.000000 0.918225 -13.542993 -2.715672 67.869942 -17.464785 4.514684 36.260546 67.941447 42.589179 0.000000 0.000000 0.000000 
-0.603832 0.980117 0.743511 -167.391579 52.727772 -170.961243 -1.920424 -9.198122 18.349276 -9.014602 -5.097022 19.450999 5.503698 3.252171 73.974809 0.000000 0.000000 0.000000 13.232855 -3.276931 -21.267411 -3.665364 -10.396490 18.806425 11.438655 9.062412 23.932061 0.000000 0.000000 0.000000 8.511244 -4.943767 15.467753 -1.222585 1.862071 -22.129501 3.456959 -3.686882 29.909256 1.721435 8.797909 -24.971116 0.000000 0.000000 0.000000 -5.791818 -2.558903 -22.984112 -56.666696 24.444622 -24.144107 -96.394022 -33.506385 17.915767 0.000000 0.000000 0.000000 -0.948453 -12.840052 -3.512137 69.983071 -19.862588 5.246833 35.350067 68.166244 41.293683 0.000000 0.000000 0.000000 
-0.541767 0.969721 0.694000 -168.116550 49.289871 -173.946788 2.172287 -10.017093 15.788882 -17.633733 -9.295191 30.109014 8.405525 10.184416 60.601316 0.000000 0.000000 0.000000 15.383478 -1.829183 -18.244431 -6.242935 -11.522911 20.446808 6.688281 5.420784 19.203571 0.000000 0.000000 0.000000 10.273148 -6.664707 16.653132 -5.218631 0.952539 -22.855707 7.312119 -3.183164 29.388235 2.758007 8.059091 -22.416624 0.000000 0.000000 0.000000 -5.740437 -3.828564 -25.476345 -56.708583 27.208431 -25.514198 -93.171936 -27.841240 10.094007 0.000000 0.000000 0.000000 -0.535403 -14.101825 -3.713435 69.587655 -20.745260 5.834032 39.673687 68.497777 45.100976 0.000000 0.000000 0.000000 
-0.481441 0.945966 0.646381 -169.103744 48.070752 -176.561696 6.856359 -9.308596 10.282202 -31.057882 -13.686054 42.663533 19.866760 16.901359 39.919299 0.000000 0.000000 0.000000 17.020173 -1.281178 -16.876548 -16.130064 -17.314645 31.634634 10.381757 7.644684 9.624406 0.000000 0.000000 0.000000 9.684349 -7.402910 18.215273 -3.999072 1.172653 -24.337692 7.206490 -1.159252 30.282050 3.052569 7.109660 -22.062095 0.000000 0.000000 0.000000 -6.536237 -5.683145 -28.096391 -54.350523 30.979068 -25.182522 -90.801135 -25.296059 7.583244 0.000000 0.000000 0.000000 1.561698 -14.989917 -1.743934 68.876205 -17.164940 6.915818 37.558697 69.258655 43.839826 0.000000 0.000000 0.000000 
-0.424559 0.923927 0.602356 -169.324920 48.330850 -177.809970 9.673092 -6.827235 1.862680 -45.861902 -15.819521 54.133801 45.168559 33.259794 8.400625 0.000000 0.000000 0.000000 17.398445 -0.421896 -14.117610 -23.787894 -20.416330 38.530969 17.006247 13.523476 6.299061 0.000000 0.000000 0.000000 8.873439 -7.815124 19.481693 -4.836253 0.928102 -24.651003 9.627829 1.362014 30.161421 3.370476 6.342182 -20.782161 0.000000 0.000000 0.000000 -6.860066 -6.560659 -30.695111 -54.397263 33.742266 -25.891968 -83.408340 -22.212640 3.498486 0.000000 0.000000 0.000000 2.823011 -15.216018 -0.110432 67.963724 -10.984522 8.884625 33.371623 69.705317 41.477390 0.000000 0.000000 0.000000 
-0.369437 0.915801 0.560685 -170.413538 48.940793 -178.903161 9.381893 -4.643940 -7.219380 -50.616885 -16.843015 59.710551 43.594669 42.762044 -9.355494 0.000000 0.000000 0.000000 16.902790 0.467030 -9.891797 -25.654846 -21.558221 40.080184 18.881540 14.572020 5.270133 0.000000 0.000000 0.000000 6.987039 -7.092494 19.817283 -3.362382 1.314934 -24.731915 9.180143 4.002621 30.540196 5.635773 4.664451 -19.678633 0.000000 0.000000 0.000000 -5.595901 -6.984635 -31.426907 -54.375411 35.580116 -27.371994 -79.868399 -19.386129 0.225524 0.000000 0.000000 0.000000 4.121018 -16.509743 1.280770 67.589884 -3.792602 12.166579 29.723200 72.792151 42.725756 0.000000 0.000000 0.000000 
-0.313519 0.916647 0.518077 -171.406132 51.512463 -179.540252 7.660365 -4.057962 -14.222495 -41.701390 -17.756654 54.684686 40.373610 36.756572 -10.369327 0.000000 0.000000 0.000000 15.514725 0.784534 -2.961802 -21.406139 -20.258188 36.364456 20.106321 13.793968 2.715653 0.000000 0.000000 0.000000 5.682244 -6.104413 19.335704 -5.295545 0.848982 -24.931520 11.958381 7.237296 31.516792 6.355567 3.900316 -19.014381 0.000000 0.000000 0.000000 -4.392514 -6.801697 -32.077822 -52.937553 37.765018 -28.273371 -77.728305 -14.843436 -3.852179 0.000000 0.000000 0.000000 4.361834 -16.161452 2.694862 67.485523 1.152495 14.734820 31.537426 78.923855 51.254110 0.000000 0.000000 0.000000 
-0.253818 0.925322 0.472099 -172.726639 54.881313 -179.776764 6.634540 -4.392721 -17.988262 -24.227839 -15.238573 40.866636 34.752482 21.448031 -6.713331 0.000000 0.000000 0.000000 12.647569 -0.677446 4.525133 -15.502731 -16.243252 29.661020 22.056456 12.894668 3.969537 0.000000 0.000000 0.000000 4.791675 -4.705907 17.630394 -7.758548 0.022390 -25.958948 14.380927 9.746111 34.377828 7.766713 4.293580 -20.617214 0.000000 0.000000 0.000000 -2.251054 -4.241427 -32.867675 -52.305419 39.039937 -30.212970 -80.519929 -10.144311 -8.611183 0.000000 0.000000 0.000000 2.798317 -16.306226 2.348652 69.896782 4.014877 19.429789 6.253398 85.188124 34.991553 0.000000 0.000000 0.000000 
-0.189522 0.940853 0.421775 -173.083934 56.749898 -179.077311 7.507928 -4.839161 -19.323820 -11.131463 -8.071712 22.705401 20.777507 8.206318 7.682000 0.000000 0.000000 0.000000 10.952273 -3.240143 10.644838 -14.005897 -11.098176 23.969944 23.502749 12.216321 12.377210 0.000000 0.000000 0.000000 3.474532 -3.247416 15.428861 -5.701780 1.031997 -23.654679 12.695545 13.501495 32.736874 10.135391 3.052895 -20.444684 0.000000 0.000000 0.000000 -1.107122 -5.271612 -30.764918 -50.967946 39.066546 -30.122164 -81.559457 -9.671502 -10.398817 0.000000 0.000000 0.000000 1.514989 -16.730989 1.451525 70.209993 3.680144 21.240898 -15.453589 87.745653 16.445503 0.000000 0.000000 0.000000 
-0.122457 0.955679 0.367762 -174.191101 59.075561 -179.943587 7.887674 -4.261352 -17.249375 -7.436554 -4.512261 11.271751 8.887970 10.393556 36.522333 0.000000 0.000000 0.000000 8.176647 -5.286763 14.530327 -14.788659 -9.696830 23.402807 21.161027 11.972734 23.963919 0.000000 0.000000 0.000000 0.793149 -1.932233 13.417042 -4.926458 1.354949 -21.410209 12.956374 13.331229 31.918860 10.677225 4.271032 -22.039009 0.000000 0.000000 0.000000 0.030252 -0.949311 -30.279274 -52.645629 39.903553 -32.886601 -82.303658 -6.034940 -13.196343 0.000000 0.000000 0.000000 -2.760580 -13.744963 0.227525 72.400941 1.097338 22.493969 -109.855530 88.158967 -75.515983 0.000000 0.000000 0.000000 
-0.056410 0.952986 0.312127 -174.586201 60.523094 179.671493 4.767186 -2.999527 -15.339689 -4.175714 -4.012312 13.068130 13.308254 8.005473 51.413255 0.000000 0.000000 0.000000 6.698507 -4.773530 13.621959 -23.647497 -14.864055 34.174135 26.645427 15.400051 32.163862 0.000000 0.000000 0.000000 -0.885866 -1.835700 13.574439 -4.607373 1.459998 -22.784697 13.963470 13.315894 32.673082 9.865281 4.541026 -22.336099 0.000000 0.000000 0.000000 0.096000 -0.778167 -30.887848 -52.288075 41.882280 -33.680191 -85.551173 -6.204904 -12.956000 0.000000 0.000000 0.000000 -5.632815 -13.514017 -1.493308 73.800502 -2.596902 22.849725 175.231978 86.585773 -149.992323 0.000000 0.000000 0.000000 
0.005883 0.930779 0.257476 -174.997186 59.802875 178.749036 2.785830 -2.310743 -13.971240 -5.681139 -6.674458 20.967248 20.719321 6.872957 49.969075 0.000000 0.000000 0.000000 6.494651 -1.887137 6.738293 -48.573370 -21.620816 57.635041 38.349820 17.800466 46.395281 0.000000 0.000000 0.000000 -1.764035 -2.374768 15.317381 -3.337468 1.695713 -21.563712 11.846138 11.532568 30.615843 9.060781 5.329139 -22.812100 0.000000 0.000000 0.000000 -1.962182 -1.115856 -30.331064 -51.917884 38.175211 -29.597913 -85.615219 -13.266863 -5.645511 0.000000 0.000000 0.000000 -5.361455 -12.750161 -1.839203 72.720119 -4.095337 19.682504 87.409999 83.545046 112.717886 0.000000 0.000000 0.000000 
0.064648 0.904979 0.205926 -175.908016 57.707808 176.595879 1.153331 -1.593277 -11.640924 -9.238321 -10.324270 28.768733 27.914784 6.153361 50.287471 0.000000 0.000000 0.000000 6.237950 -0.483256 -2.819113 -78.769095 -16.342481 77.217016 48.419774 17.930722 59.842516 0.000000 0.000000 0.000000 -2.283977 -3.667128 18.587501 -2.512877 1.827082 -21.951680 9.563337 8.516257 30.402800 7.451479 7.563746 -26.102592 0.000000 0.000000 0.000000 -6.255886 -3.047467 -31.786466 -47.169769 33.374023 -21.146265 -90.130834 -23.381980 7.003500 0.000000 0.000000 0.000000 -1.530752 -14.457037 -1.283438 68.592926 -4.374169 13.362730 67.082160 75.062163 83.046756 0.000000 0.000000 0.000000 
0.124832 0.898202 0.157526 -176.459763 55.927641 176.634244 -0.485795 -0.886253 -7.832927 -8.321485 -11.225595 30.496756 28.695168 5.772711 49.594039 0.000000 0.000000 0.000000 7.058415 -2.020400 -13.735304 -84.417011 -12.673638 79.799314 58.830252 35.054520 52.218361 0.000000 0.000000 0.000000 -2.231338 -4.500570 20.239162 -2.019801 1.880720 -24.030986 8.078618 4.552868 30.617710 5.744808 8.446922 -26.424391 0.000000 0.000000 0.000000 -8.199164 -4.310274 -31.353450 -48.883371 25.918173 -17.235751 -91.777834 -31.446252 16.410628 0.000000 0.000000 0.000000 2.183242 -17.430331 -1.650061 65.720026 -7.413880 7.713602 62.099045 67.316946 70.007076 0.000000 0.000000 0.000000 
0.190725 0.915809 0.110360 -174.423837 54.738786 179.178597 1.033494 -1.919256 0.304471 -5.729028 -7.746985 24.103356 23.057522 6.799468 44.346225 0.000000 0.000000 0.000000 10.180962 -4.738236 -22.488496 -61.343518 -18.604336 70.839679 45.304506 44.990986 20.668355 0.000000 0.000000 0.000000 2.257819 -4.706669 18.967288 -3.151028 1.622086 -23.335390 5.295523 -2.704009 28.095697 5.525815 9.171364 -25.508493 0.000000 0.000000 0.000000 -6.563660 -2.756615 -24.496928 -53.329509 16.696876 -16.594304 -96.287889 -36.580089 20.285518 0.000000 0.000000 0.000000 0.740193 -17.163968 -4.743616 63.183393 -16.314172 2.949038 63.924361 59.813475 63.745073 0.000000 0.000000 0.000000 
0.264031 0.943198 0.063533 -173.821910 55.345743 -178.928272 1.297676 -4.300294 7.490887 -4.354085 -4.916884 18.379794 10.305517 9.897587 44.642699 0.000000 0.000000 0.000000 11.576112 -6.453213 -26.639048 -25.344075 -19.515822 45.826900 27.370637 28.854898 1.688257 0.000000 0.000000 0.000000 4.558272 -3.930074 16.261364 -4.538174 1.167679 -25.484542 4.449606 -9.798916 29.566028 2.670683 10.592732 -27.020005 0.000000 0.000000 0.000000 -5.327099 -0.564033 -20.968147 -56.044318 10.092195 -16.023935 -101.145953 -37.095422 21.749399 0.000000 0.000000 0.000000 -3.428652 -17.098743 -8.395147 61.497402 -24.918566 0.828788 69.459825 54.621727 65.059477 0.000000 0.000000 0.000000 
0.342665 0.965578 0.018158 -174.591756 58.526435 -178.784254 1.395398 -6.016602 11.641340 -7.542998 -4.727645 18.353834 1.055699 12.312827 49.141812 0.000000 0.000000 0.000000 11.845637 -5.281801 -25.431036 -3.200185 -7.836055 17.253939 9.207052 8.599573 14.868706 0.000000 0.000000 0.000000 6.170812 -3.272718 13.902788 -4.888564 1.062905 -26.327704 1.084360 -12.526706 29.776500 6.259666 8.832981 -23.508547 0.000000 0.000000 0.000000 -3.729581 0.296934 -15.738942 -56.151813 5.143528 -15.143409 -104.510404 -39.334287 24.531896 0.000000 0.000000 0.000000 -4.863229 -15.066980 -8.691075 61.615281 -28.214903 -0.716869 69.226112 52.901602 61.454278 0.000000 0.000000 0.000000 
0.422909 0.968241 -0.026382 -177.609992 62.822442 177.637338 1.794221 -5.969733 12.168010 -15.484746 -7.173169 26.205251 -2.231593 13.567011 48.003814 0.000000 0.000000 0.000000 12.947070 -2.888565 -22.186853 -1.092514 -2.030142 3.804399 -1.742762 4.351910 36.328890 0.000000 0.000000 0.000000 6.522812 -2.677001 12.207373 -6.892703 0.931416 -24.845502 1.404095 -11.419099 28.402188 8.284723 7.704112 -23.084869 0.000000 0.000000 0.000000 -3.209671 -1.634794 -12.522799 -54.726010 4.072850 -14.201258 -109.094742 -40.172490 26.666112 0.000000 0.000000 0.000000 -5.467897 -14.904488 -9.237671 60.051218 -30.707259 -1.885366 74.022286 51.929598 64.794898 0.000000 0.000000 0.000000 
0.501968 0.945617 -0.068859 -179.826598 65.595577 173.558106 5.378049 -6.445590 10.454989 -27.608122 -10.007464 37.329229 -3.176446 13.675239 45.910138 0.000000 0.000000 0.000000 13.250241 -2.345005 -21.521580 -0.864860 -4.261408 9.881072 -8.188673 -0.329114 36.757939 0.000000 0.000000 0.000000 6.339342 -2.674236 12.389880 -7.172793 1.126821 -23.580992 1.157762 -11.946419 27.303590 9.360436 6.264245 -20.587916 0.000000 0.000000 0.000000 -2.720405 -1.621086 -10.679006 -55.655667 3.013544 -14.092829 -105.809119 -40.678744 24.718181 0.000000 0.000000 0.000000 -6.267417 -14.413695 -9.468915 60.526180 -31.392894 -2.791364 76.368653 52.015107 66.933661 0.000000 0.000000 0.000000 
0.573320 0.917653 -0.106807 -179.816765 70.249740 170.893902 8.417584 -5.265075 5.343168 -39.215978 -11.275868 50.299613 4.338320 16.972205 43.336778 0.000000 0.000000 0.000000 15.223378 -1.379987 -20.627800 -7.307862 -9.701988 24.795021 -3.106658 0.264844 18.319413 0.000000 0.000000 0.000000 7.070997 -3.860300 14.986149 -7.576989 1.157690 -25.123560 1.735802 -8.973880 28.659774 8.566219 7.053085 -22.518347 0.000000 0.000000 0.000000 -6.011353 -1.910315 -12.879857 -51.662632 7.233567 -12.692407 -104.592070 -40.818659 25.957779 0.000000 0.000000 0.000000 -2.763936 -14.783411 -8.169434 60.876468 -24.038803 -2.475969 77.176157 56.691448 73.332757 0.000000 0.000000 0.000000 
0.635002 0.905318 -0.137441 179.528569 75.590037 168.581101 9.616890 -3.557698 -1.639639 -44.894655 -10.858220 56.877192 25.613860 27.819666 39.230737 0.000000 0.000000 0.000000 16.900116 -0.109090 -17.465214 -13.443062 -11.271477 31.887822 1.518131 3.895208 10.401450 0.000000 0.000000 0.000000 6.381931 -4.172263 16.600697 -8.271140 1.221496 -25.680881 3.908991 -7.176356 29.899325 8.869551 6.634249 -21.442597 0.000000 0.000000 0.000000 -8.802129 -3.055306 -14.503274 -50.648046 10.947728 -12.477678 -98.332288 -42.218894 25.850480 0.000000 0.000000 0.000000 0.760615 -14.587719 -6.421105 62.708128 -13.779909 -0.973358 73.148620 63.501241 76.917486 0.000000 0.000000 0.000000 
0.689784 0.915533 -0.162355 173.181039 81.982178 162.155172 7.914457 -2.262088 -9.050476 -33.722368 -12.553747 56.071290 27.254967 30.999517 25.888743 0.000000 0.000000 0.000000 16.116013 0.888797 -12.461603 -14.695069 -10.764446 33.347470 6.106933 9.493786 6.691282 0.000000 0.000000 0.000000 4.443866 -3.477835 16.615686 -6.904507 1.700042 -25.896487 4.199553 -4.203082 30.613801 9.892426 5.644221 -21.182710 0.000000 0.000000 0.000000 -8.410453 -1.448606 -13.956750 -49.929344 12.679230 -13.123025 -92.805655 -43.483672 24.961560 0.000000 0.000000 0.000000 1.568737 -14.347307 -5.835314 65.696465 -7.796099 1.371081 77.864186 68.079660 87.550627 0.000000 0.000000 0.000000 
0.741883 0.934432 -0.185487 87.470771 88.001274 77.517779 6.916376 -2.068772 -12.016753 -15.149578 -11.219273 42.620366 13.243257 17.755534 7.067641 0.000000 0.000000 0.000000 14.112665 1.195402 -8.332423 -12.607736 -8.773847 31.417527 6.941796 11.611326 8.939247 0.000000 0.000000 0.000000 3.527809 -2.774155 15.698232 -8.020873 1.565778 -27.149580 6.458682 -1.172846 31.996664 9.836554 5.633833 -21.965346 0.000000 0.000000 0.000000 -7.732323 0.536047 -12.957897 -51.424565 15.785533 -15.876821 -92.622055 -42.052857 24.339106 0.000000 0.000000 0.000000 1.479944 -12.816420 -5.178543 68.419458 -4.092039 3.041614 93.094214 71.800831 108.252728 0.000000 0.000000 0.000000 
0.792048 0.954491 -0.207333 21.318312 79.258387 12.973033 6.896441 -1.962190 -12.787528 -2.432579 -5.016950 24.142437 1.350421 5.527281 6.676876 0.000000 0.000000 0.000000 10.352671 1.039580 -5.521972 -11.523032 -6.133696 29.672009 9.425849 15.611423 12.019029 0.000000 0.000000 0.000000 2.466933 -2.013620 14.267269 -7.635445 1.627875 -27.983531 6.712284 2.659316 33.252448 10.657707 4.585994 -22.561818 0.000000 0.000000 0.000000 -6.141080 3.550741 -11.388728 -52.434292 18.954225 -18.855431 -95.662692 -41.308852 26.444699 0.000000 0.000000 0.000000 -0.438695 -12.486686 -5.973253 71.030598 -2.642247 4.918185 106.521600 71.786785 123.485076 0.000000 0.000000 0.000000 
0.840148 0.969430 -0.228134 16.898333 70.528613 9.257667 6.922868 -1.666246 -11.635920 5.035335 -1.596945 10.227026 -14.878639 1.637883 24.769243 0.000000 0.000000 0.000000 7.650604 0.797579 -4.142817 -12.347836 -3.747650 28.800213 8.891998 15.021052 17.269819 0.000000 0.000000 0.000000 0.550731 -1.480528 13.523051 -5.468058 1.858422 -27.612481 5.171005 4.211748 32.830482 11.511526 3.067648 -22.918088 0.000000 0.000000 0.000000 -4.724799 7.452011 -9.984514 -55.488450 22.257772 -22.945870 -97.081413 -38.453744 26.608763 0.000000 0.000000 0.000000 -2.776926 -9.395655 -5.324561 72.949377 -2.936562 4.738967 116.908355 68.794282 130.664589 0.000000 0.000000 0.000000 
0.886499 0.967461 -0.248948 13.913552 59.715611 4.478248 7.004782 -1.189242 -8.293559 6.699579 -1.815664 10.211937 -18.786366 0.951815 34.178205 0.000000 0.000000 0.000000 3.930693 0.492490 -3.818634 -15.592464 -2.456219 34.780056 12.517187 19.601459 17.097486 0.000000 0.000000 0.000000 -1.201461 -1.560798 15.518521 -4.118396 1.378507 -30.320385 5.766714 6.965456 36.606924 11.888456 2.311179 -24.314735 0.000000 0.000000 0.000000 -3.337425 7.851870 -7.882175 -58.380894 22.028871 -25.059671 -98.794756 -39.515965 30.819508 0.000000 0.000000 0.000000 -1.909452 -8.260997 -4.496432 73.233805 -0.122173 4.174652 116.144579 65.555461 125.826985 0.000000 0.000000 0.000000 
0.927922 0.945229 -0.270332 12.184944 51.220995 2.453008 5.957020 -0.864620 -6.476376 4.844875 -2.591788 15.169048 -12.280819 3.324849 27.822011 0.000000 0.000000 0.000000 2.147268 0.584582 -7.919110 -19.226667 -1.779747 45.860817 8.883141 16.265186 9.469557 0.000000 0.000000 0.000000 -1.771096 -1.449010 16.057903 -1.557406 1.587110 -26.798535 1.891798 7.568572 33.859212 12.750999 0.464157 -24.572185 0.000000 0.000000 0.000000 -1.688811 8.047672 -5.467401 -59.723385 18.039285 -23.541186 -96.814168 -44.256948 36.714044 0.000000 0.000000 0.000000 -0.134648 -7.803776 -3.511410 70.427519 -0.464464 0.860174 111.294672 61.839083 113.318144 0.000000 0.000000 0.000000 
0.960778 0.917982 -0.290010 12.302384 43.673269 1.414311 4.902380 -0.634683 -5.097029 1.637919 -3.506594 22.420611 -7.464307 -0.903797 13.989893 0.000000 0.000000 0.000000 0.823121 0.568821 -12.241261 -18.787711 -1.609945 56.753486 1.414380 3.265879 0.184297 0.000000 0.000000 0.000000 -3.222321 -1.716596 19.782842 0.041454 1.256754 -27.020339 -0.211899 5.239420 32.311201 11.793768 -0.188433 -25.886904 0.000000 0.000000 0.000000 -5.914987 5.364886 -5.670697 -55.558403 14.011467 -17.542333 -94.770496 -51.848620 46.243621 0.000000 0.000000 0.000000 3.484719 -7.482906 -2.309688 66.548955 -1.130667 -3.562824 100.407842 59.198976 93.743963 0.000000 0.000000 0.000000 
0.983407 0.901192 -0.303453 12.778503 35.660987 1.468187 3.082469 -0.510357 -5.342441 -1.361013 -3.785530 28.803862 -2.730673 -0.462681 5.843376 0.000000 0.000000 0.000000 1.297452 0.862022 -15.765313 -14.676139 -1.791701 62.760579 -1.784670 -3.523494 -5.884727 0.000000 0.000000 0.000000 -4.187689 -1.430459 20.840381 1.164946 1.030973 -25.290440 -3.633177 3.556544 29.763302 10.088807 -0.580558 -25.263863 0.000000 0.000000 0.000000 -6.986806 3.821897 -4.457931 -52.942153 9.561766 -13.822780 -98.315312 -57.465329 58.319608 0.000000 0.000000 0.000000 6.820903 -6.974307 -1.574803 64.633183 -5.893092 -8.281516 90.436893 55.228164 74.113719 0.000000 0.000000 0.000000 
0.996459 0.899809 -0.307871 12.658725 27.807983 0.769859 1.238219 -0.304302 -3.495341 -2.513574 -2.896443 29.507895 -0.274072 3.078640 5.213111 0.000000 0.000000 0.000000 2.158884 1.254305 -16.086106 -4.454808 -5.388981 60.438233 -3.506958 -8.369623 -3.930640 0.000000 0.000000 0.000000 -3.836212 -1.247766 21.509278 -0.649716 1.261164 -26.079305 -4.781663 1.292799 30.474560 10.101169 -1.648873 -26.147641 0.000000 0.000000 0.000000 -6.207453 2.219889 -2.712773 -53.855163 1.914568 -10.723974 -101.978355 -63.471890 72.138717 0.000000 0.000000 0.000000 8.808326 -8.587293 -2.534004 64.194499 -11.476950 -12.644592 78.238173 49.595219 54.110706 0.000000 0.000000 0.000000 
1.000911 0.906410 -0.305034 12.167510 18.999633 1.875515 0.918998 -0.227539 -2.578977 -4.302286 -1.419342 29.080896 0.627743 3.920950 4.475956 0.000000 0.000000 0.000000 3.163134 1.621810 -16.241981 5.587858 -7.322261 51.438068 -4.159363 -10.484544 0.871033 0.000000 0.000000 0.000000 -3.306289 -0.842217 20.476986 -0.907510 1.146373 -28.645711 -6.451154 0.488600 32.009297 11.489944 -3.804890 -25.240003 0.000000 0.000000 0.000000 -4.397711 2.531613 -1.822265 -54.042893 -3.476443 -8.578339 -115.004657 -66.200217 92.940282 0.000000 0.000000 0.000000 10.416096 -9.206462 -3.311571 61.894912 -14.452231 -14.959277 73.409531 45.358782 43.760834 0.000000 0.000000 0.000000 
0.997913 0.911604 -0.294678 11.559862 9.129095 3.645400 1.180630 -0.333764 -3.707438 -4.687848 -0.220514 28.177902 -1.943826 2.087348 11.351495 0.000000 0.000000 0.000000 5.770127 2.030210 -15.530977 8.829160 -4.851546 42.545249 -5.437026 -14.044645 5.921906 0.000000 0.000000 0.000000 -3.878378 -0.211543 17.078893 1.416163 0.558570 -26.891113 -7.220141 3.320226 28.615882 11.869056 -4.651961 -23.551170 0.000000 0.000000 0.000000 -2.775258 -0.067952 -0.422677 -55.145238 -6.288953 -7.024512 -127.888542 -68.489884 112.375095 0.000000 0.000000 0.000000 9.103129 -11.491514 -4.822447 60.306865 -19.623162 -16.837633 72.574691 41.185949 37.369727 0.000000 0.000000 0.000000 
0.990044 0.912848 -0.277986 10.816060 -0.619125 3.226868 0.625722 -0.701733 -7.753233 -4.546215 0.922937 36.745895 0.573053 7.588322 20.049112 0.000000 0.000000 0.000000 8.273995 1.866429 -12.474004 6.577173 -1.275722 39.879993 -5.179065 -14.121246 7.267983 0.000000 0.000000 0.000000 -4.098157 0.103484 16.503399 2.812133 0.181037 -28.050929 -8.403616 4.955809 28.791470 11.630138 -5.761213 -20.551234 0.000000 0.000000 0.000000 -0.991717 2.711669 -1.090487 -56.454310 -6.659072 -6.678279 -126.861112 -68.629694 114.530595 0.000000 0.000000 0.000000 10.466411 -9.569862 -4.431323 59.359712 -17.537637 -16.391662 69.385149 43.751379 35.963855 0.000000 0.000000 0.000000 
0.979293 0.907821 -0.255698 10.694055 -8.973491 2.762228 0.085445 -1.196824 -14.059102 -3.856397 2.864990 45.283738 2.188670 8.468939 17.361493 0.000000 0.000000 0.000000 8.839689 1.204741 -8.841745 3.287082 1.698042 37.930496 -2.592939 -8.545821 5.041611 0.000000 0.000000 0.000000 -3.770976 0.264073 15.784775 1.394628 0.328632 -27.275092 -5.662162 5.491537 27.729592 7.283494 -3.347397 -21.259673 0.000000 0.000000 0.000000 -4.230124 2.720633 -1.255621 -55.298398 -4.221387 -7.106382 -118.198280 -69.452007 107.742085 0.000000 0.000000 0.000000 8.857420 -8.452133 -4.221904 61.234138 -15.653969 -16.481596 66.062945 46.679542 34.650172 0.000000 0.000000 0.000000 
0.965308 0.906498 -0.226942 10.756741 -17.132792 1.297523 -1.462818 -1.543175 -19.555145 -5.017804 5.772567 45.566311 -0.830983 -6.624432 -11.142812 0.000000 0.000000 0.000000 8.384008 0.036901 -2.634854 0.517798 3.267599 32.665485 -0.500256 -4.755783 5.663788 0.000000 0.000000 0.000000 -3.493999 0.447361 16.306244 3.290299 -0.162844 -26.888343 -5.816285 10.945944 28.420026 6.664098 -2.477081 -24.078497 0.000000 0.000000 0.000000 -5.015138 2.765708 -1.346980 -55.230790 -1.786935 -8.298930 -104.821995 -67.664371 90.763429 0.000000 0.000000 0.000000 10.240914 -8.437012 -4.360489 60.144406 -13.208003 -15.177140 67.343080 50.791347 38.917914 0.000000 0.000000 0.000000 
0.943990 0.915226 -0.190951 11.818793 -24.664278 -0.366172 -5.512192 -2.165629 -24.529882 -4.835401 5.476539 36.828098 -3.516917 -17.919452 -19.061776 0.000000 0.000000 0.000000 7.605486 -0.826667 3.580655 -3.338704 4.103589 26.742960 1.565502 -4.238301 10.679266 0.000000 0.000000 0.000000 -4.012296 0.716957 15.735851 4.815987 -0.684122 -25.346059 -5.938812 14.998680 28.217534 6.437039 -2.318056 -24.749782 0.000000 0.000000 0.000000 -4.164537 5.778063 -2.525012 -56.234259 2.909379 -10.355551 -94.795851 -61.073752 73.626859 0.000000 0.000000 0.000000 10.264945 -8.974194 -4.690773 60.515312 -9.540567 -13.643742 71.869954 53.892173 44.486564 0.000000 0.000000 0.000000 
0.912557 0.929181 -0.148286 11.914858 -29.782623 -1.987154 -8.684780 -2.556358 -25.507567 -3.789851 2.854573 22.803934 -7.627741 -17.373150 -4.579422 0.000000 0.000000 0.000000 6.547838 -1.148996 9.346303 -4.773386 3.661826 21.888349 5.583418 -4.002209 20.782305 0.000000 0.000000 0.000000 -3.918081 0.701435 14.337789 3.728036 -0.612219 -24.585847 -3.792809 15.478127 29.963684 4.421474 -1.634949 -24.741004 0.000000 0.000000 0.000000 -4.161357 5.617791 -2.338981 -58.248821 7.133125 -12.313077 -89.280866 -59.527828 68.409667 0.000000 0.000000 0.000000 8.093821 -7.290274 -3.856313 63.265952 -7.221911 -13.715248 75.681791 54.369783 46.819343 0.000000 0.000000 0.000000 
0.870690 0.938978 -0.102294 11.367492 -36.050963 -3.509117 -9.862130 -2.391789 -24.399767 -1.396142 1.386540 15.923347 -7.471683 -11.908636 8.155883 0.000000 0.000000 0.000000 5.471619 -0.894217 12.847099 -4.935574 4.117679 22.768186 9.081662 -4.056102 28.988791 0.000000 0.000000 0.000000 -5.544974 0.987212 12.868789 5.257680 -1.142377 -22.935327 -2.840352 18.962920 29.788484 5.377315 -2.369603 -23.952047 0.000000 0.000000 0.000000 -1.271621 5.521076 -2.247974 -60.844919 7.722404 -12.754078 -80.748492 -59.881429 61.481155 0.000000 0.000000 0.000000 8.845881 -5.966552 -3.433085 63.194400 -5.829857 -13.108318 73.176800 54.695752 45.064609 0.000000 0.000000 0.000000 
0.822932 0.939642 -0.056686 10.412374 -39.376277 -5.561549 -9.510274 -2.176167 -22.858814 1.184490 1.526313 21.293809 -5.660952 -8.862739 8.837357 0.000000 0.000000 0.000000 4.604861 -0.627678 11.608840 0.308557 5.094834 31.869013 7.118746 -9.152957 38.028152 0.000000 0.000000 0.000000 -6.509927 1.161901 12.710990 6.362959 -1.501847 -22.322793 -2.317356 18.801477 29.440882 6.565908 -3.593537 -22.711622 0.000000 0.000000 0.000000 -0.949423 5.515496 -2.249844 -61.254674 7.748238 -12.422710 -71.252675 -59.452575 53.988769 0.000000 0.000000 0.000000 7.615458 -4.954422 -2.977193 64.012850 -7.012714 -14.210528 73.678672 54.660091 44.405503 0.000000 0.000000 0.000000 
0.776460 0.926103 -0.014505 10.871276 -41.893384 -7.808516 -9.278443 -2.063805 -21.151796 1.609284 3.277127 28.921557 -3.183878 -5.758864 1.911393 0.000000 0.000000 0.000000 2.858400 -0.327985 5.937169 7.038863 7.202229 46.279771 3.894901 -12.437922 42.301393 0.000000 0.000000 0.000000 -7.226824 1.323504 12.699898 7.544887 -1.775528 -21.995736 -3.762810 18.374220 29.528348 7.051644 -4.301157 -22.383786 0.000000 0.000000 0.000000 -2.370031 3.802706 -1.518462 -60.587440 5.761952 -11.277753 -65.784953 -63.607638 54.022919 0.000000 0.000000 0.000000 9.402590 -3.895604 -3.084698 62.873220 -9.630910 -15.497835 74.659319 54.750312 44.208081 0.000000 0.000000 0.000000 
0.733961 0.909140 0.021388 10.559061 -44.199379 -9.098553 -8.253621 -1.839037 -17.968704 2.505115 4.735363 33.816687 -2.604430 -5.370141 -6.628695 0.000000 0.000000 0.000000 -1.218958 0.322948 -2.062921 18.875824 5.735384 59.552244 -1.335096 -16.192082 41.063122 0.000000 0.000000 0.000000 -5.825133 1.159130 13.373101 4.665023 -1.468295 -21.151948 -3.640117 16.321525 28.571557 6.508115 -4.373066 -23.755682 0.000000 0.000000 0.000000 -3.371641 2.396759 -0.758762 -58.825163 1.483689 -8.653655 -54.747589 -65.325597 47.578187 0.000000 0.000000 0.000000 11.603103 -3.417282 -3.928258 62.731489 -11.768432 -16.521785 69.595203 54.515173 38.890010 0.000000 0.000000 0.000000 
0.693159 0.904180 0.052199 10.132683 -46.171356 -10.601358 -7.018433 -1.547784 -12.580360 1.301254 5.836652 33.468472 -1.267185 -1.897059 -9.541736 0.000000 0.000000 0.000000 -4.113493 1.100562 -9.959156 28.154666 2.415991 66.284655 -9.643777 -23.621828 33.534028 0.000000 0.000000 0.000000 -4.323300 1.118477 15.000004 4.256867 -1.348811 -21.911168 -5.002364 14.469978 28.438764 6.108345 -4.622574 -23.920892 0.000000 0.000000 0.000000 -4.986486 1.945882 -0.220591 -58.579318 -2.361804 -6.716846 -49.716194 -66.834541 45.848959 0.000000 0.000000 0.000000 11.949257 -3.737915 -4.727154 62.423473 -13.764412 -17.594648 68.009183 52.086235 34.687236 0.000000 0.000000 0.000000 
0.650417 0.912603 0.079370 8.736493 -47.363080 -11.329472 -5.895892 -1.015766 -6.031685 1.368803 4.354250 28.163591 -0.324394 0.549924 -4.108458 0.000000 0.000000 0.000000 -6.170747 2.002548 -16.531808 30.751337 1.102427 64.923873 -14.039367 -29.649139 21.972705 0.000000 0.000000 0.000000 -1.973705 0.833233 15.921649 1.905267 -0.974096 -21.658152 -4.706547 11.842077 28.471730 7.159772 -5.549241 -26.108007 0.000000 0.000000 0.000000 -4.587781 1.512373 0.082917 -59.496702 -4.725517 -5.039769 -52.432440 -68.250319 50.147540 0.000000 0.000000 0.000000 13.750166 -3.949896 -6.131820 60.817116 -15.968019 -17.870167 66.363435 49.859979 30.598213 0.000000 0.000000 0.000000 
0.603810 0.931683 0.103543 6.217001 -47.445082 -10.066865 -3.486776 -0.109568 0.181473 1.182647 2.587008 21.628550 0.684589 1.574649 5.390541 0.000000 0.000000 0.000000 -5.665190 2.724538 -20.540633 24.760570 3.357590 58.531672 -14.613238 -31.680819 10.266663 0.000000 0.000000 0.000000 -0.346427 0.497997 15.493822 2.146274 -1.138600 -20.643425 -5.579196 9.613552 27.328099 7.398883 -5.965327 -25.592191 0.000000 0.000000 0.000000 -4.686808 2.434526 -0.206827 -60.728555 -3.690780 -5.103933 -62.254619 -69.071959 59.868115 0.000000 0.000000 0.000000 13.789200 -4.282680 -6.752616 61.058166 -17.832640 -18.850383 65.074368 47.401073 27.419153 0.000000 0.000000 0.000000 
0.553200 0.952340 0.124696 4.513521 -48.231950 -8.433510 -0.629434 0.675399 4.297185 -0.029534 2.059801 17.097704 1.955136 2.687539 17.392551 0.000000 0.000000 0.000000 -5.644516 2.960241 -21.479747 12.931071 5.703475 44.986528 -11.211257 -24.490002 2.436605 0.000000 0.000000 0.000000 1.200052 0.179659 14.406543 1.640627 -0.922566 -22.030904 -5.466177 8.096507 28.440614 8.196080 -7.021302 -24.154382 0.000000 0.000000 0.000000 -3.638924 4.157728 -1.064368 -62.687414 -1.663839 -5.443901 -70.985451 -66.746793 67.016923 0.000000 0.000000 0.000000 13.432454 -5.576774 -7.821925 60.971325 -19.699703 -19.964054 64.787836 45.304102 24.854096 0.000000 0.000000 0.000000 
0.500007 0.966904 0.143531 2.677610 -48.979141 -5.972684 1.565144 1.295561 7.379250 0.686574 1.206356 13.857925 1.887656 2.475184 26.033158 0.000000 0.000000 0.000000 -5.187463 2.779365 -20.346431 2.942560 4.179465 27.888948 -4.428228 -15.696094 9.569806 0.000000 0.000000 0.000000 3.044646 -0.171889 12.355544 2.428433 -1.019806 -22.487049 -7.317782 9.256508 27.965362 8.741073 -7.505494 -22.907589 0.000000 0.000000 0.000000 -1.592945 2.994880 -0.934611 -64.995504 0.418028 -6.150118 -75.606294 -66.453924 70.880649 0.000000 0.000000 0.000000 14.441697 -5.575253 -8.339844 61.427595 -22.857936 -21.634941 62.577554 43.874908 23.036627 0.000000 0.000000 0.000000 
0.443705 0.968514 0.160345 2.421333 -49.505501 -4.725246 3.282741 1.356970 7.130745 -0.410429 1.902514 15.252951 4.549771 6.595454 36.416198 0.000000 0.000000 0.000000 -5.276357 2.505367 -18.792492 -0.114384 2.383583 18.032445 1.294253 -13.372601 20.380315 0.000000 0.000000 0.000000 3.334381 -0.309305 9.890107 0.302531 -0.573146 -23.190231 -4.971811 8.142120 28.324320 7.854175 -7.450300 -20.196641 0.000000 0.000000 0.000000 -3.084203 3.543741 -0.805558 -62.706224 3.048933 -7.381017 -83.218255 -64.364936 77.013000 0.000000 0.000000 0.000000 12.989550 -6.078011 -8.473572 63.100729 -23.695948 -23.159472 61.695826 43.442335 21.474829 0.000000 0.000000 0.000000 
0.386848 0.953286 0.173882 3.456199 -48.109756 -6.690897 4.411625 1.543154 7.880770 0.008284 2.933703 21.261638 5.575621 8.516259 36.741388 0.000000 0.000000 0.000000 -6.306026 1.982562 -16.066132 -0.025473 2.771843 20.055813 4.288195 -7.553993 18.022896 0.000000 0.000000 0.000000 1.153808 -0.104953 10.514417 0.471406 -0.588054 -22.939699 -3.510602 6.091616 26.560585 6.857727 -6.816747 -17.820130 0.000000 0.000000 0.000000 -5.360830 5.433331 -1.235417 -62.357903 3.830141 -7.887013 -81.235020 -60.672233 71.258724 0.000000 0.000000 0.000000 12.344353 -5.342851 -7.806720 62.791646 -24.967196 -23.678826 63.426819 42.584982 21.325542 0.000000 0.000000 0.000000 
0.334092 0.936238 0.181833 3.448786 -46.051337 -7.890346 6.108183 1.590728 7.436955 2.502313 3.412569 28.199191 4.489624 8.123470 37.092079 0.000000 0.000000 0.000000 -6.138358 1.541419 -13.128803 2.710840 2.614594 22.145201 1.547950 -7.962208 12.875079 0.000000 0.000000 0.000000 2.040987 -0.152650 11.354836 -2.316635 0.119613 -23.564427 -2.485636 5.270118 27.498504 8.791854 -7.977241 -18.222224 0.000000 0.000000 0.000000 -8.944866 4.015699 0.194515 -59.312282 4.493398 -9.107925 -72.254247 -61.845150 62.817434 0.000000 0.000000 0.000000 15.169134 -4.390620 -8.535913 59.898074 -23.327003 -20.815499 58.376666 44.914963 21.003865 0.000000 0.000000 0.000000 
