HIERARCHY
ROOT Hips
{
	OFFSET -0.001795 -0.223333 0.028219
	CHANNELS 6 Xposition Yposition Zposition Zrotation Yrotation Xrotation 
	JOINT LeftUpLeg
	{
		OFFSET 0.069520 -0.091406 -0.006815
		CHANNELS 3 Zrotation Yrotation Xrotation
		JOINT LeftLeg
		{
			OFFSET 0.034277 -0.375199 -0.004496
			CHANNELS 3 Zrotation Yrotation Xrotation
			JOINT LeftFoot
			{
				OFFSET -0.013596 -0.397961 -0.043693
				CHANNELS 3 Zrotation Yrotation Xrotation
				JOINT LeftToe
				{
					OFFSET 0.026358 -0.055791 0.119288
					CHANNELS 3 Zrotation Yrotation Xrotation
					End Site
					{
						OFFSET 0.000000 0.000000 0.000000
					}
				}
			}
		}
	}
	JOINT RightUpLeg
	{
		OFFSET -0.067670 -0.090522 -0.004320
		CHANNELS 3 Zrotation Yrotation Xrotation
		JOINT RightLeg
		{
			OFFSET -0.038290 -0.382569 -0.008850
			CHANNELS 3 Zrotation Yrotation Xrotation
			JOINT RightFoot
			{
				OFFSET 0.015774 -0.398415 -0.042312
				CHANNELS 3 Zrotation Yrotation Xrotation
				JOINT RightToe
				{
					OFFSET -0.025372 -0.048144 0.123348
					CHANNELS 3 Zrotation Yrotation Xrotation
					End Site
					{
						OFFSET 0.000000 0.000000 0.000000
					}
				}
			}
		}
	}
	JOINT Spine
	{
		OFFSET -0.002533 0.108963 -0.026696
		CHANNELS 3 Zrotation Yrotation Xrotation
		JOINT Spine1
		{
			OFFSET 0.005487 0.135180 0.001092
			CHANNELS 3 Zrotation Yrotation Xrotation
			JOINT Spine2
			{
				OFFSET 0.001457 0.052922 0.025425
				CHANNELS 3 Zrotation Yrotation Xrotation
				JOINT Neck
				{
					OFFSET -0.002778 0.213870 -0.042857
					CHANNELS 3 Zrotation Yrotation Xrotation
					JOINT Head
					{
						OFFSET 0.005152 0.064970 0.051349
						CHANNELS 3 Zrotation Yrotation Xrotation
						End Site
						{
							OFFSET 0.000000 0.000000 0.000000
						}
					}
				}
				JOINT LeftShoulder
				{
					OFFSET 0.078845 0.121749 -0.034090
					CHANNELS 3 Zrotation Yrotation Xrotation
					JOINT LeftArm
					{
						OFFSET 0.090977 0.030469 -0.008868
						CHANNELS 3 Zrotation Yrotation Xrotation
						JOINT LeftForeArm
						{
							OFFSET 0.259612 -0.012772 -0.027456
							CHANNELS 3 Zrotation Yrotation Xrotation
							JOINT LeftHand
							{
								OFFSET 0.249234 0.008986 -0.001171
								CHANNELS 3 Zrotation Yrotation Xrotation
								End Site
								{
									OFFSET 0.000000 0.000000 0.000000
								}
							}
						}
					}
				}
				JOINT RightShoulder
				{
					OFFSET -0.081759 0.118833 -0.038615
					CHANNELS 3 Zrotation Yrotation Xrotation
					JOINT RightArm
					{
						OFFSET -0.096012 0.032551 -0.009143
						CHANNELS 3 Zrotation Yrotation Xrotation
						JOINT RightForeArm
						{
							OFFSET -0.253742 -0.013329 -0.021401
							CHANNELS 3 Zrotation Yrotation Xrotation
							JOINT RightHand
							{
								OFFSET -0.255298 0.007772 -0.005559
								CHANNELS 3 Zrotation Yrotation Xrotation
								End Site
								{
									OFFSET 0.000000 0.000000 0.000000
								}
							}
						}
					}
				}
			}
		}
	}
}
MOTION
Frames: 116
Frame Time: 0.050000
0.000000 0.951284 0.000000 -2.064333 -1.662102 5.903223 5.669735 -0.415635 -7.166855 -1.622102 0.085232 5.387322 4.971166 11.642168 6.514910 0.000000 0.000000 0.000000 -0.083122 0.784751 -7.826884 -0.608355 0.353980 6.235639 -2.045775 -9.021140 11.692736 0.000000 0.000000 0.000000 5.090502 0.381305 -5.905590 -1.900211 0.899065 -1.478230 -3.852426 4.756349 -4.273568 9.120315 -4.345902 -12.334590 0.000000 0.000000 0.000000 -2.699860 -20.315248 6.795441 0.380708 -49.454083 -3.124029 59.041223 -8.211322 -4.681081 0.000000 0.000000 0.000000 0.658029 14.069716 5.177192 -2.526812 48.994616 -3.100165 -56.754147 1.126052 1.641749 0.000000 0.000000 0.000000 
-0.000450 0.950818 0.004230 -2.802410 -1.016102 6.312546 6.485488 -0.386735 -6.874802 -1.285002 0.053151 4.095022 4.639044 11.137123 6.825224 0.000000 0.000000 0.000000 0.934996 0.790645 -7.598729 -1.090380 0.449494 6.678108 -1.734952 -7.851944 9.885078 0.000000 0.000000 0.000000 5.500061 0.502319 -7.241980 -0.853436 0.395338 0.578735 -5.102943 5.218744 -6.138719 10.595902 -5.086422 -12.529142 0.000000 0.000000 0.000000 -6.045133 -21.725654 7.292509 -0.250615 -49.220399 -2.764537 54.528668 -10.275371 -5.320035 0.000000 0.000000 0.000000 2.070953 14.607002 5.615378 -1.338624 47.890651 -2.432053 -54.081364 2.049736 1.274451 0.000000 0.000000 0.000000 
-0.000532 0.949950 0.008274 -2.603762 -2.564091 5.203014 6.105406 -0.308570 -5.348839 -1.357639 0.066012 4.548895 5.330967 12.261342 6.671606 0.000000 0.000000 0.000000 0.115062 0.689253 -6.842743 -1.169612 0.554113 8.180351 -0.057898 -4.108156 8.350166 0.000000 0.000000 0.000000 6.793818 0.473157 -6.092878 -2.520158 1.166304 -3.389162 -4.747446 6.251157 -1.992069 11.568963 -5.701177 -13.301944 0.000000 0.000000 0.000000 -7.750073 -21.453874 7.351523 1.022584 -48.593769 -3.354809 48.584601 -12.525964 -5.470428 0.000000 0.000000 0.000000 3.386608 15.876333 6.275146 -1.365519 46.673136 -2.602311 -51.462790 7.100366 -1.171018 0.000000 0.000000 0.000000 
-0.000233 0.949870 0.011975 -2.922036 -1.443841 5.351412 6.565042 -0.323758 -5.647571 -1.351559 0.050701 4.859865 4.886604 11.458369 6.258646 0.000000 0.000000 0.000000 0.767446 0.694373 -6.742983 -1.071231 0.549476 8.583929 -1.036835 -5.903596 8.044520 0.000000 0.000000 0.000000 7.014143 0.602992 -7.404540 -2.569802 1.205497 -1.855567 -5.015049 6.146928 -2.790206 12.123617 -5.981120 -13.281861 0.000000 0.000000 0.000000 -9.682429 -22.480386 7.759963 1.706198 -48.408953 -3.531617 42.078074 -12.538496 -4.577887 0.000000 0.000000 0.000000 4.806259 16.069168 6.612205 -1.520378 46.044231 -2.586475 -43.632072 8.432925 -1.457737 0.000000 0.000000 0.000000 
0.000402 0.950118 0.015345 -2.747108 -1.678500 4.676074 6.392758 -0.299627 -5.164479 -1.531295 0.064564 5.752011 4.970938 11.588636 6.200593 0.000000 0.000000 0.000000 0.384398 0.632686 -6.233975 -0.563910 0.514674 9.665661 -1.284478 -6.177058 7.281635 0.000000 0.000000 0.000000 7.077867 0.613519 -7.309808 -2.761120 1.291076 -2.182255 -5.379633 6.716191 -2.266190 12.565573 -6.157721 -13.682299 0.000000 0.000000 0.000000 -10.510346 -22.683106 7.810975 1.396642 -47.462565 -3.351805 36.190649 -12.899999 -3.930754 0.000000 0.000000 0.000000 5.661987 16.247830 6.871993 -1.299137 44.225761 -2.434855 -36.626203 10.323046 -1.772680 0.000000 0.000000 0.000000 
0.001504 0.950895 0.018251 -2.756862 -1.532449 4.681605 6.284531 -0.308885 -5.269575 -1.432839 0.039113 6.185092 4.903136 11.492659 6.303919 0.000000 0.000000 0.000000 0.336743 0.605063 -5.974990 -0.503642 0.491583 9.462784 -1.357599 -6.454024 7.692961 0.000000 0.000000 0.000000 6.958284 0.666717 -7.881537 -2.755082 1.299263 -0.910834 -5.335124 6.528000 -3.470260 12.178642 -5.838208 -13.768328 0.000000 0.000000 0.000000 -11.170580 -21.432103 7.224468 0.893479 -46.134277 -2.964047 30.460730 -12.792236 -3.149705 0.000000 0.000000 0.000000 5.363837 15.741783 6.597632 -0.948013 42.842756 -2.206212 -28.922431 9.996660 -1.286079 0.000000 0.000000 0.000000 
0.002817 0.951474 0.020613 -2.820828 -1.517152 4.626463 6.305091 -0.300771 -5.061505 -1.422920 0.035422 6.285326 4.743436 11.185317 6.177812 0.000000 0.000000 0.000000 0.362698 0.618657 -6.099760 -0.387736 0.490795 9.904372 -1.574474 -7.049707 8.152857 0.000000 0.000000 0.000000 6.792672 0.671347 -7.993887 -2.822154 1.327660 -1.277452 -4.813355 6.324504 -2.943718 12.006755 -5.801086 -13.665786 0.000000 0.000000 0.000000 -11.382156 -20.444468 6.860185 1.347023 -43.554561 -2.892088 26.443667 -11.600581 -2.388439 0.000000 0.000000 0.000000 5.154943 15.122017 6.257702 -1.177596 40.721896 -2.203118 -23.329605 9.218956 -0.879043 0.000000 0.000000 0.000000 
0.004038 0.951974 0.022588 -3.036805 -1.282555 4.536900 6.365779 -0.296629 -4.917989 -1.214485 -0.003475 6.365023 4.654180 11.026301 6.123288 0.000000 0.000000 0.000000 0.575337 0.613059 -6.004429 -0.298213 0.465957 9.805801 -1.826009 -7.820736 9.094851 0.000000 0.000000 0.000000 6.616807 0.646795 -7.855016 -2.461433 1.164607 -0.657504 -4.942076 6.243598 -4.106546 11.136602 -5.524524 -12.270698 0.000000 0.000000 0.000000 -10.805929 -19.770539 6.484601 1.303124 -40.570300 -2.586436 22.459260 -9.470221 -1.597142 0.000000 0.000000 0.000000 5.692233 13.602504 5.672645 -1.037904 37.919391 -1.995946 -19.177515 8.334686 -0.553050 0.000000 0.000000 0.000000 
0.004851 0.952255 0.024266 -3.291220 -1.606379 4.668874 6.651071 -0.277325 -4.623200 -1.392811 0.035456 6.063996 4.738164 11.124639 5.910717 0.000000 0.000000 0.000000 1.009122 0.611502 -5.932684 -0.509414 0.496216 9.514130 -1.974641 -8.211228 9.292878 0.000000 0.000000 0.000000 6.721691 0.646015 -7.779269 -2.758768 1.299740 -1.059921 -4.372103 5.704869 -3.323743 10.405319 -5.271887 -11.695044 0.000000 0.000000 0.000000 -10.515175 -18.600648 6.138365 1.719189 -36.977396 -2.406539 20.624703 -6.809483 -1.020768 0.000000 0.000000 0.000000 5.733286 12.129182 4.941873 0.415648 35.271072 -1.581625 -18.105796 7.745808 -0.447119 0.000000 0.000000 0.000000 
0.005353 0.952376 0.025952 -3.406420 -1.430933 4.938779 6.956261 -0.283101 -4.811893 -1.898913 0.118422 5.996059 4.894393 11.408598 5.877881 0.000000 0.000000 0.000000 1.010546 0.626788 -6.071945 -0.602287 0.508999 9.466532 -1.649260 -7.590660 9.450646 0.000000 0.000000 0.000000 6.215558 0.601808 -7.653091 -2.361886 1.115587 -1.040423 -4.459799 5.531034 -3.355428 8.987374 -4.333210 -11.829724 0.000000 0.000000 0.000000 -9.507933 -17.024295 5.449039 0.779712 -33.699362 -1.938388 19.541461 -4.861382 -0.695929 0.000000 0.000000 0.000000 6.832448 9.914608 4.064855 3.013818 31.584520 -0.955759 -18.523964 8.472432 -0.539364 0.000000 0.000000 0.000000 
0.005685 0.952158 0.027751 -3.527925 -1.572341 5.227634 7.165141 -0.279562 -4.781001 -2.205438 0.171546 5.917033 5.015010 11.529129 5.331034 0.000000 0.000000 0.000000 1.157114 0.663202 -6.385934 -0.736465 0.549199 9.732387 -1.556702 -7.370849 9.275240 0.000000 0.000000 0.000000 5.944623 0.568805 -7.473187 -2.160519 1.020854 -1.421047 -4.385952 5.472982 -2.703457 8.227944 -4.017456 -11.137974 0.000000 0.000000 0.000000 -9.494001 -14.856615 4.549644 -0.251389 -30.627354 -1.537244 19.071564 -3.539560 -0.506036 0.000000 0.000000 0.000000 7.759203 7.195432 2.910549 6.856060 27.672612 -0.330304 -20.945496 10.462389 -0.914455 0.000000 0.000000 0.000000 
0.005960 0.951663 0.029511 -3.540415 -1.395047 5.475649 7.496742 -0.289847 -5.198365 -2.954890 0.289694 6.493715 5.170851 11.726774 4.762766 0.000000 0.000000 0.000000 1.245802 0.685216 -6.570589 -0.784407 0.561664 9.845322 -1.758993 -7.709478 9.112441 0.000000 0.000000 0.000000 5.754934 0.534729 -7.280361 -1.954110 0.926691 -1.798568 -4.339104 5.248931 -1.796121 7.084431 -3.241900 -11.519258 0.000000 0.000000 0.000000 -9.660596 -12.221121 3.462401 -3.411562 -28.276511 -0.887974 20.377991 -3.840519 -0.614623 0.000000 0.000000 0.000000 9.375269 4.139887 1.576487 11.496609 24.054512 0.126226 -24.945499 12.665564 -1.523246 0.000000 0.000000 0.000000 
0.006258 0.950784 0.031235 -3.524557 -1.703795 5.882536 7.665337 -0.293797 -5.521458 -3.208423 0.337054 6.615525 5.112338 11.578965 4.581244 0.000000 0.000000 0.000000 1.158955 0.715612 -6.876249 -0.697464 0.547006 9.804228 -1.802123 -7.720168 8.737184 0.000000 0.000000 0.000000 5.688353 0.539516 -7.393278 -1.994422 0.942559 -1.731747 -4.386030 5.401804 -1.446057 6.834094 -3.191902 -10.953586 0.000000 0.000000 0.000000 -10.721022 -10.178509 2.519993 -6.655538 -25.230050 -0.353365 22.132329 -5.734691 -1.007869 0.000000 0.000000 0.000000 11.032170 1.480388 0.348060 16.683945 19.868241 0.299222 -27.123822 15.507563 -2.236377 0.000000 0.000000 0.000000 
0.006593 0.949507 0.032966 -3.345089 -2.107284 5.799808 7.977879 -0.281044 -5.863551 -3.288827 0.357364 7.098395 4.295873 10.228794 5.550422 0.000000 0.000000 0.000000 0.796219 0.702798 -6.836105 -0.364484 0.506926 10.161465 -1.955444 -7.841267 7.981875 0.000000 0.000000 0.000000 5.390518 0.516982 -7.210332 -1.867346 0.883814 -2.226252 -4.207441 5.702148 -0.214799 5.811033 -2.503856 -11.229290 0.000000 0.000000 0.000000 -12.301196 -7.684715 1.312040 -11.879808 -22.413699 0.176584 25.867486 -10.405054 -2.186712 0.000000 0.000000 0.000000 13.298181 -0.843325 -0.805372 21.947398 15.973121 0.094177 -28.725728 18.643951 -3.057077 0.000000 0.000000 0.000000 
0.006895 0.948072 0.034597 -3.075694 -2.505532 5.943324 7.840207 -0.277761 -5.769374 -2.942045 0.304338 6.337746 3.653308 9.251520 6.646184 0.000000 0.000000 0.000000 0.141467 0.676274 -6.714177 0.157820 0.417530 10.257887 -1.894272 -7.301681 6.582288 0.000000 0.000000 0.000000 5.352563 0.562192 -7.677035 -2.179367 1.025562 -1.386615 -4.492049 5.965627 -0.310076 6.082023 -2.545868 -11.943907 0.000000 0.000000 0.000000 -14.455941 -6.420289 0.471032 -17.005153 -19.508634 0.462659 28.367232 -14.854327 -3.479911 0.000000 0.000000 0.000000 16.021154 -2.402170 -1.699233 27.638581 12.784983 -0.261796 -27.947308 21.674764 -3.568897 0.000000 0.000000 0.000000 
0.006938 0.946438 0.035862 -2.780143 -2.905495 5.811825 7.805178 -0.264232 -5.571833 -2.938304 0.310148 5.969082 3.127953 8.459531 7.499561 0.000000 0.000000 0.000000 -0.376954 0.643182 -6.478357 0.137889 0.436628 10.461393 -1.557014 -6.217538 5.475896 0.000000 0.000000 0.000000 4.989071 0.582373 -7.990714 -2.073682 0.979422 -0.844334 -4.709122 6.386845 0.088673 6.209947 -2.500718 -12.625097 0.000000 0.000000 0.000000 -17.766693 -5.869267 -0.241817 -21.853667 -16.740115 0.472887 28.774990 -19.621551 -4.674997 0.000000 0.000000 0.000000 19.682697 -3.050770 -2.196550 32.973093 10.181750 -0.850652 -26.183537 24.138968 -3.744757 0.000000 0.000000 0.000000 
0.006683 0.945052 0.036323 -2.745660 -3.175427 5.788980 7.834751 -0.254421 -5.450115 -2.588938 0.257649 5.422701 2.699249 7.868589 8.369335 0.000000 0.000000 0.000000 -0.611150 0.620592 -6.283351 0.468896 0.384718 10.621035 -1.561221 -5.781390 4.260400 0.000000 0.000000 0.000000 4.976094 0.616562 -8.320687 -2.044566 0.969782 -0.230159 -5.100526 6.598397 -0.155734 6.371276 -2.447653 -13.421734 0.000000 0.000000 0.000000 -19.816484 -5.546872 -0.735119 -27.808659 -15.145177 0.517789 26.794471 -21.471584 -4.742878 0.000000 0.000000 0.000000 22.504773 -3.416789 -2.542575 39.096456 8.314031 -1.422245 -23.158690 25.686081 -3.430132 0.000000 0.000000 0.000000 
0.006008 0.943491 0.035971 -2.736333 -3.305779 5.547872 8.043818 -0.238171 -5.364815 -2.916995 0.312670 5.779054 2.818988 7.964748 7.884802 0.000000 0.000000 0.000000 -0.795132 0.620097 -6.306247 0.733425 0.358306 11.141826 -1.516291 -5.453570 3.675797 0.000000 0.000000 0.000000 4.830579 0.615374 -8.324023 -1.965330 0.936590 0.312016 -5.321645 6.527332 -0.393915 6.449348 -2.391553 -14.041779 0.000000 0.000000 0.000000 -21.791053 -5.675816 -0.922808 -33.626536 -13.573303 0.364368 22.716159 -22.591347 -4.118428 0.000000 0.000000 0.000000 24.549358 -3.239145 -2.598086 44.398468 7.686229 -1.699388 -19.049705 26.106089 -2.688706 0.000000 0.000000 0.000000 
0.005068 0.942599 0.034871 -2.825720 -3.478106 5.472827 8.095537 -0.228572 -5.241215 -2.761452 0.289164 5.689895 2.952063 8.128869 7.613142 0.000000 0.000000 0.000000 -0.833373 0.614739 -6.256175 0.912541 0.337128 11.396049 -1.362046 -4.764323 2.859027 0.000000 0.000000 0.000000 4.702567 0.620772 -8.406058 -1.654727 0.790045 0.421729 -5.691320 6.363836 -0.640750 6.410424 -2.304790 -14.450931 0.000000 0.000000 0.000000 -23.283859 -6.032965 -0.886667 -39.091205 -12.344249 0.121423 17.965967 -22.352310 -3.074863 0.000000 0.000000 0.000000 25.905299 -2.702203 -2.398937 49.065626 6.979099 -2.032401 -15.157022 26.949534 -1.996247 0.000000 0.000000 0.000000 
0.004143 0.941640 0.033423 -2.872079 -3.457635 5.551516 8.250745 -0.228952 -5.493951 -2.816968 0.297871 5.843489 3.002086 8.158310 7.330918 0.000000 0.000000 0.000000 -0.856140 0.659115 -6.721984 0.762720 0.373521 11.556482 -0.994070 -4.075613 3.238860 0.000000 0.000000 0.000000 4.653796 0.615855 -8.391442 -1.738747 0.827991 0.012128 -5.788066 6.298896 -0.410437 6.469363 -2.234250 -15.143093 0.000000 0.000000 0.000000 -23.899613 -6.123871 -0.890603 -43.927530 -11.498457 -0.172538 13.885240 -22.694185 -2.269517 0.000000 0.000000 0.000000 26.613182 -2.746299 -2.481707 53.326639 6.018033 -2.544085 -11.499053 28.986933 -1.329143 0.000000 0.000000 0.000000 
0.003429 0.941185 0.031632 -2.985274 -3.160234 5.513158 8.371030 -0.234467 -5.758678 -2.639799 0.263048 6.098004 2.917092 7.979959 7.116218 0.000000 0.000000 0.000000 -0.700825 0.720120 -7.324533 0.681593 0.411619 12.190042 -0.895350 -4.092565 3.823051 0.000000 0.000000 0.000000 4.528953 0.599232 -8.317249 -1.713210 0.816153 0.326351 -5.959939 5.628733 -0.836529 6.069714 -1.957954 -15.560323 0.000000 0.000000 0.000000 -23.799403 -6.087339 -0.768586 -47.447612 -11.211834 -0.326514 10.323610 -23.121772 -1.548509 0.000000 0.000000 0.000000 27.205727 -2.066050 -2.250896 56.353021 4.851379 -3.096386 -9.640330 30.425632 -0.998562 0.000000 0.000000 0.000000 
0.003065 0.940982 0.029524 -2.993339 -2.865137 5.546000 8.253319 -0.248844 -5.908936 -2.292995 0.201422 5.955492 2.815676 7.794138 7.014858 0.000000 0.000000 0.000000 -0.606905 0.735069 -7.457025 0.412879 0.431035 11.528177 -0.713390 -4.150967 4.958332 0.000000 0.000000 0.000000 4.424899 0.576957 -8.173809 -2.014876 0.959061 0.404033 -6.059857 5.593148 -1.086735 5.704222 -1.754370 -15.351987 0.000000 0.000000 0.000000 -23.591563 -6.897472 -0.340328 -49.911725 -11.742395 -0.106894 8.450001 -22.811410 -1.153931 0.000000 0.000000 0.000000 27.944217 -1.965857 -2.180681 58.189972 4.246488 -3.468612 -8.109164 32.108741 -0.645048 0.000000 0.000000 0.000000 
0.002938 0.941206 0.027251 -2.948551 -2.615577 5.482215 8.215802 -0.258041 -6.101997 -2.226266 0.186369 6.047697 2.687980 7.597367 7.079992 0.000000 0.000000 0.000000 -0.621736 0.759207 -7.711508 0.201215 0.450749 11.133289 -0.491831 -4.264002 6.451566 0.000000 0.000000 0.000000 4.386518 0.561192 -8.039623 -2.068788 0.984400 0.481746 -6.507009 5.380344 -1.333694 5.610330 -1.692016 -15.329236 0.000000 0.000000 0.000000 -23.408271 -7.450028 -0.033532 -50.789322 -12.637480 0.290935 7.825118 -23.069165 -1.046189 0.000000 0.000000 0.000000 28.167524 -1.761804 -2.044497 58.784254 4.071533 -3.569548 -6.813178 32.499890 -0.309564 0.000000 0.000000 0.000000 
0.002745 0.941599 0.025061 -2.906488 -2.087041 5.096826 8.230433 -0.263946 -6.171985 -2.179096 0.167991 6.439401 2.412833 7.154469 7.123330 0.000000 0.000000 0.000000 -0.687274 0.725171 -7.389593 0.223452 0.403363 10.376569 -0.433379 -4.744267 8.129669 0.000000 0.000000 0.000000 4.287839 0.508822 -7.499041 -1.993576 0.946934 0.573697 -7.017965 5.101323 -1.666394 5.173375 -1.477852 -14.901336 0.000000 0.000000 0.000000 -23.742719 -8.520289 0.481725 -51.009226 -14.638583 1.212831 9.163025 -22.071046 -1.270593 0.000000 0.000000 0.000000 28.612857 -2.013872 -2.197202 58.665203 3.644272 -3.765393 -5.633259 33.370073 0.012037 0.000000 0.000000 0.000000 
0.002326 0.941473 0.023136 -2.752853 -1.702613 4.810640 8.029515 -0.271779 -5.994122 -1.983028 0.131584 6.297536 2.223219 6.827453 7.065764 0.000000 0.000000 0.000000 -0.569890 0.693865 -7.043910 -0.105616 0.432702 9.756388 -0.673902 -5.464214 8.860993 0.000000 0.000000 0.000000 4.228056 0.491535 -7.327731 -2.207291 1.049423 0.882839 -7.305483 4.471655 -1.902361 4.444263 -1.098043 -14.677323 0.000000 0.000000 0.000000 -23.686554 -8.836919 0.768876 -50.789844 -17.663580 2.500975 10.574902 -20.686690 -1.432057 0.000000 0.000000 0.000000 28.357019 -1.845107 -2.196651 58.921955 3.396415 -3.839725 -4.899429 34.118232 0.186424 0.000000 0.000000 0.000000 
0.001636 0.941237 0.021262 -2.731291 -1.253240 4.249133 8.297647 -0.258279 -5.750506 -2.305128 0.177237 6.558534 1.982324 6.395371 6.940229 0.000000 0.000000 0.000000 -0.520778 0.654819 -6.638085 -0.029959 0.406503 9.626574 -0.913378 -6.133331 9.564047 0.000000 0.000000 0.000000 4.312629 0.456989 -6.839802 -2.098818 0.995746 1.474001 -8.042441 4.140703 -2.626189 4.094684 -1.061068 -13.301962 0.000000 0.000000 0.000000 -23.775154 -9.757867 1.208754 -49.667856 -21.168801 4.016767 13.206494 -20.514018 -1.930831 0.000000 0.000000 0.000000 28.384387 -2.039303 -2.295473 58.852779 2.478032 -4.226120 -3.787428 36.164458 0.542508 0.000000 0.000000 0.000000 
0.000811 0.941256 0.019292 -2.680480 -1.400827 4.138307 8.231109 -0.255665 -5.752681 -2.214928 0.163217 6.603264 2.032336 6.498895 7.024386 0.000000 0.000000 0.000000 -0.604133 0.647758 -6.586230 0.083454 0.381602 9.497330 -0.846512 -5.992677 9.493722 0.000000 0.000000 0.000000 4.323022 0.438529 -6.577561 -2.194686 1.044742 1.849518 -8.333312 3.827682 -3.099561 3.667709 -0.863054 -12.971501 0.000000 0.000000 0.000000 -23.498720 -9.790319 1.325443 -48.916454 -24.749309 5.461683 18.159914 -23.559252 -3.319448 0.000000 0.000000 0.000000 28.124529 -2.087077 -2.429596 58.867880 1.817137 -4.467157 -3.417160 38.673575 0.675954 0.000000 0.000000 0.000000 
0.000026 0.941767 0.017301 -2.694747 -1.445825 4.035046 8.585446 -0.237486 -5.512832 -2.711396 0.251678 6.152823 1.957940 6.439436 7.306639 0.000000 0.000000 0.000000 -0.426378 0.647330 -6.542646 0.068340 0.393806 9.700081 -1.031222 -6.183961 8.931664 0.000000 0.000000 0.000000 4.490055 0.436911 -6.464726 -2.051474 0.974728 1.930645 -8.829911 3.769889 -3.250975 3.798790 -1.168967 -11.311387 0.000000 0.000000 0.000000 -22.940661 -10.554967 1.777597 -47.226820 -28.730526 6.873591 25.854626 -27.131785 -5.853574 0.000000 0.000000 0.000000 28.071749 -2.391326 -2.601856 57.877250 0.512154 -5.017293 -2.565566 41.876287 1.077348 0.000000 0.000000 0.000000 
-0.000608 0.942454 0.015714 -2.688026 -2.049673 4.212206 8.650911 -0.226638 -5.623239 -2.880435 0.288552 6.041898 2.171684 6.880906 7.710475 0.000000 0.000000 0.000000 -0.321219 0.666523 -6.713609 -0.060405 0.393153 8.975225 -0.956237 -6.394334 9.809045 0.000000 0.000000 0.000000 4.677321 0.434232 -6.318920 -2.146853 1.029399 2.303590 -8.934924 3.473113 -3.922169 3.266861 -0.928603 -10.834142 0.000000 0.000000 0.000000 -21.895165 -11.085976 2.280915 -45.737008 -33.155131 8.393775 36.075722 -29.100852 -9.203937 0.000000 0.000000 0.000000 27.223991 -2.817005 -3.019947 57.736897 -0.995102 -5.578479 -1.614173 45.228343 1.477049 0.000000 0.000000 0.000000 
-0.000846 0.943709 0.014873 -2.701354 -2.212136 4.546954 8.828305 -0.223343 -5.583594 -3.166333 0.340055 5.266622 2.142647 6.957653 8.273840 0.000000 0.000000 0.000000 -0.134381 0.680206 -6.808471 -0.379539 0.421762 8.340480 -0.798610 -6.244152 10.231030 0.000000 0.000000 0.000000 4.833420 0.443280 -6.410143 -2.166912 1.036468 1.631503 -8.620748 2.614981 -3.765825 3.148427 -1.006001 -10.168217 0.000000 0.000000 0.000000 -21.390001 -11.474966 2.859265 -44.561865 -36.300261 9.303280 45.515441 -29.400463 -11.992719 0.000000 0.000000 0.000000 26.360942 -2.794888 -3.292317 57.112569 -3.009299 -6.364445 0.591254 47.651636 2.332210 0.000000 0.000000 0.000000 
-0.000629 0.944950 0.014635 -2.707879 -2.794488 4.864711 8.789407 -0.219370 -5.739059 -3.231098 0.357928 5.100930 2.344059 7.386927 8.805138 0.000000 0.000000 0.000000 -0.147631 0.695995 -6.970126 -0.504885 0.423798 7.840383 -0.444311 -5.760733 10.629517 0.000000 0.000000 0.000000 5.000165 0.451719 -6.432006 -1.820839 0.870168 1.347696 -8.608177 2.005025 -3.844302 2.919202 -0.874029 -10.468216 0.000000 0.000000 0.000000 -20.740992 -11.583368 3.206876 -43.444518 -38.475262 9.831510 51.318540 -29.204041 -13.556422 0.000000 0.000000 0.000000 25.699571 -3.063524 -3.696702 56.772878 -4.385895 -6.869616 2.203703 49.374898 2.980293 0.000000 0.000000 0.000000 
-0.000092 0.946529 0.014727 -2.642964 -3.267001 5.401423 8.633501 -0.227148 -5.902941 -3.248435 0.366520 4.503767 2.479579 7.730667 9.488789 0.000000 0.000000 0.000000 -0.158025 0.729957 -7.309053 -0.780304 0.454120 7.474078 -0.133533 -5.255677 10.735413 0.000000 0.000000 0.000000 5.197527 0.464555 -6.546062 -1.515059 0.724202 1.419092 -8.374134 0.712338 -4.487262 3.185016 -1.145498 -10.273595 0.000000 0.000000 0.000000 -20.332986 -12.039787 3.893836 -42.684794 -39.653593 10.083294 53.707777 -27.863730 -13.358369 0.000000 0.000000 0.000000 23.811746 -2.968536 -3.921234 57.602421 -5.860329 -7.488258 4.268048 49.096526 3.539538 0.000000 0.000000 0.000000 
0.000471 0.947973 0.014764 -2.541509 -3.651343 5.707237 8.357767 -0.234786 -5.890544 -3.112746 0.350242 3.996264 2.578923 7.990608 10.084121 0.000000 0.000000 0.000000 -0.284259 0.750169 -7.537440 -0.837052 0.455279 7.278463 0.031099 -5.068800 10.954496 0.000000 0.000000 0.000000 5.092847 0.450716 -6.452054 -0.742250 0.353586 0.750515 -8.264205 -0.024281 -4.208409 3.133760 -1.122546 -10.714644 0.000000 0.000000 0.000000 -20.575835 -12.547667 4.488456 -41.391038 -39.586951 9.610260 52.492938 -28.938068 -13.265815 0.000000 0.000000 0.000000 22.933202 -3.186580 -4.213921 57.206100 -6.724063 -7.803696 5.999580 48.319125 4.050956 0.000000 0.000000 0.000000 
0.000763 0.949207 0.014707 -2.460498 -4.323663 6.055468 8.241898 -0.234958 -6.164960 -3.241840 0.377532 4.007206 2.832033 8.462988 10.652025 0.000000 0.000000 0.000000 -0.414978 0.804275 -8.099798 -0.921569 0.475594 7.321478 0.358138 -4.740872 11.504340 0.000000 0.000000 0.000000 5.313682 0.463766 -6.500758 -0.490299 0.238441 0.408970 -7.990566 -1.053855 -4.144887 3.199931 -1.187362 -11.308940 0.000000 0.000000 0.000000 -20.200828 -11.959487 4.580802 -41.401502 -39.755118 9.611177 50.597884 -30.226781 -12.981654 0.000000 0.000000 0.000000 21.669926 -2.765861 -4.190065 57.796177 -7.370808 -8.165338 7.563273 47.618496 4.383410 0.000000 0.000000 0.000000 
0.000730 0.950360 0.014463 -2.531716 -5.090242 6.355074 8.280278 -0.223914 -6.337396 -3.331758 0.400057 3.978798 3.145062 9.000069 11.176550 0.000000 0.000000 0.000000 -0.380817 0.845941 -8.490981 -0.969686 0.469282 7.001510 0.736366 -4.463471 12.345226 0.000000 0.000000 0.000000 5.288637 0.458562 -6.420962 -0.102026 0.060354 0.051427 -7.770177 -1.280882 -4.175429 3.155672 -1.198345 -11.335944 0.000000 0.000000 0.000000 -20.199666 -12.247530 4.942457 -40.582866 -39.560262 9.265281 47.759746 -30.503280 -12.096058 0.000000 0.000000 0.000000 21.276297 -2.765405 -4.307396 57.766657 -7.566721 -8.234040 8.570707 46.514440 4.569864 0.000000 0.000000 0.000000 
0.000524 0.950906 0.014071 -2.539859 -5.776059 6.611030 8.080278 -0.226152 -6.594648 -3.092780 0.370610 4.139452 3.475173 9.523555 11.493097 0.000000 0.000000 0.000000 -0.282896 0.900776 -8.984685 -1.328783 0.530003 7.016665 1.202765 -3.903026 12.857564 0.000000 0.000000 0.000000 5.273302 0.439196 -6.198168 0.001568 0.016398 -0.383807 -7.556436 -1.801741 -4.002850 3.798308 -1.614548 -11.745473 0.000000 0.000000 0.000000 -19.934494 -11.614155 4.861858 -40.760941 -39.593867 9.276427 46.262367 -30.970544 -11.647887 0.000000 0.000000 0.000000 20.699593 -2.306759 -4.205793 58.060315 -7.612427 -8.311467 8.883684 45.969971 4.482057 0.000000 0.000000 0.000000 
0.000319 0.951836 0.013691 -2.571135 -6.566288 6.764166 7.991018 -0.218003 -6.763387 -3.027539 0.369972 4.375604 3.822947 10.077879 11.951885 0.000000 0.000000 0.000000 -0.316762 0.937620 -9.334173 -1.492556 0.552062 6.908851 1.882064 -3.087472 13.619500 0.000000 0.000000 0.000000 5.287541 0.397722 -5.728001 0.238935 -0.089507 -0.910864 -7.488186 -1.795096 -3.557552 3.953611 -1.701563 -12.251007 0.000000 0.000000 0.000000 -20.359838 -11.237084 4.832221 -40.914976 -39.031686 9.028361 45.142616 -31.239158 -11.306979 0.000000 0.000000 0.000000 20.522436 -1.797155 -4.014024 58.460168 -7.161928 -8.203439 8.517933 45.473976 4.217677 0.000000 0.000000 0.000000 
0.000282 0.952118 0.013463 -2.449397 -7.305697 6.808743 7.858608 -0.207657 -6.653584 -3.189187 0.405086 4.296356 4.142591 10.557673 12.247548 0.000000 0.000000 0.000000 -0.420823 0.980145 -9.754472 -1.800765 0.613057 7.063851 2.440805 -2.479423 14.284541 0.000000 0.000000 0.000000 5.153448 0.389855 -5.623786 0.351740 -0.141573 -0.817906 -7.531963 -1.665580 -3.328359 4.733257 -2.119784 -12.986285 0.000000 0.000000 0.000000 -20.743012 -10.563856 4.553377 -41.856104 -37.753938 8.752219 44.418594 -32.316553 -11.445984 0.000000 0.000000 0.000000 20.217138 -1.861994 -4.053033 58.894596 -7.042987 -8.258197 9.556770 45.330990 4.584897 0.000000 0.000000 0.000000 
0.000263 0.952478 0.013353 -2.369096 -7.934204 6.807468 7.700717 -0.202221 -6.594591 -3.208972 0.416544 4.372739 4.421423 10.973710 12.516239 0.000000 0.000000 0.000000 -0.651957 0.997548 -9.978587 -1.985119 0.666763 7.379598 3.259731 -1.037074 14.216389 0.000000 0.000000 0.000000 5.111599 0.368202 -5.366122 0.238986 -0.089974 -0.886943 -7.685521 -1.579906 -3.124454 5.192641 -2.361617 -13.483806 0.000000 0.000000 0.000000 -21.233857 -9.597898 4.094635 -43.104847 -35.247966 8.045233 43.165440 -35.646879 -12.253511 0.000000 0.000000 0.000000 20.308099 -1.928505 -4.156951 59.266127 -6.742970 -8.197094 10.363379 45.112125 4.851337 0.000000 0.000000 0.000000 
0.000254 0.952641 0.013266 -2.317255 -8.100842 6.721733 7.746226 -0.192939 -6.512682 -3.420160 0.454442 4.420448 4.471321 11.047537 12.613347 0.000000 0.000000 0.000000 -0.705084 0.976212 -9.790297 -2.198340 0.691566 7.255719 3.623583 -0.304632 14.053060 0.000000 0.000000 0.000000 5.040231 0.359651 -5.267597 0.107302 -0.029878 -0.812295 -7.553347 -1.820299 -2.481855 5.692584 -2.589871 -14.503237 0.000000 0.000000 0.000000 -22.251769 -7.875795 3.274374 -45.004908 -31.858549 7.008066 39.818111 -41.028033 -12.872282 0.000000 0.000000 0.000000 20.348386 -2.011311 -4.297276 59.396343 -6.568049 -8.195758 12.116640 44.448768 5.419978 0.000000 0.000000 0.000000 
0.000096 0.952911 0.013070 -2.198925 -8.355891 6.740348 7.545328 -0.199014 -6.455092 -3.335156 0.442350 4.310266 4.575432 11.207040 12.800625 0.000000 0.000000 0.000000 -0.718054 0.987050 -9.892197 -2.499248 0.750048 7.391572 3.832229 0.138034 13.871365 0.000000 0.000000 0.000000 4.960857 0.339099 -5.064013 0.157050 -0.052531 -0.801363 -7.920947 -1.591085 -1.909289 6.868139 -3.230726 -14.965367 0.000000 0.000000 0.000000 -22.927381 -7.322645 2.943396 -45.575091 -27.866991 5.423610 33.376135 -45.423650 -11.639975 0.000000 0.000000 0.000000 20.873463 -2.211838 -4.453919 59.297850 -6.119586 -8.000506 13.424350 43.298772 5.809160 0.000000 0.000000 0.000000 
-0.000207 0.952921 0.012738 -2.277293 -8.470132 6.888159 7.505156 -0.205608 -6.705390 -3.104894 0.406343 4.498636 4.664515 11.337234 12.826926 0.000000 0.000000 0.000000 -0.495827 1.020292 -10.128549 -2.840151 0.813111 7.500065 4.059433 0.535401 13.888452 0.000000 0.000000 0.000000 4.880030 0.339872 -5.102582 0.346471 -0.138830 -0.589744 -8.078681 -1.599874 -1.258500 7.588400 -3.517228 -16.162642 0.000000 0.000000 0.000000 -23.273064 -6.449337 2.482171 -46.485252 -23.551667 3.735000 25.149409 -49.436744 -8.927402 0.000000 0.000000 0.000000 20.692676 -2.573042 -4.614227 59.444714 -5.639995 -7.865080 15.384788 41.748923 6.312146 0.000000 0.000000 0.000000 
-0.000552 0.952694 0.012302 -2.148786 -8.824736 7.044223 7.424412 -0.209934 -6.935169 -3.239953 0.435023 4.637671 4.842380 11.590866 12.918728 0.000000 0.000000 0.000000 -0.341294 1.050372 -10.347960 -3.004703 0.839051 7.487293 3.564589 -0.282067 13.539319 0.000000 0.000000 0.000000 4.969483 0.331215 -4.996592 0.088061 -0.019478 -0.641755 -8.152867 -1.202113 -0.509377 8.048653 -3.735022 -16.652373 0.000000 0.000000 0.000000 -23.798198 -6.421667 2.466409 -46.539668 -19.671159 2.107890 16.231188 -49.707052 -4.870046 0.000000 0.000000 0.000000 21.019183 -2.860930 -4.779943 58.931081 -5.669925 -7.858468 17.686013 41.360108 7.131018 0.000000 0.000000 0.000000 
-0.000924 0.952783 0.011900 -2.127542 -9.220314 7.051321 7.231936 -0.208627 -6.682590 -2.994946 0.395385 4.274468 5.031601 11.862012 13.070402 0.000000 0.000000 0.000000 0.027399 1.072791 -10.420986 -3.427133 0.923170 7.664857 3.248534 -0.687663 13.025290 0.000000 0.000000 0.000000 4.923832 0.317582 -4.831772 0.417987 -0.170669 -0.742752 -8.249464 -1.077246 0.317086 8.513692 -3.839594 -18.065731 0.000000 0.000000 0.000000 -24.354225 -5.980117 2.292140 -46.648012 -15.790091 0.483895 7.617740 -45.677539 -0.828737 0.000000 0.000000 0.000000 21.530900 -2.837407 -4.883956 58.573897 -5.329416 -7.697441 18.494297 39.801837 7.128653 0.000000 0.000000 0.000000 
-0.001240 0.953003 0.011551 -2.203446 -9.727084 7.240613 7.229440 -0.204043 -6.870618 -2.925152 0.390580 4.401850 5.291462 12.233727 13.278376 0.000000 0.000000 0.000000 0.392763 1.120167 -10.701740 -3.680509 0.964504 7.660945 3.036213 -1.197210 13.048783 0.000000 0.000000 0.000000 5.332258 0.297824 -4.547569 0.179255 -0.062114 -1.003574 -8.249394 -0.988287 1.141902 9.072263 -4.112394 -18.752198 0.000000 0.000000 0.000000 -24.634786 -6.637960 2.845795 -46.731057 -13.089057 -0.677323 3.367102 -38.180242 0.753485 0.000000 0.000000 0.000000 21.978183 -2.774708 -5.001254 58.446978 -5.491819 -7.814218 19.457518 39.120600 7.309014 0.000000 0.000000 0.000000 
-0.001448 0.953386 0.011275 -2.244308 -10.506868 7.514536 6.882578 -0.213786 -6.855667 -2.412009 0.310498 4.102029 5.698729 12.811610 13.638928 0.000000 0.000000 0.000000 0.554366 1.166376 -11.022072 -3.740503 0.947323 7.362842 3.043509 -1.517865 13.423742 0.000000 0.000000 0.000000 5.557760 0.297488 -4.485938 0.190393 -0.067940 -1.183708 -8.229862 -1.120715 2.104464 9.167105 -4.052316 -20.190306 0.000000 0.000000 0.000000 -24.653930 -6.632888 3.126154 -47.097201 -11.406682 -1.480981 0.522539 -30.452216 1.347511 0.000000 0.000000 0.000000 21.949417 -2.773962 -5.161256 58.471716 -5.262054 -7.784367 19.685710 38.188358 7.130281 0.000000 0.000000 0.000000 
-0.001603 0.953740 0.011155 -2.128004 -11.336455 7.594742 6.636231 -0.211755 -6.698332 -2.387816 0.314205 3.886112 6.084074 13.344359 14.032953 0.000000 0.000000 0.000000 0.630294 1.181623 -11.112135 -4.016150 0.949172 6.928610 3.165107 -1.671661 13.862583 0.000000 0.000000 0.000000 5.705865 0.293841 -4.383181 0.076497 -0.016447 -1.158586 -8.312299 -1.236868 2.557428 9.236221 -4.103906 -20.632737 0.000000 0.000000 0.000000 -25.262027 -7.147919 3.709058 -47.208333 -9.995777 -2.147678 0.364286 -25.364699 1.130525 0.000000 0.000000 0.000000 22.256767 -2.986307 -5.510965 58.858702 -5.242506 -7.860405 19.170830 37.302260 6.707216 0.000000 0.000000 0.000000 
-0.001723 0.954160 0.011223 -1.987660 -11.812827 7.805641 6.405345 -0.222290 -6.717739 -2.355788 0.312427 3.612510 6.298822 13.635977 14.383234 0.000000 0.000000 0.000000 0.601135 1.219673 -11.423109 -4.214333 0.955419 6.689148 3.294452 -1.820327 14.433845 0.000000 0.000000 0.000000 5.678277 0.306256 -4.506289 0.068193 -0.009064 -0.961293 -8.295097 -1.667414 2.694603 8.767490 -3.858452 -21.088766 0.000000 0.000000 0.000000 -25.600880 -6.921131 3.837469 -47.949991 -8.871411 -2.683463 0.280513 -21.095163 0.937765 0.000000 0.000000 0.000000 21.744027 -2.770572 -5.475671 59.844064 -4.724652 -7.790437 18.372731 36.734052 6.249618 0.000000 0.000000 0.000000 
-0.001823 0.954619 0.011443 -1.835287 -12.214750 7.906824 6.363407 -0.220106 -6.750574 -2.657680 0.367171 3.549698 6.453130 13.837984 14.705273 0.000000 0.000000 0.000000 0.463270 1.237616 -11.606076 -4.143777 1.017507 7.418703 3.068462 -1.481529 12.895723 0.000000 0.000000 0.000000 5.659361 0.288046 -4.331916 0.181279 -0.059945 -0.995792 -8.501019 -1.584983 2.390498 8.943586 -3.926953 -21.186049 0.000000 0.000000 0.000000 -25.979374 -6.810055 3.790470 -48.390060 -6.599858 -3.564123 -0.475840 -18.198621 0.896343 0.000000 0.000000 0.000000 21.998469 -2.735593 -5.539480 60.028447 -4.077851 -7.453523 17.133528 35.748245 5.673609 0.000000 0.000000 0.000000 
-0.001823 0.955145 0.011551 -1.544415 -12.314371 7.967330 6.357219 -0.218787 -6.656753 -3.209162 0.457597 3.163789 6.412101 13.772407 15.014437 0.000000 0.000000 0.000000 0.288582 1.216515 -11.498821 -4.197440 0.991547 7.080654 2.793523 -1.934580 12.737612 0.000000 0.000000 0.000000 5.591475 0.283840 -4.316676 -0.011453 0.028111 -0.994213 -8.592474 -1.400411 2.045089 8.425483 -3.624380 -21.143912 0.000000 0.000000 0.000000 -25.935907 -6.553506 3.532786 -48.838340 -4.606180 -4.304768 -1.934952 -17.286462 1.049066 0.000000 0.000000 0.000000 21.820758 -2.731536 -5.448478 60.750596 -3.867089 -7.454002 16.377620 34.997686 5.335146 0.000000 0.000000 0.000000 
-0.001585 0.955118 0.011441 -1.342438 -12.125979 8.081983 6.461841 -0.220956 -6.819738 -3.344525 0.477508 3.119110 5.633120 12.572750 14.986012 0.000000 0.000000 0.000000 -0.017221 1.218488 -11.621218 -4.043609 0.961937 7.023813 2.682317 -2.096921 12.709380 0.000000 0.000000 0.000000 5.352885 0.283225 -4.381967 0.076255 -0.003747 -0.564800 -8.745451 -1.107325 1.100021 8.041316 -3.372878 -20.779520 0.000000 0.000000 0.000000 -25.402912 -5.942898 2.878151 -49.539743 -2.327044 -5.087511 -3.676484 -18.903560 1.429060 0.000000 0.000000 0.000000 22.014381 -2.149165 -5.037014 60.832099 -2.746228 -6.789983 14.274353 33.833713 4.584682 0.000000 0.000000 0.000000 
-0.001174 0.955449 0.011080 -1.006669 -11.832452 8.037978 6.312843 -0.244912 -7.123597 -3.176993 0.450597 3.551735 4.604844 10.993538 14.926265 0.000000 0.000000 0.000000 -0.481066 1.176704 -11.436795 -3.857783 0.899459 6.672864 2.556190 -2.311934 12.767141 0.000000 0.000000 0.000000 5.352981 0.269401 -4.279455 -0.472813 0.242767 -0.772964 -9.002328 -0.383321 0.821341 7.886553 -3.225097 -20.513135 0.000000 0.000000 0.000000 -24.879816 -5.937585 2.516724 -49.430853 -1.224920 -5.385858 -6.195179 -21.356702 2.077741 0.000000 0.000000 0.000000 22.476146 -2.007970 -4.782522 60.554672 -2.319265 -6.511671 13.962799 33.197392 4.505902 0.000000 0.000000 0.000000 
-0.000535 0.955345 0.010577 -0.558571 -10.883052 7.965041 6.189301 -0.277118 -7.330658 -2.943692 0.400767 3.634529 2.938428 8.467251 14.668988 0.000000 0.000000 0.000000 -0.934268 1.137512 -11.280913 -3.812710 0.882259 6.559917 2.064822 -3.043260 12.689840 0.000000 0.000000 0.000000 4.959433 0.278506 -4.491533 -0.269668 0.155061 -0.400170 -9.629110 0.237351 0.175087 7.531398 -2.993835 -19.658467 0.000000 0.000000 0.000000 -23.644894 -5.317322 1.638907 -49.456197 -0.979385 -5.278383 -9.714691 -26.128055 3.350637 0.000000 0.000000 0.000000 22.867695 -1.659250 -4.265197 60.212587 -1.385726 -5.954118 13.437652 32.432197 4.380881 0.000000 0.000000 0.000000 
0.000160 0.956103 0.009778 -0.337846 -9.607463 7.816991 6.332158 -0.301721 -7.789359 -2.673349 0.344286 4.214948 1.085936 5.712394 14.649867 0.000000 0.000000 0.000000 -1.297053 1.087387 -10.999824 -3.429099 0.819500 6.502088 1.519200 -3.993738 12.981150 0.000000 0.000000 0.000000 5.178240 0.283503 -4.588039 -0.704987 0.352288 -0.439128 -10.019245 0.738573 0.224758 7.528090 -3.038915 -18.508265 0.000000 0.000000 0.000000 -22.793306 -6.184402 1.761681 -48.333494 -2.515804 -4.461107 -13.724277 -32.490911 5.342562 0.000000 0.000000 0.000000 23.594942 -1.914896 -4.147078 59.153723 -1.122198 -5.734321 14.598023 32.445818 4.834127 0.000000 0.000000 0.000000 
0.000983 0.956463 0.008817 -0.034759 -8.951701 7.813755 6.191066 -0.331425 -8.036679 -2.601700 0.324408 4.096173 0.194971 4.501977 15.114021 0.000000 0.000000 0.000000 -1.640387 1.063856 -10.929147 -3.371207 0.797027 6.349226 1.220942 -4.500331 13.119650 0.000000 0.000000 0.000000 4.861972 0.313751 -5.009412 -0.451421 0.238529 -0.021033 -10.722422 1.089815 -0.277913 7.569116 -3.035035 -17.960330 0.000000 0.000000 0.000000 -21.669656 -5.372806 1.008229 -47.523606 -4.571212 -3.479971 -16.831897 -44.500678 8.734798 0.000000 0.000000 0.000000 23.967117 -1.990555 -3.962915 58.264221 -1.575404 -5.842825 16.040350 33.420675 5.499015 0.000000 0.000000 0.000000 
0.001874 0.957134 0.007551 0.174007 -8.094068 7.607414 6.318731 -0.345149 -8.342099 -2.915775 0.368816 4.536698 -0.630026 3.379611 15.267074 0.000000 0.000000 0.000000 -1.903744 1.016233 -10.600047 -3.231871 0.762502 6.185295 0.868620 -5.121172 13.388826 0.000000 0.000000 0.000000 4.826130 0.351539 -5.460254 -0.608321 0.311491 0.291524 -10.845613 1.355130 -0.312978 7.589195 -3.148807 -16.818159 0.000000 0.000000 0.000000 -21.316765 -6.258660 1.296534 -45.032017 -9.780746 -1.368132 -18.937173 -56.540736 12.520121 0.000000 0.000000 0.000000 24.146427 -2.928343 -4.302673 56.662519 -2.247672 -6.003638 18.447392 35.340120 6.686724 0.000000 0.000000 0.000000 
0.002938 0.957548 0.006210 0.383968 -8.042216 7.385952 5.967882 -0.370063 -8.395425 -2.884231 0.363223 4.665892 -0.519350 3.668446 15.667405 0.000000 0.000000 0.000000 -2.187804 0.969730 -10.220948 -3.226289 0.724658 5.733167 0.890534 -5.123206 13.526229 0.000000 0.000000 0.000000 4.657274 0.395205 -5.939382 -0.387874 0.208342 0.492124 -11.167062 0.950748 -0.634875 7.066434 -3.063978 -15.414998 0.000000 0.000000 0.000000 -20.108165 -7.423951 2.039841 -43.140204 -17.094264 1.232491 -9.535458 -64.744300 8.784349 0.000000 0.000000 0.000000 22.965728 -3.261621 -4.397161 56.580010 -2.729579 -6.172606 20.146844 37.086436 7.574508 0.000000 0.000000 0.000000 
0.004143 0.958093 0.004871 0.424637 -7.615396 7.026627 5.924555 -0.377920 -8.462291 -3.125646 0.404197 5.476910 -0.434079 3.673025 14.882321 0.000000 0.000000 0.000000 -2.088217 0.948499 -10.003155 -3.387941 0.794300 6.284655 0.557021 -5.486894 13.076294 0.000000 0.000000 0.000000 4.860825 0.429801 -6.227309 -0.464143 0.241649 0.532296 -11.024167 -0.641513 -0.428468 6.378547 -2.868181 -14.756007 0.000000 0.000000 0.000000 -19.377858 -9.252506 3.448285 -40.039533 -25.984179 3.902778 16.370368 -66.217832 -7.431714 0.000000 0.000000 0.000000 21.750767 -3.552351 -4.760004 56.467416 -3.355819 -6.404793 22.441615 39.331187 8.686876 0.000000 0.000000 0.000000 
0.005581 0.958192 0.003681 0.555499 -8.583476 6.844381 5.532677 -0.386921 -8.435669 -3.262590 0.450222 6.184738 0.374694 4.649681 14.159611 0.000000 0.000000 0.000000 -2.447696 0.934057 -9.910217 -3.301043 0.782627 6.301064 0.991931 -4.537496 12.401393 0.000000 0.000000 0.000000 5.044167 0.460984 -6.380421 -0.278080 0.152951 -0.036446 -10.988141 -1.656781 -0.242250 5.384098 -2.537635 -13.673922 0.000000 0.000000 0.000000 -17.450123 -11.199079 4.859164 -36.413339 -33.300364 5.583015 37.290958 -58.350217 -17.867803 0.000000 0.000000 0.000000 20.456868 -3.803939 -5.065704 56.841865 -3.833064 -6.670409 24.604149 42.784550 10.114606 0.000000 0.000000 0.000000 
0.007184 0.958425 0.002528 0.452553 -9.698106 6.440961 5.434346 -0.376955 -8.635480 -3.383470 0.517325 7.752464 1.026502 5.433336 13.584677 0.000000 0.000000 0.000000 -2.364288 0.939684 -9.898378 -3.408279 0.846281 6.843448 1.272860 -3.929853 11.869566 0.000000 0.000000 0.000000 5.476139 0.463888 -6.109664 -0.305547 0.165782 -0.217080 -10.650026 -2.984906 -0.293948 4.131848 -1.979241 -13.156318 0.000000 0.000000 0.000000 -15.747983 -12.451677 5.876654 -32.366243 -39.291975 6.405479 46.471641 -49.756647 -18.931363 0.000000 0.000000 0.000000 19.891681 -3.748144 -5.419115 56.757119 -4.094517 -6.732190 27.228477 46.450721 11.804941 0.000000 0.000000 0.000000 
0.008635 0.958346 0.001376 0.577315 -10.967035 6.351577 4.982163 -0.395039 -8.748247 -3.477539 0.575928 8.342412 2.006228 6.834290 13.478771 0.000000 0.000000 0.000000 -2.391616 0.952979 -9.978990 -3.772510 0.925617 7.091038 1.541746 -3.046277 10.749892 0.000000 0.000000 0.000000 5.530053 0.479095 -6.118768 -0.036089 0.037911 -0.592396 -10.504923 -3.844871 -0.117854 3.295878 -1.638417 -12.616829 0.000000 0.000000 0.000000 -13.534388 -13.594596 6.585730 -27.656735 -43.898563 6.320866 46.822281 -41.202504 -15.160532 0.000000 0.000000 0.000000 19.261508 -4.019272 -5.802812 56.740290 -4.414466 -6.882586 31.022982 49.573944 14.080256 0.000000 0.000000 0.000000 
0.009762 0.958154 0.000280 0.484057 -12.207439 6.095103 5.029806 -0.376496 -9.035213 -3.661715 0.690264 9.873440 2.384359 7.207316 12.855138 0.000000 0.000000 0.000000 -2.295484 0.976136 -10.140799 -3.977317 1.030708 7.824545 1.906145 -1.968694 9.785523 0.000000 0.000000 0.000000 5.813447 0.494616 -6.027607 -0.019736 0.032869 -0.457583 -10.177743 -4.738380 -0.256888 2.455251 -1.212437 -12.967127 0.000000 0.000000 0.000000 -12.039755 -13.829823 6.811252 -23.465998 -46.612204 5.671791 44.928059 -36.754611 -12.488884 0.000000 0.000000 0.000000 18.737533 -4.349451 -6.206540 56.698856 -4.644959 -6.982011 35.857136 52.058123 16.852703 0.000000 0.000000 0.000000 
0.010330 0.957947 -0.000767 0.272425 -13.376279 6.029497 4.987219 -0.357914 -9.010190 -3.639732 0.736807 10.395397 3.139636 8.268890 12.530067 0.000000 0.000000 0.000000 -1.980172 1.017359 -10.420569 -4.358990 1.140456 8.265968 2.380370 -0.891821 9.326033 0.000000 0.000000 0.000000 5.772086 0.475290 -5.759486 0.409519 -0.166620 -0.685226 -9.920484 -5.249354 -0.368488 2.145295 -1.115966 -12.803301 0.000000 0.000000 0.000000 -11.304065 -14.171954 7.081541 -20.390827 -47.077845 4.761557 43.490184 -34.902581 -11.212307 0.000000 0.000000 0.000000 18.586162 -4.575000 -6.547679 56.501323 -4.696288 -6.957024 40.129821 53.650029 19.323819 0.000000 0.000000 0.000000 
0.010503 0.957969 -0.001583 0.112978 -14.729223 5.808692 5.003353 -0.324573 -8.837642 -3.712324 0.825105 11.083304 3.737915 9.082364 12.235012 0.000000 0.000000 0.000000 -1.830661 1.042803 -10.574920 -4.417304 1.179836 8.512176 2.860702 -0.077175 9.319318 0.000000 0.000000 0.000000 5.756741 0.463588 -5.520288 0.547671 -0.226491 -0.571498 -9.711012 -5.487464 -0.599942 1.859568 -0.978599 -13.417752 0.000000 0.000000 0.000000 -10.686346 -13.939461 7.028144 -19.277198 -46.724312 4.369384 42.708105 -34.422341 -10.677403 0.000000 0.000000 0.000000 18.195119 -4.662956 -6.692431 56.838294 -4.644924 -6.999760 42.718137 54.096842 20.568125 0.000000 0.000000 0.000000 
0.010338 0.957999 -0.002081 -0.097998 -15.443090 5.681113 5.163174 -0.283646 -8.400878 -3.838854 0.863015 10.735872 4.241426 9.859332 12.480401 0.000000 0.000000 0.000000 -1.578782 1.052082 -10.578865 -4.535272 1.234295 8.804013 3.140290 0.642910 8.968861 0.000000 0.000000 0.000000 5.776345 0.455639 -5.369588 0.626614 -0.261354 -0.545155 -9.498869 -5.663537 -0.611605 2.039324 -1.124305 -13.607798 0.000000 0.000000 0.000000 -11.010994 -13.475541 6.964705 -19.311010 -45.477229 4.127494 43.770045 -35.528927 -11.302142 0.000000 0.000000 0.000000 18.059490 -5.109988 -6.995841 56.953745 -5.042702 -7.235785 44.609450 53.608200 21.152322 0.000000 0.000000 0.000000 
0.010078 0.958135 -0.002227 -0.241858 -16.530661 5.309982 5.352687 -0.222435 -7.642903 -3.920126 0.897515 10.326293 4.456924 10.131550 13.099854 0.000000 0.000000 0.000000 -1.549991 1.025911 -10.302867 -4.410231 1.220860 8.841811 3.600081 1.544649 8.857672 0.000000 0.000000 0.000000 5.653811 0.450389 -5.225019 0.806655 -0.339448 -0.398989 -9.487163 -5.280138 -0.564641 2.184599 -1.238413 -13.472660 0.000000 0.000000 0.000000 -11.373664 -12.941124 6.794978 -19.764328 -44.229785 4.004942 44.926072 -36.128089 -11.838390 0.000000 0.000000 0.000000 17.787280 -5.250627 -7.015006 56.990506 -4.930865 -7.225999 44.650855 52.804941 20.730220 0.000000 0.000000 0.000000 
0.009822 0.958328 -0.002220 -0.382666 -17.036495 5.114903 5.456288 -0.188163 -7.109958 -3.863475 0.883810 10.027682 4.541190 10.219453 13.156513 0.000000 0.000000 0.000000 -1.456814 1.006740 -10.101254 -4.403319 1.237101 8.978076 3.856965 2.219434 8.592481 0.000000 0.000000 0.000000 5.605177 0.454832 -5.216380 0.706286 -0.292135 -0.337343 -9.263278 -5.267367 -0.458942 2.305533 -1.329095 -13.743213 0.000000 0.000000 0.000000 -12.102408 -12.369568 6.700503 -20.331602 -42.632413 3.812685 47.222932 -36.670313 -12.714912 0.000000 0.000000 0.000000 17.626967 -5.457911 -7.128928 57.093863 -4.936563 -7.282453 43.218333 51.963774 19.526846 0.000000 0.000000 0.000000 
0.009612 0.958605 -0.002281 -0.648941 -17.842305 4.956433 5.752197 -0.126709 -6.406798 -3.724831 0.836879 9.291730 4.446975 9.999026 13.860447 0.000000 0.000000 0.000000 -1.357808 1.005654 -10.054236 -4.580826 1.294199 9.184610 4.745300 3.962782 8.662429 0.000000 0.000000 0.000000 5.499989 0.474249 -5.328083 0.706356 -0.295746 -0.491868 -8.938958 -4.980101 -0.059784 2.711882 -1.623130 -13.538632 0.000000 0.000000 0.000000 -12.160394 -11.728225 6.454250 -20.711838 -41.325144 3.627375 48.510293 -36.345798 -12.904097 0.000000 0.000000 0.000000 17.008327 -5.310079 -6.911999 57.018111 -4.665096 -7.233661 42.415612 51.401185 18.817904 0.000000 0.000000 0.000000 
0.009544 0.958973 -0.002458 -0.999623 -18.239998 4.996832 6.119372 -0.080149 -6.149605 -3.608912 0.814844 9.187897 4.258160 9.639310 13.752502 0.000000 0.000000 0.000000 -1.098726 1.012215 -10.060484 -4.743606 1.321432 9.173795 5.391657 5.065627 8.953786 0.000000 0.000000 0.000000 5.552241 0.518293 -5.645217 0.453949 -0.181392 -0.538760 -8.523640 -4.715548 0.473606 2.861119 -1.731973 -13.803742 0.000000 0.000000 0.000000 -12.195190 -11.108615 6.187434 -21.572210 -40.555380 3.668898 49.657983 -36.354168 -13.196620 0.000000 0.000000 0.000000 16.502643 -5.470118 -6.840978 57.295773 -3.936079 -7.039372 41.260463 51.321544 18.201146 0.000000 0.000000 0.000000 
0.009591 0.959191 -0.002666 -1.304565 -19.114930 5.018052 6.112715 -0.053364 -5.745326 -3.462676 0.779460 8.680109 5.064468 10.856355 14.339766 0.000000 0.000000 0.000000 -0.938633 1.019917 -10.083772 -4.891538 1.357744 9.242344 6.130646 6.591180 8.918253 0.000000 0.000000 0.000000 5.480667 0.551684 -5.870428 0.541077 -0.226530 -0.742543 -8.303945 -3.933086 0.799187 3.498343 -2.127329 -13.658675 0.000000 0.000000 0.000000 -12.153830 -10.453781 5.829727 -23.341238 -38.818321 3.743866 50.294974 -37.770332 -13.952959 0.000000 0.000000 0.000000 15.850972 -5.603653 -6.651496 57.272538 -2.923396 -6.640898 40.653384 51.465519 18.015073 0.000000 0.000000 0.000000 
0.009802 0.959370 -0.002751 -1.596096 -19.435464 5.000022 6.267423 -0.019746 -5.210596 -3.330923 0.731840 8.140977 5.197131 11.031759 14.163929 0.000000 0.000000 0.000000 -0.655401 1.015989 -10.001247 -4.983945 1.367885 9.190004 6.421615 7.007531 9.112231 0.000000 0.000000 0.000000 5.619749 0.557924 -5.830403 0.347554 -0.147303 -0.951948 -8.158704 -3.616133 1.021945 4.168245 -2.558038 -13.374082 0.000000 0.000000 0.000000 -12.451784 -9.791194 5.545198 -25.339426 -36.559995 3.681749 49.395782 -40.695565 -14.809116 0.000000 0.000000 0.000000 15.148796 -5.877985 -6.535468 57.441291 -1.965953 -6.302876 41.018041 52.954266 18.839411 0.000000 0.000000 0.000000 
0.010184 0.959472 -0.002662 -1.721941 -20.003635 5.071265 6.310655 -0.003375 -5.108102 -3.392451 0.747299 7.870055 5.600727 11.617620 14.789098 0.000000 0.000000 0.000000 -0.667161 1.035203 -10.158035 -4.782287 1.354146 9.344915 6.542662 7.274642 9.038939 0.000000 0.000000 0.000000 5.692225 0.583192 -5.969837 0.189918 -0.078749 -1.039781 -8.043314 -3.225837 0.973962 4.593238 -2.841040 -12.938287 0.000000 0.000000 0.000000 -13.325984 -8.901892 5.201137 -27.713484 -33.503109 3.433464 47.592788 -45.079067 -15.901359 0.000000 0.000000 0.000000 14.553461 -6.292674 -6.507342 56.891701 -1.233265 -5.921158 43.122560 55.096339 20.921693 0.000000 0.000000 0.000000 
0.010571 0.959524 -0.002591 -1.855318 -20.515750 5.195217 6.329731 0.018947 -4.594572 -3.338748 0.701195 6.831550 5.864906 11.971161 15.269652 0.000000 0.000000 0.000000 -0.673190 1.029335 -10.104974 -4.651125 1.279636 8.927161 6.823252 7.637588 9.238309 0.000000 0.000000 0.000000 5.788695 0.598038 -6.019847 0.148281 -0.055808 -0.975899 -8.092917 -3.311956 0.616482 5.107543 -3.182484 -12.607028 0.000000 0.000000 0.000000 -14.362141 -7.559883 4.696142 -30.063458 -30.619360 3.110179 45.526431 -49.555832 -16.680521 0.000000 0.000000 0.000000 14.129533 -6.632103 -6.561961 56.014521 -0.212807 -5.318700 45.031425 56.556926 22.563423 0.000000 0.000000 0.000000 
0.010957 0.959603 -0.002811 -1.941447 -20.768918 5.176550 6.459953 0.046572 -4.114343 -3.096719 0.624955 6.131943 5.304670 11.045940 15.431945 0.000000 0.000000 0.000000 -0.507465 1.020606 -10.011200 -4.527184 1.252255 8.865594 6.496087 7.065125 9.040433 0.000000 0.000000 0.000000 5.766379 0.581439 -5.879918 0.232810 -0.106270 -1.263302 -8.355451 -3.630890 0.659571 5.342114 -3.438186 -11.492071 0.000000 0.000000 0.000000 -15.543971 -7.085514 4.689612 -30.391880 -29.367629 2.748793 43.773674 -51.265438 -16.450818 0.000000 0.000000 0.000000 14.093941 -6.575402 -6.588275 55.406225 -0.166358 -5.218734 47.711639 57.123507 24.255972 0.000000 0.000000 0.000000 
0.011339 0.959860 -0.003528 -1.877729 -20.537741 5.349092 6.502827 0.035190 -4.422682 -3.040546 0.604245 6.010457 4.932298 10.478742 15.810624 0.000000 0.000000 0.000000 -0.631656 1.044096 -10.221699 -4.311375 1.196481 8.701913 6.367505 6.536408 9.351138 0.000000 0.000000 0.000000 5.636560 0.620071 -6.270203 0.225063 -0.085687 -0.898356 -8.416033 -4.265447 0.117326 5.680575 -3.661778 -11.143674 0.000000 0.000000 0.000000 -15.426829 -7.238533 4.813935 -29.974380 -30.512587 3.020459 44.147441 -50.691396 -16.371162 0.000000 0.000000 0.000000 14.255893 -6.375607 -6.616763 54.260148 -0.038739 -4.909467 48.581336 56.470878 24.263632 0.000000 0.000000 0.000000 
0.011760 0.960139 -0.004615 -2.058273 -20.150630 5.347192 6.582687 0.038235 -4.269553 -2.838519 0.541590 5.614470 4.877931 10.440930 15.726325 0.000000 0.000000 0.000000 -0.302565 1.031910 -10.076761 -4.223518 1.165562 8.562988 5.898717 5.544974 9.373772 0.000000 0.000000 0.000000 5.489813 0.586180 -6.084926 0.626833 -0.264505 -0.831521 -8.336186 -5.091766 -0.042205 5.452184 -3.594812 -10.316854 0.000000 0.000000 0.000000 -14.702857 -7.661832 5.054056 -27.446392 -33.519150 3.338573 46.349373 -47.643290 -16.140921 0.000000 0.000000 0.000000 14.898768 -5.380326 -6.506345 52.932423 0.682069 -4.271623 46.198708 54.364023 21.678946 0.000000 0.000000 0.000000 
0.012304 0.960569 -0.005823 -2.161438 -19.711755 5.260277 6.803558 0.039833 -4.664241 -2.643040 0.514042 6.322314 4.157452 9.355541 15.557800 0.000000 0.000000 0.000000 -0.250630 1.036680 -10.107414 -4.097766 1.159979 8.689925 5.855918 5.206992 9.735115 0.000000 0.000000 0.000000 5.102587 0.526702 -5.767724 0.875175 -0.389232 -1.187731 -7.794589 -5.590509 -0.175203 4.933043 -3.321381 -9.517145 0.000000 0.000000 0.000000 -13.208889 -9.180750 5.684060 -23.849890 -37.143178 3.486624 47.947740 -41.902242 -14.519116 0.000000 0.000000 0.000000 15.552396 -4.587337 -6.452603 52.306224 0.375555 -4.202360 42.999181 51.293699 18.530265 0.000000 0.000000 0.000000 
0.013134 0.960943 -0.006936 -2.332065 -19.360038 5.403430 7.019323 0.038657 -5.229881 -2.570762 0.518243 7.146107 3.735998 8.696432 14.898465 0.000000 0.000000 0.000000 0.024409 1.041951 -10.105359 -4.212651 1.162154 8.556545 5.651707 4.822481 9.727545 0.000000 0.000000 0.000000 4.966188 0.510251 -5.715182 1.050229 -0.459672 -0.973390 -7.026179 -5.855448 -0.671570 4.601662 -3.101515 -9.228395 0.000000 0.000000 0.000000 -11.002058 -10.034786 5.750697 -19.862974 -40.557511 3.358482 47.972900 -36.025598 -12.203056 0.000000 0.000000 0.000000 15.944123 -3.848042 -6.295044 52.135799 0.250004 -4.113501 38.955770 48.188860 15.343310 0.000000 0.000000 0.000000 
0.014289 0.960622 -0.007879 -2.387947 -19.358648 5.148520 6.945451 0.032414 -5.516153 -2.330901 0.501986 8.240703 3.533084 8.336570 14.250371 0.000000 0.000000 0.000000 0.292453 1.023754 -9.912783 -4.600617 1.233563 8.623490 5.558700 4.700790 9.624971 0.000000 0.000000 0.000000 4.900762 0.449290 -5.180606 1.407931 -0.640986 -1.753918 -6.859975 -5.274095 -0.022655 4.289697 -2.938227 -8.848650 0.000000 0.000000 0.000000 -9.101054 -11.145548 5.900354 -14.874598 -42.273227 2.332201 45.738469 -30.518803 -9.595974 0.000000 0.000000 0.000000 16.827227 -3.298881 -6.259123 52.273224 0.053138 -4.190148 35.576484 46.323657 13.378820 0.000000 0.000000 0.000000 
0.015693 0.960606 -0.008612 -2.431124 -19.546312 5.179715 7.033431 0.038636 -5.951030 -2.390088 0.546729 8.954846 3.315288 7.957612 14.160074 0.000000 0.000000 0.000000 0.469208 1.018904 -9.847435 -4.751578 1.247954 8.541698 5.268680 4.378448 9.233292 0.000000 0.000000 0.000000 5.045247 0.426177 -4.921539 1.333599 -0.613226 -1.956129 -6.302735 -5.114507 0.122573 3.708320 -2.565672 -8.985080 0.000000 0.000000 0.000000 -8.130452 -11.504462 5.903824 -11.391231 -42.182629 1.396026 43.318418 -27.979922 -8.161549 0.000000 0.000000 0.000000 17.068819 -2.877590 -6.165372 52.306082 -0.312393 -4.327049 33.813776 45.396531 12.354741 0.000000 0.000000 0.000000 
0.017211 0.960261 -0.008922 -2.507032 -19.237696 5.335426 6.913643 0.012640 -6.379207 -2.357646 0.541090 9.182797 3.639801 8.511257 14.080019 0.000000 0.000000 0.000000 0.686977 1.037809 -9.955503 -4.782671 1.249124 8.514791 4.707141 3.347761 9.076281 0.000000 0.000000 0.000000 5.218597 0.401332 -4.688338 1.493875 -0.691594 -2.458586 -6.180944 -4.571883 0.398041 3.294607 -2.284889 -8.851633 0.000000 0.000000 0.000000 -7.842933 -11.600459 5.818107 -9.013794 -41.519769 0.669524 40.634904 -27.541643 -7.528445 0.000000 0.000000 0.000000 17.656552 -2.963564 -6.260489 52.036259 -0.520488 -4.377182 32.578838 45.719578 12.125690 0.000000 0.000000 0.000000 
0.018792 0.960454 -0.008790 -2.327117 -18.949639 5.209871 6.401797 -0.043487 -6.503653 -2.267998 0.516689 9.279663 4.147700 9.375989 14.202140 0.000000 0.000000 0.000000 0.500222 1.001800 -9.704850 -4.613883 1.190830 8.259566 4.228870 2.407743 9.031428 0.000000 0.000000 0.000000 5.080626 0.374375 -4.497015 1.465601 -0.692231 -3.203711 -6.090097 -4.107875 1.142307 3.207469 -2.208709 -9.589658 0.000000 0.000000 0.000000 -7.661517 -11.545193 5.709375 -8.181014 -40.654868 0.353642 39.097353 -27.798718 -7.326504 0.000000 0.000000 0.000000 18.130862 -2.673245 -6.160638 52.045657 -0.469460 -4.397440 30.795971 46.424942 11.756062 0.000000 0.000000 0.000000 
0.020270 0.960471 -0.008191 -2.262696 -18.313438 5.269938 6.109025 -0.087237 -6.636242 -2.400775 0.514442 8.771717 4.841753 10.590374 14.831303 0.000000 0.000000 0.000000 0.562155 0.983032 -9.543246 -4.547844 1.164009 8.125930 3.454708 1.064519 8.760499 0.000000 0.000000 0.000000 5.051381 0.364386 -4.460199 1.363212 -0.648537 -3.450057 -5.883871 -3.582347 1.256200 2.824002 -1.924100 -9.464575 0.000000 0.000000 0.000000 -8.006212 -11.585999 5.683145 -7.814377 -39.797535 0.167623 38.514503 -29.028924 -7.658593 0.000000 0.000000 0.000000 18.276204 -2.782789 -6.070400 51.756395 -0.445980 -4.381414 29.938603 46.998742 11.755547 0.000000 0.000000 0.000000 
0.021593 0.960412 -0.007474 -2.037327 -17.259738 5.561361 5.767646 -0.145607 -6.774912 -2.163777 0.418830 8.135640 4.355484 9.907134 14.307470 0.000000 0.000000 0.000000 0.132628 0.991449 -9.674944 -4.067745 1.087944 8.137196 2.733913 -0.068155 8.422976 0.000000 0.000000 0.000000 4.838736 0.388737 -4.834496 1.239340 -0.588203 -3.527292 -6.115531 -3.117959 1.447919 3.164577 -2.093052 -9.519317 0.000000 0.000000 0.000000 -7.731239 -11.354121 5.398275 -8.720270 -40.184644 0.401379 39.072061 -29.478502 -8.005310 0.000000 0.000000 0.000000 18.422099 -2.794962 -5.871608 51.805495 -0.286979 -4.363758 28.919397 48.160513 11.895821 0.000000 0.000000 0.000000 
0.022640 0.960621 -0.006798 -2.076426 -16.187178 5.759810 5.816642 -0.164538 -6.843051 -2.343487 0.418944 7.412262 4.379042 10.085266 14.467091 0.000000 0.000000 0.000000 0.221057 0.997537 -9.704639 -3.822213 1.074278 8.384754 1.885323 -1.462242 8.052877 0.000000 0.000000 0.000000 4.672219 0.375092 -4.840513 0.993861 -0.478334 -3.775689 -5.852831 -2.615608 1.532743 2.538869 -1.644675 -9.093214 0.000000 0.000000 0.000000 -8.304922 -10.679421 5.046152 -10.152287 -39.974361 0.702930 40.111553 -31.784448 -9.082016 0.000000 0.000000 0.000000 18.503109 -2.753431 -5.640523 51.078144 0.885700 -3.814901 26.792240 49.758296 11.629010 0.000000 0.000000 0.000000 
0.023538 0.960301 -0.006236 -2.105463 -15.136696 6.045571 5.624181 -0.211911 -7.211464 -2.264773 0.379855 7.222107 4.629368 10.586707 14.059602 0.000000 0.000000 0.000000 -0.016675 0.991722 -9.699750 -3.219929 0.995227 8.588034 1.246788 -2.185266 7.272307 0.000000 0.000000 0.000000 4.592187 0.418183 -5.364439 0.911853 -0.426612 -3.012582 -6.043899 -1.582009 0.651890 3.052427 -1.851240 -9.170108 0.000000 0.000000 0.000000 -8.856789 -9.727973 4.413547 -14.420793 -39.237583 1.725663 40.414433 -36.507598 -10.883599 0.000000 0.000000 0.000000 18.247954 -2.716871 -5.151214 50.637547 3.268612 -2.791482 23.835745 52.416340 11.320452 0.000000 0.000000 0.000000 
0.024253 0.960375 -0.005578 -2.081376 -14.071632 5.884732 5.532518 -0.218227 -6.603666 -2.141067 0.320874 6.220094 4.291222 10.152702 13.693917 0.000000 0.000000 0.000000 -0.182880 0.963036 -9.482937 -2.875261 0.935995 8.585996 0.852754 -3.151279 7.698824 0.000000 0.000000 0.000000 4.495804 0.410155 -5.361318 0.454826 -0.224013 -2.981198 -6.149680 -0.680843 0.906646 3.485094 -2.097683 -8.726837 0.000000 0.000000 0.000000 -10.651146 -8.443146 3.764640 -18.432491 -37.070809 2.339677 38.211945 -43.014124 -12.401792 0.000000 0.000000 0.000000 18.000189 -2.445709 -4.613407 49.598489 6.876464 -1.352122 21.930271 57.016610 11.880045 0.000000 0.000000 0.000000 
0.024942 0.960226 -0.004938 -1.958360 -13.038184 5.733642 5.234823 -0.250401 -6.469570 -2.128754 0.297304 5.592054 4.601982 10.815150 14.176692 0.000000 0.000000 0.000000 -0.441238 0.912419 -9.090499 -2.761663 0.887641 8.310685 0.673930 -3.550560 7.946190 0.000000 0.000000 0.000000 4.432536 0.400068 -5.339041 0.066910 -0.042134 -2.435827 -6.646762 0.786136 0.236400 4.640496 -2.745056 -8.588202 0.000000 0.000000 0.000000 -12.564454 -7.009619 2.784585 -24.190992 -32.589357 2.848106 30.320102 -50.152197 -11.393898 0.000000 0.000000 0.000000 17.275513 -2.293747 -3.899151 49.254396 11.006110 0.241335 15.702942 62.665389 10.216922 0.000000 0.000000 0.000000 
0.025552 0.959708 -0.004332 -1.815322 -12.289658 5.647081 4.978155 -0.264839 -6.103646 -2.146732 0.286128 4.910703 4.665373 10.983283 13.779892 0.000000 0.000000 0.000000 -0.960820 0.879615 -8.884789 -2.686245 0.846915 8.021393 1.089961 -2.870588 8.412979 0.000000 0.000000 0.000000 4.291369 0.394729 -5.371767 -0.459637 0.190787 -2.636658 -6.986206 2.219747 0.820814 6.025969 -3.602517 -8.593355 0.000000 0.000000 0.000000 -14.851473 -5.553954 1.762429 -27.371542 -26.949887 2.218030 16.096987 -53.926521 -5.473750 0.000000 0.000000 0.000000 17.674027 -1.409927 -3.101915 46.245282 16.889051 2.286625 9.439164 64.877626 7.395269 0.000000 0.000000 0.000000 
0.026023 0.959362 -0.003966 -1.775543 -11.219683 5.763093 5.055963 -0.263817 -5.770605 -2.032396 0.252006 4.012908 3.811813 9.670513 13.086360 0.000000 0.000000 0.000000 -1.097545 0.843030 -8.569857 -2.665358 0.788039 7.424396 0.976453 -3.125445 8.678932 0.000000 0.000000 0.000000 4.514721 0.383824 -5.291014 -1.180832 0.524473 -2.282170 -7.699011 3.456476 0.615609 7.568696 -4.577806 -8.354074 0.000000 0.000000 0.000000 -16.085307 -3.992350 0.512667 -30.775089 -20.184626 1.185101 -1.958641 -51.918968 3.129020 0.000000 0.000000 0.000000 17.602404 -0.641116 -2.243262 43.831421 21.355623 3.618014 3.417737 65.153462 4.297398 0.000000 0.000000 0.000000 
0.026228 0.959283 -0.003761 -1.637041 -10.290754 5.840073 5.145109 -0.273038 -5.778967 -2.272560 0.283166 3.477189 3.362332 9.064412 13.177435 0.000000 0.000000 0.000000 -1.183220 0.825584 -8.425616 -2.657634 0.740709 6.901444 0.634740 -4.033853 9.318636 0.000000 0.000000 0.000000 4.327973 0.352373 -5.104671 -1.791599 0.803876 -2.267380 -7.749220 4.603083 1.141751 9.157519 -5.434751 -9.288712 0.000000 0.000000 0.000000 -18.032568 -3.334955 -0.298533 -33.467872 -13.272352 -0.320607 -10.704365 -43.806053 5.883041 0.000000 0.000000 0.000000 17.683238 0.343210 -1.358115 41.761784 25.368234 4.619509 -0.740575 62.628883 2.098174 0.000000 0.000000 0.000000 
0.026249 0.959181 -0.003721 -1.669864 -9.240761 5.968207 5.483762 -0.257942 -5.439086 -2.119343 0.256826 1.814912 2.221040 7.548004 14.414444 0.000000 0.000000 0.000000 -0.951870 0.778077 -7.926834 -2.706966 0.678799 6.059218 0.086318 -5.068935 9.459026 0.000000 0.000000 0.000000 4.351310 0.306006 -4.694878 -1.877675 0.851427 -2.138609 -8.251294 5.650960 1.071923 10.517726 -6.198503 -9.627459 0.000000 0.000000 0.000000 -18.460347 -2.394109 -1.243942 -37.115972 -6.216067 -2.168851 -12.635009 -34.728465 5.021554 0.000000 0.000000 0.000000 17.370989 0.791678 -0.703197 41.720971 27.349887 5.230587 2.421999 58.676531 4.082605 0.000000 0.000000 0.000000 
0.026224 0.959418 -0.003521 -1.668945 -7.877073 6.205000 5.754426 -0.283106 -5.894636 -2.144019 0.251646 1.808440 1.238058 6.139781 14.253948 0.000000 0.000000 0.000000 -0.733101 0.758329 -7.703450 -2.775277 0.625510 5.251976 -0.543392 -6.499481 10.309104 0.000000 0.000000 0.000000 4.139295 0.268124 -4.440382 -2.049277 0.937888 -2.022339 -8.160354 6.169213 1.208811 11.562593 -6.748887 -10.073466 0.000000 0.000000 0.000000 -19.557135 -2.013668 -1.881122 -39.339324 -0.512199 -3.932527 -11.582808 -27.666852 3.634132 0.000000 0.000000 0.000000 17.545786 1.305391 -0.156731 42.534107 27.384278 5.322390 5.840731 54.595049 5.690982 0.000000 0.000000 0.000000 
0.026372 0.959608 -0.003297 -1.757016 -6.649461 6.186493 5.730896 -0.293084 -5.659894 -1.644978 0.190513 0.659234 0.556640 5.453086 15.229724 0.000000 0.000000 0.000000 -0.371020 0.720256 -7.274942 -2.597120 0.562724 4.724370 -1.583120 -8.507262 10.774679 0.000000 0.000000 0.000000 3.824355 0.198282 -3.734548 -1.978973 0.909085 -2.196150 -7.979014 6.727232 1.390852 12.174077 -7.042778 -10.347656 0.000000 0.000000 0.000000 -19.456347 -1.438774 -2.457746 -42.028129 3.802002 -5.593124 -9.533368 -21.948313 2.430034 0.000000 0.000000 0.000000 18.079920 1.405721 0.157606 44.328299 26.019649 5.053128 10.248630 49.772104 7.259872 0.000000 0.000000 0.000000 
0.026728 0.959413 -0.002979 -1.639499 -5.536757 6.304077 5.693540 -0.327431 -6.071341 -1.562279 0.175996 0.633696 -0.102827 4.657204 15.497976 0.000000 0.000000 0.000000 -0.329877 0.707187 -7.136754 -2.435808 0.502486 4.163776 -2.507959 -10.334509 11.544634 0.000000 0.000000 0.000000 3.546068 0.174715 -3.552303 -2.171443 0.999012 -2.342804 -7.709973 6.912202 1.927135 12.356276 -7.145834 -10.376950 0.000000 0.000000 0.000000 -19.974550 -0.505088 -3.188830 -42.408733 6.677555 -6.598287 -8.367595 -18.024468 1.800355 0.000000 0.000000 0.000000 18.769509 1.407296 0.327401 45.869188 23.338544 4.156667 13.904127 46.314938 8.299081 0.000000 0.000000 0.000000 
0.027282 0.959249 -0.002715 -1.582175 -4.697840 6.042154 5.345600 -0.343729 -5.914613 -1.117135 0.127261 0.192113 -0.245658 4.772275 16.279729 0.000000 0.000000 0.000000 -0.409581 0.642048 -6.496176 -1.931682 0.405539 3.670571 -3.352043 -11.829488 11.743993 0.000000 0.000000 0.000000 3.616700 0.102129 -2.625797 -2.407031 1.100891 -2.981077 -7.206953 7.325331 2.406020 12.335537 -6.982620 -10.877731 0.000000 0.000000 0.000000 -20.430538 -0.815555 -3.277010 -43.278865 9.689694 -7.766892 -7.801321 -15.664784 1.478756 0.000000 0.000000 0.000000 19.691431 0.505354 0.001379 47.769326 20.324069 3.095336 17.013472 43.384022 9.022593 0.000000 0.000000 0.000000 
0.027858 0.958840 -0.002549 -1.550321 -3.979668 5.792648 5.357526 -0.351013 -5.953365 -1.229450 0.138252 0.214197 -0.414165 4.754869 16.741503 0.000000 0.000000 0.000000 -0.286297 0.610962 -6.167708 -1.803522 0.379301 3.501233 -4.181958 -13.340009 12.181725 0.000000 0.000000 0.000000 3.663909 0.073828 -2.253864 -2.514710 1.158969 -2.576675 -7.206643 7.225336 2.246400 12.049660 -6.767992 -10.836023 0.000000 0.000000 0.000000 -20.581012 -0.315054 -3.659700 -43.718462 11.077064 -8.311567 -7.728557 -13.187342 1.231995 0.000000 0.000000 0.000000 20.919965 0.306261 -0.045068 48.859522 17.529173 2.014657 18.443918 41.198781 9.058439 0.000000 0.000000 0.000000 
0.028323 0.958941 -0.002565 -1.550212 -3.581455 5.403058 5.183042 -0.337845 -5.488187 -0.959236 0.114897 -0.178836 -0.556167 4.722141 17.157592 0.000000 0.000000 0.000000 -0.383657 0.559883 -5.659620 -1.797912 0.372658 3.392266 -4.105914 -13.193729 12.403082 0.000000 0.000000 0.000000 3.691013 0.002077 -1.270707 -2.475489 1.138049 -3.260918 -7.016073 7.410414 2.698741 11.572559 -6.411983 -10.938684 0.000000 0.000000 0.000000 -21.261190 -1.282352 -3.352212 -44.216941 11.783227 -8.658794 -7.970680 -12.090427 1.153862 0.000000 0.000000 0.000000 21.924380 -0.156642 -0.222679 50.049745 14.875684 0.906336 19.499213 39.768521 9.127889 0.000000 0.000000 0.000000 
0.028750 0.959027 -0.002822 -1.582956 -3.216094 5.029170 5.208582 -0.326128 -5.249566 -0.941526 0.108512 -0.021054 -0.751075 4.467354 17.063697 0.000000 0.000000 0.000000 -0.249751 0.532342 -5.369736 -1.803113 0.351850 3.018126 -4.666526 -14.362928 13.730233 0.000000 0.000000 0.000000 3.821074 -0.031716 -0.799578 -2.448944 1.133307 -2.940279 -6.968601 7.220361 2.526194 11.308354 -6.151555 -11.219890 0.000000 0.000000 0.000000 -21.719537 -1.967461 -3.085869 -44.530339 10.883962 -8.375378 -8.922354 -11.541469 1.192650 0.000000 0.000000 0.000000 22.377564 -0.405318 -0.373002 51.411018 12.422827 -0.055224 19.992427 38.149138 8.865396 0.000000 0.000000 0.000000 
0.029179 0.959390 -0.003287 -1.606255 -3.066510 4.505437 4.987660 -0.307981 -4.799936 -0.983165 0.106728 0.247316 -0.073607 5.381280 16.551514 0.000000 0.000000 0.000000 -0.412937 0.476324 -4.808653 -1.806854 0.347917 2.931773 -4.292818 -13.745614 14.071186 0.000000 0.000000 0.000000 3.889283 -0.061872 -0.334642 -2.439372 1.132157 -2.904152 -6.664846 7.085492 2.902018 10.959199 -5.838730 -11.626982 0.000000 0.000000 0.000000 -22.446851 -3.329022 -2.419925 -44.531325 9.180421 -7.775302 -9.926342 -11.902362 1.335278 0.000000 0.000000 0.000000 22.900544 -0.196539 -0.275240 52.406108 10.574950 -0.874410 19.518940 36.355496 8.209162 0.000000 0.000000 0.000000 
0.029789 0.959571 -0.004013 -1.594217 -3.091111 4.178177 4.829717 -0.292011 -4.456827 -1.156237 0.130389 0.100640 0.560076 6.375262 16.700168 0.000000 0.000000 0.000000 -0.343100 0.448610 -4.526759 -1.908025 0.346013 2.684613 -4.519494 -14.234743 14.697292 0.000000 0.000000 0.000000 4.056015 -0.076140 -0.131685 -2.636374 1.223796 -2.584367 -6.425794 6.949100 2.771106 10.913128 -5.760992 -11.861615 0.000000 0.000000 0.000000 -22.774976 -4.489666 -1.778686 -44.484473 7.006160 -6.980193 -10.965252 -13.390850 1.623208 0.000000 0.000000 0.000000 23.191727 -0.201360 -0.344874 53.058440 8.672923 -1.676545 19.601813 34.059943 7.597748 0.000000 0.000000 0.000000 
0.030573 0.959714 -0.005012 -1.570976 -3.402150 3.712156 4.526980 -0.268111 -3.984003 -0.805042 0.089381 0.142153 0.704016 6.550916 16.706705 0.000000 0.000000 0.000000 -0.564016 0.413474 -4.170954 -1.846635 0.344655 2.793335 -4.131984 -13.596482 14.617209 0.000000 0.000000 0.000000 4.143602 -0.092266 0.140728 -2.807223 1.300890 -2.516025 -5.892403 6.918762 3.138735 10.611860 -5.521075 -12.197120 0.000000 0.000000 0.000000 -22.872353 -5.472390 -1.119238 -44.346372 4.689955 -6.197944 -12.603385 -15.573764 2.115458 0.000000 0.000000 0.000000 23.778640 0.405677 -0.070625 53.183303 7.851596 -2.085842 18.487980 32.185590 6.749636 0.000000 0.000000 0.000000 
0.031528 0.959732 -0.006163 -1.692328 -3.479250 3.494836 4.404103 -0.245211 -3.544851 -0.471268 0.063222 -0.304669 0.734270 6.584286 16.695224 0.000000 0.000000 0.000000 -0.626246 0.404406 -4.077172 -1.829764 0.343760 2.812490 -3.809335 -13.101984 14.891076 0.000000 0.000000 0.000000 4.280298 -0.113910 0.420094 -2.894132 1.340124 -2.528210 -5.526537 6.817220 3.173276 10.620958 -5.451713 -12.608444 0.000000 0.000000 0.000000 -22.729946 -6.282712 -0.573831 -44.456394 2.740971 -5.554091 -13.556875 -18.765368 2.711957 0.000000 0.000000 0.000000 23.987980 0.536124 -0.063041 53.424258 7.349921 -2.303600 17.665917 30.412071 6.069624 0.000000 0.000000 0.000000 
0.032489 0.959731 -0.007257 -1.821069 -3.832778 3.449354 4.348822 -0.237238 -3.440369 -0.277683 0.044601 -0.405386 0.927328 6.820064 16.694461 0.000000 0.000000 0.000000 -0.716837 0.391276 -3.938364 -1.816963 0.341498 2.807862 -3.170953 -11.924786 14.249538 0.000000 0.000000 0.000000 4.470939 -0.119493 0.454086 -2.975044 1.374575 -2.507892 -4.973748 6.488677 3.134599 10.251478 -5.256933 -12.601406 0.000000 0.000000 0.000000 -22.625049 -6.763412 -0.088722 -44.833790 0.830428 -4.988433 -14.541259 -21.794760 3.365167 0.000000 0.000000 0.000000 23.787329 0.848935 -0.075159 53.889423 6.558719 -2.599413 17.031369 29.461367 5.627140 0.000000 0.000000 0.000000 
0.033421 0.959872 -0.008098 -1.965323 -3.927064 3.345651 4.326270 -0.231261 -3.356819 -0.074729 0.021818 -0.405400 0.984609 6.888982 16.676956 0.000000 0.000000 0.000000 -0.791046 0.395475 -3.981163 -1.806387 0.349604 2.966423 -2.712822 -11.172847 14.399595 0.000000 0.000000 0.000000 4.532501 -0.140913 0.722033 -2.893795 1.334326 -2.730509 -4.655690 6.282763 3.125936 9.963715 -5.068034 -12.707758 0.000000 0.000000 0.000000 -22.163787 -7.151422 0.276050 -45.509311 -0.976956 -4.461220 -14.827730 -24.808214 3.911222 0.000000 0.000000 0.000000 23.747121 1.004352 -0.080650 54.303230 6.338891 -2.682750 16.256870 29.269536 5.361809 0.000000 0.000000 0.000000 
0.034260 0.959935 -0.008542 -2.115730 -4.104916 3.146079 4.205372 -0.229787 -3.352488 0.306188 -0.035056 -0.006128 1.115298 7.037464 16.573915 0.000000 0.000000 0.000000 -0.664913 0.395068 -3.984694 -1.734180 0.353404 3.183915 -2.810791 -11.408361 14.581659 0.000000 0.000000 0.000000 4.599210 -0.149042 0.842701 -2.797368 1.289759 -2.776513 -4.200275 6.015169 3.122554 9.869332 -5.092146 -12.474330 0.000000 0.000000 0.000000 -22.007833 -7.339793 0.534624 -46.067789 -1.878139 -4.235983 -15.078711 -27.347488 4.404198 0.000000 0.000000 0.000000 23.429746 1.029989 -0.204790 54.507715 5.815378 -2.876998 15.690766 29.411087 5.209772 0.000000 0.000000 0.000000 
0.034936 0.959890 -0.008699 -2.238056 -3.966289 3.074171 4.277086 -0.237998 -3.530073 0.357406 -0.055138 0.397959 1.081079 6.974350 16.424869 0.000000 0.000000 0.000000 -0.714598 0.395902 -3.990900 -1.698102 0.364669 3.448091 -2.517103 -10.857119 14.490604 0.000000 0.000000 0.000000 4.539921 -0.149625 0.877487 -2.563687 1.187026 -2.734744 -4.066345 5.993088 2.914907 9.800742 -5.103113 -12.158712 0.000000 0.000000 0.000000 -21.569574 -7.452030 0.617062 -46.705191 -3.195115 -3.803601 -15.197449 -28.827148 4.668754 0.000000 0.000000 0.000000 23.315172 0.893408 -0.281105 54.904683 5.081884 -3.193504 15.134301 29.930518 5.170933 0.000000 0.000000 0.000000 
0.035440 0.959759 -0.008637 -2.379901 -3.877787 2.923178 4.384940 -0.235556 -3.545872 0.394200 -0.070733 0.716160 1.068565 6.932608 16.254647 0.000000 0.000000 0.000000 -0.520032 0.390557 -3.940515 -1.716447 0.377514 3.621059 -2.705270 -11.201276 14.623468 0.000000 0.000000 0.000000 4.570142 -0.140634 0.784788 -2.465327 1.142990 -2.835659 -3.955569 6.305950 3.123934 10.017580 -5.226702 -12.182358 0.000000 0.000000 0.000000 -21.213126 -7.397636 0.527560 -47.394128 -3.685729 -3.688269 -15.027834 -29.945293 4.782338 0.000000 0.000000 0.000000 23.233069 0.369867 -0.487545 55.397241 4.419329 -3.546328 14.478847 30.162692 5.076610 0.000000 0.000000 0.000000 
0.035639 0.959870 -0.008537 -2.428348 -3.604962 2.824356 4.439243 -0.241947 -3.667305 0.403829 -0.083612 1.049229 0.941418 6.764645 16.177631 0.000000 0.000000 0.000000 -0.383620 0.385746 -3.891539 -1.717439 0.394679 3.905998 -2.970777 -11.586513 14.459265 0.000000 0.000000 0.000000 4.467917 -0.118190 0.550558 -2.393867 1.117516 -2.433258 -3.813484 6.248623 2.994239 9.793184 -5.115484 -11.948477 0.000000 0.000000 0.000000 -20.959478 -6.945121 0.274667 -47.925298 -4.200361 -3.531633 -14.940137 -30.887204 4.897721 0.000000 0.000000 0.000000 23.085322 0.118641 -0.617050 55.794436 3.345107 -4.034173 14.100830 30.252729 4.998330 0.000000 0.000000 0.000000 
0.035616 0.959952 -0.008313 -2.503364 -3.545527 2.935803 4.430193 -0.261838 -4.020937 0.570859 -0.119761 1.471959 0.946341 6.769092 16.133809 0.000000 0.000000 0.000000 -0.306955 0.383591 -3.869540 -1.723303 0.384945 3.729275 -2.937561 -11.524262 14.474978 0.000000 0.000000 0.000000 4.446117 -0.077811 0.038425 -2.343007 1.097608 -2.104792 -3.559756 6.217836 2.879469 9.317239 -4.832969 -11.779876 0.000000 0.000000 0.000000 -20.702322 -6.534040 0.088363 -48.732945 -4.469329 -3.503502 -14.738383 -30.926024 4.847077 0.000000 0.000000 0.000000 22.647799 -0.370281 -0.915803 56.443650 2.356462 -4.487695 13.706301 29.997122 4.841333 0.000000 0.000000 0.000000 
0.035422 0.960287 -0.008074 -2.543965 -3.299889 2.815379 4.466659 -0.268673 -4.156854 0.635524 -0.143635 1.892773 0.820270 6.618743 16.140557 0.000000 0.000000 0.000000 -0.229726 0.395364 -3.986598 -1.743944 0.418939 4.251755 -3.013326 -11.640263 14.563174 0.000000 0.000000 0.000000 4.420373 -0.065441 -0.092092 -2.364278 1.108388 -2.183935 -3.543670 6.261005 2.924401 9.177776 -4.836331 -11.268122 0.000000 0.000000 0.000000 -20.833983 -5.906930 -0.316015 -48.911212 -4.124647 -3.648236 -14.256493 -30.564494 4.642269 0.000000 0.000000 0.000000 22.583623 -0.946352 -1.206154 56.558518 1.171943 -5.048691 14.137054 30.031768 4.975961 0.000000 0.000000 0.000000 
0.035241 0.960196 -0.007928 -2.395530 -3.038003 2.707208 4.259650 -0.285582 -4.353201 0.760867 -0.178002 2.361696 0.705737 6.466839 16.068634 0.000000 0.000000 0.000000 -0.316843 0.368299 -3.707483 -1.586039 0.385950 4.057241 -3.445528 -12.330783 14.451527 0.000000 0.000000 0.000000 4.371278 -0.093339 0.279032 -2.370656 1.108265 -2.823028 -3.628467 6.435772 3.336456 8.689682 -4.556344 -10.970152 0.000000 0.000000 0.000000 -20.859752 -5.669728 -0.524795 -49.321751 -4.046062 -3.734393 -13.848535 -29.895987 4.411035 0.000000 0.000000 0.000000 22.775238 -1.954175 -1.705665 56.501873 0.541094 -5.396684 15.081877 30.260158 5.317496 0.000000 0.000000 0.000000 
0.035072 0.959737 -0.008085 -2.353817 -2.832739 2.637292 4.545578 -0.286699 -4.510276 0.230687 -0.117504 2.686470 0.613651 6.316727 15.898271 0.000000 0.000000 0.000000 -0.551539 0.369160 -3.709314 -1.387754 0.370482 4.263565 -3.300165 -12.016827 14.281367 0.000000 0.000000 0.000000 4.533338 -0.086154 0.165942 -2.522434 1.181024 -2.474760 -3.992582 6.284537 2.925746 8.718982 -4.540508 -11.063148 0.000000 0.000000 0.000000 -20.874385 -5.436754 -0.686561 -49.281596 -3.144579 -4.047949 -13.429428 -29.022447 4.160542 0.000000 0.000000 0.000000 22.961130 -2.305795 -1.929189 56.982461 -0.459953 -5.858620 14.552598 30.159447 5.150410 0.000000 0.000000 0.000000 
0.034874 0.959449 -0.008484 -2.103786 -3.205700 2.370265 4.435990 -0.275821 -4.352023 -0.083462 -0.081746 2.965892 0.784197 6.527137 15.913873 0.000000 0.000000 0.000000 -1.194739 0.332951 -3.298406 -0.514992 0.248131 4.211314 -3.396466 -12.046515 13.366918 0.000000 0.000000 0.000000 4.473350 -0.118377 0.629098 -2.877793 1.323823 -3.709646 -3.569740 6.465955 4.198423 7.854568 -3.945807 -11.363049 0.000000 0.000000 0.000000 -21.373879 -5.241977 -0.750959 -49.723242 -2.839721 -4.344810 -11.476144 -27.856703 3.553165 0.000000 0.000000 0.000000 23.580800 -2.948492 -2.365545 56.297269 -0.603859 -6.006278 14.579637 30.593184 5.260852 0.000000 0.000000 0.000000 
0.034455 0.958941 -0.009081 -2.167316 -3.690765 2.242856 4.843786 -0.264707 -4.498668 -0.606369 -0.019690 3.523637 0.920219 6.666939 15.916999 0.000000 0.000000 0.000000 -0.993965 0.359216 -3.600776 -0.450804 0.252813 4.466049 -3.768954 -12.838194 13.750275 0.000000 0.000000 0.000000 4.685687 -0.127592 0.719344 -3.343908 1.540956 -2.813478 -3.751811 6.419997 3.732708 8.254476 -4.227850 -11.332257 0.000000 0.000000 0.000000 -20.863015 -4.306953 -1.147140 -50.155486 -2.403188 -4.566375 -12.975646 -26.627452 3.746789 0.000000 0.000000 0.000000 23.168213 -3.128627 -2.534071 56.884941 -0.472533 -5.922381 15.159541 30.176330 5.303545 0.000000 0.000000 0.000000 
0.033905 0.959270 -0.009766 -1.489234 -4.520234 1.582503 4.356567 -0.234170 -3.875341 -0.812621 0.014697 3.533075 0.749195 6.537084 16.983947 0.000000 0.000000 0.000000 -2.072379 0.286837 -2.670737 -0.078708 0.172539 3.780414 -3.142912 -11.778762 13.455358 0.000000 0.000000 0.000000 4.631042 -0.151590 1.159956 -4.373156 1.969460 -3.827785 -2.849154 6.353226 5.347321 7.362823 -3.710810 -11.464513 0.000000 0.000000 0.000000 -20.951484 -4.604342 -0.704780 -50.506585 -2.584529 -4.744913 -12.679710 -24.471467 3.447965 0.000000 0.000000 0.000000 23.308803 -2.806847 -2.524392 56.996334 0.410563 -5.680538 15.192239 28.894135 5.026677 0.000000 0.000000 0.000000 
