HIERARCHY
ROOT Hips
{
	OFFSET -0.001795 -0.223333 0.028219
	CHANNELS 6 Xposition Yposition Zposition Zrotation Yrotation Xrotation 
	JOINT LeftUpLeg
	{
		OFFSET 0.069520 -0.091406 -0.006815
		CHANNELS 3 Zrotation Yrotation Xrotation
		JOINT LeftLeg
		{
			OFFSET 0.034277 -0.375199 -0.004496
			CHANNELS 3 Zrotation Yrotation Xrotation
			JOINT LeftFoot
			{
				OFFSET -0.013596 -0.397961 -0.043693
				CHANNELS 3 Zrotation Yrotation Xrotation
				JOINT LeftToe
				{
					OFFSET 0.026358 -0.055791 0.119288
					CHANNELS 3 Zrotation Yrotation Xrotation
					End Site
					{
						OFFSET 0.000000 0.000000 0.000000
					}
				}
			}
		}
	}
	JOINT RightUpLeg
	{
		OFFSET -0.067670 -0.090522 -0.004320
		CHANNELS 3 Zrotation Yrotation Xrotation
		JOINT RightLeg
		{
			OFFSET -0.038290 -0.382569 -0.008850
			CHANNELS 3 Zrotation Yrotation Xrotation
			JOINT RightFoot
			{
				OFFSET 0.015774 -0.398415 -0.042312
				CHANNELS 3 Zrotation Yrotation Xrotation
				JOINT RightToe
				{
					OFFSET -0.025372 -0.048144 0.123348
					CHANNELS 3 Zrotation Yrotation Xrotation
					End Site
					{
						OFFSET 0.000000 0.000000 0.000000
					}
				}
			}
		}
	}
	JOINT Spine
	{
		OFFSET -0.002533 0.108963 -0.026696
		CHANNELS 3 Zrotation Yrotation Xrotation
		JOINT Spine1
		{
			OFFSET 0.005487 0.135180 0.001092
			CHANNELS 3 Zrotation Yrotation Xrotation
			JOINT Spine2
			{
				OFFSET 0.001457 0.052922 0.025425
				CHANNELS 3 Zrotation Yrotation Xrotation
				JOINT Neck
				{
					OFFSET -0.002778 0.213870 -0.042857
					CHANNELS 3 Zrotation Yrotation Xrotation
					JOINT Head
					{
						OFFSET 0.005152 0.064970 0.051349
						CHANNELS 3 Zrotation Yrotation Xrotation
						End Site
						{
							OFFSET 0.000000 0.000000 0.000000
						}
					}
				}
				JOINT LeftShoulder
				{
					OFFSET 0.078845 0.121749 -0.034090
					CHANNELS 3 Zrotation Yrotation Xrotation
					JOINT LeftArm
					{
						OFFSET 0.090977 0.030469 -0.008868
						CHANNELS 3 Zrotation Yrotation Xrotation
						JOINT LeftForeArm
						{
							OFFSET 0.259612 -0.012772 -0.027456
							CHANNELS 3 Zrotation Yrotation Xrotation
							JOINT LeftHand
							{
								OFFSET 0.249234 0.008986 -0.001171
								CHANNELS 3 Zrotation Yrotation Xrotation
								End Site
								{
									OFFSET 0.000000 0.000000 0.000000
								}
							}
						}
					}
				}
				JOINT RightShoulder
				{
					OFFSET -0.081759 0.118833 -0.038615
					CHANNELS 3 Zrotation Yrotation Xrotation
					JOINT RightArm
					{
						OFFSET -0.096012 0.032551 -0.009143
						CHANNELS 3 Zrotation Yrotation Xrotation
						JOINT RightForeArm
						{
							OFFSET -0.253742 -0.013329 -0.021401
							CHANNELS 3 Zrotation Yrotation Xrotation
							JOINT RightHand
							{
								OFFSET -0.255298 0.007772 -0.005559
								CHANNELS 3 Zrotation Yrotation Xrotation
								End Site
								{
									OFFSET 0.000000 0.000000 0.000000
								}
							}
						}
					}
				}
			}
		}
	}
}
MOTION
Frames: 124
Frame Time: 0.050000
0.000000 0.967751 0.000000 -1.558781 -0.764961 7.057775 1.481649 -0.337751 -3.801770 -3.420637 0.380205 -2.101110 5.181120 12.958073 12.542829 0.000000 0.000000 0.000000 -1.283438 0.630912 -6.493746 1.966311 -0.134261 2.861489 -4.844803 -13.810507 9.505260 0.000000 0.000000 0.000000 4.530882 -0.345424 2.516945 -5.116066 1.797087 -23.527838 -2.441410 4.436076 28.144427 8.600156 -2.456918 -28.079042 0.000000 0.000000 0.000000 -16.819893 -6.875341 1.850352 -52.823071 -6.814450 -5.609283 -0.035891 -24.296354 1.083367 0.000000 0.000000 0.000000 25.306879 -5.214371 -3.559224 57.605459 4.859544 -5.992071 1.919462 26.859302 2.031054 0.000000 0.000000 0.000000 
0.002892 0.966837 0.003570 -1.470324 -0.719769 7.695511 1.304564 -0.372965 -4.207178 -4.110432 0.441903 -2.067994 6.028106 14.239722 12.140572 0.000000 0.000000 0.000000 -1.629655 0.644651 -6.695438 2.053584 -0.152720 2.518994 -5.346319 -14.723118 9.094025 0.000000 0.000000 0.000000 4.329091 -0.279404 1.716651 -5.175669 1.798859 -24.028098 -2.499846 4.897963 28.580303 8.039732 -2.027061 -28.395062 0.000000 0.000000 0.000000 -16.882693 -6.031427 1.316018 -53.336008 -5.983717 -6.059593 0.398097 -24.729861 1.008655 0.000000 0.000000 0.000000 25.874964 -6.175606 -4.067433 58.702577 3.160931 -6.942510 2.812559 29.058865 2.538731 0.000000 0.000000 0.000000 
0.006241 0.965353 0.007267 -1.232631 0.070240 7.793213 1.238910 -0.409736 -4.644730 -4.579237 0.482348 -1.044699 6.081542 14.353337 11.799344 0.000000 0.000000 0.000000 -1.924720 0.575543 -5.948303 2.054358 -0.175308 1.689621 -5.845699 -15.653098 9.387117 0.000000 0.000000 0.000000 4.593907 -0.267888 1.383491 -5.953951 1.998903 -23.763536 -2.356039 4.410398 28.915739 8.023671 -2.158806 -27.518232 0.000000 0.000000 0.000000 -16.657151 -6.652472 1.651240 -53.405589 -5.643914 -6.240644 -0.718506 -23.602724 1.175683 0.000000 0.000000 0.000000 26.304958 -5.347495 -3.536037 58.655978 2.951602 -7.107551 3.230043 28.140334 2.524242 0.000000 0.000000 0.000000 
0.010180 0.965737 0.011096 -1.214095 0.057038 8.185969 0.585906 -0.457855 -5.120032 -4.323471 0.460170 -0.304919 6.190058 14.562958 12.110643 0.000000 0.000000 0.000000 -2.451709 0.606090 -6.387850 2.585974 -0.224441 2.487894 -6.233972 -16.405860 9.423596 0.000000 0.000000 0.000000 4.639215 -0.235606 0.903372 -6.335849 2.070127 -24.263983 -1.907416 5.422846 29.643545 8.567213 -2.322829 -27.510555 0.000000 0.000000 0.000000 -16.833602 -6.562723 1.371763 -53.278289 -4.206487 -6.870002 -1.032610 -24.457172 1.248528 0.000000 0.000000 0.000000 27.724741 -6.104087 -3.775510 57.747537 2.721054 -7.329070 3.812582 27.977526 2.716554 0.000000 0.000000 0.000000 
0.014972 0.965692 0.014891 -1.373913 0.674495 8.278062 0.566380 -0.477637 -5.354259 -4.575016 0.483286 0.356618 5.838695 14.005781 11.641818 0.000000 0.000000 0.000000 -2.643747 0.597283 -6.331417 2.439208 -0.206439 2.720403 -6.352731 -16.603938 9.642574 0.000000 0.000000 0.000000 4.362434 -0.230862 0.964664 -5.921126 1.983128 -24.151500 -1.600963 5.777303 29.642499 9.001805 -2.477026 -27.361576 0.000000 0.000000 0.000000 -17.489143 -6.349134 1.014002 -53.075730 -3.999332 -6.889672 -1.673756 -24.088514 1.326209 0.000000 0.000000 0.000000 28.351736 -5.959513 -3.424982 57.038758 2.342117 -7.541280 4.258656 27.192669 2.745021 0.000000 0.000000 0.000000 
0.020654 0.966142 0.018429 -1.557469 0.604320 8.066252 0.326750 -0.481718 -5.365760 -4.105282 0.435107 1.212415 5.466360 13.400696 11.554554 0.000000 0.000000 0.000000 -2.869615 0.639726 -6.956061 3.078560 -0.264802 4.762349 -6.176393 -16.193514 8.576350 0.000000 0.000000 0.000000 4.464409 -0.260807 1.320369 -6.089365 2.020908 -24.174616 -1.209348 6.098904 29.727031 9.083133 -2.464560 -27.422198 0.000000 0.000000 0.000000 -17.436492 -6.335521 0.936540 -53.912992 -3.641881 -7.150400 -2.626957 -23.762242 1.497368 0.000000 0.000000 0.000000 28.857111 -5.463790 -3.003329 56.874225 2.456309 -7.528086 4.068906 26.232775 2.579333 0.000000 0.000000 0.000000 
0.026736 0.966004 0.021986 -1.719612 0.768703 8.047459 0.495667 -0.439301 -4.909394 -4.220459 0.446016 0.938971 5.230800 13.007959 11.353024 0.000000 0.000000 0.000000 -3.308369 0.783272 -9.140227 4.038768 -0.399387 9.236681 -6.597701 -16.996424 8.164545 0.000000 0.000000 0.000000 4.593755 -0.314946 1.906957 -5.820461 1.961432 -24.142212 -1.311368 6.021188 29.604518 9.272503 -2.525644 -27.689566 0.000000 0.000000 0.000000 -17.660737 -6.242305 0.857539 -54.535568 -2.857927 -7.560778 -3.542138 -23.675703 1.682062 0.000000 0.000000 0.000000 28.735630 -4.889491 -2.605925 56.501064 2.443008 -7.480949 4.796374 25.720539 2.639916 0.000000 0.000000 0.000000 
0.032740 0.965621 0.026028 -1.836275 1.270562 7.455714 0.007455 -0.331316 -3.673678 -3.937878 0.409529 0.937604 4.677684 12.073890 10.829926 0.000000 0.000000 0.000000 -4.029437 0.920008 -11.957384 5.563365 -0.797389 15.769683 -6.927866 -17.590058 7.273670 0.000000 0.000000 0.000000 4.658781 -0.385150 2.820372 -5.595711 1.938074 -23.519136 -1.532736 5.442685 29.630858 9.131943 -2.451259 -27.921855 0.000000 0.000000 0.000000 -18.140685 -6.353917 0.934458 -54.166018 -2.896650 -7.487111 -4.027019 -22.305745 1.678747 0.000000 0.000000 0.000000 28.555866 -4.414497 -2.357719 56.634862 3.454122 -7.016100 3.682161 25.045717 2.308293 0.000000 0.000000 0.000000 
0.037649 0.964907 0.031512 -2.062151 2.086711 6.299786 0.322527 -0.172793 -1.890224 -4.442351 0.456993 0.742213 4.637202 12.026158 10.621467 0.000000 0.000000 0.000000 -4.436674 1.020035 -14.642053 6.734615 -1.374381 23.226617 -7.124201 -17.945236 7.563369 0.000000 0.000000 0.000000 4.707241 -0.521224 4.594527 -5.174583 1.861084 -23.354185 -1.997179 4.784819 29.934441 9.713041 -2.785666 -28.119592 0.000000 0.000000 0.000000 -18.815531 -7.150704 1.341573 -53.001751 -2.800796 -7.370200 -4.545366 -21.559343 1.712285 0.000000 0.000000 0.000000 27.674175 -4.638769 -2.478010 56.895573 4.574824 -6.517204 4.478418 24.749052 2.439376 0.000000 0.000000 0.000000 
0.041245 0.965106 0.039414 -2.505735 2.615246 5.234426 0.577709 -0.032531 -0.201730 -4.293278 0.437102 1.079636 4.324010 11.344039 9.593277 0.000000 0.000000 0.000000 -4.463489 1.185198 -18.148009 7.544922 -1.984743 29.599800 -6.759927 -17.175040 7.536259 0.000000 0.000000 0.000000 5.004129 -0.628687 5.741049 -4.963322 1.830753 -23.131794 -2.410219 3.201554 30.645340 9.293919 -2.681526 -28.743179 0.000000 0.000000 0.000000 -19.779474 -7.283409 1.728278 -52.051955 -2.517821 -7.461418 -4.978370 -21.033406 1.791694 0.000000 0.000000 0.000000 26.818833 -4.031221 -2.418982 57.655873 4.964936 -6.362141 4.958682 24.993360 2.534714 0.000000 0.000000 0.000000 
0.043541 0.965217 0.049973 -3.086771 2.468483 4.889146 0.865460 0.079335 1.276121 -3.897108 0.395583 0.771661 4.100618 10.983325 9.716000 0.000000 0.000000 0.000000 -3.838005 1.525774 -22.467362 8.495683 -2.510437 32.675284 -7.319809 -18.291890 7.019765 0.000000 0.000000 0.000000 5.337380 -0.684031 6.108206 -4.277928 1.668047 -22.886785 -3.129185 2.404947 30.763628 8.825401 -2.582191 -28.612168 0.000000 0.000000 0.000000 -19.693743 -7.838424 2.301265 -52.220996 -2.121562 -7.693228 -5.240818 -19.973414 1.764036 0.000000 0.000000 0.000000 25.937261 -3.675667 -2.444643 58.099676 4.597620 -6.473231 6.056588 25.066379 2.728516 0.000000 0.000000 0.000000 
0.045128 0.964760 0.063166 -3.402908 2.461383 5.087316 0.999913 0.184043 2.679818 -3.920415 0.398141 0.552857 4.517992 11.452701 8.705568 0.000000 0.000000 0.000000 -3.026373 1.896319 -26.030796 8.466297 -2.412851 31.391218 -7.159466 -17.987630 7.782278 0.000000 0.000000 0.000000 5.793333 -0.766634 6.536251 -4.539935 1.717402 -23.317592 -3.284733 1.098891 31.033613 8.538286 -2.585259 -29.126729 0.000000 0.000000 0.000000 -20.175034 -7.648232 2.599283 -51.442465 -2.628962 -7.491652 -5.256163 -19.087758 1.714060 0.000000 0.000000 0.000000 25.316330 -3.791268 -2.941643 58.204270 4.303837 -6.556088 7.045450 24.645276 2.811904 0.000000 0.000000 0.000000 
0.046388 0.962064 0.079058 -3.659097 2.426770 5.213194 0.666391 0.334492 4.324705 -3.476432 0.352558 0.307777 4.042819 10.554762 8.299993 0.000000 0.000000 0.000000 -2.328807 2.268986 -29.273026 8.854827 -2.297922 27.074059 -7.727826 -19.109680 9.763014 0.000000 0.000000 0.000000 6.019822 -0.820060 6.850453 -4.001410 1.581580 -23.555822 -3.973541 0.877894 31.293700 9.302727 -2.968880 -29.707021 0.000000 0.000000 0.000000 -19.861897 -7.825590 2.791980 -50.792788 -2.869912 -7.346785 -5.974663 -18.927844 1.814875 0.000000 0.000000 0.000000 25.321559 -4.560110 -3.547102 58.217309 4.053091 -6.652665 7.089082 24.930188 2.852283 0.000000 0.000000 0.000000 
0.047664 0.958101 0.098402 -3.953569 2.850532 5.070334 1.075513 0.448127 6.230187 -3.579601 0.359393 0.449662 3.793362 9.862597 7.133894 0.000000 0.000000 0.000000 -1.849946 2.512432 -31.570758 8.741711 -1.914261 20.307350 -7.521574 -18.683399 14.173890 0.000000 0.000000 0.000000 6.539540 -0.930831 7.465037 -3.965173 1.583053 -23.441778 -4.399065 0.257778 30.869812 9.970011 -3.362504 -29.841670 0.000000 0.000000 0.000000 -20.332983 -8.050044 2.991412 -49.550216 -3.571052 -6.879596 -6.750518 -19.171871 1.963867 0.000000 0.000000 0.000000 25.391848 -5.173180 -4.110122 57.990553 3.220243 -6.936620 7.727228 25.595452 3.050049 0.000000 0.000000 0.000000 
0.049112 0.951873 0.122012 -4.048497 3.133179 4.679190 1.081425 0.637693 8.842211 -3.435037 0.342725 0.444886 3.607814 9.225916 5.936556 0.000000 0.000000 0.000000 -1.506211 2.664752 -32.839658 8.399897 -1.498516 13.489540 -7.404985 -18.453946 18.268450 0.000000 0.000000 0.000000 6.941029 -1.002948 7.842752 -4.244347 1.649791 -23.645210 -4.433935 0.449797 31.443128 9.910615 -3.042615 -31.399669 0.000000 0.000000 0.000000 -20.379321 -9.140814 3.505954 -49.286462 -4.862509 -6.372543 -6.511678 -20.176044 2.022661 0.000000 0.000000 0.000000 25.919926 -5.906758 -4.508441 57.917124 2.268126 -7.453211 7.154987 26.354360 3.071200 0.000000 0.000000 0.000000 
0.050989 0.944264 0.150489 -3.834663 4.093282 4.532662 0.977064 0.802711 11.239176 -3.922314 0.384433 0.296477 3.420147 8.426240 4.283373 0.000000 0.000000 0.000000 -1.632024 2.560038 -33.317149 8.205845 -1.225079 7.337766 -7.672305 -18.694833 21.599817 0.000000 0.000000 0.000000 7.595937 -0.980808 7.074130 -4.877989 1.826613 -23.330672 -4.685105 -0.024659 31.963921 9.963548 -3.055232 -31.441617 0.000000 0.000000 0.000000 -19.244217 -9.452966 3.656497 -50.115307 -6.353988 -5.936999 -6.171147 -21.189029 2.083487 0.000000 0.000000 0.000000 26.141969 -5.970391 -4.500875 57.910782 2.142161 -7.572005 6.305334 25.618857 2.804833 0.000000 0.000000 0.000000 
0.053331 0.936637 0.184357 -3.206326 4.290221 4.338842 -0.033634 1.115269 13.619690 -2.797381 0.266075 0.835594 2.788068 7.088203 3.766687 0.000000 0.000000 0.000000 -1.714886 2.552231 -33.994871 8.246729 -1.111448 4.214631 -8.748666 -20.186109 23.710778 0.000000 0.000000 0.000000 7.497787 -0.955195 6.988094 -4.681194 1.792456 -23.127018 -5.292499 -0.052420 31.532415 9.085440 -2.687521 -30.606494 0.000000 0.000000 0.000000 -19.056401 -9.489587 3.631633 -50.684146 -7.442025 -5.520662 -5.927583 -23.827467 2.329469 0.000000 0.000000 0.000000 25.985558 -6.410239 -4.745964 57.946311 2.128033 -7.548380 5.347582 24.351781 2.444654 0.000000 0.000000 0.000000 
0.056074 0.928865 0.224272 -2.466309 5.915414 4.603551 0.019777 1.185333 15.425959 -2.860285 0.244784 2.262477 1.975765 5.077770 2.462688 0.000000 0.000000 0.000000 -2.045341 2.264342 -33.874414 7.870782 -1.095860 4.363881 -9.349408 -20.744203 23.774864 0.000000 0.000000 0.000000 7.882540 -0.947803 6.486246 -4.947808 1.867361 -23.512754 -5.736332 -0.518076 31.348023 9.666538 -2.899942 -30.602601 0.000000 0.000000 0.000000 -19.299849 -9.390205 3.385005 -50.703777 -7.538195 -5.417547 -6.795539 -25.085969 2.630363 0.000000 0.000000 0.000000 25.931383 -7.049981 -4.963992 58.374296 1.718338 -7.773891 4.061903 22.786757 2.043135 0.000000 0.000000 0.000000 
0.057951 0.924336 0.269705 -1.425554 7.090968 4.990622 -0.528328 1.267760 15.833078 -2.563128 0.145827 5.339734 1.143310 4.799881 5.568069 0.000000 0.000000 0.000000 -2.555906 1.938537 -32.686296 8.048480 -1.253917 6.696866 -9.097716 -20.245753 22.632424 0.000000 0.000000 0.000000 8.054428 -0.849249 5.404399 -4.787259 1.865872 -22.960614 -6.790846 -0.770808 30.162018 10.385344 -3.133158 -30.816028 0.000000 0.000000 0.000000 -19.490834 -8.181393 2.505662 -50.679721 -7.055141 -5.430076 -7.315170 -26.531354 2.877322 0.000000 0.000000 0.000000 27.060192 -8.078331 -5.681354 57.461340 0.462380 -8.143851 2.782418 23.372587 1.878212 0.000000 0.000000 0.000000 
0.058159 0.925783 0.318460 -1.363717 6.814757 4.948592 0.761485 1.015550 15.159146 -3.427673 0.174968 10.974294 -0.700889 2.087432 6.991511 0.000000 0.000000 0.000000 -2.323478 2.000686 -31.821501 9.440779 -1.795965 11.446881 -9.158744 -20.564866 19.819430 0.000000 0.000000 0.000000 8.801662 -0.799594 4.502057 -5.107874 1.958376 -22.293886 -6.196412 -0.763235 29.098577 10.123636 -3.061087 -30.361997 0.000000 0.000000 0.000000 -20.544655 -7.524271 2.113400 -50.203349 -6.939912 -5.320198 -8.513747 -27.195343 3.242113 0.000000 0.000000 0.000000 26.760629 -7.785365 -5.530701 57.045912 0.655713 -7.906071 1.697937 23.397970 1.656883 0.000000 0.000000 0.000000 
0.056072 0.935095 0.365340 -2.054618 6.929612 5.089611 3.404310 0.419986 11.567487 -5.044976 0.363825 20.108474 -3.271293 1.017463 14.373088 0.000000 0.000000 0.000000 -0.674624 2.304393 -29.612760 8.698709 -1.705559 12.678815 -8.495548 -19.662162 16.980176 0.000000 0.000000 0.000000 10.029351 -0.857705 4.166484 -4.650190 1.814777 -23.281228 -5.967416 -0.136212 29.094544 8.609666 -2.197563 -29.888065 0.000000 0.000000 0.000000 -21.188880 -6.775758 1.453893 -49.408994 -6.104945 -5.520216 -9.619219 -27.793356 3.549737 0.000000 0.000000 0.000000 25.847922 -7.057556 -4.704733 56.641522 2.067105 -7.255089 2.071889 21.784301 1.578452 0.000000 0.000000 0.000000 
0.052965 0.943840 0.406085 -2.279116 7.563453 4.473588 6.719517 -0.186090 3.732899 -8.419793 1.247503 34.972490 -3.472111 3.513129 21.684661 0.000000 0.000000 0.000000 0.272101 2.219822 -25.560774 8.755170 -1.703252 11.745098 -8.252218 -19.287740 14.634798 0.000000 0.000000 0.000000 10.303673 -1.069514 5.640216 -4.832884 1.837681 -24.156745 -4.526404 0.448892 28.643197 8.605421 -1.906883 -30.633715 0.000000 0.000000 0.000000 -21.361120 -7.720958 1.628736 -49.646304 -5.809136 -5.516127 -10.085235 -28.881189 3.750288 0.000000 0.000000 0.000000 24.032945 -6.448714 -3.787969 57.043504 3.039684 -6.812016 3.156358 21.948796 1.806293 0.000000 0.000000 0.000000 
0.050727 0.951881 0.442592 -2.046297 6.894689 3.501309 8.704045 -0.383403 -4.138956 -11.603462 2.956009 45.687320 0.529138 8.799223 22.122516 0.000000 0.000000 0.000000 1.304867 2.051075 -20.519864 7.641942 -1.322167 9.675232 -7.569601 -18.254331 12.893352 0.000000 0.000000 0.000000 9.910559 -1.238479 7.419122 -5.169311 1.871368 -25.320751 -3.320502 2.619494 29.294659 9.839818 -2.232149 -31.043904 0.000000 0.000000 0.000000 -20.912926 -8.624243 1.631262 -49.268170 -6.282402 -5.229944 -10.257789 -29.478695 3.764345 0.000000 0.000000 0.000000 24.903440 -5.696416 -2.739250 55.700872 5.721767 -5.765424 2.723622 22.785202 1.882763 0.000000 0.000000 0.000000 
0.049812 0.959191 0.477194 -1.204792 5.483868 3.090228 9.314597 -0.438854 -10.656477 -13.857998 4.732654 48.743543 4.115283 12.642141 17.755654 0.000000 0.000000 0.000000 1.421677 1.727743 -16.465505 7.037430 -1.081114 7.885316 -7.022882 -17.461155 11.638538 0.000000 0.000000 0.000000 8.575883 -1.236890 8.689855 -5.241319 1.864583 -25.789230 -1.947072 4.648092 29.233190 9.949493 -2.140809 -30.890635 0.000000 0.000000 0.000000 -21.921234 -9.449745 1.656034 -47.692637 -6.471109 -4.857929 -9.890578 -29.908717 3.634526 0.000000 0.000000 0.000000 26.047375 -4.123192 -1.366954 53.598755 7.914904 -4.915240 1.908028 23.733326 1.831810 0.000000 0.000000 0.000000 
0.049976 0.964512 0.510602 -0.766414 4.114774 2.714882 9.984107 -0.427164 -16.558221 -14.462307 5.419122 47.753299 5.755018 14.333791 13.559278 0.000000 0.000000 0.000000 1.261736 1.372447 -12.921858 6.419133 -0.881464 6.187979 -6.451958 -16.551522 11.276415 0.000000 0.000000 0.000000 7.844460 -1.224797 9.456749 -5.683672 1.944663 -25.955224 -0.654244 6.457534 29.157763 9.373062 -1.704394 -30.602690 0.000000 0.000000 0.000000 -21.985651 -9.896154 1.593186 -47.193166 -6.661395 -4.641008 -9.958536 -29.763480 3.563867 0.000000 0.000000 0.000000 25.736352 -3.370105 -0.555127 52.756206 10.205109 -3.989597 2.028070 24.778582 1.978498 0.000000 0.000000 0.000000 
0.051048 0.967167 0.543456 -0.340287 1.950671 2.298053 9.845197 -0.404416 -22.226672 -13.218485 4.978362 43.685402 6.584320 15.374144 12.561549 0.000000 0.000000 0.000000 1.302563 1.000117 -9.304223 5.743208 -0.703555 5.332871 -5.376023 -14.617384 9.695043 0.000000 0.000000 0.000000 6.624856 -1.145179 10.265416 -5.619407 1.904993 -26.370255 0.293797 8.439716 29.482066 9.090423 -1.354349 -31.213138 0.000000 0.000000 0.000000 -22.482909 -9.749500 1.273527 -46.370694 -6.518227 -4.557763 -9.867525 -29.972764 3.525271 0.000000 0.000000 0.000000 25.394836 -2.332211 0.329419 52.196832 12.886510 -2.930737 1.770294 26.140119 2.082654 0.000000 0.000000 0.000000 
0.053022 0.967434 0.576457 -0.151048 -0.121979 1.959545 9.762845 -0.298434 -26.315976 -10.655856 3.491452 35.481790 6.393239 15.011146 13.310774 0.000000 0.000000 0.000000 1.283252 0.639699 -6.070260 4.859075 -0.526255 5.123992 -3.860517 -11.498188 7.769037 0.000000 0.000000 0.000000 6.029272 -1.115695 10.958099 -5.478004 1.864307 -26.154562 0.954266 10.359308 29.135386 8.616335 -0.948499 -31.387970 0.000000 0.000000 0.000000 -22.987467 -9.921297 1.097540 -45.836024 -6.437222 -4.400599 -10.357352 -29.668242 3.569790 0.000000 0.000000 0.000000 26.184047 -1.809242 0.864715 50.617850 15.042059 -2.131572 2.794538 26.442542 2.311311 0.000000 0.000000 0.000000 
0.055710 0.966285 0.610585 -0.190614 -2.296463 1.587496 9.848283 -0.068516 -28.836972 -7.886901 2.055641 25.898750 4.944621 12.899964 15.881858 0.000000 0.000000 0.000000 1.448180 0.347204 -3.507321 3.538504 -0.291229 5.823438 -2.804972 -9.041458 6.082052 0.000000 0.000000 0.000000 5.428154 -1.060295 11.474349 -5.563525 1.861956 -26.297543 1.811158 11.212832 29.425964 8.287991 -0.753877 -32.138625 0.000000 0.000000 0.000000 -23.764187 -9.710161 1.084882 -45.306078 -6.288923 -4.428757 -10.685890 -30.174632 3.760286 0.000000 0.000000 0.000000 26.009295 -0.733910 1.373162 50.141959 16.902176 -1.346957 3.183769 27.123941 2.430146 0.000000 0.000000 0.000000 
0.058777 0.963352 0.647051 -0.327127 -5.700243 1.390025 10.284248 0.421710 -29.703142 -6.182186 1.272891 15.823711 4.160656 11.491341 17.524460 0.000000 0.000000 0.000000 1.241405 0.028319 -0.698053 2.755809 -0.135117 5.773910 -1.344467 -5.274742 3.991722 0.000000 0.000000 0.000000 4.816578 -0.950345 11.517350 -4.964260 1.696670 -25.591059 2.132524 13.442662 28.877943 8.349368 -0.713833 -32.316125 0.000000 0.000000 0.000000 -24.254425 -9.467598 0.845069 -45.188534 -5.782967 -4.496031 -10.946492 -30.109404 3.810208 0.000000 0.000000 0.000000 26.921021 -0.112583 1.803808 48.791935 17.862115 -1.035342 5.064074 27.551717 2.866497 0.000000 0.000000 0.000000 
0.061962 0.959155 0.686703 -0.521688 -8.600992 1.188136 10.837708 0.883466 -29.286667 -4.686794 0.689889 5.546711 3.001178 9.525992 18.631518 0.000000 0.000000 0.000000 0.724863 -0.330273 3.109873 2.391550 -0.066926 5.397289 -0.295134 -1.857896 1.860580 0.000000 0.000000 0.000000 4.382521 -0.839048 11.096804 -4.738047 1.609544 -25.224465 2.574173 15.039628 29.062596 8.373013 -0.675124 -32.900052 0.000000 0.000000 0.000000 -24.277184 -8.569561 0.412563 -45.090955 -5.838890 -4.499266 -11.062627 -30.277187 3.882530 0.000000 0.000000 0.000000 27.539800 0.308327 2.023167 49.540853 18.734185 -0.654004 4.520799 26.631880 2.623369 0.000000 0.000000 0.000000 
0.065418 0.953314 0.730145 -0.789796 -11.639527 1.203766 11.819715 1.432387 -28.113777 -4.203953 0.546132 -2.477774 3.211191 9.524078 20.016027 0.000000 0.000000 0.000000 -0.132867 -0.476633 5.949898 1.747945 0.080791 6.405374 0.119834 1.184860 -1.218137 0.000000 0.000000 0.000000 3.676063 -0.716243 10.715515 -4.593152 1.523002 -25.397617 3.153826 16.921692 29.192662 8.980968 -1.030205 -32.577246 0.000000 0.000000 0.000000 -24.475867 -8.367079 0.330513 -44.984952 -5.310990 -4.705584 -10.290893 -29.716327 3.621156 0.000000 0.000000 0.000000 28.935664 -0.256999 1.662987 48.951955 19.105470 -0.645404 6.449690 26.397430 3.012459 0.000000 0.000000 0.000000 
0.069592 0.946804 0.778101 -0.990008 -13.896395 0.231600 11.469408 1.494746 -26.752294 -3.707764 0.505822 -3.646858 2.296716 7.867685 19.773386 0.000000 0.000000 0.000000 -1.248747 -0.563168 10.336104 1.470378 0.119579 6.150241 0.815377 3.821413 -2.250761 0.000000 0.000000 0.000000 3.465557 -0.671828 10.926512 -4.777391 1.533956 -25.141488 3.252338 17.852016 29.491138 9.266348 -1.089793 -33.889816 0.000000 0.000000 0.000000 -23.604704 -7.744324 0.286752 -45.732983 -5.517847 -4.854963 -9.579544 -28.122817 3.286457 0.000000 0.000000 0.000000 30.350009 0.225182 1.827161 49.616608 19.254848 -0.567783 4.762150 24.915714 2.427746 0.000000 0.000000 0.000000 
0.074983 0.940881 0.830320 -1.119540 -16.618167 -0.037220 11.367001 1.672835 -25.861615 -4.618862 0.655125 -1.159583 2.164256 7.550963 21.706337 0.000000 0.000000 0.000000 -3.273616 -0.223942 13.505139 1.157862 0.241730 7.452023 2.128060 6.615548 -1.584263 0.000000 0.000000 0.000000 2.945543 -0.573125 10.402956 -5.103933 1.570170 -25.283914 3.896227 18.896209 29.666326 10.136557 -1.790928 -32.784477 0.000000 0.000000 0.000000 -23.347045 -7.699316 0.552139 -46.484876 -4.946836 -5.242505 -6.702339 -26.241571 2.449017 0.000000 0.000000 0.000000 31.830383 0.513968 1.775588 49.311700 18.667005 -0.833235 3.523760 23.344093 1.969086 0.000000 0.000000 0.000000 
0.081898 0.940157 0.885394 -1.222184 -17.808703 0.485256 11.054209 1.788283 -26.854859 -5.019427 0.843463 3.577271 1.342445 7.041557 26.413339 0.000000 0.000000 0.000000 -5.480881 0.290238 15.274617 0.571222 0.478852 9.807272 4.039767 7.785642 2.183280 0.000000 0.000000 0.000000 1.886486 -0.432522 9.147368 -4.811815 1.469763 -24.464760 5.186906 19.361935 29.552773 10.044229 -1.452632 -35.050259 0.000000 0.000000 0.000000 -23.755929 -7.785480 0.641970 -46.455327 -3.694072 -5.638904 -5.224852 -24.343307 1.964279 0.000000 0.000000 0.000000 32.675036 0.964735 1.935230 47.667392 17.528554 -1.305122 4.116974 22.321484 1.913403 0.000000 0.000000 0.000000 
0.089478 0.946447 0.941117 -1.005591 -18.426054 1.085230 9.844326 1.397407 -26.031236 -5.053627 0.946967 5.681796 1.053029 6.345849 25.135887 0.000000 0.000000 0.000000 -6.423615 0.517723 14.417741 -0.142589 1.091011 15.454260 5.624111 7.816777 6.212624 0.000000 0.000000 0.000000 1.605222 -0.379215 8.150609 -5.262564 1.573645 -24.430555 5.809633 20.200820 29.601371 9.564381 -1.016917 -36.022186 0.000000 0.000000 0.000000 -23.575743 -7.122400 0.105601 -47.015389 -4.308808 -5.434406 -2.064634 -21.079871 1.113111 0.000000 0.000000 0.000000 31.293742 0.420375 1.717460 48.773732 16.985029 -1.466509 2.382199 20.801183 1.496878 0.000000 0.000000 0.000000 
0.096352 0.957438 0.995549 -0.414379 -19.105910 1.841262 7.656233 0.773934 -25.415887 -4.289554 0.865983 7.205439 -1.066534 3.074967 23.060830 0.000000 0.000000 0.000000 -7.657533 0.688799 10.075015 1.328765 1.694725 23.976299 6.080400 5.094450 10.897803 0.000000 0.000000 0.000000 1.403141 -0.344871 7.558413 -4.348903 1.355114 -25.127865 5.132543 23.062118 29.441244 9.004415 -0.241006 -37.098919 0.000000 0.000000 0.000000 -21.677910 -7.210615 -0.437137 -49.643147 -4.025471 -5.695983 -0.267227 -20.289157 0.671177 0.000000 0.000000 0.000000 30.665429 -0.158326 2.281348 51.342446 17.206862 -1.430602 0.939554 20.479751 1.324140 0.000000 0.000000 0.000000 
0.099577 0.964385 1.045924 0.690583 -19.094537 1.764034 4.703531 -0.112316 -23.305115 -2.776562 0.550558 7.533431 -3.317694 -0.333634 21.718570 0.000000 0.000000 0.000000 -8.188635 0.695696 6.079684 2.421074 2.575713 33.039066 3.928801 -1.396433 15.086254 0.000000 0.000000 0.000000 1.795013 -0.385195 8.011086 -6.158021 1.799440 -25.218952 5.131345 25.852691 28.149631 8.438320 0.500063 -37.513886 0.000000 0.000000 0.000000 -19.635205 -8.171871 -0.536088 -50.893666 -3.706740 -5.737245 3.440534 -22.448062 -0.167469 0.000000 0.000000 0.000000 29.356209 -1.169895 2.530191 52.905854 18.261684 -0.874903 -0.175799 21.525508 1.326989 0.000000 0.000000 0.000000 
0.097600 0.968398 1.089688 2.552211 -18.120005 0.926304 0.604242 -1.126256 -21.753722 -0.499983 0.083575 10.137128 -5.546748 -4.187793 18.873818 0.000000 0.000000 0.000000 -9.168780 0.726306 0.121898 6.250266 2.690056 46.122407 1.191977 -7.375437 19.630889 0.000000 0.000000 0.000000 0.864028 -0.326912 9.440177 -5.692256 1.707984 -25.082905 4.249549 27.956587 27.445625 9.316927 0.649581 -38.889706 0.000000 0.000000 0.000000 -18.279260 -8.754784 -0.844029 -49.174991 -6.110797 -4.367607 5.798003 -25.598775 -1.005382 0.000000 0.000000 0.000000 26.091149 -0.137054 3.742560 53.991494 20.231700 0.442272 -2.753859 21.855729 0.963113 0.000000 0.000000 0.000000 
0.088220 0.964088 1.124255 4.214174 -17.340944 0.496897 -1.862389 -1.673789 -21.811161 -0.196532 0.072214 13.538987 -5.387860 -5.494776 14.059459 0.000000 0.000000 0.000000 -10.741782 0.865362 -7.334296 13.400304 -0.168876 59.482204 -2.686421 -13.138220 21.805017 0.000000 0.000000 0.000000 0.490035 -0.304023 11.385342 -6.349533 1.902391 -27.408299 4.424338 29.271303 28.109016 9.532176 0.885752 -39.850702 0.000000 0.000000 0.000000 -16.231477 -10.048605 -0.294805 -48.118870 -9.524571 -2.978734 6.560858 -30.301004 -1.706348 0.000000 0.000000 0.000000 23.697727 1.101884 4.731361 51.729006 24.833637 2.405088 -2.639974 23.681854 1.097022 0.000000 0.000000 0.000000 
0.069838 0.952440 1.148180 5.313475 -15.582035 -0.260241 -3.216601 -2.099504 -23.354527 0.068565 0.174788 20.900748 -5.367239 -7.678517 7.590534 0.000000 0.000000 0.000000 -11.789287 0.872040 -11.012969 21.628262 -6.614044 67.341051 -7.365674 -19.128092 16.839863 0.000000 0.000000 0.000000 1.078878 -0.397250 12.682665 -6.753627 2.014914 -25.719484 2.234127 30.443036 25.678329 9.982655 1.067486 -40.459171 0.000000 0.000000 0.000000 -12.253811 -12.624976 1.147453 -44.648047 -14.407170 -0.987774 15.864648 -36.613565 -6.023982 0.000000 0.000000 0.000000 19.041666 4.475318 6.251059 46.995340 29.736619 4.492363 -5.530492 25.063103 0.539731 0.000000 0.000000 0.000000 
0.038943 0.937753 1.160428 5.861125 -15.211072 -2.576782 -3.204261 -2.204179 -24.915318 -0.117377 0.672002 29.264666 -4.371046 -7.130799 4.223435 0.000000 0.000000 0.000000 -13.958683 0.839261 -15.892945 29.416545 -14.175207 74.470286 -12.516350 -27.628708 11.906869 0.000000 0.000000 0.000000 2.078696 -0.547297 16.270222 -7.441070 2.190831 -26.199834 2.092940 31.067433 26.314011 9.096434 1.646004 -41.709939 0.000000 0.000000 0.000000 -7.861359 -15.921755 3.278349 -37.905768 -20.532947 0.579092 31.707872 -38.909691 -13.319129 0.000000 0.000000 0.000000 12.711185 9.432324 7.232829 39.282085 36.654006 6.415291 -11.914839 26.700412 -0.835141 0.000000 0.000000 0.000000 
-0.007689 0.926846 1.161405 6.396028 -15.777974 -4.154885 -0.829657 -1.552517 -22.304261 -0.912500 1.169627 30.056204 -3.665237 -8.097707 -1.216184 0.000000 0.000000 0.000000 -15.417235 0.922537 -23.622645 34.383625 -21.088142 82.128444 -15.911942 -34.282463 9.503333 0.000000 0.000000 0.000000 1.962445 -0.489767 19.565610 -6.903431 2.064816 -25.490599 0.440683 31.626486 24.653822 10.649269 0.957054 -40.322605 0.000000 0.000000 0.000000 -2.711805 -15.135037 3.905109 -28.050689 -23.803178 0.590590 45.641699 -36.274535 -18.994983 0.000000 0.000000 0.000000 3.857804 14.217650 6.540595 25.901810 41.971106 5.747915 -17.449163 25.204392 -2.065333 0.000000 0.000000 0.000000 
-0.070833 0.933522 1.153512 5.958649 -18.083662 -5.588811 2.787389 -0.616140 -17.016761 -0.250537 0.754519 24.910395 -4.792711 -8.306577 3.479973 0.000000 0.000000 0.000000 -17.275629 1.166469 -31.100769 35.451525 -23.443236 87.024669 -19.793092 -39.745794 12.733585 0.000000 0.000000 0.000000 1.882892 -0.363442 20.827887 -5.394814 1.638690 -24.231744 0.165992 32.111412 23.794044 11.376566 0.269199 -37.335528 0.000000 0.000000 0.000000 4.714665 -10.701720 3.989270 -19.761840 -26.569344 -0.172529 50.779052 -31.439804 -19.402488 0.000000 0.000000 0.000000 -6.811971 19.117801 4.699432 7.299792 45.276644 1.783542 -17.008088 19.141171 -1.581878 0.000000 0.000000 0.000000 
-0.147295 0.955940 1.139496 4.125934 -19.072969 -5.280301 8.978807 0.505133 -11.702530 0.033041 0.150766 15.668888 -6.923445 -8.881929 11.699301 0.000000 0.000000 0.000000 -16.546168 1.569595 -33.792751 31.267449 -19.346971 89.411373 -19.129942 -42.169953 5.965043 0.000000 0.000000 0.000000 3.315532 -0.587763 21.715303 -5.618883 1.672345 -24.859103 1.632060 32.103228 23.564781 11.942034 -0.326410 -35.014066 0.000000 0.000000 0.000000 9.199481 -6.637721 3.823111 -12.077314 -24.204403 -0.995130 55.222079 -33.130120 -22.891223 0.000000 0.000000 0.000000 -13.223711 19.950303 2.862223 -10.278928 46.631358 -3.188940 -16.759709 13.520636 -0.996594 0.000000 0.000000 0.000000 
-0.231979 0.988892 1.120269 2.527288 -17.883680 -2.984328 11.345257 0.714065 -9.449425 2.763743 -0.595069 5.807757 -5.810407 -3.256032 22.902133 0.000000 0.000000 0.000000 -17.451950 1.314426 -35.209170 25.768933 -13.590781 86.700362 -16.507400 -37.209204 6.360570 0.000000 0.000000 0.000000 4.146047 -0.837917 20.268221 -4.900981 1.501809 -24.147675 0.049600 31.632694 21.340985 16.063468 -3.451127 -29.276954 0.000000 0.000000 0.000000 16.847081 -4.070644 4.838112 -6.799015 -18.910506 -1.206391 59.459341 -34.805714 -27.197781 0.000000 0.000000 0.000000 -18.249732 17.801480 1.012711 -21.244222 44.813034 -5.718085 -19.955149 10.807346 -0.802176 0.000000 0.000000 0.000000 
-0.318468 1.015261 1.095662 1.228305 -15.198010 -1.064487 11.617193 0.702697 -12.413636 1.250842 -0.367445 8.714377 -3.004281 1.246587 23.884569 0.000000 0.000000 0.000000 -18.219202 0.689145 -31.329178 20.361920 -7.617344 75.030240 -12.521731 -29.840118 4.843663 0.000000 0.000000 0.000000 3.478724 -0.855940 19.516722 -6.502809 1.947548 -24.821614 2.348612 27.968532 22.749417 13.833934 -2.758130 -28.201790 0.000000 0.000000 0.000000 19.711860 -0.402796 4.358892 0.366436 -12.230151 -0.843798 61.529320 -33.558104 -27.079853 0.000000 0.000000 0.000000 -22.787897 15.699518 -0.314987 -25.594806 38.027709 -5.292213 -23.495695 5.901297 -0.088742 0.000000 0.000000 0.000000 
-0.403090 1.024965 1.068376 0.133712 -11.888191 0.215652 9.927452 0.299456 -13.863340 -2.572362 0.583674 15.911649 1.242374 6.246954 16.877486 0.000000 0.000000 0.000000 -18.151602 0.261230 -28.299411 15.343569 -4.187212 62.415162 -8.635121 -21.642438 11.594624 0.000000 0.000000 0.000000 2.147334 -0.759604 19.117762 -5.305686 1.694234 -25.780064 3.493872 23.663102 25.057834 12.499765 -2.645952 -27.003056 0.000000 0.000000 0.000000 22.154149 1.706322 3.890479 2.601995 -6.744413 -0.259164 49.070239 -26.868931 -16.781654 0.000000 0.000000 0.000000 -24.653610 9.671616 -1.497453 -27.634949 32.137732 -4.201045 -23.632141 3.138153 0.392481 0.000000 0.000000 0.000000 
-0.485579 1.020399 1.043415 -3.339830 -10.162885 2.743969 9.666859 0.156363 -14.491127 -7.209151 2.301909 22.047836 2.504777 7.469937 10.894204 0.000000 0.000000 0.000000 -17.718342 0.206715 -27.075490 10.926895 -1.836667 47.493804 -4.000555 -15.057070 22.202644 0.000000 0.000000 0.000000 3.554745 -1.071901 17.778358 -3.984076 1.422933 -28.279914 4.027381 21.330207 28.697821 9.780219 -1.609385 -25.141350 0.000000 0.000000 0.000000 24.469445 5.240791 3.246426 3.145452 -4.676567 -0.017671 35.058368 -18.369155 -8.122706 0.000000 0.000000 0.000000 -22.658877 4.388614 -2.058908 -22.839878 23.388577 -1.660125 -27.699965 5.140243 0.167803 0.000000 0.000000 0.000000 
-0.565765 0.998281 1.023188 -6.452290 -9.193411 3.279028 7.059630 -0.231051 -12.563022 -7.223151 2.583701 26.229056 1.115653 4.239435 6.603134 0.000000 0.000000 0.000000 -19.193018 -0.084727 -25.880503 9.613316 -1.458563 34.322216 -3.498853 -15.226598 28.495568 0.000000 0.000000 0.000000 4.136678 -1.208699 17.293088 -3.446748 1.310249 -28.277925 5.149568 17.860807 29.896478 10.108143 -2.855509 -22.340255 0.000000 0.000000 0.000000 25.130364 7.017502 2.336626 3.644923 -2.245276 0.284488 22.855666 -14.793990 -3.771569 0.000000 0.000000 0.000000 -17.151350 0.394924 -1.683432 -17.373366 14.134059 -0.026926 -27.580723 7.018758 -0.356886 0.000000 0.000000 0.000000 
-0.645006 0.961807 1.009212 -8.932996 -9.165494 4.288128 9.324146 0.030487 -12.284101 -10.047707 4.077635 29.554390 3.232449 7.064588 1.020077 0.000000 0.000000 0.000000 -21.461676 -0.347571 -25.192016 6.999032 -0.650654 24.008033 -1.744670 -13.581359 32.210076 0.000000 0.000000 0.000000 4.378803 -1.204497 15.953637 -1.729459 0.982200 -29.270463 6.127533 19.451650 31.668392 8.812131 -1.895597 -21.436090 0.000000 0.000000 0.000000 23.291846 7.503584 2.227666 3.071743 -3.761698 0.080219 18.411718 -10.957377 -2.343898 0.000000 0.000000 0.000000 -10.690891 -5.424361 -2.920506 -9.960016 7.154339 0.691874 -22.273285 5.679917 0.070595 0.000000 0.000000 0.000000 
-0.725673 0.917700 1.000030 -10.482742 -7.828199 3.421412 13.579075 0.580110 -13.387362 -7.658026 3.488290 36.125707 5.224750 9.442143 -8.891214 0.000000 0.000000 0.000000 -23.020442 -0.562483 -22.078566 3.445214 0.095869 17.575315 -0.993913 -12.817770 34.265953 0.000000 0.000000 0.000000 4.922167 -1.318909 15.932440 -1.612669 0.926784 -28.283614 3.976987 16.720400 30.798845 9.387347 -2.039412 -24.784912 0.000000 0.000000 0.000000 17.177721 8.467619 0.631428 2.619492 -5.952234 -0.164181 19.876375 -10.240726 -2.257336 0.000000 0.000000 0.000000 -4.208619 -8.918357 -3.544697 -2.604447 1.336643 0.314420 -15.539588 3.779329 0.197248 0.000000 0.000000 0.000000 
-0.809198 0.882576 0.994172 -10.210902 -6.891091 2.643812 17.110701 1.206758 -15.742908 -5.427724 2.766446 43.809423 5.282044 7.867857 -14.581997 0.000000 0.000000 0.000000 -24.956820 -0.693679 -19.237436 3.151496 0.113354 17.074151 1.069984 -9.742278 32.355315 0.000000 0.000000 0.000000 5.593893 -1.401610 15.524755 -3.904007 1.398864 -28.873921 2.332252 15.115266 31.664331 8.340683 -1.207609 -27.348666 0.000000 0.000000 0.000000 10.814649 5.192903 0.077923 -0.585588 -10.428740 -0.751961 27.844858 -11.314990 -3.564945 0.000000 0.000000 0.000000 4.906504 -13.004474 -5.175222 5.278341 -0.980065 -0.977694 -11.061451 3.475636 0.150149 0.000000 0.000000 0.000000 
-0.893026 0.859840 0.989575 -10.524716 -7.578389 1.721110 21.115973 2.202111 -17.753135 -0.128848 0.030531 50.703794 4.291800 4.436951 -15.455958 0.000000 0.000000 0.000000 -23.668035 -0.513702 -18.918935 6.064681 -0.488877 23.100754 0.776160 -8.838054 26.373263 0.000000 0.000000 0.000000 5.033184 -1.416154 17.407183 -4.055348 1.428439 -28.535864 -1.154168 13.993119 28.636819 7.166583 -0.491131 -29.219897 0.000000 0.000000 0.000000 1.750464 3.496626 -1.002411 -4.471679 -16.370389 -1.162230 35.634589 -18.655733 -6.739152 0.000000 0.000000 0.000000 13.288805 -14.171742 -6.354460 14.598185 -2.285800 -2.690120 -8.396965 4.713785 0.092278 0.000000 0.000000 0.000000 
-0.969555 0.849440 0.982417 -11.668036 -11.067326 0.172489 24.242616 3.676818 -19.706046 6.704093 -3.890486 60.227443 0.348560 -1.440294 -5.040679 0.000000 0.000000 0.000000 -17.606350 0.255736 -21.584589 5.900622 0.160485 31.267363 0.823466 -6.122532 15.954388 0.000000 0.000000 0.000000 5.254495 -1.498466 20.633496 -6.673794 1.938773 -31.490825 -2.283173 10.601427 28.490798 6.691053 -0.860762 -31.520909 0.000000 0.000000 0.000000 -4.445998 -0.812018 -0.091348 -12.801870 -18.245882 -1.192191 44.540388 -32.589485 -13.162293 0.000000 0.000000 0.000000 17.281364 -14.166154 -7.701588 24.714428 -4.476787 -4.574708 -8.664331 7.240317 -0.035561 0.000000 0.000000 0.000000 
-1.028559 0.842281 0.975061 -13.792465 -14.804311 -0.763540 26.264285 5.268264 -21.871722 13.983212 -9.202666 68.331419 -4.201965 -6.853228 3.462597 0.000000 0.000000 0.000000 -10.940350 1.348289 -23.338521 4.693881 1.752680 39.004119 0.314901 -4.288940 8.588865 0.000000 0.000000 0.000000 5.271875 -1.427940 22.855341 -6.524695 1.890384 -30.756067 -4.216555 7.992575 26.230256 6.042699 -0.906366 -33.991703 0.000000 0.000000 0.000000 -10.412873 -5.700670 2.163410 -15.341761 -24.064675 -0.790176 49.980092 -41.001988 -17.863056 0.000000 0.000000 0.000000 19.944338 -13.942809 -9.109002 32.323895 -9.927774 -6.770437 -8.811297 11.453729 -0.263122 0.000000 0.000000 0.000000 
-1.066599 0.838788 0.969675 -13.716269 -19.921877 -1.256774 24.967422 6.073614 -23.167057 16.199377 -9.524262 73.900209 -5.064478 -8.398755 3.661970 0.000000 0.000000 0.000000 -6.670754 2.338254 -24.638246 2.320462 4.471535 43.797008 1.253828 0.957249 3.010368 0.000000 0.000000 0.000000 4.064517 -0.908026 24.651720 -5.616423 1.707938 -31.326466 -5.440576 3.582843 26.099695 6.357875 -2.114803 -35.285119 0.000000 0.000000 0.000000 -13.617320 -8.711174 5.041118 -15.439367 -27.843983 -0.764896 52.390689 -45.015028 -19.368443 0.000000 0.000000 0.000000 19.725019 -11.848275 -9.609607 36.284771 -12.265262 -7.919723 -10.568567 14.528721 -0.795355 0.000000 0.000000 0.000000 
-1.085400 0.840386 0.966782 -14.538488 -23.942106 -1.984376 21.976840 5.853917 -23.726323 14.405569 -6.290561 81.151448 -3.484736 -8.495349 -1.809447 0.000000 0.000000 0.000000 -3.173744 2.916874 -23.934850 -0.047536 6.759252 45.050669 2.063212 4.384618 1.253216 0.000000 0.000000 0.000000 4.221246 -0.630063 27.010651 -4.258537 1.506329 -32.929643 -6.712240 -0.439217 28.090064 5.649205 -2.665295 -37.135026 0.000000 0.000000 0.000000 -11.126412 -12.885689 7.587210 -17.090723 -30.646406 -0.373090 56.237013 -45.286351 -19.999518 0.000000 0.000000 0.000000 21.316298 -12.279258 -12.013512 33.882669 -12.746710 -7.166466 -11.379295 20.001148 -1.633013 0.000000 0.000000 0.000000 
-1.086420 0.849004 0.966349 -14.574300 -28.110036 -1.271719 20.373392 5.839480 -23.196826 11.026417 0.176183 81.005940 -2.994439 -11.297666 -7.551360 0.000000 0.000000 0.000000 -1.971613 3.294516 -24.064791 -2.899913 7.872196 40.812896 5.070592 10.418844 3.051994 0.000000 0.000000 0.000000 2.688075 0.107960 28.017841 -1.724135 1.175082 -33.867176 -6.572908 -3.453866 28.909519 5.853619 -3.128951 -40.485651 0.000000 0.000000 0.000000 -11.001980 -15.774546 9.804068 -16.449402 -33.849496 -0.046677 50.155290 -44.722770 -16.453661 0.000000 0.000000 0.000000 20.739753 -10.443001 -12.472037 33.057652 -10.364058 -5.967184 -14.875386 23.130325 -3.074501 0.000000 0.000000 0.000000 
-1.072210 0.865547 0.968123 -14.320781 -33.398521 -0.189288 18.848248 5.515183 -20.782899 7.592918 6.986591 76.325724 -1.346274 -9.678172 -11.993380 0.000000 0.000000 0.000000 -0.813657 3.547908 -23.617361 -6.747141 8.457424 34.614395 8.916924 12.575293 9.120691 0.000000 0.000000 0.000000 2.274429 0.708849 28.423192 1.475843 0.641109 -32.917139 -6.880193 -4.629239 28.163145 5.714148 -3.570072 -40.883309 0.000000 0.000000 0.000000 -8.211158 -16.900898 9.850418 -21.934870 -35.797173 1.698400 46.221469 -43.318947 -13.557269 0.000000 0.000000 0.000000 22.208744 -7.421541 -12.893231 27.911223 -7.439247 -3.779772 -17.706162 24.311290 -4.161513 0.000000 0.000000 0.000000 
-1.047016 0.889064 0.971498 -13.177038 -40.647716 0.971107 18.944659 5.246202 -14.970895 6.137540 10.577220 67.229041 -0.838339 -7.935053 -14.285968 0.000000 0.000000 0.000000 -2.302203 3.507300 -23.374243 -6.531310 6.790821 28.424558 13.894658 15.344478 15.530053 0.000000 0.000000 0.000000 0.196088 1.570274 26.855099 3.022214 0.107755 -30.486044 -5.445554 -3.171984 27.883347 3.549446 -3.253113 -40.131729 0.000000 0.000000 0.000000 -8.291172 -17.488578 10.619551 -23.999490 -36.133012 2.290604 37.841816 -44.272986 -10.566647 0.000000 0.000000 0.000000 22.703870 -5.397538 -13.110997 26.469995 -4.985674 -2.813387 -20.807081 26.945148 -5.720946 0.000000 0.000000 0.000000 
-1.014969 0.911875 0.975393 -11.784353 -43.299598 2.820222 17.556821 4.004330 -9.646900 3.261569 9.827064 53.047867 0.431774 -0.354507 -8.768506 0.000000 0.000000 0.000000 -5.524278 3.561809 -24.538060 -3.078476 3.920177 22.469452 16.576518 10.158283 24.424293 0.000000 0.000000 0.000000 -0.437680 1.722078 25.582289 6.440854 0.045474 -31.749309 -9.182658 -4.431962 30.854399 5.284907 -4.899037 -39.669298 0.000000 0.000000 0.000000 -10.853613 -13.223570 10.315446 -27.318886 -37.868563 2.916166 29.380358 -44.108675 -6.905200 0.000000 0.000000 0.000000 23.217441 -2.333800 -13.246505 24.717396 -3.081811 -2.020577 -18.527734 26.241233 -5.117351 0.000000 0.000000 0.000000 
-0.981444 0.924954 0.980139 -10.741879 -46.979827 3.947848 13.473424 2.571142 -6.045317 1.896895 8.307444 42.336410 2.693026 6.454442 -4.822322 0.000000 0.000000 0.000000 -8.751071 4.519017 -28.926612 1.197005 3.321374 23.899243 15.180136 5.435541 26.703299 0.000000 0.000000 0.000000 -0.059989 1.831780 25.284234 4.012063 0.307684 -31.294643 -7.992949 -2.956107 32.562718 2.671330 -4.395281 -37.968328 0.000000 0.000000 0.000000 -8.028827 -15.022647 10.013868 -32.109314 -36.312606 4.121278 21.149767 -45.319295 -3.921843 0.000000 0.000000 0.000000 26.262612 -2.667358 -15.707302 24.269030 -5.536096 -2.216205 -18.919604 30.908952 -6.121552 0.000000 0.000000 0.000000 
-0.953116 0.926253 0.985875 -10.069093 -44.961382 3.848590 11.998716 2.016666 -5.868516 0.946399 6.909839 38.196007 2.202225 5.545287 -5.750338 0.000000 0.000000 0.000000 -12.745597 5.085907 -33.626676 8.300248 3.252537 33.012355 8.906298 -1.589226 24.202161 0.000000 0.000000 0.000000 0.140569 1.912226 26.664153 5.719147 0.166678 -31.577357 -11.257838 -4.079785 33.415150 2.816701 -4.836963 -35.869774 0.000000 0.000000 0.000000 -10.274042 -13.614530 10.292474 -33.939975 -33.527883 3.078293 18.718261 -48.653219 -3.022086 0.000000 0.000000 0.000000 27.180348 -0.704822 -14.911584 24.010739 -9.525860 -2.891704 -13.262959 31.430531 -4.324742 0.000000 0.000000 0.000000 
-0.935020 0.923175 0.993562 -9.480446 -41.649354 2.817705 10.919901 1.550461 -4.980458 1.534310 5.529459 37.124805 2.303170 5.923241 -8.057426 0.000000 0.000000 0.000000 -13.034137 5.241442 -35.932843 15.797381 1.938918 42.246232 2.230185 -8.407533 19.383882 0.000000 0.000000 0.000000 1.713534 1.533120 28.350246 2.457777 0.321965 -31.059443 -10.983082 -6.502537 33.523334 2.359868 -4.870060 -33.732185 0.000000 0.000000 0.000000 -13.190316 -13.964657 11.776974 -32.476104 -30.534397 1.358618 16.756510 -48.501800 -2.610474 0.000000 0.000000 0.000000 26.984994 -0.837138 -14.686116 24.452787 -14.057197 -3.884259 -7.144243 29.374939 -2.262662 0.000000 0.000000 0.000000 
-0.927552 0.920127 1.003919 -9.176975 -37.147300 2.454126 10.187639 1.197077 -5.724595 1.882951 4.097927 36.014670 2.555675 6.197504 -8.384626 0.000000 0.000000 0.000000 -11.473229 4.867731 -35.413613 19.234293 0.189041 45.398453 -1.277219 -11.428926 14.138793 0.000000 0.000000 0.000000 2.374174 1.015067 28.466713 0.997324 0.414083 -30.295375 -11.513703 -6.004567 33.581485 5.143689 -5.338028 -35.765445 0.000000 0.000000 0.000000 -17.726677 -14.975850 13.806163 -27.828001 -27.289415 -0.798417 21.868197 -48.686265 -5.468105 0.000000 0.000000 0.000000 27.205316 -1.881456 -13.975938 26.987323 -18.140744 -5.573956 -1.297773 25.985180 -0.448593 0.000000 0.000000 0.000000 
-0.928762 0.922214 1.017034 -8.116157 -33.663431 1.733447 10.312092 1.068219 -5.957224 1.323457 3.549983 35.302098 2.809188 6.412065 -6.928415 0.000000 0.000000 0.000000 -6.501849 4.998111 -33.571201 16.338566 1.023078 47.035704 -2.820646 -12.165796 8.961840 0.000000 0.000000 0.000000 2.230405 0.725870 28.091925 0.360165 0.488363 -30.268752 -12.346786 -4.758877 34.033537 7.590011 -6.267171 -34.010306 0.000000 0.000000 0.000000 -19.000959 -13.837985 13.013294 -28.154178 -24.297414 -1.625179 22.571510 -50.129523 -6.031085 0.000000 0.000000 0.000000 27.123296 -1.767613 -12.447084 28.577291 -20.616950 -6.882028 3.628564 23.648985 0.718749 0.000000 0.000000 0.000000 
-0.936599 0.930234 1.032622 -7.285383 -28.712564 2.444817 9.657860 0.710951 -5.288471 1.792114 1.900444 31.896323 2.601576 5.621979 -6.253366 0.000000 0.000000 0.000000 -2.475147 3.974942 -27.558983 10.716180 1.774432 40.132480 -2.549511 -8.880060 3.584435 0.000000 0.000000 0.000000 2.805992 0.012507 25.667988 -2.387742 0.916960 -28.898531 -10.695721 -4.557726 32.491171 5.412510 -4.462366 -33.971355 0.000000 0.000000 0.000000 -19.317031 -12.340115 11.626501 -29.084145 -21.128112 -2.162484 18.009199 -52.701281 -4.143651 0.000000 0.000000 0.000000 26.327896 -3.262266 -11.907946 32.832967 -23.088914 -8.962396 7.336811 23.865344 1.465837 0.000000 0.000000 0.000000 
-0.948064 0.941848 1.049970 -5.668953 -24.672211 3.680792 9.064285 0.459262 -5.997058 0.827064 1.456750 29.240411 2.766405 5.879517 -3.403302 0.000000 0.000000 0.000000 0.061371 2.929840 -21.530310 3.235317 2.756218 31.365023 -1.217960 -4.661922 2.082036 0.000000 0.000000 0.000000 2.626772 -0.305171 23.453401 -4.313436 1.291946 -27.765734 -8.971953 -1.943807 29.991278 5.510599 -3.761862 -31.920611 0.000000 0.000000 0.000000 -21.025699 -12.445207 11.073022 -29.351890 -18.063897 -2.682809 11.474727 -51.777741 -1.380193 0.000000 0.000000 0.000000 26.510201 -3.380059 -10.232806 40.894286 -22.383612 -11.597911 6.635893 27.140420 1.690468 0.000000 0.000000 0.000000 
-0.958981 0.952787 1.066939 -4.558895 -20.033886 4.919410 8.698137 0.275154 -9.364200 1.675026 0.731605 31.167654 1.481483 3.536201 2.130249 0.000000 0.000000 0.000000 -0.204948 2.308747 -18.801897 0.712142 2.383829 26.170764 -1.004860 -5.670815 4.575798 0.000000 0.000000 0.000000 2.885975 -0.650088 21.271918 -5.554320 1.651874 -28.669726 -6.572245 3.072055 31.516024 3.746375 -1.523504 -33.136488 0.000000 0.000000 0.000000 -22.148766 -11.655077 8.954327 -31.781359 -17.219236 -2.751566 3.209626 -49.645654 2.101027 0.000000 0.000000 0.000000 27.580914 -4.387630 -8.367095 46.945817 -14.699647 -11.428486 6.776133 26.212019 2.105492 0.000000 0.000000 0.000000 
-0.966844 0.962330 1.084019 -3.962477 -13.045109 4.909352 9.501981 0.190063 -12.950562 1.065086 0.206253 34.365275 0.535075 1.714903 2.000689 0.000000 0.000000 0.000000 -1.754841 1.455000 -14.322875 2.639057 0.780264 20.493909 -2.925959 -10.344484 6.844456 0.000000 0.000000 0.000000 3.262219 -1.006302 19.787012 -6.543703 1.918421 -26.619449 -4.061937 6.119663 30.024115 4.069411 -0.437922 -32.564783 0.000000 0.000000 0.000000 -26.662571 -10.875821 6.430302 -31.787241 -14.130007 -2.754641 -2.089898 -46.942954 3.469785 0.000000 0.000000 0.000000 28.398664 -2.452322 -4.292272 50.038875 -4.552954 -8.857101 5.985979 25.583131 2.318371 0.000000 0.000000 0.000000 
-0.970668 0.968981 1.102994 -1.813918 -6.240651 4.979627 9.615085 -0.003998 -19.330002 -4.169138 1.557995 34.890765 2.159728 5.320017 2.626075 0.000000 0.000000 0.000000 -4.702744 0.833264 -9.914574 4.290382 -0.174440 15.468540 -3.431140 -11.416738 8.926810 0.000000 0.000000 0.000000 2.396196 -1.047644 18.976764 -6.987895 2.115751 -25.382805 -1.992919 10.238890 29.419055 3.909585 1.040040 -32.570866 0.000000 0.000000 0.000000 -27.564799 -9.807456 2.223144 -33.607556 -11.420766 -2.381066 -7.870951 -43.408325 4.655096 0.000000 0.000000 0.000000 28.684320 -2.365697 -0.978970 49.313842 6.939228 -5.119522 6.805307 24.692492 2.721567 0.000000 0.000000 0.000000 
-0.970859 0.971247 1.124561 -0.852285 -0.983394 4.599428 10.019286 -0.224394 -23.692950 -9.020371 2.630513 30.625887 4.513494 10.889321 6.504327 0.000000 0.000000 0.000000 -5.635282 0.484179 -5.479939 4.546068 -0.456671 11.096284 -5.297846 -14.900925 11.344426 0.000000 0.000000 0.000000 2.298325 -1.195427 19.002697 -6.979240 2.131971 -26.718694 -0.073654 16.027686 30.727662 5.712616 1.575246 -32.031624 0.000000 0.000000 0.000000 -27.963387 -10.855491 -1.108875 -33.703969 -8.011849 -2.087298 -12.575302 -39.023311 4.978242 0.000000 0.000000 0.000000 28.204342 -3.045516 2.022131 47.606918 17.979007 -1.845347 5.795688 25.918061 2.994854 0.000000 0.000000 0.000000 
-0.967021 0.970269 1.149522 -0.431558 2.585475 4.941594 9.745794 -0.576800 -26.188575 -10.018441 2.056484 20.470732 7.119491 16.267609 11.580689 0.000000 0.000000 0.000000 -6.446663 0.211922 -0.604769 5.233749 -0.639763 6.154489 -5.797705 -15.593077 12.624544 0.000000 0.000000 0.000000 2.541295 -1.245468 17.453848 -8.382956 2.473069 -26.271125 1.712653 20.712155 31.245431 7.635057 1.718963 -31.884922 0.000000 0.000000 0.000000 -25.381505 -10.125373 -3.941549 -37.074169 -5.091140 -2.470129 -14.311623 -34.258724 4.243205 0.000000 0.000000 0.000000 26.835096 -2.062140 4.934218 46.774178 26.170366 0.935571 2.534949 28.435430 2.810968 0.000000 0.000000 0.000000 
-0.958212 0.966284 1.178649 -0.772076 7.217167 4.540231 8.195784 -1.251290 -26.637939 -7.579065 0.902187 9.198649 9.473602 20.689074 20.126612 0.000000 0.000000 0.000000 -5.549743 -0.161341 4.209640 5.746765 -0.774960 3.725885 -7.996584 -19.137759 15.232913 0.000000 0.000000 0.000000 2.461214 -1.290344 16.706934 -8.265645 2.509878 -25.779734 2.605244 23.669468 30.939417 10.072465 1.209401 -30.454413 0.000000 0.000000 0.000000 -24.113599 -9.170811 -6.506808 -38.202787 -2.221041 -2.831279 -13.507768 -30.376014 3.118359 0.000000 0.000000 0.000000 25.889338 -1.835143 6.658965 44.551340 30.909362 2.495408 -0.710879 29.993662 2.279907 0.000000 0.000000 0.000000 
-0.943747 0.961257 1.211766 -0.720378 10.674072 3.804468 7.301468 -1.576335 -25.507854 -6.001395 0.518264 2.026294 10.553826 22.522007 25.344196 0.000000 0.000000 0.000000 -4.660451 -0.610894 8.421731 5.037540 -0.700003 2.601784 -9.800387 -22.058053 15.605472 0.000000 0.000000 0.000000 2.734799 -1.331884 15.891011 -10.114307 2.872216 -26.200680 4.345178 24.936541 32.040405 12.402644 0.562132 -31.019453 0.000000 0.000000 0.000000 -20.819218 -8.266191 -6.932305 -41.199553 0.688482 -4.334105 -12.247297 -29.119358 2.317119 0.000000 0.000000 0.000000 25.167974 -2.885935 6.728789 43.923146 33.718834 3.582002 -3.099343 32.039802 2.049617 0.000000 0.000000 0.000000 
-0.923230 0.956143 1.248550 -1.018078 14.088239 2.767463 5.742880 -1.822625 -23.339999 -5.120201 0.373106 -0.655230 10.487990 22.881985 28.599838 0.000000 0.000000 0.000000 -4.588112 -1.124126 12.490511 5.403437 -0.818588 2.704379 -10.527189 -22.894948 17.685946 0.000000 0.000000 0.000000 1.820169 -1.127032 14.663592 -9.827659 2.888862 -25.540531 5.283819 25.313610 32.420066 13.310009 0.400292 -30.602477 0.000000 0.000000 0.000000 -19.443770 -6.887586 -7.947191 -43.057656 2.536450 -5.329674 -11.160494 -27.571045 1.718728 0.000000 0.000000 0.000000 24.988470 -2.298121 7.821472 41.805191 35.770547 3.921314 -4.491033 32.585662 1.633806 0.000000 0.000000 0.000000 
-0.897194 0.953480 1.287281 -0.782966 17.019693 2.922431 4.533534 -2.004517 -22.247854 -6.451338 0.416121 0.305582 10.417767 23.123760 29.796654 0.000000 0.000000 0.000000 -5.176924 -1.363821 14.192372 5.407250 -0.964504 5.723217 -9.348248 -20.389167 19.887662 0.000000 0.000000 0.000000 1.166638 -0.789873 11.585873 -10.068326 3.154498 -23.279724 4.893907 25.093792 32.097834 14.186354 -0.048313 -29.643531 0.000000 0.000000 0.000000 -18.100392 -6.830660 -7.886251 -44.294805 3.926129 -6.132491 -9.857287 -26.554032 1.225380 0.000000 0.000000 0.000000 25.190790 -2.174815 8.522718 43.159726 36.441595 4.499583 -5.653967 32.214557 1.342215 0.000000 0.000000 0.000000 
-0.867713 0.956388 1.324913 -0.815837 21.030433 2.840239 2.543413 -2.199657 -20.762366 -6.224867 0.344129 1.592393 10.234919 23.297616 28.574028 0.000000 0.000000 0.000000 -6.161028 -1.334778 13.309533 6.550246 -1.867645 13.200046 -9.444147 -19.661981 23.689024 0.000000 0.000000 0.000000 0.230132 -0.601381 10.216119 -9.759249 3.072237 -23.543262 5.389613 23.657861 33.647300 13.394802 0.486195 -28.849676 0.000000 0.000000 0.000000 -18.575617 -7.258723 -8.384246 -43.731964 4.672723 -6.187631 -9.106666 -27.479241 1.022484 0.000000 0.000000 0.000000 26.569342 -2.721904 9.184209 43.846556 35.923375 3.886371 -5.199816 32.531392 1.570833 0.000000 0.000000 0.000000 
-0.837459 0.960463 1.359400 -1.185464 23.873632 2.670719 1.637994 -2.003335 -18.371342 -7.518038 0.353954 2.304921 10.576274 23.668453 26.056923 0.000000 0.000000 0.000000 -7.488222 -0.913106 8.902459 7.980266 -4.218579 24.893352 -8.178780 -17.316888 24.841783 0.000000 0.000000 0.000000 0.158705 -0.558960 9.558034 -9.538525 2.962188 -24.175985 5.914219 22.850930 34.029280 12.601676 0.846980 -27.418854 0.000000 0.000000 0.000000 -18.259963 -7.513312 -8.499632 -43.539647 4.569835 -6.088141 -10.629384 -27.581914 1.284122 0.000000 0.000000 0.000000 27.070444 -3.774004 8.969934 46.744325 33.080582 3.304976 -2.719463 34.390461 2.579750 0.000000 0.000000 0.000000 
-0.808719 0.965357 1.390277 -1.435576 27.773475 2.556954 0.226454 -1.843991 -16.195300 -7.203765 0.256214 3.232359 8.158212 21.042466 22.039501 0.000000 0.000000 0.000000 -7.956305 -0.668122 4.197194 7.688904 -6.795911 34.139088 -5.825957 -13.429615 21.529624 0.000000 0.000000 0.000000 0.499442 -0.553302 8.899849 -9.471138 3.013099 -23.510915 4.730573 20.247015 33.031679 11.410329 1.328876 -26.627434 0.000000 0.000000 0.000000 -18.446067 -7.325486 -8.577417 -42.396513 4.297233 -5.730803 -11.899745 -28.343050 1.628919 0.000000 0.000000 0.000000 28.153324 -4.379351 8.928121 49.304527 30.620870 2.610437 -2.200532 34.546254 2.849184 0.000000 0.000000 0.000000 
-0.780909 0.970237 1.418206 -2.105626 31.440550 1.129920 -0.585228 -1.357127 -12.648421 -6.153213 0.137311 3.378956 5.524464 17.946508 19.932660 0.000000 0.000000 0.000000 -8.045890 -0.627494 0.917902 6.043609 -8.232123 39.390562 -5.337396 -12.389310 18.407980 0.000000 0.000000 0.000000 1.284062 -0.730265 9.802316 -9.130786 2.929392 -23.848063 3.581782 17.450219 32.777669 10.987717 1.423294 -26.274540 0.000000 0.000000 0.000000 -18.936716 -7.052750 -8.868421 -42.120803 3.765997 -5.419742 -10.907292 -28.834987 1.434577 0.000000 0.000000 0.000000 27.968983 -4.767895 8.540257 52.002775 28.419598 2.219276 -0.818165 34.139914 3.308887 0.000000 0.000000 0.000000 
-0.753512 0.974561 1.443471 -3.004092 35.464604 0.270009 -0.952410 -0.944257 -9.765641 -5.206507 0.029297 3.520278 2.901327 14.386483 17.247100 0.000000 0.000000 0.000000 -7.310713 -0.545825 -2.850173 3.199389 -8.201217 41.346054 -4.243967 -9.928821 16.147303 0.000000 0.000000 0.000000 2.028160 -0.803308 9.606655 -8.541938 2.834796 -23.748525 2.917168 14.900798 32.523970 10.442068 1.659746 -25.676714 0.000000 0.000000 0.000000 -20.009799 -7.843123 -9.207199 -41.696723 3.693268 -5.045748 -10.113745 -29.396443 1.271409 0.000000 0.000000 0.000000 28.141459 -5.505063 8.185035 52.899548 25.378143 0.895348 0.506983 33.807500 3.696495 0.000000 0.000000 0.000000 
-0.726355 0.978338 1.465913 -3.976297 39.255138 -1.001811 -1.558531 -0.574159 -6.968317 -3.578065 -0.076760 3.654000 1.087361 11.848415 15.819951 0.000000 0.000000 0.000000 -6.850477 -0.578763 -5.890392 1.357829 -7.672508 40.286710 -4.155225 -9.132483 15.429020 0.000000 0.000000 0.000000 3.101662 -0.981223 9.978068 -8.576621 2.847129 -23.664432 2.400950 12.164035 32.116473 9.284864 2.190619 -25.089129 0.000000 0.000000 0.000000 -20.333072 -7.687424 -9.418849 -42.077425 3.065900 -4.849782 -9.669705 -29.375067 1.161904 0.000000 0.000000 0.000000 27.344400 -6.515620 7.053111 53.748371 23.048570 0.235111 2.846468 32.512474 4.142099 0.000000 0.000000 0.000000 
-0.699742 0.980587 1.486144 -5.277341 44.323169 -2.471966 -1.772363 -0.282484 -4.524949 -2.699034 -0.171612 3.862967 -1.257919 7.878861 13.287362 0.000000 0.000000 0.000000 -5.868050 -0.620194 -8.318487 -0.248826 -6.807766 37.017154 -3.635387 -7.268885 14.707356 0.000000 0.000000 0.000000 3.902238 -1.160490 10.334790 -7.677222 2.650514 -24.089940 1.496516 9.116646 31.914612 8.623644 2.580805 -24.674939 0.000000 0.000000 0.000000 -21.569192 -7.516741 -10.437385 -41.518011 2.590440 -4.329620 -10.135822 -29.012830 1.280725 0.000000 0.000000 0.000000 26.599267 -7.618003 6.119917 54.223616 19.971876 -0.882016 3.749794 30.962643 4.096139 0.000000 0.000000 0.000000 
-0.673380 0.981020 1.504481 -5.760337 48.825908 -3.066924 -1.965682 -0.078693 -2.363639 -2.055245 -0.229574 3.792635 -2.267571 5.711138 11.694233 0.000000 0.000000 0.000000 -6.184381 -1.034408 -11.175848 -0.813859 -6.074622 33.505394 -3.132463 -5.619890 14.041769 0.000000 0.000000 0.000000 4.394944 -1.169849 9.842689 -7.259113 2.640842 -23.533245 0.444156 6.624294 31.508481 7.802471 3.032150 -24.295883 0.000000 0.000000 0.000000 -21.180038 -7.136102 -10.676403 -42.410616 1.940234 -4.280624 -10.225335 -28.780927 1.208917 0.000000 0.000000 0.000000 25.632996 -8.985697 4.927728 55.524393 16.740675 -1.788268 4.803625 29.581274 4.164828 0.000000 0.000000 0.000000 
-0.647341 0.981145 1.520983 -6.696843 53.611886 -4.629861 -1.768019 0.039145 0.274991 -1.428667 -0.275760 3.678715 -4.223095 2.289055 10.480718 0.000000 0.000000 0.000000 -5.730396 -1.380837 -13.284734 -0.939385 -5.454183 29.685301 -2.410392 -3.731046 12.930935 0.000000 0.000000 0.000000 5.282610 -1.415467 10.381070 -7.598834 2.665875 -23.510592 0.125548 4.276392 31.559267 7.540432 3.369995 -24.386980 0.000000 0.000000 0.000000 -21.334967 -7.444943 -11.121662 -43.297284 0.826218 -3.888863 -9.260331 -29.534119 0.841558 0.000000 0.000000 0.000000 24.507709 -10.049344 4.011325 56.249990 13.754910 -2.688426 4.553495 28.043570 3.823728 0.000000 0.000000 0.000000 
-0.621653 0.980659 1.536407 -7.277037 57.924727 -5.405858 -1.889666 0.049055 2.281309 -0.722511 -0.314339 3.620929 -5.914972 -1.067675 9.272797 0.000000 0.000000 0.000000 -5.381924 -1.898678 -15.809625 -0.476430 -4.804314 25.614025 -1.708171 -2.115489 11.955897 0.000000 0.000000 0.000000 6.031492 -1.521476 10.147456 -7.770128 2.685861 -23.198128 -0.369155 2.217204 32.040747 7.221464 3.868029 -25.149290 0.000000 0.000000 0.000000 -21.960585 -7.337774 -12.098068 -43.803840 -0.353966 -3.340346 -8.912739 -29.793959 0.661368 0.000000 0.000000 0.000000 24.231075 -11.071813 3.508446 57.522959 12.340422 -3.028241 3.562873 25.934553 3.230213 0.000000 0.000000 0.000000 
-0.595974 0.979014 1.551339 -7.699722 62.187421 -6.026476 -1.443678 -0.113510 4.626662 -1.187502 -0.297126 2.577394 -7.342909 -2.985046 9.326975 0.000000 0.000000 0.000000 -4.694245 -2.718097 -19.608578 0.126256 -4.591542 23.119816 -1.061018 -0.636680 12.466869 0.000000 0.000000 0.000000 6.292940 -1.603188 10.138064 -7.528623 2.674660 -22.635236 -0.649238 0.925739 31.477118 7.984638 3.748578 -25.504298 0.000000 0.000000 0.000000 -19.965454 -7.624227 -11.452354 -45.620428 -1.592560 -3.407912 -10.076850 -30.511527 0.644449 0.000000 0.000000 0.000000 23.268806 -12.999834 2.079895 58.763542 9.209780 -3.682282 4.257640 24.843756 3.242219 0.000000 0.000000 0.000000 
-0.569826 0.976438 1.566574 -7.805467 66.239746 -6.139583 -0.828770 -0.413500 6.332856 -1.552869 -0.344114 2.461822 -8.985795 -6.416675 8.401551 0.000000 0.000000 0.000000 -3.291482 -3.360391 -22.792701 0.714985 -4.024162 19.741583 -0.484149 0.709553 13.473467 0.000000 0.000000 0.000000 6.372197 -1.545920 9.606475 -8.162129 2.682240 -22.450127 -0.491831 -1.533973 32.244403 8.670242 3.724620 -26.795974 0.000000 0.000000 0.000000 -20.216991 -7.532045 -12.007934 -45.229107 -3.341061 -2.678510 -11.210102 -31.936891 0.874113 0.000000 0.000000 0.000000 22.864458 -13.531559 1.749757 59.890096 7.548172 -4.148116 4.089701 23.310296 2.901103 0.000000 0.000000 0.000000 
-0.542280 0.972173 1.582347 -7.783293 69.701323 -6.453210 -0.301194 -0.905361 8.752743 -2.066531 -0.376700 1.895143 -10.024260 -7.344071 8.835008 0.000000 0.000000 0.000000 -1.622269 -3.806906 -25.320682 2.127742 -3.277901 14.681241 -0.171214 1.723949 16.084244 0.000000 0.000000 0.000000 5.890902 -1.663849 10.366693 -7.936757 2.530924 -23.002137 -0.053443 -3.375206 31.831003 9.596360 3.395054 -26.998339 0.000000 0.000000 0.000000 -18.740472 -8.181082 -11.106969 -46.058222 -3.800114 -2.864386 -13.314771 -32.967407 1.242472 0.000000 0.000000 0.000000 22.516188 -15.454848 0.326333 60.423471 5.661372 -4.572430 4.584052 21.893279 2.765753 0.000000 0.000000 0.000000 
-0.512136 0.966891 1.598274 -6.845509 72.031561 -5.412914 0.170957 -1.390802 10.462506 -2.838743 -0.444946 1.862130 -9.967158 -7.457628 8.548002 0.000000 0.000000 0.000000 0.455141 -3.903026 -27.370050 1.987412 -1.890506 8.767722 -1.030824 1.264609 20.297808 0.000000 0.000000 0.000000 5.439065 -1.469540 9.727953 -7.942018 2.610586 -22.010904 -0.209348 -5.444131 31.012241 9.703110 3.123948 -26.196828 0.000000 0.000000 0.000000 -18.090972 -7.450995 -10.933172 -46.071776 -5.767675 -2.327748 -13.902790 -33.494852 1.370042 0.000000 0.000000 0.000000 22.261797 -15.419510 0.247392 61.042701 4.125605 -5.143967 5.230035 22.180012 2.966328 0.000000 0.000000 0.000000 
-0.477658 0.960327 1.613788 -5.062694 74.157751 -3.895641 -0.335557 -1.697609 12.009390 -3.275600 -0.530818 3.565864 -9.115019 -6.855546 7.809696 0.000000 0.000000 0.000000 2.226935 -3.746097 -28.141868 2.818276 -1.271961 2.704055 -4.578219 -2.263769 26.835508 0.000000 0.000000 0.000000 5.974815 -1.703906 10.287940 -8.678126 2.471146 -22.836083 0.308788 -7.058875 30.506373 11.288127 2.012185 -25.134615 0.000000 0.000000 0.000000 -18.035036 -8.561860 -10.406412 -46.312500 -5.635745 -2.379824 -14.415491 -33.170368 1.481676 0.000000 0.000000 0.000000 21.992595 -15.754609 -0.166021 60.057796 3.879966 -5.264933 5.377022 21.022215 2.707527 0.000000 0.000000 0.000000 
-0.437207 0.952013 1.628520 -1.362668 75.413875 -0.124710 -1.653575 -1.751401 13.281545 -3.128064 -0.620616 5.378001 -9.008042 -6.838373 7.568223 0.000000 0.000000 0.000000 3.174259 -3.552480 -28.070113 2.705012 -1.106671 1.148023 -9.029543 -7.723728 26.378770 0.000000 0.000000 0.000000 6.164754 -1.436729 8.840247 -9.171448 2.471416 -22.316437 1.028168 -8.419929 30.087832 11.331475 1.579318 -23.204880 0.000000 0.000000 0.000000 -17.939549 -7.705423 -10.838004 -48.198911 -5.630304 -2.738719 -14.024020 -31.900436 1.288556 0.000000 0.000000 0.000000 20.882034 -15.200521 -0.171023 59.832498 4.677709 -4.685783 3.961058 20.843745 2.429990 0.000000 0.000000 0.000000 
-0.390797 0.945225 1.641855 3.154314 76.313504 4.505192 -3.069076 -1.682706 14.110816 -3.291131 -0.939743 8.905892 -6.870684 -3.688354 7.559808 0.000000 0.000000 0.000000 3.121272 -3.582671 -27.743011 2.768017 -1.448966 3.713307 -12.623358 -12.819363 25.821219 0.000000 0.000000 0.000000 7.700117 -1.530312 7.705872 -9.224257 2.365791 -22.667201 0.057700 -8.599293 29.838836 12.087539 1.003317 -22.436611 0.000000 0.000000 0.000000 -17.168838 -7.716912 -10.443139 -50.740178 -3.905995 -4.089867 -14.579034 -30.227220 1.231052 0.000000 0.000000 0.000000 21.143756 -16.206284 -0.935294 58.639258 6.105692 -3.933355 2.973370 19.328268 2.014348 0.000000 0.000000 0.000000 
-0.340909 0.943432 1.654714 5.349045 75.837773 6.635853 -3.171553 -1.556764 13.872369 -4.677328 -1.641612 14.027005 -7.134359 -2.515709 9.098189 0.000000 0.000000 0.000000 3.435831 -3.321080 -27.489081 3.292744 -2.325157 7.711507 -14.230451 -15.348451 26.029568 0.000000 0.000000 0.000000 9.306909 -1.614494 6.381934 -8.272443 2.380970 -22.620338 -0.455235 -8.843338 29.126834 12.085422 0.832339 -22.114761 0.000000 0.000000 0.000000 -17.788117 -6.751994 -10.929071 -52.627629 -0.970091 -5.705662 -15.391885 -28.836287 1.422103 0.000000 0.000000 0.000000 21.120913 -15.552111 -0.805213 55.700992 7.051353 -3.918023 2.527181 19.980469 2.038328 0.000000 0.000000 0.000000 
-0.293067 0.948408 1.668091 5.321623 72.926246 7.243061 -1.818580 -0.866386 9.872177 -9.416702 -3.027096 22.301720 -8.905617 -0.244694 14.588609 0.000000 0.000000 0.000000 3.974824 -2.574074 -26.856648 3.101863 -3.029002 11.497470 -13.228420 -16.119663 21.708222 0.000000 0.000000 0.000000 11.001957 -1.684955 4.781279 -7.742725 2.231985 -23.949062 -0.630263 -7.698144 29.728540 11.122191 0.880891 -20.435268 0.000000 0.000000 0.000000 -17.054098 -4.787868 -11.002673 -54.673450 1.194039 -7.610265 -16.517581 -26.348407 1.560965 0.000000 0.000000 0.000000 20.318177 -14.585814 -0.721981 53.677432 8.801246 -3.259446 3.240545 19.795690 2.061718 0.000000 0.000000 0.000000 
-0.252269 0.955927 1.682112 5.205070 69.650657 7.116665 1.161794 -0.531094 3.501578 -20.493684 -4.272781 33.151833 -4.356313 8.688510 22.500282 0.000000 0.000000 0.000000 4.532863 -1.313338 -24.200038 1.999910 -2.547458 11.702674 -11.571021 -14.687080 19.782631 0.000000 0.000000 0.000000 12.429473 -1.936479 4.543905 -7.856929 2.365613 -23.533157 -0.610669 -5.702466 29.206575 12.580408 -0.444579 -19.952577 0.000000 0.000000 0.000000 -16.812553 -4.723970 -10.275935 -54.342614 3.221828 -8.675464 -18.601833 -25.210073 2.003491 0.000000 0.000000 0.000000 20.443134 -12.954129 0.183171 52.289670 10.140655 -2.945974 3.314206 20.330323 2.080695 0.000000 0.000000 0.000000 
-0.218671 0.961106 1.696818 4.850111 66.326586 5.668397 3.940563 -0.717270 -3.457299 -29.816752 -4.106763 42.596004 5.479434 18.178243 25.677525 0.000000 0.000000 0.000000 4.763964 -0.154630 -20.122368 2.109007 -2.374008 11.059310 -10.331952 -13.899792 18.020689 0.000000 0.000000 0.000000 12.379018 -2.163279 6.100484 -7.437471 2.274628 -24.471242 0.039274 -3.771766 29.871412 14.592192 -1.612422 -21.055006 0.000000 0.000000 0.000000 -16.604399 -5.449306 -9.605001 -53.724889 3.922348 -8.882293 -17.247116 -23.752517 1.770657 0.000000 0.000000 0.000000 22.132160 -12.453922 1.096579 49.652648 13.202824 -2.726028 3.925070 21.875902 2.409785 0.000000 0.000000 0.000000 
-0.189953 0.968382 1.711854 5.443327 60.775347 5.313849 5.284222 -1.098626 -8.825771 -32.347177 -2.738167 44.890339 11.213599 23.400744 24.452737 0.000000 0.000000 0.000000 4.932841 0.644211 -16.199865 1.545470 -1.552462 8.940099 -8.875419 -12.288312 17.520503 0.000000 0.000000 0.000000 11.454948 -2.275142 8.135085 -6.858785 2.269803 -25.025641 0.196223 -1.560746 29.803087 15.280653 -2.913452 -20.015670 0.000000 0.000000 0.000000 -17.107749 -5.686430 -9.083240 -52.528531 5.243452 -9.030232 -15.922662 -23.614212 1.768068 0.000000 0.000000 0.000000 23.693743 -10.792825 2.534511 48.077143 16.040471 -2.400732 3.687095 23.327852 2.536505 0.000000 0.000000 0.000000 
-0.164033 0.973671 1.727036 5.630600 54.388883 4.972882 5.751483 -1.454087 -12.495805 -27.933539 -2.054608 43.023931 11.959432 24.199035 19.122723 0.000000 0.000000 0.000000 4.381301 0.934468 -12.512274 1.846666 -1.204873 7.364611 -7.068490 -10.354868 16.450416 0.000000 0.000000 0.000000 9.699349 -1.912449 8.686676 -5.715019 2.246519 -24.795046 0.783093 0.997551 30.323931 15.209865 -3.474647 -19.382476 0.000000 0.000000 0.000000 -17.696112 -5.242600 -8.993446 -51.705157 5.657474 -8.944553 -14.905394 -22.867916 1.755720 0.000000 0.000000 0.000000 23.856871 -9.729460 3.008641 48.558339 17.872151 -1.782544 2.526451 24.862764 2.588968 0.000000 0.000000 0.000000 
-0.139677 0.978358 1.741688 5.329508 47.218852 4.182961 5.836242 -1.615090 -14.458997 -20.053156 -1.740923 37.016312 10.055870 21.779723 13.994607 0.000000 0.000000 0.000000 4.067401 0.986303 -9.533282 1.131546 -0.733186 6.890333 -4.310784 -6.666655 14.794459 0.000000 0.000000 0.000000 9.176572 -1.826921 9.221160 -5.909471 2.190398 -25.625639 1.291407 3.800278 31.279518 15.421293 -4.294167 -18.708384 0.000000 0.000000 0.000000 -18.270406 -5.594282 -8.362725 -50.840879 6.242772 -8.994402 -12.485382 -21.391876 1.490432 0.000000 0.000000 0.000000 23.612840 -9.198735 2.758399 49.861143 18.600261 -1.252565 3.060150 27.195405 3.146197 0.000000 0.000000 0.000000 
-0.117098 0.980164 1.756131 5.229563 40.295459 4.152686 5.293586 -1.552882 -14.811677 -11.175695 -1.515224 28.255096 5.957822 15.733232 10.071108 0.000000 0.000000 0.000000 3.138753 0.832833 -7.346547 0.954195 -0.492094 6.616358 -1.920155 -3.307370 12.997260 0.000000 0.000000 0.000000 8.804498 -1.678661 9.147587 -6.000362 2.179603 -25.740735 1.566213 6.010444 31.575385 14.023559 -3.521930 -18.989130 0.000000 0.000000 0.000000 -18.461864 -4.423921 -8.152798 -50.829316 7.526333 -9.694322 -11.980262 -21.682404 1.593263 0.000000 0.000000 0.000000 22.583446 -8.400836 2.411932 51.767276 18.586291 -0.777919 3.241471 29.193823 3.629301 0.000000 0.000000 0.000000 
-0.096054 0.981098 1.770270 4.524205 34.000790 3.970691 4.868637 -1.336183 -13.732607 -4.871532 -0.941149 18.078958 1.173708 8.457136 9.343803 0.000000 0.000000 0.000000 2.626605 0.723759 -6.136266 0.730318 -0.321361 6.976699 0.501876 0.632193 11.195212 0.000000 0.000000 0.000000 8.632773 -1.440858 8.236897 -5.174096 1.961554 -26.393327 1.195522 8.111773 32.371718 13.500644 -3.308650 -19.323640 0.000000 0.000000 0.000000 -18.258282 -4.304025 -7.503170 -51.462873 7.949680 -10.211924 -10.577283 -20.282935 1.402777 0.000000 0.000000 0.000000 23.124543 -7.953176 2.425443 51.633531 19.189289 -0.738839 3.546630 30.224299 3.900302 0.000000 0.000000 0.000000 
-0.076801 0.981446 1.783826 3.888209 26.677604 3.391133 4.643100 -1.070969 -12.048383 -2.119628 -0.358169 9.691319 -2.107424 3.793307 11.020596 0.000000 0.000000 0.000000 2.279228 0.629594 -5.250617 -0.091292 -0.006291 7.312528 2.643312 4.149824 10.566092 0.000000 0.000000 0.000000 8.551953 -1.353140 8.220177 -4.634995 1.839376 -26.518821 1.133771 9.913740 32.284910 12.735317 -3.017994 -19.912180 0.000000 0.000000 0.000000 -18.149289 -3.731556 -6.730938 -52.102626 8.831573 -11.003722 -10.235380 -19.646687 1.491902 0.000000 0.000000 0.000000 22.680049 -6.834790 2.254984 52.597892 19.281089 -0.392506 3.376164 30.582425 3.827717 0.000000 0.000000 0.000000 
-0.059454 0.981080 1.796714 3.621222 20.338976 2.608698 4.213413 -0.869795 -10.452641 -1.774159 -0.060050 5.044511 -6.276533 -3.741843 11.341704 0.000000 0.000000 0.000000 1.513570 0.392726 -3.349452 -0.981687 0.268123 6.103728 4.792318 7.878671 10.196580 0.000000 0.000000 0.000000 7.846628 -1.222458 8.438403 -3.999140 1.716235 -26.303010 0.841846 11.765086 32.178131 12.478548 -2.879012 -21.059111 0.000000 0.000000 0.000000 -17.903390 -4.412476 -5.516306 -52.433331 8.369783 -11.086818 -9.059852 -18.361864 1.377844 0.000000 0.000000 0.000000 25.033462 -7.330389 1.733613 51.065431 19.357270 -0.940474 4.562568 32.007921 4.336305 0.000000 0.000000 0.000000 
-0.043782 0.980845 1.808516 2.919985 14.190254 1.899333 3.996438 -0.757419 -9.692020 -1.737697 0.035924 3.537598 -8.600104 -7.040145 13.583464 0.000000 0.000000 0.000000 1.075472 0.227427 -2.024209 -1.531832 0.385568 4.906042 6.398944 10.007981 11.117029 0.000000 0.000000 0.000000 7.073558 -1.038049 8.164217 -2.422720 1.389600 -25.010283 -0.800876 12.327395 31.099789 13.104901 -3.794509 -21.319396 0.000000 0.000000 0.000000 -17.565518 -3.220677 -4.912437 -52.742047 7.205821 -10.892440 -8.696524 -17.853472 1.443691 0.000000 0.000000 0.000000 25.805940 -6.703293 1.194791 51.084258 18.936086 -1.005536 4.072290 32.709052 4.184216 0.000000 0.000000 0.000000 
-0.029651 0.979557 1.819201 1.882394 9.550790 1.859986 3.963843 -0.602532 -8.021847 -1.760466 0.075918 3.197039 -7.313205 -6.274877 12.334971 0.000000 0.000000 0.000000 0.766056 0.241356 -2.261424 -1.160149 0.334442 4.741607 7.140139 11.042742 10.894382 0.000000 0.000000 0.000000 6.755834 -0.900992 7.489246 -2.336998 1.315996 -24.732443 -0.607916 11.917651 30.619795 11.812719 -3.714632 -20.150628 0.000000 0.000000 0.000000 -17.579746 -3.479354 -3.809212 -53.120906 6.328253 -10.759878 -8.594976 -18.546288 1.631671 0.000000 0.000000 0.000000 26.371813 -6.433237 0.410722 50.880281 16.639452 -1.965718 4.888769 33.371430 4.419185 0.000000 0.000000 0.000000 
-0.016943 0.977962 1.828667 0.956957 5.359609 2.167855 3.925598 -0.471300 -6.383711 -1.697960 0.118266 2.121296 -5.676019 -3.659028 12.983660 0.000000 0.000000 0.000000 0.707898 0.274914 -2.656854 -0.785793 0.287581 4.725998 6.696139 10.080235 10.106448 0.000000 0.000000 0.000000 6.245552 -0.744878 6.550694 -1.820017 1.135504 -24.364396 -1.249903 10.709748 30.393043 10.963999 -3.701889 -20.342451 0.000000 0.000000 0.000000 -17.357636 -2.983692 -2.899305 -53.635898 5.291417 -10.668479 -8.340658 -20.438093 1.930808 0.000000 0.000000 0.000000 26.901708 -5.642059 -0.278320 50.706431 15.086115 -2.491903 5.635820 32.701321 4.289622 0.000000 0.000000 0.000000 
-0.006080 0.975944 1.836697 0.308780 2.057079 2.723767 3.654355 -0.347576 -4.511190 -1.729818 0.178171 0.115533 -3.766137 -0.958458 12.936009 0.000000 0.000000 0.000000 0.550001 0.307661 -3.045082 -0.255027 0.192300 4.086968 6.044486 8.019272 10.573447 0.000000 0.000000 0.000000 5.843150 -0.663149 6.040389 -1.914633 1.102370 -24.377691 -1.168964 9.695870 29.906872 10.481390 -3.809137 -20.537130 0.000000 0.000000 0.000000 -16.822095 -3.116347 -1.887834 -54.592687 2.898574 -9.974430 -7.739128 -21.785801 2.104756 0.000000 0.000000 0.000000 27.104908 -5.223982 -1.083294 51.174586 12.821897 -3.158735 5.029136 30.380051 3.547397 0.000000 0.000000 0.000000 
0.002848 0.975937 1.843573 -0.048395 -0.822656 3.134831 3.197304 -0.263586 -3.247446 -1.949188 0.225455 -0.624532 -2.362170 1.099654 13.317888 0.000000 0.000000 0.000000 -0.095178 0.315232 -3.162276 0.297549 0.097228 3.400060 4.762633 4.603407 11.240181 0.000000 0.000000 0.000000 5.177309 -0.572966 5.572362 -1.782190 1.025094 -24.584789 -1.632863 8.795554 29.854930 9.980534 -3.786453 -21.187606 0.000000 0.000000 0.000000 -16.354755 -3.183683 -1.046347 -54.200069 1.133552 -9.271233 -7.948230 -24.069619 2.530963 0.000000 0.000000 0.000000 27.789280 -4.936281 -1.928992 51.281953 10.011834 -4.113260 4.409374 28.126202 2.890897 0.000000 0.000000 0.000000 
0.010112 0.975820 1.849505 -0.371763 -2.822643 3.616329 2.877628 -0.184019 -2.076371 -1.928066 0.254877 -2.072761 -0.736727 3.473256 13.356697 0.000000 0.000000 0.000000 -0.562661 0.329261 -3.294238 1.332122 -0.067664 2.153934 3.308305 1.175723 11.663540 0.000000 0.000000 0.000000 4.923372 -0.523741 5.147921 -2.040795 1.048926 -24.389811 -1.587545 8.160814 29.307323 9.382340 -3.726197 -20.902544 0.000000 0.000000 0.000000 -15.849702 -3.759760 -0.235711 -54.169849 -1.274365 -8.229803 -7.705760 -25.529831 2.744270 0.000000 0.000000 0.000000 27.657267 -5.310395 -2.909116 51.833421 7.305561 -5.005300 4.308153 25.172907 2.394739 0.000000 0.000000 0.000000 
0.015747 0.975787 1.854738 -0.664457 -4.552585 4.211039 2.554062 -0.122384 -1.221096 -1.933314 0.279578 -3.113813 0.750123 5.785294 13.940270 0.000000 0.000000 0.000000 -0.832122 0.349175 -3.479055 1.556916 -0.108048 1.379045 2.088916 -1.793493 12.367956 0.000000 0.000000 0.000000 4.737976 -0.481165 4.696636 -2.052693 1.031514 -24.861851 -1.770293 7.335992 29.369260 8.862142 -3.700117 -20.897227 0.000000 0.000000 0.000000 -15.694062 -3.565347 0.156327 -53.927774 -2.421147 -7.767871 -8.202491 -28.108685 3.308184 0.000000 0.000000 0.000000 27.678346 -5.646604 -3.894865 51.865883 4.363747 -6.023003 4.245804 23.234326 2.064396 0.000000 0.000000 0.000000 
0.019945 0.976084 1.859306 -0.816377 -6.029696 4.305052 2.326960 -0.047004 -0.267388 -1.830371 0.291906 -3.953520 1.672877 7.007624 13.670170 0.000000 0.000000 0.000000 -1.368234 0.333528 -3.211753 2.278016 -0.202354 0.147403 1.608419 -3.340630 13.330073 0.000000 0.000000 0.000000 4.727884 -0.463296 4.500802 -2.239125 1.050471 -24.718428 -1.962547 6.401958 28.875846 8.321974 -3.600103 -21.057407 0.000000 0.000000 0.000000 -15.803289 -3.696209 0.638468 -53.712414 -3.463241 -7.271403 -8.370882 -29.169605 3.615771 0.000000 0.000000 0.000000 26.532654 -6.035947 -4.736450 53.054520 1.625803 -7.019248 3.455109 21.516530 1.676953 0.000000 0.000000 0.000000 
0.022987 0.976133 1.863379 -1.018969 -7.661922 4.517361 1.951867 0.017677 0.464849 -1.789883 0.307546 -4.584491 2.608703 8.322902 13.775996 0.000000 0.000000 0.000000 -1.527652 0.329890 -3.111157 2.326957 -0.219635 -0.946732 1.320669 -4.489560 14.211080 0.000000 0.000000 0.000000 4.649168 -0.416260 3.952743 -2.455960 1.073391 -24.598315 -2.048084 5.837598 28.601100 7.857083 -3.628550 -20.504602 0.000000 0.000000 0.000000 -15.467399 -3.428325 0.881013 -53.986630 -3.686136 -7.210874 -8.943504 -30.683279 4.110902 0.000000 0.000000 0.000000 26.279611 -6.442264 -5.577643 53.079230 -0.860889 -7.887852 3.884624 20.541362 1.588560 0.000000 0.000000 0.000000 
0.025134 0.975782 1.866809 -1.060943 -8.613549 4.593165 1.925541 0.091517 1.331158 -1.696056 0.326294 -5.558488 2.835166 8.576500 13.800402 0.000000 0.000000 0.000000 -2.184033 0.306133 -2.581391 2.936777 -0.276513 -2.342281 1.176612 -5.166539 14.912146 0.000000 0.000000 0.000000 4.734417 -0.387760 3.539450 -2.528723 1.074525 -24.524907 -2.164075 5.567670 28.524328 7.492700 -3.524577 -20.485418 0.000000 0.000000 0.000000 -15.397989 -3.345422 1.037255 -54.210524 -3.867212 -7.153873 -9.167714 -31.019493 4.297631 0.000000 0.000000 0.000000 25.957591 -7.072435 -6.258485 53.396319 -2.548073 -8.550647 3.758342 19.813146 1.471980 0.000000 0.000000 0.000000 
0.026796 0.974651 1.869442 -1.168369 -9.176441 4.675324 1.925055 0.135162 1.830710 -1.800608 0.353474 -6.219694 3.474143 9.623572 14.456387 0.000000 0.000000 0.000000 -2.660208 0.294127 -2.180389 3.107494 -0.289823 -3.234580 1.068453 -5.684475 15.540961 0.000000 0.000000 0.000000 4.943266 -0.370385 3.196277 -2.714327 1.105118 -24.380701 -2.409278 5.534818 28.347162 7.474269 -3.563910 -20.506542 0.000000 0.000000 0.000000 -15.340801 -3.468341 1.190556 -54.078636 -3.964360 -7.089788 -9.533909 -30.802402 4.392749 0.000000 0.000000 0.000000 26.197811 -7.480881 -6.718485 53.176144 -3.243630 -8.752813 3.823993 19.025123 1.398882 0.000000 0.000000 0.000000 
0.028177 0.973151 1.871339 -1.074848 -9.466773 4.692273 1.785605 0.179261 2.299904 -2.052754 0.388518 -6.819768 4.030494 10.477942 14.461870 0.000000 0.000000 0.000000 -3.151647 0.272121 -1.561380 3.440085 -0.307294 -4.145491 0.752222 -6.334388 15.733610 0.000000 0.000000 0.000000 4.994930 -0.340880 2.807040 -3.139202 1.200037 -24.252680 -2.181183 5.572950 28.481973 7.441251 -3.612535 -20.243049 0.000000 0.000000 0.000000 -15.883048 -3.567318 1.276859 -53.682319 -4.182433 -6.980680 -9.757474 -31.100019 4.516202 0.000000 0.000000 0.000000 26.270164 -7.590823 -6.856088 52.890020 -4.029418 -9.034186 4.142482 18.392180 1.382744 0.000000 0.000000 0.000000 
0.029394 0.971977 1.872590 -1.199740 -9.694349 4.740759 1.737002 0.209671 2.625452 -2.054098 0.403783 -7.359078 4.424974 11.127598 14.961260 0.000000 0.000000 0.000000 -3.453307 0.255729 -1.072523 3.620561 -0.312803 -4.905998 0.710606 -6.621763 16.250956 0.000000 0.000000 0.000000 5.252886 -0.326100 2.505294 -3.375770 1.249377 -24.011279 -1.981168 5.847370 28.385361 7.378630 -3.530773 -20.329078 0.000000 0.000000 0.000000 -16.591980 -3.413188 1.156946 -53.184772 -4.544742 -6.775874 -10.124433 -29.662206 4.360326 0.000000 0.000000 0.000000 26.433458 -7.867776 -7.032425 52.581834 -4.238976 -9.058236 4.000120 18.043299 1.332648 0.000000 0.000000 0.000000 
0.030447 0.970852 1.873424 -1.272275 -9.490217 4.667019 1.803600 0.220433 2.778215 -2.146696 0.413678 -7.556442 4.487910 11.253758 14.948221 0.000000 0.000000 0.000000 -3.602748 0.253767 -0.951584 3.815380 -0.321885 -4.971656 0.132747 -7.491619 16.052882 0.000000 0.000000 0.000000 5.379281 -0.321008 2.398456 -3.369122 1.249658 -23.888068 -1.938964 6.186472 28.448143 7.504008 -3.596097 -19.980198 0.000000 0.000000 0.000000 -17.614367 -3.712240 1.178906 -52.699300 -4.461567 -6.766263 -10.046574 -28.819902 4.154219 0.000000 0.000000 0.000000 26.816254 -7.734367 -6.844623 52.489137 -3.914149 -8.959695 3.880630 17.767136 1.306263 0.000000 0.000000 0.000000 
0.031428 0.969863 1.874028 -1.234295 -9.255717 4.467533 1.762045 0.258225 3.197456 -2.331582 0.437809 -8.108728 4.491552 11.302685 15.026921 0.000000 0.000000 0.000000 -3.534585 0.228869 -0.658978 3.526422 -0.314731 -4.804345 0.234144 -7.179019 15.746339 0.000000 0.000000 0.000000 5.379860 -0.313883 2.350942 -3.541783 1.292453 -23.543923 -1.727788 6.523393 28.454752 7.608672 -3.657499 -19.493584 0.000000 0.000000 0.000000 -17.798386 -3.350067 0.853170 -52.916116 -4.503035 -6.757647 -10.028283 -27.212209 3.865659 0.000000 0.000000 0.000000 27.100939 -7.867375 -6.800424 52.555044 -3.016022 -8.642220 3.827996 17.990297 1.336510 0.000000 0.000000 0.000000 
0.032381 0.969306 1.874566 -1.157475 -8.644298 4.429633 1.762523 0.278811 3.472029 -2.517107 0.455235 -8.594979 4.203643 10.940892 15.126810 0.000000 0.000000 0.000000 -3.714581 0.222986 -0.485242 3.794697 -0.331516 -4.858486 -0.072160 -7.569992 15.647967 0.000000 0.000000 0.000000 5.558123 -0.301551 2.135038 -3.991126 1.412811 -23.450789 -1.912941 6.411127 28.421306 8.201166 -3.984057 -19.753638 0.000000 0.000000 0.000000 -18.508201 -3.630626 0.902215 -52.627351 -3.531647 -7.129866 -9.388960 -25.800283 3.462810 0.000000 0.000000 0.000000 27.640250 -7.706227 -6.684041 53.057534 -3.086569 -8.785946 4.572702 19.039854 1.553166 0.000000 0.000000 0.000000 
0.033401 0.968636 1.874956 -1.174682 -8.045915 4.032851 2.027163 0.305476 3.913611 -2.860919 0.464893 -8.423738 4.320387 11.205119 15.152739 0.000000 0.000000 0.000000 -3.801964 0.218206 -0.463868 3.928008 -0.345017 -4.257309 -0.293405 -7.741773 15.288000 0.000000 0.000000 0.000000 5.713670 -0.327227 2.434004 -4.232933 1.485294 -23.817273 -1.579620 6.571015 29.023396 8.752644 -4.169812 -20.461985 0.000000 0.000000 0.000000 -18.569018 -3.811852 0.875150 -53.358845 -3.720652 -7.179095 -8.629167 -24.141035 3.041351 0.000000 0.000000 0.000000 27.801901 -7.589610 -6.391487 53.463366 -2.036687 -8.528996 4.893717 19.674378 1.697282 0.000000 0.000000 0.000000 
0.034408 0.968249 1.875241 -1.157472 -7.330318 3.908713 1.666715 0.318615 3.953879 -2.513195 0.444981 -8.648292 4.672588 11.941503 16.162959 0.000000 0.000000 0.000000 -3.674380 0.206567 -0.480749 4.222245 -0.368241 -3.638230 -1.171324 -8.729868 13.921177 0.000000 0.000000 0.000000 5.430989 -0.267568 1.867216 -4.197797 1.488545 -22.511968 -1.568483 6.615540 27.798572 10.169315 -4.983562 -20.439657 0.000000 0.000000 0.000000 -17.512409 -3.028756 0.306988 -54.856787 -1.949497 -7.989282 -8.594491 -24.195184 3.014662 0.000000 0.000000 0.000000 27.822816 -6.975089 -5.788347 54.536733 -0.465608 -7.954570 3.981062 19.545447 1.561869 0.000000 0.000000 0.000000 
0.035446 0.972464 1.875353 -1.446400 -5.966682 3.147629 2.118050 0.355695 4.706262 -2.343566 0.422685 -8.529840 3.853558 11.060612 17.494119 0.000000 0.000000 0.000000 -3.811847 0.074938 1.481659 4.955987 -0.411161 -5.490397 -0.808354 -8.505540 15.960331 0.000000 0.000000 0.000000 5.849406 -0.302212 2.235261 -4.577747 1.612755 -22.828788 -1.047297 7.075174 28.839926 10.913993 -5.143719 -21.423124 0.000000 0.000000 0.000000 -18.897461 -3.495567 0.140706 -53.795106 -3.375868 -7.274705 -8.018498 -20.878867 2.405348 0.000000 0.000000 0.000000 29.268762 -6.574129 -5.129136 53.460996 1.665059 -7.208449 3.684085 20.546661 1.672735 0.000000 0.000000 0.000000 
