HIERARCHY
ROOT Hips
{
	OFFSET -0.001795 -0.223333 0.028219
	CHANNELS 6 Xposition Yposition Zposition Zrotation Yrotation Xrotation 
	JOINT LeftUpLeg
	{
		OFFSET 0.069520 -0.091406 -0.006815
		CHANNELS 3 Zrotation Yrotation Xrotation
		JOINT LeftLeg
		{
			OFFSET 0.034277 -0.375199 -0.004496
			CHANNELS 3 Zrotation Yrotation Xrotation
			JOINT LeftFoot
			{
				OFFSET -0.013596 -0.397961 -0.043693
				CHANNELS 3 Zrotation Yrotation Xrotation
				JOINT LeftToe
				{
					OFFSET 0.026358 -0.055791 0.119288
					CHANNELS 3 Zrotation Yrotation Xrotation
					End Site
					{
						OFFSET 0.000000 0.000000 0.000000
					}
				}
			}
		}
	}
	JOINT RightUpLeg
	{
		OFFSET -0.067670 -0.090522 -0.004320
		CHANNELS 3 Zrotation Yrotation Xrotation
		JOINT RightLeg
		{
			OFFSET -0.038290 -0.382569 -0.008850
			CHANNELS 3 Zrotation Yrotation Xrotation
			JOINT RightFoot
			{
				OFFSET 0.015774 -0.398415 -0.042312
				CHANNELS 3 Zrotation Yrotation Xrotation
				JOINT RightToe
				{
					OFFSET -0.025372 -0.048144 0.123348
					CHANNELS 3 Zrotation Yrotation Xrotation
					End Site
					{
						OFFSET 0.000000 0.000000 0.000000
					}
				}
			}
		}
	}
	JOINT Spine
	{
		OFFSET -0.002533 0.108963 -0.026696
		CHANNELS 3 Zrotation Yrotation Xrotation
		JOINT Spine1
		{
			OFFSET 0.005487 0.135180 0.001092
			CHANNELS 3 Zrotation Yrotation Xrotation
			JOINT Spine2
			{
				OFFSET 0.001457 0.052922 0.025425
				CHANNELS 3 Zrotation Yrotation Xrotation
				JOINT Neck
				{
					OFFSET -0.002778 0.213870 -0.042857
					CHANNELS 3 Zrotation Yrotation Xrotation
					JOINT Head
					{
						OFFSET 0.005152 0.064970 0.051349
						CHANNELS 3 Zrotation Yrotation Xrotation
						End Site
						{
							OFFSET 0.000000 0.000000 0.000000
						}
					}
				}
				JOINT LeftShoulder
				{
					OFFSET 0.078845 0.121749 -0.034090
					CHANNELS 3 Zrotation Yrotation Xrotation
					JOINT LeftArm
					{
						OFFSET 0.090977 0.030469 -0.008868
						CHANNELS 3 Zrotation Yrotation Xrotation
						JOINT LeftForeArm
						{
							OFFSET 0.259612 -0.012772 -0.027456
							CHANNELS 3 Zrotation Yrotation Xrotation
							JOINT LeftHand
							{
								OFFSET 0.249234 0.008986 -0.001171
								CHANNELS 3 Zrotation Yrotation Xrotation
								End Site
								{
									OFFSET 0.000000 0.000000 0.000000
								}
							}
						}
					}
				}
				JOINT RightShoulder
				{
					OFFSET -0.081759 0.118833 -0.038615
					CHANNELS 3 Zrotation Yrotation Xrotation
					JOINT RightArm
					{
						OFFSET -0.096012 0.032551 -0.009143
						CHANNELS 3 Zrotation Yrotation Xrotation
						JOINT RightForeArm
						{
							OFFSET -0.253742 -0.013329 -0.021401
							CHANNELS 3 Zrotation Yrotation Xrotation
							JOINT RightHand
							{
								OFFSET -0.255298 0.007772 -0.005559
								CHANNELS 3 Zrotation Yrotation Xrotation
								End Site
								{
									OFFSET 0.000000 0.000000 0.000000
								}
							}
						}
					}
				}
			}
		}
	}
}
MOTION
Frames: 124
Frame Time: 0.050000
0.000000 0.967751 0.000000 -1.409014 -0.800414 4.941553 1.054440 -0.137442 -1.399095 -2.765529 0.327767 -2.481860 3.903903 12.562080 22.813505 0.000000 0.000000 0.000000 -1.064330 0.402793 -4.027748 1.236836 -0.060864 2.263034 -3.888446 -13.264778 17.427517 0.000000 0.000000 0.000000 4.276933 -0.689396 7.513921 -6.250263 1.996205 -25.773104 -1.834735 3.755542 26.137778 9.128424 -3.922193 -22.156372 0.000000 0.000000 0.000000 -23.631104 -8.167995 2.492127 -46.103950 -4.504463 -5.729034 0.205104 -23.753037 0.976961 0.000000 0.000000 0.000000 32.586475 -3.551773 -3.433966 50.101642 3.508957 -6.111097 1.587975 26.407710 1.770919 0.000000 0.000000 0.000000 
0.002892 0.966837 0.003570 -1.301791 -0.730733 5.570554 0.858834 -0.171560 -1.812232 -3.429880 0.385379 -2.428633 4.772911 13.598195 22.036471 0.000000 0.000000 0.000000 -1.420244 0.422159 -4.232549 1.319824 -0.080174 1.945142 -3.895037 -13.215480 17.088344 0.000000 0.000000 0.000000 4.038770 -0.614594 6.717916 -6.312868 1.985570 -26.403684 -1.899859 4.194142 26.741357 8.577329 -3.432098 -22.612083 0.000000 0.000000 0.000000 -23.656285 -7.371037 1.899880 -46.586798 -3.771458 -6.089574 0.709290 -24.149529 0.891527 0.000000 0.000000 0.000000 33.209654 -4.460388 -3.940270 51.162641 2.008412 -6.933057 2.305703 28.563038 2.195485 0.000000 0.000000 0.000000 
0.006241 0.965353 0.007267 -1.041409 0.103866 5.635585 0.760471 -0.204679 -2.208547 -3.865347 0.416586 -1.439204 4.184061 12.823055 21.081672 0.000000 0.000000 0.000000 -1.740366 0.355142 -3.465011 1.326780 -0.106269 1.157364 -4.501072 -14.048159 16.790285 0.000000 0.000000 0.000000 4.329867 -0.617219 6.407742 -7.325230 2.229052 -26.031234 -1.621065 3.505998 27.026350 8.501559 -3.578096 -21.720460 0.000000 0.000000 0.000000 -23.408803 -7.959871 2.313407 -46.754018 -3.502169 -6.243484 -0.359125 -23.018358 1.053784 0.000000 0.000000 0.000000 33.632482 -3.636929 -3.417334 51.094708 1.716372 -7.073365 2.766185 27.658503 2.194012 0.000000 0.000000 0.000000 
0.010180 0.965737 0.011096 -1.005613 0.105477 6.016020 0.113726 -0.243371 -2.669198 -3.640520 0.393475 -0.727862 4.860983 13.642121 20.435221 0.000000 0.000000 0.000000 -2.262248 0.392774 -3.887021 1.821001 -0.144689 1.927437 -4.488746 -13.959069 16.244272 0.000000 0.000000 0.000000 4.357138 -0.586101 5.936468 -7.813420 2.302144 -26.644614 -1.104573 4.430288 27.931988 9.089699 -3.820821 -21.845834 0.000000 0.000000 0.000000 -23.575242 -7.891835 1.997464 -46.639043 -2.149251 -6.714222 -0.572483 -23.828878 1.110446 0.000000 0.000000 0.000000 35.081596 -4.324768 -3.619940 50.102126 1.629860 -7.229559 3.294469 27.493305 2.354293 0.000000 0.000000 0.000000 
0.014972 0.965692 0.014891 -1.171975 0.696529 6.121570 0.104738 -0.263457 -2.903440 -3.887847 0.413087 -0.104272 4.917089 13.737926 19.940427 0.000000 0.000000 0.000000 -2.433934 0.389306 -3.857657 1.661878 -0.122516 2.164008 -4.232328 -13.510347 16.798790 0.000000 0.000000 0.000000 4.033540 -0.568847 6.002308 -7.234697 2.192541 -26.522828 -0.859162 4.903089 27.896968 9.555670 -4.034698 -21.631848 0.000000 0.000000 0.000000 -24.212454 -7.703249 1.543859 -46.425703 -1.893428 -6.681366 -1.239338 -23.463166 1.195231 0.000000 0.000000 0.000000 35.691775 -4.216904 -3.168623 49.395338 1.294590 -7.412009 3.740407 26.713107 2.388876 0.000000 0.000000 0.000000 
0.020654 0.966142 0.018429 -1.354441 0.604806 5.904107 -0.121194 -0.262132 -2.889383 -3.447794 0.364757 0.691509 4.317000 12.933731 20.052469 0.000000 0.000000 0.000000 -2.642058 0.434177 -4.449211 2.254224 -0.159093 4.111448 -4.902808 -14.618318 16.575626 0.000000 0.000000 0.000000 4.116823 -0.603117 6.386641 -7.443510 2.233560 -26.579999 -0.399864 5.205631 27.992832 9.609354 -3.999374 -21.771647 0.000000 0.000000 0.000000 -24.192579 -7.698571 1.456021 -47.251730 -1.555433 -6.907186 -2.155045 -23.151288 1.359573 0.000000 0.000000 0.000000 36.130207 -3.749779 -2.719606 49.256614 1.364825 -7.416574 3.620607 25.752564 2.251973 0.000000 0.000000 0.000000 
0.026736 0.966004 0.021986 -1.518877 0.749667 5.901797 0.051931 -0.223917 -2.470870 -3.561931 0.376873 0.451874 3.147283 11.330716 19.855944 0.000000 0.000000 0.000000 -3.036554 0.586539 -6.568948 3.135851 -0.241960 8.359883 -5.756704 -16.007280 16.373136 0.000000 0.000000 0.000000 4.237784 -0.663012 7.002379 -7.088828 2.161352 -26.562608 -0.563929 5.208640 27.836998 9.839311 -4.074092 -22.078124 0.000000 0.000000 0.000000 -24.357979 -7.602437 1.344027 -47.913734 -0.782189 -7.264070 -3.040324 -23.068541 1.530871 0.000000 0.000000 0.000000 35.959846 -3.233636 -2.278853 48.968037 1.318788 -7.380881 4.369898 25.254471 2.328018 0.000000 0.000000 0.000000 
0.032740 0.965621 0.026028 -1.659670 1.220101 5.338085 -0.375813 -0.110171 -1.284000 -3.321209 0.347084 0.460784 3.068690 10.956238 17.995201 0.000000 0.000000 0.000000 -3.668741 0.744310 -9.287320 4.535504 -0.536155 14.562865 -6.704163 -17.512434 16.140366 0.000000 0.000000 0.000000 4.329062 -0.738787 7.902796 -6.809978 2.145486 -25.791282 -0.819272 4.704125 27.721899 9.683695 -3.933360 -22.433062 0.000000 0.000000 0.000000 -24.828021 -7.697558 1.417258 -47.543436 -0.818105 -7.179965 -3.568208 -21.730800 1.537081 0.000000 0.000000 0.000000 35.734346 -2.792282 -2.011063 49.130783 2.301108 -6.993293 3.337644 24.570610 2.033113 0.000000 0.000000 0.000000 
0.037649 0.964907 0.031512 -1.891760 2.003994 4.214346 -0.051002 0.041902 0.445006 -3.801158 0.393162 0.290220 2.667964 10.335774 17.199913 0.000000 0.000000 0.000000 -4.013062 0.867179 -11.858588 5.615210 -0.976226 21.668242 -7.081076 -18.047710 16.156929 0.000000 0.000000 0.000000 4.349627 -0.878629 9.680656 -6.248444 2.053767 -25.600636 -1.375664 4.190881 28.017093 10.378249 -4.339586 -22.762609 0.000000 0.000000 0.000000 -25.507860 -8.494834 1.856044 -46.349312 -0.655436 -7.049962 -4.133939 -21.023084 1.577882 0.000000 0.000000 0.000000 34.898105 -3.024097 -2.083214 49.385105 3.527574 -6.583600 4.115582 24.331802 2.172918 0.000000 0.000000 0.000000 
0.041245 0.965106 0.039414 -2.329184 2.485187 3.163431 0.208352 0.177585 2.103006 -3.661774 0.374017 0.622336 2.350121 9.696545 16.084568 0.000000 0.000000 0.000000 -3.983029 1.054032 -15.199176 6.359632 -1.449511 27.720331 -6.879857 -17.677796 16.775974 0.000000 0.000000 0.000000 4.603028 -0.996891 10.817012 -5.965096 2.017182 -25.343262 -1.757609 2.698747 28.782804 9.936084 -4.133143 -23.586214 0.000000 0.000000 0.000000 -26.602957 -8.629799 2.349091 -45.266691 -0.453806 -7.108429 -4.554367 -20.528849 1.644528 0.000000 0.000000 0.000000 34.120620 -2.392289 -2.020926 50.067006 3.932654 -6.423954 4.560320 24.625649 2.272074 0.000000 0.000000 0.000000 
0.043541 0.965217 0.049973 -2.892735 2.286436 2.826116 0.486021 0.285176 3.535010 -3.288545 0.337337 0.354198 2.251173 9.323767 15.222047 0.000000 0.000000 0.000000 -3.325733 1.400396 -19.343718 7.265028 -1.886417 30.590147 -7.139248 -18.074657 14.460040 0.000000 0.000000 0.000000 4.864611 -1.054132 11.152176 -5.051005 1.820400 -24.974573 -2.605466 2.092207 28.837673 9.469665 -3.966707 -23.463660 0.000000 0.000000 0.000000 -26.556051 -9.171189 2.966347 -45.396139 -0.022274 -7.336684 -4.827569 -19.497843 1.615062 0.000000 0.000000 0.000000 33.377916 -2.025088 -2.019371 50.454934 3.591744 -6.475710 5.586333 24.746068 2.464811 0.000000 0.000000 0.000000 
0.045128 0.964760 0.063166 -3.190913 2.256167 3.031548 0.607193 0.386454 4.863556 -3.316912 0.341275 0.206771 2.378046 8.928731 12.813697 0.000000 0.000000 0.000000 -2.512792 1.766741 -22.780551 7.249158 -1.812120 29.253219 -6.341236 -16.602286 12.612109 0.000000 0.000000 0.000000 5.284867 -1.156568 11.666112 -5.373270 1.869296 -25.641176 -2.654624 0.766979 29.270147 9.147719 -3.922253 -24.050804 0.000000 0.000000 0.000000 -27.063428 -8.960433 3.391534 -44.608908 -0.631197 -7.201249 -4.859645 -18.623498 1.567623 0.000000 0.000000 0.000000 32.667259 -2.112298 -2.638531 50.648020 3.245626 -6.493991 6.560071 24.358789 2.562650 0.000000 0.000000 0.000000 
0.046388 0.962064 0.079058 -3.450243 2.188957 3.149969 0.303106 0.538419 6.445477 -2.920586 0.301948 0.032134 3.080430 9.405810 10.221211 0.000000 0.000000 0.000000 -1.786004 2.139432 -25.892518 7.647131 -1.758241 24.983257 -6.879156 -17.619624 14.386476 0.000000 0.000000 0.000000 5.500100 -1.221273 12.031562 -4.686878 1.706883 -25.947535 -3.472144 0.685609 29.595070 10.035234 -4.375907 -24.816145 0.000000 0.000000 0.000000 -26.651381 -9.121178 3.564754 -44.034337 -0.865858 -7.076800 -5.574871 -18.478813 1.662897 0.000000 0.000000 0.000000 32.642583 -2.855185 -3.256838 50.742483 3.136274 -6.531254 6.542070 24.624345 2.594700 0.000000 0.000000 0.000000 
0.047664 0.958101 0.098402 -3.755776 2.568979 3.028932 0.714718 0.642602 8.257912 -3.020159 0.308065 0.233551 2.934806 8.524780 7.675578 0.000000 0.000000 0.000000 -1.268476 2.399405 -28.128759 7.576948 -1.483188 18.356348 -6.550334 -17.147258 18.537737 0.000000 0.000000 0.000000 6.051283 -1.363106 12.674543 -4.692882 1.713247 -25.860794 -3.883898 0.114311 29.112045 10.781914 -4.855819 -24.939521 0.000000 0.000000 0.000000 -27.003335 -9.306378 3.763777 -42.895550 -1.504337 -6.668564 -6.392373 -18.734091 1.810170 0.000000 0.000000 0.000000 32.586873 -3.497852 -3.909622 50.675797 2.314342 -6.734683 7.139166 25.268628 2.778056 0.000000 0.000000 0.000000 
0.049112 0.951873 0.122012 -3.829772 2.855801 2.636950 0.706867 0.830376 10.770608 -2.882161 0.291419 0.323761 3.013584 7.892026 4.955085 0.000000 0.000000 0.000000 -0.947941 2.547312 -29.339202 7.326370 -1.183803 11.705524 -6.339330 -16.903749 22.321040 0.000000 0.000000 0.000000 6.441681 -1.452305 13.050681 -5.035166 1.791327 -26.105853 -3.899578 0.251835 29.793845 10.767909 -4.494998 -26.787683 0.000000 0.000000 0.000000 -27.065413 -10.349469 4.331183 -42.618955 -2.764119 -6.248137 -6.204396 -19.717155 1.872706 0.000000 0.000000 0.000000 33.063391 -4.175545 -4.309359 50.669137 1.504936 -7.147510 6.459339 25.993918 2.757341 0.000000 0.000000 0.000000 
0.050989 0.944264 0.150489 -3.619741 3.833289 2.522892 0.610129 0.984303 13.023046 -3.353499 0.333314 0.290886 3.708494 8.657165 3.194370 0.000000 0.000000 0.000000 -1.088690 2.463469 -29.822398 7.209310 -0.994923 5.701513 -6.535029 -17.099129 25.493525 0.000000 0.000000 0.000000 7.226389 -1.464671 12.131348 -5.953216 2.023277 -25.604226 -4.050611 -0.386835 30.302469 10.850538 -4.534382 -26.951460 0.000000 0.000000 0.000000 -26.098771 -10.709507 4.578868 -43.282602 -4.257586 -5.920908 -5.829534 -20.752283 1.925032 0.000000 0.000000 0.000000 33.431376 -4.180052 -4.319700 50.515544 1.404246 -7.226182 5.624577 25.238915 2.499028 0.000000 0.000000 0.000000 
0.053331 0.936637 0.184357 -3.000376 4.102789 2.328990 -0.346215 1.291093 15.292296 -2.296488 0.215573 0.913273 3.347063 7.794959 2.645098 0.000000 0.000000 0.000000 -1.214221 2.448314 -30.463623 7.325935 -0.926140 2.641651 -7.614402 -18.550907 27.366327 0.000000 0.000000 0.000000 7.223747 -1.445938 12.019823 -5.792555 2.008746 -25.350351 -4.752581 -0.478637 29.792395 9.902063 -4.124052 -25.868652 0.000000 0.000000 0.000000 -25.856282 -10.728583 4.532297 -43.852191 -5.270930 -5.613022 -5.622445 -23.365404 2.158039 0.000000 0.000000 0.000000 33.316261 -4.609150 -4.599657 50.547149 1.357555 -7.217808 4.725804 23.955155 2.172169 0.000000 0.000000 0.000000 
0.056074 0.928865 0.224272 -2.319866 5.774797 2.601929 -0.241658 1.332990 16.992568 -2.350689 0.187666 2.380683 2.547035 6.055093 2.092676 0.000000 0.000000 0.000000 -1.537667 2.199423 -30.350867 6.965698 -0.909866 2.757057 -8.039946 -18.788589 28.750473 0.000000 0.000000 0.000000 7.852518 -1.488837 11.496419 -6.282802 2.123332 -25.881668 -5.218074 -1.043265 29.742986 10.547399 -4.424772 -25.889166 0.000000 0.000000 0.000000 -25.982159 -10.607894 4.236926 -43.953042 -5.360632 -5.520516 -6.495997 -24.598551 2.453703 0.000000 0.000000 0.000000 33.254719 -5.243048 -4.830918 51.014013 0.998565 -7.461080 3.494173 22.361264 1.802829 0.000000 0.000000 0.000000 
0.057951 0.924336 0.269705 -1.284815 7.066385 2.991878 -0.768367 1.400339 17.348633 -2.040446 0.071927 5.395317 1.978188 6.116765 5.006203 0.000000 0.000000 0.000000 -2.131269 1.870891 -29.180435 7.150250 -1.037715 4.997350 -8.148327 -18.687456 29.416185 0.000000 0.000000 0.000000 8.215288 -1.404979 10.310456 -6.250956 2.171537 -25.070751 -6.403401 -1.457244 28.279072 11.377694 -4.815672 -25.814068 0.000000 0.000000 0.000000 -25.904966 -9.361483 3.187529 -44.100123 -4.851895 -5.493173 -7.041126 -25.989127 2.700217 0.000000 0.000000 0.000000 34.355631 -6.266338 -5.642280 50.150010 -0.333915 -7.743053 2.227005 22.862345 1.624574 0.000000 0.000000 0.000000 
0.058159 0.925783 0.318460 -1.217318 6.798968 2.942902 0.465702 1.152103 16.711018 -2.821801 0.061702 10.800231 -0.128166 4.685555 10.844154 0.000000 0.000000 0.000000 -1.918317 1.911058 -28.340529 8.488851 -1.496209 9.653314 -8.872720 -19.766985 27.262156 0.000000 0.000000 0.000000 9.056869 -1.370361 9.319920 -6.727143 2.317629 -24.188127 -5.739875 -1.566891 26.968170 11.027522 -4.734709 -25.055740 0.000000 0.000000 0.000000 -26.959232 -8.680431 2.773652 -43.616842 -4.706790 -5.372629 -8.258491 -26.629606 3.057613 0.000000 0.000000 0.000000 34.006354 -6.003331 -5.571470 49.728235 -0.368285 -7.540560 1.217242 22.882040 1.414158 0.000000 0.000000 0.000000 
0.056072 0.935095 0.365340 -1.893129 6.843510 3.105389 2.968238 0.564143 13.249646 -4.290854 0.163466 19.471203 -3.110613 3.127579 18.893213 0.000000 0.000000 0.000000 -0.311172 2.161053 -26.257497 7.786055 -1.412643 10.935874 -8.867852 -19.766304 26.965176 0.000000 0.000000 0.000000 10.313026 -1.469864 8.939090 -6.227030 2.140441 -25.394832 -5.574715 -0.768176 27.179505 9.403799 -3.704403 -24.495178 0.000000 0.000000 0.000000 -27.563009 -7.973577 1.996438 -42.811653 -3.866690 -5.487319 -9.342702 -27.217557 3.356724 0.000000 0.000000 0.000000 33.123170 -5.364856 -4.593833 49.344273 1.056695 -7.085400 1.666658 21.307542 1.378726 0.000000 0.000000 0.000000 
0.052965 0.943840 0.406085 -2.115232 7.455166 2.503013 6.100275 -0.058833 5.765460 -7.410400 0.810325 33.554351 -4.814733 4.018120 28.062523 0.000000 0.000000 0.000000 0.585826 2.038642 -22.351978 7.851845 -1.420194 10.137937 -9.732257 -20.809153 27.274308 0.000000 0.000000 0.000000 10.558252 -1.718274 10.479829 -6.417700 2.136953 -26.557154 -4.038503 -0.133203 26.887632 9.353544 -3.353674 -25.308637 0.000000 0.000000 0.000000 -27.863153 -8.934249 2.161614 -43.041322 -3.438469 -5.480292 -9.842230 -28.299764 3.573688 0.000000 0.000000 0.000000 31.243478 -4.870326 -3.560953 49.797396 2.028056 -6.844100 2.750375 21.551391 1.604667 0.000000 0.000000 0.000000 
0.050727 0.951881 0.442592 -1.882549 6.822122 1.575171 7.948629 -0.293791 -1.789983 -10.422095 2.219884 43.727058 -2.159308 8.201457 32.955295 0.000000 0.000000 0.000000 1.529837 1.811839 -17.510850 6.809942 -1.099173 8.231278 -8.456149 -19.277825 24.877830 0.000000 0.000000 0.000000 10.137294 -1.884184 12.254640 -6.826248 2.145022 -28.066703 -2.765496 1.974449 27.902499 10.674986 -3.793023 -25.975206 0.000000 0.000000 0.000000 -27.536361 -9.869370 2.148925 -42.592171 -3.848841 -5.198929 -10.051304 -28.921570 3.631898 0.000000 0.000000 0.000000 32.125856 -4.151284 -2.310351 48.347863 4.749270 -6.051792 2.388939 22.403073 1.669378 0.000000 0.000000 0.000000 
0.049812 0.959191 0.477194 -1.060777 5.506610 1.177921 8.477385 -0.389218 -8.061996 -12.548592 3.762815 46.571135 2.387508 12.029343 27.127164 0.000000 0.000000 0.000000 1.585306 1.462435 -13.607785 6.264713 -0.905662 6.593145 -7.581807 -18.305578 23.100967 0.000000 0.000000 0.000000 8.796442 -1.835937 13.560816 -6.902075 2.122703 -28.691165 -1.365926 3.897732 27.923516 10.770768 -3.742973 -25.729066 0.000000 0.000000 0.000000 -28.490948 -10.643737 2.167577 -41.114286 -3.992791 -4.834216 -9.805901 -29.308821 3.556278 0.000000 0.000000 0.000000 33.126018 -2.693683 -0.828192 46.298050 6.753469 -5.375537 1.706239 23.325593 1.616605 0.000000 0.000000 0.000000 
0.049976 0.964512 0.510602 -0.643388 4.175036 0.787079 9.073803 -0.435599 -13.700476 -13.068797 4.361923 45.453574 4.760596 13.462636 17.461397 0.000000 0.000000 0.000000 1.413768 1.100356 -10.170947 5.668696 -0.738759 5.045029 -5.684128 -15.752912 22.885891 0.000000 0.000000 0.000000 8.068415 -1.795726 14.389721 -7.427477 2.210221 -28.966317 0.005648 5.583463 27.874203 10.110438 -3.236198 -25.416877 0.000000 0.000000 0.000000 -28.537406 -11.075535 2.113258 -40.690332 -4.164082 -4.628952 -9.913355 -29.154616 3.518885 0.000000 0.000000 0.000000 32.736831 -1.997147 0.037536 45.485142 8.919365 -4.664585 1.900317 24.404818 1.753210 0.000000 0.000000 0.000000 
0.051048 0.967167 0.543456 -0.203812 2.079920 0.383717 8.858130 -0.486015 -19.154042 -11.803958 3.972353 41.292078 5.580467 14.359197 16.538582 0.000000 0.000000 0.000000 1.389023 0.722928 -6.694309 5.039882 -0.590963 4.314384 -3.927606 -13.141984 19.506447 0.000000 0.000000 0.000000 6.756269 -1.638777 15.192457 -7.267166 2.144935 -29.455375 0.938754 7.500454 28.282291 9.818862 -2.819018 -26.166255 0.000000 0.000000 0.000000 -28.973286 -10.924392 1.764032 -39.909878 -4.069974 -4.516964 -9.833604 -29.350289 3.494082 0.000000 0.000000 0.000000 32.420458 -1.003858 1.033430 44.862428 11.533234 -3.857440 1.728441 25.781496 1.852766 0.000000 0.000000 0.000000 
0.053022 0.967434 0.576457 -0.019191 0.036163 0.062191 8.763518 -0.449415 -23.107695 -9.290063 2.702105 33.123068 5.339559 13.937629 17.405392 0.000000 0.000000 0.000000 1.347915 0.372146 -3.603915 4.194053 -0.434670 4.212918 -2.009919 -9.696011 15.874766 0.000000 0.000000 0.000000 6.131687 -1.562196 15.884861 -7.029721 2.101228 -29.199160 1.507116 9.423433 27.823554 9.351873 -2.356558 -26.324111 0.000000 0.000000 0.000000 -29.414498 -11.072671 1.542054 -39.397071 -3.935369 -4.352497 -10.392160 -29.043088 3.563961 0.000000 0.000000 0.000000 33.190816 -0.532089 1.597350 43.278206 13.542986 -3.189274 2.838393 26.110835 2.083377 0.000000 0.000000 0.000000 
0.055710 0.966285 0.610585 -0.053942 -2.130222 -0.285142 8.855015 -0.285358 -25.560327 -6.622007 1.505694 23.665277 3.844593 11.913854 19.960448 0.000000 0.000000 0.000000 1.488895 0.091911 -1.169666 2.926561 -0.217738 4.967480 -0.365335 -6.408053 13.280014 0.000000 0.000000 0.000000 5.455166 -1.445012 16.356427 -7.042876 2.087526 -29.331534 2.389441 10.247926 28.135448 8.985120 -2.076016 -27.205879 0.000000 0.000000 0.000000 -30.221329 -10.838189 1.573477 -38.832923 -3.872386 -4.364709 -10.700253 -29.532770 3.740449 0.000000 0.000000 0.000000 32.974977 0.516640 2.102198 42.806026 15.262339 -2.546530 3.330371 26.813257 2.219458 0.000000 0.000000 0.000000 
0.058777 0.963352 0.647051 -0.179438 -5.527513 -0.448359 9.303147 0.123583 -26.435978 -5.003409 0.899241 13.796961 3.066602 10.540280 21.549016 0.000000 0.000000 0.000000 1.272930 -0.196627 1.475513 2.163704 -0.075018 5.028368 1.061238 -3.215337 10.727772 0.000000 0.000000 0.000000 4.751862 -1.253700 16.310389 -6.180017 1.900310 -28.406546 2.505179 12.592555 27.342603 9.115144 -2.049928 -27.281441 0.000000 0.000000 0.000000 -30.679348 -10.576112 1.250272 -38.648546 -3.295003 -4.393136 -11.022471 -29.461719 3.802206 0.000000 0.000000 0.000000 33.990092 1.112848 2.575586 41.386747 16.064556 -2.260287 5.250097 27.254034 2.646490 0.000000 0.000000 0.000000 
0.061962 0.959155 0.686703 -0.342995 -8.419869 -0.616346 9.845771 0.520650 -26.092674 -3.593894 0.479028 3.826733 1.917436 8.644191 22.554259 0.000000 0.000000 0.000000 0.740916 -0.507613 5.073948 1.802202 -0.011239 4.819425 1.645037 -0.250931 6.596771 0.000000 0.000000 0.000000 4.212588 -1.076140 15.737641 -5.829440 1.788469 -27.846436 2.883445 14.231805 27.434806 9.193788 -1.998373 -27.938949 0.000000 0.000000 0.000000 -30.736987 -9.732400 0.782004 -38.441143 -3.383987 -4.367102 -11.093603 -29.656294 3.856062 0.000000 0.000000 0.000000 34.757225 1.540673 2.819751 41.938265 16.894575 -1.987121 4.786235 26.352190 2.437921 0.000000 0.000000 0.000000 
0.065418 0.953314 0.730145 -0.598037 -11.478257 -0.651782 10.826178 1.005707 -24.911740 -3.145291 0.436045 -3.945741 2.130658 8.580937 23.828001 0.000000 0.000000 0.000000 -0.080549 -0.617046 7.842682 1.131130 0.140307 5.886301 2.324404 3.203258 3.295768 0.000000 0.000000 0.000000 3.371535 -0.884830 15.410120 -5.537327 1.667336 -28.141597 3.464700 16.156834 27.640804 9.879195 -2.478711 -27.438403 0.000000 0.000000 0.000000 -30.926193 -9.527660 0.702363 -38.302119 -2.871816 -4.543263 -10.327810 -29.088833 3.596047 0.000000 0.000000 0.000000 36.116643 1.019845 2.411605 41.321609 17.227505 -1.955702 6.712979 26.132544 2.816135 0.000000 0.000000 0.000000 
0.069592 0.946804 0.778101 -0.764188 -13.728497 -1.567615 10.490094 1.063410 -23.653701 -2.701422 0.416244 -5.035831 1.273963 7.033290 23.597930 0.000000 0.000000 0.000000 -1.173160 -0.649452 12.000637 0.832918 0.185109 5.791006 2.497141 4.375740 2.135415 0.000000 0.000000 0.000000 3.070548 -0.792390 15.393079 -5.727605 1.665706 -27.670953 3.590194 17.052346 27.898260 10.230435 -2.511826 -29.030695 0.000000 0.000000 0.000000 -30.046264 -8.932403 0.668976 -39.048398 -3.154451 -4.686394 -9.534817 -27.525858 3.229300 0.000000 0.000000 0.000000 37.572651 1.519118 2.532039 41.887713 17.310238 -1.882384 5.125114 24.650196 2.278207 0.000000 0.000000 0.000000 
0.074983 0.940881 0.830320 -0.875532 -16.442507 -1.832480 10.397007 1.218652 -22.795655 -3.573792 0.508187 -2.620379 1.150872 6.732350 25.514845 0.000000 0.000000 0.000000 -3.106736 -0.270422 15.026939 0.464170 0.322877 7.171005 3.393377 7.387231 1.025433 0.000000 0.000000 0.000000 2.449942 -0.644091 14.738066 -6.041622 1.687170 -27.750806 4.317908 18.035812 28.102070 11.101895 -3.365193 -27.704848 0.000000 0.000000 0.000000 -29.898988 -8.872616 1.009792 -39.708958 -2.626891 -5.048159 -6.661071 -25.645636 2.398358 0.000000 0.000000 0.000000 39.035069 1.847246 2.386423 41.546302 16.582488 -2.040496 3.966524 23.086096 1.854106 0.000000 0.000000 0.000000 
0.081898 0.940157 0.885394 -0.985360 -17.658036 -1.337131 10.134353 1.320802 -23.728291 -3.980022 0.620214 1.940039 0.348509 6.347850 29.937248 0.000000 0.000000 0.000000 -5.197036 0.254771 16.722382 -0.189701 0.587989 9.549013 5.598630 10.099667 3.675119 0.000000 0.000000 0.000000 1.272502 -0.463716 13.429750 -5.557157 1.540399 -26.618476 5.602730 18.673544 27.710063 11.036343 -2.867230 -30.290425 0.000000 0.000000 0.000000 -30.435602 -8.998072 1.089949 -39.630477 -1.306391 -5.349466 -5.192884 -23.749797 1.915694 0.000000 0.000000 0.000000 39.746318 2.183220 2.471222 40.030948 15.350428 -2.309164 4.584298 22.051667 1.812788 0.000000 0.000000 0.000000 
0.089478 0.946447 0.941117 -0.734095 -18.227034 -0.755503 8.891477 0.963356 -22.943990 -4.006840 0.685934 4.003590 0.020396 5.648622 28.965853 0.000000 0.000000 0.000000 -6.123773 0.484858 15.896411 -0.877739 1.216065 14.981352 6.519831 7.644852 8.635183 0.000000 0.000000 0.000000 0.929245 -0.406034 12.399817 -6.108161 1.660805 -26.506645 6.303845 19.378102 27.670760 10.505528 -2.340877 -31.331288 0.000000 0.000000 0.000000 -30.414184 -8.383263 0.542598 -40.001376 -1.920084 -5.165985 -2.122263 -20.550804 1.109227 0.000000 0.000000 0.000000 38.461311 1.704172 2.261789 41.048965 14.849617 -2.489647 2.806038 20.551072 1.406157 0.000000 0.000000 0.000000 
0.096352 0.957438 0.995549 -0.176201 -18.871980 -0.108660 6.780467 0.418372 -22.238580 -3.315360 0.605575 5.502394 -2.110179 2.571180 27.288861 0.000000 0.000000 0.000000 -7.275726 0.641796 11.852713 0.475036 1.854623 23.026817 6.783439 3.226734 15.332979 0.000000 0.000000 0.000000 0.837871 -0.383314 12.046330 -4.989314 1.415987 -27.479776 5.236250 22.394777 27.669605 10.173417 -1.487234 -32.822194 0.000000 0.000000 0.000000 -28.319174 -8.551547 -0.207479 -42.646863 -1.526161 -5.395934 -0.335548 -19.809222 0.697017 0.000000 0.000000 0.000000 38.230577 1.112178 3.138998 43.313234 15.421997 -2.699439 1.313217 20.229426 1.225138 0.000000 0.000000 0.000000 
0.099577 0.964385 1.045924 0.898657 -18.759760 -0.113352 3.885244 -0.337251 -20.303085 -1.899418 0.330191 5.931320 -4.367751 -0.611397 26.097186 0.000000 0.000000 0.000000 -7.787429 0.635383 7.986603 1.568276 2.735889 31.621714 4.829521 -2.346079 19.708374 0.000000 0.000000 0.000000 1.462127 -0.451679 12.463590 -7.466533 1.990908 -27.556019 5.300002 24.684859 26.096732 9.717072 -0.784561 -33.155578 0.000000 0.000000 0.000000 -26.206501 -9.489291 -0.366323 -43.947926 -0.999190 -5.408199 3.329254 -21.977519 -0.060353 0.000000 0.000000 0.000000 37.108364 0.116537 3.422787 44.781447 16.505901 -2.464141 0.208208 21.297738 1.207060 0.000000 0.000000 0.000000 
0.097600 0.968398 1.089688 2.618504 -17.689028 -0.873873 -0.014707 -1.173823 -18.842672 0.221003 -0.094163 8.526713 -6.616424 -4.220125 23.425018 0.000000 0.000000 0.000000 -8.658556 0.641750 2.296897 5.287395 2.957729 44.114093 2.057406 -7.436751 23.378364 0.000000 0.000000 0.000000 0.888403 -0.385115 13.953287 -7.014725 1.925308 -27.405733 3.979731 26.773636 25.234511 10.905859 -0.695773 -34.817505 0.000000 0.000000 0.000000 -24.460347 -10.058945 -0.876115 -42.545903 -3.246761 -4.165081 5.513806 -25.190059 -0.790508 0.000000 0.000000 0.000000 34.017953 1.019648 5.076158 45.934062 18.754607 -1.649344 -2.374129 21.662732 0.853547 0.000000 0.000000 0.000000 
0.088220 0.964088 1.124255 4.304099 -16.695465 -1.284727 -2.555094 -1.675154 -18.939791 0.553544 -0.148120 11.845477 -6.585499 -5.610277 18.946959 0.000000 0.000000 0.000000 -10.305512 0.773222 -4.797425 12.370971 0.354237 56.983918 -1.994993 -12.802305 24.816340 0.000000 0.000000 0.000000 0.673298 -0.349530 16.084337 -7.996415 2.162000 -30.453862 4.294254 27.629657 26.524636 11.216817 -0.456831 -36.147804 0.000000 0.000000 0.000000 -22.471727 -11.409139 -0.283644 -41.516724 -6.534047 -2.995477 6.159818 -30.006695 -1.347457 0.000000 0.000000 0.000000 31.741127 2.215845 6.362221 43.559511 23.395079 -0.249207 -2.180552 23.578484 0.991358 0.000000 0.000000 0.000000 
0.069838 0.952440 1.148180 5.288036 -14.863379 -2.007643 -3.833904 -2.057315 -20.394634 0.849837 -0.138943 18.896564 -6.691894 -7.786390 12.865773 0.000000 0.000000 0.000000 -11.258627 0.779901 -8.277647 20.565496 -5.659953 64.724044 -6.814458 -18.445841 19.466003 0.000000 0.000000 0.000000 1.658310 -0.528299 17.410328 -8.649644 2.351550 -28.302679 1.581842 28.674783 23.404009 11.960938 -0.355844 -36.765225 0.000000 0.000000 0.000000 -18.232541 -14.017290 1.039781 -38.519702 -10.922371 -1.233531 14.943716 -36.668795 -5.330825 0.000000 0.000000 0.000000 27.377613 5.469064 8.470221 38.971130 28.156178 1.322288 -4.960894 25.096223 0.452663 0.000000 0.000000 0.000000 
0.038943 0.937753 1.160428 5.791317 -14.433353 -4.219888 -3.862014 -2.192927 -21.942206 0.710338 0.209782 26.954414 -5.694913 -7.312837 9.592797 0.000000 0.000000 0.000000 -13.366874 0.773267 -12.930296 28.379292 -12.736520 71.847947 -12.205505 -26.762315 13.741821 0.000000 0.000000 0.000000 2.921383 -0.736663 20.949448 -9.643231 2.590020 -28.920471 1.411619 29.036902 24.217034 11.111565 0.322774 -38.282957 0.000000 0.000000 0.000000 -13.931567 -17.471582 3.306242 -32.234234 -16.786353 0.139934 30.414302 -39.703898 -12.452127 0.000000 0.000000 0.000000 21.175839 10.484504 10.053268 31.528649 34.878900 2.725570 -11.157234 27.062204 -0.926575 0.000000 0.000000 0.000000 
-0.007689 0.926846 1.161405 6.255342 -14.991255 -5.800476 -1.525531 -1.584895 -19.384394 0.051248 0.599741 27.755245 -5.023576 -8.364043 4.382593 0.000000 0.000000 0.000000 -14.686754 0.849800 -20.168413 33.463817 -19.135559 79.566794 -15.645665 -33.563027 9.815162 0.000000 0.000000 0.000000 3.021225 -0.690086 24.467834 -9.027028 2.466727 -28.220253 -0.629942 29.609324 22.311236 12.927904 -0.643846 -36.761778 0.000000 0.000000 0.000000 -8.181896 -16.878991 3.836509 -23.306911 -20.262251 0.301342 44.640702 -37.853479 -18.586244 0.000000 0.000000 0.000000 12.260315 15.498633 9.807854 19.328596 40.133922 2.311245 -16.827161 25.881759 -2.242902 0.000000 0.000000 0.000000 
-0.070833 0.933522 1.153512 5.869999 -17.360837 -7.190203 1.990793 -0.707061 -14.380811 0.788012 0.246017 22.886720 -6.164960 -8.399689 9.569720 0.000000 0.000000 0.000000 -16.416606 1.091285 -27.318420 34.657208 -21.125592 84.541733 -19.377732 -39.382565 11.765242 0.000000 0.000000 0.000000 2.805739 -0.477834 25.655267 -7.045397 1.966016 -26.754353 -1.243864 30.390722 21.127836 13.634290 -1.571614 -33.260410 0.000000 0.000000 0.000000 -0.331095 -12.725559 3.722795 -15.712235 -23.423285 -0.258232 50.432874 -33.360289 -19.652673 0.000000 0.000000 0.000000 1.458352 21.046730 8.257399 2.122354 43.487014 -0.852180 -16.662360 19.838477 -1.785247 0.000000 0.000000 0.000000 
-0.147295 0.955940 1.139496 4.185393 -18.477938 -6.936924 7.961556 0.315418 -9.318935 1.197871 -0.217853 14.093302 -8.236712 -8.685578 17.521653 0.000000 0.000000 0.000000 -15.644580 1.460499 -29.882836 30.429688 -16.907155 86.791338 -18.693177 -41.814683 4.715658 0.000000 0.000000 0.000000 3.967868 -0.670497 26.677566 -7.287384 1.979671 -27.772281 0.574639 30.438641 21.055217 14.083799 -2.413382 -30.371387 0.000000 0.000000 0.000000 4.561506 -8.780622 3.463748 -8.507970 -21.603714 -0.945995 55.317169 -35.236645 -23.439044 0.000000 0.000000 0.000000 -5.373125 22.275523 6.207413 -14.586790 45.176091 -5.232909 -16.413207 14.344801 -1.206804 0.000000 0.000000 0.000000 
-0.231979 0.988892 1.120269 2.692758 -17.373621 -4.760627 10.225914 0.526770 -7.129073 3.852270 -0.746956 4.666793 -7.001149 -3.233603 27.722819 0.000000 0.000000 0.000000 -16.460909 1.283202 -31.254230 24.732748 -11.262478 83.893819 -16.306597 -36.798446 5.934817 0.000000 0.000000 0.000000 4.506290 -0.934163 25.429943 -6.253790 1.749799 -27.022628 -1.171409 30.226122 18.490619 18.147926 -6.434306 -23.717712 0.000000 0.000000 0.000000 12.957580 -6.317411 4.466205 -3.822438 -16.691597 -1.042270 60.303818 -37.015193 -28.310594 0.000000 0.000000 0.000000 -11.056960 20.378551 3.899137 -25.010271 43.903717 -7.380788 -19.756734 11.828689 -1.110208 0.000000 0.000000 0.000000 
-0.318468 1.015261 1.095662 1.456441 -14.790763 -2.869578 10.462163 0.485341 -9.958822 2.377775 -0.572277 7.386088 -4.173617 0.969961 28.423798 0.000000 0.000000 0.000000 -17.231059 0.750515 -27.673547 18.837603 -5.658470 72.060090 -12.370729 -29.042463 6.249408 0.000000 0.000000 0.000000 3.479174 -0.915902 24.841358 -8.088475 2.195375 -27.997618 1.971104 26.491686 20.192627 15.483356 -5.437179 -22.383741 0.000000 0.000000 0.000000 15.697196 -2.774487 3.914406 3.670613 -10.370242 -0.627863 63.336958 -35.826012 -28.579037 0.000000 0.000000 0.000000 -16.371090 18.337222 1.975384 -29.245175 37.406296 -6.443405 -23.697562 6.996169 -0.509433 0.000000 0.000000 0.000000 
-0.403090 1.024965 1.068376 0.335242 -11.612709 -1.660929 8.906955 0.153653 -11.189294 -1.384868 0.220475 14.252585 -9.551583 -5.201108 27.689611 0.000000 0.000000 0.000000 -17.144056 0.383536 -24.887217 13.643057 -2.702790 59.562714 -8.110900 -20.732593 14.284038 0.000000 0.000000 0.000000 1.850384 -0.770549 24.683272 -6.332780 1.838104 -29.366799 3.469782 22.624676 23.093368 13.677216 -4.890127 -21.333629 0.000000 0.000000 0.000000 18.015552 -0.525796 3.435733 6.123968 -5.065694 0.084827 51.211158 -28.832500 -18.130004 0.000000 0.000000 0.000000 -19.018078 12.038619 0.039038 -31.549079 31.887527 -4.959008 -24.129480 3.854205 0.029609 0.000000 0.000000 0.000000 
-0.485579 1.020399 1.043415 -3.050899 -10.259378 0.770279 8.745273 0.057862 -11.589720 -6.098590 1.808588 20.088679 -21.481201 -16.130056 33.678195 0.000000 0.000000 0.000000 -16.636210 0.368698 -24.010657 9.012375 -0.664496 45.165794 -3.026383 -14.200905 25.338329 0.000000 0.000000 0.000000 2.724188 -1.083540 23.598405 -4.404086 1.475934 -32.706048 4.429868 20.887285 27.859858 10.592309 -3.372398 -19.691036 0.000000 0.000000 0.000000 20.215674 3.318859 2.676810 6.844824 -3.220043 0.408372 36.913689 -19.630792 -8.918754 0.000000 0.000000 0.000000 -17.132415 6.338905 -0.941787 -27.298320 23.054600 -1.727003 -28.536995 5.495541 -0.279728 0.000000 0.000000 0.000000 
-0.565765 0.998281 1.023188 -6.044001 -9.603921 1.201915 6.277275 -0.218478 -9.518412 -6.465163 2.185158 24.077276 -17.346241 -14.283608 28.313719 0.000000 0.000000 0.000000 -18.029152 0.145458 -23.024857 7.500617 -0.513500 32.561851 -2.324288 -14.227300 31.195452 0.000000 0.000000 0.000000 2.679537 -1.144361 23.211950 -3.340118 1.284257 -32.699248 5.887132 17.884813 29.243973 10.659628 -4.631173 -16.473211 0.000000 0.000000 0.000000 20.875727 5.269972 1.821396 7.250115 -1.008952 0.797411 24.346167 -15.620830 -4.223852 0.000000 0.000000 0.000000 -11.687495 1.922491 -0.847747 -22.008670 13.601358 0.432277 -28.624121 7.143649 -0.752116 0.000000 0.000000 0.000000 
-0.645006 0.961807 1.009212 -8.398315 -9.763803 2.235207 8.408199 -0.008630 -9.271174 -9.302877 3.607831 27.324946 -3.315148 -1.212230 13.710105 0.000000 0.000000 0.000000 -20.265477 -0.064499 -22.642014 4.866834 0.027100 22.650266 -0.501208 -12.635569 34.485449 0.000000 0.000000 0.000000 2.354463 -1.060422 21.753290 -0.722395 0.899698 -33.931262 6.855727 19.983606 31.601077 9.223770 -3.355741 -15.830688 0.000000 0.000000 0.000000 18.684946 5.835881 1.630878 6.981247 -2.524877 0.556300 19.652025 -11.500791 -2.632211 0.000000 0.000000 0.000000 -4.744996 -4.208773 -2.179098 -15.165850 6.571240 1.611043 -23.467163 5.255578 -0.138636 0.000000 0.000000 0.000000 
-0.725673 0.917700 1.000030 -9.939188 -8.648588 1.451162 12.587888 0.438465 -10.269341 -7.050035 3.108258 33.593327 1.625526 3.410677 -0.159112 0.000000 0.000000 0.000000 -21.768856 -0.246157 -19.888757 1.400463 0.590536 16.450557 0.278852 -11.903123 36.351030 0.000000 0.000000 0.000000 2.684456 -1.183519 21.527804 -0.419779 0.771974 -32.597882 4.676382 17.663741 30.482638 9.991566 -3.420539 -19.544681 0.000000 0.000000 0.000000 12.021841 6.857171 0.004282 7.190479 -4.819417 0.291784 21.007677 -10.675810 -2.515344 0.000000 0.000000 0.000000 2.379222 -7.749490 -2.931846 -8.344535 0.689097 1.494235 -16.619221 3.237248 0.119213 0.000000 0.000000 0.000000 
-0.809198 0.882576 0.994172 -9.582856 -7.639487 0.680293 15.881781 0.926259 -12.529753 -4.772524 2.375095 41.004841 5.114571 9.188328 -8.283859 0.000000 0.000000 0.000000 -23.832838 -0.381914 -17.145606 1.137010 0.594534 16.011013 2.228124 -9.559046 37.028241 0.000000 0.000000 0.000000 3.318658 -1.325319 21.059492 -3.342775 1.265265 -33.523707 3.454701 15.523614 31.758417 8.905048 -2.416683 -22.480922 0.000000 0.000000 0.000000 5.241023 3.466827 -0.424689 4.250129 -9.089505 -0.383642 29.007790 -11.808559 -3.881681 0.000000 0.000000 0.000000 12.158296 -11.693982 -4.678517 -1.072914 -1.537877 0.311543 -12.017255 2.810490 0.101422 0.000000 0.000000 0.000000 
-0.893026 0.859840 0.989575 -9.986196 -8.430138 -0.162900 19.923803 1.793279 -14.423415 0.389140 -0.112812 47.645697 3.789039 6.417669 -6.111099 0.000000 0.000000 0.000000 -22.440780 -0.212748 -16.903494 3.890411 0.201197 21.972098 2.701923 -8.299211 33.568954 0.000000 0.000000 0.000000 2.816615 -1.261710 22.855960 -3.528927 1.286387 -32.981389 -0.269902 14.599897 28.209302 7.943375 -1.644787 -24.366321 0.000000 0.000000 0.000000 -3.619874 1.872590 -1.339362 0.361375 -14.912557 -1.052961 36.267233 -19.483873 -7.166385 0.000000 0.000000 0.000000 20.702644 -12.680158 -6.006166 8.171599 -2.848536 -1.558541 -9.243106 4.164744 0.050896 0.000000 0.000000 0.000000 
-0.969555 0.849440 0.982417 -11.071929 -11.986849 -1.615075 23.045651 3.093269 -16.272787 6.971402 -3.539818 57.015190 0.109261 0.971190 1.920251 0.000000 0.000000 0.000000 -16.496168 0.449419 -19.398345 3.732425 1.011977 29.740244 2.999040 -6.591611 26.645360 0.000000 0.000000 0.000000 2.887847 -1.164726 25.886714 -6.731767 1.831297 -36.580350 -0.825534 10.667254 28.741874 7.395732 -2.015661 -26.799200 0.000000 0.000000 0.000000 -9.904962 -2.254769 0.189132 -7.899909 -16.560383 -1.249507 44.743749 -33.277714 -13.679559 0.000000 0.000000 0.000000 24.262249 -12.500252 -7.896867 18.492576 -5.176150 -3.584803 -9.372914 6.764365 -0.085604 0.000000 0.000000 0.000000 
-1.028559 0.842281 0.975061 -13.052041 -15.813121 -2.502431 25.098031 4.522884 -18.298991 14.012204 -8.148585 65.192171 -3.988054 -4.028287 8.489160 0.000000 0.000000 0.000000 -10.031950 1.374765 -21.003403 2.525256 2.742003 37.090087 4.015904 -2.428074 18.709082 0.000000 0.000000 0.000000 2.435534 -0.848328 27.941230 -6.172105 1.701513 -35.906551 -2.781765 8.348353 26.395688 6.783850 -1.965112 -29.355344 0.000000 0.000000 0.000000 -15.982620 -6.930083 2.909040 -10.387777 -22.004062 -1.198503 49.343794 -42.009073 -18.490948 0.000000 0.000000 0.000000 26.638740 -12.242886 -9.637519 26.208172 -10.803910 -5.644271 -9.459163 10.944916 -0.315722 0.000000 0.000000 0.000000 
-1.066599 0.838788 0.969675 -12.950995 -20.919831 -2.918528 23.967206 5.298513 -19.672609 16.081299 -8.061619 70.787734 -3.837407 -3.063278 10.011271 0.000000 0.000000 0.000000 -5.865130 2.221452 -22.234587 0.180890 5.431924 41.497267 4.694477 3.082560 10.514999 0.000000 0.000000 0.000000 1.231465 -0.092893 29.456065 -4.958866 1.532852 -36.550907 -4.268341 4.051657 26.426416 7.058546 -3.313793 -30.261827 0.000000 0.000000 0.000000 -19.683540 -9.754998 6.460675 -9.996590 -25.554025 -1.460602 51.498836 -45.992958 -20.361818 0.000000 0.000000 0.000000 26.362023 -10.021672 -10.505638 29.955849 -13.557262 -6.627785 -11.133163 14.015118 -0.801825 0.000000 0.000000 0.000000 
-1.085400 0.840386 0.966782 -13.720985 -24.939669 -3.619486 21.163602 5.132750 -20.265506 14.252916 -4.603033 77.878442 -2.369092 -3.814915 2.273534 0.000000 0.000000 0.000000 -2.494449 2.673927 -21.505420 -2.167351 7.597332 42.528024 5.825846 8.527587 6.646154 0.000000 0.000000 0.000000 1.378695 0.354509 31.680245 -3.132186 1.396736 -38.494582 -5.967294 0.267407 28.970817 6.154511 -3.790156 -32.476104 0.000000 0.000000 0.000000 -17.537333 -13.823424 9.705529 -11.441836 -28.318720 -1.494092 55.474556 -46.345681 -21.514667 0.000000 0.000000 0.000000 27.687597 -10.296721 -13.165326 27.650173 -13.966321 -5.836090 -11.954745 19.456514 -1.569801 0.000000 0.000000 0.000000 
-1.086420 0.849004 0.966349 -13.782531 -29.148754 -2.889387 19.675114 5.148550 -19.803458 10.727545 1.751695 77.488265 -3.388171 -10.284564 -5.048323 0.000000 0.000000 0.000000 -1.285603 2.998255 -21.678430 -4.954258 8.450142 38.281864 10.172123 12.949870 11.725708 0.000000 0.000000 0.000000 -0.102159 1.332196 32.589583 0.132219 1.214560 -39.552668 -6.401712 -2.453722 30.028900 6.276941 -4.285699 -36.440510 0.000000 0.000000 0.000000 -17.804023 -16.605718 12.512898 -10.499438 -31.442622 -1.588803 49.224801 -45.772079 -17.923583 0.000000 0.000000 0.000000 26.847545 -8.478952 -13.757051 26.924740 -11.708289 -4.806492 -15.242465 22.673254 -2.844596 0.000000 0.000000 0.000000 
-1.072210 0.865547 0.968123 -13.534463 -34.391402 -1.774216 18.113422 4.845427 -17.625044 7.017370 8.225396 72.573256 -0.152883 -3.802087 -8.130610 0.000000 0.000000 0.000000 -0.214284 3.192751 -21.326920 -8.545718 8.667935 32.155988 13.993889 13.617632 17.770791 0.000000 0.000000 0.000000 -0.275848 2.047641 32.851945 4.017889 0.792614 -38.124147 -7.400790 -3.384060 28.724031 5.909904 -4.641859 -36.601090 0.000000 0.000000 0.000000 -15.076737 -17.697739 12.782712 -15.993147 -33.456099 -0.510795 44.990258 -44.609019 -14.792773 0.000000 0.000000 0.000000 27.991359 -5.542734 -14.022455 21.982394 -8.884036 -2.933876 -17.679751 24.079892 -3.739626 0.000000 0.000000 0.000000 
-1.047016 0.889064 0.971498 -12.516009 -41.423198 -0.718969 18.077686 4.591596 -12.050732 5.424533 11.196325 63.514998 2.612755 4.598852 -5.350708 0.000000 0.000000 0.000000 -1.603876 3.094734 -20.929601 -8.164228 6.792321 26.137911 14.910480 10.520348 20.635789 0.000000 0.000000 0.000000 -1.921479 2.995935 31.302307 5.826427 0.175204 -34.989388 -6.299551 -2.101705 27.770696 3.357779 -3.986038 -35.569669 0.000000 0.000000 0.000000 -15.218375 -18.228881 13.738500 -17.974622 -33.808024 -0.164584 36.338643 -45.316291 -11.363051 0.000000 0.000000 0.000000 28.246648 -3.602509 -14.200840 20.777318 -6.491336 -2.155253 -20.497016 26.849360 -5.098844 0.000000 0.000000 0.000000 
-1.014969 0.911875 0.975393 -11.153978 -43.977878 0.993538 16.537191 3.502854 -6.975913 2.823723 9.758815 49.830177 4.131979 8.765428 1.990303 0.000000 0.000000 0.000000 -4.706584 3.165080 -22.005227 -4.671204 3.937191 20.524497 14.294793 2.962846 26.683970 0.000000 0.000000 0.000000 -2.280387 3.203319 30.388988 9.834123 0.557906 -36.627968 -11.120908 -3.161973 31.111433 5.504063 -6.041848 -35.450765 0.000000 0.000000 0.000000 -17.157248 -13.795038 13.103085 -20.777298 -35.921292 0.012059 27.944293 -44.732760 -7.455894 0.000000 0.000000 0.000000 28.966239 -0.474094 -14.299284 19.131769 -4.506132 -1.515775 -18.110929 26.220599 -4.436979 0.000000 0.000000 0.000000 
-0.981444 0.924954 0.980139 -10.333211 -47.501176 2.049907 12.692684 2.317002 -3.453157 1.765088 7.903486 39.678896 5.636654 11.213620 5.997040 0.000000 0.000000 0.000000 -7.474797 4.074384 -26.045985 -0.725193 3.443079 21.975985 13.378969 -0.399881 29.106733 0.000000 0.000000 0.000000 -1.235893 3.270558 30.538427 6.293939 0.764124 -36.139282 -9.497303 -2.553368 32.857643 2.416643 -5.200851 -33.777040 0.000000 0.000000 0.000000 -14.227481 -15.622402 13.032939 -25.671940 -34.742452 1.055432 19.771170 -45.592202 -4.207695 0.000000 0.000000 0.000000 31.770033 -0.701278 -16.927678 18.685809 -6.777869 -1.585286 -18.327692 30.721853 -5.236477 0.000000 0.000000 0.000000 
-0.953116 0.926253 0.985875 -9.668796 -45.466763 1.920521 11.246229 1.823045 -3.267368 0.955114 6.468431 35.705421 5.617897 11.296939 5.385336 0.000000 0.000000 0.000000 -11.144508 4.753332 -30.617159 5.768092 3.844596 31.075591 8.512255 -4.228298 26.181792 0.000000 0.000000 0.000000 -0.908916 3.399457 32.220243 8.345527 0.748664 -36.698917 -13.316912 -3.375538 33.752485 2.759985 -5.634370 -31.538567 0.000000 0.000000 0.000000 -15.840049 -14.117259 12.802773 -27.928349 -31.986737 0.405594 17.346494 -48.759160 -3.314538 0.000000 0.000000 0.000000 32.731459 1.155710 -15.796786 18.596658 -10.584856 -2.104121 -12.934819 30.995570 -3.563473 0.000000 0.000000 0.000000 
-0.935020 0.923175 0.993562 -9.181875 -42.202801 0.969140 10.278893 1.443003 -2.392043 1.552833 5.168186 34.727169 3.231411 7.529667 -0.910315 0.000000 0.000000 0.000000 -11.260994 4.990806 -32.855086 12.959442 3.145636 40.434688 2.645520 -9.265761 21.570524 0.000000 0.000000 0.000000 0.913593 2.877732 34.155531 4.107605 0.679241 -36.419145 -12.380741 -6.187470 33.984724 2.189119 -5.560399 -29.082375 0.000000 0.000000 0.000000 -18.757953 -14.418960 14.322444 -26.671097 -28.943138 -0.797382 15.911662 -48.348645 -3.168325 0.000000 0.000000 0.000000 32.313404 0.978727 -15.669364 19.067638 -15.126616 -2.840165 -7.047144 28.823395 -1.733161 0.000000 0.000000 0.000000 
-0.927552 0.920127 1.003919 -8.844062 -37.731287 0.597669 9.537513 1.109037 -3.113216 1.927092 3.817327 33.654645 3.417540 7.894694 -1.477543 0.000000 0.000000 0.000000 -9.846825 4.640289 -32.328568 16.440926 1.635643 43.676337 0.394731 -9.949044 16.819463 0.000000 0.000000 0.000000 1.451341 2.225410 34.346738 2.270223 0.619209 -35.526052 -12.525264 -5.726114 33.878596 5.481710 -6.486812 -31.653622 0.000000 0.000000 0.000000 -23.226987 -15.334308 16.138636 -22.288230 -25.362785 -2.156357 21.336284 -48.397337 -6.278384 0.000000 0.000000 0.000000 32.571406 -0.091657 -14.912906 21.615859 -19.158870 -4.238133 -1.580945 25.356251 -0.198689 0.000000 0.000000 0.000000 
-0.928762 0.922214 1.017034 -7.735976 -34.161641 -0.153281 9.573904 0.970894 -3.369189 1.495304 3.237409 33.010127 1.967568 4.493961 0.473196 0.000000 0.000000 0.000000 -5.255751 4.610113 -30.380733 13.823219 2.313618 44.951121 -1.205870 -10.560430 12.152964 0.000000 0.000000 0.000000 1.220516 1.837311 34.072192 1.533932 0.652048 -35.764683 -13.348916 -4.410864 34.578445 8.357439 -7.743651 -29.921025 0.000000 0.000000 0.000000 -24.181406 -14.242600 15.014491 -22.818501 -22.419845 -2.647945 22.208924 -49.733079 -6.915997 0.000000 0.000000 0.000000 32.575169 -0.027602 -13.212663 23.383604 -21.545439 -5.417837 3.048292 23.025635 0.800624 0.000000 0.000000 0.000000 
-0.936599 0.930234 1.032622 -6.877979 -29.164666 0.505710 8.854423 0.662095 -2.749930 2.106661 1.631399 29.813705 1.048252 2.453141 0.059319 0.000000 0.000000 0.000000 -1.704096 3.512899 -24.461367 8.648357 2.522720 37.864119 -0.747620 -7.446782 7.872724 0.000000 0.000000 0.000000 1.673052 0.867989 31.686618 -1.966822 0.965237 -33.934841 -10.977218 -4.693334 32.541390 5.886027 -5.579955 -29.806661 0.000000 0.000000 0.000000 -24.724707 -12.792843 13.666619 -23.662070 -19.342986 -2.949900 17.987378 -52.136973 -5.180462 0.000000 0.000000 0.000000 31.862888 -1.478739 -12.891910 27.313796 -24.250453 -7.191742 6.608895 23.309889 1.469230 0.000000 0.000000 0.000000 
-0.948064 0.941848 1.049970 -5.362925 -25.023803 1.779882 8.312795 0.434220 -3.544019 1.297128 1.163082 27.357097 0.617895 1.873472 3.260271 0.000000 0.000000 0.000000 0.524341 2.492619 -18.683224 1.824534 3.002349 29.218683 0.841767 -3.792861 7.391482 0.000000 0.000000 0.000000 1.668975 0.322002 29.576311 -4.524103 1.332349 -32.576767 -8.875176 -2.495848 29.555569 5.999475 -4.865490 -27.208447 0.000000 0.000000 0.000000 -26.644628 -12.891389 12.996633 -23.829132 -16.073975 -3.194560 11.481248 -51.191598 -2.292605 0.000000 0.000000 0.000000 32.177924 -1.665077 -11.188298 35.206158 -23.844923 -9.769687 5.811958 26.531494 1.603301 0.000000 0.000000 0.000000 
-0.958981 0.952787 1.066939 -4.289989 -20.292656 2.966925 7.945025 0.225600 -6.785870 2.185196 0.456253 29.203902 -1.370456 -0.819622 7.877015 0.000000 0.000000 0.000000 0.152920 1.930337 -16.035016 -0.381263 2.509379 24.263860 0.908036 -5.159209 10.381093 0.000000 0.000000 0.000000 2.029956 -0.261748 27.504772 -6.258381 1.742175 -33.580040 -6.214669 2.230620 31.301747 4.196576 -2.437917 -29.057446 0.000000 0.000000 0.000000 -27.883945 -12.239347 10.651694 -25.937092 -15.323945 -3.207751 3.426155 -49.089699 1.317994 0.000000 0.000000 0.000000 33.562746 -2.587042 -9.032758 41.138325 -15.975852 -9.964421 5.928483 25.648443 1.899160 0.000000 0.000000 0.000000 
-0.966844 0.962330 1.084019 -3.722000 -13.261256 2.956731 8.701767 0.113992 -10.210212 1.702454 -0.095899 32.175682 -2.379304 -0.775894 11.812854 0.000000 0.000000 0.000000 -1.420932 1.185700 -11.716669 1.593279 0.960262 18.962277 -1.170082 -9.408332 13.246796 0.000000 0.000000 0.000000 2.420889 -0.877757 26.000237 -7.539645 1.984773 -30.994810 -3.420427 5.249730 29.109451 4.579745 -1.353376 -28.198137 0.000000 0.000000 0.000000 -32.441249 -11.545219 7.633018 -25.854776 -12.034322 -2.936787 -2.189749 -46.368959 3.099242 0.000000 0.000000 0.000000 34.546853 -0.911105 -4.494097 44.020309 -5.991958 -8.120098 5.501255 25.068749 2.092973 0.000000 0.000000 0.000000 
-0.970668 0.968981 1.102994 -1.656279 -6.268114 3.000147 8.765489 -0.110398 -16.367734 -3.167928 1.027231 32.597910 0.450359 7.150922 22.176167 0.000000 0.000000 0.000000 -4.298607 0.653863 -7.400924 3.253272 0.029011 14.249309 -2.255104 -11.065890 15.941949 0.000000 0.000000 0.000000 1.813030 -1.134573 25.332788 -8.224143 2.209981 -29.633938 -1.372236 9.262284 28.194055 4.473140 0.158347 -28.185108 0.000000 0.000000 0.000000 -33.085299 -10.617145 2.903433 -27.820843 -9.378641 -2.479027 -8.242867 -42.795493 4.719605 0.000000 0.000000 0.000000 34.849765 -1.036354 -0.692426 43.198494 5.557781 -5.275695 6.576862 24.304423 2.483288 0.000000 0.000000 0.000000 
-0.970859 0.971247 1.124561 -0.675896 -0.879433 2.641802 9.017999 -0.354547 -20.613377 -7.694045 1.975540 28.451876 4.484187 13.004854 20.232437 0.000000 0.000000 0.000000 -5.288895 0.329653 -3.107882 3.566506 -0.273387 10.145117 -3.975689 -13.738322 19.876041 0.000000 0.000000 0.000000 1.771688 -1.429718 25.287718 -8.294242 2.204218 -31.144685 0.499371 15.060610 29.780884 6.574860 0.475891 -27.792044 0.000000 0.000000 0.000000 -33.256860 -11.776813 -0.809303 -28.004751 -6.033980 -2.073793 -13.106044 -38.330587 5.335713 0.000000 0.000000 0.000000 34.761736 -1.821748 3.050375 40.854088 16.982885 -2.995060 5.629171 25.632663 2.699409 0.000000 0.000000 0.000000 
-0.967021 0.970269 1.149522 -0.275740 2.721481 2.983299 8.710000 -0.681973 -23.028176 -8.607605 1.562889 18.586930 6.752884 16.235410 17.019175 0.000000 0.000000 0.000000 -6.081310 0.060008 1.563002 4.225933 -0.476619 5.583955 -4.097976 -13.490935 21.066038 0.000000 0.000000 0.000000 2.101087 -1.594576 23.635529 -10.143132 2.575454 -30.483539 2.445250 19.512537 30.108958 8.732138 0.355170 -27.677025 0.000000 0.000000 0.000000 -30.600305 -11.210470 -3.939468 -31.361036 -3.130015 -2.291078 -14.690091 -33.572784 4.665260 0.000000 0.000000 0.000000 33.723709 -0.968466 6.560334 39.320421 25.275438 -1.252282 2.551337 28.211500 2.486820 0.000000 0.000000 0.000000 
-0.958212 0.966284 1.178649 -0.582723 7.339355 2.622442 7.164656 -1.253389 -23.445257 -6.376212 0.680022 7.605167 8.833699 19.921313 22.124681 0.000000 0.000000 0.000000 -5.282779 -0.338817 6.151947 4.766265 -0.621180 3.433093 -6.205762 -16.093465 20.982419 0.000000 0.000000 0.000000 1.876202 -1.690949 22.683612 -9.919485 2.610563 -29.624279 3.246658 22.636346 29.488884 11.400503 -0.532134 -26.036743 0.000000 0.000000 0.000000 -29.121292 -10.374446 -6.889928 -32.584051 -0.195759 -2.452200 -13.860181 -29.693441 3.562656 0.000000 0.000000 0.000000 32.947030 -0.910028 8.808517 36.632934 30.148991 -0.392227 -0.615828 29.799015 1.926245 0.000000 0.000000 0.000000 
-0.943747 0.961257 1.211766 -0.477008 10.845675 1.956813 6.218228 -1.519810 -22.403599 -4.935726 0.410786 0.702311 10.646137 22.577082 30.104390 0.000000 0.000000 0.000000 -4.517850 -0.810756 10.171106 4.150795 -0.562830 2.476579 -8.379252 -19.033760 22.516507 0.000000 0.000000 0.000000 2.101673 -1.778097 21.600070 -12.193926 2.962016 -29.904403 5.322548 23.612229 30.648429 13.907294 -1.441056 -26.835042 0.000000 0.000000 0.000000 -25.942560 -9.651073 -7.505647 -35.548141 2.786711 -3.633611 -12.266606 -28.504082 2.718586 0.000000 0.000000 0.000000 32.234817 -1.977018 9.036918 35.661227 33.141009 0.190492 -2.931709 31.854762 1.648805 0.000000 0.000000 0.000000 
-0.923230 0.956143 1.248550 -0.750975 14.257416 0.941070 4.727032 -1.671151 -20.279968 -4.193322 0.310687 -1.844013 12.143188 24.330127 34.427166 0.000000 0.000000 0.000000 -4.501455 -1.349407 14.104063 4.510445 -0.670269 2.697597 -9.145318 -19.704165 25.047824 0.000000 0.000000 0.000000 1.016283 -1.526537 20.110274 -11.754340 3.008730 -28.821125 6.294005 24.093796 30.830233 14.838261 -1.712079 -26.381464 0.000000 0.000000 0.000000 -24.706916 -8.457012 -8.813426 -37.273159 4.777569 -4.362397 -11.021157 -26.983006 2.087375 0.000000 0.000000 0.000000 32.105449 -1.495438 10.367723 33.242898 35.116879 0.235820 -4.302894 32.413210 1.203735 0.000000 0.000000 0.000000 
-0.897194 0.953480 1.287281 -0.527617 17.204239 1.069689 3.570418 -1.786388 -19.190453 -5.498559 0.344637 -0.851122 13.307104 25.694085 32.721838 0.000000 0.000000 0.000000 -5.079270 -1.613164 15.771147 4.506024 -0.784602 5.677780 -8.655871 -18.496346 27.008361 0.000000 0.000000 0.000000 0.386099 -1.144104 16.759729 -12.021962 3.407444 -25.705184 5.668991 23.845790 29.874436 15.771697 -2.398092 -25.266366 0.000000 0.000000 0.000000 -23.503446 -8.506424 -8.923393 -38.336379 6.358876 -4.943340 -9.616911 -25.993529 1.573555 0.000000 0.000000 0.000000 32.592682 -1.383959 11.304087 34.092933 35.866220 0.447345 -5.425582 32.060436 0.918339 0.000000 0.000000 0.000000 
-0.867713 0.956388 1.324913 -0.561736 21.201266 0.936407 1.682824 -1.882202 -17.659316 -5.336214 0.285171 0.404740 11.662132 24.582247 29.957871 0.000000 0.000000 0.000000 -6.033703 -1.607054 14.996944 5.574762 -1.577659 12.863535 -7.329465 -15.905274 30.746529 0.000000 0.000000 0.000000 -0.644186 -0.929194 15.359240 -11.577719 3.293983 -25.960624 6.354387 22.484605 31.686683 14.817359 -1.760499 -24.433271 0.000000 0.000000 0.000000 -24.161305 -9.032522 -9.536182 -37.636543 7.120005 -4.928715 -8.892879 -26.881858 1.425295 0.000000 0.000000 0.000000 33.883871 -1.920451 12.062172 34.588001 35.503131 -0.139402 -5.147983 32.311740 1.048250 0.000000 0.000000 0.000000 
-0.837459 0.960463 1.359400 -0.893911 24.021218 0.767064 0.837173 -1.655252 -15.324815 -6.612813 0.293531 1.176286 11.109039 24.078166 25.859505 0.000000 0.000000 0.000000 -7.302485 -1.161167 10.797907 6.947816 -3.701208 24.008801 -5.978497 -13.860646 33.530370 0.000000 0.000000 0.000000 -0.818209 -0.886127 14.675070 -11.238152 3.131002 -26.713547 7.015960 21.761837 32.294907 13.856197 -1.331477 -22.898181 0.000000 0.000000 0.000000 -23.921172 -9.364655 -9.775640 -37.423676 7.141856 -4.824952 -10.424227 -26.986472 1.709052 0.000000 0.000000 0.000000 34.268620 -2.993014 11.851645 37.675998 33.006990 -0.518764 -2.796432 34.100597 1.961997 0.000000 0.000000 0.000000 
-0.808719 0.965357 1.390277 -1.121435 27.899030 0.637940 -0.481327 -1.454474 -13.181940 -6.357593 0.212080 2.126992 8.537412 21.381322 22.171748 0.000000 0.000000 0.000000 -7.724243 -0.879619 6.333606 6.741485 -6.089401 32.767851 -4.508831 -11.560650 32.742771 0.000000 0.000000 0.000000 -0.484315 -0.915024 14.017430 -11.170375 3.209312 -25.837230 5.852597 19.198347 31.104792 12.514792 -0.762791 -21.889242 0.000000 0.000000 0.000000 -24.050878 -9.145957 -9.853557 -36.361367 6.870091 -4.541558 -11.744281 -27.708157 2.083476 0.000000 0.000000 0.000000 35.269338 -3.599898 11.679170 40.473545 30.634977 -0.979394 -2.269170 34.214625 2.231828 0.000000 0.000000 0.000000 
-0.780909 0.970237 1.418206 -1.791623 31.497412 -0.733694 -1.151142 -0.986584 -9.776162 -5.412566 0.115932 2.328479 5.307408 17.710634 20.014905 0.000000 0.000000 0.000000 -7.757721 -0.786743 3.168144 5.212911 -7.430416 37.691881 -4.612515 -11.051851 26.966893 0.000000 0.000000 0.000000 0.305479 -1.168150 14.835446 -10.773280 3.101693 -26.257848 4.803061 16.569149 31.032330 12.059203 -0.636577 -21.473955 0.000000 0.000000 0.000000 -24.578106 -8.906527 -10.177109 -36.022402 6.357968 -4.283247 -10.844224 -28.196956 1.922709 0.000000 0.000000 0.000000 35.191062 -3.994514 11.360409 43.141953 28.720359 -1.328304 -0.892339 33.818156 2.716469 0.000000 0.000000 0.000000 
-0.753512 0.974561 1.443471 -2.630313 35.451775 -1.527957 -1.468526 -0.612692 -7.006481 -4.546455 0.025903 2.528394 1.994949 13.394472 17.348067 0.000000 0.000000 0.000000 -7.041382 -0.648163 -0.462181 2.514263 -7.414194 39.409377 -3.968529 -9.206090 20.728054 0.000000 0.000000 0.000000 0.982594 -1.281478 14.557392 -10.024968 2.999235 -26.066142 4.154256 14.200387 30.789438 11.429763 -0.355883 -20.709182 0.000000 0.000000 0.000000 -25.743201 -9.713373 -10.565627 -35.480764 6.374866 -3.955027 -10.237214 -28.715127 1.838945 0.000000 0.000000 0.000000 35.364498 -4.748476 11.052132 44.190349 25.899770 -2.333073 0.248353 33.447699 3.046136 0.000000 0.000000 0.000000 
-0.726355 0.978338 1.465913 -3.551527 39.174464 -2.750162 -2.011379 -0.289378 -4.285623 -3.040567 -0.062534 2.697567 -0.563649 10.127487 16.296715 0.000000 0.000000 0.000000 -6.583284 -0.615117 -3.366267 0.746829 -6.907570 38.236355 -3.937607 -8.379198 20.140936 0.000000 0.000000 0.000000 2.036317 -1.538519 14.913346 -10.119989 3.011920 -25.958049 3.806894 11.547411 30.359990 10.119936 0.311649 -19.954059 0.000000 0.000000 0.000000 -26.177403 -9.598936 -10.812763 -35.791503 5.828293 -3.788783 -9.859924 -28.704607 1.751693 0.000000 0.000000 0.000000 34.514141 -5.762020 9.853859 45.233989 23.747156 -2.803704 2.549353 32.176751 3.540145 0.000000 0.000000 0.000000 
-0.699742 0.980587 1.486144 -4.815339 44.139254 -4.130070 -2.156372 -0.064490 -1.954875 -2.257778 -0.143572 2.949542 -2.296533 7.749800 15.194968 0.000000 0.000000 0.000000 -5.585628 -0.585786 -5.744427 -0.819210 -6.068082 34.964096 -3.465398 -6.457592 19.630270 0.000000 0.000000 0.000000 2.823416 -1.795676 15.205751 -8.995970 2.772202 -26.466446 2.899283 8.801744 30.312587 9.379714 0.806074 -19.415818 0.000000 0.000000 0.000000 -27.417223 -9.460767 -11.953441 -35.175887 5.380363 -3.335083 -10.487941 -28.300507 1.911687 0.000000 0.000000 0.000000 33.793964 -6.899323 9.047754 45.853023 21.027830 -3.676986 3.305927 30.623508 3.509997 0.000000 0.000000 0.000000 
-0.673380 0.981020 1.504481 -5.291649 48.619559 -4.718289 -2.305069 0.072221 0.148400 -1.667278 -0.195715 2.946699 -4.922574 4.305943 14.573748 0.000000 0.000000 0.000000 -5.866776 -0.875669 -8.461067 -1.357647 -5.371988 31.447960 -3.027787 -4.799047 19.130853 0.000000 0.000000 0.000000 3.415246 -1.854868 14.702414 -8.557935 2.795031 -25.732501 1.806720 6.380300 29.755966 8.465321 1.375555 -19.015881 0.000000 0.000000 0.000000 -27.061295 -9.132982 -12.309288 -36.049011 4.858234 -3.268444 -10.581746 -28.086038 1.836331 0.000000 0.000000 0.000000 32.918140 -8.273923 7.924899 47.276946 18.169145 -4.431729 4.289054 29.262497 3.621600 0.000000 0.000000 0.000000 
-0.647341 0.981145 1.520983 -6.196404 53.360628 -6.185288 -2.095025 0.093245 2.659433 -1.083792 -0.239315 2.899725 -7.466706 1.266803 14.557673 0.000000 0.000000 0.000000 -5.410104 -1.116468 -10.524349 -1.465499 -4.772784 27.668012 -2.393387 -2.927147 18.113338 0.000000 0.000000 0.000000 4.385222 -2.199845 15.165119 -9.062321 2.800258 -25.698374 1.679424 4.089691 29.831642 8.147072 1.802351 -19.119961 0.000000 0.000000 0.000000 -27.373135 -9.513585 -12.861167 -36.810927 3.890489 -2.901099 -9.756530 -28.862648 1.567198 0.000000 0.000000 0.000000 31.843099 -9.360614 7.108893 48.113595 15.543912 -5.218118 3.986651 27.728202 3.336869 0.000000 0.000000 0.000000 
-0.621653 0.980659 1.536407 -6.816990 57.631557 -6.987340 -2.162370 0.019721 4.608440 -0.439061 -0.275595 2.905154 -9.273910 -0.798674 14.611084 0.000000 0.000000 0.000000 -5.037173 -1.490174 -12.922472 -1.004307 -4.141563 23.610353 -1.783558 -1.352095 17.284903 0.000000 0.000000 0.000000 5.324608 -2.396031 14.938304 -9.422738 2.816671 -25.327539 1.303728 2.066357 30.307939 7.842636 2.450623 -20.062272 0.000000 0.000000 0.000000 -28.064124 -9.469757 -13.917825 -37.239780 2.716872 -2.383941 -9.511677 -29.131841 1.455190 0.000000 0.000000 0.000000 31.732587 -10.379740 6.787827 49.237254 14.553471 -5.648134 3.038933 25.640539 2.833950 0.000000 0.000000 0.000000 
-0.595974 0.979014 1.551339 -7.206502 61.904754 -7.556574 -1.760400 -0.235260 6.850032 -0.864197 -0.263298 1.989329 -10.818900 -1.886919 15.389129 0.000000 0.000000 0.000000 -4.450608 -2.145418 -16.547757 -0.315320 -3.964920 21.046561 -1.213655 -0.019056 17.609610 0.000000 0.000000 0.000000 5.665951 -2.535926 14.891747 -9.161022 2.814530 -24.555775 0.995126 0.845791 29.537717 8.649045 2.270082 -20.413278 0.000000 0.000000 0.000000 -26.185396 -9.856856 -13.518618 -39.066471 1.872380 -2.374044 -10.624392 -29.875173 1.455464 0.000000 0.000000 0.000000 30.899484 -12.347690 5.480555 50.559657 11.937530 -6.289368 3.716879 24.588901 2.898378 0.000000 0.000000 0.000000 
-0.569826 0.976438 1.566574 -7.405913 65.934738 -7.753526 -1.146753 -0.618802 8.508196 -1.187114 -0.306790 1.926448 -12.810312 -3.809760 15.944758 0.000000 0.000000 0.000000 -3.135777 -2.641386 -19.566967 0.346115 -3.453827 17.646129 -0.694694 1.211468 18.428170 0.000000 0.000000 0.000000 5.941763 -2.521193 14.368283 -10.045800 2.766408 -24.386042 1.415563 -1.642102 30.391021 9.377597 2.363608 -22.052088 0.000000 0.000000 0.000000 -26.574217 -9.849166 -14.143870 -38.649685 0.107525 -1.724868 -11.861204 -31.272377 1.803174 0.000000 0.000000 0.000000 30.525134 -12.878672 5.255247 51.683845 10.615839 -6.782901 3.585735 23.077581 2.619418 0.000000 0.000000 0.000000 
-0.542280 0.972173 1.582347 -7.474191 69.385085 -8.133818 -0.650702 -1.199328 10.831587 -1.660373 -0.335159 1.459870 -13.624980 -4.377977 16.221076 0.000000 0.000000 0.000000 -1.581352 -2.993517 -21.965241 1.751592 -2.767862 12.636116 -0.343187 2.200180 20.761606 0.000000 0.000000 0.000000 5.511097 -2.723045 15.159089 -9.774969 2.544884 -25.087614 1.986462 -3.331759 30.048158 10.268974 2.020284 -22.251086 0.000000 0.000000 0.000000 -25.287286 -10.605150 -13.449080 -39.495967 0.018649 -1.867332 -13.942276 -32.267202 2.204124 0.000000 0.000000 0.000000 30.038771 -14.835511 3.756857 52.408570 9.012707 -7.158734 4.120397 21.684290 2.534880 0.000000 0.000000 0.000000 
-0.512136 0.966891 1.598274 -6.750657 71.713554 -7.320440 -0.185375 -1.753282 12.500313 -2.384455 -0.394108 1.488925 -14.402670 -4.560166 16.946966 0.000000 0.000000 0.000000 0.382251 -3.037011 -23.867216 1.620066 -1.525123 6.821060 -1.096601 1.830036 24.641963 0.000000 0.000000 0.000000 5.233592 -2.516123 14.533019 -9.873033 2.661799 -23.872191 1.933786 -5.444283 28.934740 10.257750 1.685247 -21.277132 0.000000 0.000000 0.000000 -24.779836 -9.925455 -13.327755 -39.520379 -1.854487 -1.409793 -14.577286 -32.802019 2.364093 0.000000 0.000000 0.000000 29.742474 -14.813103 3.600426 53.089912 7.398450 -7.667691 4.784226 22.002655 2.742872 0.000000 0.000000 0.000000 
-0.477658 0.960327 1.613788 -5.099714 73.903945 -5.885938 -0.696428 -2.092713 13.923191 -2.819523 -0.481441 3.199052 -12.688456 -2.500492 16.509340 0.000000 0.000000 0.000000 2.021574 -2.914237 -24.638818 2.431116 -1.034982 0.934831 -4.348023 -1.318614 30.873728 0.000000 0.000000 0.000000 5.928958 -2.869645 15.087714 -10.927373 2.369801 -24.996069 2.743975 -7.069354 28.596713 11.809808 0.304576 -20.021326 0.000000 0.000000 0.000000 -24.895065 -11.062173 -12.764569 -39.728473 -1.552454 -1.490700 -15.127602 -32.455549 2.490212 0.000000 0.000000 0.000000 29.202177 -15.182587 2.994203 52.309912 6.941950 -7.708555 4.970354 20.836171 2.510406 0.000000 0.000000 0.000000 
-0.437207 0.952013 1.628520 -1.743908 75.240770 -2.450169 -1.932984 -2.183955 15.119926 -2.734357 -0.579526 5.016956 -11.256142 0.037120 17.329814 0.000000 0.000000 0.000000 2.927296 -2.740672 -24.553316 2.361978 -0.919374 -0.582526 -9.533654 -6.922939 32.544572 0.000000 0.000000 0.000000 6.467428 -2.540684 13.509749 -11.780438 2.336338 -24.222051 3.706735 -8.633440 27.979178 11.630924 -0.260877 -17.723684 0.000000 0.000000 0.000000 -25.116490 -10.339124 -13.294692 -41.361159 -1.417254 -1.712818 -14.585090 -31.263861 2.213775 0.000000 0.000000 0.000000 27.987270 -14.661141 2.909612 52.026457 7.552592 -7.245988 3.639427 20.659704 2.264646 0.000000 0.000000 0.000000 
-0.390797 0.945225 1.641855 2.596829 76.258626 2.046076 -3.285166 -2.121205 15.833313 -2.949282 -0.906432 8.496392 -9.499217 2.700202 18.304481 0.000000 0.000000 0.000000 2.837140 -2.809955 -24.285132 2.517233 -1.219690 1.912658 -16.086995 -14.360543 35.934841 0.000000 0.000000 0.000000 8.398110 -2.688461 12.196645 -12.131008 2.158945 -24.545242 2.613365 -8.892604 27.815078 12.465332 -1.081072 -16.736820 0.000000 0.000000 0.000000 -24.300239 -10.348607 -12.963732 -43.863643 0.463269 -2.783624 -14.791844 -29.653193 1.961948 0.000000 0.000000 0.000000 28.430420 -15.659489 2.188397 50.631471 9.079188 -6.618284 2.677895 19.139801 1.879141 0.000000 0.000000 0.000000 
-0.340909 0.943432 1.654714 4.926366 75.871119 4.302513 -3.401236 -1.981617 15.590356 -4.280204 -1.599017 13.450689 -10.371731 4.876476 23.328983 0.000000 0.000000 0.000000 3.080387 -2.610930 -24.021288 3.173619 -2.026816 5.749857 -23.602001 -23.188326 40.061145 0.000000 0.000000 0.000000 10.246734 -2.782847 10.700049 -11.154997 2.285544 -24.286765 1.801544 -9.206265 26.981095 12.451177 -1.333627 -16.137491 0.000000 0.000000 0.000000 -24.882599 -9.364237 -13.455517 -45.628984 3.365961 -4.101867 -15.334310 -28.302522 2.004433 0.000000 0.000000 0.000000 28.335711 -15.027799 2.240415 47.725961 9.627917 -6.394582 2.121110 19.761977 1.858657 0.000000 0.000000 0.000000 
-0.293067 0.948408 1.668091 5.158346 73.040546 5.116964 -2.062404 -1.192999 11.749524 -8.675683 -2.966626 21.344176 -11.565826 6.308335 29.508274 0.000000 0.000000 0.000000 3.566728 -1.979515 -23.370025 3.123850 -2.705376 9.401194 -27.718918 -29.790660 39.363937 0.000000 0.000000 0.000000 12.102823 -2.849938 9.047329 -10.608562 2.130005 -25.847660 1.295426 -8.137970 27.978009 11.375774 -1.294590 -14.152794 0.000000 0.000000 0.000000 -24.163638 -7.496019 -13.723190 -47.536844 5.501433 -5.632823 -16.085427 -25.975048 1.938753 0.000000 0.000000 0.000000 27.607591 -14.067790 2.378241 45.613329 11.247435 -5.705857 2.758844 19.587180 1.863311 0.000000 0.000000 0.000000 
-0.252269 0.955927 1.682112 5.161867 69.829043 5.121093 0.830445 -0.674746 5.582331 -18.899969 -4.383874 31.777702 -7.315137 10.655262 35.776771 0.000000 0.000000 0.000000 4.185099 -0.894210 -20.848426 2.040783 -2.268676 9.706310 -31.909835 -34.810718 42.142906 0.000000 0.000000 0.000000 13.668917 -3.181861 8.747001 -10.924982 2.341158 -25.336816 1.217166 -6.262589 27.325391 12.863236 -2.968821 -13.433038 0.000000 0.000000 0.000000 -23.684304 -7.247335 -12.743241 -47.436659 7.287655 -6.646758 -17.998598 -24.854546 2.315754 0.000000 0.000000 0.000000 27.490962 -12.412094 3.080226 44.481527 12.020925 -5.276219 2.849618 20.090335 1.869854 0.000000 0.000000 0.000000 
-0.218671 0.961106 1.696818 4.687983 66.485181 3.640432 3.527386 -0.660378 -1.158277 -27.484872 -4.636130 41.007413 -0.992099 14.927402 38.204778 0.000000 0.000000 0.000000 4.619765 0.102859 -17.005810 2.046877 -2.087952 9.233235 -30.431435 -35.538546 38.989204 0.000000 0.000000 0.000000 13.669030 -3.488007 10.209137 -10.410508 2.274310 -26.462011 1.722217 -4.235385 28.253809 15.054870 -4.350670 -14.763062 0.000000 0.000000 0.000000 -23.466810 -7.959597 -12.003459 -46.858307 7.963499 -6.878350 -16.659094 -23.387563 2.044991 0.000000 0.000000 0.000000 29.035168 -11.865468 3.956450 41.787964 14.766812 -4.964457 3.346742 21.615153 2.110434 0.000000 0.000000 0.000000 
-0.189953 0.968382 1.711854 5.328957 61.053867 3.386256 4.708316 -0.878936 -6.402099 -29.653049 -3.594842 43.381944 6.021787 19.628290 32.553965 0.000000 0.000000 0.000000 4.836629 0.710714 -13.278006 1.446624 -1.343876 7.318397 -28.254103 -34.395714 37.570443 0.000000 0.000000 0.000000 12.708434 -3.625999 12.305772 -9.705162 2.339999 -27.291319 1.629884 -2.137116 28.336591 15.625368 -5.856612 -13.630033 0.000000 0.000000 0.000000 -23.838477 -8.049673 -11.222593 -45.738832 9.046306 -7.140736 -15.391094 -23.197969 2.028731 0.000000 0.000000 0.000000 30.426908 -10.148225 5.211634 40.267956 17.016124 -4.570542 3.130664 23.039002 2.183518 0.000000 0.000000 0.000000 
-0.164033 0.973671 1.727036 5.504990 54.751476 3.024834 5.062647 -1.148149 -9.926780 -25.260177 -2.930628 41.455732 9.848194 22.226419 22.103302 0.000000 0.000000 0.000000 4.369877 0.866761 -9.708456 1.666098 -1.031280 5.926469 -22.708939 -30.787136 31.459311 0.000000 0.000000 0.000000 10.894555 -3.113487 12.930455 -8.158910 2.464424 -26.981695 1.787903 0.323119 28.813117 15.498195 -6.530571 -12.849162 0.000000 0.000000 0.000000 -24.365052 -7.553609 -10.986643 -44.916320 9.230746 -7.119577 -14.396492 -22.435717 1.982481 0.000000 0.000000 0.000000 30.646107 -9.029784 5.621491 40.636564 18.673145 -4.033167 2.013492 24.546544 2.201899 0.000000 0.000000 0.000000 
-0.139677 0.978358 1.741688 5.174984 47.630187 2.206448 5.106607 -1.290139 -11.793915 -17.663398 -2.377273 35.332227 7.962340 19.959301 17.532858 0.000000 0.000000 0.000000 4.124471 0.818114 -6.822099 0.934960 -0.605952 5.572677 -16.546846 -24.841025 25.940738 0.000000 0.000000 0.000000 10.421202 -2.979872 13.545538 -8.423219 2.404349 -28.084474 2.216408 2.997559 30.065872 15.710085 -7.371465 -12.363895 0.000000 0.000000 0.000000 -24.838035 -7.806543 -10.069707 -44.116119 9.513210 -7.256994 -12.002463 -20.940168 1.670201 0.000000 0.000000 0.000000 30.431533 -8.416820 5.230401 41.982255 19.367528 -3.574890 2.582123 26.867027 2.711445 0.000000 0.000000 0.000000 
-0.117098 0.980164 1.756131 5.109924 40.756197 2.178800 4.543741 -1.242765 -12.107683 -9.257528 -1.851719 26.558192 3.791551 14.439592 14.319517 0.000000 0.000000 0.000000 3.220391 0.609525 -4.697742 0.720398 -0.390085 5.403784 -11.077703 -18.901671 19.896321 0.000000 0.000000 0.000000 10.045761 -2.749403 13.559374 -8.487685 2.427895 -28.205670 2.335373 5.073571 30.352911 14.344127 -6.393576 -12.635541 0.000000 0.000000 0.000000 -24.925181 -6.557757 -9.679967 -44.160238 10.472120 -7.910536 -11.372598 -21.243103 1.721380 0.000000 0.000000 0.000000 29.574510 -7.549226 4.793481 43.822859 19.335225 -3.174401 2.836381 28.878044 3.181103 0.000000 0.000000 0.000000 
-0.096054 0.981098 1.770270 4.412402 34.444830 1.972274 4.183811 -1.062324 -11.046041 -3.463509 -1.074292 16.617203 -1.016262 7.888353 14.076678 0.000000 0.000000 0.000000 2.747103 0.474520 -3.530930 0.459125 -0.231879 5.844475 -7.104452 -13.591582 15.959093 0.000000 0.000000 0.000000 9.851192 -2.398437 12.696827 -7.400991 2.209933 -28.994001 1.673235 7.251452 31.380591 13.938523 -6.104414 -13.054582 0.000000 0.000000 0.000000 -24.750605 -6.435407 -8.947652 -44.690891 10.798976 -8.386620 -9.938156 -19.869089 1.480801 0.000000 0.000000 0.000000 30.368807 -7.007806 4.848130 43.473649 19.935039 -3.105145 3.053000 29.904798 3.387737 0.000000 0.000000 0.000000 
-0.076801 0.981446 1.783826 3.826546 27.124097 1.430188 3.974015 -0.845011 -9.435255 -1.008580 -0.430332 8.521219 -5.266863 1.667219 15.370559 0.000000 0.000000 0.000000 2.378580 0.361628 -2.695504 -0.358560 0.053403 6.221068 -3.894101 -8.730792 14.584957 0.000000 0.000000 0.000000 9.674059 -2.219742 12.696597 -6.647193 2.111631 -29.137058 1.387156 9.063703 31.292647 13.241574 -5.667658 -13.641910 0.000000 0.000000 0.000000 -24.572030 -5.770391 -7.966937 -45.401132 11.459761 -9.175873 -9.501868 -19.240846 1.511692 0.000000 0.000000 0.000000 29.986409 -5.821906 4.500007 44.516483 19.807308 -2.712142 2.988522 30.253352 3.360001 0.000000 0.000000 0.000000 
-0.059454 0.981080 1.796714 3.562893 20.793705 0.693219 3.595591 -0.676658 -7.940712 -0.779735 -0.123230 4.092732 -10.287648 -5.600462 17.875919 0.000000 0.000000 0.000000 1.643281 0.121272 -0.908221 -1.266681 0.302425 5.138052 -0.887191 -3.979372 14.192188 0.000000 0.000000 0.000000 8.903107 -1.985631 12.875300 -5.800169 2.017870 -28.906872 0.873131 10.928687 31.177845 13.115484 -5.428568 -14.934703 0.000000 0.000000 0.000000 -24.292532 -6.339151 -6.528590 -45.767699 10.918560 -9.371428 -8.368524 -17.938629 1.370081 0.000000 0.000000 0.000000 32.318670 -6.185595 3.716043 43.060524 19.612015 -2.950301 4.048133 31.642558 3.755280 0.000000 0.000000 0.000000 
-0.043782 0.980845 1.808516 2.926348 14.631794 0.055782 3.355265 -0.589197 -7.257186 -0.800205 -0.032832 2.661600 -11.998452 -5.412364 24.061289 0.000000 0.000000 0.000000 1.164691 -0.035483 0.296137 -1.829209 0.404957 4.067641 1.929827 0.158766 14.864234 0.000000 0.000000 0.000000 7.884546 -1.656242 12.485239 -3.616872 1.682776 -27.209503 -1.272908 11.717475 29.684972 13.871985 -6.445050 -15.056109 0.000000 0.000000 0.000000 -23.743183 -5.029187 -5.793400 -46.203323 9.619652 -9.339324 -8.009232 -17.421936 1.390232 0.000000 0.000000 0.000000 33.250044 -5.456215 2.981334 43.107889 18.883898 -2.804687 3.586034 32.307918 3.603866 0.000000 0.000000 0.000000 
-0.029651 0.979557 1.819201 1.915528 9.897444 -0.012055 3.366020 -0.446405 -5.603345 -0.873303 0.000730 2.375408 -9.197760 -2.314058 24.250603 0.000000 0.000000 0.000000 0.875670 -0.014510 0.074321 -1.535965 0.362291 3.925309 4.071249 2.683230 16.511703 0.000000 0.000000 0.000000 7.375824 -1.441775 11.875497 -3.377193 1.579600 -26.918685 -0.999793 11.378368 29.114542 12.366301 -6.150664 -13.577055 0.000000 0.000000 0.000000 -23.956734 -5.234860 -4.469918 -46.476712 8.722622 -9.352964 -7.899567 -18.118345 1.549333 0.000000 0.000000 0.000000 33.822980 -5.089154 1.917136 42.980485 16.308287 -3.376009 4.332910 32.975070 3.806539 0.000000 0.000000 0.000000 
-0.016943 0.977962 1.828667 1.022717 5.626006 0.283120 3.358019 -0.322775 -4.018982 -0.871066 0.044194 1.401685 -5.963435 1.340708 24.556891 0.000000 0.000000 0.000000 0.817760 0.025480 -0.332714 -1.216256 0.320809 3.940923 5.242475 3.745512 17.061609 0.000000 0.000000 0.000000 6.653034 -1.204640 10.948531 -2.569349 1.339201 -26.461666 -1.676398 10.340426 28.796241 11.489549 -5.914811 -13.724153 0.000000 0.000000 0.000000 -23.899913 -4.710928 -3.349822 -46.874687 7.577751 -9.407041 -7.565391 -20.016250 1.791998 0.000000 0.000000 0.000000 34.425655 -4.208068 0.987760 42.809612 14.479723 -3.591840 5.093142 32.316260 3.729322 0.000000 0.000000 0.000000 
-0.006080 0.975944 1.836697 0.403663 2.264995 0.832145 3.116655 -0.197350 -2.232410 -0.959640 0.112408 -0.443282 -3.388259 3.322953 22.287972 0.000000 0.000000 0.000000 0.661278 0.065423 -0.737391 -0.741558 0.230746 3.347666 5.691658 3.492604 17.916471 0.000000 0.000000 0.000000 6.078554 -1.072299 10.478630 -2.558967 1.268845 -26.506335 -1.471309 9.368469 28.270870 10.930801 -5.835385 -13.863795 0.000000 0.000000 0.000000 -23.563958 -4.792117 -2.115371 -47.735866 5.156659 -8.980226 -6.964822 -21.367443 1.930272 0.000000 0.000000 0.000000 34.583068 -3.730184 -0.091691 43.357154 11.983475 -3.966131 4.580616 29.994745 3.109381 0.000000 0.000000 0.000000 
0.002848 0.975937 1.843573 0.066947 -0.642676 1.236393 2.682971 -0.105944 -1.028408 -1.205056 0.158921 -1.097086 -1.232854 5.157612 20.325580 0.000000 0.000000 0.000000 0.034146 0.086354 -0.874455 -0.247489 0.140814 2.717112 6.830041 4.344490 19.018248 0.000000 0.000000 0.000000 5.259681 -0.929307 10.029280 -2.264444 1.148565 -26.798345 -1.908474 8.538306 28.292111 10.427078 -5.659050 -14.547088 0.000000 0.000000 0.000000 -23.100839 -4.784553 -1.055492 -47.391612 3.274087 -8.523886 -7.129933 -23.621357 2.297070 0.000000 0.000000 0.000000 35.183860 -3.372479 -1.158268 43.625898 9.032462 -4.575515 3.977208 27.703516 2.534413 0.000000 0.000000 0.000000 
0.010112 0.975820 1.849505 -0.239454 -2.673761 1.696387 2.382372 -0.017852 0.101062 -1.217924 0.195327 -2.436295 -0.229804 6.007201 19.535920 0.000000 0.000000 0.000000 -0.419166 0.108354 -1.008239 0.717204 -0.018131 1.542887 6.814809 2.878907 21.043492 0.000000 0.000000 0.000000 4.902987 -0.855038 9.645493 -2.497757 1.159921 -26.563667 -1.775296 7.887896 27.632097 9.737031 -5.467440 -14.108526 0.000000 0.000000 0.000000 -22.670091 -5.282421 -0.066605 -47.348034 0.884337 -7.760283 -6.963148 -25.062118 2.495643 0.000000 0.000000 0.000000 35.036534 -3.678888 -2.360576 44.215977 6.223170 -5.191907 3.912898 24.772987 2.119608 0.000000 0.000000 0.000000 
0.015747 0.975787 1.854738 -0.522439 -4.437991 2.277898 2.080517 0.051774 0.915635 -1.250948 0.224475 -3.392629 0.782739 6.876943 18.311165 0.000000 0.000000 0.000000 -0.676122 0.134142 -1.209085 0.912773 -0.059829 0.825669 7.483839 3.213038 21.812491 0.000000 0.000000 0.000000 4.648136 -0.795820 9.226993 -2.468921 1.124962 -27.173902 -1.887826 7.101965 27.821279 9.178359 -5.327631 -14.076172 0.000000 0.000000 0.000000 -22.548067 -5.055369 0.487713 -47.096101 -0.384112 -7.465434 -7.402717 -27.626028 2.992399 0.000000 0.000000 0.000000 35.000363 -3.958836 -3.535184 44.348068 3.263610 -5.908388 3.834532 22.810046 1.834718 0.000000 0.000000 0.000000 
0.019945 0.976084 1.859306 -0.671688 -5.934077 2.358904 1.873543 0.135229 1.841772 -1.170118 0.240181 -4.167017 1.075573 7.052511 18.243043 0.000000 0.000000 0.000000 -1.187110 0.127395 -0.949451 1.578694 -0.154463 -0.338822 8.097905 2.742264 24.057131 0.000000 0.000000 0.000000 4.617959 -0.770337 9.023666 -2.697201 1.142059 -26.955034 -2.007142 6.145401 27.229283 8.595710 -5.103678 -14.184875 0.000000 0.000000 0.000000 -22.728837 -5.133314 1.128318 -46.822929 -1.459323 -7.127002 -7.610077 -28.692855 3.274676 0.000000 0.000000 0.000000 33.897029 -4.297758 -4.593682 45.540474 0.459387 -6.655696 3.034893 21.086165 1.488821 0.000000 0.000000 0.000000 
0.022987 0.976133 1.863379 -0.861619 -7.581012 2.574489 1.515252 0.207774 2.526388 -1.157092 0.257705 -4.735576 2.228023 8.425830 17.896221 0.000000 0.000000 0.000000 -1.346504 0.129656 -0.874709 1.615317 -0.178346 -1.373978 9.087685 2.917272 26.011104 0.000000 0.000000 0.000000 4.486865 -0.709627 8.415815 -2.931925 1.159309 -26.752857 -2.022643 5.558285 26.896020 8.066242 -5.037360 -13.490883 0.000000 0.000000 0.000000 -22.434430 -4.827603 1.496114 -47.083139 -1.786848 -7.157784 -8.124582 -30.197200 3.713515 0.000000 0.000000 0.000000 33.620086 -4.647578 -5.630075 45.602479 -2.099439 -7.269696 3.428290 20.109572 1.414955 0.000000 0.000000 0.000000 
0.025134 0.975782 1.866809 -0.898286 -8.533225 2.640235 1.491816 0.287320 3.363413 -1.069082 0.279616 -5.643420 1.849828 7.734233 17.959213 0.000000 0.000000 0.000000 -1.981004 0.117687 -0.363830 2.178506 -0.239696 -2.686442 10.175816 3.514765 27.651919 0.000000 0.000000 0.000000 4.566897 -0.681040 7.970062 -3.010874 1.160406 -26.620592 -2.132466 5.277507 26.793675 7.677139 -4.862676 -13.438519 0.000000 0.000000 0.000000 -22.404624 -4.718197 1.724010 -47.265545 -2.028723 -7.153995 -8.337427 -30.534152 3.881392 0.000000 0.000000 0.000000 33.341604 -5.211246 -6.434964 45.892172 -3.780746 -7.753025 3.256256 19.382781 1.305235 0.000000 0.000000 0.000000 
0.026796 0.974651 1.869442 -0.998011 -9.103521 2.730737 1.491011 0.332484 3.826225 -1.176018 0.308198 -6.254694 2.060365 7.960071 17.948729 0.000000 0.000000 0.000000 -2.442520 0.115469 0.003813 2.321941 -0.257347 -3.524776 11.710119 5.208681 28.525621 0.000000 0.000000 0.000000 4.777292 -0.668635 7.576206 -3.258734 1.197048 -26.410569 -2.355525 5.217242 26.569093 7.677574 -4.914106 -13.403583 0.000000 0.000000 0.000000 -22.375748 -4.833718 1.927260 -47.088288 -2.108467 -7.114877 -8.711285 -30.345360 3.976029 0.000000 0.000000 0.000000 33.645406 -5.571434 -6.972466 45.607298 -4.498456 -7.864371 3.335259 18.601529 1.243388 0.000000 0.000000 0.000000 
0.028177 0.973151 1.871339 -0.896848 -9.377658 2.728630 1.351778 0.382243 4.289562 -1.422574 0.344020 -6.808001 2.260519 8.174869 17.646309 0.000000 0.000000 0.000000 -2.925678 0.101269 0.622654 2.627390 -0.279861 -4.386471 12.041885 5.853220 28.152088 0.000000 0.000000 0.000000 4.836101 -0.642598 7.172641 -3.810057 1.312322 -26.219142 -2.038556 5.156968 26.683815 7.618825 -4.967206 -13.060926 0.000000 0.000000 0.000000 -22.963263 -4.919186 2.063183 -46.639423 -2.353973 -7.005166 -8.931754 -30.636709 4.091264 0.000000 0.000000 0.000000 33.707416 -5.656412 -7.163019 45.323012 -5.298377 -8.063265 3.648087 17.974823 1.229702 0.000000 0.000000 0.000000 
0.029394 0.971977 1.872590 -1.019493 -9.620322 2.779111 1.308941 0.414767 4.600062 -1.432906 0.361558 -7.315874 2.590337 8.627011 17.582798 0.000000 0.000000 0.000000 -3.215292 0.091589 1.080687 2.787452 -0.289733 -5.090391 12.949600 7.178582 28.141924 0.000000 0.000000 0.000000 5.106403 -0.636540 6.833876 -4.126609 1.374936 -25.885490 -1.790177 5.402496 26.513190 7.561854 -4.881800 -13.167243 0.000000 0.000000 0.000000 -23.682095 -4.763122 1.930232 -46.087254 -2.699994 -6.794480 -9.367282 -29.217952 3.975387 0.000000 0.000000 0.000000 33.812475 -5.941195 -7.371845 45.069430 -5.501794 -8.070689 3.516542 17.611266 1.181993 0.000000 0.000000 0.000000 
0.030447 0.970852 1.873424 -1.079163 -9.418778 2.687670 1.361072 0.427588 4.769431 -1.519681 0.372199 -7.505429 2.607160 8.679296 17.520799 0.000000 0.000000 0.000000 -3.371543 0.090763 1.219028 2.968346 -0.298517 -5.153823 13.118604 7.381997 28.325396 0.000000 0.000000 0.000000 5.215874 -0.636022 6.733425 -4.114707 1.375081 -25.723753 -1.767321 5.755238 26.549107 7.711712 -5.004916 -12.751370 0.000000 0.000000 0.000000 -24.616459 -5.046226 1.915843 -45.640054 -2.570919 -6.743325 -9.353665 -28.352187 3.796771 0.000000 0.000000 0.000000 34.157112 -5.839151 -7.134785 45.026315 -5.150752 -8.016108 3.424471 17.316051 1.158310 0.000000 0.000000 0.000000 
0.031428 0.969863 1.874028 -1.040350 -9.178484 2.504777 1.322116 0.465337 5.157657 -1.699375 0.398102 -8.021422 2.717339 8.913207 17.690422 0.000000 0.000000 0.000000 -3.310064 0.067257 1.490093 2.693070 -0.289810 -4.989696 12.848784 7.553383 27.422597 0.000000 0.000000 0.000000 5.220338 -0.626340 6.629818 -4.336713 1.429377 -25.254000 -1.531682 6.053762 26.465687 7.800704 -5.090224 -12.234488 0.000000 0.000000 0.000000 -24.819562 -4.710366 1.537001 -45.810702 -2.613492 -6.701213 -9.366379 -26.766804 3.546088 0.000000 0.000000 0.000000 34.435319 -5.971294 -7.070251 45.069186 -4.242563 -7.767752 3.392215 17.540688 1.184324 0.000000 0.000000 0.000000 
0.032381 0.969306 1.874566 -0.949632 -8.549202 2.449853 1.308192 0.487623 5.435842 -1.876380 0.417642 -8.474518 2.447963 8.577859 17.494447 0.000000 0.000000 0.000000 -3.502772 0.062554 1.681197 2.951900 -0.305502 -5.039090 12.275341 7.013255 27.103010 0.000000 0.000000 0.000000 5.400729 -0.622387 6.415515 -4.913661 1.580463 -25.119677 -1.661176 5.836499 26.401534 8.446671 -5.549088 -12.450982 0.000000 0.000000 0.000000 -25.439223 -4.947993 1.585498 -45.596140 -1.654709 -6.984229 -8.758921 -25.324645 3.173997 0.000000 0.000000 0.000000 34.948596 -5.816390 -6.957962 45.586496 -4.336576 -7.920573 4.119436 18.583822 1.379030 0.000000 0.000000 0.000000 
0.033401 0.968636 1.874956 -0.982961 -7.965166 2.089366 1.582739 0.507849 5.838234 -2.201672 0.426217 -8.300872 1.973259 7.809650 16.639631 0.000000 0.000000 0.000000 -3.568967 0.059118 1.672478 3.071560 -0.312520 -4.459399 12.167936 6.718140 27.569000 0.000000 0.000000 0.000000 5.599404 -0.649560 6.641050 -5.241592 1.670171 -25.543488 -1.259470 5.955249 27.163683 9.023113 -5.783806 -13.424100 0.000000 0.000000 0.000000 -25.595080 -5.152172 1.567942 -46.237916 -1.882405 -7.026779 -8.033915 -23.679970 2.791846 0.000000 0.000000 0.000000 35.155985 -5.670122 -6.597326 45.909055 -3.226901 -7.744430 4.426983 19.234365 1.507452 0.000000 0.000000 0.000000 
0.034408 0.968249 1.875241 -0.954959 -7.244167 1.949439 1.227087 0.525644 5.899640 -1.884530 0.409814 -8.519452 2.201422 8.303061 16.875906 0.000000 0.000000 0.000000 -3.462020 0.043891 1.682921 3.363052 -0.329818 -3.872714 10.542225 4.991903 26.519786 0.000000 0.000000 0.000000 5.272164 -0.581718 6.047674 -5.190835 1.682066 -23.886007 -1.244411 5.993731 25.489813 10.506199 -6.831503 -13.132287 0.000000 0.000000 0.000000 -24.518298 -4.419309 0.858446 -47.807309 -0.016403 -7.705290 -7.915557 -23.744575 2.755336 0.000000 0.000000 0.000000 35.226212 -5.138436 -5.965935 46.865848 -1.843619 -7.351035 3.646064 19.123178 1.392556 0.000000 0.000000 0.000000 
0.035446 0.972464 1.875353 -1.250288 -5.915833 1.240528 1.673499 0.553139 6.606468 -1.711114 0.389505 -8.413661 1.004793 6.794776 17.289613 0.000000 0.000000 0.000000 -3.588734 -0.079457 3.529014 4.057297 -0.380858 -5.591533 10.781027 4.501108 28.772693 0.000000 0.000000 0.000000 5.713269 -0.620680 6.275997 -5.690894 1.837321 -24.196509 -0.613193 6.398018 26.712959 11.296204 -7.112021 -14.303949 0.000000 0.000000 0.000000 -25.925096 -4.887672 0.654622 -46.673261 -1.435696 -7.004223 -7.515028 -20.436906 2.225981 0.000000 0.000000 0.000000 36.685913 -4.705872 -5.146786 45.670380 0.348532 -6.754775 3.379745 20.116550 1.480745 0.000000 0.000000 0.000000 
