HIERARCHY
ROOT Hips
{
	OFFSET -0.001795 -0.223333 0.028219
	CHANNELS 6 Xposition Yposition Zposition Zrotation Yrotation Xrotation 
	JOINT LeftUpLeg
	{
		OFFSET 0.069520 -0.091406 -0.006815
		CHANNELS 3 Zrotation Yrotation Xrotation
		JOINT LeftLeg
		{
			OFFSET 0.034277 -0.375199 -0.004496
			CHANNELS 3 Zrotation Yrotation Xrotation
			JOINT LeftFoot
			{
				OFFSET -0.013596 -0.397961 -0.043693
				CHANNELS 3 Zrotation Yrotation Xrotation
				JOINT LeftToe
				{
					OFFSET 0.026358 -0.055791 0.119288
					CHANNELS 3 Zrotation Yrotation Xrotation
					End Site
					{
						OFFSET 0.000000 0.000000 0.000000
					}
				}
			}
		}
	}
	JOINT RightUpLeg
	{
		OFFSET -0.067670 -0.090522 -0.004320
		CHANNELS 3 Zrotation Yrotation Xrotation
		JOINT RightLeg
		{
			OFFSET -0.038290 -0.382569 -0.008850
			CHANNELS 3 Zrotation Yrotation Xrotation
			JOINT RightFoot
			{
				OFFSET 0.015774 -0.398415 -0.042312
				CHANNELS 3 Zrotation Yrotation Xrotation
				JOINT RightToe
				{
					OFFSET -0.025372 -0.048144 0.123348
					CHANNELS 3 Zrotation Yrotation Xrotation
					End Site
					{
						OFFSET 0.000000 0.000000 0.000000
					}
				}
			}
		}
	}
	JOINT Spine
	{
		OFFSET -0.002533 0.108963 -0.026696
		CHANNELS 3 Zrotation Yrotation Xrotation
		JOINT Spine1
		{
			OFFSET 0.005487 0.135180 0.001092
			CHANNELS 3 Zrotation Yrotation Xrotation
			JOINT Spine2
			{
				OFFSET 0.001457 0.052922 0.025425
				CHANNELS 3 Zrotation Yrotation Xrotation
				JOINT Neck
				{
					OFFSET -0.002778 0.213870 -0.042857
					CHANNELS 3 Zrotation Yrotation Xrotation
					JOINT Head
					{
						OFFSET 0.005152 0.064970 0.051349
						CHANNELS 3 Zrotation Yrotation Xrotation
						End Site
						{
							OFFSET 0.000000 0.000000 0.000000
						}
					}
				}
				JOINT LeftShoulder
				{
					OFFSET 0.078845 0.121749 -0.034090
					CHANNELS 3 Zrotation Yrotation Xrotation
					JOINT LeftArm
					{
						OFFSET 0.090977 0.030469 -0.008868
						CHANNELS 3 Zrotation Yrotation Xrotation
						JOINT LeftForeArm
						{
							OFFSET 0.259612 -0.012772 -0.027456
							CHANNELS 3 Zrotation Yrotation Xrotation
							JOINT LeftHand
							{
								OFFSET 0.249234 0.008986 -0.001171
								CHANNELS 3 Zrotation Yrotation Xrotation
								End Site
								{
									OFFSET 0.000000 0.000000 0.000000
								}
							}
						}
					}
				}
				JOINT RightShoulder
				{
					OFFSET -0.081759 0.118833 -0.038615
					CHANNELS 3 Zrotation Yrotation Xrotation
					JOINT RightArm
					{
						OFFSET -0.096012 0.032551 -0.009143
						CHANNELS 3 Zrotation Yrotation Xrotation
						JOINT RightForeArm
						{
							OFFSET -0.253742 -0.013329 -0.021401
							CHANNELS 3 Zrotation Yrotation Xrotation
							JOINT RightHand
							{
								OFFSET -0.255298 0.007772 -0.005559
								CHANNELS 3 Zrotation Yrotation Xrotation
								End Site
								{
									OFFSET 0.000000 0.000000 0.000000
								}
							}
						}
					}
				}
			}
		}
	}
}
MOTION
Frames: 100
Frame Time: 0.050000
0.000000 0.986078 0.000000 -0.731436 -0.901197 2.119667 5.669342 -0.351535 -6.461772 -7.209008 0.266056 -19.566579 47.026514 27.190382 107.191105 0.000000 0.000000 0.000000 0.338259 0.911343 -8.917198 2.930623 -0.486912 -14.668614 -36.262108 -23.825620 118.878655 0.000000 0.000000 0.000000 1.426716 -0.257410 4.423893 3.125116 1.436074 -53.075391 -2.208627 2.297773 55.118333 3.300799 3.131006 -87.199768 0.000000 0.000000 0.000000 -28.214450 -1.294372 0.469766 -37.974245 -14.100696 -5.677942 -6.590827 34.242573 -2.729851 0.000000 0.000000 0.000000 21.808968 -0.030483 0.460593 49.713742 10.975678 -6.975710 -4.394892 -39.857814 2.402619 0.000000 0.000000 0.000000 
0.000346 0.987185 -0.002014 -0.886339 -2.124644 2.749665 6.161761 -0.363000 -7.683010 -6.133967 0.405611 -18.316039 40.994522 26.177676 108.369524 0.000000 0.000000 0.000000 -0.055322 1.043291 -10.364557 3.895461 -0.426072 -14.003866 -34.920114 -23.161976 118.981624 0.000000 0.000000 0.000000 0.818314 -0.179239 3.438418 5.516835 1.389266 -50.061795 -2.656425 4.602360 51.605053 0.692025 3.128216 -84.431717 0.000000 0.000000 0.000000 -27.551662 -1.255492 -0.356582 -40.150983 -13.154555 -5.425130 -5.632144 35.509279 -2.610824 0.000000 0.000000 0.000000 22.023152 -0.846495 0.150556 51.859938 9.751515 -7.022491 -6.128784 -39.558548 3.145153 0.000000 0.000000 0.000000 
0.000675 0.988333 -0.004106 -0.590933 -2.812808 1.852916 5.288840 -0.391035 -7.658523 -5.824870 0.454862 -17.475907 58.411296 29.428146 108.295141 0.000000 0.000000 0.000000 -0.292206 1.007843 -10.130773 3.922824 -0.407766 -13.725522 -35.862960 -22.619818 120.482457 0.000000 0.000000 0.000000 1.464565 -0.187812 3.098824 1.757049 1.400100 -48.715732 -0.251338 2.691128 51.185300 -5.202028 3.602725 -84.781568 0.000000 0.000000 0.000000 -28.080242 -1.634110 0.607345 -41.013601 -13.576522 -5.553130 -3.840240 36.239547 -1.840352 0.000000 0.000000 0.000000 21.625323 0.654091 0.491140 50.553389 9.758205 -6.801208 -1.929748 -44.477186 1.554621 0.000000 0.000000 0.000000 
0.000899 0.988124 -0.006649 -0.626104 -4.112829 2.253315 5.808122 -0.378794 -8.657634 -5.800467 0.507605 -17.979030 66.056751 30.033899 110.989923 0.000000 0.000000 0.000000 0.262363 1.153736 -11.149937 4.096890 -0.365320 -13.757426 -41.009160 -22.673219 120.910015 0.000000 0.000000 0.000000 1.569850 -0.113331 1.600516 2.197854 1.407965 -47.109278 -0.268429 3.460634 50.761593 -3.334036 3.533165 -83.788960 0.000000 0.000000 0.000000 -28.848675 0.113766 -0.559796 -41.425558 -11.636806 -6.142431 -1.577777 36.435034 -1.117289 0.000000 0.000000 0.000000 22.899936 0.697141 0.377369 49.756705 10.215285 -6.493218 -1.994548 -48.677933 1.779783 0.000000 0.000000 0.000000 
0.000962 0.988827 -0.009631 -0.686277 -3.416286 2.314901 5.488081 -0.428335 -9.033409 -5.121128 0.503237 -17.553529 64.237063 30.069206 109.755358 0.000000 0.000000 0.000000 0.243904 1.136174 -11.023530 4.219351 -0.377744 -14.464577 -41.840417 -22.967651 121.259495 0.000000 0.000000 0.000000 1.755260 -0.127655 1.752574 1.448453 1.379992 -47.263048 0.181673 2.564870 50.887953 -5.167095 3.654674 -84.427539 0.000000 0.000000 0.000000 -29.530535 0.597766 -0.813507 -41.027159 -10.782829 -6.440469 -0.347505 39.526490 -0.693413 0.000000 0.000000 0.000000 23.028721 0.246249 0.038048 49.454122 9.387587 -6.853487 1.122691 -55.301480 0.530878 0.000000 0.000000 0.000000 
0.000756 0.989649 -0.013574 -0.513059 -3.544634 2.913328 5.554144 -0.451204 -9.626959 -4.935754 0.515078 -17.650326 61.486922 29.775682 109.414567 0.000000 0.000000 0.000000 -0.098221 1.192646 -11.752933 4.742139 -0.357220 -14.426915 -41.953679 -23.419104 119.802268 0.000000 0.000000 0.000000 1.641146 -0.147650 2.120512 1.789045 1.504785 -49.160832 0.025279 2.388089 52.547196 -5.477448 3.688069 -84.567535 0.000000 0.000000 0.000000 -30.029355 2.224493 -1.784033 -41.327200 -8.475915 -7.408987 2.478725 42.835400 0.490058 0.000000 0.000000 0.000000 22.980692 -0.978267 -0.726440 50.463405 8.700329 -7.438963 3.339425 -65.553341 -0.246789 0.000000 0.000000 0.000000 
0.000277 0.989868 -0.017855 -0.403802 -2.801246 3.217694 5.384491 -0.522841 -10.697312 -4.706809 0.493790 -17.040738 60.250391 29.484228 109.113601 0.000000 0.000000 0.000000 -0.204874 1.281630 -12.714682 4.423047 -0.393941 -13.918477 -41.597031 -23.416255 120.647887 0.000000 0.000000 0.000000 1.407286 -0.154818 2.391382 1.226276 1.486268 -50.068725 0.034060 1.502989 53.463658 -6.637134 3.752880 -85.978075 0.000000 0.000000 0.000000 -30.573788 3.240150 -2.334905 -41.585747 -6.543386 -8.226865 10.731933 50.626189 4.969551 0.000000 0.000000 0.000000 23.053023 -1.157478 -0.885413 50.766622 7.213647 -8.200431 15.782785 -76.545007 -9.773681 0.000000 0.000000 0.000000 
-0.000208 0.989495 -0.021488 -0.521388 -2.539794 3.957732 5.626576 -0.551280 -11.642404 -4.513810 0.490869 -17.018529 58.662203 29.284642 108.774266 0.000000 0.000000 0.000000 0.145214 1.432265 -13.885084 4.167795 -0.409989 -13.198218 -41.809932 -23.965150 119.347168 0.000000 0.000000 0.000000 1.306661 -0.127888 1.890214 1.446992 1.518679 -51.099735 -0.179679 1.418654 54.997839 -5.627454 3.661401 -86.531744 0.000000 0.000000 0.000000 -29.920615 4.272595 -2.894813 -43.105688 -4.821486 -9.244945 23.865080 61.840183 15.180911 0.000000 0.000000 0.000000 22.828403 -2.475554 -1.576638 51.058549 5.604520 -9.118164 58.208259 -85.234938 -50.455570 0.000000 0.000000 0.000000 
-0.000558 0.989546 -0.023908 -0.452948 -2.382988 4.180988 5.653001 -0.584278 -12.451958 -4.069338 0.493627 -16.007801 55.892827 28.881166 108.432735 0.000000 0.000000 0.000000 0.425048 1.564845 -14.882065 3.613199 -0.422636 -12.573144 -43.078689 -23.876503 120.440077 0.000000 0.000000 0.000000 0.994042 -0.114545 1.849493 1.485474 1.523771 -51.512554 -0.426072 1.123836 55.428406 -5.916493 3.695004 -87.164341 0.000000 0.000000 0.000000 -29.902946 5.268808 -3.448171 -44.258396 -3.957874 -9.844884 54.189141 72.764404 43.422647 0.000000 0.000000 0.000000 22.289478 -3.222255 -2.039419 51.267001 2.714463 -10.342186 138.659382 -84.570872 -130.768705 0.000000 0.000000 0.000000 
-0.000597 0.989882 -0.025361 -0.563560 -1.931579 4.452781 5.780560 -0.596854 -12.761255 -3.858797 0.483909 -15.777843 53.660349 28.788607 107.233033 0.000000 0.000000 0.000000 0.665324 1.647052 -15.462774 3.409707 -0.434320 -12.420229 -44.175394 -24.027863 121.017085 0.000000 0.000000 0.000000 0.866606 -0.076822 1.161346 1.435060 1.462384 -51.451001 -0.765493 0.562053 55.701500 -4.842598 3.695287 -86.776589 0.000000 0.000000 0.000000 -29.399285 5.924202 -3.684597 -46.780502 -2.758022 -10.796660 97.197121 75.231352 86.194665 0.000000 0.000000 0.000000 21.812317 -3.902064 -2.477894 51.801032 0.159887 -11.472404 158.955081 -79.616073 -150.369365 0.000000 0.000000 0.000000 
-0.000567 0.990029 -0.026301 -0.557371 -2.038054 4.430860 5.782920 -0.591742 -12.718768 -3.714457 0.487943 -15.472082 52.356761 28.867376 106.347511 0.000000 0.000000 0.000000 0.747700 1.686247 -15.721387 3.259740 -0.433042 -12.362535 -44.583003 -23.801037 121.754185 0.000000 0.000000 0.000000 0.863964 -0.065657 0.936874 1.223099 1.457891 -51.148645 -0.807555 0.444156 55.406411 -5.121587 3.738523 -86.047258 0.000000 0.000000 0.000000 -29.633384 5.967755 -3.675594 -47.494984 -2.598682 -10.971553 118.797999 75.340995 109.653733 0.000000 0.000000 0.000000 22.000329 -3.941861 -2.589800 52.224124 -1.290413 -12.079035 156.634148 -75.940216 -145.816487 0.000000 0.000000 0.000000 
-0.000405 0.990637 -0.027009 -0.439075 -2.623750 4.570767 5.608997 -0.598771 -12.783094 -3.396603 0.508671 -15.295600 51.439533 28.926552 106.100416 0.000000 0.000000 0.000000 0.760261 1.765848 -16.329112 3.355015 -0.417767 -11.951719 -45.700415 -23.733178 121.731738 0.000000 0.000000 0.000000 0.724494 -0.042338 0.538459 1.386024 1.498964 -50.683462 -0.803284 0.501406 54.606230 -4.891458 3.786709 -84.718743 0.000000 0.000000 0.000000 -29.564142 5.276512 -3.070741 -48.316270 -2.155420 -11.191424 126.841170 78.049257 121.345725 0.000000 0.000000 0.000000 21.485551 -3.931403 -2.679750 53.551246 -2.471914 -12.684978 149.272835 -73.602552 -135.270266 0.000000 0.000000 0.000000 
-0.000213 0.990940 -0.027748 -0.400359 -3.184811 4.689960 5.530749 -0.586334 -12.571057 -3.222476 0.527988 -15.379729 50.649226 29.180963 105.253680 0.000000 0.000000 0.000000 0.933757 1.842248 -16.743432 3.436945 -0.403549 -11.327399 -46.539623 -24.087864 120.396388 0.000000 0.000000 0.000000 0.492221 -0.018088 0.161455 1.850559 1.545841 -50.376044 -1.201180 0.330126 54.090458 -3.986815 3.802686 -83.888822 0.000000 0.000000 0.000000 -30.150222 4.957242 -2.686046 -48.337695 -3.259171 -10.778674 130.339361 82.902794 129.337677 0.000000 0.000000 0.000000 21.324475 -3.650295 -2.720561 54.260194 -2.711485 -12.825777 142.687901 -71.937165 -126.133698 0.000000 0.000000 0.000000 
0.000126 0.990806 -0.028416 -0.246423 -3.583012 4.676600 5.438521 -0.581003 -12.425785 -3.223819 0.537239 -15.306196 49.966220 29.280285 104.795352 0.000000 0.000000 0.000000 1.033930 1.900109 -17.074297 3.217558 -0.394907 -10.821294 -47.263076 -24.193882 119.963597 0.000000 0.000000 0.000000 0.512840 -0.015221 0.093571 1.855671 1.583912 -50.353068 -1.622664 0.159881 53.951805 -3.538257 3.824356 -83.347289 0.000000 0.000000 0.000000 -30.101922 3.887627 -1.696030 -48.701287 -4.058014 -10.584480 149.212506 87.605061 152.629777 0.000000 0.000000 0.000000 20.956477 -3.261956 -2.619669 55.632893 -2.563198 -13.007105 137.458129 -70.189767 -118.103856 0.000000 0.000000 0.000000 
0.000733 0.990522 -0.028716 -0.093238 -4.372524 4.790307 5.322952 -0.566935 -12.159408 -3.092602 0.562294 -15.436515 49.151522 29.442194 104.331357 0.000000 0.000000 0.000000 0.651852 1.892723 -17.253430 3.668893 -0.379515 -10.613309 -46.385926 -24.108177 119.033247 0.000000 0.000000 0.000000 0.378737 -0.011984 0.103010 1.988614 1.678031 -50.432128 -1.804437 0.294500 53.593660 -2.737255 3.799251 -83.069965 0.000000 0.000000 0.000000 -30.272947 3.345959 -1.177294 -48.365644 -4.835298 -10.228042 -123.368888 86.948788 -116.192477 0.000000 0.000000 0.000000 20.525545 -3.195414 -2.693746 56.139862 -3.029873 -13.254503 136.116340 -68.901445 -115.577850 0.000000 0.000000 0.000000 
0.001573 0.989639 -0.028495 -0.114788 -4.923712 5.000811 5.462276 -0.532662 -11.832581 -3.208058 0.583573 -15.853573 48.709441 29.644551 103.748684 0.000000 0.000000 0.000000 0.321347 1.860096 -17.203981 4.029616 -0.366044 -10.914507 -44.696494 -23.810504 118.588925 0.000000 0.000000 0.000000 0.579482 -0.005666 -0.138836 1.950165 1.730184 -50.384502 -2.051721 0.586879 53.542298 -2.268408 3.751402 -82.651993 0.000000 0.000000 0.000000 -29.465402 3.131080 -0.925080 -48.579506 -4.933205 -10.222185 -135.669359 83.920664 -126.298176 0.000000 0.000000 0.000000 20.806927 -3.422423 -2.928395 55.652448 -3.594127 -13.372039 137.346194 -67.276651 -115.943452 0.000000 0.000000 0.000000 
0.002516 0.988800 -0.027962 -0.093593 -5.570014 5.156322 5.523961 -0.508795 -11.664862 -3.117834 0.607067 -16.044283 48.199407 29.631988 103.937579 0.000000 0.000000 0.000000 0.091047 1.847720 -17.208043 4.370669 -0.348812 -10.988783 -44.008910 -23.734625 117.843437 0.000000 0.000000 0.000000 0.679335 0.007063 -0.441281 1.867239 1.756690 -49.879905 -1.947168 0.936678 53.232301 -1.744818 3.685458 -82.302781 0.000000 0.000000 0.000000 -28.823847 3.153955 -0.883592 -48.480550 -4.028163 -10.498420 -153.145580 80.158561 -143.033811 0.000000 0.000000 0.000000 20.807345 -4.040319 -3.365068 54.857809 -4.340278 -13.449147 141.649569 -65.505752 -120.424749 0.000000 0.000000 0.000000 
0.003400 0.988416 -0.027410 0.002438 -5.945717 5.207741 5.400911 -0.509121 -11.535066 -3.215492 0.619129 -16.183511 48.739277 29.824818 103.957169 0.000000 0.000000 0.000000 -0.061474 1.837864 -17.204636 4.661622 -0.332219 -11.338612 -45.473603 -23.730892 118.160092 0.000000 0.000000 0.000000 0.561362 0.011737 -0.478066 1.790574 1.837094 -50.326126 -1.941819 1.051767 53.758591 -1.623799 3.695294 -82.695128 0.000000 0.000000 0.000000 -27.825611 3.194557 -0.774897 -48.955024 -3.461075 -10.841483 -161.632228 74.737222 -149.993382 0.000000 0.000000 0.000000 20.468209 -4.396332 -3.564994 54.682152 -4.873261 -13.706187 145.166203 -63.923443 -123.910637 0.000000 0.000000 0.000000 
0.004056 0.988180 -0.027052 0.125863 -6.172091 5.101128 5.318665 -0.511560 -11.540952 -3.131156 0.628677 -16.241449 48.962590 29.554802 105.291707 0.000000 0.000000 0.000000 -0.059892 1.808475 -16.925347 4.441214 -0.327139 -11.517769 -45.456877 -23.749480 117.823487 0.000000 0.000000 0.000000 0.490464 0.004498 -0.290861 1.589251 1.884178 -50.596170 -2.005287 1.048347 54.126394 -1.523392 3.729226 -83.284685 0.000000 0.000000 0.000000 -27.036933 3.334049 -0.730745 -49.487900 -2.472261 -11.354540 -166.444470 70.824674 -154.183561 0.000000 0.000000 0.000000 20.336409 -4.775499 -3.819346 54.473410 -4.781344 -13.660279 147.681791 -62.389188 -126.226759 0.000000 0.000000 0.000000 
0.004476 0.988088 -0.026558 0.182081 -6.357399 5.074358 5.422809 -0.499038 -11.589580 -3.188318 0.626613 -16.016252 48.238028 29.358419 105.642942 0.000000 0.000000 0.000000 -0.099620 1.812454 -16.966894 4.534697 -0.323161 -11.383850 -46.081544 -23.855083 117.642863 0.000000 0.000000 0.000000 0.223926 -0.005118 0.063283 1.393807 1.965435 -51.320338 -1.964042 0.865786 54.649788 -1.601652 3.788504 -83.811973 0.000000 0.000000 0.000000 -26.196621 3.538316 -0.713806 -49.827691 -1.358765 -11.874388 -169.000598 68.346559 -156.539939 0.000000 0.000000 0.000000 19.801231 -5.305199 -4.130964 54.124259 -4.934802 -13.699419 150.147365 -62.836418 -130.460464 0.000000 0.000000 0.000000 
0.004913 0.988237 -0.025621 0.180252 -6.631412 5.026775 5.574564 -0.475448 -11.513636 -3.228898 0.635215 -16.083421 47.999081 29.122796 106.600767 0.000000 0.000000 0.000000 -0.098633 1.804654 -16.861025 4.498661 -0.314376 -11.559864 -45.935977 -23.597920 117.968728 0.000000 0.000000 0.000000 0.214399 -0.001194 -0.013507 0.993099 2.017029 -51.635311 -1.659180 0.755610 55.349994 -2.146804 3.864451 -84.726365 0.000000 0.000000 0.000000 -25.672962 3.367384 -0.458510 -49.970007 -0.101785 -12.472719 -168.753569 68.523761 -156.091397 0.000000 0.000000 0.000000 19.906632 -5.443587 -4.265687 53.855304 -4.738922 -13.665235 149.714395 -63.993317 -130.822246 0.000000 0.000000 0.000000 
0.005898 0.988393 -0.024073 0.134149 -7.170597 5.027033 5.421101 -0.472433 -11.301302 -2.929114 0.645580 -15.815349 47.603042 29.337530 105.988153 0.000000 0.000000 0.000000 -0.223425 1.790656 -16.773878 4.799174 -0.296866 -11.469655 -45.362729 -23.525158 117.361887 0.000000 0.000000 0.000000 0.176939 0.012645 -0.284193 0.862589 2.050942 -51.380509 -1.343823 1.030943 55.213668 -2.543482 3.889326 -84.663323 0.000000 0.000000 0.000000 -24.913798 3.255384 -0.359928 -50.153967 1.322184 -12.985018 -169.524309 68.788578 -157.442946 0.000000 0.000000 0.000000 19.269997 -5.936717 -4.478836 53.852686 -5.201872 -13.849677 150.142715 -65.821116 -133.007259 0.000000 0.000000 0.000000 
0.007896 0.988978 -0.022074 0.107801 -7.358355 4.925611 5.409379 -0.464533 -11.175121 -2.778414 0.644081 -15.571576 46.539007 29.100015 106.316094 0.000000 0.000000 0.000000 -0.312298 1.783537 -16.761081 4.886152 -0.297560 -11.117038 -45.403417 -23.551683 117.112368 0.000000 0.000000 0.000000 0.193198 0.013565 -0.310433 0.914851 2.070708 -51.365410 -1.473939 1.104497 55.124365 -2.414212 3.876607 -84.267305 0.000000 0.000000 0.000000 -24.472110 3.521481 -0.497028 -50.004979 2.528196 -13.372385 -169.293716 69.976641 -157.688875 0.000000 0.000000 0.000000 18.905613 -6.148453 -4.575000 53.278331 -5.371788 -13.767652 151.294086 -68.410815 -136.831285 0.000000 0.000000 0.000000 
0.011325 0.989795 -0.020171 0.270842 -7.379784 4.783972 5.057836 -0.496430 -11.153636 -2.586377 0.630768 -15.100646 45.128555 28.868166 106.226744 0.000000 0.000000 0.000000 -0.761527 1.713515 -16.543997 5.106228 -0.290677 -11.254676 -45.986606 -23.581481 117.277163 0.000000 0.000000 0.000000 0.115940 0.002559 -0.029445 0.636982 2.073651 -51.361499 -1.547232 0.928758 54.589826 -2.673054 3.921120 -83.984617 0.000000 0.000000 0.000000 -24.414138 3.514624 -0.458087 -49.683226 3.030352 -13.419751 -168.872625 71.698800 -157.924954 0.000000 0.000000 0.000000 18.833307 -6.135752 -4.627321 52.649565 -5.287850 -13.496626 148.622497 -72.267781 -136.475059 0.000000 0.000000 0.000000 
0.015867 0.990200 -0.018518 0.307049 -7.469234 4.947093 5.010275 -0.504314 -11.253322 -2.842374 0.627676 -14.983978 44.175361 28.731815 106.144971 0.000000 0.000000 0.000000 -1.260000 1.677337 -16.632829 5.264169 -0.284991 -11.287378 -45.116328 -23.443577 117.211240 0.000000 0.000000 0.000000 0.157373 -0.008289 0.187424 0.719570 2.123576 -51.808492 -1.629865 1.086800 54.522296 -2.143378 3.879488 -83.953697 0.000000 0.000000 0.000000 -24.206968 3.215723 -0.288219 -49.632473 3.019826 -13.388621 -168.470817 73.845947 -158.251340 0.000000 0.000000 0.000000 19.017723 -5.856054 -4.474816 51.867000 -4.541141 -12.989581 143.634192 -76.016974 -133.177841 0.000000 0.000000 0.000000 
0.020985 0.990508 -0.017467 0.335707 -7.351351 4.953228 4.684227 -0.541776 -11.341938 -2.901521 0.629452 -15.134738 44.910044 28.642005 107.012016 0.000000 0.000000 0.000000 -1.827515 1.610499 -16.537842 5.323913 -0.278958 -11.653319 -44.061818 -23.000350 118.073158 0.000000 0.000000 0.000000 0.075481 -0.025531 0.630737 0.845889 2.140794 -52.133703 -1.837944 0.904501 54.092404 -2.757881 3.957383 -83.877633 0.000000 0.000000 0.000000 -24.442587 3.134415 -0.228234 -49.501994 2.210414 -13.020637 -168.293302 75.737089 -158.678602 0.000000 0.000000 0.000000 19.103237 -5.145659 -4.123360 51.220163 -2.997136 -12.157521 129.019375 -78.609117 -118.705630 0.000000 0.000000 0.000000 
0.026035 0.990984 -0.016453 0.312469 -7.374326 5.089177 4.554835 -0.561965 -11.529969 -3.006015 0.629125 -15.132517 44.621692 28.474960 107.554876 0.000000 0.000000 0.000000 -2.063264 1.595304 -16.594106 5.392970 -0.264813 -12.150081 -45.313682 -22.950524 118.764509 0.000000 0.000000 0.000000 -0.005241 -0.031426 0.833508 1.281283 2.199356 -52.644698 -1.845452 1.083339 54.336699 -2.591103 3.950520 -84.136270 0.000000 0.000000 0.000000 -24.937366 2.362346 0.224054 -49.364911 0.774347 -12.507344 -161.641825 76.827422 -150.814204 0.000000 0.000000 0.000000 19.257010 -4.332994 -3.620655 51.226434 -0.436947 -11.196526 107.162567 -78.930429 -95.303715 0.000000 0.000000 0.000000 
0.030659 0.991242 -0.015327 0.397769 -7.228158 5.090311 4.213276 -0.601054 -11.594708 -3.035136 0.628783 -15.237326 44.883149 28.336306 108.211954 0.000000 0.000000 0.000000 -2.439405 1.544352 -16.470856 5.342630 -0.262010 -12.490659 -45.592257 -22.870117 119.252180 0.000000 0.000000 0.000000 -0.163420 -0.037437 1.118343 1.033758 2.172880 -52.713854 -1.572297 0.915334 53.758109 -3.336023 3.999573 -84.128199 0.000000 0.000000 0.000000 -25.703315 1.790952 0.548668 -48.731526 -0.465303 -11.882379 -152.752938 78.510014 -141.287766 0.000000 0.000000 0.000000 19.712401 -3.025173 -2.932185 51.746804 2.700791 -9.976047 83.218194 -75.858098 -68.400656 0.000000 0.000000 0.000000 
0.034638 0.991977 -0.013806 0.478961 -7.207380 5.009202 4.062521 -0.605825 -11.353173 -3.123482 0.631692 -15.368651 43.710403 28.118207 108.294842 0.000000 0.000000 0.000000 -2.464199 1.514091 -16.202701 5.032632 -0.265780 -12.729500 -46.594334 -23.098168 119.035949 0.000000 0.000000 0.000000 -0.413987 -0.038741 1.399961 1.631095 2.181885 -52.714544 -1.508851 1.546570 53.206039 -3.528197 3.918938 -83.153924 0.000000 0.000000 0.000000 -26.430511 1.284537 0.612922 -48.022681 -1.262500 -11.361732 -135.054307 80.702918 -123.326469 0.000000 0.000000 0.000000 20.503720 -2.171707 -2.367726 51.743129 6.361111 -8.449077 68.309787 -70.896717 -50.453375 0.000000 0.000000 0.000000 
0.037794 0.992152 -0.012247 0.468663 -7.042476 4.953761 4.035624 -0.604813 -11.206135 -3.283983 0.629069 -15.460108 43.188167 27.945931 108.493599 0.000000 0.000000 0.000000 -2.505305 1.494127 -16.075812 4.628988 -0.282944 -12.694211 -46.119195 -23.003088 119.219491 0.000000 0.000000 0.000000 -0.600713 -0.026243 1.261302 1.404175 2.058079 -51.623579 -1.088500 1.269805 51.482528 -4.003499 3.955538 -82.071793 0.000000 0.000000 0.000000 -27.544814 1.286415 0.490356 -46.855087 -1.957528 -10.673178 -88.267749 82.063469 -76.774300 0.000000 0.000000 0.000000 20.892871 -0.947879 -1.790863 51.832580 9.222423 -7.016348 56.205849 -64.044683 -36.321773 0.000000 0.000000 0.000000 
0.039981 0.992498 -0.011174 0.408383 -6.686151 4.853915 4.120014 -0.598880 -11.136133 -3.540825 0.616187 -15.389834 42.761397 27.792576 108.439751 0.000000 0.000000 0.000000 -2.236634 1.497051 -15.936117 4.225287 -0.305533 -12.537706 -47.319808 -23.401420 118.974934 0.000000 0.000000 0.000000 -0.946885 -0.006222 1.058346 1.931055 1.939411 -50.718290 -0.909951 1.624926 50.489584 -3.681798 3.856700 -81.080094 0.000000 0.000000 0.000000 -28.060448 0.565057 0.651233 -46.365938 -2.829818 -10.098269 -45.043347 74.980152 -33.009905 0.000000 0.000000 0.000000 21.864064 -0.255924 -1.326069 51.856198 11.971393 -5.765832 47.782280 -57.049454 -26.566703 0.000000 0.000000 0.000000 
0.041219 0.992518 -0.010826 0.336746 -6.237394 4.790799 4.236744 -0.592284 -11.063338 -3.676237 0.609390 -15.681548 42.590511 27.516619 109.021466 0.000000 0.000000 0.000000 -2.110315 1.499664 -15.935130 3.618240 -0.332555 -12.423041 -46.321301 -23.110275 119.754720 0.000000 0.000000 0.000000 -1.234695 0.007892 0.936924 1.933066 1.832709 -50.018555 -0.733036 1.299967 49.516641 -4.936171 3.995900 -80.964405 0.000000 0.000000 0.000000 -29.027415 0.484536 0.576499 -45.835459 -5.029623 -9.119688 -29.639958 63.289576 -17.311816 0.000000 0.000000 0.000000 22.022362 1.149436 -0.537538 51.776270 13.928299 -4.784106 42.819144 -50.825852 -20.907932 0.000000 0.000000 0.000000 
0.041927 0.992782 -0.011102 0.328690 -5.811568 4.504777 4.251093 -0.592665 -10.988422 -3.844051 0.599046 -15.865655 43.414020 27.280297 110.105121 0.000000 0.000000 0.000000 -1.895927 1.503447 -15.866137 3.336038 -0.349220 -12.232518 -47.864508 -23.269255 120.339296 0.000000 0.000000 0.000000 -1.371263 0.009973 0.970136 2.031173 1.714289 -49.110740 -0.619439 1.257600 48.588198 -5.120895 4.005241 -80.510425 0.000000 0.000000 0.000000 -29.273089 -0.033532 0.714164 -45.994849 -7.250134 -8.191123 -21.868744 51.182487 -10.223438 0.000000 0.000000 0.000000 22.271901 2.081323 0.038931 52.331852 15.172076 -4.129624 37.331702 -46.318567 -16.381905 0.000000 0.000000 0.000000 
0.042450 0.992462 -0.011553 0.338860 -5.474447 4.375442 4.354166 -0.591993 -11.080309 -3.942032 0.589359 -15.958340 43.331843 26.922417 111.179746 0.000000 0.000000 0.000000 -1.608041 1.512862 -15.761074 2.908943 -0.364052 -11.903726 -48.672227 -23.755495 119.700937 0.000000 0.000000 0.000000 -1.708002 0.025900 0.789325 2.263435 1.594427 -48.071515 -0.551794 1.380221 47.835104 -5.227865 3.989732 -80.688199 0.000000 0.000000 0.000000 -30.230668 -0.770661 0.982346 -45.052660 -10.159909 -6.959407 -19.860960 41.906102 -7.836373 0.000000 0.000000 0.000000 23.299946 3.204161 0.730373 51.596462 16.208201 -3.572358 33.776954 -42.602626 -13.589403 0.000000 0.000000 0.000000 
0.042858 0.991848 -0.011923 0.437483 -5.401927 4.183797 4.249237 -0.597016 -10.982698 -4.016019 0.589490 -16.161044 44.207368 26.810356 112.074294 0.000000 0.000000 0.000000 -1.652574 1.482524 -15.524345 3.192592 -0.361109 -12.005339 -50.898764 -24.250791 119.379841 0.000000 0.000000 0.000000 -2.021532 0.037282 0.706168 2.369250 1.533656 -47.433176 -0.604531 1.422017 47.186637 -5.259877 4.001203 -80.645595 0.000000 0.000000 0.000000 -30.363938 -1.183078 1.156742 -45.455988 -12.091351 -6.210641 -17.692683 36.661696 -6.236303 0.000000 0.000000 0.000000 23.454593 3.738010 1.038023 51.589407 16.559350 -3.323929 30.705488 -39.718556 -11.539018 0.000000 0.000000 0.000000 
0.043135 0.991342 -0.011946 0.509879 -5.405496 4.041116 4.057221 -0.597418 -10.637186 -3.924660 0.597372 -16.506562 44.648282 26.863946 112.093796 0.000000 0.000000 0.000000 -1.600197 1.464231 -15.303412 2.907614 -0.365527 -12.236335 -51.114210 -24.119028 119.744365 0.000000 0.000000 0.000000 -2.512264 0.055378 0.556794 2.938370 1.473682 -46.876825 -0.708542 1.821692 46.697446 -5.118303 3.964454 -80.800495 0.000000 0.000000 0.000000 -30.657606 -1.642287 1.252511 -44.819312 -14.064966 -5.361617 -18.450995 34.411355 -6.194658 0.000000 0.000000 0.000000 23.474186 4.443992 1.550064 50.865005 16.684489 -3.205947 30.174068 -37.235484 -10.672612 0.000000 0.000000 0.000000 
0.043232 0.990564 -0.011835 0.576270 -5.896978 3.640928 4.030401 -0.559010 -9.979684 -3.687334 0.633707 -17.262924 45.136318 26.604203 114.024219 0.000000 0.000000 0.000000 -1.410466 1.421002 -14.661960 3.082119 -0.349697 -12.900644 -53.769696 -24.364036 119.620049 0.000000 0.000000 0.000000 -2.730370 0.059152 0.579946 3.472277 1.463045 -46.537746 -0.964589 2.321841 46.415030 -5.034220 3.960628 -80.780561 0.000000 0.000000 0.000000 -30.713545 -1.921832 1.374011 -44.447949 -15.376906 -4.837661 -19.244075 33.928075 -6.377269 0.000000 0.000000 0.000000 23.009624 4.915598 1.857174 50.426917 17.331241 -2.917535 30.352634 -36.640441 -10.587371 0.000000 0.000000 0.000000 
0.043323 0.989938 -0.011766 0.722388 -6.551797 3.362974 3.814296 -0.542059 -9.478554 -3.400293 0.666615 -17.427946 45.094904 26.715783 114.380315 0.000000 0.000000 0.000000 -1.324865 1.401217 -14.331347 3.171788 -0.329990 -13.116341 -55.305237 -24.582182 119.065482 0.000000 0.000000 0.000000 -2.964283 0.065297 0.561766 4.128077 1.418582 -45.798896 -1.293273 3.141353 45.507201 -4.198311 3.873434 -80.484688 0.000000 0.000000 0.000000 -30.358360 -2.162020 1.368262 -44.144878 -16.021403 -4.457945 -20.512523 33.537744 -6.734981 0.000000 0.000000 0.000000 22.585000 5.328018 2.154443 49.661974 17.412876 -2.785551 31.130309 -36.257884 -10.787884 0.000000 0.000000 0.000000 
0.043442 0.989641 -0.011999 0.713245 -7.092397 3.207415 3.930491 -0.505287 -9.074268 -3.287528 0.701219 -17.906145 44.924742 26.634538 115.370914 0.000000 0.000000 0.000000 -1.164661 1.400594 -14.146811 3.162759 -0.313392 -13.531762 -56.103343 -24.366562 119.316456 0.000000 0.000000 0.000000 -3.253216 0.070311 0.812941 4.403681 1.554339 -46.754875 -1.097134 3.261703 46.197364 -4.668565 3.939985 -81.041455 0.000000 0.000000 0.000000 -29.911397 -2.056753 1.441488 -44.376400 -17.046763 -4.203598 -21.969285 33.801242 -7.167358 0.000000 0.000000 0.000000 21.290752 5.180611 2.043849 49.651154 18.182001 -2.558009 32.863447 -37.120972 -11.653456 0.000000 0.000000 0.000000 
0.043650 0.988878 -0.012284 0.885526 -7.333626 3.196337 3.862522 -0.506894 -9.059095 -3.430245 0.701625 -17.779958 44.705281 26.733446 115.173923 0.000000 0.000000 0.000000 -1.201457 1.396923 -14.116831 3.050402 -0.307581 -13.876136 -57.103908 -24.285350 119.604268 0.000000 0.000000 0.000000 -3.434287 0.077924 0.736330 4.462073 1.537398 -46.403998 -1.353745 2.985394 45.846520 -4.273057 3.962125 -80.900345 0.000000 0.000000 0.000000 -29.789844 -1.871261 1.506571 -44.321426 -17.372416 -4.106922 -22.688170 33.596825 -7.296685 0.000000 0.000000 0.000000 20.396324 5.359601 2.009187 49.352087 17.831405 -2.635719 34.712053 -37.925977 -12.687470 0.000000 0.000000 0.000000 
0.043831 0.989074 -0.012181 0.951347 -7.694589 2.939087 3.760543 -0.489583 -8.660595 -3.103173 0.726955 -17.922788 43.827183 26.660878 115.613447 0.000000 0.000000 0.000000 -1.307684 1.365963 -13.873782 3.225317 -0.288658 -14.114157 -57.347676 -24.022208 119.900017 0.000000 0.000000 0.000000 -3.659012 0.079970 1.047825 4.823556 1.627682 -47.010762 -1.412234 3.002119 46.330255 -4.126443 3.981179 -81.432759 0.000000 0.000000 0.000000 -29.768768 -1.707693 1.518245 -43.983917 -17.572455 -4.116471 -24.350242 33.510623 -7.759926 0.000000 0.000000 0.000000 19.424137 5.301952 1.952874 49.208104 17.669883 -2.773982 37.519262 -39.339459 -14.263236 0.000000 0.000000 0.000000 
0.043922 0.989364 -0.012026 1.028142 -7.841435 3.023809 3.795057 -0.487629 -8.698509 -3.205750 0.733193 -18.048453 43.546566 26.625186 115.870279 0.000000 0.000000 0.000000 -1.450347 1.345594 -13.766844 3.393085 -0.271192 -14.577370 -57.547486 -23.973747 119.956322 0.000000 0.000000 0.000000 -3.708021 0.083874 0.984078 5.005379 1.658782 -47.158162 -1.712310 2.806503 46.074603 -3.329195 3.969062 -81.275735 0.000000 0.000000 0.000000 -29.503161 -1.008953 1.160457 -44.217076 -17.311107 -4.210799 -24.287640 34.350226 -7.898281 0.000000 0.000000 0.000000 18.424134 5.013127 1.720632 49.233939 16.758386 -3.089894 40.712988 -41.419888 -16.442669 0.000000 0.000000 0.000000 
0.043934 0.990063 -0.011889 1.051349 -7.751381 3.000381 3.867531 -0.484618 -8.733097 -3.233238 0.720902 -17.795855 42.217279 26.551836 115.434909 0.000000 0.000000 0.000000 -1.461119 1.343146 -13.762477 3.290259 -0.277156 -14.693087 -57.400767 -23.770262 120.395811 0.000000 0.000000 0.000000 -3.765657 0.085105 1.017973 5.194631 1.736215 -47.857848 -1.834546 2.528845 46.795727 -3.360404 4.001646 -81.597099 0.000000 0.000000 0.000000 -29.680877 -0.572532 0.994961 -44.109881 -17.438943 -4.287977 -24.580993 35.317920 -8.167325 0.000000 0.000000 0.000000 17.624416 4.913506 1.658665 49.188997 15.993572 -3.482600 44.456466 -43.847924 -19.132298 0.000000 0.000000 0.000000 
0.043934 0.990857 -0.012093 1.133041 -7.910239 3.187769 4.006323 -0.481567 -8.919663 -3.178482 0.721931 -17.623777 39.732398 26.412366 115.141737 0.000000 0.000000 0.000000 -1.658442 1.361239 -14.050408 3.614219 -0.258475 -14.612930 -57.492976 -23.885528 120.096759 0.000000 0.000000 0.000000 -3.696455 0.088705 0.703954 5.593290 1.788320 -48.161379 -2.100020 2.705425 47.012010 -2.546346 3.966409 -81.827033 0.000000 0.000000 0.000000 -29.844420 -0.183345 0.738035 -44.171506 -16.931264 -4.500911 -23.237519 36.442457 -7.974769 0.000000 0.000000 0.000000 17.194788 4.603738 1.517380 49.229165 15.038120 -3.892162 46.824674 -47.469822 -21.948240 0.000000 0.000000 0.000000 
0.043878 0.991102 -0.012647 1.312182 -7.401998 3.274489 3.917767 -0.520610 -9.438747 -3.350336 0.700965 -17.602937 40.169802 26.095633 116.233039 0.000000 0.000000 0.000000 -1.889144 1.357196 -14.245692 3.461605 -0.280034 -14.713604 -57.740231 -23.690697 121.019466 0.000000 0.000000 0.000000 -3.871422 0.095077 0.683662 5.581149 1.890361 -49.332233 -2.179020 2.146495 48.129186 -3.453649 4.075515 -82.550297 0.000000 0.000000 0.000000 -30.050203 0.059673 0.704143 -44.376963 -16.970387 -4.641685 -21.577689 37.657147 -7.609981 0.000000 0.000000 0.000000 16.600080 4.655311 1.553384 49.566555 14.152679 -4.382297 49.194623 -50.862713 -24.848379 0.000000 0.000000 0.000000 
0.043795 0.991730 -0.013386 1.365363 -7.279501 3.225932 3.998972 -0.523034 -9.619934 -3.209571 0.701445 -17.617595 38.901961 25.776681 117.186382 0.000000 0.000000 0.000000 -1.871835 1.361485 -14.292707 3.423720 -0.289279 -14.376841 -57.631849 -24.022301 120.390843 0.000000 0.000000 0.000000 -3.806109 0.093735 0.464480 5.627831 1.876432 -49.318327 -2.144924 2.232909 48.232105 -3.502035 4.063375 -82.488005 0.000000 0.000000 0.000000 -30.616803 0.049580 0.645044 -44.539984 -16.735859 -4.737555 -18.888497 38.029978 -6.766976 0.000000 0.000000 0.000000 16.682430 4.900444 1.715954 49.558354 13.309016 -4.719415 50.925650 -52.475630 -26.628549 0.000000 0.000000 0.000000 
0.043680 0.991931 -0.014367 1.511038 -6.764187 3.213743 3.980961 -0.536827 -9.720064 -3.406079 0.682772 -17.715677 38.135435 25.553144 117.085131 0.000000 0.000000 0.000000 -2.012666 1.327592 -14.139722 3.394912 -0.303654 -14.551330 -58.143814 -24.360682 120.287522 0.000000 0.000000 0.000000 -3.783715 0.092744 0.333349 5.246803 1.823446 -49.302538 -2.109297 1.710422 48.270198 -4.392296 4.150792 -82.649762 0.000000 0.000000 0.000000 -31.071705 0.208145 0.571846 -44.669570 -17.178464 -4.599478 -16.617147 38.735707 -6.065539 0.000000 0.000000 0.000000 16.585323 5.247878 1.862851 49.653733 13.023510 -4.819285 49.828565 -52.672545 -26.155954 0.000000 0.000000 0.000000 
0.043563 0.992555 -0.015680 1.494719 -6.786966 3.073522 3.999422 -0.527274 -9.581486 -3.192144 0.700620 -18.070080 37.681715 25.399364 117.824599 0.000000 0.000000 0.000000 -1.779419 1.361818 -14.298073 3.412294 -0.305425 -14.219995 -59.370675 -24.710447 119.927840 0.000000 0.000000 0.000000 -3.625019 0.087731 0.189068 5.109363 1.817051 -49.231028 -1.891825 2.149982 48.190678 -4.748155 4.122985 -82.471481 0.000000 0.000000 0.000000 -31.743996 -0.265060 0.678306 -44.702260 -17.188993 -4.521625 -14.054814 38.232904 -5.161839 0.000000 0.000000 0.000000 17.326124 5.568607 2.106736 49.371869 13.651564 -4.540253 47.803757 -51.095621 -24.118748 0.000000 0.000000 0.000000 
0.043528 0.992322 -0.017710 1.488229 -6.983986 2.996967 4.192772 -0.498208 -9.377195 -3.162336 0.725079 -18.588417 36.814256 25.288717 118.507817 0.000000 0.000000 0.000000 -1.746333 1.367677 -14.304599 3.531651 -0.294709 -14.222732 -59.478108 -24.849388 119.520061 0.000000 0.000000 0.000000 -3.316814 0.083108 -0.132024 4.617379 1.777000 -48.694301 -1.629690 2.329467 47.903506 -4.785439 4.121224 -82.130646 0.000000 0.000000 0.000000 -32.238733 -0.658939 0.910228 -44.983722 -17.802994 -4.270449 -11.575971 37.939456 -4.250603 0.000000 0.000000 0.000000 17.668435 6.041047 2.343556 49.414200 14.245002 -4.243615 44.082461 -48.551622 -20.961301 0.000000 0.000000 0.000000 
0.043654 0.992363 -0.020441 1.448362 -6.933818 2.582484 4.228036 -0.480179 -9.107973 -3.038599 0.733565 -18.767104 36.699916 25.163725 119.078719 0.000000 0.000000 0.000000 -1.531531 1.394908 -14.416774 3.336236 -0.309424 -13.670436 -59.846320 -24.801167 119.723408 0.000000 0.000000 0.000000 -3.280461 0.071702 0.229616 4.356308 1.739899 -48.400961 -1.189492 2.584981 47.743017 -6.075176 4.162558 -82.246551 0.000000 0.000000 0.000000 -32.948351 -1.396497 1.244113 -45.190696 -18.480425 -3.952750 -9.780919 36.668859 -3.556211 0.000000 0.000000 0.000000 18.337587 6.662639 2.734814 49.057328 15.252990 -3.793325 41.495908 -45.300458 -18.259379 0.000000 0.000000 0.000000 
0.044115 0.992085 -0.023542 1.328468 -6.910795 2.354550 4.332116 -0.463342 -8.970132 -3.047976 0.733074 -18.799408 36.698508 25.184428 118.832982 0.000000 0.000000 0.000000 -1.525623 1.396616 -14.434552 3.562786 -0.303963 -13.544789 -59.895791 -24.805571 119.743913 0.000000 0.000000 0.000000 -2.899226 0.057241 0.321168 4.088301 1.645413 -47.550831 -1.220763 2.962335 47.159314 -5.951380 4.118909 -82.124942 0.000000 0.000000 0.000000 -33.070212 -2.008925 1.500406 -45.790633 -18.997901 -3.656596 -9.163214 35.750938 -3.284982 0.000000 0.000000 0.000000 19.281731 7.208648 3.103476 48.813813 15.979670 -3.432487 38.332753 -42.861159 -15.836069 0.000000 0.000000 0.000000 
0.044661 0.991699 -0.026475 1.217082 -6.954016 2.155146 4.326046 -0.457796 -8.892429 -2.842868 0.747459 -18.956261 37.072431 25.159273 119.210776 0.000000 0.000000 0.000000 -1.326063 1.420904 -14.503391 3.495603 -0.306489 -13.422966 -60.239477 -24.824912 119.765462 0.000000 0.000000 0.000000 -2.410791 0.034686 0.707064 3.329564 1.650751 -47.451285 -0.783890 2.959283 47.263455 -7.156115 4.165825 -82.852189 0.000000 0.000000 0.000000 -33.182602 -3.095864 2.283200 -45.757356 -19.163255 -3.600519 -9.657839 34.360239 -3.330047 0.000000 0.000000 0.000000 19.752656 7.790891 3.438332 48.664483 16.566012 -3.216136 36.183345 -40.717194 -14.149479 0.000000 0.000000 0.000000 
0.045234 0.991843 -0.029225 1.255490 -7.009550 1.992763 4.193632 -0.466126 -8.892013 -2.665522 0.753730 -18.886986 36.699663 25.179277 119.053786 0.000000 0.000000 0.000000 -1.250627 1.445283 -14.666564 3.559100 -0.306582 -13.094679 -61.007606 -25.199448 119.228469 0.000000 0.000000 0.000000 -2.028590 0.021629 0.756182 2.637310 1.586804 -46.563007 -0.850235 3.018767 46.568795 -6.890277 4.156590 -82.659773 0.000000 0.000000 0.000000 -32.897359 -3.408172 2.485170 -46.100997 -18.964499 -3.591472 -8.738592 34.967373 -3.065221 0.000000 0.000000 0.000000 20.375877 8.610072 3.865845 48.467452 17.003649 -2.938356 35.031258 -39.927099 -13.448222 0.000000 0.000000 0.000000 
0.045663 0.992313 -0.032519 1.320026 -6.703305 1.978322 3.964933 -0.491242 -8.940638 -2.587266 0.751907 -19.035960 36.510131 25.183823 118.249270 0.000000 0.000000 0.000000 -1.321161 1.472359 -15.017208 3.481986 -0.317987 -12.979332 -61.270271 -25.130607 119.696513 0.000000 0.000000 0.000000 -1.990745 0.003896 1.436448 2.024607 1.662279 -47.433555 -0.538595 2.598619 47.198425 -8.181274 4.215265 -83.650932 0.000000 0.000000 0.000000 -32.542062 -4.212011 3.143349 -46.252622 -18.828689 -3.702183 -9.143068 36.048693 -3.217429 0.000000 0.000000 0.000000 20.328034 8.695200 3.910618 48.736201 17.989261 -2.635480 34.393507 -40.222499 -13.235155 0.000000 0.000000 0.000000 
0.046046 0.992508 -0.036800 1.265820 -6.530967 2.142538 3.852994 -0.517519 -9.223062 -2.456352 0.760853 -19.293312 36.827499 25.207308 117.854693 0.000000 0.000000 0.000000 -1.292141 1.543832 -15.676306 3.356819 -0.328561 -12.664097 -60.790827 -24.979684 120.016849 0.000000 0.000000 0.000000 -1.804117 -0.012914 1.911363 1.254282 1.720990 -48.106546 -0.107309 1.999020 47.607679 -8.947031 4.268773 -84.551661 0.000000 0.000000 0.000000 -31.988842 -4.856333 3.786094 -46.290105 -18.990855 -3.723077 -9.121499 40.065604 -3.361755 0.000000 0.000000 0.000000 19.764975 9.064247 4.018081 49.097130 19.336893 -2.143669 35.575074 -41.954056 -14.270011 0.000000 0.000000 0.000000 
0.046379 0.992338 -0.041567 1.135456 -6.486445 2.239341 3.838813 -0.536924 -9.573738 -2.494593 0.753634 -19.207785 37.867385 25.391491 117.121772 0.000000 0.000000 0.000000 -1.073090 1.595206 -15.953793 3.309814 -0.331486 -12.651136 -60.755072 -25.294728 119.457461 0.000000 0.000000 0.000000 -1.607273 -0.045636 2.938854 0.565840 1.816553 -49.245068 0.211564 0.952818 48.337016 -9.432761 4.366551 -85.641431 0.000000 0.000000 0.000000 -31.135680 -5.497699 4.610715 -46.740436 -18.401294 -4.094421 -8.233123 43.675808 -3.024805 0.000000 0.000000 0.000000 18.973474 9.122315 3.833589 49.241635 20.765603 -1.661333 36.723105 -43.365847 -15.334703 0.000000 0.000000 0.000000 
0.046829 0.992314 -0.045621 1.164080 -7.281817 2.320447 3.595951 -0.545519 -9.529335 -1.768603 0.816934 -19.283411 36.462679 25.666441 116.451691 0.000000 0.000000 0.000000 -0.897530 1.652909 -16.191970 3.326204 -0.311027 -12.716851 -60.399531 -25.525566 118.276422 0.000000 0.000000 0.000000 -1.470288 -0.065121 3.510241 0.451059 1.892130 -49.222536 0.522615 0.924398 47.968631 -9.646697 4.417355 -86.922159 0.000000 0.000000 0.000000 -31.207250 -5.674951 4.950200 -46.062259 -16.902980 -4.675064 -5.873541 50.592826 -2.143362 0.000000 0.000000 0.000000 18.755032 9.640420 3.956658 48.833883 22.361800 -1.001665 39.395168 -45.408685 -17.395915 0.000000 0.000000 0.000000 
0.047365 0.991300 -0.048326 1.022408 -7.617545 2.352863 3.707193 -0.530688 -9.514605 -1.699040 0.838158 -19.431678 36.871495 25.828729 116.329204 0.000000 0.000000 0.000000 -0.558091 1.650358 -15.836881 3.308155 -0.296587 -13.364808 -60.801075 -26.048254 117.144181 0.000000 0.000000 0.000000 -1.287482 -0.088977 4.086300 0.297462 2.007728 -50.208670 0.760284 0.500276 49.060546 -10.139713 4.469550 -88.194455 0.000000 0.000000 0.000000 -30.038951 -5.808515 5.239479 -45.595312 -15.502838 -5.313692 -6.903561 63.529431 -2.826506 0.000000 0.000000 0.000000 18.263581 9.701803 3.884792 47.939426 24.148918 -0.513055 42.297436 -47.171193 -19.585942 0.000000 0.000000 0.000000 
0.047851 0.990788 -0.049738 1.003490 -8.934471 2.551341 3.666604 -0.509164 -9.329731 -0.839855 0.922504 -19.484011 34.332573 26.100468 115.997693 0.000000 0.000000 0.000000 -0.533365 1.705210 -16.105051 3.527579 -0.255329 -13.227359 -59.119767 -25.991449 115.700129 0.000000 0.000000 0.000000 -1.210931 -0.100374 4.471717 0.970828 2.157666 -50.346313 1.007291 1.175062 48.881296 -10.001200 4.472218 -89.345342 0.000000 0.000000 0.000000 -29.266865 -5.144467 4.854876 -44.469713 -12.842787 -6.195647 -9.863172 83.887349 -6.386410 0.000000 0.000000 0.000000 17.432623 9.866740 3.903279 47.140341 25.066517 -0.224026 44.970697 -48.452365 -21.613454 0.000000 0.000000 0.000000 
0.048289 0.989713 -0.050699 0.870853 -9.379651 2.353852 3.774781 -0.485002 -9.196332 -0.896583 0.921057 -19.279915 35.642189 26.335275 116.145951 0.000000 0.000000 0.000000 -0.034221 1.682206 -15.495306 3.310852 -0.246523 -13.460895 -59.258714 -26.767412 113.860288 0.000000 0.000000 0.000000 -1.196525 -0.113975 4.993588 1.637811 2.208446 -50.340512 0.605867 1.383632 49.413803 -8.878328 4.483882 -90.561607 0.000000 0.000000 0.000000 -27.571916 -4.567355 4.468880 -43.961295 -10.104676 -7.123149 176.680955 75.024626 178.719978 0.000000 0.000000 0.000000 17.458411 9.385962 3.645785 45.950645 26.927500 0.251382 46.941000 -49.927799 -23.423866 0.000000 0.000000 0.000000 
0.048744 0.988872 -0.051850 0.675293 -10.104536 2.454076 4.058356 -0.436985 -8.892063 -0.524204 0.959250 -19.288188 33.096851 26.462157 115.143081 0.000000 0.000000 0.000000 0.070637 1.736872 -15.770355 3.428415 -0.225434 -13.267251 -58.000402 -26.377773 113.597747 0.000000 0.000000 0.000000 -1.208770 -0.122142 5.475047 2.411941 2.347407 -50.828966 0.744518 1.863568 50.014153 -8.712092 4.447986 -91.721549 0.000000 0.000000 0.000000 -25.925238 -4.539302 4.395621 -43.413882 -5.756671 -8.492731 172.875042 60.457860 169.976508 0.000000 0.000000 0.000000 16.958038 8.679049 3.316592 45.265259 27.812629 0.383927 47.186142 -49.807860 -23.514581 0.000000 0.000000 0.000000 
0.049463 0.987988 -0.053185 0.350305 -10.133500 2.500612 4.420278 -0.408763 -9.022168 -0.763333 0.969614 -19.597965 35.237466 26.502692 116.355748 0.000000 0.000000 0.000000 0.128569 1.751573 -15.833350 3.714480 -0.207608 -13.588659 -57.925381 -25.920154 114.485278 0.000000 0.000000 0.000000 -1.098915 -0.138811 5.859777 3.049781 2.432788 -51.477062 0.447126 1.591466 51.049783 -7.755298 4.522852 -92.522312 0.000000 0.000000 0.000000 -23.977346 -3.992975 4.064779 -43.549619 -1.585376 -9.888743 169.836160 51.962931 160.464932 0.000000 0.000000 0.000000 16.415506 8.497613 3.190025 44.329945 29.624848 0.782887 48.462105 -50.653934 -24.748413 0.000000 0.000000 0.000000 
0.050499 0.987081 -0.054327 0.259058 -10.303889 2.507373 4.401768 -0.400785 -8.843519 -0.754844 0.978139 -19.635682 35.341343 26.672184 115.446871 0.000000 0.000000 0.000000 0.136623 1.750569 -15.801305 3.707041 -0.205278 -13.480543 -57.081548 -26.014289 113.826765 0.000000 0.000000 0.000000 -0.698046 -0.165623 5.758422 3.329418 2.312567 -50.385189 0.584675 2.289322 50.975228 -7.549288 4.383700 -92.998963 0.000000 0.000000 0.000000 -22.261980 -3.732304 3.653502 -44.047790 3.153462 -11.426221 166.884670 48.709592 151.751162 0.000000 0.000000 0.000000 16.848845 8.243183 3.180399 43.059204 30.958713 1.090338 47.644187 -49.011251 -23.456574 0.000000 0.000000 0.000000 
0.051698 0.986585 -0.055014 0.205422 -9.799656 2.049615 4.268552 -0.417311 -8.880511 -1.150172 0.912841 -19.134008 38.049720 26.732226 115.534423 0.000000 0.000000 0.000000 -0.109688 1.661285 -15.330177 3.844564 -0.219183 -13.297926 -56.599651 -26.035903 113.914710 0.000000 0.000000 0.000000 -0.349492 -0.193645 5.796954 3.064119 2.162918 -49.718449 0.855942 2.203517 51.435844 -7.415647 4.301265 -92.878445 0.000000 0.000000 0.000000 -20.956326 -3.103087 3.174644 -44.733168 6.828013 -12.806349 164.197532 46.073026 143.860107 0.000000 0.000000 0.000000 16.792846 8.286681 3.292584 41.871434 32.774822 1.469848 47.112206 -47.079541 -22.209720 0.000000 0.000000 0.000000 
0.052724 0.986125 -0.055545 0.230637 -8.962588 1.668675 3.927312 -0.438391 -8.483848 -1.656089 0.859396 -18.978779 40.014723 27.017844 113.366953 0.000000 0.000000 0.000000 -0.480014 1.573445 -14.967461 3.773776 -0.254449 -12.812140 -55.243123 -26.073259 113.833172 0.000000 0.000000 0.000000 0.071803 -0.221550 5.705222 2.763886 1.991335 -49.029253 1.142754 2.522720 51.861180 -7.950284 4.084697 -92.825225 0.000000 0.000000 0.000000 -19.113927 -2.153998 2.351184 -45.857064 9.910946 -14.144421 160.762513 44.174708 134.868052 0.000000 0.000000 0.000000 16.763034 7.812867 3.288814 41.082137 33.970469 1.666381 46.052420 -43.731958 -19.904577 0.000000 0.000000 0.000000 
0.053363 0.986281 -0.056113 0.336792 -7.984410 1.308622 3.686283 -0.468459 -8.494361 -1.979766 0.805404 -18.765256 40.899971 26.877963 113.074267 0.000000 0.000000 0.000000 -0.922143 1.454384 -14.378819 3.504879 -0.288883 -12.794502 -53.157445 -25.847504 114.086121 0.000000 0.000000 0.000000 0.532063 -0.265488 6.046378 2.239724 1.928835 -49.295781 1.343865 2.337255 52.832298 -8.301670 3.974710 -92.524954 0.000000 0.000000 0.000000 -18.282790 -1.169131 1.709603 -45.943846 12.148905 -15.024767 158.813961 41.697232 127.788807 0.000000 0.000000 0.000000 16.389385 7.703817 3.392074 40.457298 35.532711 1.948255 45.567226 -41.278229 -18.406529 0.000000 0.000000 0.000000 
0.053504 0.986923 -0.056902 0.282053 -6.730362 1.093384 3.478145 -0.497723 -8.488866 -2.445200 0.750751 -18.888850 43.025526 26.926093 112.266472 0.000000 0.000000 0.000000 -1.108245 1.402948 -14.193782 3.259233 -0.330166 -12.324793 -51.845347 -25.919432 114.310489 0.000000 0.000000 0.000000 1.216371 -0.306187 5.896553 1.329345 1.798086 -49.198446 1.915269 2.323014 53.320190 -10.017427 3.759453 -92.628484 0.000000 0.000000 0.000000 -17.316154 -0.739759 1.255474 -46.200873 13.991768 -15.768200 156.613890 39.332774 119.583884 0.000000 0.000000 0.000000 16.221441 7.235472 3.396170 39.364323 36.201103 1.892025 46.907681 -38.710642 -17.629016 0.000000 0.000000 0.000000 
0.053123 0.987540 -0.057824 0.147765 -5.641997 0.830354 3.562349 -0.501605 -8.497409 -2.885655 0.697119 -19.015863 44.339408 26.758472 112.261478 0.000000 0.000000 0.000000 -1.371178 1.338350 -13.923181 3.028173 -0.359888 -12.215389 -49.275381 -25.283219 115.569516 0.000000 0.000000 0.000000 1.761337 -0.342047 5.916978 0.749981 1.742019 -49.722038 2.317430 2.052112 54.327820 -11.274183 3.614980 -92.767709 0.000000 0.000000 0.000000 -16.299739 -0.169763 0.852666 -47.044866 15.561625 -16.704581 155.372337 37.102592 113.890316 0.000000 0.000000 0.000000 15.179197 7.166607 3.480773 38.547807 36.884495 1.859240 48.873877 -36.352895 -17.184831 0.000000 0.000000 0.000000 
0.052089 0.988231 -0.058831 0.089732 -4.952497 0.761872 3.564636 -0.521853 -8.744499 -3.195686 0.644992 -18.503596 44.764571 26.935763 110.911705 0.000000 0.000000 0.000000 -1.310620 1.332110 -13.897409 2.745678 -0.377900 -11.810599 -47.957705 -25.388676 115.278831 0.000000 0.000000 0.000000 2.451879 -0.366475 5.585102 0.107609 1.650682 -49.273714 2.474859 2.225933 54.580219 -11.831542 3.519605 -92.279605 0.000000 0.000000 0.000000 -15.523063 0.664242 0.282302 -47.958920 17.724078 -17.802512 153.907741 36.061084 109.392068 0.000000 0.000000 0.000000 14.845418 6.688797 3.369988 38.121927 37.468258 1.952486 50.504386 -33.894691 -16.467403 0.000000 0.000000 0.000000 
0.050311 0.989048 -0.059966 0.073371 -4.524949 0.722763 3.659458 -0.528714 -8.922319 -3.339989 0.612611 -17.993466 43.930244 27.014888 109.559339 0.000000 0.000000 0.000000 -1.408188 1.320998 -13.927098 3.172993 -0.382191 -11.781981 -48.640050 -25.625405 115.410177 0.000000 0.000000 0.000000 2.841431 -0.386326 5.533430 -0.416063 1.628417 -49.468257 2.984308 2.309729 55.177559 -13.044860 3.349810 -92.913597 0.000000 0.000000 0.000000 -15.187288 0.834522 0.135647 -48.191314 19.122398 -18.480015 152.443339 34.285944 103.367890 0.000000 0.000000 0.000000 14.434501 6.118564 3.198573 38.018002 38.047869 2.021062 51.943553 -32.708187 -16.199565 0.000000 0.000000 0.000000 
0.047976 0.989645 -0.061488 0.060178 -4.734096 0.687877 3.869730 -0.507256 -8.874973 -3.246603 0.626529 -18.149891 43.367212 26.924444 109.803921 0.000000 0.000000 0.000000 -1.312155 1.342518 -14.030915 3.362792 -0.375875 -11.931458 -48.748688 -25.421157 115.809501 0.000000 0.000000 0.000000 2.983172 -0.386120 5.411485 -0.409050 1.654093 -49.573226 2.999170 2.487096 55.481256 -13.092017 3.336596 -92.984628 0.000000 0.000000 0.000000 -14.968782 1.196157 -0.043084 -48.811141 20.392687 -19.204486 152.180056 33.704747 102.051345 0.000000 0.000000 0.000000 14.269014 6.431675 3.352105 38.045693 38.716122 2.213392 53.713504 -31.894919 -16.316270 0.000000 0.000000 0.000000 
0.045603 0.990089 -0.063565 0.046966 -4.904146 0.813153 4.130977 -0.509396 -9.361260 -3.260319 0.622265 -17.737757 42.896352 26.868462 109.932106 0.000000 0.000000 0.000000 -1.136417 1.377916 -14.199532 3.512634 -0.369621 -12.186047 -49.163001 -25.459442 115.774212 0.000000 0.000000 0.000000 2.859314 -0.374156 5.313438 -0.375088 1.661563 -49.412442 3.366476 2.438997 55.384569 -14.349442 3.285980 -93.396716 0.000000 0.000000 0.000000 -15.176590 1.546200 -0.209460 -48.163322 20.837924 -19.077089 151.710192 33.213045 100.085109 0.000000 0.000000 0.000000 13.879711 6.129576 3.164304 38.778678 39.169643 2.535181 55.054556 -31.594286 -16.522295 0.000000 0.000000 0.000000 
0.043659 0.990282 -0.066047 -0.049062 -5.275447 1.058167 4.379417 -0.500419 -9.687590 -3.283932 0.630326 -17.601570 42.936058 27.097984 109.416420 0.000000 0.000000 0.000000 -0.902058 1.448523 -14.615974 3.737995 -0.357821 -12.158268 -49.288107 -25.571109 115.255935 0.000000 0.000000 0.000000 2.672281 -0.378110 5.521361 0.261810 1.723281 -50.035202 3.381743 2.537704 55.780525 -13.983602 3.222597 -94.373757 0.000000 0.000000 0.000000 -15.523887 1.209380 0.020230 -47.398041 20.316326 -18.641363 153.106761 33.158303 102.508812 0.000000 0.000000 0.000000 13.730249 6.036305 3.104286 39.189865 39.669689 2.723348 55.784211 -31.661858 -16.723508 0.000000 0.000000 0.000000 
0.042317 0.990566 -0.068739 -0.060668 -5.741814 1.127762 4.542897 -0.484252 -9.794344 -3.140464 0.644425 -17.411275 44.014714 27.308107 109.778723 0.000000 0.000000 0.000000 -0.381612 1.554195 -15.072084 3.668002 -0.349031 -12.049941 -51.380937 -25.919119 115.003094 0.000000 0.000000 0.000000 2.497213 -0.377574 5.692193 0.578522 1.760822 -49.932314 3.448455 2.257807 55.829095 -14.105602 3.267718 -95.129423 0.000000 0.000000 0.000000 -16.147449 1.158042 0.184555 -45.917187 20.118607 -18.015140 153.695588 33.612178 104.136453 0.000000 0.000000 0.000000 14.030613 6.148935 3.071177 39.130122 39.795580 2.711812 56.267302 -31.630041 -16.993576 0.000000 0.000000 0.000000 
0.041578 0.990948 -0.071260 -0.018259 -6.671765 1.252975 4.664797 -0.467034 -9.984843 -2.924484 0.661512 -16.838956 44.898426 27.608752 110.171361 0.000000 0.000000 0.000000 -0.138454 1.649366 -15.578588 3.958772 -0.324166 -11.861624 -52.464632 -26.161943 114.207498 0.000000 0.000000 0.000000 2.174723 -0.384225 6.198277 1.161944 1.839229 -49.776302 3.681171 2.651409 55.422409 -13.859427 3.273491 -95.531166 0.000000 0.000000 0.000000 -16.678184 1.259029 0.163397 -43.673408 20.208187 -17.082888 153.351205 33.722631 102.617514 0.000000 0.000000 0.000000 14.503128 5.754618 2.844990 39.121046 39.375581 2.604518 56.966291 -31.768368 -17.371591 0.000000 0.000000 0.000000 
0.041252 0.991482 -0.073400 0.070356 -7.568242 1.477503 4.674759 -0.461253 -10.203261 -2.558664 0.686205 -16.616100 46.553329 27.726143 111.769507 0.000000 0.000000 0.000000 0.154339 1.741551 -15.992794 3.831915 -0.305881 -11.804318 -52.484827 -26.306682 113.181526 0.000000 0.000000 0.000000 2.088174 -0.367595 5.995731 1.449007 1.909555 -49.522536 3.895593 2.979365 55.601050 -13.943084 3.277035 -96.107154 0.000000 0.000000 0.000000 -17.022788 1.311080 0.226734 -42.832949 19.466976 -16.559926 153.913744 33.385782 103.128521 0.000000 0.000000 0.000000 14.657175 5.753278 2.801976 39.659968 38.505617 2.395280 57.349313 -31.282694 -17.208918 0.000000 0.000000 0.000000 
0.041187 0.991740 -0.074852 0.103119 -8.057551 1.485047 4.674377 -0.459276 -10.375568 -2.399696 0.680997 -16.088346 47.724714 27.925345 112.148912 0.000000 0.000000 0.000000 0.199210 1.772663 -16.151114 3.659439 -0.301561 -11.514909 -50.865638 -26.101995 112.476328 0.000000 0.000000 0.000000 1.941621 -0.366670 6.192829 1.813471 1.980579 -49.704602 4.241670 3.415538 55.925940 -14.759225 3.200775 -96.073173 0.000000 0.000000 0.000000 -17.192974 1.039792 0.336134 -41.896528 18.362485 -15.880863 153.338693 33.952445 102.470634 0.000000 0.000000 0.000000 15.137575 5.468856 2.715085 39.701944 36.991365 1.875600 59.484596 -32.589687 -18.664144 0.000000 0.000000 0.000000 
0.041201 0.992397 -0.075599 0.134520 -8.417780 1.828671 4.666301 -0.467253 -10.676291 -2.416492 0.683298 -15.924043 48.508880 28.010234 112.654305 0.000000 0.000000 0.000000 0.316629 1.838263 -16.529231 3.382834 -0.300274 -11.307220 -49.508537 -26.113516 111.484850 0.000000 0.000000 0.000000 1.873293 -0.338563 5.680721 2.288750 1.973924 -49.283796 4.254819 3.756223 55.730032 -13.408494 3.237704 -96.178046 0.000000 0.000000 0.000000 -17.854547 1.105449 0.280040 -41.231595 16.917127 -15.194188 152.190157 35.531075 102.933933 0.000000 0.000000 0.000000 15.501380 5.365706 2.670882 40.338176 34.670114 1.256948 62.602830 -34.957357 -21.247142 0.000000 0.000000 0.000000 
0.041294 0.992382 -0.075662 0.194347 -8.436157 1.941117 4.423432 -0.502463 -10.926856 -2.387931 0.668466 -15.516258 48.194223 28.092276 112.192345 0.000000 0.000000 0.000000 0.369773 1.852778 -16.601041 2.955708 -0.307040 -11.250134 -48.411762 -25.962899 111.239498 0.000000 0.000000 0.000000 1.823990 -0.337037 5.704754 2.231748 2.030692 -49.750830 4.345346 3.493062 55.687070 -13.754109 3.329071 -95.535532 0.000000 0.000000 0.000000 -18.815423 0.303195 0.774837 -41.168581 13.879676 -14.310502 152.419871 38.006699 107.777816 0.000000 0.000000 0.000000 15.449731 5.230352 2.556602 41.651756 32.418633 0.713197 67.361116 -39.874721 -26.498788 0.000000 0.000000 0.000000 
0.041454 0.992624 -0.075235 0.438773 -8.600120 1.887664 4.324241 -0.506601 -10.856343 -2.564849 0.676820 -15.657255 47.638703 28.126151 111.942405 0.000000 0.000000 0.000000 0.121989 1.824162 -16.562714 2.853428 -0.305094 -11.121404 -47.666009 -25.870940 110.890550 0.000000 0.000000 0.000000 1.732581 -0.336658 5.848344 2.745935 2.095901 -50.064344 3.840677 3.546254 55.110683 -12.368614 3.526402 -94.228049 0.000000 0.000000 0.000000 -19.976189 -0.234762 1.098136 -41.722540 10.488417 -13.468067 152.137712 42.264592 114.408712 0.000000 0.000000 0.000000 15.333710 4.910601 2.333589 43.539243 29.289515 -0.046639 73.302763 -45.731828 -33.830719 0.000000 0.000000 0.000000 
0.041640 0.992294 -0.074652 0.651349 -8.015343 1.967448 3.776097 -0.598804 -11.438783 -2.727837 0.656661 -15.494791 49.001837 28.053383 112.333625 0.000000 0.000000 0.000000 -0.336622 1.724625 -16.219831 2.526745 -0.319737 -11.536419 -45.659020 -25.548130 111.039067 0.000000 0.000000 0.000000 1.636531 -0.326470 5.743063 2.543584 2.137724 -50.975494 3.129099 2.431056 55.443621 -13.158686 3.698295 -94.264771 0.000000 0.000000 0.000000 -21.827941 -0.992087 1.773806 -41.924786 4.637910 -11.916332 154.433102 48.503211 127.639645 0.000000 0.000000 0.000000 14.762460 5.193633 2.320641 45.226592 26.503568 -0.919468 80.585546 -51.679302 -43.468474 0.000000 0.000000 0.000000 
0.041865 0.991661 -0.074139 0.879998 -8.358852 1.886361 3.520121 -0.616728 -11.375622 -2.740393 0.654112 -15.164718 48.245773 28.125734 112.053654 0.000000 0.000000 0.000000 -0.486218 1.674164 -15.886603 2.337219 -0.315225 -11.284772 -44.075733 -25.833166 108.994655 0.000000 0.000000 0.000000 2.063789 -0.350265 5.708007 2.379795 2.114149 -50.272287 2.574491 2.705820 54.213155 -11.304149 3.880842 -92.546115 0.000000 0.000000 0.000000 -23.341469 -2.239741 2.538934 -42.767685 0.085287 -10.641137 154.825662 58.373414 138.845174 0.000000 0.000000 0.000000 14.789449 5.118745 2.216341 46.737460 22.940767 -1.968919 87.647075 -54.759060 -51.485008 0.000000 0.000000 0.000000 
0.042179 0.991714 -0.073860 1.078843 -7.967626 1.760336 3.146157 -0.673209 -11.609069 -2.868333 0.641516 -15.061338 49.257583 28.189848 111.908451 0.000000 0.000000 0.000000 -0.742505 1.604498 -15.558574 2.156037 -0.325232 -11.464940 -43.664706 -25.860211 108.962794 0.000000 0.000000 0.000000 2.256634 -0.368040 5.829261 2.051434 2.131683 -50.798796 1.408160 1.541095 54.252801 -9.865680 4.125906 -92.806033 0.000000 0.000000 0.000000 -24.744122 -2.650220 3.163355 -43.767122 -5.312501 -9.241631 157.185388 72.395730 153.111925 0.000000 0.000000 0.000000 14.127633 5.449164 2.166618 47.930515 19.751206 -3.125654 89.570164 -57.858314 -56.511808 0.000000 0.000000 0.000000 
0.042670 0.991796 -0.073725 1.387669 -8.609936 1.847167 3.036679 -0.675374 -11.604427 -2.751710 0.665512 -15.310288 48.688367 28.176618 112.385723 0.000000 0.000000 0.000000 -0.985888 1.628284 -15.877315 2.118663 -0.313507 -11.369219 -43.524254 -25.617648 108.988339 0.000000 0.000000 0.000000 2.633374 -0.381798 5.660221 2.027304 2.249128 -51.155750 0.211556 1.550685 54.339373 -8.785252 4.315039 -92.644161 0.000000 0.000000 0.000000 -25.282669 -3.627893 4.028416 -45.130927 -9.292884 -8.160441 -20.118119 88.710010 -15.606636 0.000000 0.000000 0.000000 14.010045 5.904135 2.243361 48.657022 17.173359 -4.092594 90.857030 -58.789969 -58.856128 0.000000 0.000000 0.000000 
0.042997 0.991278 -0.073186 1.686074 -9.461471 1.723910 2.764022 -0.695338 -11.696150 -2.374967 0.682110 -15.234089 48.568717 28.287032 112.818627 0.000000 0.000000 0.000000 -1.017531 1.652979 -16.005580 2.247571 -0.295585 -11.174006 -45.133380 -25.924999 108.494029 0.000000 0.000000 0.000000 3.109010 -0.394617 5.441384 1.437182 2.355660 -51.195338 -0.763431 1.084023 54.446310 -6.233375 4.629528 -92.766313 0.000000 0.000000 0.000000 -26.031381 -4.690593 5.138347 -45.994555 -12.058642 -7.327434 -20.656586 71.093755 -11.577225 0.000000 0.000000 0.000000 13.714062 6.361847 2.212908 49.060718 15.008020 -4.914466 88.668241 -58.914752 -57.854290 0.000000 0.000000 0.000000 
0.043180 0.991158 -0.072021 1.832566 -10.689214 1.671680 2.581780 -0.675574 -11.257967 -1.753566 0.716370 -15.403826 46.933805 28.467900 112.630761 0.000000 0.000000 0.000000 -1.079520 1.651812 -15.890659 2.483701 -0.267413 -11.162173 -44.422677 -25.878046 107.179826 0.000000 0.000000 0.000000 3.271380 -0.370576 4.925918 1.372523 2.438546 -50.680007 -1.209903 1.491775 53.913158 -4.849990 4.733660 -92.022496 0.000000 0.000000 0.000000 -26.281754 -5.298606 5.719891 -46.723148 -14.579862 -6.414786 -15.619843 59.401014 -6.488455 0.000000 0.000000 0.000000 13.769377 6.490617 2.124959 49.529647 13.475189 -5.421200 83.457338 -57.964597 -53.050266 0.000000 0.000000 0.000000 
0.043297 0.990524 -0.070606 1.902383 -11.088993 1.416513 2.681030 -0.630474 -10.678883 -1.672565 0.740625 -15.708580 47.413018 28.539665 113.103608 0.000000 0.000000 0.000000 -0.909769 1.640012 -15.627918 2.620839 -0.255893 -11.201090 -46.468402 -26.340490 106.983536 0.000000 0.000000 0.000000 3.494196 -0.357849 4.591972 1.340120 2.464859 -50.523729 -2.334974 1.009200 53.945459 -3.097874 4.942862 -91.841243 0.000000 0.000000 0.000000 -27.240246 -5.592514 6.352198 -46.294241 -16.305437 -5.864240 -14.884631 52.378116 -5.387312 0.000000 0.000000 0.000000 14.088751 6.924968 2.112863 49.925423 12.695607 -5.722780 76.803644 -55.930080 -46.568291 0.000000 0.000000 0.000000 
0.043525 0.990026 -0.069340 1.977194 -11.840934 1.356878 2.786579 -0.579520 -10.044581 -1.402805 0.773488 -15.986406 47.497828 28.641486 113.727197 0.000000 0.000000 0.000000 -0.603898 1.668316 -15.563045 2.768919 -0.238503 -11.016343 -48.360496 -27.256820 105.467219 0.000000 0.000000 0.000000 3.635067 -0.332284 4.107050 1.171265 2.501454 -50.153893 -2.755496 1.306402 53.747547 -2.636289 5.005091 -91.370495 0.000000 0.000000 0.000000 -27.364081 -5.956457 6.742930 -45.935561 -18.050907 -5.237688 -13.980525 48.036084 -4.599575 0.000000 0.000000 0.000000 14.625642 6.862805 1.960098 50.666289 12.186707 -5.906668 69.675228 -52.543726 -38.909636 0.000000 0.000000 0.000000 
0.043955 0.989119 -0.068449 1.888091 -12.300070 1.250239 2.975777 -0.527902 -9.491574 -1.351272 0.810341 -16.432447 48.223852 28.830248 113.847350 0.000000 0.000000 0.000000 -0.232830 1.710469 -15.591320 2.689069 -0.234112 -10.726473 -49.547673 -27.631158 105.014654 0.000000 0.000000 0.000000 3.796570 -0.327559 3.955388 0.928982 2.511158 -49.861230 -3.232798 0.950535 53.435538 -1.830588 5.128676 -90.856552 0.000000 0.000000 0.000000 -28.087295 -6.243960 7.297765 -44.965052 -18.789389 -5.039973 -11.461397 43.939701 -3.325263 0.000000 0.000000 0.000000 15.136090 7.229763 1.916460 51.186190 11.555410 -6.101408 62.485319 -48.332623 -31.711461 0.000000 0.000000 0.000000 
0.044556 0.988644 -0.067696 1.816237 -12.442634 1.371522 3.072498 -0.505751 -9.226376 -1.480677 0.842319 -16.922404 48.472247 28.977223 113.488314 0.000000 0.000000 0.000000 0.007205 1.765828 -15.831497 2.288661 -0.242342 -10.485094 -49.375525 -27.501905 105.097803 0.000000 0.000000 0.000000 3.721573 -0.298254 3.528625 0.474966 2.468138 -49.409781 -3.496870 0.357942 52.935690 -2.201524 5.231522 -90.386091 0.000000 0.000000 0.000000 -28.527869 -6.734619 7.927148 -44.354948 -20.033161 -4.624218 -11.505236 41.300393 -3.189355 0.000000 0.000000 0.000000 15.527623 7.570796 1.860028 51.906813 11.400046 -6.095642 57.808080 -44.124397 -26.663432 0.000000 0.000000 0.000000 
0.045318 0.988295 -0.066967 1.714417 -12.756463 1.335835 3.352023 -0.454270 -8.774222 -1.624562 0.878653 -17.416759 47.993664 29.008245 113.463011 0.000000 0.000000 0.000000 0.200926 1.801022 -15.930392 2.307104 -0.239648 -10.092223 -49.727593 -27.776177 104.506963 0.000000 0.000000 0.000000 3.569446 -0.290593 3.505970 0.477607 2.471410 -49.203594 -3.689985 0.124322 52.482709 -1.622759 5.262402 -89.853322 0.000000 0.000000 0.000000 -28.831463 -6.657868 8.083620 -43.502651 -20.301445 -4.552068 -10.171580 38.539151 -2.633930 0.000000 0.000000 0.000000 16.361220 7.633532 1.686086 51.853924 10.996971 -6.117308 54.186228 -41.150541 -23.320027 0.000000 0.000000 0.000000 
0.046078 0.988032 -0.066250 1.661876 -12.988724 1.398600 3.479237 -0.416043 -8.217784 -1.594215 0.914473 -17.874918 46.256826 29.057203 112.525736 0.000000 0.000000 0.000000 0.565724 1.836661 -15.928277 2.028253 -0.239723 -10.159520 -50.679545 -28.158447 104.099386 0.000000 0.000000 0.000000 3.263788 -0.254260 3.101978 0.137105 2.464222 -49.011274 -3.647866 -0.400015 52.553679 -2.025862 5.392876 -90.087243 0.000000 0.000000 0.000000 -29.094599 -6.159560 8.069625 -42.595897 -20.559136 -4.581935 -9.391767 36.013614 -2.293806 0.000000 0.000000 0.000000 17.055023 7.649056 1.457412 51.961974 11.533273 -5.853351 50.956614 -39.520886 -21.097764 0.000000 0.000000 0.000000 
0.047099 0.988015 -0.065813 1.542859 -13.251916 1.306603 3.808467 -0.369702 -7.926685 -1.910328 0.933053 -18.152862 45.321714 28.997479 112.544549 0.000000 0.000000 0.000000 0.785110 1.830212 -15.725203 2.049122 -0.232641 -10.401312 -51.389197 -28.294069 104.043822 0.000000 0.000000 0.000000 3.213235 -0.241300 2.933044 -0.249176 2.452071 -48.718277 -3.326169 -0.619010 52.221439 -2.439071 5.361371 -89.496467 0.000000 0.000000 0.000000 -29.358391 -6.351375 8.333498 -42.492330 -20.717813 -4.527679 -9.750115 34.277344 -2.353825 0.000000 0.000000 0.000000 18.238598 7.518543 1.161700 52.015262 11.873725 -5.585686 47.515953 -39.046996 -19.429058 0.000000 0.000000 0.000000 
0.048446 0.988003 -0.065707 1.402932 -13.208286 1.532911 3.843550 -0.371494 -7.983578 -1.820839 0.945728 -18.343748 44.938337 28.985170 112.286908 0.000000 0.000000 0.000000 0.988788 1.859488 -15.804812 1.760533 -0.237455 -10.685854 -51.332963 -28.225976 104.187829 0.000000 0.000000 0.000000 2.978546 -0.211519 2.551190 -0.486775 2.457553 -48.778443 -3.194360 -1.172651 52.377989 -3.091200 5.513361 -89.954152 0.000000 0.000000 0.000000 -29.465964 -5.967457 8.263608 -42.655509 -21.372153 -4.359388 -11.343101 32.777235 -2.744725 0.000000 0.000000 0.000000 18.882594 7.509147 0.946267 52.313481 12.656758 -5.233289 42.970176 -38.857488 -17.480541 0.000000 0.000000 0.000000 
0.050155 0.988090 -0.065664 1.352920 -13.412132 1.535218 3.870792 -0.375284 -8.207569 -1.768436 0.930835 -18.022857 44.799010 28.923516 112.814283 0.000000 0.000000 0.000000 0.995061 1.850062 -15.722993 1.984415 -0.230137 -10.562413 -51.522395 -28.848783 102.895065 0.000000 0.000000 0.000000 2.793818 -0.185091 2.218846 -0.696867 2.403952 -48.221729 -2.560943 -1.195797 51.987081 -3.763396 5.416747 -89.355691 0.000000 0.000000 0.000000 -29.952566 -6.019517 8.373734 -43.102649 -21.648519 -4.245275 -12.201027 32.379930 -2.963777 0.000000 0.000000 0.000000 19.572059 7.443515 0.800681 52.160341 13.121164 -4.931323 38.836331 -38.733436 -15.757860 0.000000 0.000000 0.000000 
0.051991 0.988120 -0.065508 1.356951 -13.235635 1.333185 3.925324 -0.368801 -8.168176 -2.139326 0.894817 -17.616323 45.462829 29.026796 112.382338 0.000000 0.000000 0.000000 0.972148 1.777678 -15.249064 2.067592 -0.229777 -10.675332 -51.921665 -29.572825 101.703604 0.000000 0.000000 0.000000 2.694554 -0.217066 2.816775 -0.643963 2.350879 -47.950530 -2.656063 -0.932704 51.298563 -3.189308 5.346456 -89.130112 0.000000 0.000000 0.000000 -30.360472 -5.789866 8.091771 -42.674422 -22.075600 -4.006275 -14.543029 31.835686 -3.672182 0.000000 0.000000 0.000000 20.580890 7.226215 0.640956 51.740895 13.468606 -4.607655 33.870329 -38.283084 -13.594797 0.000000 0.000000 0.000000 
0.053908 0.988851 -0.065304 1.593929 -13.651424 1.422195 4.054420 -0.353782 -8.212799 -2.356821 0.887033 -17.345562 44.826550 29.043301 112.423578 0.000000 0.000000 0.000000 0.354440 1.702198 -15.066733 2.789018 -0.201998 -10.782053 -51.075902 -30.241305 99.564235 0.000000 0.000000 0.000000 2.710486 -0.198524 2.486900 -0.710604 2.370795 -47.791433 -2.118631 -0.285578 51.564758 -3.762771 5.232229 -89.462740 0.000000 0.000000 0.000000 -31.434605 -6.089372 8.325486 -41.802640 -21.968070 -4.144242 -14.864209 31.252246 -3.793695 0.000000 0.000000 0.000000 21.542832 7.282076 0.722382 50.833283 13.613155 -4.545975 30.019338 -36.960230 -11.636491 0.000000 0.000000 0.000000 
0.055699 0.989525 -0.065388 1.379837 -13.342839 0.765132 4.261590 -0.290161 -7.146074 -2.110338 0.892360 -17.533130 44.883868 29.158067 111.406037 0.000000 0.000000 0.000000 0.007062 1.551352 -14.168843 2.974873 -0.203656 -10.797322 -48.586410 -29.466655 99.589129 0.000000 0.000000 0.000000 2.035767 -0.211908 3.223061 0.638520 2.267307 -47.427637 -2.930765 0.338604 51.370923 -2.556829 5.116523 -89.326479 0.000000 0.000000 0.000000 -30.914527 -5.683225 7.665286 -41.884748 -22.527065 -3.843338 -17.579714 31.875903 -4.660112 0.000000 0.000000 0.000000 22.072091 7.505772 0.998432 50.281759 14.442679 -4.161050 27.037800 -36.942313 -10.474437 0.000000 0.000000 0.000000 
0.057296 0.989795 -0.065547 1.914802 -13.591317 0.493317 4.319135 -0.222419 -5.712436 -2.434861 0.974623 -18.854230 37.619836 28.873807 106.350233 0.000000 0.000000 0.000000 -0.996139 1.465784 -14.065667 4.041672 -0.177950 -10.493149 -49.262075 -30.333010 98.118363 0.000000 0.000000 0.000000 0.831874 -0.234545 5.027689 1.717556 2.845085 -51.647132 -2.364555 1.382444 53.461191 -1.863230 4.846394 -88.056963 0.000000 0.000000 0.000000 -29.422647 -5.593793 7.168131 -43.395361 -22.037439 -4.158201 -19.484505 32.306051 -5.140744 0.000000 0.000000 0.000000 20.228775 5.717213 0.693991 52.451819 15.879756 -4.247995 21.343034 -38.444484 -8.366070 0.000000 0.000000 0.000000 
0.058837 0.991762 -0.066331 1.925616 -10.829275 -0.404561 4.364752 -0.266968 -6.272483 -3.771552 0.814677 -18.020117 37.755532 28.482603 104.575273 0.000000 0.000000 0.000000 -1.962099 1.076229 -11.342361 4.174300 -0.148596 -14.088605 -49.612956 -28.946253 102.888558 0.000000 0.000000 0.000000 1.002998 -0.247113 5.105676 -0.127806 2.389417 -50.497530 -2.157976 0.354907 53.329260 2.176607 4.502255 -86.724349 0.000000 0.000000 0.000000 -26.916482 -6.890572 7.329492 -43.936220 -22.530293 -3.717437 -23.716147 32.873839 -6.323485 0.000000 0.000000 0.000000 20.177780 6.546347 1.423486 52.721071 16.776946 -3.817719 21.106541 -39.820725 -8.386094 0.000000 0.000000 0.000000 
