HIERARCHY
ROOT Hips
{
	OFFSET -0.001795 -0.223333 0.028219
	CHANNELS 6 Xposition Yposition Zposition Zrotation Yrotation Xrotation 
	JOINT LeftUpLeg
	{
		OFFSET 0.069520 -0.091406 -0.006815
		CHANNELS 3 Zrotation Yrotation Xrotation
		JOINT LeftLeg
		{
			OFFSET 0.034277 -0.375199 -0.004496
			CHANNELS 3 Zrotation Yrotation Xrotation
			JOINT LeftFoot
			{
				OFFSET -0.013596 -0.397961 -0.043693
				CHANNELS 3 Zrotation Yrotation Xrotation
				JOINT LeftToe
				{
					OFFSET 0.026358 -0.055791 0.119288
					CHANNELS 3 Zrotation Yrotation Xrotation
					End Site
					{
						OFFSET 0.000000 0.000000 0.000000
					}
				}
			}
		}
	}
	JOINT RightUpLeg
	{
		OFFSET -0.067670 -0.090522 -0.004320
		CHANNELS 3 Zrotation Yrotation Xrotation
		JOINT RightLeg
		{
			OFFSET -0.038290 -0.382569 -0.008850
			CHANNELS 3 Zrotation Yrotation Xrotation
			JOINT RightFoot
			{
				OFFSET 0.015774 -0.398415 -0.042312
				CHANNELS 3 Zrotation Yrotation Xrotation
				JOINT RightToe
				{
					OFFSET -0.025372 -0.048144 0.123348
					CHANNELS 3 Zrotation Yrotation Xrotation
					End Site
					{
						OFFSET 0.000000 0.000000 0.000000
					}
				}
			}
		}
	}
	JOINT Spine
	{
		OFFSET -0.002533 0.108963 -0.026696
		CHANNELS 3 Zrotation Yrotation Xrotation
		JOINT Spine1
		{
			OFFSET 0.005487 0.135180 0.001092
			CHANNELS 3 Zrotation Yrotation Xrotation
			JOINT Spine2
			{
				OFFSET 0.001457 0.052922 0.025425
				CHANNELS 3 Zrotation Yrotation Xrotation
				JOINT Neck
				{
					OFFSET -0.002778 0.213870 -0.042857
					CHANNELS 3 Zrotation Yrotation Xrotation
					JOINT Head
					{
						OFFSET 0.005152 0.064970 0.051349
						CHANNELS 3 Zrotation Yrotation Xrotation
						End Site
						{
							OFFSET 0.000000 0.000000 0.000000
						}
					}
				}
				JOINT LeftShoulder
				{
					OFFSET 0.078845 0.121749 -0.034090
					CHANNELS 3 Zrotation Yrotation Xrotation
					JOINT LeftArm
					{
						OFFSET 0.090977 0.030469 -0.008868
						CHANNELS 3 Zrotation Yrotation Xrotation
						JOINT LeftForeArm
						{
							OFFSET 0.259612 -0.012772 -0.027456
							CHANNELS 3 Zrotation Yrotation Xrotation
							JOINT LeftHand
							{
								OFFSET 0.249234 0.008986 -0.001171
								CHANNELS 3 Zrotation Yrotation Xrotation
								End Site
								{
									OFFSET 0.000000 0.000000 0.000000
								}
							}
						}
					}
				}
				JOINT RightShoulder
				{
					OFFSET -0.081759 0.118833 -0.038615
					CHANNELS 3 Zrotation Yrotation Xrotation
					JOINT RightArm
					{
						OFFSET -0.096012 0.032551 -0.009143
						CHANNELS 3 Zrotation Yrotation Xrotation
						JOINT RightForeArm
						{
							OFFSET -0.253742 -0.013329 -0.021401
							CHANNELS 3 Zrotation Yrotation Xrotation
							JOINT RightHand
							{
								OFFSET -0.255298 0.007772 -0.005559
								CHANNELS 3 Zrotation Yrotation Xrotation
								End Site
								{
									OFFSET 0.000000 0.000000 0.000000
								}
							}
						}
					}
				}
			}
		}
	}
}
MOTION
Frames: 112
Frame Time: 0.050000
0.000000 0.945414 0.000000 -1.489477 -12.307204 -1.564110 6.825769 0.203422 0.929230 -1.400355 0.149203 4.542110 3.951265 9.166438 5.475249 0.000000 0.000000 0.000000 -2.394689 0.493816 -5.121962 3.335263 0.026523 10.587595 -2.682445 -9.048427 5.330343 0.000000 0.000000 0.000000 -0.635692 -0.235784 8.491802 6.203495 -1.410185 -20.689830 0.189248 1.113696 29.633586 -1.486525 1.236899 -19.903204 0.000000 0.000000 0.000000 -18.125194 2.347090 -0.587792 -55.312601 -5.168070 -6.962968 -11.560012 -28.075295 4.879835 0.000000 0.000000 0.000000 10.918002 4.329950 0.469967 58.531834 2.357720 -7.656281 -1.740096 27.564015 0.561613 0.000000 0.000000 0.000000 
-0.001611 0.944006 0.000509 -1.691823 -12.684403 -1.182590 8.066902 0.209557 -0.021045 -2.533322 0.364716 5.528915 4.078129 9.206684 3.676306 0.000000 0.000000 0.000000 -1.684847 0.629538 -6.604976 2.598879 0.295467 13.220050 -2.835518 -9.315846 5.131843 0.000000 0.000000 0.000000 -0.313667 -0.276530 9.345284 6.073281 -1.353679 -21.016659 1.250456 0.496310 29.401807 -2.728660 1.952415 -18.499655 0.000000 0.000000 0.000000 -18.714284 2.938059 -0.713295 -55.219134 -3.756825 -7.644663 -13.536353 -29.811112 5.888093 0.000000 0.000000 0.000000 10.016825 4.801396 0.647304 58.060844 0.832423 -8.356648 -2.173540 27.620399 0.396142 0.000000 0.000000 0.000000 
-0.003263 0.941841 -0.000225 -1.313735 -11.522958 -1.148862 8.288642 0.152742 -1.625288 -2.656367 0.411649 8.584765 3.574148 7.902793 1.340807 0.000000 0.000000 0.000000 -1.862299 0.757597 -8.034208 2.814283 0.366727 15.873156 -3.588502 -10.338596 3.767244 0.000000 0.000000 0.000000 -0.623589 -0.270926 10.416201 6.825076 -1.526186 -21.021023 0.831736 -0.605310 29.314855 -3.018775 2.079983 -19.547293 0.000000 0.000000 0.000000 -19.048255 3.108765 -0.744848 -54.461794 -3.804543 -7.586314 -14.308610 -30.146173 6.186067 0.000000 0.000000 0.000000 8.895939 4.912839 0.777427 58.392627 -0.335823 -9.052751 -2.107988 29.089585 0.408142 0.000000 0.000000 0.000000 
-0.005008 0.941862 -0.002817 -0.850679 -11.501713 -1.364932 8.960229 0.173721 -2.661127 -3.373306 0.607680 10.262163 2.886089 6.509002 1.618372 0.000000 0.000000 0.000000 -2.336054 0.888858 -9.603041 3.313481 0.371866 17.956302 -3.831755 -11.132671 4.471911 0.000000 0.000000 0.000000 -0.923759 -0.256566 12.578341 7.445602 -1.723747 -20.669978 0.881677 -0.140175 28.706869 -3.616643 2.597559 -19.076484 0.000000 0.000000 0.000000 -18.777860 2.898040 -0.807304 -53.721887 -3.094826 -7.721196 -16.237877 -31.743892 7.063870 0.000000 0.000000 0.000000 8.751321 5.712210 1.196971 56.621905 -0.606034 -8.788036 -1.290738 29.483090 0.615031 0.000000 0.000000 0.000000 
-0.006780 0.941640 -0.007784 -0.336041 -10.286392 -1.392628 8.908082 0.117567 -4.654366 -2.844240 0.518172 13.121603 2.607722 5.853548 1.226427 0.000000 0.000000 0.000000 -3.030697 1.000372 -11.265642 4.038169 0.223303 19.590185 -4.664055 -12.893375 4.563419 0.000000 0.000000 0.000000 -0.433446 -0.349579 14.968943 7.370438 -1.818600 -19.400320 0.688986 0.224052 27.435502 -4.047335 3.068777 -19.766303 0.000000 0.000000 0.000000 -17.919432 2.467378 -0.896353 -53.852611 -3.312993 -7.429393 -16.720835 -33.859174 7.636772 0.000000 0.000000 0.000000 8.161542 5.728954 1.382237 56.436976 -0.848605 -8.684388 0.001399 29.602598 0.991949 0.000000 0.000000 0.000000 
-0.008326 0.941758 -0.015169 0.228213 -9.242096 -1.062547 9.019645 0.076026 -6.642697 -3.449295 0.690302 15.011856 2.118555 4.730508 0.788448 0.000000 0.000000 0.000000 -3.951943 1.113135 -13.355691 4.938108 -0.003210 21.230775 -5.395438 -14.630512 5.442678 0.000000 0.000000 0.000000 -0.096144 -0.439441 17.425522 7.021761 -1.790020 -18.497695 1.074255 0.568219 26.476484 -4.354372 3.429953 -20.091637 0.000000 0.000000 0.000000 -18.304125 1.773347 -0.805207 -52.734365 -3.579150 -7.114257 -17.493558 -35.841684 8.259719 0.000000 0.000000 0.000000 7.331122 6.075452 1.690075 55.590357 -0.641767 -8.312019 0.465078 29.747197 1.154701 0.000000 0.000000 0.000000 
-0.009120 0.941650 -0.024356 0.655455 -7.837885 -0.074984 9.330867 0.036432 -9.254294 -3.750383 0.757967 16.526106 1.822811 4.273076 1.393802 0.000000 0.000000 0.000000 -5.007452 1.182258 -15.508228 5.651507 -0.279520 21.700503 -5.701326 -15.351718 5.957857 0.000000 0.000000 0.000000 0.450872 -0.604811 19.879150 6.769532 -1.727015 -17.961603 0.929621 1.300281 25.735770 -4.174341 3.545735 -20.570104 0.000000 0.000000 0.000000 -18.797136 0.899896 -0.755258 -51.534374 -4.981294 -6.319581 -17.317751 -36.804488 8.231653 0.000000 0.000000 0.000000 6.912619 6.303756 1.970355 55.508069 0.148834 -7.785780 0.947576 29.970244 1.384105 0.000000 0.000000 0.000000 
-0.008622 0.940142 -0.034568 0.908416 -6.269022 0.498322 10.042395 0.063746 -12.477919 -4.756226 1.061259 19.357833 1.772250 4.070214 1.004956 0.000000 0.000000 0.000000 -5.864228 1.207178 -17.572719 6.627095 -0.653918 22.998730 -6.496722 -17.033218 6.769062 0.000000 0.000000 0.000000 1.257534 -0.882262 22.506235 6.540044 -1.689224 -17.213700 1.157501 2.288799 25.412509 -4.397653 3.984119 -19.968149 0.000000 0.000000 0.000000 -20.277738 -0.862463 -0.343440 -49.476399 -6.463142 -5.476404 -16.522768 -38.337968 8.057830 0.000000 0.000000 0.000000 5.963630 7.167001 2.519797 55.017885 1.964992 -6.770581 0.770078 30.139058 1.463556 0.000000 0.000000 0.000000 
-0.006048 0.937260 -0.044622 1.209573 -5.280915 1.471399 10.420089 0.082952 -15.415917 -5.414942 1.306521 21.978183 2.306404 5.247538 1.254056 0.000000 0.000000 0.000000 -7.237185 1.153318 -19.773279 7.711103 -1.063923 23.852094 -6.819403 -17.674084 6.872311 0.000000 0.000000 0.000000 2.025839 -1.173762 24.613678 6.079862 -1.574118 -16.584813 1.281900 3.181403 24.861701 -4.800252 4.464417 -19.179189 0.000000 0.000000 0.000000 -21.837237 -2.408147 0.016888 -47.985731 -6.398441 -5.253859 -16.934337 -39.730160 8.316778 0.000000 0.000000 0.000000 7.251773 8.497167 3.242089 51.905438 3.626633 -5.627718 -0.375452 31.386401 1.287316 0.000000 0.000000 0.000000 
-0.001179 0.931815 -0.052882 1.391648 -3.934563 1.867839 10.835385 0.108492 -18.118180 -5.889902 1.499562 25.401222 2.579178 5.461757 0.013819 0.000000 0.000000 0.000000 -8.458687 1.019830 -21.808661 8.889398 -1.586086 25.457219 -7.534082 -19.015440 6.540454 0.000000 0.000000 0.000000 2.615648 -1.478027 26.487873 5.986306 -1.533366 -16.322330 1.546918 4.316059 25.339899 -5.043629 4.909900 -19.493001 0.000000 0.000000 0.000000 -23.776682 -3.950171 0.235787 -45.451968 -6.342821 -4.937273 -17.809686 -41.557795 8.818786 0.000000 0.000000 0.000000 7.780746 10.005980 4.132279 49.572308 5.607193 -4.657469 -2.196500 33.214444 0.985238 0.000000 0.000000 0.000000 
0.005648 0.926087 -0.058429 1.579566 -3.288986 1.575379 10.878816 0.102484 -19.224916 -6.028694 1.586596 27.801666 3.179435 6.723003 0.046480 0.000000 0.000000 0.000000 -9.294927 0.881559 -22.814441 9.320652 -1.845290 27.299855 -7.758459 -19.400950 6.027646 0.000000 0.000000 0.000000 2.822989 -1.652039 28.179125 5.941534 -1.562207 -15.652480 1.720761 5.030499 25.487311 -5.517490 5.391402 -19.309881 0.000000 0.000000 0.000000 -24.769415 -4.127466 -0.089439 -44.421203 -5.259358 -5.124395 -20.976226 -42.936178 10.282361 0.000000 0.000000 0.000000 7.977048 11.396004 4.864870 46.739512 8.146654 -3.550701 -4.014915 35.294821 0.572043 0.000000 0.000000 0.000000 
0.014003 0.919949 -0.061249 1.581515 -2.914386 1.220683 10.950358 0.107270 -19.631500 -6.375037 1.753360 29.556057 3.738877 7.709691 -0.622864 0.000000 0.000000 0.000000 -9.791830 0.783606 -23.326342 9.661417 -2.067407 29.197149 -8.143978 -20.131974 5.417119 0.000000 0.000000 0.000000 2.968805 -1.763828 29.117965 5.564166 -1.465872 -15.304364 1.982618 5.923199 26.620615 -5.273188 5.438751 -18.978909 0.000000 0.000000 0.000000 -24.592392 -3.929729 -0.528659 -44.134193 -4.185205 -5.457726 -23.366226 -43.785506 11.381649 0.000000 0.000000 0.000000 7.825833 11.856514 5.182601 45.581641 10.938428 -2.606579 -7.070281 38.419146 -0.184019 0.000000 0.000000 0.000000 
0.023843 0.916715 -0.062688 1.344613 -2.383618 0.718274 11.245797 0.130568 -19.260393 -6.466494 1.747006 30.166062 4.074352 8.347696 -0.858672 0.000000 0.000000 0.000000 -9.995373 0.694334 -22.962422 9.688727 -2.155532 29.621424 -8.452896 -20.711225 4.858425 0.000000 0.000000 0.000000 2.915860 -1.831699 29.871278 5.815334 -1.533819 -15.405605 2.118743 6.536186 27.598719 -4.764011 5.268740 -18.465010 0.000000 0.000000 0.000000 -23.959494 -2.968365 -1.317585 -44.170606 -1.935198 -6.230010 -28.184135 -45.319609 13.810639 0.000000 0.000000 0.000000 6.819099 12.065103 5.231299 45.590610 13.704690 -1.631448 -10.041323 40.995636 -1.036714 0.000000 0.000000 0.000000 
0.035514 0.914591 -0.064816 1.066365 -1.794457 0.144022 11.638437 0.169637 -19.074748 -6.786943 1.844841 31.369769 4.283823 8.812621 -0.712923 0.000000 0.000000 0.000000 -10.773271 0.506958 -22.815063 9.733786 -2.269050 30.203836 -8.819584 -21.407770 5.953996 0.000000 0.000000 0.000000 2.650171 -1.876502 31.120556 5.824926 -1.530514 -15.404665 2.506831 6.882870 28.172807 -4.094561 4.929288 -18.514309 0.000000 0.000000 0.000000 -23.091404 -2.001698 -1.982526 -44.450628 -0.402322 -6.797001 -32.639445 -46.294500 16.060721 0.000000 0.000000 0.000000 6.248864 11.995625 5.173242 45.255541 16.674880 -0.538977 -13.077918 43.233844 -2.061551 0.000000 0.000000 0.000000 
0.049123 0.913711 -0.068715 0.511169 -1.530709 0.335273 12.156438 0.250479 -19.895349 -7.637573 2.232063 32.939332 4.454449 9.288946 -0.202759 0.000000 0.000000 0.000000 -11.219088 0.424079 -23.518785 9.650811 -2.267763 29.969318 -9.068660 -21.874889 6.905981 0.000000 0.000000 0.000000 2.343621 -1.859107 31.728996 5.754715 -1.499661 -15.388309 2.890327 7.704451 28.256656 -2.988539 4.346611 -18.850055 0.000000 0.000000 0.000000 -21.689635 -1.268664 -2.499419 -44.782944 1.502720 -7.469512 -37.192234 -47.058738 18.298211 0.000000 0.000000 0.000000 6.279407 12.039967 5.286823 44.796515 18.717221 0.232836 -15.683982 44.063431 -2.952590 0.000000 0.000000 0.000000 
0.065347 0.909972 -0.074150 -0.015786 -1.118512 0.701011 12.554559 0.317331 -21.491568 -8.008824 2.437552 35.105837 4.581144 9.287873 -1.296673 0.000000 0.000000 0.000000 -11.924918 0.277292 -24.895908 9.957505 -2.485716 30.775206 -9.621869 -22.901749 7.568798 0.000000 0.000000 0.000000 1.825706 -1.824088 32.868487 6.154554 -1.557069 -16.103782 3.364188 8.419204 29.203441 -2.580870 4.266862 -19.338912 0.000000 0.000000 0.000000 -21.718060 -0.612195 -3.142785 -43.938160 2.054253 -7.508167 -41.765697 -48.232055 20.854334 0.000000 0.000000 0.000000 5.995292 12.454896 5.504518 43.713726 20.822787 0.892859 -18.108377 42.315829 -3.620900 0.000000 0.000000 0.000000 
0.084029 0.904867 -0.080008 0.039095 -0.840089 0.864907 12.489885 0.314384 -22.997676 -9.429056 3.147096 36.937271 4.923358 9.942430 -1.577760 0.000000 0.000000 0.000000 -13.890483 -0.146993 -26.444699 11.336329 -3.134264 31.853353 -9.589739 -22.804448 8.120444 0.000000 0.000000 0.000000 0.938723 -1.678221 34.892315 6.340312 -1.596710 -16.203901 3.533043 9.076000 29.038407 -2.181072 4.119476 -19.202470 0.000000 0.000000 0.000000 -21.777887 -0.655304 -3.379614 -42.332631 2.547241 -7.280401 -45.391181 -49.480204 23.068508 0.000000 0.000000 0.000000 6.687746 13.514059 6.163248 41.792370 22.675811 1.338181 -19.968747 39.921576 -4.022080 0.000000 0.000000 0.000000 
0.103943 0.896371 -0.085753 0.393546 0.974625 0.704650 11.324819 -0.034048 -25.425586 -9.802390 3.156443 39.645117 4.943663 9.607882 -2.990828 0.000000 0.000000 0.000000 -17.433097 -1.246413 -28.922481 14.245523 -4.976998 35.629534 -10.572568 -24.182270 11.620025 0.000000 0.000000 0.000000 0.402905 -1.820223 36.940211 6.634815 -1.646248 -16.258586 4.018751 9.040797 29.362353 -2.884679 4.718575 -19.086999 0.000000 0.000000 0.000000 -21.970651 -1.013759 -3.466915 -41.307153 1.988381 -6.849432 -47.034407 -50.406007 24.197008 0.000000 0.000000 0.000000 5.930548 14.132036 6.344001 40.696022 23.843659 1.670955 -21.367135 36.202656 -4.000190 0.000000 0.000000 0.000000 
0.122081 0.888282 -0.091291 0.663259 2.610618 0.391142 10.064066 -0.457396 -27.679280 -10.371612 3.265666 42.551559 5.509088 10.450139 -4.438180 0.000000 0.000000 0.000000 -21.282528 -2.846956 -32.737648 17.586075 -7.983158 43.369748 -10.669688 -24.030968 13.546521 0.000000 0.000000 0.000000 -0.259654 -1.952037 39.481398 8.303225 -2.133888 -16.404191 3.534484 10.106604 29.459053 -3.269118 5.242845 -17.859687 0.000000 0.000000 0.000000 -23.546529 -1.816455 -3.907247 -38.429420 2.066782 -6.115153 -49.303267 -52.155028 25.924843 0.000000 0.000000 0.000000 7.176552 15.835995 7.527327 36.655944 23.459121 1.015756 -21.174311 31.598612 -3.459672 0.000000 0.000000 0.000000 
0.135299 0.878186 -0.096887 0.628875 4.283975 0.986188 9.285702 -0.887292 -30.786938 -10.910047 3.387168 46.468704 5.488127 9.619485 -7.104699 0.000000 0.000000 0.000000 -23.201015 -4.508605 -38.468355 19.560814 -10.968762 51.032748 -11.387265 -25.092300 13.788457 0.000000 0.000000 0.000000 -0.082399 -2.544114 42.998719 8.611345 -2.112834 -17.081807 3.820271 10.698501 28.815875 -5.930836 7.134129 -19.982834 0.000000 0.000000 0.000000 -22.479666 -1.861017 -4.070563 -39.134238 1.844509 -6.071093 -52.511615 -52.688052 27.675412 0.000000 0.000000 0.000000 7.252531 16.835775 8.141300 34.530506 23.161953 0.755803 -20.960181 27.038393 -2.881658 0.000000 0.000000 0.000000 
0.141646 0.868919 -0.101666 1.002825 6.021566 2.189018 8.811394 -1.370631 -34.237862 -11.361391 3.357993 48.760533 5.324643 9.205129 -7.168441 0.000000 0.000000 0.000000 -22.753170 -5.439664 -43.024740 18.963681 -11.665731 53.970028 -10.744582 -24.042681 12.567891 0.000000 0.000000 0.000000 0.539627 -3.500801 46.802932 8.033337 -1.667563 -19.118984 4.439936 11.370785 29.734614 -5.953068 7.382257 -20.752354 0.000000 0.000000 0.000000 -23.558401 -2.951715 -4.139854 -38.319829 1.124418 -5.596114 -52.786091 -54.697087 28.793359 0.000000 0.000000 0.000000 7.320153 18.732508 9.190790 31.496455 22.744149 0.288898 -20.279670 21.681325 -2.167684 0.000000 0.000000 0.000000 
0.141367 0.856800 -0.104644 1.349069 6.939913 3.974296 10.048165 -1.366022 -37.999175 -13.484256 4.556626 50.930036 5.267973 8.579306 -8.805959 0.000000 0.000000 0.000000 -20.014096 -5.117974 -47.123199 16.211602 -9.873556 53.134727 -9.012107 -21.161006 8.755383 0.000000 0.000000 0.000000 0.408216 -4.105258 50.752583 8.578275 -1.555090 -21.231788 4.602439 13.690919 30.245409 -6.528336 8.144896 -21.504445 0.000000 0.000000 0.000000 -24.287390 -3.324313 -4.985318 -36.878470 1.488944 -5.228655 -58.595949 -55.566437 32.279836 0.000000 0.000000 0.000000 9.421225 20.521984 11.112700 26.805420 22.013297 -0.403699 -19.908928 17.790234 -1.726164 0.000000 0.000000 0.000000 
0.135952 0.839786 -0.104612 1.884613 9.117791 6.281595 10.657283 -1.857112 -42.895192 -14.185731 4.700643 53.485684 5.516439 9.022464 -9.631342 0.000000 0.000000 0.000000 -17.697312 -4.981505 -49.302252 13.709707 -8.779578 53.192730 -8.955877 -21.026617 6.224092 0.000000 0.000000 0.000000 0.129821 -4.993831 54.134997 7.719778 -1.159772 -22.168942 6.262689 15.880955 29.592816 -4.493393 7.192491 -21.718183 0.000000 0.000000 0.000000 -24.816321 -4.618616 -5.475013 -36.487210 1.199081 -4.685455 -62.633045 -54.154888 33.122168 0.000000 0.000000 0.000000 8.772812 20.733175 11.473432 25.235832 21.986841 -0.376557 -18.580953 15.067191 -1.255441 0.000000 0.000000 0.000000 
0.127770 0.817726 -0.102273 2.540597 11.438367 6.894849 11.672840 -2.204058 -45.968146 -16.185489 5.645813 56.593335 5.864175 9.164189 -12.024037 0.000000 0.000000 0.000000 -17.305185 -5.647998 -50.097229 13.075357 -9.549254 56.580831 -9.578199 -22.442737 2.295921 0.000000 0.000000 0.000000 -0.057584 -6.195279 58.135581 7.650135 -0.940705 -23.695515 6.297319 17.792950 30.079488 -4.655727 7.679080 -23.360817 0.000000 0.000000 0.000000 -25.091518 -6.245749 -5.490139 -34.700199 0.979194 -4.098412 -66.696133 -54.651251 35.497872 0.000000 0.000000 0.000000 8.811927 22.824132 12.837170 21.749608 20.938495 -0.699608 -18.147441 11.407037 -0.822381 0.000000 0.000000 0.000000 
0.120585 0.793863 -0.100011 2.450480 11.931814 7.338397 13.600542 -1.821549 -48.906347 -17.186448 6.723663 60.508949 6.701767 10.768492 -15.113912 0.000000 0.000000 0.000000 -16.795523 -6.072744 -53.176452 12.646749 -10.059822 60.995728 -10.047333 -23.962347 -2.014243 0.000000 0.000000 0.000000 -1.486216 -6.218212 62.631694 6.578615 -0.538177 -25.355881 8.321071 19.721550 30.674485 -5.344537 8.279319 -26.657815 0.000000 0.000000 0.000000 -25.552407 -7.492147 -5.611583 -34.744414 0.902219 -3.858945 -68.490005 -53.322206 35.265280 0.000000 0.000000 0.000000 7.461310 23.739824 12.870514 18.117206 21.110936 -0.665900 -17.980213 9.331385 -0.548660 0.000000 0.000000 0.000000 
0.117077 0.772362 -0.098706 1.869236 11.260339 7.710450 15.631440 -1.037047 -52.282487 -18.071972 8.319961 64.510497 7.402824 12.728570 -17.058731 0.000000 0.000000 0.000000 -16.754720 -6.431844 -56.709434 14.084303 -11.477706 64.337139 -11.026885 -26.403436 -2.836714 0.000000 0.000000 0.000000 -2.682116 -5.824297 66.787211 5.797391 -0.275309 -26.896274 9.963342 21.973859 31.899848 -6.255803 8.775262 -31.105359 0.000000 0.000000 0.000000 -25.293792 -8.654854 -5.675652 -35.852802 0.550532 -3.736034 -67.373888 -52.314947 33.316913 0.000000 0.000000 0.000000 3.206546 25.727699 12.041828 16.147211 22.021541 -0.303705 -18.282978 7.057523 -0.212828 0.000000 0.000000 0.000000 
0.116621 0.753658 -0.098066 1.626828 10.939544 8.188671 17.285210 -0.345563 -55.381903 -19.168289 10.063399 67.793410 7.724618 13.859846 -17.715652 0.000000 0.000000 0.000000 -17.245706 -7.156370 -59.833078 15.277517 -12.739568 66.972334 -11.454905 -27.650780 -3.955413 0.000000 0.000000 0.000000 -3.943094 -5.216514 69.812684 5.494198 -0.155239 -27.665410 10.709446 23.502461 32.243519 -4.900039 8.332070 -31.472488 0.000000 0.000000 0.000000 -24.691431 -9.114554 -5.725882 -36.361347 0.941493 -3.821800 -69.549288 -50.284420 32.595701 0.000000 0.000000 0.000000 1.930255 26.820838 12.070620 9.452988 22.387316 -0.627172 -18.359713 6.248815 -0.127583 0.000000 0.000000 0.000000 
0.117409 0.736748 -0.097815 0.833622 10.409661 8.295322 19.322433 0.750129 -57.765969 -18.670697 10.556935 70.437065 7.735121 13.948417 -17.930362 0.000000 0.000000 0.000000 -17.286891 -7.393965 -62.338287 16.815430 -14.193205 68.845594 -12.351150 -29.886451 -4.165034 0.000000 0.000000 0.000000 -5.949468 -3.785675 72.531779 6.303073 -0.264394 -28.338731 12.143961 25.841355 33.206391 -5.088967 8.746761 -30.547095 0.000000 0.000000 0.000000 -25.845114 -9.939250 -6.531713 -35.744191 2.496059 -3.825085 -68.964068 -47.277577 29.733639 0.000000 0.000000 0.000000 -0.531447 28.366387 11.696324 4.083044 22.029757 -0.790657 -20.503836 4.873058 0.122429 0.000000 0.000000 0.000000 
0.117823 0.722701 -0.097472 0.156897 10.599782 8.832439 21.222841 1.636352 -60.495574 -20.011745 12.387030 72.358657 8.076131 15.258492 -17.762637 0.000000 0.000000 0.000000 -17.720001 -8.077848 -64.095717 17.721682 -15.122213 69.640306 -12.087667 -29.404301 -4.795430 0.000000 0.000000 0.000000 -7.763600 -2.601363 73.990302 6.743395 -0.305254 -28.570241 13.192359 27.725163 33.866184 -3.706433 8.383341 -29.208753 0.000000 0.000000 0.000000 -25.377331 -9.557535 -7.484835 -34.583590 3.478826 -3.714067 -69.720667 -43.878746 27.007673 0.000000 0.000000 0.000000 -2.968057 29.103377 10.981353 -0.139758 21.051616 -0.863312 -20.727838 5.135207 0.119895 0.000000 0.000000 0.000000 
0.117428 0.710077 -0.097095 -0.572541 11.102384 8.695430 23.383420 2.609229 -62.288357 -20.108816 12.980538 74.064137 8.082753 15.467242 -17.015541 0.000000 0.000000 0.000000 -17.884500 -8.582331 -64.951055 18.371446 -16.246119 71.399967 -12.449080 -30.330138 -5.140448 0.000000 0.000000 0.000000 -9.438703 -1.588801 74.461893 6.796981 -0.357682 -28.124662 14.961039 29.173436 35.981281 -3.867047 8.715202 -29.513339 0.000000 0.000000 0.000000 -23.796555 -9.348424 -7.786494 -35.744411 3.847031 -4.029983 -69.390116 -41.473290 24.210891 0.000000 0.000000 0.000000 -6.968380 28.881006 8.870455 -2.580249 19.843308 -0.714498 -22.177669 4.966580 0.311997 0.000000 0.000000 0.000000 
0.116194 0.702110 -0.096414 -1.091122 11.937691 8.718315 25.530628 3.475705 -64.055785 -20.852528 14.083304 75.437557 7.799806 14.774968 -16.169096 0.000000 0.000000 0.000000 -17.520001 -8.890313 -65.670551 18.177948 -16.492108 72.362708 -12.427139 -30.362877 -5.731764 0.000000 0.000000 0.000000 -11.147474 -0.676284 74.773396 7.145720 -0.427390 -27.842423 16.457523 31.445410 36.815337 -1.880373 8.133043 -28.298906 0.000000 0.000000 0.000000 -22.697864 -8.510190 -8.770936 -34.328483 5.032030 -4.007257 -71.194773 -38.773353 22.267722 0.000000 0.000000 0.000000 -8.802779 28.176457 7.798974 -5.323448 18.030695 -0.569375 -21.321943 5.314649 0.344104 0.000000 0.000000 0.000000 
0.114641 0.693024 -0.095599 -1.418046 13.751921 8.954453 27.117351 3.683902 -66.535645 -22.044218 15.474986 76.796919 7.909502 15.269012 -15.967577 0.000000 0.000000 0.000000 -17.488036 -9.892254 -66.250293 17.989876 -17.142039 73.854025 -12.857866 -31.860292 -7.587168 0.000000 0.000000 0.000000 -12.462486 -0.562803 75.088291 6.850543 -0.424580 -26.836891 17.766773 33.422480 37.546552 -0.090330 7.372805 -25.380566 0.000000 0.000000 0.000000 -20.656339 -8.013707 -8.992552 -34.939036 5.146513 -4.175356 -72.112021 -38.774209 21.590502 0.000000 0.000000 0.000000 -11.785153 27.302781 6.103777 -6.173217 15.766421 -0.313088 -20.254326 5.229880 0.498247 0.000000 0.000000 0.000000 
0.112807 0.684543 -0.094430 -1.620842 15.524636 9.732599 29.220526 4.187992 -68.762665 -22.882752 16.366653 76.687908 7.714705 14.943376 -15.053752 0.000000 0.000000 0.000000 -16.860573 -10.536074 -67.149070 17.048438 -17.085115 75.458989 -12.403071 -31.210252 -9.604465 0.000000 0.000000 0.000000 -13.763880 -0.434546 75.607608 6.882238 -0.295063 -27.867719 19.896793 35.418556 40.192347 2.272705 6.399932 -23.753341 0.000000 0.000000 0.000000 -20.053664 -6.969006 -10.317342 -33.934614 5.022625 -3.926328 -74.346819 -38.184778 21.358966 0.000000 0.000000 0.000000 -14.483350 26.271011 4.413235 -6.783088 13.219951 -0.047006 -19.017633 5.484604 0.589619 0.000000 0.000000 0.000000 
0.110715 0.674134 -0.093111 -1.801616 17.733462 10.808615 30.583920 4.083917 -71.631653 -23.815443 17.296631 76.413376 8.034517 16.028560 -15.618570 0.000000 0.000000 0.000000 -16.278989 -11.429349 -67.796570 16.255198 -17.401672 77.456913 -12.377005 -32.170968 -12.942239 0.000000 0.000000 0.000000 -14.942730 -0.615645 75.648015 6.464260 -0.158464 -27.772174 21.869323 37.886534 41.973387 3.764094 5.669248 -21.455511 0.000000 0.000000 0.000000 -19.253055 -7.990310 -10.599334 -33.092673 5.769495 -3.827096 -74.384973 -39.234911 21.494884 0.000000 0.000000 0.000000 -16.231953 25.832963 3.544198 -8.380214 10.530356 0.260641 -16.197287 4.454084 0.701509 0.000000 0.000000 0.000000 
0.109487 0.661903 -0.091588 -1.734856 19.310783 12.635943 33.450566 5.322033 -74.768117 -25.878899 19.570560 74.837709 7.823318 15.530762 -15.370237 0.000000 0.000000 0.000000 -15.972091 -12.753058 -70.441638 16.054602 -17.763894 79.522782 -11.867330 -31.403736 -15.290497 0.000000 0.000000 0.000000 -16.441631 -0.273311 77.209842 4.533910 0.339432 -29.049928 23.720108 39.113092 43.015548 5.950970 4.672314 -22.519499 0.000000 0.000000 0.000000 -18.298922 -7.044056 -11.381199 -33.130550 5.571478 -3.742478 -73.778810 -39.208773 20.650751 0.000000 0.000000 0.000000 -21.135465 24.249196 0.889046 -7.311678 9.931479 0.297206 -14.824387 3.014821 0.921806 0.000000 0.000000 0.000000 
0.111250 0.649621 -0.089372 -2.117679 20.886463 14.337098 36.096138 6.423323 -77.235439 -27.109052 21.294275 74.271605 7.753056 15.448215 -15.123547 0.000000 0.000000 0.000000 -16.105378 -14.328043 -72.268856 16.058949 -18.426738 81.640667 -12.183348 -32.525432 -15.802489 0.000000 0.000000 0.000000 -18.128407 0.214328 78.540379 3.642506 0.619692 -30.199164 27.790751 41.282943 46.330850 7.024404 4.504007 -22.454739 0.000000 0.000000 0.000000 -21.222894 -8.917455 -14.082600 -30.882569 8.084020 -3.165680 -70.442783 -38.327615 19.402731 0.000000 0.000000 0.000000 -26.403204 22.866201 -1.803896 -7.551208 7.183783 0.519890 -11.708584 1.992543 0.905097 0.000000 0.000000 0.000000 
0.118184 0.636639 -0.085723 -1.754737 22.344494 16.200545 37.676935 7.153355 -80.470756 -29.380441 23.920319 73.198132 8.055888 16.393403 -15.140690 0.000000 0.000000 0.000000 -16.330829 -16.341080 -75.063472 15.967026 -18.831520 84.608490 -12.136301 -32.638604 -16.476019 0.000000 0.000000 0.000000 -19.580290 0.604413 80.526915 2.422707 0.918179 -31.264871 28.964822 41.977385 47.585387 8.357355 4.015388 -23.577029 0.000000 0.000000 0.000000 -22.688223 -9.296025 -15.752358 -30.481448 9.444434 -3.012122 -66.169782 -37.185471 17.517001 0.000000 0.000000 0.000000 -31.825914 21.537492 -4.149230 -7.487746 5.471103 0.618771 -9.301098 1.777120 0.782788 0.000000 0.000000 0.000000 
0.132141 0.626803 -0.080345 -2.067561 22.430168 17.359014 38.356533 8.060329 -82.598058 -30.684784 25.927126 73.285570 8.668130 18.100511 -14.719737 0.000000 0.000000 0.000000 -17.959641 -17.810586 -75.242437 16.446741 -19.612258 85.830608 -12.136710 -33.382436 -18.052874 0.000000 0.000000 0.000000 -20.821710 1.684633 82.249914 0.631011 1.251203 -31.788076 30.860718 42.548632 47.496558 9.023634 3.721134 -24.378932 0.000000 0.000000 0.000000 -25.318710 -10.562810 -17.494152 -28.904786 12.511688 -2.816487 -60.404865 -35.330934 15.419326 0.000000 0.000000 0.000000 -36.695385 19.996535 -5.944145 -7.702275 3.596061 0.749282 -7.806154 2.787778 0.676645 0.000000 0.000000 0.000000 
0.152358 0.619343 -0.074071 -1.776900 22.059467 18.028784 37.810427 8.015914 -83.004150 -32.177713 27.509889 73.440140 9.357965 20.013915 -16.843174 0.000000 0.000000 0.000000 -19.429190 -18.902088 -75.424750 15.598850 -18.923151 87.603717 -12.193304 -33.554206 -17.871104 0.000000 0.000000 0.000000 -21.285566 2.403602 84.249368 0.080091 1.420066 -33.324480 31.673195 42.111939 48.849256 9.765492 3.286124 -24.332542 0.000000 0.000000 0.000000 -29.163023 -12.195253 -19.473064 -25.972720 13.795578 -2.018947 -54.389854 -33.290351 13.799814 0.000000 0.000000 0.000000 -39.734113 19.316068 -7.051438 -8.891682 1.866709 1.042517 -8.235321 3.257330 0.750811 0.000000 0.000000 0.000000 
0.177204 0.619146 -0.067208 -1.816656 20.489432 18.756059 37.304310 8.468133 -81.963359 -33.811661 28.720221 72.775788 9.813122 21.382936 -18.430854 0.000000 0.000000 0.000000 -21.162310 -18.927200 -74.376649 15.177420 -17.906053 86.056386 -11.627649 -32.608151 -20.009706 0.000000 0.000000 0.000000 -21.218439 3.343103 84.705635 0.158246 1.377226 -32.751434 30.871084 43.184448 47.242870 10.741737 2.784315 -24.770501 0.000000 0.000000 0.000000 -28.704541 -12.570471 -19.387953 -27.537855 14.326245 -2.211871 -49.688739 -30.398980 10.769050 0.000000 0.000000 0.000000 -40.912508 19.271190 -7.102353 -9.659746 1.550261 1.188581 -9.764188 4.797191 0.893011 0.000000 0.000000 0.000000 
0.203459 0.624559 -0.060060 -1.920763 18.730318 18.857734 35.274844 7.834656 -80.496957 -33.057281 28.024858 73.743376 10.122788 22.534211 -20.618753 0.000000 0.000000 0.000000 -22.976519 -18.575978 -72.482388 14.679407 -16.911063 84.414942 -11.490165 -31.824232 -19.068601 0.000000 0.000000 0.000000 -20.142257 3.413968 84.544568 -0.095952 1.333389 -31.822083 29.022972 42.558386 45.782722 11.134275 2.470303 -25.014752 0.000000 0.000000 0.000000 -29.565043 -12.965634 -19.165004 -27.374143 14.661623 -2.195665 -45.280597 -30.104346 9.793530 0.000000 0.000000 0.000000 -40.760871 19.527643 -6.986279 -10.269765 3.086886 1.192860 -12.953721 4.681328 1.196671 0.000000 0.000000 0.000000 
0.228180 0.635624 -0.051212 -2.393525 16.165682 18.538286 33.714037 7.901347 -77.904138 -32.476371 27.152260 73.734989 10.281929 23.100506 -21.054023 0.000000 0.000000 0.000000 -24.559434 -17.390382 -70.383378 14.404727 -15.808158 81.689525 -10.686772 -28.502277 -17.093516 0.000000 0.000000 0.000000 -19.018973 4.020022 85.309996 0.374455 1.232097 -32.004946 27.019483 42.508335 43.596952 11.021458 2.705562 -26.778600 0.000000 0.000000 0.000000 -28.307677 -10.992428 -18.621947 -29.757803 12.936554 -2.573289 -43.706847 -28.384407 8.512551 0.000000 0.000000 0.000000 -39.039791 19.741558 -6.359727 -10.920550 5.416094 1.149058 -16.309590 6.537363 1.371375 0.000000 0.000000 0.000000 
0.250327 0.650656 -0.040666 -2.944625 13.524529 17.653503 31.482957 7.370327 -74.305089 -30.467542 25.046531 74.305509 10.132835 22.653451 -22.183624 0.000000 0.000000 0.000000 -25.188037 -15.501563 -68.218163 14.510458 -14.699979 77.620245 -10.476079 -27.286884 -13.875231 0.000000 0.000000 0.000000 -17.761549 4.373374 84.067306 0.930313 1.021551 -30.883164 25.819451 42.022288 42.148776 9.897499 3.345882 -27.599698 0.000000 0.000000 0.000000 -26.694988 -11.635224 -16.353785 -31.802856 11.707774 -2.972640 -38.822985 -28.152771 7.256129 0.000000 0.000000 0.000000 -35.430427 21.966890 -4.775135 -10.929330 7.071112 1.012178 -23.212280 6.961998 1.946550 0.000000 0.000000 0.000000 
0.269805 0.668656 -0.029333 -3.542054 10.169634 16.618901 29.483097 7.425813 -70.858551 -29.065265 23.841347 74.587784 10.831426 24.637176 -20.507207 0.000000 0.000000 0.000000 -25.285569 -12.795156 -65.414065 14.654202 -13.407947 73.235389 -9.441146 -24.109950 -12.350579 0.000000 0.000000 0.000000 -16.528071 5.120092 82.089726 2.245284 0.641860 -29.074169 22.365778 41.290651 38.921746 8.926917 3.792605 -28.975499 0.000000 0.000000 0.000000 -23.461171 -11.874750 -13.155929 -34.525168 10.689719 -3.749312 -38.673708 -28.330198 6.764758 0.000000 0.000000 0.000000 -30.513655 24.064239 -2.352478 -9.477652 9.167630 0.665676 -29.034364 8.793171 1.915633 0.000000 0.000000 0.000000 
0.286525 0.690968 -0.017867 -3.546974 7.624454 14.633596 25.890366 5.909266 -66.325234 -26.503898 20.969958 74.078254 11.363721 26.333625 -20.985044 0.000000 0.000000 0.000000 -24.475844 -10.201929 -62.232903 13.721598 -11.552292 70.592862 -9.463102 -24.217494 -10.785065 0.000000 0.000000 0.000000 -14.504904 4.602796 80.505648 1.917194 0.568024 -27.845486 20.735928 38.229125 36.688705 7.014367 4.181401 -28.574465 0.000000 0.000000 0.000000 -21.053049 -11.834237 -9.711217 -38.150829 8.784225 -4.767943 -37.604790 -29.356904 6.868567 0.000000 0.000000 0.000000 -25.976184 25.449531 -0.150190 -6.756502 12.707008 0.200383 -35.256831 9.433718 1.803198 0.000000 0.000000 0.000000 
0.300096 0.718932 -0.006683 -3.500279 6.471979 14.775317 23.237321 4.551738 -62.901387 -24.269938 18.165634 72.077414 11.883994 27.637380 -19.246203 0.000000 0.000000 0.000000 -24.266915 -9.129036 -60.505541 13.554244 -10.660948 67.679913 -8.345179 -20.779341 -7.267736 0.000000 0.000000 0.000000 -12.198091 3.079423 77.268862 3.940258 0.098106 -26.943806 17.208941 35.400418 34.812372 6.398212 4.144446 -29.280384 0.000000 0.000000 0.000000 -19.778468 -10.148294 -8.427073 -39.138836 5.653444 -4.689470 -40.030706 -31.205320 8.166443 0.000000 0.000000 0.000000 -21.252668 26.857496 2.401961 -4.574801 16.770698 -0.120596 -38.039289 8.433988 1.569624 0.000000 0.000000 0.000000 
0.309107 0.756599 0.005316 -2.993195 6.169154 14.016007 19.593886 2.415532 -58.053282 -21.408916 14.236912 68.463668 11.457913 25.859803 -16.802381 0.000000 0.000000 0.000000 -24.711962 -8.283987 -55.985837 14.220007 -10.473726 63.291632 -7.795459 -19.270322 -1.683674 0.000000 0.000000 0.000000 -9.923919 1.263093 73.834749 4.925827 -0.309134 -24.122368 14.098702 31.860272 31.795662 4.066034 4.661031 -29.518341 0.000000 0.000000 0.000000 -20.467440 -11.093837 -6.497866 -40.053073 3.383008 -4.430726 -41.181696 -37.697933 11.299992 0.000000 0.000000 0.000000 -18.408833 28.403392 4.260218 1.390063 19.928340 -0.115085 -38.491031 8.548872 0.980230 0.000000 0.000000 0.000000 
0.312718 0.800685 0.019357 -2.838986 5.924727 14.014347 16.933493 1.106170 -54.190325 -16.631939 9.387314 64.608106 9.930909 21.104577 -14.466409 0.000000 0.000000 0.000000 -25.194320 -8.031646 -54.155287 17.000720 -11.994315 60.150819 -7.720435 -19.114255 4.412322 0.000000 0.000000 0.000000 -7.696982 -0.307855 70.439173 5.620525 -0.337838 -25.961912 12.939626 27.115248 33.640241 3.995306 4.163949 -29.787198 0.000000 0.000000 0.000000 -20.218844 -9.630680 -5.444886 -40.347017 -1.127436 -3.863291 -40.300544 -43.546254 13.865780 0.000000 0.000000 0.000000 -13.528700 27.570604 5.904787 7.073747 24.082281 0.141238 -38.635043 11.792408 -0.592578 0.000000 0.000000 0.000000 
0.310362 0.843821 0.036203 -3.209072 4.950673 13.912029 16.545000 1.076451 -49.202734 -14.415667 7.156460 59.198081 8.326076 16.948646 -9.538211 0.000000 0.000000 0.000000 -23.715915 -7.408648 -56.754577 18.364915 -12.487406 59.365352 -9.118626 -21.519346 15.899614 0.000000 0.000000 0.000000 -6.867754 -0.370839 66.329489 7.450936 -1.023914 -22.776355 11.332640 25.077456 32.116988 0.173357 5.526413 -28.198818 0.000000 0.000000 0.000000 -19.675972 -7.531866 -5.456513 -39.663053 -4.929242 -2.998695 -41.260118 -50.607862 17.523489 0.000000 0.000000 0.000000 -9.575924 25.881840 7.065930 12.862173 26.467642 0.699863 -37.446691 14.991029 -1.752804 0.000000 0.000000 0.000000 
0.301967 0.876862 0.055684 -3.899883 6.118370 13.779549 17.281276 0.953304 -45.181699 -13.588206 5.818467 55.276837 6.855753 13.104115 -9.518690 0.000000 0.000000 0.000000 -23.783288 -7.968703 -57.160773 20.082442 -12.619133 53.856265 -9.461059 -21.829043 18.381097 0.000000 0.000000 0.000000 -5.562570 -1.595672 63.335695 9.354713 -1.490469 -22.609014 11.052362 23.465244 33.016494 -1.670118 6.323245 -30.092798 0.000000 0.000000 0.000000 -20.590862 -6.601849 -5.780773 -36.967394 -6.442771 -2.458875 -41.003341 -57.953179 20.981593 0.000000 0.000000 0.000000 -5.638059 22.347228 7.328425 18.676725 26.976554 1.192600 -34.156083 20.375088 -3.054620 0.000000 0.000000 0.000000 
0.288939 0.886993 0.078364 -4.212910 6.738105 13.713966 21.098982 1.910675 -42.157106 -17.160636 7.719843 52.582910 6.939956 13.187111 -10.455815 0.000000 0.000000 0.000000 -22.334504 -7.803457 -59.028374 18.464717 -10.286165 48.203066 -9.544928 -21.710893 20.962624 0.000000 0.000000 0.000000 -4.998520 -2.064824 61.340497 11.186418 -1.926202 -22.599713 10.441508 20.409202 33.730001 -5.197752 7.662475 -31.244365 0.000000 0.000000 0.000000 -24.326979 -4.961264 -7.001065 -31.530916 -8.236492 -1.706425 -29.816450 -66.392484 18.535677 0.000000 0.000000 0.000000 -2.884692 20.594895 7.567535 23.714429 24.719309 0.972545 -36.078417 26.982305 -5.040289 0.000000 0.000000 0.000000 
0.272183 0.873380 0.103962 -3.306139 8.781849 12.844860 23.439605 1.898990 -38.805558 -21.545816 9.579632 51.170658 8.564895 17.365830 -11.638100 0.000000 0.000000 0.000000 -21.741509 -8.303277 -58.498531 13.362351 -6.254239 40.560791 -8.537233 -19.859782 19.223356 0.000000 0.000000 0.000000 -4.929139 -2.831875 61.310065 14.315388 -2.284472 -25.188160 8.884237 18.199542 36.173795 -5.885331 7.911864 -33.549295 0.000000 0.000000 0.000000 -22.825968 -2.537536 -7.196639 -29.484831 -8.527107 -1.943840 -11.157527 -73.828835 7.128125 0.000000 0.000000 0.000000 -1.769878 18.716893 7.030876 29.100701 22.539215 0.818116 -37.319066 33.921487 -7.095088 0.000000 0.000000 0.000000 
0.250572 0.833634 0.134950 -3.629854 9.138393 10.029914 26.391096 2.340981 -35.397079 -23.926390 11.706092 55.830469 9.447546 19.448956 -14.382150 0.000000 0.000000 0.000000 -20.153249 -7.639712 -58.303357 8.614211 -3.242086 34.729069 -5.690667 -15.242072 19.641165 0.000000 0.000000 0.000000 -6.450661 -2.140137 62.854953 14.859128 -2.175008 -26.989375 9.957285 16.168904 38.256521 -6.096213 7.933302 -34.621271 0.000000 0.000000 0.000000 -22.809536 -0.099992 -7.730580 -25.805464 -9.527347 -1.861002 18.517819 -71.594856 -14.299089 0.000000 0.000000 0.000000 -0.556194 16.389345 6.243859 34.854181 20.260554 0.419367 -41.751592 41.920588 -10.434615 0.000000 0.000000 0.000000 
0.223240 0.781011 0.170681 -2.713273 11.614866 7.143626 28.351263 2.145822 -33.545577 -20.671069 9.592278 62.427573 9.427964 19.019766 -16.320929 0.000000 0.000000 0.000000 -20.476694 -8.634155 -56.492625 5.641539 -2.305157 37.605814 -2.840495 -9.891575 15.728969 0.000000 0.000000 0.000000 -8.159034 -2.189772 65.645766 18.987503 -3.176072 -26.549855 6.849701 16.531892 35.055366 -6.019072 7.828403 -35.364195 0.000000 0.000000 0.000000 -23.331477 1.171999 -8.529493 -21.654600 -7.716103 -1.616387 29.286660 -67.716792 -20.821021 0.000000 0.000000 0.000000 3.311991 15.389483 7.120393 35.759287 19.993431 0.206141 -45.660426 44.135581 -12.495299 0.000000 0.000000 0.000000 
0.191519 0.729794 0.207643 -2.355392 11.803580 4.178289 30.918672 2.403465 -30.982151 -17.001745 7.262086 68.294566 10.331022 21.564623 -15.626807 0.000000 0.000000 0.000000 -20.678246 -9.351777 -58.132682 6.982067 -4.089106 51.230549 -3.782722 -9.713324 3.219728 0.000000 0.000000 0.000000 -8.061433 -2.507235 67.463296 18.382234 -3.103275 -26.588786 6.199680 16.268689 34.006743 -5.992322 7.507895 -39.283129 0.000000 0.000000 0.000000 -23.466100 -1.622914 -6.573099 -19.517056 -5.735889 -1.653851 37.177738 -59.688671 -22.641622 0.000000 0.000000 0.000000 5.010369 16.664669 8.039444 33.332280 20.104290 -0.012089 -51.132958 41.766600 -13.882266 0.000000 0.000000 0.000000 
0.160495 0.701021 0.245353 -2.219727 12.002597 1.970785 32.158628 2.380133 -28.865703 -13.127141 4.000115 72.509302 9.002517 17.578054 -15.097949 0.000000 0.000000 0.000000 -19.583632 -9.590602 -61.385140 6.659328 -4.696979 61.965090 -3.077172 -7.688127 1.086159 0.000000 0.000000 0.000000 -7.949867 -2.894037 69.939927 16.858777 -2.674125 -27.323172 7.064275 15.544683 34.104651 -6.763545 7.500998 -42.131854 0.000000 0.000000 0.000000 -24.998922 -2.362310 -6.277834 -16.729604 -5.679472 -1.417046 31.280361 -60.547901 -19.052626 0.000000 0.000000 0.000000 3.652743 18.255087 8.019765 30.954788 22.257365 0.538198 -54.174379 36.996237 -12.978136 0.000000 0.000000 0.000000 
0.132200 0.696683 0.285614 -1.338633 11.156368 2.449415 34.982379 2.514593 -26.061917 -9.996664 1.774396 71.492431 5.470698 10.303025 -5.280428 0.000000 0.000000 0.000000 -18.405636 -8.534639 -62.079056 5.843386 -4.299468 66.617847 -3.618615 -8.145135 -2.225466 0.000000 0.000000 0.000000 -7.234249 -2.827769 67.914020 14.327352 -2.450670 -25.332318 7.523289 16.042147 31.701748 -7.304551 7.738223 -40.586971 0.000000 0.000000 0.000000 -24.051949 -4.317500 -5.105040 -16.892724 -4.114567 -1.454798 22.639706 -62.528063 -14.389133 0.000000 0.000000 0.000000 3.636143 18.602480 8.278330 27.072865 23.944942 0.666191 -52.428797 33.228004 -10.873162 0.000000 0.000000 0.000000 
0.107043 0.708880 0.326642 -0.636611 12.738620 3.945709 37.402804 2.685045 -27.688916 -8.651482 0.443793 71.514411 0.615119 4.309223 7.073204 0.000000 0.000000 0.000000 -18.083938 -8.424089 -59.618668 5.294781 -4.656506 68.313014 -4.206727 -8.605539 -6.147810 0.000000 0.000000 0.000000 -6.770065 -3.485512 65.573138 16.017198 -2.828261 -25.022378 7.081021 17.457523 30.784689 -9.554127 9.110064 -38.606256 0.000000 0.000000 0.000000 -26.996018 -4.555704 -6.565091 -13.184293 -2.208140 -1.142141 10.096585 -64.386425 -6.586480 0.000000 0.000000 0.000000 6.413412 20.004270 10.198583 20.680437 23.927359 -0.196528 -51.546987 31.187286 -10.129125 0.000000 0.000000 0.000000 
0.087416 0.727179 0.364291 0.207895 12.463144 3.832547 37.911802 3.337877 -30.100026 -10.570020 2.416101 73.755002 -0.017313 4.272621 10.326554 0.000000 0.000000 0.000000 -17.288973 -7.010346 -55.708819 4.378149 -4.226962 69.019987 -4.400210 -8.344447 -9.111421 0.000000 0.000000 0.000000 -8.098917 -2.483559 65.818987 16.224063 -2.819996 -25.397352 8.685873 20.525892 29.902659 -7.070434 8.909874 -33.979574 0.000000 0.000000 0.000000 -27.826975 -5.707845 -7.364501 -10.559095 -0.403575 -0.838962 -2.144805 -68.125180 1.264660 0.000000 0.000000 0.000000 6.376726 21.146651 11.024808 17.453955 22.432397 -0.516011 -47.119782 30.048727 -8.758165 0.000000 0.000000 0.000000 
0.075341 0.744353 0.396012 1.015985 12.168552 3.119918 37.467978 4.175032 -34.201208 -15.014968 6.807833 75.418752 2.110979 7.455638 8.902598 0.000000 0.000000 0.000000 -15.959223 -5.570964 -52.161448 3.616703 -3.739994 68.598230 -5.434384 -11.144131 -10.887657 0.000000 0.000000 0.000000 -9.147904 -1.664415 65.833999 15.283599 -2.438193 -26.513830 10.707069 20.933047 31.464439 -6.589802 8.850453 -35.025582 0.000000 0.000000 0.000000 -25.718268 -4.428097 -7.601532 -10.091038 -1.628500 -0.777592 -7.686019 -70.566117 4.651340 0.000000 0.000000 0.000000 4.425489 23.231865 11.056392 16.316882 22.702904 -0.405459 -42.910570 27.596637 -7.094780 0.000000 0.000000 0.000000 
0.070919 0.758889 0.421964 1.362623 13.143859 1.989044 35.407079 4.220843 -38.348241 -17.651506 8.467002 72.839470 4.199489 10.416075 5.485129 0.000000 0.000000 0.000000 -15.433717 -4.970280 -48.105782 2.939887 -3.678070 67.717873 -5.666887 -11.944294 -10.950900 0.000000 0.000000 0.000000 -9.423979 -1.938049 66.956118 15.448468 -2.343974 -27.401111 11.859314 22.468249 32.761444 -5.990702 9.160455 -33.981849 0.000000 0.000000 0.000000 -25.132782 -4.564190 -7.878258 -9.553934 -4.019959 -0.635500 -16.050745 -72.516422 10.615443 0.000000 0.000000 0.000000 2.073668 25.538755 10.960112 15.634117 22.835458 -0.179722 -38.549864 23.524737 -5.072002 0.000000 0.000000 0.000000 
0.074420 0.770910 0.443214 1.500406 12.382870 1.830720 34.470306 4.759624 -41.859058 -20.370115 10.108667 65.695731 5.779797 12.742046 1.590613 0.000000 0.000000 0.000000 -14.700152 -4.048340 -45.753291 2.465123 -3.168276 67.333756 -5.027029 -10.422394 -9.111115 0.000000 0.000000 0.000000 -10.641831 -0.846262 67.341331 15.005009 -2.230914 -27.687063 14.474859 24.732004 33.490215 -5.896850 9.375045 -34.269613 0.000000 0.000000 0.000000 -23.281947 -5.296547 -7.596770 -11.499740 -5.637372 -0.601774 -21.784763 -73.644520 14.450682 0.000000 0.000000 0.000000 -1.490796 26.127689 9.671015 19.214471 23.028114 0.561093 -36.315761 21.059343 -3.745195 0.000000 0.000000 0.000000 
0.086116 0.781330 0.461895 1.456790 11.175575 2.137136 32.039653 4.811666 -44.934063 -19.887154 8.987922 58.069872 5.304431 11.188336 -1.301019 0.000000 0.000000 0.000000 -14.445645 -3.476313 -44.634113 2.664802 -3.009152 67.114686 -4.958003 -10.671596 -7.329474 0.000000 0.000000 0.000000 -10.172541 -0.670030 66.651824 13.701593 -1.907936 -28.154182 16.151121 24.447671 34.831980 -7.974889 9.833403 -38.209784 0.000000 0.000000 0.000000 -21.620517 -5.382257 -6.867854 -16.872676 -7.200217 -0.788700 -25.037038 -72.927889 16.008018 0.000000 0.000000 0.000000 -4.313217 26.530313 8.442259 21.830087 23.709645 1.256690 -34.778424 19.691645 -3.126667 0.000000 0.000000 0.000000 
0.106655 0.783381 0.480815 1.255611 9.236529 1.219968 28.045648 4.038668 -44.244592 -14.722922 5.298518 52.482962 2.333120 2.933470 -4.932772 0.000000 0.000000 0.000000 -13.692893 -2.632150 -43.924978 1.834590 -1.727593 68.981599 -3.990118 -8.138555 -6.320110 0.000000 0.000000 0.000000 -10.850365 0.532835 67.089224 14.142623 -2.101214 -27.755671 16.472651 24.875996 34.967166 -6.222263 9.123473 -39.225599 0.000000 0.000000 0.000000 -22.214405 -7.182059 -6.079819 -20.791892 -6.537201 -0.988962 -29.971657 -71.883919 19.248808 0.000000 0.000000 0.000000 -3.189687 27.813736 9.369672 22.647287 22.898228 1.114807 -33.882133 18.665269 -2.901850 0.000000 0.000000 0.000000 
0.134724 0.777299 0.502388 0.174334 7.873964 0.314594 24.030005 3.093638 -44.395037 -10.055059 2.646287 54.757987 0.591359 -1.406812 -4.988789 0.000000 0.000000 0.000000 -13.851717 -2.297775 -42.743153 2.347693 -1.775831 70.830848 -3.782025 -7.028552 -7.725695 0.000000 0.000000 0.000000 -10.451918 0.781461 66.843399 14.622367 -2.155344 -28.293052 16.032291 23.608532 36.500319 -4.508143 8.459178 -38.089753 0.000000 0.000000 0.000000 -24.382728 -7.675279 -6.009330 -23.209565 -7.727804 -1.046594 -34.814628 -69.314719 22.313719 0.000000 0.000000 0.000000 -1.062089 29.653557 10.813943 24.910696 21.218339 0.676681 -37.211472 18.783741 -3.323732 0.000000 0.000000 0.000000 
0.166569 0.771602 0.524635 -0.077382 6.776582 -1.614530 19.128850 1.637168 -42.804986 -6.117546 0.011761 59.788932 2.265083 0.496552 -9.122853 0.000000 0.000000 0.000000 -14.785821 -2.374544 -41.455690 1.634205 -0.680572 72.951774 -3.087651 -4.203583 -9.221710 0.000000 0.000000 0.000000 -10.663014 1.335302 68.331704 15.430618 -2.552193 -27.329689 15.375494 22.726997 34.009376 -3.372885 7.636726 -37.452522 0.000000 0.000000 0.000000 -23.499883 -9.541206 -3.911759 -26.936623 -7.761263 -1.330862 -35.930946 -66.350028 21.950487 0.000000 0.000000 0.000000 1.359972 28.527504 11.399990 25.310289 23.694500 1.031763 -35.185930 19.542189 -3.508031 0.000000 0.000000 0.000000 
0.195686 0.779627 0.542680 -0.133685 6.224625 -2.200777 16.201808 0.753136 -41.404991 -5.349289 -0.598656 63.308443 2.874100 0.799345 -11.567439 0.000000 0.000000 0.000000 -16.137314 -2.664820 -40.105200 1.746579 -0.522625 74.218108 -1.561943 -0.973435 -6.306369 0.000000 0.000000 0.000000 -10.112521 1.213642 68.807087 18.010520 -3.401265 -26.050850 12.761730 22.151774 32.404509 -3.512285 7.633767 -36.234912 0.000000 0.000000 0.000000 -25.862032 -10.805380 -3.473182 -25.514614 -9.176840 -0.909730 -30.805852 -66.785057 19.276713 0.000000 0.000000 0.000000 3.692524 30.050299 13.044398 23.698749 24.603059 0.869454 -35.280203 17.752365 -3.224585 0.000000 0.000000 0.000000 
0.217136 0.808414 0.557046 -0.112058 4.818128 -1.613112 15.274896 0.662716 -37.842585 -5.115870 -0.250407 59.516681 1.947801 -0.375818 -9.268346 0.000000 0.000000 0.000000 -17.931834 -3.097985 -40.886603 4.995447 -2.898232 73.401193 0.012254 -0.109496 0.275153 0.000000 0.000000 0.000000 -8.005451 0.364288 66.389585 17.038164 -3.445679 -24.606466 10.833219 19.876652 31.753691 -2.310985 6.589768 -37.728767 0.000000 0.000000 0.000000 -22.377832 -10.758186 -1.731356 -28.512378 -11.993475 -0.885608 -30.354756 -70.412300 20.108026 0.000000 0.000000 0.000000 3.062240 28.701878 12.045582 25.361434 28.297681 1.819966 -35.081221 16.999283 -2.987706 0.000000 0.000000 0.000000 
0.225862 0.852235 0.570357 0.445389 2.201874 0.271112 15.568373 1.050852 -34.374571 -7.364774 2.065395 51.911191 1.411344 0.763316 -4.907128 0.000000 0.000000 0.000000 -20.309625 -3.528438 -42.921534 10.162586 -6.280829 70.154955 -0.192537 -4.293156 9.001773 0.000000 0.000000 0.000000 -6.854497 0.644207 62.256538 17.022105 -3.768277 -22.717374 10.839488 18.005470 31.836064 -4.025559 6.846286 -38.961831 0.000000 0.000000 0.000000 -22.583412 -10.092942 -1.393003 -29.756717 -13.057432 -0.955206 -33.233572 -71.747235 23.404559 0.000000 0.000000 0.000000 1.775704 27.672593 10.993060 26.556309 31.786100 2.838230 -32.390833 18.366525 -3.169340 0.000000 0.000000 0.000000 
0.220426 0.896426 0.583759 -0.758809 -0.723576 3.046130 17.312784 1.590283 -29.365557 -7.194246 2.320882 41.625758 0.200797 -0.732519 -2.440231 0.000000 0.000000 0.000000 -19.996162 -2.807888 -45.345680 15.530971 -8.893120 62.712754 -2.636028 -10.146786 12.558383 0.000000 0.000000 0.000000 -5.058995 0.479694 58.097939 17.044210 -3.842534 -21.992677 9.560734 16.883669 32.001582 -3.361033 6.327018 -38.277116 0.000000 0.000000 0.000000 -24.290330 -9.231500 -1.583631 -27.668816 -12.255238 -1.214873 -36.283370 -72.775519 26.887094 0.000000 0.000000 0.000000 4.591163 27.426971 12.062503 24.989449 32.785567 2.342022 -29.746067 21.747842 -3.811173 0.000000 0.000000 0.000000 
0.203557 0.927732 0.597310 -1.562703 -2.631583 4.486411 18.957006 1.709466 -23.807160 -6.659418 1.991016 32.701141 -1.368409 -2.486068 0.921414 0.000000 0.000000 0.000000 -19.065229 -1.894345 -44.788605 16.169876 -8.240900 58.693225 -3.640530 -12.795104 16.590728 0.000000 0.000000 0.000000 -4.279910 0.540939 54.390877 16.184206 -3.926762 -20.101609 10.348653 15.492216 30.317917 -5.541270 6.673491 -39.505799 0.000000 0.000000 0.000000 -25.013910 -8.807971 -1.326440 -27.843319 -12.426659 -1.217151 -35.059119 -73.173091 26.716381 0.000000 0.000000 0.000000 4.153255 25.286632 10.939439 28.895293 33.672954 3.308495 -27.839395 26.085897 -4.318892 0.000000 0.000000 0.000000 
0.178950 0.939392 0.612514 -1.792907 -4.667729 4.929286 20.783307 1.827270 -19.345580 -6.536295 2.027177 29.388369 -1.530723 -2.046020 2.644202 0.000000 0.000000 0.000000 -17.594829 -0.812612 -42.715904 15.784836 -6.651867 53.040116 -7.777733 -19.915890 17.327316 0.000000 0.000000 0.000000 -4.630637 1.146098 50.735259 18.221856 -4.487701 -20.003331 7.818565 14.374712 30.629209 -3.737866 5.686819 -38.774797 0.000000 0.000000 0.000000 -24.273441 -8.700535 -0.483740 -28.658093 -12.946789 -1.427189 -25.309863 -75.376118 20.492941 0.000000 0.000000 0.000000 6.800026 23.094405 10.753739 30.359567 34.603602 3.470033 -25.196230 29.025636 -4.354640 0.000000 0.000000 0.000000 
0.147127 0.930436 0.631880 -1.521330 -8.406894 4.812290 22.067864 1.604951 -12.375875 -6.924759 2.233569 24.634741 1.038038 2.833258 2.015160 0.000000 0.000000 0.000000 -15.565102 0.546211 -40.173514 14.143332 -4.335744 49.522419 -11.048819 -25.616328 15.706871 0.000000 0.000000 0.000000 -6.012373 2.309208 45.678926 19.618391 -6.008893 -14.318168 4.804707 14.160369 25.325596 -4.713693 5.879465 -36.003077 0.000000 0.000000 0.000000 -26.313160 -8.736523 -0.186277 -27.127329 -10.749616 -1.596475 -14.900299 -76.368428 13.087096 0.000000 0.000000 0.000000 11.963083 22.765733 12.075908 29.715311 30.754093 2.164381 -26.564200 33.674312 -5.615143 0.000000 0.000000 0.000000 
0.106669 0.907010 0.655640 0.265666 -9.434955 3.395596 20.235051 0.944385 -6.844498 -4.962273 1.456237 22.055914 2.174546 4.118851 -1.980553 0.000000 0.000000 0.000000 -14.698131 0.758432 -34.041836 11.941366 -2.575944 46.154225 -12.540791 -28.281847 13.139657 0.000000 0.000000 0.000000 -5.958799 2.231121 42.593428 19.012922 -5.704541 -15.140995 2.923582 9.405350 25.585419 -7.489629 6.368463 -37.308614 0.000000 0.000000 0.000000 -30.291917 -6.712790 0.178793 -24.959471 -10.498948 -1.974485 -5.565769 -74.630634 6.606428 0.000000 0.000000 0.000000 12.204956 22.419682 10.946284 29.064062 28.092204 1.425338 -28.869936 38.925124 -7.799634 0.000000 0.000000 0.000000 
0.055389 0.886248 0.679715 1.396368 -12.411203 1.527655 19.629210 0.815030 -2.129431 -1.791302 0.568225 21.812293 2.955006 5.642701 -3.659520 0.000000 0.000000 0.000000 -14.315871 1.005396 -29.630405 14.359195 -2.969596 45.244142 -12.670114 -29.627265 4.125576 0.000000 0.000000 0.000000 -5.788903 2.356855 39.398545 16.078324 -4.782746 -15.806507 1.178908 5.817779 26.336947 -6.391464 5.086887 -40.343888 0.000000 0.000000 0.000000 -28.703656 -3.450144 0.214867 -29.187648 -10.821930 -2.717146 -2.332043 -71.664228 5.064496 0.000000 0.000000 0.000000 8.379722 19.989906 8.207988 33.577475 30.293718 2.640825 -32.790696 42.541325 -10.420488 0.000000 0.000000 0.000000 
-0.002394 0.897446 0.701782 1.615300 -11.931573 1.152905 19.838866 0.865885 -2.689580 0.142608 -0.096604 22.434796 3.365489 8.409160 7.878338 0.000000 0.000000 0.000000 -10.208237 1.409039 -25.078638 13.932469 -2.664011 41.711276 -14.478490 -33.070823 2.900949 0.000000 0.000000 0.000000 -4.797041 1.675848 36.621234 13.129177 -3.967732 -15.380139 1.357085 3.075829 25.740850 -5.787804 4.493767 -35.350711 0.000000 0.000000 0.000000 -28.720383 -0.672784 -0.574811 -31.832215 -9.330714 -3.415116 -10.907819 -70.125268 11.698718 0.000000 0.000000 0.000000 6.237684 17.300324 6.470594 36.916610 29.741815 2.983540 -36.460297 46.226319 -13.371091 0.000000 0.000000 0.000000 
-0.060729 0.937999 0.723439 1.930639 -10.641406 2.624065 17.837720 1.062434 -9.648114 0.937389 -0.305947 29.514235 2.110913 8.024688 17.657959 0.000000 0.000000 0.000000 -6.940091 1.750068 -23.825121 13.444050 -2.640399 39.182620 -15.167440 -32.588099 11.106866 0.000000 0.000000 0.000000 -6.001649 1.815906 34.703484 15.342239 -4.056024 -18.273821 -0.053267 4.405236 28.302142 -4.971621 4.385632 -33.396912 0.000000 0.000000 0.000000 -27.919743 0.861258 -2.040763 -34.569038 -6.560518 -4.344543 -24.882919 -69.118577 21.316397 0.000000 0.000000 0.000000 4.917175 13.324089 5.025479 37.951008 28.508478 2.511056 -33.089594 51.074622 -12.865956 0.000000 0.000000 0.000000 
-0.115825 0.979544 0.743925 1.540335 -11.636104 3.286438 14.009561 1.017876 -16.385173 -3.593337 2.093211 34.946148 2.962271 7.974107 9.566328 0.000000 0.000000 0.000000 -6.776361 1.813249 -23.575657 16.292264 -3.647264 38.577832 -10.924275 -25.298548 19.480985 0.000000 0.000000 0.000000 -6.748399 2.178401 34.527932 13.388822 -3.785466 -16.484352 2.933206 6.409186 26.234667 -3.435972 3.823249 -29.371608 0.000000 0.000000 0.000000 -28.047345 2.163630 -3.596677 -36.936041 -3.622725 -5.045076 -41.519035 -67.637437 32.422792 0.000000 0.000000 0.000000 4.381690 12.301190 4.707871 37.903304 25.428698 1.791245 -28.544049 54.290129 -11.228900 0.000000 0.000000 0.000000 
-0.167135 1.001516 0.763247 0.540855 -10.993763 3.999535 5.625429 -0.456543 -22.492213 -7.074541 3.148118 30.629813 0.825624 2.494170 2.587148 0.000000 0.000000 0.000000 -9.361080 1.497522 -24.559784 20.964452 -5.842641 39.155363 -8.171318 -21.292085 25.415908 0.000000 0.000000 0.000000 -6.795290 2.314223 36.569192 14.285573 -4.545821 -13.079480 3.220195 9.926297 22.899409 -0.156105 2.608944 -27.451392 0.000000 0.000000 0.000000 -25.027717 5.550037 -6.834631 -40.316687 -0.013424 -5.831284 -65.211634 -64.279628 46.585679 0.000000 0.000000 0.000000 5.211762 11.148417 4.676560 38.400756 27.686130 2.885346 -27.320810 50.254603 -8.835038 0.000000 0.000000 0.000000 
-0.216165 0.988198 0.780614 -2.339281 -11.385322 4.590951 3.614844 -0.879907 -26.286202 -8.350865 3.040365 24.892796 -0.965453 1.013947 8.965916 0.000000 0.000000 0.000000 -12.672604 1.197537 -27.756204 22.339260 -6.714399 40.993133 -13.431638 -28.353129 23.511639 0.000000 0.000000 0.000000 -4.140749 1.496220 39.037023 12.918824 -4.302685 -11.733595 6.248525 13.214215 22.674883 -1.196274 3.674790 -28.138041 0.000000 0.000000 0.000000 -25.286106 4.657119 -7.443895 -39.912845 2.906344 -6.273212 -71.161277 -63.357325 49.338099 0.000000 0.000000 0.000000 6.628908 11.194149 5.182603 36.013875 30.172734 3.379309 -25.391016 43.740419 -6.516225 0.000000 0.000000 0.000000 
-0.264028 0.942559 0.795783 -5.506590 -13.942856 3.538098 4.120523 -0.530437 -25.949372 -8.212870 3.621093 27.881665 5.014974 10.603421 3.194219 0.000000 0.000000 0.000000 -14.630180 1.230104 -30.656975 20.889183 -5.512042 40.420540 -13.953767 -30.028140 18.135390 0.000000 0.000000 0.000000 -2.957040 1.746308 43.974651 14.901540 -4.943098 -12.422000 7.002367 19.098691 24.846463 1.097283 3.451381 -29.292940 0.000000 0.000000 0.000000 -26.199690 3.191553 -8.559625 -38.648417 5.140981 -6.377616 -75.110207 -61.601691 49.406985 0.000000 0.000000 0.000000 10.909262 14.401204 8.209182 29.928620 30.324630 1.962849 -29.246170 38.629387 -6.655795 0.000000 0.000000 0.000000 
-0.311265 0.878513 0.806990 -7.150404 -14.200929 2.142690 5.393531 -0.035551 -30.275431 -8.630583 5.863779 42.134041 7.780090 15.812536 -12.693325 0.000000 0.000000 0.000000 -19.719093 0.311178 -32.414474 17.991206 -4.201785 37.649896 -10.339475 -24.829293 18.753347 0.000000 0.000000 0.000000 -1.068330 1.398266 50.164734 14.693937 -4.510101 -15.500730 8.325445 22.083533 27.310885 -0.845397 5.141533 -32.329304 0.000000 0.000000 0.000000 -29.127395 -0.376162 -8.645890 -34.395954 3.212599 -4.653937 -67.314009 -61.662366 42.928372 0.000000 0.000000 0.000000 9.573380 16.575517 9.298869 31.008642 31.410338 2.477437 -31.499800 33.620071 -5.986984 0.000000 0.000000 0.000000 
-0.358783 0.827532 0.815016 -5.836066 -12.746826 0.274865 6.434859 0.391327 -36.284505 -8.639653 7.749506 56.757943 8.680771 17.246210 -18.374976 0.000000 0.000000 0.000000 -24.445661 -1.043376 -35.581386 16.950102 -4.552600 44.255360 -6.830316 -18.944879 15.074360 0.000000 0.000000 0.000000 -0.471286 1.201524 56.605016 14.881374 -4.043045 -19.310580 7.933541 20.228153 28.440848 0.010152 4.743146 -35.482012 0.000000 0.000000 0.000000 -31.636886 -2.127714 -7.996109 -32.481564 2.087691 -4.069364 -52.592904 -62.114830 33.308046 0.000000 0.000000 0.000000 10.474686 21.271336 11.552181 27.690217 32.774912 2.256656 -31.628033 30.099966 -5.745102 0.000000 0.000000 0.000000 
-0.405764 0.800018 0.821720 -4.638121 -11.698185 -1.362435 8.965482 1.292469 -38.511735 -8.537950 8.631005 65.457583 8.127571 14.724903 -19.442705 0.000000 0.000000 0.000000 -26.310689 -1.923567 -38.171657 19.071882 -6.618072 52.311621 -7.357315 -19.216584 9.290241 0.000000 0.000000 0.000000 -1.161348 1.515479 59.635329 14.610550 -4.348471 -17.139419 5.960907 21.494971 25.149651 2.247957 3.839488 -30.994675 0.000000 0.000000 0.000000 -31.787889 -4.832766 -7.141518 -30.902220 2.193363 -3.453017 -47.711340 -61.968296 29.634382 0.000000 0.000000 0.000000 14.162634 23.752153 14.403574 26.335328 30.835054 1.596829 -30.486687 28.857048 -5.450195 0.000000 0.000000 0.000000 
-0.451649 0.793797 0.826970 -4.301436 -10.373389 -0.862225 10.913333 2.000137 -40.971971 -8.134949 8.221010 69.327063 7.281747 11.788800 -18.979480 0.000000 0.000000 0.000000 -28.023686 -2.691885 -38.798136 18.443403 -6.992507 55.348408 -6.329493 -17.010335 8.002887 0.000000 0.000000 0.000000 -1.134582 1.091889 59.620726 13.561640 -4.029501 -16.879077 6.461892 21.262385 25.322293 1.172697 4.287542 -27.632944 0.000000 0.000000 0.000000 -33.005813 -7.006851 -5.993675 -28.587871 2.724361 -3.230967 -41.587409 -65.282230 27.603608 0.000000 0.000000 0.000000 16.204771 23.824400 15.295001 26.707974 28.781438 1.019387 -30.570753 29.333483 -5.627396 0.000000 0.000000 0.000000 
-0.497540 0.799874 0.830307 -3.519075 -8.775004 1.278741 13.002024 2.659279 -42.675868 -8.200170 7.431872 68.097421 5.707503 7.283021 -17.372133 0.000000 0.000000 0.000000 -28.232606 -3.069281 -39.391998 13.690749 -4.436084 54.034995 -3.958743 -11.712210 5.669863 0.000000 0.000000 0.000000 -1.015357 0.528711 59.308190 14.108130 -3.568553 -20.301536 6.708877 19.931037 27.203075 -2.023845 6.037747 -27.563304 0.000000 0.000000 0.000000 -34.020412 -7.057625 -5.666508 -27.225886 1.836819 -3.076556 -38.122870 -66.578520 26.192552 0.000000 0.000000 0.000000 19.653876 22.383267 15.837022 24.646726 28.742948 0.292612 -26.934873 30.539261 -5.235584 0.000000 0.000000 0.000000 
-0.543192 0.806344 0.832301 -1.951815 -7.026092 1.807014 16.093934 3.293762 -40.394632 -10.775876 8.188348 62.438729 5.158682 5.640710 -17.321877 0.000000 0.000000 0.000000 -27.614538 -3.288354 -39.498466 9.946830 -2.446386 52.588258 -3.213498 -10.412963 7.053844 0.000000 0.000000 0.000000 -1.198016 0.156283 58.598034 13.508359 -2.931934 -22.960919 7.237214 17.870027 29.274407 -2.196371 5.914607 -29.851209 0.000000 0.000000 0.000000 -33.032799 -5.839354 -5.379935 -26.301291 0.097904 -2.970939 -38.643109 -68.769656 27.745579 0.000000 0.000000 0.000000 18.930704 19.987752 13.874458 27.178875 27.942930 0.368685 -25.476174 31.354633 -4.913635 0.000000 0.000000 0.000000 
-0.587917 0.811375 0.833161 -0.555725 -4.235564 1.633442 17.643556 3.110660 -38.614592 -11.485281 7.385312 59.346489 4.279289 3.574323 -15.575584 0.000000 0.000000 0.000000 -25.927328 -3.311565 -38.073504 6.939210 -1.135986 52.082246 -3.939626 -11.767466 6.976843 0.000000 0.000000 0.000000 -0.506364 -1.041771 57.035005 13.418398 -2.997058 -22.036757 5.686782 16.928503 28.273102 -2.206458 5.698147 -25.038025 0.000000 0.000000 0.000000 -30.660136 -6.320558 -4.351557 -26.556782 -1.114005 -2.852430 -37.045227 -72.793853 28.337979 0.000000 0.000000 0.000000 18.435060 19.426248 13.326273 28.368905 25.715322 0.134577 -24.985888 28.118243 -4.191865 0.000000 0.000000 0.000000 
-0.631934 0.814150 0.833290 0.966210 -2.102914 0.835642 17.826207 2.630937 -37.061809 -10.412211 5.624744 56.570252 3.792054 2.719219 -14.084410 0.000000 0.000000 0.000000 -25.451981 -3.501932 -36.432262 5.639765 -0.734426 53.429769 -3.399803 -9.978669 4.810483 0.000000 0.000000 0.000000 0.128483 -1.944369 56.531302 12.123609 -2.605547 -22.277524 6.097351 15.171397 28.004878 -3.208667 5.998376 -21.813083 0.000000 0.000000 0.000000 -32.129746 -7.117356 -3.589346 -24.058751 -1.625071 -2.541201 -36.065308 -73.736298 28.388965 0.000000 0.000000 0.000000 17.246972 19.169359 12.472081 27.650995 23.064985 -0.373907 -22.443168 24.736748 -3.207637 0.000000 0.000000 0.000000 
-0.675076 0.815182 0.832597 2.515589 0.491429 0.669066 18.335657 2.217090 -35.708654 -9.066227 3.711422 52.991973 3.083482 2.332240 -10.495520 0.000000 0.000000 0.000000 -25.289106 -3.930323 -35.590061 6.532017 -1.942046 55.128789 -4.093012 -10.696362 1.760188 0.000000 0.000000 0.000000 1.053742 -3.064992 55.332189 12.129691 -2.509223 -22.635490 4.666555 13.476628 27.966968 -3.481264 6.009769 -21.788465 0.000000 0.000000 0.000000 -32.415755 -7.524625 -2.976603 -22.511271 -2.673879 -2.276581 -31.361483 -75.548933 25.659815 0.000000 0.000000 0.000000 16.201442 19.713190 12.231718 27.127921 20.228640 -0.871479 -21.465037 21.360825 -2.573485 0.000000 0.000000 0.000000 
-0.715877 0.818190 0.831005 3.381563 1.364800 -0.418693 18.908115 2.085603 -33.041252 -7.536037 2.353355 49.543465 2.247737 0.928582 -8.729100 0.000000 0.000000 0.000000 -24.050597 -3.674509 -34.711131 7.255393 -2.642163 56.769301 -4.856528 -11.843445 -1.173413 0.000000 0.000000 0.000000 1.792152 -3.602634 54.834445 11.287428 -2.254641 -22.994979 4.214807 11.562727 28.540762 -4.282145 6.303119 -22.030603 0.000000 0.000000 0.000000 -32.676224 -8.040252 -1.880485 -22.158618 -3.042954 -2.354301 -19.975894 -73.863509 16.379862 0.000000 0.000000 0.000000 15.086398 20.483259 11.883298 26.991098 18.490370 -1.129837 -19.365190 17.730567 -1.824504 0.000000 0.000000 0.000000 
-0.753618 0.824541 0.828804 4.288380 1.689023 -0.560157 19.981762 2.108956 -30.131544 -6.643602 1.628109 43.893718 1.404724 0.667849 -5.089798 0.000000 0.000000 0.000000 -22.238010 -3.194247 -34.668364 8.018284 -3.298977 57.960920 -5.522328 -13.111802 -3.308350 0.000000 0.000000 0.000000 2.135536 -3.722016 53.574175 10.174746 -2.022942 -22.461619 3.870178 9.914236 28.258362 -4.040366 5.843503 -19.935113 0.000000 0.000000 0.000000 -32.627332 -8.686920 -0.721819 -22.362696 -2.906663 -2.517452 -16.644720 -70.755768 13.298367 0.000000 0.000000 0.000000 15.296149 20.507960 11.654352 26.518252 16.896300 -1.400382 -18.237828 16.136441 -1.516994 0.000000 0.000000 0.000000 
-0.787725 0.835344 0.826675 4.776029 2.284961 -0.496781 20.323787 1.933137 -28.002678 -5.454130 0.865396 39.163322 0.121884 -0.403246 -1.337289 0.000000 0.000000 0.000000 -20.686933 -2.777646 -34.035723 9.037104 -4.149009 57.217745 -5.978509 -14.341693 -2.994205 0.000000 0.000000 0.000000 2.636962 -3.910934 51.348813 9.342486 -1.888753 -21.612011 2.786157 8.266027 28.359492 -3.639972 5.298038 -19.413459 0.000000 0.000000 0.000000 -30.909098 -8.304553 -0.122145 -24.725997 -3.752856 -2.830576 -12.518721 -66.321843 9.687582 0.000000 0.000000 0.000000 14.565458 19.895240 10.896426 28.041865 15.805861 -1.573313 -17.449963 17.266351 -1.561483 0.000000 0.000000 0.000000 
-0.818268 0.850151 0.825142 5.212907 2.244681 -0.472285 20.267429 1.741114 -25.657711 -5.324540 0.798336 34.345466 -0.460485 0.517332 3.099817 0.000000 0.000000 0.000000 -18.716724 -1.992192 -31.631401 9.093444 -3.938840 53.732222 -6.416545 -15.460556 -3.160720 0.000000 0.000000 0.000000 2.451287 -3.575151 48.944868 8.299351 -1.682703 -20.866991 2.624843 6.759581 28.751839 -3.739913 5.048384 -17.093259 0.000000 0.000000 0.000000 -30.547498 -8.441630 0.661216 -26.124747 -4.026254 -3.110302 -9.244668 -60.995262 7.050708 0.000000 0.000000 0.000000 13.415243 18.755982 9.793661 29.766687 15.027453 -1.714012 -16.343526 18.934333 -1.602055 0.000000 0.000000 0.000000 
-0.844817 0.866575 0.823982 5.292789 2.604860 -0.080116 20.242551 1.549410 -24.084776 -5.582089 0.850795 31.187909 -0.942808 1.031355 6.301704 0.000000 0.000000 0.000000 -16.869347 -1.385897 -29.325748 9.206745 -3.800495 48.933183 -6.811401 -16.549102 -2.544471 0.000000 0.000000 0.000000 2.148341 -3.337601 46.852164 7.717333 -1.540253 -20.550496 2.207261 5.482287 29.023565 -4.317434 5.279137 -19.426317 0.000000 0.000000 0.000000 -29.721997 -7.673032 0.689596 -28.598399 -4.516087 -3.443582 -5.487158 -56.609871 4.658149 0.000000 0.000000 0.000000 11.905369 17.378405 8.635648 32.983393 14.413748 -1.819738 -15.335923 20.573543 -1.586506 0.000000 0.000000 0.000000 
-0.866792 0.883809 0.823176 5.251901 3.019384 0.193059 19.711090 1.294087 -22.776421 -5.976436 0.942410 28.647339 -1.107402 2.165115 9.658828 0.000000 0.000000 0.000000 -14.898115 -0.798124 -26.349754 9.473905 -3.648002 43.099860 -7.300698 -17.845927 -1.685761 0.000000 0.000000 0.000000 1.929967 -3.114306 44.355496 7.107836 -1.363250 -20.480003 1.817192 4.341675 29.145194 -4.478853 5.194550 -19.670559 0.000000 0.000000 0.000000 -29.184209 -6.951257 0.625792 -30.337868 -4.035079 -3.840066 -5.583531 -52.132728 4.452149 0.000000 0.000000 0.000000 10.597191 15.954536 7.590472 36.500779 13.189758 -2.095362 -13.774537 22.304890 -1.456884 0.000000 0.000000 0.000000 
-0.883427 0.902588 0.822261 4.923103 3.887512 0.552899 18.440040 0.894035 -21.515043 -6.006542 0.857335 26.583019 -1.077868 2.622683 10.470658 0.000000 0.000000 0.000000 -13.763176 -0.504269 -23.251781 9.744205 -3.508526 37.069368 -7.470350 -18.344560 0.656050 0.000000 0.000000 0.000000 1.706734 -2.955264 41.674076 6.956166 -1.297342 -20.495368 1.548006 3.838262 29.338984 -4.879012 5.436375 -19.029394 0.000000 0.000000 0.000000 -28.606262 -5.864126 -0.008554 -32.094034 -4.170855 -4.059677 -7.335469 -48.858808 4.999446 0.000000 0.000000 0.000000 10.106804 14.790766 6.989111 39.464232 11.740521 -2.557219 -13.148150 22.805010 -1.340569 0.000000 0.000000 0.000000 
-0.894701 0.920504 0.821639 4.530276 4.325718 0.548524 16.962509 0.554347 -19.959338 -6.434014 0.950397 25.146452 -0.624588 3.769837 11.321294 0.000000 0.000000 0.000000 -12.371731 -0.185448 -20.234709 9.055603 -2.871706 31.654618 -7.670156 -18.818508 3.420488 0.000000 0.000000 0.000000 1.226313 -2.670950 39.613607 6.275645 -1.096037 -20.581778 2.010774 3.859684 29.303118 -4.864349 5.435582 -17.369955 0.000000 0.000000 0.000000 -27.544337 -5.248592 -0.436026 -34.183962 -3.522090 -4.440572 -9.739863 -46.415694 5.760669 0.000000 0.000000 0.000000 8.693121 12.993845 5.990577 42.645996 10.151632 -3.051232 -11.202259 24.046128 -1.014034 0.000000 0.000000 0.000000 
-0.900494 0.936041 0.821306 4.065213 5.255214 0.878619 15.493716 0.236901 -19.097897 -6.938134 1.025044 24.330183 -0.181122 4.686519 11.529867 0.000000 0.000000 0.000000 -11.393824 -0.030550 -18.023149 9.163834 -2.723273 27.272000 -7.941640 -19.319761 6.355982 0.000000 0.000000 0.000000 1.515631 -2.637638 36.511670 5.822986 -0.991204 -19.981804 1.662243 4.278266 28.580441 -4.594097 5.315889 -15.496705 0.000000 0.000000 0.000000 -26.293408 -4.367035 -1.241510 -36.699277 -2.795417 -4.829814 -12.568133 -44.979173 6.673711 0.000000 0.000000 0.000000 8.675462 11.334876 5.378917 45.663913 8.427684 -3.647943 -10.448575 23.999471 -0.796229 0.000000 0.000000 0.000000 
-0.901398 0.946328 0.821671 3.441827 5.838862 0.875275 13.748811 -0.050231 -17.214276 -6.449104 0.816122 23.161851 0.280227 5.393961 11.151040 0.000000 0.000000 0.000000 -10.233205 0.136955 -15.717176 8.278094 -2.187969 23.219325 -7.798310 -18.960144 8.439587 0.000000 0.000000 0.000000 1.231520 -2.405177 34.130043 5.649395 -0.919441 -20.115937 1.793558 5.242675 28.035285 -3.595704 4.717907 -14.061745 0.000000 0.000000 0.000000 -26.321261 -4.309394 -1.822990 -38.497644 -1.616396 -5.207876 -13.368482 -43.524644 6.643030 0.000000 0.000000 0.000000 8.821117 10.206106 5.051783 47.637648 6.861981 -4.193760 -8.565545 23.743597 -0.408588 0.000000 0.000000 0.000000 
-0.898086 0.951035 0.822558 2.492509 6.645331 0.875846 12.815926 -0.205528 -15.571573 -6.169821 0.671672 22.131402 1.092579 6.371918 9.792261 0.000000 0.000000 0.000000 -9.197493 0.241132 -13.967208 8.140634 -1.992630 19.760179 -8.209467 -19.650008 9.810581 0.000000 0.000000 0.000000 1.444946 -2.307272 31.341172 5.358987 -0.845743 -19.714898 1.642392 5.643485 27.582830 -2.738579 4.131574 -12.980070 0.000000 0.000000 0.000000 -25.369555 -3.334966 -2.628223 -40.197156 -1.247772 -5.469387 -15.745798 -42.926184 7.380674 0.000000 0.000000 0.000000 8.725380 9.088572 4.652103 50.286539 5.698993 -4.682271 -7.954207 23.788839 -0.230740 0.000000 0.000000 0.000000 
-0.890892 0.952200 0.824135 1.476360 7.050225 0.418149 11.855767 -0.293225 -12.319086 -5.260490 0.426197 18.988810 1.401128 6.698218 9.078824 0.000000 0.000000 0.000000 -8.253824 0.312490 -11.974637 6.952015 -1.546759 17.673137 -7.761158 -18.747229 10.751244 0.000000 0.000000 0.000000 0.834655 -2.000486 29.385287 5.980963 -1.010577 -19.868430 1.525098 6.336700 27.273262 -1.470084 3.293026 -12.635003 0.000000 0.000000 0.000000 -24.983590 -2.706705 -3.313661 -41.459332 -0.563693 -5.756913 -16.211664 -40.595597 7.014034 0.000000 0.000000 0.000000 9.290006 8.302766 4.487531 51.291440 4.840710 -5.010675 -6.333170 23.591893 0.071493 0.000000 0.000000 0.000000 
-0.879717 0.951715 0.826206 0.205364 7.533458 -0.391802 11.241928 -0.319706 -9.305402 -4.560507 0.282383 15.873436 1.586395 6.608525 7.793833 0.000000 0.000000 0.000000 -7.095597 0.382013 -10.790267 6.162975 -1.324396 17.066214 -7.781135 -18.705450 11.795942 0.000000 0.000000 0.000000 0.602931 -1.819151 27.479365 5.866486 -0.959441 -20.027822 2.146907 6.291650 27.804621 -1.314488 3.261483 -12.857120 0.000000 0.000000 0.000000 -24.504281 -2.355846 -3.519164 -42.403371 -1.507261 -5.649634 -16.399480 -38.732354 6.725321 0.000000 0.000000 0.000000 9.813680 7.747037 4.366987 52.632677 4.703316 -5.235348 -6.923284 22.825324 0.012312 0.000000 0.000000 0.000000 
-0.864366 0.951098 0.827512 -0.808447 8.173279 -1.104454 10.701697 -0.331759 -6.286712 -3.558511 0.146614 11.594882 1.816834 6.839165 7.190345 0.000000 0.000000 0.000000 -6.796697 0.358417 -9.796600 5.211700 -1.064889 16.392737 -7.194389 -17.557754 11.972592 0.000000 0.000000 0.000000 0.078343 -1.619673 26.016655 6.615572 -1.181938 -19.918946 1.959924 6.318011 27.483009 -0.312671 2.595668 -13.131752 0.000000 0.000000 0.000000 -23.914475 -2.293442 -3.616002 -43.672541 -2.162085 -5.561590 -15.817312 -36.656780 6.102995 0.000000 0.000000 0.000000 10.252138 7.265658 4.267642 53.865473 4.788654 -5.225377 -7.425153 21.751909 -0.038357 0.000000 0.000000 0.000000 
-0.846402 0.952701 0.826656 -1.333346 8.376473 -2.067852 9.785923 -0.308673 -3.587291 -3.472538 0.192490 8.792379 1.871524 6.879355 7.013645 0.000000 0.000000 0.000000 -7.303213 0.264585 -8.820617 4.838939 -0.984977 16.752388 -6.547684 -16.347018 12.661855 0.000000 0.000000 0.000000 -0.783987 -1.390194 25.424390 7.159023 -1.252466 -21.070836 2.085546 6.312064 28.387579 0.405241 2.176966 -13.694307 0.000000 0.000000 0.000000 -23.649577 -2.452558 -3.490933 -44.610402 -3.839089 -5.209436 -15.138503 -35.346688 5.676411 0.000000 0.000000 0.000000 11.562990 7.210817 4.502471 53.477251 4.704535 -5.495115 -7.939048 21.168813 -0.093839 0.000000 0.000000 0.000000 
-0.828607 0.955086 0.823447 -1.400972 8.040348 -2.500866 8.632555 -0.269270 -2.452113 -3.183108 0.185444 7.213673 1.632560 6.585511 7.391864 0.000000 0.000000 0.000000 -7.616322 0.248209 -9.340905 3.947456 -0.771385 18.695958 -5.303727 -14.066044 12.236427 0.000000 0.000000 0.000000 -1.512506 -1.115018 24.047433 7.202924 -1.343558 -20.312923 1.903802 5.548460 28.073553 0.254227 2.201153 -14.209466 0.000000 0.000000 0.000000 -22.288259 -2.044292 -3.155667 -46.302248 -5.500883 -4.960230 -14.868532 -33.942465 5.450166 0.000000 0.000000 0.000000 10.948531 7.343905 4.325004 55.353555 4.770568 -5.457471 -9.266430 20.903132 -0.271513 0.000000 0.000000 0.000000 
-0.813625 0.958163 0.819360 -1.419073 6.860086 -2.818685 7.834064 -0.211058 -1.443882 -3.038710 0.205040 5.923968 1.368102 6.349932 8.209388 0.000000 0.000000 0.000000 -8.535768 0.214082 -11.036237 4.183883 -0.873987 22.195887 -4.919082 -13.505522 12.527334 0.000000 0.000000 0.000000 -2.539463 -0.863262 24.489539 7.721518 -1.467055 -21.021840 1.801487 5.124628 28.347192 -0.293410 2.573308 -15.498233 0.000000 0.000000 0.000000 -21.471609 -2.291084 -2.500409 -47.288964 -6.786070 -4.769386 -13.781520 -34.274449 5.301069 0.000000 0.000000 0.000000 11.345644 7.345358 4.232112 55.139604 6.184172 -4.929951 -10.006289 20.700501 -0.380292 0.000000 0.000000 0.000000 
-0.803495 0.960395 0.816601 -1.661600 5.996896 -2.766872 7.654294 -0.186003 -1.068991 -3.091764 0.232107 5.372903 1.160036 5.762717 7.765073 0.000000 0.000000 0.000000 -9.158280 0.191063 -12.419993 4.295440 -0.896168 23.903778 -4.437564 -12.645433 11.911400 0.000000 0.000000 0.000000 -2.962712 -0.693886 23.726155 7.531021 -1.401235 -21.356472 1.658698 3.728509 28.380073 -1.322835 3.100414 -16.672127 0.000000 0.000000 0.000000 -20.703270 -2.231808 -1.839710 -46.713009 -7.748187 -4.563934 -13.121050 -33.637382 5.164763 0.000000 0.000000 0.000000 11.437934 7.865240 4.220973 55.868056 6.460458 -4.909142 -9.951549 21.368406 -0.430720 0.000000 0.000000 0.000000 
-0.798451 0.961721 0.815697 -1.843839 4.145174 -2.848390 7.796228 -0.127126 0.125260 -2.902274 0.254595 3.340538 1.104313 5.891143 8.795914 0.000000 0.000000 0.000000 -8.641155 0.317763 -12.795584 3.997397 -0.659129 24.718419 -4.421975 -12.798609 11.762356 0.000000 0.000000 0.000000 -3.604518 -0.445870 23.029769 8.105283 -1.599277 -21.385984 1.228354 3.230122 27.883664 -1.747875 3.129998 -15.918237 0.000000 0.000000 0.000000 -20.397842 -2.025927 -1.482447 -45.314645 -7.928194 -4.435825 -12.803465 -33.281296 5.107683 0.000000 0.000000 0.000000 11.777037 8.367130 4.246623 56.275867 7.545034 -4.437773 -9.707679 22.411594 -0.462927 0.000000 0.000000 0.000000 
-0.797892 0.961842 0.816648 -2.025364 3.860485 -2.367180 8.279527 -0.141632 0.097365 -3.500701 0.332344 3.563785 1.623471 6.685798 8.597184 0.000000 0.000000 0.000000 -8.234382 0.388573 -13.070945 4.156106 -0.678331 23.870305 -4.528405 -12.913023 10.829788 0.000000 0.000000 0.000000 -3.046131 -0.499794 21.765804 7.142915 -1.238076 -22.435189 0.842693 1.204447 28.630782 -1.507118 2.687252 -17.288854 0.000000 0.000000 0.000000 -20.905883 -1.794471 -1.034827 -44.330286 -8.360321 -4.447262 -11.011023 -33.244188 4.742959 0.000000 0.000000 0.000000 12.962207 8.409863 4.072257 56.516218 8.046089 -4.446972 -9.005877 23.387962 -0.415122 0.000000 0.000000 0.000000 
-0.801459 0.960866 0.819000 -1.917289 2.185903 -2.103833 8.566540 -0.116609 -0.173582 -3.003579 0.281676 3.643293 1.801887 7.203674 9.747395 0.000000 0.000000 0.000000 -7.817775 0.445248 -11.422153 3.732635 -0.391844 20.732687 -3.873415 -11.770765 10.400125 0.000000 0.000000 0.000000 -3.694385 -0.249902 19.165237 7.414029 -1.578310 -19.805327 1.384086 1.070786 26.851829 -2.102134 2.813957 -14.475082 0.000000 0.000000 0.000000 -19.578805 -1.344624 -0.920107 -45.154007 -8.316441 -4.433257 -11.502128 -32.017652 4.746121 0.000000 0.000000 0.000000 12.322687 9.051400 4.065027 57.080725 8.530939 -3.989795 -9.374362 24.127318 -0.572709 0.000000 0.000000 0.000000 
-0.809608 0.959354 0.822883 -1.521671 2.217980 -1.824504 8.728623 -0.130788 -0.645647 -2.601501 0.219955 4.097909 1.950103 7.039750 8.353984 0.000000 0.000000 0.000000 -7.780090 0.390236 -9.273558 3.126669 -0.225856 16.167190 -3.457951 -11.028834 10.733288 0.000000 0.000000 0.000000 -3.354053 -0.276467 17.927544 6.276221 -1.252188 -19.693958 0.891660 0.128937 27.083396 -0.709625 1.704814 -15.492185 0.000000 0.000000 0.000000 -18.127652 -0.721198 -0.901660 -45.959587 -9.340700 -4.203612 -9.951886 -31.370945 4.289487 0.000000 0.000000 0.000000 12.931085 8.023127 3.492822 56.721553 9.483060 -3.634463 -5.956281 22.670126 0.016612 0.000000 0.000000 0.000000 
