HIERARCHY
ROOT Hips
{
	OFFSET -0.001795 -0.223333 0.028219
	CHANNELS 6 Xposition Yposition Zposition Zrotation Yrotation Xrotation 
	JOINT LeftUpLeg
	{
		OFFSET 0.069520 -0.091406 -0.006815
		CHANNELS 3 Zrotation Yrotation Xrotation
		JOINT LeftLeg
		{
			OFFSET 0.034277 -0.375199 -0.004496
			CHANNELS 3 Zrotation Yrotation Xrotation
			JOINT LeftFoot
			{
				OFFSET -0.013596 -0.397961 -0.043693
				CHANNELS 3 Zrotation Yrotation Xrotation
				JOINT LeftToe
				{
					OFFSET 0.026358 -0.055791 0.119288
					CHANNELS 3 Zrotation Yrotation Xrotation
					End Site
					{
						OFFSET 0.000000 0.000000 0.000000
					}
				}
			}
		}
	}
	JOINT RightUpLeg
	{
		OFFSET -0.067670 -0.090522 -0.004320
		CHANNELS 3 Zrotation Yrotation Xrotation
		JOINT RightLeg
		{
			OFFSET -0.038290 -0.382569 -0.008850
			CHANNELS 3 Zrotation Yrotation Xrotation
			JOINT RightFoot
			{
				OFFSET 0.015774 -0.398415 -0.042312
				CHANNELS 3 Zrotation Yrotation Xrotation
				JOINT RightToe
				{
					OFFSET -0.025372 -0.048144 0.123348
					CHANNELS 3 Zrotation Yrotation Xrotation
					End Site
					{
						OFFSET 0.000000 0.000000 0.000000
					}
				}
			}
		}
	}
	JOINT Spine
	{
		OFFSET -0.002533 0.108963 -0.026696
		CHANNELS 3 Zrotation Yrotation Xrotation
		JOINT Spine1
		{
			OFFSET 0.005487 0.135180 0.001092
			CHANNELS 3 Zrotation Yrotation Xrotation
			JOINT Spine2
			{
				OFFSET 0.001457 0.052922 0.025425
				CHANNELS 3 Zrotation Yrotation Xrotation
				JOINT Neck
				{
					OFFSET -0.002778 0.213870 -0.042857
					CHANNELS 3 Zrotation Yrotation Xrotation
					JOINT Head
					{
						OFFSET 0.005152 0.064970 0.051349
						CHANNELS 3 Zrotation Yrotation Xrotation
						End Site
						{
							OFFSET 0.000000 0.000000 0.000000
						}
					}
				}
				JOINT LeftShoulder
				{
					OFFSET 0.078845 0.121749 -0.034090
					CHANNELS 3 Zrotation Yrotation Xrotation
					JOINT LeftArm
					{
						OFFSET 0.090977 0.030469 -0.008868
						CHANNELS 3 Zrotation Yrotation Xrotation
						JOINT LeftForeArm
						{
							OFFSET 0.259612 -0.012772 -0.027456
							CHANNELS 3 Zrotation Yrotation Xrotation
							JOINT LeftHand
							{
								OFFSET 0.249234 0.008986 -0.001171
								CHANNELS 3 Zrotation Yrotation Xrotation
								End Site
								{
									OFFSET 0.000000 0.000000 0.000000
								}
							}
						}
					}
				}
				JOINT RightShoulder
				{
					OFFSET -0.081759 0.118833 -0.038615
					CHANNELS 3 Zrotation Yrotation Xrotation
					JOINT RightArm
					{
						OFFSET -0.096012 0.032551 -0.009143
						CHANNELS 3 Zrotation Yrotation Xrotation
						JOINT RightForeArm
						{
							OFFSET -0.253742 -0.013329 -0.021401
							CHANNELS 3 Zrotation Yrotation Xrotation
							JOINT RightHand
							{
								OFFSET -0.255298 0.007772 -0.005559
								CHANNELS 3 Zrotation Yrotation Xrotation
								End Site
								{
									OFFSET 0.000000 0.000000 0.000000
								}
							}
						}
					}
				}
			}
		}
	}
}
MOTION
Frames: 112
Frame Time: 0.050000
0.000000 0.945414 0.000000 -1.650815 -12.614985 -3.098165 6.633583 0.318221 2.948959 -0.073098 -0.058362 3.100366 5.071150 11.646141 11.871233 0.000000 0.000000 0.000000 -1.783658 0.319570 -3.095516 2.335384 0.136002 9.160653 -1.681027 -7.823211 7.156095 0.000000 0.000000 0.000000 -0.828049 -0.275426 11.983979 8.041189 -1.918747 -21.370214 -0.703350 2.732007 27.380867 -1.955487 1.768988 -13.722552 0.000000 0.000000 0.000000 -24.062759 0.954500 -0.257240 -49.618461 -4.021973 -7.143063 -10.738151 -27.594870 4.365779 0.000000 0.000000 0.000000 17.191093 5.716028 0.873288 52.626717 0.618750 -7.305362 -2.647175 27.173572 0.389910 0.000000 0.000000 0.000000 
-0.001611 0.944006 0.000509 -1.873918 -13.037699 -2.737109 7.862107 0.305178 2.069919 -1.671151 0.205469 4.329807 5.253098 11.890708 11.424012 0.000000 0.000000 0.000000 -1.049703 0.438034 -4.511095 1.671410 0.359403 11.105018 -1.761540 -7.788738 6.627206 0.000000 0.000000 0.000000 -0.474791 -0.317878 13.021635 7.935476 -1.841106 -21.908233 0.425723 2.172698 27.198734 -3.306191 2.722035 -12.110657 0.000000 0.000000 0.000000 -24.822893 1.525908 -0.351942 -49.426579 -2.653789 -7.755981 -12.598676 -29.371013 5.277811 0.000000 0.000000 0.000000 16.206659 6.211359 1.019076 52.228366 -1.047756 -7.925667 -3.134287 27.256566 0.222153 0.000000 0.000000 0.000000 
-0.003263 0.941841 -0.000225 -1.534184 -11.864356 -2.717143 8.106380 0.235930 0.541735 -2.333118 0.326009 6.371780 4.787149 11.138829 10.588229 0.000000 0.000000 0.000000 -1.168891 0.565203 -5.866944 1.637865 0.493287 13.535669 -2.561732 -9.100831 6.049709 0.000000 0.000000 0.000000 -0.717376 -0.308131 14.250925 8.823687 -2.021074 -22.052918 -0.105420 1.171518 27.109378 -3.598653 2.879789 -13.387138 0.000000 0.000000 0.000000 -25.031811 1.710170 -0.428338 -48.791496 -2.689558 -7.682317 -13.365157 -29.705890 5.549421 0.000000 0.000000 0.000000 14.863468 6.284183 1.128971 52.869030 -2.148223 -8.545053 -3.204143 28.674391 0.202692 0.000000 0.000000 0.000000 
-0.005008 0.941862 -0.002817 -1.096161 -11.815686 -2.928015 8.770601 0.239126 -0.465096 -3.991797 0.698305 8.068239 4.600010 10.856475 10.943808 0.000000 0.000000 0.000000 -1.595687 0.700798 -7.366919 2.030567 0.590548 16.265800 -2.807478 -9.579188 5.984589 0.000000 0.000000 0.000000 -0.957269 -0.270109 16.624942 9.536647 -2.229026 -21.838119 -0.186859 1.690882 26.366093 -4.201288 3.464124 -12.856119 0.000000 0.000000 0.000000 -24.506410 1.536577 -0.598483 -48.330653 -1.844694 -7.769781 -15.270263 -31.291472 6.357697 0.000000 0.000000 0.000000 14.627336 7.054391 1.649616 51.239756 -2.476184 -8.344785 -2.333619 29.111790 0.422030 0.000000 0.000000 0.000000 
-0.006780 0.941640 -0.007784 -0.602975 -10.557652 -2.923832 8.724005 0.169999 -2.445564 -3.809018 0.703572 10.716021 3.021829 8.203490 10.369562 0.000000 0.000000 0.000000 -2.245019 0.830623 -9.005420 2.821185 0.491016 18.362922 -3.562945 -11.388102 6.955529 0.000000 0.000000 0.000000 -0.328283 -0.390848 19.204603 9.230791 -2.292716 -20.530486 -0.353802 1.928404 24.757670 -4.630622 3.891020 -13.786770 0.000000 0.000000 0.000000 -23.460663 1.143203 -0.778832 -48.657775 -1.908160 -7.479928 -15.797513 -33.393813 6.894165 0.000000 0.000000 0.000000 13.950819 7.031196 1.864709 51.175654 -2.740327 -8.292949 -1.011985 29.287585 0.788296 0.000000 0.000000 0.000000 
-0.008326 0.941758 -0.015169 -0.073066 -9.469860 -2.605789 8.845932 0.118431 -4.379085 -3.957024 0.765016 12.652886 1.355099 5.313109 9.729087 0.000000 0.000000 0.000000 -3.098954 0.965114 -11.012100 3.800507 0.277078 19.976494 -4.227061 -13.102388 8.588540 0.000000 0.000000 0.000000 0.155669 -0.515598 21.981288 8.650618 -2.199826 -19.783476 0.085038 2.137814 23.605505 -4.944086 4.219902 -14.228752 0.000000 0.000000 0.000000 -23.664876 0.488834 -0.756679 -47.722594 -2.007660 -7.130693 -16.635558 -35.364347 7.492649 0.000000 0.000000 0.000000 12.913530 7.331602 2.207402 50.560230 -2.560552 -8.018429 -0.476965 29.470421 0.954253 0.000000 0.000000 0.000000 
-0.009120 0.941650 -0.024356 0.339979 -8.025683 -1.632345 9.133863 0.063600 -6.940711 -3.801563 0.725902 14.450882 -1.006913 0.973035 8.573399 0.000000 0.000000 0.000000 -4.103140 1.065837 -13.109847 4.594746 -0.004722 20.279134 -4.451178 -13.914528 10.610914 0.000000 0.000000 0.000000 0.812009 -0.738495 24.787616 8.181590 -2.049193 -19.506192 -0.055460 2.740334 22.764242 -4.707561 4.212380 -14.892814 0.000000 0.000000 0.000000 -23.900940 -0.337050 -0.792076 -46.716823 -3.245410 -6.349113 -16.634147 -36.317484 7.530111 0.000000 0.000000 0.000000 12.368549 7.507847 2.565944 50.641585 -1.712622 -7.624036 0.079471 29.732137 1.185030 0.000000 0.000000 0.000000 
-0.008622 0.940142 -0.034568 0.582805 -6.433529 -1.083164 9.810560 0.066977 -10.065696 -4.163131 0.844289 17.651753 -1.415059 -0.088219 7.201567 0.000000 0.000000 0.000000 -4.913792 1.125001 -15.099888 5.512283 -0.327824 21.405781 -5.209514 -15.428500 12.149747 0.000000 0.000000 0.000000 1.714520 -1.103454 27.761701 7.741625 -1.928586 -19.027913 0.170190 3.639909 22.417554 -4.870781 4.563274 -14.468909 0.000000 0.000000 0.000000 -25.173193 -2.049274 -0.454587 -44.816816 -4.538305 -5.490166 -16.051201 -37.833404 7.438879 0.000000 0.000000 0.000000 11.249958 8.306258 3.233354 50.373185 0.178470 -6.802850 0.008637 29.929291 1.274917 0.000000 0.000000 0.000000 
-0.006048 0.937260 -0.044622 0.883591 -5.409851 -0.140517 10.144830 0.067487 -12.920037 -4.476220 0.964449 20.389279 0.174092 2.605812 6.279605 0.000000 0.000000 0.000000 -6.237125 1.115483 -17.226380 6.539846 -0.687056 22.213055 -5.152007 -15.302274 12.568276 0.000000 0.000000 0.000000 2.565297 -1.487800 30.247295 7.063032 -1.722019 -18.773891 0.292178 4.401630 21.868214 -5.222848 4.978087 -13.709618 0.000000 0.000000 0.000000 -26.469233 -3.509990 -0.143022 -43.539333 -4.342583 -5.231166 -16.623396 -39.202760 7.768625 0.000000 0.000000 0.000000 12.384050 9.537013 4.081894 47.425930 1.821618 -5.795763 -0.924626 31.189201 1.129876 0.000000 0.000000 0.000000 
-0.001179 0.931815 -0.052882 1.065864 -4.045667 0.244259 10.522721 0.076269 -15.547478 -4.909406 1.108455 23.675996 4.295886 10.339267 6.842462 0.000000 0.000000 0.000000 -7.414177 1.034625 -19.201317 7.663336 -1.139973 23.747285 -6.186454 -17.086149 13.557696 0.000000 0.000000 0.000000 3.199666 -1.888309 32.357152 6.826243 -1.614306 -18.797262 0.537973 5.503598 22.462585 -5.415945 5.368287 -14.168992 0.000000 0.000000 0.000000 -28.241659 -5.020787 0.018661 -41.125750 -4.204136 -4.838154 -17.616453 -41.013322 8.325108 0.000000 0.000000 0.000000 12.861437 10.951378 5.141012 45.179645 3.868994 -4.955889 -2.605934 33.025624 0.841994 0.000000 0.000000 0.000000 
0.005648 0.926087 -0.058429 1.257910 -3.377832 -0.044873 10.541711 0.063204 -16.622134 -5.025707 1.161619 25.986022 9.950232 20.121604 9.923784 0.000000 0.000000 0.000000 -8.237119 0.928706 -20.169581 8.078949 -1.356058 25.511839 -6.818283 -18.048707 12.945066 0.000000 0.000000 0.000000 3.432209 -2.116329 34.193733 6.703326 -1.613989 -18.269975 0.681553 6.180952 22.612105 -5.864981 5.838220 -14.049205 0.000000 0.000000 0.000000 -29.072702 -5.178695 -0.365475 -40.205903 -3.123509 -4.946308 -20.758126 -42.392596 9.761149 0.000000 0.000000 0.000000 12.999500 12.289078 5.984000 42.452794 6.394680 -3.956259 -4.265284 35.126862 0.454828 0.000000 0.000000 0.000000 
0.014003 0.919949 -0.061249 1.270676 -2.998261 -0.377118 10.593774 0.062737 -17.030219 -5.356326 1.298560 27.676187 14.523076 27.004678 11.490426 0.000000 0.000000 0.000000 -8.732976 0.851049 -20.683216 8.407257 -1.537410 27.348214 -7.492477 -19.066911 10.866334 0.000000 0.000000 0.000000 3.560769 -2.246153 35.136614 6.241338 -1.499591 -17.918989 0.958807 7.002579 23.808791 -5.633051 5.856616 -13.838452 0.000000 0.000000 0.000000 -28.898371 -4.998286 -0.816266 -39.901511 -2.164464 -5.185753 -22.990380 -43.276005 10.803619 0.000000 0.000000 0.000000 12.881321 12.752794 6.395609 41.234597 9.258157 -3.131785 -7.251218 38.280597 -0.313535 0.000000 0.000000 0.000000 
0.023843 0.916715 -0.062688 1.045616 -2.486497 -0.863237 10.878691 0.083950 -16.666492 -5.445257 1.289726 28.258373 16.794710 30.275314 11.695736 0.000000 0.000000 0.000000 -8.937715 0.772660 -20.347883 8.425537 -1.608896 27.768036 -8.241617 -20.348784 10.445233 0.000000 0.000000 0.000000 3.431669 -2.303935 35.847277 6.578856 -1.588266 -17.974843 1.055364 7.702764 24.859023 -5.098615 5.633599 -13.465283 0.000000 0.000000 0.000000 -28.235879 -4.090461 -1.666531 -39.950564 -0.042021 -5.820092 -27.526844 -44.880180 13.081216 0.000000 0.000000 0.000000 11.874486 12.976210 6.518900 41.225584 12.121885 -2.304682 -10.165464 40.884936 -1.160924 0.000000 0.000000 0.000000 
0.035514 0.914591 -0.064816 0.790399 -1.914469 -1.397464 11.245648 0.115868 -16.508460 -5.757409 1.372742 29.419679 14.852520 27.959111 8.558212 0.000000 0.000000 0.000000 -9.708872 0.612538 -20.251734 8.448333 -1.697106 28.344154 -7.942137 -19.779363 11.439640 0.000000 0.000000 0.000000 3.052826 -2.322174 37.064687 6.615678 -1.591781 -17.995202 1.514517 8.090106 25.527189 -4.421764 5.246649 -13.760649 0.000000 0.000000 0.000000 -27.355604 -3.166760 -2.370309 -40.272882 1.376852 -6.299304 -31.748950 -45.947806 15.213516 0.000000 0.000000 0.000000 11.204173 12.889363 6.467746 40.918819 15.174774 -1.355034 -13.065172 43.164254 -2.145353 0.000000 0.000000 0.000000 
0.049123 0.913711 -0.068715 0.255850 -1.691999 -1.207149 11.750190 0.185491 -17.291643 -6.607721 1.731370 30.933151 13.711522 26.578470 5.605288 0.000000 0.000000 0.000000 -10.128777 0.554498 -20.966336 8.329233 -1.679817 28.134356 -7.980313 -19.887242 14.118764 0.000000 0.000000 0.000000 2.593967 -2.251011 37.754306 6.606727 -1.570825 -18.092396 1.946986 8.988813 25.681957 -3.269733 4.563953 -14.210025 0.000000 0.000000 0.000000 -25.903151 -2.457854 -2.938286 -40.677891 3.229021 -6.889859 -36.135101 -46.817462 17.378197 0.000000 0.000000 0.000000 11.157816 12.900412 6.619204 40.500980 17.274685 -0.693088 -15.555926 44.038327 -3.001874 0.000000 0.000000 0.000000 
0.065347 0.909972 -0.074150 -0.261538 -1.331124 -0.871183 12.149185 0.244861 -18.788489 -6.994693 1.919495 33.005046 12.263184 24.438630 2.652084 0.000000 0.000000 0.000000 -10.776478 0.452255 -22.309010 8.573687 -1.843422 28.931429 -8.463612 -20.660040 15.846460 0.000000 0.000000 0.000000 1.908733 -2.152286 39.059998 7.145415 -1.628087 -19.097614 2.481423 9.855603 26.911611 -2.833773 4.477450 -14.949094 0.000000 0.000000 0.000000 -25.790849 -1.815041 -3.643917 -39.971295 3.679728 -6.895590 -40.611925 -48.054135 19.876337 0.000000 0.000000 0.000000 10.707164 13.271634 6.876996 39.531696 19.495038 -0.109903 -17.953940 42.328916 -3.657189 0.000000 0.000000 0.000000 
0.084029 0.904867 -0.080008 -0.204516 -1.038941 -0.701325 12.076353 0.237518 -20.269365 -8.390234 2.566797 34.807288 11.715804 23.634640 0.266917 0.000000 0.000000 0.000000 -12.679256 0.100478 -23.843642 9.875145 -2.413274 29.995183 -9.545535 -22.285910 18.130499 0.000000 0.000000 0.000000 0.932892 -1.949260 41.294736 7.415208 -1.652115 -19.573881 2.667384 10.558484 26.918125 -2.369841 4.266505 -14.931598 0.000000 0.000000 0.000000 -25.663820 -1.833107 -3.914510 -38.514494 4.176645 -6.672519 -44.315886 -49.315748 22.114496 0.000000 0.000000 0.000000 11.346070 14.264663 7.616060 37.671368 21.348447 0.272962 -19.749454 40.005154 -4.052657 0.000000 0.000000 0.000000 
0.103943 0.896371 -0.085753 0.100388 0.760219 -0.860906 10.985212 -0.062343 -22.607911 -8.773191 2.561862 37.407211 11.150510 22.584967 -1.488677 0.000000 0.000000 0.000000 -16.057972 -0.824579 -26.294717 12.668128 -4.049768 33.718122 -11.249557 -24.339168 21.962013 0.000000 0.000000 0.000000 0.383438 -2.141912 43.448373 7.675691 -1.664368 -19.752764 3.226735 10.618448 27.344395 -3.098473 4.926004 -14.926449 0.000000 0.000000 0.000000 -25.765467 -2.185041 -4.027227 -37.591108 3.610003 -6.259083 -46.045054 -50.237054 23.287577 0.000000 0.000000 0.000000 10.399444 14.845350 7.795430 36.740446 22.577376 0.595512 -21.185744 36.330337 -4.046116 0.000000 0.000000 0.000000 
0.122081 0.888282 -0.091291 0.363796 2.428829 -1.189693 9.730483 -0.444092 -24.766871 -9.321291 2.624116 40.216070 11.133282 22.531160 -2.860982 0.000000 0.000000 0.000000 -19.822618 -2.220112 -30.027209 15.993458 -6.786210 41.362309 -10.595730 -23.347067 20.608249 0.000000 0.000000 0.000000 -0.378575 -2.295766 46.208612 9.664626 -2.146750 -20.242710 2.550076 11.982755 27.621018 -3.417182 5.426914 -13.657929 0.000000 0.000000 0.000000 -27.017684 -2.943235 -4.599779 -34.898736 3.753683 -5.545604 -48.554962 -51.850541 25.086641 0.000000 0.000000 0.000000 11.593622 16.474457 9.164589 32.844940 22.242469 0.053053 -21.106306 31.692683 -3.543801 0.000000 0.000000 0.000000 
0.135299 0.878186 -0.096887 0.339637 4.114222 -0.649311 8.922419 -0.841488 -27.737241 -9.836728 2.675346 44.040509 10.830832 21.916530 -5.992526 0.000000 0.000000 0.000000 -21.762284 -3.695572 -35.636157 18.085678 -9.607524 48.993646 -11.051937 -24.006359 19.291279 0.000000 0.000000 0.000000 -0.366068 -2.960802 50.127466 9.873082 -1.995779 -21.582637 3.068710 12.593934 27.405584 -6.145817 7.537806 -16.379012 0.000000 0.000000 0.000000 -25.544008 -2.860802 -4.741854 -36.041903 3.407301 -5.599369 -51.878615 -52.386863 26.897250 0.000000 0.000000 0.000000 11.211814 17.400519 9.697803 31.158880 22.042854 -0.091600 -20.940371 27.136358 -2.964078 0.000000 0.000000 0.000000 
0.141646 0.868919 -0.101666 0.660423 5.871434 0.482543 8.448980 -1.285402 -31.063799 -10.240915 2.579256 46.313937 10.454871 21.078032 -6.902311 0.000000 0.000000 0.000000 -21.361076 -4.519544 -40.048269 17.626408 -10.339638 51.861392 -8.814864 -20.647555 14.846552 0.000000 0.000000 0.000000 0.196363 -4.104572 54.351262 8.907974 -1.368242 -24.393395 4.052213 13.124078 28.944404 -6.151717 7.793716 -17.712211 0.000000 0.000000 0.000000 -26.191737 -3.809492 -4.716925 -35.661346 2.466297 -5.224434 -52.289969 -54.392839 28.165157 0.000000 0.000000 0.000000 10.744671 19.215280 10.623600 28.609920 21.750803 -0.405482 -20.313317 21.758611 -2.245681 0.000000 0.000000 0.000000 
0.141367 0.856800 -0.104644 1.008467 6.836078 2.221784 9.563838 -1.335231 -34.771057 -12.263876 3.606310 48.571284 10.205268 20.592277 -8.220487 0.000000 0.000000 0.000000 -18.772830 -4.233723 -43.972193 15.005505 -8.716323 50.894729 -6.605031 -16.716255 11.809442 0.000000 0.000000 0.000000 -0.101352 -4.748235 58.688497 9.352849 -1.122538 -27.151808 4.456496 15.447503 29.956340 -6.659250 8.554019 -19.086737 0.000000 0.000000 0.000000 -26.241428 -4.000925 -5.524916 -34.853155 2.568719 -4.946417 -58.218815 -55.261324 31.739683 0.000000 0.000000 0.000000 12.187574 20.867104 12.398944 24.520191 21.216719 -0.881611 -19.975635 17.809103 -1.792528 0.000000 0.000000 0.000000 
0.135952 0.839786 -0.104612 1.549983 9.080633 4.469231 10.011721 -1.869925 -39.597462 -12.873681 3.594848 51.198347 9.840460 19.812780 -9.259985 0.000000 0.000000 0.000000 -16.619513 -4.152515 -46.019318 12.651514 -7.777905 50.808870 -8.218034 -19.471961 8.619225 0.000000 0.000000 0.000000 -0.643238 -5.705966 62.357227 8.197824 -0.683733 -28.300453 6.477459 17.568590 29.467794 -4.536368 7.440249 -20.005606 0.000000 0.000000 0.000000 -26.192425 -5.109887 -5.931898 -35.059078 2.051695 -4.485687 -62.426769 -53.867622 32.729327 0.000000 0.000000 0.000000 10.682610 20.970927 12.380013 23.689655 21.423944 -0.702289 -18.640074 15.084704 -1.294866 0.000000 0.000000 0.000000 
0.127770 0.817726 -0.102273 2.167380 11.450947 5.098488 10.926289 -2.256361 -42.693454 -14.467995 4.119470 54.019869 9.800845 19.664325 -11.477621 0.000000 0.000000 0.000000 -16.312638 -4.807144 -46.789585 12.153286 -8.615550 54.055654 -9.669871 -22.890277 0.493497 0.000000 0.000000 0.000000 -1.047594 -7.004673 66.462191 7.911765 -0.411949 -29.947420 6.783565 19.529923 30.129028 -4.665920 7.924301 -22.227476 0.000000 0.000000 0.000000 -26.012137 -6.603740 -5.874749 -33.731488 1.628046 -3.954300 -66.580973 -54.399038 35.168271 0.000000 0.000000 0.000000 10.160294 22.983484 13.504110 20.701961 20.536612 -0.885521 -18.202048 11.402179 -0.843177 0.000000 0.000000 0.000000 
0.120585 0.793863 -0.100011 2.123124 11.969653 5.539920 12.687245 -2.002023 -45.576248 -14.905233 4.560414 56.955672 9.286484 18.305511 -13.659852 0.000000 0.000000 0.000000 -15.912695 -5.242497 -49.779787 11.743657 -9.049061 58.021517 -10.202015 -24.394968 -2.218814 0.000000 0.000000 0.000000 -2.740672 -6.766742 70.997254 6.819008 -0.068563 -31.494619 9.017869 21.394359 30.732420 -5.344299 8.511664 -26.157417 0.000000 0.000000 0.000000 -25.988730 -7.699695 -5.906635 -34.283583 1.314069 -3.759464 -68.469751 -53.164793 35.011217 0.000000 0.000000 0.000000 8.072410 23.822205 13.148671 17.671231 20.908373 -0.718875 -18.009526 9.331668 -0.553208 0.000000 0.000000 0.000000 
0.117077 0.772362 -0.098706 1.576049 11.262844 5.884072 14.621516 -1.351106 -48.829339 -15.251037 5.426926 60.071268 9.367081 18.881239 -13.503887 0.000000 0.000000 0.000000 -15.886366 -5.558265 -53.237490 12.973572 -10.088172 60.707208 -11.328679 -26.833565 -1.534078 0.000000 0.000000 0.000000 -4.080085 -6.031561 75.062139 6.056693 0.114272 -32.544899 10.683378 23.628354 31.681432 -6.234443 8.942566 -31.134814 0.000000 0.000000 0.000000 -25.234275 -8.722861 -5.896305 -35.897833 0.727366 -3.656456 -67.424684 -52.287556 33.098480 0.000000 0.000000 0.000000 3.155430 25.734261 11.958043 16.203383 22.008970 -0.238849 -18.279834 7.049357 -0.200902 0.000000 0.000000 0.000000 
0.116621 0.753658 -0.098066 1.324604 10.909527 6.333065 16.236385 -0.765017 -51.851594 -16.048672 6.569199 62.753111 9.363933 19.132071 -13.245785 0.000000 0.000000 0.000000 -16.361204 -6.204868 -56.331054 13.901972 -10.961853 62.960962 -12.279960 -28.587738 0.016616 0.000000 0.000000 0.000000 -5.392329 -5.166791 78.051887 5.759048 0.208179 -33.113772 11.468140 25.150135 31.936302 -4.846690 8.452176 -31.841181 0.000000 0.000000 0.000000 -24.233645 -9.067048 -5.869260 -36.803643 0.914322 -3.770525 -69.649847 -50.354506 32.377194 0.000000 0.000000 0.000000 1.367526 26.746007 11.695830 9.868035 22.530784 -0.490181 -18.317558 6.231412 -0.104396 0.000000 0.000000 0.000000 
0.117409 0.736748 -0.097815 0.532351 10.292784 6.396219 18.279384 0.240864 -54.137621 -16.815309 7.833649 65.132175 9.343714 19.215382 -13.255806 0.000000 0.000000 0.000000 -16.344883 -6.351523 -58.825692 14.874290 -11.842586 64.996813 -13.025264 -29.979733 1.028141 0.000000 0.000000 0.000000 -7.470950 -3.301546 80.692817 6.701591 0.104985 -33.554889 13.018834 27.576539 32.871010 -4.999711 8.834346 -31.210799 0.000000 0.000000 0.000000 -25.022620 -9.796765 -6.649203 -36.553862 2.326951 -3.809551 -69.111556 -47.410909 29.480849 0.000000 0.000000 0.000000 -1.543180 28.208209 11.052645 4.786630 22.300424 -0.614941 -20.416482 4.849299 0.163975 0.000000 0.000000 0.000000 
0.117823 0.722701 -0.097472 -0.143618 10.413824 6.892199 20.164339 1.033428 -56.798321 -18.122264 9.481710 67.827165 9.396425 19.485634 -13.516981 0.000000 0.000000 0.000000 -16.732111 -6.932126 -60.587669 16.032265 -12.958278 66.020416 -13.378893 -30.804573 0.693754 0.000000 0.000000 0.000000 -9.398666 -1.768354 82.082775 7.228710 0.053614 -33.637476 14.232280 29.559731 33.553980 -3.619389 8.483314 -30.127762 0.000000 0.000000 0.000000 -24.277331 -9.326961 -7.534724 -35.679807 3.182506 -3.732053 -69.893141 -44.080770 26.705592 0.000000 0.000000 0.000000 -4.326066 28.848182 10.109251 0.784410 21.428258 -0.684010 -20.597523 5.109893 0.175611 0.000000 0.000000 0.000000 
0.117428 0.710077 -0.097095 -0.887773 10.831023 6.764527 22.344185 1.941907 -58.592188 -19.785437 11.336614 69.892028 9.295452 19.276646 -13.659201 0.000000 0.000000 0.000000 -16.842085 -7.340973 -61.503345 17.045070 -14.222600 67.469569 -13.637869 -31.745156 -0.799408 0.000000 0.000000 0.000000 -11.186580 -0.458979 82.322797 7.393116 -0.050612 -32.835147 16.055294 31.190224 35.552676 -3.770059 8.798005 -30.417168 0.000000 0.000000 0.000000 -22.628653 -9.087693 -7.809161 -36.899034 3.519614 -4.055246 -69.554871 -41.682029 23.850995 0.000000 0.000000 0.000000 -8.321895 28.570529 8.006709 -1.659493 20.214886 -0.560020 -22.020192 4.940453 0.382806 0.000000 0.000000 0.000000 
0.116194 0.702110 -0.096414 -1.395822 11.622100 6.786235 24.448631 2.706112 -60.375375 -21.644525 13.236216 71.149487 9.032118 18.701626 -12.105330 0.000000 0.000000 0.000000 -16.488959 -7.617697 -62.237771 16.995771 -14.691783 68.810644 -13.902411 -32.510791 -1.616005 0.000000 0.000000 0.000000 -13.051122 0.720033 82.521558 7.862666 -0.135927 -32.489294 17.746804 33.595939 36.516337 -1.817618 8.269273 -29.283665 0.000000 0.000000 0.000000 -21.476712 -8.209213 -8.733753 -35.540110 4.664746 -4.063937 -71.377720 -39.000564 21.879203 0.000000 0.000000 0.000000 -10.202103 27.825774 6.901156 -4.367764 18.412727 -0.457763 -21.139539 5.305067 0.416990 0.000000 0.000000 0.000000 
0.114641 0.693024 -0.095599 -1.753470 13.386897 7.013204 26.016630 2.859949 -62.864976 -19.154296 10.934421 71.363840 3.857304 5.458163 -8.832065 0.000000 0.000000 0.000000 -16.464894 -8.544673 -62.861789 16.928132 -15.432178 70.240988 -14.274414 -33.564620 -2.695000 0.000000 0.000000 0.000000 -14.586933 1.032470 82.721560 7.651490 -0.166588 -31.405666 19.242374 35.765443 37.396171 -0.048092 7.579767 -26.459452 0.000000 0.000000 0.000000 -19.357015 -7.659743 -8.871706 -36.228784 4.690258 -4.261277 -72.296903 -39.027128 21.158833 0.000000 0.000000 0.000000 -13.202836 26.907714 5.198917 -5.209158 16.136810 -0.241163 -20.035581 5.244239 0.568385 0.000000 0.000000 0.000000 
0.112807 0.684543 -0.094430 -2.003939 15.112485 7.733351 28.084082 3.267011 -65.093740 -19.102309 10.537509 69.362819 -1.025697 -4.452815 -3.506969 0.000000 0.000000 0.000000 -15.846529 -9.128665 -63.735962 16.014550 -15.366210 71.550408 -14.519514 -34.858650 -5.008746 0.000000 0.000000 0.000000 -16.083590 1.349399 83.158840 7.754199 -0.052972 -32.209496 21.542557 37.969675 40.063286 2.282006 6.688494 -24.936624 0.000000 0.000000 0.000000 -18.585511 -6.520436 -10.080997 -35.403644 4.485424 -4.043103 -74.554230 -38.493141 20.879652 0.000000 0.000000 0.000000 -16.024716 25.809966 3.444031 -5.705772 13.613552 -0.022881 -18.746674 5.533171 0.659236 0.000000 0.000000 0.000000 
0.110715 0.674134 -0.093111 -2.243592 17.267063 8.752007 29.416829 3.092783 -67.941102 -20.099898 11.500825 70.104947 -0.971087 -4.846391 -4.312686 0.000000 0.000000 0.000000 -15.283497 -9.956120 -64.391002 15.231167 -15.431786 72.448471 -14.549463 -36.617757 -9.296334 0.000000 0.000000 0.000000 -17.516864 1.326083 83.155608 7.372787 0.052701 -32.064884 23.798608 40.636514 42.050652 3.756315 6.047109 -22.792812 0.000000 0.000000 0.000000 -17.650978 -7.466170 -10.270045 -34.696109 5.122882 -3.984334 -74.629591 -39.605886 20.991060 0.000000 0.000000 0.000000 -17.884801 25.300616 2.506886 -7.220095 10.971360 0.218030 -15.892196 4.526768 0.751402 0.000000 0.000000 0.000000 
0.109487 0.661903 -0.091588 -2.218348 18.831859 10.477363 32.230121 4.106688 -71.142675 -23.048669 14.567303 69.916800 -1.212448 -4.728628 -3.279900 0.000000 0.000000 0.000000 -15.020989 -11.216870 -66.982494 14.937676 -15.741558 74.550926 -14.779203 -37.791739 -10.590536 0.000000 0.000000 0.000000 -19.134227 1.865653 84.547207 5.507103 0.460058 -32.949861 25.516426 42.019470 42.921392 5.845557 5.146910 -24.074499 0.000000 0.000000 0.000000 -16.306803 -6.318905 -10.765081 -35.157457 4.613085 -3.972937 -74.031936 -39.755079 20.118418 0.000000 0.000000 0.000000 -23.033703 23.537003 -0.232754 -5.999236 10.409923 0.254967 -14.413754 3.096218 0.952988 0.000000 0.000000 0.000000 
0.111250 0.649621 -0.089372 -2.666526 20.333964 12.119370 34.883625 5.069558 -73.643609 -25.404327 17.008161 69.291904 -0.660090 -4.747849 -5.578373 0.000000 0.000000 0.000000 -15.116325 -12.644401 -68.856369 15.721371 -16.855711 75.597921 -14.908604 -39.150387 -12.641498 0.000000 0.000000 0.000000 -20.981613 2.635158 85.639785 4.714267 0.689879 -33.738023 29.697392 44.426324 46.301382 6.852532 5.072981 -24.252388 0.000000 0.000000 0.000000 -18.781632 -8.006371 -13.255895 -33.487352 6.949608 -3.489746 -70.597804 -39.119385 18.729531 0.000000 0.000000 0.000000 -28.374919 21.996181 -2.865050 -6.182976 7.701429 0.416161 -11.229756 2.069890 0.909123 0.000000 0.000000 0.000000 
0.118184 0.636639 -0.085723 -2.332989 21.820633 13.911184 36.431070 5.579739 -76.940727 -27.429556 19.652260 69.823183 -0.505959 -4.444540 -5.886924 0.000000 0.000000 0.000000 -15.400056 -14.606054 -71.619485 15.080042 -17.059049 79.633491 -14.244181 -37.565591 -13.257545 0.000000 0.000000 0.000000 -22.476046 3.188911 87.401822 3.583110 0.944133 -34.370118 30.678710 45.282269 47.354288 8.057150 4.664479 -25.495638 0.000000 0.000000 0.000000 -19.794183 -8.185869 -14.652101 -33.706871 8.083351 -3.450523 -66.192878 -38.182937 16.727614 0.000000 0.000000 0.000000 -33.843184 20.496744 -5.088294 -6.136827 6.016933 0.486826 -8.739928 1.840925 0.766793 0.000000 0.000000 0.000000 
0.132141 0.626803 -0.080345 -2.641663 21.883426 15.012808 37.156859 6.376624 -79.051279 -28.318209 21.727281 71.513167 -0.303601 -4.251713 -6.588071 0.000000 0.000000 0.000000 -16.944401 -15.954150 -71.882101 15.871263 -18.228507 81.326896 -12.556279 -34.168342 -16.909506 0.000000 0.000000 0.000000 -23.687758 4.483497 88.904308 1.979476 1.211707 -34.703874 32.377458 45.919926 47.356795 8.629774 4.456324 -26.510164 0.000000 0.000000 0.000000 -21.939464 -9.286747 -16.204316 -32.865188 10.976995 -3.420287 -60.202332 -36.544038 14.478434 0.000000 0.000000 0.000000 -38.680600 18.793230 -6.731104 -6.409824 4.175541 0.580053 -7.196009 2.780182 0.658278 0.000000 0.000000 0.000000 
0.152358 0.619343 -0.074071 -2.358624 21.539039 15.650624 36.622060 6.319731 -79.442926 -29.838988 23.488631 72.194003 0.854357 -3.535831 -10.611200 0.000000 0.000000 0.000000 -18.369168 -16.985782 -72.118435 14.396812 -17.403645 85.011862 -10.784099 -28.568034 -18.679073 0.000000 0.000000 0.000000 -23.989109 5.255791 90.786484 1.444041 1.368764 -35.862730 32.824768 45.576422 48.312396 9.313479 4.091847 -26.580536 0.000000 0.000000 0.000000 -25.324245 -10.778580 -18.118333 -30.617556 12.319661 -2.661415 -53.895299 -34.695880 12.727871 0.000000 0.000000 0.000000 -41.681796 17.994566 -7.686931 -7.568834 2.528514 0.804585 -7.598416 3.187881 0.733508 0.000000 0.000000 0.000000 
0.177204 0.619146 -0.067208 -2.397137 19.960264 16.362467 36.140354 6.820279 -78.363003 -32.282448 25.390890 71.272155 1.881886 -2.310371 -13.553823 0.000000 0.000000 0.000000 -19.969476 -16.929281 -71.173680 13.830958 -16.288485 83.900161 -10.162657 -26.461924 -19.141787 0.000000 0.000000 0.000000 -23.717483 6.156108 91.199949 1.397622 1.321167 -35.319630 31.893568 46.444075 46.703501 10.173789 3.691857 -27.141338 0.000000 0.000000 0.000000 -24.695609 -11.080287 -17.885222 -32.500477 12.595907 -2.940120 -49.058790 -31.786612 9.729729 0.000000 0.000000 0.000000 -42.945385 17.828389 -7.764666 -8.313545 2.254609 0.925199 -9.081884 4.665334 0.891739 0.000000 0.000000 0.000000 
0.203459 0.624559 -0.060060 -2.476600 18.202605 16.506345 34.162414 6.352024 -76.839128 -33.037616 25.771540 71.282205 2.630594 -1.181344 -15.482090 0.000000 0.000000 0.000000 -21.659128 -16.545206 -69.417370 13.693729 -15.408884 81.412982 -10.064841 -25.921953 -17.438031 0.000000 0.000000 0.000000 -22.474263 6.099828 91.108192 1.049586 1.269333 -34.528777 29.845565 45.617523 45.111461 10.532574 3.404695 -27.407461 0.000000 0.000000 0.000000 -25.515369 -11.506522 -17.734565 -32.418638 12.974985 -2.925290 -44.550503 -31.392758 8.773071 0.000000 0.000000 0.000000 -42.856923 18.042712 -7.692356 -8.864474 3.795389 0.943020 -12.212622 4.545924 1.209041 0.000000 0.000000 0.000000 
0.228180 0.635624 -0.051212 -2.943804 15.583687 16.169060 32.698020 6.610483 -74.128829 -33.971211 26.176849 70.640700 2.530156 -0.464700 -13.715843 0.000000 0.000000 0.000000 -23.048489 -15.284571 -67.415281 14.413478 -14.791143 76.925977 -10.705579 -27.395166 -12.882937 0.000000 0.000000 0.000000 -21.109317 6.681067 91.930290 1.417396 1.189703 -34.757329 27.680199 45.329877 42.833934 10.347055 3.606928 -29.208129 0.000000 0.000000 0.000000 -24.337609 -9.543014 -17.174231 -34.650217 11.145630 -3.274573 -43.095035 -29.525299 7.629450 0.000000 0.000000 0.000000 -41.390046 18.179126 -7.258313 -9.347203 6.113476 0.921896 -15.497294 6.381649 1.435695 0.000000 0.000000 0.000000 
0.250327 0.650656 -0.040666 -3.460187 12.903584 15.340173 30.565364 6.316159 -70.435181 -33.511057 25.313310 70.194785 2.551318 -0.014215 -12.930267 0.000000 0.000000 0.000000 -23.547939 -13.420946 -65.328577 14.618068 -13.716155 72.943448 -11.877883 -29.393199 -6.636767 0.000000 0.000000 0.000000 -19.669048 6.906004 90.793832 1.789668 0.994715 -33.847726 26.451175 44.592353 41.363223 9.300903 4.120821 -29.987752 0.000000 0.000000 0.000000 -23.006113 -10.342104 -15.086300 -36.182074 9.876759 -3.570936 -38.289226 -29.082766 6.526498 0.000000 0.000000 0.000000 -38.003979 20.394620 -5.961206 -9.176997 7.832727 0.816032 -22.340920 6.819793 2.096345 0.000000 0.000000 0.000000 
0.269805 0.668656 -0.029333 -3.990182 9.528417 14.348525 28.667562 6.524607 -66.893221 -32.361847 24.527054 70.288701 1.600527 0.312354 -7.232360 0.000000 0.000000 0.000000 -23.517900 -10.815771 -62.516989 14.549403 -12.138851 68.455608 -12.338864 -29.977923 -3.334762 0.000000 0.000000 0.000000 -18.209372 7.526723 89.029640 2.927085 0.669614 -32.490488 23.101669 43.464554 38.242207 8.402276 4.429477 -31.207265 0.000000 0.000000 0.000000 -20.061011 -10.718699 -12.016361 -38.419097 8.779631 -4.296484 -38.287110 -29.086786 6.142776 0.000000 0.000000 0.000000 -33.376482 22.548354 -3.917619 -7.524914 9.988878 0.544602 -28.145260 8.703546 2.177632 0.000000 0.000000 0.000000 
0.286525 0.690968 -0.017867 -3.960895 7.013060 12.457376 25.205919 5.250002 -62.340358 -29.517977 21.972115 70.366683 1.075550 0.645981 -3.816473 0.000000 0.000000 0.000000 -22.684948 -8.427851 -59.310390 12.226432 -9.382081 66.862354 -10.991274 -26.390204 -0.133535 0.000000 0.000000 0.000000 -15.981877 6.763895 87.688475 2.581480 0.601110 -31.713122 21.363931 40.172574 36.104291 6.714322 4.674077 -30.614524 0.000000 0.000000 0.000000 -18.128620 -10.912308 -8.890929 -41.243812 7.075579 -5.193506 -37.445188 -29.888507 6.406900 0.000000 0.000000 0.000000 -28.651636 24.183217 -1.718143 -4.960865 13.442430 0.241311 -34.489604 9.293906 2.155221 0.000000 0.000000 0.000000 
0.300096 0.718932 -0.006683 -3.893200 5.879775 12.601555 22.619298 4.047173 -58.910553 -27.742166 19.388082 67.318393 0.683057 0.982762 -1.143446 0.000000 0.000000 0.000000 -22.445127 -7.443705 -57.571909 11.677951 -8.333806 64.436636 -10.335031 -24.276902 5.931209 0.000000 0.000000 0.000000 -13.656117 4.972805 84.813552 4.426196 0.238861 -31.192163 18.043769 37.169033 34.266147 6.157854 4.566190 -31.074193 0.000000 0.000000 0.000000 -17.295346 -9.378820 -7.822368 -41.686695 4.268214 -4.970792 -39.983055 -31.640048 7.782468 0.000000 0.000000 0.000000 -23.887134 25.800446 0.761274 -2.787552 17.475574 0.073077 -37.419033 8.309101 1.927838 0.000000 0.000000 0.000000 
0.309107 0.756599 0.005316 -3.447903 5.590952 11.855748 19.127890 2.159419 -54.096717 -23.716988 14.837449 64.033512 -2.396359 -3.988043 2.297337 0.000000 0.000000 0.000000 -22.780439 -6.698672 -53.110987 12.279962 -8.255155 60.439044 -9.642697 -22.624175 9.501713 0.000000 0.000000 0.000000 -11.359279 2.814545 81.809370 5.286103 -0.064717 -29.209321 15.221757 33.507653 31.730758 3.946738 4.977129 -30.983601 0.000000 0.000000 0.000000 -18.485583 -10.565104 -6.222606 -42.021504 2.382939 -4.578041 -41.166145 -38.057443 10.930825 0.000000 0.000000 0.000000 -20.666426 27.589273 2.787211 2.884628 20.528384 0.210326 -38.030829 8.406732 1.273314 0.000000 0.000000 0.000000 
0.312718 0.800685 0.019357 -3.231989 5.410607 11.855751 16.469174 0.941063 -50.312443 -18.750624 10.191459 60.560865 -8.591572 -10.996217 10.768638 0.000000 0.000000 0.000000 -23.309279 -6.550323 -51.287177 15.082690 -9.947348 58.147437 -9.502580 -22.040646 14.929589 0.000000 0.000000 0.000000 -9.171439 0.931416 78.666383 6.034336 -0.063160 -31.110925 13.950645 28.786517 33.341672 3.952258 4.440985 -30.871657 0.000000 0.000000 0.000000 -18.605768 -9.225386 -5.355737 -41.894180 -1.777636 -3.877699 -40.306875 -43.815910 13.514217 0.000000 0.000000 0.000000 -15.374910 27.036918 4.705654 8.403239 24.541792 0.576930 -38.351778 11.624456 -0.329883 0.000000 0.000000 0.000000 
0.310362 0.843821 0.036203 -3.520662 4.448181 11.731910 16.031844 0.903023 -45.366246 -15.276392 7.244634 55.746894 -5.321792 -6.214200 8.575697 0.000000 0.000000 0.000000 -21.970164 -5.978215 -53.767099 16.691610 -10.710529 57.793782 -11.366053 -23.989556 27.424503 0.000000 0.000000 0.000000 -8.355587 0.770682 74.763517 7.925877 -0.659350 -28.334219 12.480359 26.733746 32.082141 0.231676 5.737006 -29.027374 0.000000 0.000000 0.000000 -18.528814 -7.285189 -5.485486 -40.750517 -5.292697 -2.936736 -41.252803 -50.829902 17.141047 0.000000 0.000000 0.000000 -10.941676 25.552559 6.164454 13.907270 26.770698 1.140578 -37.290716 14.838499 -1.546809 0.000000 0.000000 0.000000 
0.301967 0.876862 0.055684 -4.135025 5.600129 11.568777 16.650659 0.761786 -41.376664 -13.062149 5.128661 52.436657 1.121016 2.492849 -0.006204 0.000000 0.000000 0.000000 -22.125755 -6.544459 -54.191775 18.290241 -10.951693 52.504126 -11.065842 -23.143617 32.212253 0.000000 0.000000 0.000000 -7.330627 -0.557153 71.792540 9.942924 -1.101578 -27.820557 12.276144 25.416079 32.793232 -1.608493 6.528735 -30.656738 0.000000 0.000000 0.000000 -19.791732 -6.491523 -5.964623 -37.725157 -6.540162 -2.332818 -40.994958 -58.128760 20.544491 0.000000 0.000000 0.000000 -6.564695 22.171307 6.740257 19.427668 27.153350 1.589560 -34.103639 20.230630 -2.884300 0.000000 0.000000 0.000000 
0.288939 0.886993 0.078364 -4.447243 6.189239 11.546422 20.331998 1.609047 -38.497497 -15.898998 6.548398 50.294849 4.403998 8.305492 -4.273207 0.000000 0.000000 0.000000 -20.727208 -6.366913 -56.028629 16.661183 -8.821317 46.802163 -9.382790 -21.218309 25.395351 0.000000 0.000000 0.000000 -6.885164 -1.089400 69.827471 11.934173 -1.479883 -27.855539 11.749397 22.579462 33.601341 -5.107987 7.881178 -31.633041 0.000000 0.000000 0.000000 -23.755509 -4.962526 -7.364424 -32.085469 -8.098787 -1.532059 -29.895304 -66.481143 18.122945 0.000000 0.000000 0.000000 -3.491494 20.497865 7.190520 24.228083 24.828823 1.280991 -36.085910 26.856034 -4.859194 0.000000 0.000000 0.000000 
0.272183 0.873380 0.103962 -3.526426 8.321078 10.738685 22.498625 1.553774 -35.402336 -20.040819 8.200125 49.180709 8.409242 17.363700 -5.135887 0.000000 0.000000 0.000000 -20.305127 -6.953364 -55.461377 10.827414 -4.582692 37.673911 -6.807187 -17.210614 24.409693 0.000000 0.000000 0.000000 -6.900809 -2.045186 69.724125 15.170542 -1.749563 -30.126618 10.291505 20.652753 35.919995 -5.823188 8.178704 -33.783214 0.000000 0.000000 0.000000 -22.438026 -2.598874 -7.618996 -29.870098 -8.280295 -1.753817 -11.405063 -73.886421 6.785046 0.000000 0.000000 0.000000 -2.150466 18.662053 6.787991 29.434045 22.593077 1.084255 -37.361588 33.800283 -6.885199 0.000000 0.000000 0.000000 
0.250572 0.833634 0.134950 -3.821798 8.647834 8.078812 25.382552 1.951098 -32.194279 -22.455139 10.180647 53.893113 11.023631 23.068656 -6.686477 0.000000 0.000000 0.000000 -18.807325 -6.358915 -55.309825 5.403903 -1.687739 32.621628 -1.935408 -10.712881 28.424798 0.000000 0.000000 0.000000 -8.532698 -1.115388 71.034690 16.126968 -1.639537 -32.024175 11.388879 18.778273 38.247900 -6.064047 8.272225 -34.690232 0.000000 0.000000 0.000000 -22.636716 -0.236139 -8.227569 -25.991813 -9.182621 -1.672381 18.072722 -71.686191 -14.479571 0.000000 0.000000 0.000000 -0.674850 16.388381 6.142165 34.971612 20.256720 0.622984 -41.841653 41.796843 -10.185356 0.000000 0.000000 0.000000 
0.223240 0.781011 0.170681 -2.898322 11.196314 5.286833 27.240215 1.739618 -30.517012 -19.287550 8.021562 60.411781 10.189008 20.978827 -9.238663 0.000000 0.000000 0.000000 -19.286509 -7.397596 -53.496954 2.668927 -0.895822 36.827714 0.399551 -6.446687 24.393234 0.000000 0.000000 0.000000 -10.408952 -1.070994 73.741068 20.506032 -2.475760 -31.559978 8.467276 19.511614 35.239897 -6.002489 8.196259 -35.371996 0.000000 0.000000 0.000000 -23.221771 0.993969 -9.098890 -21.762207 -7.320113 -1.463498 28.674539 -67.901206 -20.872699 0.000000 0.000000 0.000000 3.277776 15.373666 7.127981 35.789865 20.037463 0.369254 -45.762057 43.994382 -12.205637 0.000000 0.000000 0.000000 
0.191519 0.729794 0.207643 -2.521384 11.430748 2.523239 29.739379 1.955213 -28.211622 -15.778640 5.759268 66.133512 9.069239 18.000372 -10.800295 0.000000 0.000000 0.000000 -19.592919 -8.127960 -55.189705 3.799429 -2.021297 48.695543 -0.577705 -5.524258 12.851804 0.000000 0.000000 0.000000 -10.256944 -1.408617 75.367475 20.150694 -2.401708 -31.806277 7.593008 19.282323 34.288212 -6.034436 7.900607 -39.149350 0.000000 0.000000 0.000000 -23.618756 -1.888720 -7.207885 -19.364407 -5.257817 -1.516297 36.584032 -59.943576 -22.673524 0.000000 0.000000 0.000000 5.285907 16.684203 8.225436 33.085583 20.114102 0.040403 -51.223560 41.632303 -13.612621 0.000000 0.000000 0.000000 
0.160495 0.701021 0.245353 -2.383688 11.648607 0.450543 30.965979 1.926018 -26.244291 -12.034719 2.647565 70.215773 8.271619 16.177742 -8.708246 0.000000 0.000000 0.000000 -18.610391 -8.392238 -58.421964 3.995806 -2.759145 60.809699 -0.804813 -4.559066 7.249200 0.000000 0.000000 0.000000 -10.096822 -1.781224 77.642536 18.617817 -2.019785 -32.509168 8.371979 18.460365 34.353093 -6.852928 7.879378 -41.978939 0.000000 0.000000 0.000000 -25.260320 -2.664123 -6.934628 -16.479219 -5.190392 -1.282944 30.522857 -60.783712 -18.886516 0.000000 0.000000 0.000000 4.022909 18.300440 8.226144 30.630643 22.215505 0.561559 -54.241867 36.887623 -12.723500 0.000000 0.000000 0.000000 
0.132200 0.696683 0.285614 -1.579510 10.840430 0.873737 33.737827 2.025308 -23.564674 -8.844593 0.470541 69.277261 2.986764 5.507116 -2.377754 0.000000 0.000000 0.000000 -17.428132 -7.387908 -58.996209 4.562144 -3.340924 65.346938 -2.402233 -5.652100 -0.577658 0.000000 0.000000 0.000000 -9.069149 -2.024102 75.570557 15.712766 -1.927913 -30.359025 8.585127 18.694101 31.605821 -7.426245 8.096333 -40.338589 0.000000 0.000000 0.000000 -24.517258 -4.649090 -5.697010 -16.454826 -3.610394 -1.313897 21.802762 -62.666805 -14.059570 0.000000 0.000000 0.000000 4.204710 18.676280 8.566641 26.575093 23.840068 0.630396 -52.488156 33.161500 -10.712704 0.000000 0.000000 0.000000 
0.107043 0.708880 0.326642 -1.000794 12.422994 2.223742 36.149798 2.152942 -25.150238 -7.443504 -0.944170 69.413297 -1.796511 0.907444 9.397685 0.000000 0.000000 0.000000 -17.028105 -7.239396 -56.433172 5.671022 -4.924196 65.461180 -4.146594 -8.133521 -7.342341 0.000000 0.000000 0.000000 -8.606969 -2.938681 73.592911 17.406047 -2.164247 -30.424630 8.215189 20.320690 30.983684 -9.669732 9.542045 -38.248277 0.000000 0.000000 0.000000 -27.412067 -4.895049 -7.241429 -12.738024 -1.689035 -1.016857 8.837986 -64.450429 -5.874609 0.000000 0.000000 0.000000 7.041210 20.062720 10.573622 20.144019 23.811294 -0.245205 -51.609028 31.118507 -10.027767 0.000000 0.000000 0.000000 
0.087416 0.727179 0.364291 -0.211645 12.192221 2.050729 36.700116 2.754530 -27.529142 -9.421653 0.908526 71.704961 -0.869619 3.946993 13.324628 0.000000 0.000000 0.000000 -16.175115 -5.906124 -52.426793 6.088248 -5.389548 64.235625 -4.950312 -9.409227 -11.699359 0.000000 0.000000 0.000000 -9.761887 -1.915314 73.843619 17.617865 -2.140806 -30.792241 9.806783 23.322737 30.147098 -7.096498 9.323956 -33.541605 0.000000 0.000000 0.000000 -28.183097 -6.023019 -8.044009 -10.136285 0.070041 -0.731888 -3.763047 -68.056409 2.340590 0.000000 0.000000 0.000000 6.973237 21.205596 11.401279 16.970796 22.307448 -0.549612 -47.191527 29.984092 -8.704209 0.000000 0.000000 0.000000 
0.075341 0.744353 0.396012 0.607233 11.983849 1.387601 36.233039 3.521065 -31.652987 -13.907521 5.103056 73.481297 1.933581 7.570676 10.292746 0.000000 0.000000 0.000000 -14.899732 -4.628885 -48.850605 4.860650 -4.543245 63.676081 -5.170130 -9.854543 -13.112211 0.000000 0.000000 0.000000 -10.662268 -1.109859 73.753523 16.758967 -1.793947 -31.989681 11.750796 23.574261 31.792007 -6.655070 9.293360 -34.505491 0.000000 0.000000 0.000000 -26.225056 -4.773088 -8.228401 -9.557744 -1.159112 -0.669899 -9.404132 -70.430995 5.846940 0.000000 0.000000 0.000000 5.179874 23.327199 11.490058 15.726253 22.503887 -0.465359 -42.970858 27.576903 -7.088874 0.000000 0.000000 0.000000 
0.070919 0.758889 0.421964 0.976766 13.003900 0.333026 34.176689 3.551361 -35.748026 -16.436395 6.673512 70.958002 3.039431 5.577009 -2.738896 0.000000 0.000000 0.000000 -14.427421 -4.130124 -44.885537 4.039637 -4.381757 62.957529 -5.283998 -10.459752 -12.861466 0.000000 0.000000 0.000000 -10.993467 -1.391528 74.780703 17.042382 -1.690563 -32.868085 12.926052 25.155249 33.207307 -6.046282 9.635936 -33.372427 0.000000 0.000000 0.000000 -25.700036 -4.935718 -8.517969 -8.990301 -3.534739 -0.536353 -17.992437 -72.278391 12.013530 0.000000 0.000000 0.000000 2.929594 25.664628 11.444832 14.998320 22.598146 -0.254268 -38.610231 23.523663 -5.081723 0.000000 0.000000 0.000000 
0.074420 0.770910 0.443214 1.088029 12.252021 0.152852 33.281972 4.041942 -39.142169 -19.479817 8.398282 61.416460 3.382711 3.510696 -9.309361 0.000000 0.000000 0.000000 -13.634960 -3.267300 -42.517523 3.114771 -3.445059 61.707229 -5.183328 -10.364652 -12.272000 0.000000 0.000000 0.000000 -12.102180 -0.188866 75.046944 16.559956 -1.636304 -32.902376 15.567427 27.332003 33.840695 -5.958710 9.822897 -33.697258 0.000000 0.000000 0.000000 -23.832346 -5.651692 -8.207211 -10.996436 -5.150287 -0.503047 -23.657232 -73.370571 15.783533 0.000000 0.000000 0.000000 -0.716125 26.271891 10.096139 18.653146 22.796002 0.483304 -36.377278 21.075270 -3.745280 0.000000 0.000000 0.000000 
0.086116 0.781330 0.461895 1.069130 11.044043 0.508926 30.906921 4.100535 -42.127663 -19.195783 7.387370 51.492357 1.566531 2.574929 -1.877092 0.000000 0.000000 0.000000 -13.366725 -2.753438 -41.485515 2.336618 -2.480695 60.995351 -4.732163 -9.578087 -9.690037 0.000000 0.000000 0.000000 -11.514748 -0.052274 74.240843 15.168656 -1.381876 -33.247196 17.130245 26.882373 35.049469 -8.146997 10.303371 -37.673937 0.000000 0.000000 0.000000 -22.288486 -5.756835 -7.447532 -16.310675 -6.653611 -0.674113 -26.515946 -72.642236 16.973338 0.000000 0.000000 0.000000 -3.503210 26.713571 8.864301 21.243987 23.439518 1.153326 -34.845583 19.731878 -3.131002 0.000000 0.000000 0.000000 
0.106655 0.783381 0.480815 0.912231 9.114212 -0.337433 27.031570 3.430993 -41.362570 -14.726787 4.735120 47.313789 -0.471502 0.378315 2.675315 0.000000 0.000000 0.000000 -12.642749 -2.003167 -40.823312 0.079834 -0.213271 62.640385 -3.932319 -8.031248 -6.448058 0.000000 0.000000 0.000000 -12.075913 1.302421 74.646241 15.774613 -1.552765 -33.101827 17.425580 27.186340 35.355926 -6.384356 9.607408 -38.672084 0.000000 0.000000 0.000000 -22.936552 -7.577524 -6.690193 -20.168177 -5.895152 -0.874111 -31.309824 -71.549611 20.033037 0.000000 0.000000 0.000000 -2.299169 27.995818 9.856079 22.009436 22.610281 0.989260 -33.945889 18.705173 -2.915568 0.000000 0.000000 0.000000 
0.134724 0.777299 0.502388 -0.117017 7.683145 -1.216833 23.180673 2.620611 -41.349901 -10.163836 2.479893 51.150100 0.877464 2.007413 0.205607 0.000000 0.000000 0.000000 -12.742007 -1.677751 -39.706912 -0.171437 0.412680 65.147871 -3.939671 -8.071392 -6.269302 0.000000 0.000000 0.000000 -11.747775 1.706224 74.434708 16.534119 -1.577007 -33.962719 17.014839 25.944819 37.208571 -4.638622 8.983933 -37.512185 0.000000 0.000000 0.000000 -25.171441 -8.119883 -6.698453 -22.518068 -6.983720 -0.937813 -35.970821 -68.915778 22.858193 0.000000 0.000000 0.000000 -0.013219 29.833310 11.404046 24.140583 20.894360 0.519042 -37.271488 18.817091 -3.345141 0.000000 0.000000 0.000000 
0.166569 0.771602 0.524635 -0.348515 6.560762 -3.079330 18.451117 1.344318 -39.670457 -6.079691 -0.028157 55.943589 3.379039 5.091917 -5.476202 0.000000 0.000000 0.000000 -13.640558 -1.747954 -38.495792 -0.767625 1.396226 68.515048 -3.766029 -8.806307 -1.965956 0.000000 0.000000 0.000000 -11.914305 2.396499 75.883935 17.552130 -1.939102 -33.204341 16.304719 25.087822 34.862945 -3.471627 8.145201 -36.798870 0.000000 0.000000 0.000000 -24.342826 -9.989372 -4.598203 -26.217922 -6.909731 -1.246437 -36.918778 -65.930513 22.252302 0.000000 0.000000 0.000000 2.465972 28.689575 12.040992 24.485696 23.362149 0.834557 -35.228875 19.590079 -3.536832 0.000000 0.000000 0.000000 
0.195686 0.779627 0.542680 -0.418314 5.988176 -3.651467 15.648470 0.577184 -38.238185 -4.996744 -0.736609 57.726501 4.084391 6.440260 -6.324137 0.000000 0.000000 0.000000 -14.916179 -2.008210 -37.208393 -0.177525 1.182995 70.096123 -3.910428 -10.028797 1.459454 0.000000 0.000000 0.000000 -11.318859 2.266698 76.588186 20.434316 -2.589122 -32.571565 13.643117 24.679143 33.779309 -3.544453 8.188955 -35.592327 0.000000 0.000000 0.000000 -26.620074 -11.260487 -4.244209 -24.845923 -8.289894 -0.854467 -32.116865 -66.359953 19.804594 0.000000 0.000000 0.000000 4.864339 30.188909 13.756661 22.831318 24.287159 0.660118 -35.324558 17.776572 -3.251692 0.000000 0.000000 0.000000 
0.217136 0.808414 0.557046 -0.432723 4.564050 -3.123433 14.816854 0.531523 -34.684452 -5.375391 0.008188 54.250113 3.257430 5.180660 -4.581544 0.000000 0.000000 0.000000 -16.602879 -2.371907 -37.992750 3.611341 -1.507946 70.282825 -5.156736 -14.129428 9.684650 0.000000 0.000000 0.000000 -8.981509 1.108721 74.141200 19.055192 -2.754969 -30.658664 11.391461 22.324287 32.424690 -2.375536 7.099980 -36.942041 0.000000 0.000000 0.000000 -23.415789 -11.253643 -2.425886 -27.658611 -10.992635 -0.819156 -31.802078 -70.002825 20.670802 0.000000 0.000000 0.000000 4.470762 28.887712 12.859856 24.313979 27.888454 1.518863 -35.115379 17.086559 -3.026228 0.000000 0.000000 0.000000 
0.225862 0.852235 0.570357 0.066561 1.973865 -1.314940 15.162142 0.897439 -31.292251 -7.056028 1.772411 47.878070 1.602191 4.881043 3.871862 0.000000 0.000000 0.000000 -18.842255 -2.725839 -40.008116 9.151744 -5.068076 67.642930 -5.311118 -15.341615 17.251946 0.000000 0.000000 0.000000 -7.404209 1.129154 69.989071 18.753666 -3.166515 -28.307434 11.069642 20.296421 31.943766 -4.199021 7.386186 -38.091988 0.000000 0.000000 0.000000 -23.855565 -10.644941 -2.083059 -28.736180 -11.961648 -0.867945 -34.634319 -71.289898 23.888255 0.000000 0.000000 0.000000 3.356541 27.898876 11.845239 25.364133 31.294432 2.458591 -32.398193 18.505820 -3.213189 0.000000 0.000000 0.000000 
0.220426 0.896426 0.583759 -1.117811 -1.073659 1.320201 16.914973 1.398991 -26.268174 -6.655255 1.945929 38.340096 -0.037440 2.900922 7.285706 0.000000 0.000000 0.000000 -18.375027 -1.966758 -42.394175 14.216151 -7.380214 60.598068 -5.110591 -15.655774 22.087018 0.000000 0.000000 0.000000 -5.518412 0.991955 66.069467 18.739857 -3.246154 -27.690779 9.675692 19.122152 32.040526 -3.519590 6.883117 -37.350359 0.000000 0.000000 0.000000 -25.558930 -9.788727 -2.306580 -26.622540 -11.174646 -1.096379 -37.683470 -72.277472 27.345267 0.000000 0.000000 0.000000 6.240666 27.622682 12.969614 23.709977 32.290012 1.957520 -29.729786 21.856655 -3.855104 0.000000 0.000000 0.000000 
0.203557 0.927732 0.597310 -1.874601 -3.014211 2.736971 18.479051 1.492464 -20.893851 -5.761544 1.548731 30.337378 -1.964550 -0.123660 8.853857 0.000000 0.000000 0.000000 -17.411406 -1.125383 -41.845489 14.695114 -6.694876 56.708839 -4.154001 -14.406850 22.173514 0.000000 0.000000 0.000000 -4.730628 1.109662 62.336971 17.949178 -3.449708 -25.612040 10.334611 17.686025 30.098823 -5.834821 7.269250 -38.443154 0.000000 0.000000 0.000000 -26.568557 -9.425903 -2.072992 -26.585060 -11.209028 -1.092459 -36.666032 -72.617571 27.313201 0.000000 0.000000 0.000000 5.970474 25.516276 11.869812 27.441915 33.079853 2.819685 -27.753234 26.248201 -4.346985 0.000000 0.000000 0.000000 
0.178950 0.939392 0.612514 -2.106356 -5.071130 3.177172 20.257054 1.593714 -16.588700 -5.407269 1.530574 27.568555 -2.494851 -1.640340 7.886607 0.000000 0.000000 0.000000 -15.912410 -0.163677 -39.771964 14.154310 -5.188547 51.081366 -8.648692 -21.250290 23.848481 0.000000 0.000000 0.000000 -4.995777 1.817002 58.696260 20.521662 -4.013527 -25.655252 7.450336 16.829064 30.448251 -3.962119 6.289086 -37.584267 0.000000 0.000000 0.000000 -26.058851 -9.392679 -1.280551 -27.180259 -11.569857 -1.309879 -27.596320 -74.845453 21.591284 0.000000 0.000000 0.000000 8.970816 23.326753 11.857207 28.521634 33.978623 2.838239 -25.076355 29.163129 -4.363460 0.000000 0.000000 0.000000 
0.147127 0.930436 0.631880 -1.781292 -8.764009 2.972286 21.415455 1.384836 -9.779437 -5.698043 1.728736 23.127824 0.134742 2.444963 6.588364 0.000000 0.000000 0.000000 -13.950538 0.981528 -37.077994 12.425651 -3.005722 47.488396 -11.574276 -25.565564 25.333001 0.000000 0.000000 0.000000 -6.275291 3.246047 53.999489 23.076211 -5.752362 -20.752047 3.449817 17.025101 25.129026 -4.767235 6.523795 -34.086015 0.000000 0.000000 0.000000 -28.142215 -9.450569 -1.214972 -25.455192 -9.024670 -1.480005 -18.967436 -75.777937 15.601454 0.000000 0.000000 0.000000 14.920345 22.971972 13.694767 27.336876 29.996784 1.399977 -26.396974 33.790471 -5.607016 0.000000 0.000000 0.000000 
0.106669 0.907010 0.655640 -0.010800 -9.637666 1.573256 19.612514 0.808207 -4.495357 -3.742663 1.007579 20.779221 1.348037 3.689638 2.878083 0.000000 0.000000 0.000000 -13.247794 1.003962 -30.969377 10.293959 -1.505896 43.983917 -11.798619 -26.313412 20.669717 0.000000 0.000000 0.000000 -5.910740 2.987842 50.880663 22.914333 -5.482104 -22.028084 0.846410 12.315922 25.544981 -7.580838 7.125090 -35.127344 0.000000 0.000000 0.000000 -32.306758 -7.517136 -0.911574 -22.972822 -8.640262 -1.828178 -9.574894 -74.089058 9.020736 0.000000 0.000000 0.000000 15.786303 22.721776 12.667541 26.333732 27.109541 0.655963 -28.578828 39.071090 -7.679027 0.000000 0.000000 0.000000 
0.055389 0.886248 0.679715 1.079698 -12.557519 -0.194084 19.053391 0.727974 0.000341 -0.637375 0.167550 20.628140 2.259436 5.147077 1.278150 0.000000 0.000000 0.000000 -12.924663 1.136046 -26.692028 12.673013 -1.922722 43.160348 -11.416197 -26.543003 10.343559 0.000000 0.000000 0.000000 -5.450191 3.048963 47.015516 19.364293 -4.794395 -21.410920 -0.805899 8.161179 25.277345 -6.683006 5.746945 -38.112076 0.000000 0.000000 0.000000 -31.410168 -4.332803 -0.608799 -26.574758 -8.912643 -2.559336 -4.651344 -71.103765 5.920318 0.000000 0.000000 0.000000 12.367075 20.579067 9.615276 30.542876 28.866247 1.764472 -32.219493 42.942838 -10.111960 0.000000 0.000000 0.000000 
-0.002394 0.897446 0.701782 1.243646 -12.108144 -0.518754 19.310869 0.770775 -0.554097 1.242755 -0.456286 21.178090 2.661022 7.847195 12.455561 0.000000 0.000000 0.000000 -8.947487 1.409582 -22.250421 12.337292 -1.778358 39.648907 -13.426167 -29.823254 9.723457 0.000000 0.000000 0.000000 -4.396280 2.171086 43.703906 15.828650 -4.181650 -19.705247 -0.391832 5.182890 23.767449 -6.080481 5.124417 -32.356023 0.000000 0.000000 0.000000 -31.766342 -1.634685 -1.261466 -28.853554 -7.420435 -3.208081 -11.968562 -69.425806 11.445730 0.000000 0.000000 0.000000 10.532847 18.060610 7.599808 33.589185 27.997276 2.109253 -35.718379 46.785171 -12.936982 0.000000 0.000000 0.000000 
-0.060729 0.937999 0.723439 1.618490 -10.732283 0.815640 17.258515 0.913853 -7.214561 1.999365 -0.719629 27.895188 1.392258 7.602500 21.384706 0.000000 0.000000 0.000000 -5.914925 1.642188 -20.882856 12.028058 -1.896418 37.140678 -13.278681 -28.507776 18.984076 0.000000 0.000000 0.000000 -5.772364 2.355701 41.814420 18.463943 -4.183824 -22.599177 -1.998603 6.760723 26.568416 -5.210940 5.036902 -30.601731 0.000000 0.000000 0.000000 -30.947392 -0.166902 -2.813973 -31.459789 -4.809279 -4.038368 -24.705872 -68.494669 20.036975 0.000000 0.000000 0.000000 9.112763 14.176176 6.088602 34.468454 27.120374 1.663343 -32.553799 51.384439 -12.345091 0.000000 0.000000 0.000000 
-0.115825 0.979544 0.743925 1.184788 -11.769107 1.479110 13.607913 0.877704 -13.637516 -2.620211 1.555222 32.953848 -4.460090 -6.157018 6.672635 0.000000 0.000000 0.000000 -5.674834 1.701919 -20.660560 14.750557 -2.809011 36.653683 -8.043209 -21.344597 27.086068 0.000000 0.000000 0.000000 -6.530615 2.830901 41.754268 16.219844 -3.962445 -20.850934 1.256155 8.580359 24.393652 -3.543044 4.304342 -26.006439 0.000000 0.000000 0.000000 -31.218195 1.048645 -4.368272 -33.638645 -1.807542 -4.681287 -40.805616 -67.135186 30.712249 0.000000 0.000000 0.000000 8.503313 13.085672 5.709070 34.463063 23.984216 0.989072 -27.817865 54.599048 -10.619786 0.000000 0.000000 0.000000 
-0.167135 1.001516 0.763247 0.239679 -11.158131 2.219803 5.500051 -0.425228 -19.524900 -6.347086 2.702040 28.516036 -10.946516 -19.632244 4.609099 0.000000 0.000000 0.000000 -8.176385 1.468507 -21.731095 19.216192 -4.797059 37.439355 -3.715255 -16.110090 32.214522 0.000000 0.000000 0.000000 -6.768004 3.057675 43.869697 17.265024 -4.899688 -17.024605 1.353699 12.322384 20.368827 -0.043308 2.815630 -23.962167 0.000000 0.000000 0.000000 -27.693725 4.515621 -7.813332 -37.348662 1.804115 -5.421177 -64.450935 -63.909288 44.693843 0.000000 0.000000 0.000000 9.138412 11.854425 5.812150 35.111542 26.406393 1.980665 -26.680859 50.591694 -8.352410 0.000000 0.000000 0.000000 
-0.216165 0.988198 0.780614 -2.548257 -11.783552 2.722271 3.634688 -0.779804 -23.007473 -7.837506 2.715219 22.693468 -14.140672 -16.136096 17.956187 0.000000 0.000000 0.000000 -11.251429 1.303405 -24.907210 20.296028 -5.406820 39.499084 -9.399765 -22.915720 28.870061 0.000000 0.000000 0.000000 -4.453566 2.326476 46.655587 15.573051 -4.599288 -16.074651 4.832900 15.587314 20.554218 -1.186395 3.970360 -24.937823 0.000000 0.000000 0.000000 -27.711687 3.716844 -8.442227 -37.232793 4.647102 -5.860934 -70.368138 -62.916114 47.558026 0.000000 0.000000 0.000000 10.050109 11.727831 6.313234 33.080866 29.088820 2.469779 -24.855288 44.056391 -6.234753 0.000000 0.000000 0.000000 
-0.264028 0.942559 0.795783 -5.672707 -14.632328 1.763452 4.311193 -0.424059 -22.605884 -7.968373 3.358677 25.400260 -5.701563 -6.854621 10.305741 0.000000 0.000000 0.000000 -12.929563 1.458213 -27.972258 18.599495 -4.123182 39.083032 -12.856629 -28.162278 20.810383 0.000000 0.000000 0.000000 -3.530336 2.954056 51.695409 18.081350 -5.210566 -17.468296 5.492930 21.855493 23.500714 1.332863 3.706099 -26.558572 0.000000 0.000000 0.000000 -28.161276 2.277299 -9.773570 -36.251885 6.896991 -5.970814 -74.425514 -61.030352 47.711250 0.000000 0.000000 0.000000 14.383036 14.731393 9.872143 26.850468 29.543554 1.033790 -29.068073 38.789191 -6.629317 0.000000 0.000000 0.000000 
-0.311265 0.878513 0.806990 -7.247581 -14.994677 0.476169 5.646648 0.054130 -26.820379 -8.606808 5.667932 39.159442 2.789874 3.704042 -8.660053 0.000000 0.000000 0.000000 -17.840801 0.734425 -30.006980 15.635479 -2.910995 36.393668 -9.162255 -23.176358 21.307060 0.000000 0.000000 0.000000 -1.721623 2.703107 58.004912 17.712780 -4.504719 -21.520704 7.415366 24.609009 27.089099 -0.674481 5.578473 -30.263090 0.000000 0.000000 0.000000 -30.903811 -1.272704 -9.918393 -32.204736 4.891567 -4.331101 -67.103869 -60.853407 41.809703 0.000000 0.000000 0.000000 12.763296 16.864999 10.977545 28.087446 30.797874 1.479103 -31.424682 33.757272 -6.038526 0.000000 0.000000 0.000000 
-0.358783 0.827532 0.815016 -5.936670 -13.446679 -1.373720 6.658360 0.458362 -32.686170 -8.545227 7.579579 53.630840 5.858613 9.429180 -15.629946 0.000000 0.000000 0.000000 -22.494621 -0.411555 -33.199083 14.734627 -3.084267 42.852538 -5.887963 -17.729886 17.419990 0.000000 0.000000 0.000000 -0.844946 2.306943 64.694905 17.413578 -3.668357 -26.234124 7.497438 22.283002 29.074741 0.122642 5.197381 -34.041421 0.000000 0.000000 0.000000 -33.117879 -2.906636 -9.133048 -30.670765 3.512543 -3.835851 -52.905907 -61.374103 32.832115 0.000000 0.000000 0.000000 13.077230 21.468772 13.005679 25.376022 32.205449 1.442826 -31.547167 30.229138 -5.812394 0.000000 0.000000 0.000000 
-0.405764 0.800018 0.821720 -4.777579 -12.292788 -2.899155 9.091258 1.267479 -34.974141 -8.270977 8.353559 62.336065 5.779868 7.849744 -17.985928 0.000000 0.000000 0.000000 -24.349235 -1.171905 -35.779201 17.037414 -4.913240 50.803218 -6.700712 -18.205950 11.389770 0.000000 0.000000 0.000000 -1.371364 2.493572 67.594329 16.908520 -4.018676 -23.783659 5.401679 23.477689 25.290326 2.534410 4.082635 -29.199783 0.000000 0.000000 0.000000 -33.095312 -5.507144 -8.267553 -29.225401 3.654526 -3.251843 -48.400576 -61.133837 29.482764 0.000000 0.000000 0.000000 16.744378 23.819208 15.984001 24.200116 30.262231 0.882880 -30.405974 28.938965 -5.543716 0.000000 0.000000 0.000000 
-0.451649 0.793797 0.826970 -4.492279 -10.942254 -2.381108 11.002800 1.929105 -37.405959 -7.757804 7.876581 66.221465 6.512273 10.690412 -14.618521 0.000000 0.000000 0.000000 -25.984539 -1.845765 -36.445821 16.483863 -5.212488 53.777091 -6.790527 -18.149141 10.420720 0.000000 0.000000 0.000000 -1.346299 1.957588 67.617871 15.664541 -3.687398 -23.613689 6.002404 23.132583 25.523179 1.414957 4.502288 -25.611859 0.000000 0.000000 0.000000 -34.317312 -7.622209 -7.047961 -26.948038 4.112174 -3.033914 -42.603429 -64.433598 27.816440 0.000000 0.000000 0.000000 18.689223 23.869455 16.823578 24.660344 28.198715 0.372952 -30.484654 29.381319 -5.730133 0.000000 0.000000 0.000000 
-0.497540 0.799874 0.830307 -3.702671 -9.276605 -0.431387 12.916392 2.472678 -38.982550 -7.687361 6.949176 65.106083 6.024886 10.211069 -11.036080 0.000000 0.000000 0.000000 -26.232867 -2.201322 -36.866566 11.752815 -2.801077 52.280911 -4.982089 -14.745547 10.527936 0.000000 0.000000 0.000000 -1.234710 1.255876 67.768924 16.035027 -2.944679 -27.980340 6.637906 21.586419 28.381178 -1.900561 6.472495 -25.983620 0.000000 0.000000 0.000000 -35.106451 -7.621348 -6.547601 -25.893998 2.920046 -2.934055 -39.045874 -65.928421 26.437743 0.000000 0.000000 0.000000 21.577662 22.377083 17.063029 22.892925 28.367766 -0.238469 -26.903210 30.493744 -5.333508 0.000000 0.000000 0.000000 
-0.543192 0.806344 0.832301 -2.170908 -7.397912 0.080230 15.789005 2.972189 -36.899182 -10.034407 7.420849 59.676018 5.349634 8.896449 -9.554224 0.000000 0.000000 0.000000 -25.731729 -2.448540 -36.852539 8.142394 -1.055937 50.622105 -4.059720 -13.785758 15.432687 0.000000 0.000000 0.000000 -1.287134 0.619276 66.903328 15.034552 -2.289442 -30.038814 7.120028 19.348200 29.963016 -2.153851 6.347569 -28.372093 0.000000 0.000000 0.000000 -34.190288 -6.379408 -6.124521 -24.998228 1.079189 -2.818169 -39.418728 -68.186267 27.914072 0.000000 0.000000 0.000000 20.725354 20.013926 14.914233 25.518381 27.570951 -0.118061 -25.421995 31.327645 -4.984150 0.000000 0.000000 0.000000 
-0.587917 0.811375 0.833161 -0.827036 -4.498619 -0.065735 17.199900 2.759640 -35.325447 -10.549746 6.470817 56.776636 4.523624 6.947924 -8.947491 0.000000 0.000000 0.000000 -24.183032 -2.532408 -35.341704 5.311166 0.028006 49.896699 -4.380565 -14.504773 18.262282 0.000000 0.000000 0.000000 -0.551234 -0.952177 65.246842 14.822222 -2.353001 -28.900071 5.374230 18.529655 28.705733 -2.108081 6.012839 -23.151786 0.000000 0.000000 0.000000 -31.969587 -6.867244 -5.045560 -25.124353 -0.077664 -2.701828 -38.011563 -72.177907 28.654201 0.000000 0.000000 0.000000 20.510901 19.491110 14.450757 26.532030 25.254428 -0.364660 -24.934656 28.090782 -4.260636 0.000000 0.000000 0.000000 
-0.631934 0.814150 0.833290 0.661106 -2.226087 -0.843226 17.263560 2.272914 -33.916577 -9.320271 4.659263 54.092881 3.976156 6.642062 -5.664428 0.000000 0.000000 0.000000 -23.846910 -2.772640 -33.616454 4.196870 0.275228 51.091598 -2.752898 -11.392564 16.880074 0.000000 0.000000 0.000000 0.219191 -2.224658 64.716913 13.235882 -1.929648 -29.382252 5.763444 16.567797 28.610534 -3.158385 6.287333 -19.616448 0.000000 0.000000 0.000000 -33.611567 -7.660244 -4.166776 -22.497927 -0.626910 -2.402845 -37.013572 -73.074504 28.757018 0.000000 0.000000 0.000000 19.472275 19.289282 13.556022 25.742679 22.490698 -0.841959 -22.383014 24.723530 -3.269331 0.000000 0.000000 0.000000 
-0.675076 0.815182 0.832597 2.143143 0.485387 -1.010622 17.689298 1.867216 -32.699643 -7.804619 2.734579 50.635805 1.958234 2.658673 -3.685307 0.000000 0.000000 0.000000 -23.760398 -3.195119 -32.693628 5.239063 -0.985369 52.693526 -4.131285 -12.795608 12.415935 0.000000 0.000000 0.000000 1.302363 -3.758021 63.419590 13.017246 -1.772560 -29.633037 4.172601 14.888149 28.473242 -3.422974 6.277448 -19.410554 0.000000 0.000000 0.000000 -34.013531 -8.062587 -3.504953 -20.840327 -1.675300 -2.136648 -32.601658 -74.871405 26.319872 0.000000 0.000000 0.000000 18.653901 19.891856 13.365878 25.112614 19.558128 -1.285595 -21.444207 21.340297 -2.633269 0.000000 0.000000 0.000000 
-0.715877 0.818190 0.831005 2.969058 1.409733 -2.067420 18.238626 1.744310 -30.151467 -6.193998 1.438224 47.236717 1.236619 2.323704 -0.717030 0.000000 0.000000 0.000000 -22.594557 -2.985204 -31.756410 6.072984 -1.730963 54.230673 -4.677953 -13.117381 8.234847 0.000000 0.000000 0.000000 2.216097 -4.527893 62.719456 11.919593 -1.540724 -29.767738 3.631132 12.841154 28.885781 -4.289736 6.621029 -19.453269 0.000000 0.000000 0.000000 -34.490341 -8.588991 -2.324991 -20.315213 -2.014726 -2.200403 -21.361237 -73.235237 17.223073 0.000000 0.000000 0.000000 17.748903 20.711743 13.036191 24.855783 17.701999 -1.514631 -19.356901 17.720917 -1.872569 0.000000 0.000000 0.000000 
-0.753618 0.824541 0.828804 3.852721 1.816244 -2.191288 19.247106 1.752246 -27.408439 -5.184825 0.768013 41.733248 -0.102860 0.734304 2.013694 0.000000 0.000000 0.000000 -20.886965 -2.579590 -31.631202 6.945200 -2.441500 55.332438 -6.144821 -15.596030 4.142516 0.000000 0.000000 0.000000 2.758900 -4.812252 61.332932 10.566166 -1.336431 -29.098573 3.208189 10.972344 28.430601 -4.082003 6.100111 -16.977978 0.000000 0.000000 0.000000 -34.651448 -9.227610 -1.057424 -20.352461 -1.839505 -2.350765 -17.773842 -70.152553 13.929947 0.000000 0.000000 0.000000 18.150232 20.769101 12.803204 24.251497 15.976961 -1.743952 -18.218632 16.141071 -1.561180 0.000000 0.000000 0.000000 
-0.787725 0.835344 0.826675 4.337456 2.452017 -2.132796 19.552978 1.588781 -25.367612 -3.940367 0.096387 37.104620 -0.930677 0.572184 5.212402 0.000000 0.000000 0.000000 -19.418441 -2.225110 -30.961409 8.017536 -3.312670 54.567763 -6.858401 -16.997850 2.698620 0.000000 0.000000 0.000000 3.361917 -5.096230 58.892073 9.622387 -1.286964 -27.693245 2.009093 9.266898 28.061860 -3.724164 5.517729 -16.179029 0.000000 0.000000 0.000000 -33.164685 -8.874089 -0.411229 -22.523602 -2.586259 -2.651836 -13.396404 -65.760115 10.088047 0.000000 0.000000 0.000000 17.685919 20.225453 12.073434 25.559986 14.764900 -1.908486 -17.438136 17.266511 -1.605594 0.000000 0.000000 0.000000 
-0.818268 0.850151 0.825142 4.784993 2.463789 -2.112038 19.461136 1.411548 -23.108024 -3.761830 0.093648 32.421568 -0.974875 1.967776 8.658236 0.000000 0.000000 0.000000 -17.538314 -1.552539 -28.557201 8.095741 -3.179011 51.081765 -6.900682 -16.881888 -0.505728 0.000000 0.000000 0.000000 3.279346 -4.751075 56.337924 8.526109 -1.155068 -26.641891 1.789206 7.626149 28.213659 -3.874118 5.255280 -13.487001 0.000000 0.000000 0.000000 -33.096969 -9.046293 0.454264 -23.673692 -2.777486 -2.913543 -9.868480 -60.450060 7.249440 0.000000 0.000000 0.000000 16.792755 19.171428 10.959367 27.035199 13.870900 -2.059138 -16.339579 18.927966 -1.647845 0.000000 0.000000 0.000000 
-0.844817 0.866575 0.823982 4.895300 2.844305 -1.739817 19.398529 1.236686 -21.581487 -3.993951 0.190142 29.382909 -1.669543 1.527190 10.464709 0.000000 0.000000 0.000000 -15.775032 -1.036479 -26.281353 8.207970 -3.096590 46.353353 -6.978660 -17.075235 -0.623788 0.000000 0.000000 0.000000 2.936249 -4.445678 54.084927 7.990108 -1.102018 -25.826275 1.370133 6.349158 28.132827 -4.516395 5.580560 -15.842543 0.000000 0.000000 0.000000 -32.496348 -8.330146 0.498708 -25.944385 -3.196803 -3.229141 -5.938875 -56.099533 4.729045 0.000000 0.000000 0.000000 15.391164 17.868008 9.750282 30.111030 13.220766 -2.189425 -15.362610 20.548996 -1.630493 0.000000 0.000000 0.000000 
-0.866792 0.883809 0.823176 4.875813 3.270854 -1.463147 18.864222 1.011986 -20.320790 -4.389224 0.324630 26.940903 -2.247597 1.743715 13.271589 0.000000 0.000000 0.000000 -13.878865 -0.540652 -23.387571 8.471515 -3.005796 40.639357 -7.807881 -19.081460 -0.024460 0.000000 0.000000 0.000000 2.689760 -4.160986 51.393616 7.428627 -0.999232 -25.370026 0.977846 5.214362 28.018251 -4.708248 5.519890 -15.962414 0.000000 0.000000 0.000000 -32.227660 -7.676395 0.456344 -27.417815 -2.647034 -3.585590 -5.829606 -51.613990 4.385858 0.000000 0.000000 0.000000 14.279391 16.516027 8.673461 33.422427 11.954361 -2.487352 -13.845707 22.246956 -1.502679 0.000000 0.000000 0.000000 
-0.883427 0.902588 0.822261 4.560617 4.112498 -1.117934 17.640354 0.669182 -19.051931 -4.465740 0.302472 24.933940 -2.242191 2.206110 14.143592 0.000000 0.000000 0.000000 -12.767364 -0.298243 -20.401356 8.707165 -2.905708 34.814359 -7.129339 -17.592064 2.103629 0.000000 0.000000 0.000000 2.383590 -3.940266 48.575498 7.386151 -0.990318 -25.148295 0.715403 4.823429 28.102865 -5.132572 5.807581 -15.029694 0.000000 0.000000 0.000000 -31.867802 -6.679958 -0.205373 -28.938547 -2.707494 -3.787255 -7.444542 -48.327178 4.845219 0.000000 0.000000 0.000000 14.000564 15.399286 8.099063 36.170808 10.500435 -2.964906 -13.275268 22.697532 -1.391162 0.000000 0.000000 0.000000 
-0.894701 0.920504 0.821639 4.184210 4.530548 -1.106064 16.223846 0.384441 -17.527485 -4.948205 0.437300 23.553387 -1.804826 3.326849 15.094086 0.000000 0.000000 0.000000 -11.419755 -0.042038 -17.515442 8.024520 -2.350474 29.601431 -6.216691 -15.743799 5.063326 0.000000 0.000000 0.000000 1.806900 -3.552082 46.321355 6.771590 -0.855509 -24.945977 1.241599 4.859545 27.936738 -5.154758 5.802638 -13.123145 0.000000 0.000000 0.000000 -31.064882 -6.138008 -0.636919 -30.795899 -2.006189 -4.139696 -9.699360 -45.869139 5.535064 0.000000 0.000000 0.000000 12.684076 13.662481 7.061808 39.230283 8.941082 -3.470641 -11.415146 23.898558 -1.080191 0.000000 0.000000 0.000000 
-0.900494 0.936041 0.821306 3.718155 5.415169 -0.806882 14.837169 0.123256 -16.623995 -5.511131 0.549190 22.757412 -2.487447 3.012663 16.726981 0.000000 0.000000 0.000000 -10.443950 0.079715 -15.381331 8.105776 -2.232967 25.414705 -6.236286 -15.912431 8.240128 0.000000 0.000000 0.000000 2.060243 -3.502928 43.080145 6.325806 -0.787768 -24.074701 0.878958 5.323766 27.012968 -4.873812 5.599354 -10.827696 0.000000 0.000000 0.000000 -30.008790 -5.331044 -1.496317 -33.074161 -1.176718 -4.502427 -12.432242 -44.421354 6.404639 0.000000 0.000000 0.000000 12.892378 12.045992 6.481931 42.045999 7.230957 -4.086914 -10.725326 23.812592 -0.874697 0.000000 0.000000 0.000000 
-0.901398 0.946328 0.821671 3.108999 5.948172 -0.792492 13.184934 -0.105514 -14.773441 -5.126110 0.405909 21.611295 -3.543834 2.355490 18.860040 0.000000 0.000000 0.000000 -9.311638 0.204487 -13.203064 7.233083 -1.763262 21.561644 -5.836036 -15.208246 10.621630 0.000000 0.000000 0.000000 1.671641 -3.181823 40.509239 6.289985 -0.771169 -24.021348 0.983218 6.398426 26.373283 -3.851498 4.849142 -9.001473 0.000000 0.000000 0.000000 -30.237238 -5.346020 -2.167927 -34.606219 0.168608 -4.834390 -13.250033 -42.939586 6.398182 0.000000 0.000000 0.000000 13.256504 10.934189 6.231720 43.834645 5.696742 -4.656645 -8.898847 23.519029 -0.500004 0.000000 0.000000 0.000000 
-0.898086 0.951035 0.822558 2.177074 6.674812 -0.806863 12.324096 -0.223059 -13.117337 -4.933763 0.317193 20.587556 -3.185059 2.919786 18.610178 0.000000 0.000000 0.000000 -8.286940 0.278757 -11.531580 7.067422 -1.596354 18.280878 -6.430490 -16.313892 13.018883 0.000000 0.000000 0.000000 1.767488 -3.027395 37.556601 6.083036 -0.747907 -23.371511 0.834197 6.903217 25.771592 -2.979754 4.115815 -7.584938 0.000000 0.000000 0.000000 -29.487414 -4.471500 -3.056137 -36.050304 0.658780 -5.057026 -15.549967 -42.348960 7.097037 0.000000 0.000000 0.000000 13.431534 9.851625 5.903819 46.236574 4.562717 -5.188630 -8.334939 23.540487 -0.332910 0.000000 0.000000 0.000000 
-0.890892 0.952200 0.824135 1.182256 6.990887 -1.228737 11.451250 -0.280353 -9.957060 -4.159449 0.160785 17.558204 -1.938962 4.007013 16.339583 0.000000 0.000000 0.000000 -7.362467 0.319315 -9.675250 5.893201 -1.193589 16.343610 -5.336346 -14.283168 12.931464 0.000000 0.000000 0.000000 0.965072 -2.584676 35.353790 7.070117 -1.012626 -23.265553 0.610192 7.868909 25.369138 -1.691378 3.118114 -6.969403 0.000000 0.000000 0.000000 -29.261038 -3.935831 -3.897172 -37.081601 1.506439 -5.286381 -16.027968 -40.024446 6.739482 0.000000 0.000000 0.000000 14.188212 9.064463 5.836873 47.075376 3.772166 -5.522218 -6.763322 23.307498 -0.042592 0.000000 0.000000 0.000000 
-0.879717 0.951715 0.826206 -0.050295 7.367893 -2.000429 10.892705 -0.292481 -7.017165 -3.581694 0.087148 14.556759 0.114610 6.320645 13.785705 0.000000 0.000000 0.000000 -6.236076 0.364306 -8.583403 5.104839 -0.982218 15.804118 -5.638920 -14.838823 14.170900 0.000000 0.000000 0.000000 0.517346 -2.292450 33.174506 7.164137 -1.044523 -23.184602 1.299525 7.989688 25.922882 -1.568645 3.088201 -6.908076 0.000000 0.000000 0.000000 -29.104882 -3.711291 -4.161977 -37.725618 0.689334 -5.172184 -16.194619 -38.191516 6.445580 0.000000 0.000000 0.000000 14.936904 8.516133 5.793560 48.123631 3.682364 -5.780845 -7.352434 22.518167 -0.097305 0.000000 0.000000 0.000000 
-0.864366 0.951098 0.827512 -1.022843 7.929746 -2.674274 10.379853 -0.297088 -4.091856 -2.687747 0.014394 10.451971 0.556240 6.701027 12.612147 0.000000 0.000000 0.000000 -5.953843 0.334128 -7.672652 4.146176 -0.734487 15.184793 -5.178175 -14.058132 16.474529 0.000000 0.000000 0.000000 -0.226881 -1.986161 31.425927 8.274539 -1.389575 -22.679265 1.025825 8.287125 25.429806 -0.552854 2.314882 -7.029577 0.000000 0.000000 0.000000 -28.664425 -3.718123 -4.383155 -38.837473 0.211351 -5.088194 -15.671840 -36.133735 5.840481 0.000000 0.000000 0.000000 15.549881 8.025348 5.775184 49.155886 3.820948 -5.802261 -7.846880 21.434662 -0.136681 0.000000 0.000000 0.000000 
-0.846402 0.952701 0.826656 -1.509656 8.101077 -3.598686 9.482416 -0.265754 -1.482791 -2.660308 0.086156 7.783747 1.277154 7.489478 11.503373 0.000000 0.000000 0.000000 -6.468514 0.245826 -6.756510 3.750355 -0.645779 15.550912 -4.617761 -13.167435 17.660227 0.000000 0.000000 0.000000 -1.273966 -1.652707 30.620464 9.178893 -1.534425 -23.851373 1.099764 8.475694 26.600095 0.188060 1.856664 -7.528224 0.000000 0.000000 0.000000 -28.559254 -3.950017 -4.304564 -39.625819 -1.386040 -4.799415 -15.028878 -34.845602 5.422195 0.000000 0.000000 0.000000 17.061777 7.955435 6.139194 48.510380 3.827047 -6.054326 -8.364300 20.823493 -0.193021 0.000000 0.000000 0.000000 
-0.828607 0.955086 0.823447 -1.562210 7.759517 -3.994291 8.359303 -0.213489 -0.409156 -2.422397 0.095004 6.274409 1.063567 7.401111 12.334656 0.000000 0.000000 0.000000 -6.777576 0.241925 -7.284422 2.866943 -0.423022 17.393740 -4.705705 -13.408946 18.208071 0.000000 0.000000 0.000000 -2.061032 -1.300990 28.985575 9.308272 -1.708879 -22.668037 0.912300 7.715064 26.031095 0.010888 1.945673 -7.997319 0.000000 0.000000 0.000000 -27.426000 -3.591273 -3.951844 -41.154151 -2.985331 -4.616252 -14.718541 -33.488149 5.162547 0.000000 0.000000 0.000000 16.534143 8.122379 5.921169 50.294753 3.829046 -6.035732 -9.680228 20.550589 -0.355431 0.000000 0.000000 0.000000 
-0.813625 0.958163 0.819360 -1.563131 6.581589 -4.300091 7.575441 -0.145550 0.564049 -2.312533 0.122153 5.050378 0.581458 6.920782 13.545584 0.000000 0.000000 0.000000 -7.670729 0.237676 -8.919794 3.067349 -0.474448 20.732450 -4.080429 -12.587101 18.320746 0.000000 0.000000 0.000000 -3.203195 -0.948013 29.391242 10.056039 -1.867262 -23.469407 0.806175 7.371507 26.463865 -0.542889 2.490116 -9.494609 0.000000 0.000000 0.000000 -26.626693 -3.813810 -3.233434 -42.194416 -4.307880 -4.528078 -13.624286 -33.819664 4.982084 0.000000 0.000000 0.000000 16.906907 8.131842 5.793046 50.027767 5.227527 -5.541028 -10.379545 20.365093 -0.450510 0.000000 0.000000 0.000000 
-0.803495 0.960395 0.816601 -1.811651 5.673100 -4.247436 7.422268 -0.116961 0.940749 -2.388146 0.152559 4.516850 0.195313 6.260528 13.687072 0.000000 0.000000 0.000000 -8.231537 0.241780 -10.279595 3.121745 -0.457063 22.370382 -3.173271 -11.302330 18.833354 0.000000 0.000000 0.000000 -3.661467 -0.727734 28.536993 9.857207 -1.806510 -23.757176 0.793016 5.944349 26.540625 -1.636288 3.241146 -10.790461 0.000000 0.000000 0.000000 -25.938317 -3.728377 -2.434360 -41.652003 -5.361614 -4.402229 -12.921951 -33.176409 4.822524 0.000000 0.000000 0.000000 16.977020 8.672443 5.690128 50.730482 5.389584 -5.498489 -10.295831 21.029829 -0.492905 0.000000 0.000000 0.000000 
-0.798451 0.961721 0.815697 -1.999295 3.798352 -4.350972 7.575728 -0.057138 2.133990 -2.209556 0.181728 2.578300 -0.337812 5.904377 15.845510 0.000000 0.000000 0.000000 -7.706886 0.351190 -10.610864 2.822157 -0.228156 23.156357 -3.244430 -11.469223 17.144198 0.000000 0.000000 0.000000 -4.343661 -0.402348 27.782729 10.625256 -2.062185 -23.682945 0.288306 5.538280 25.959045 -2.086702 3.350579 -9.873972 0.000000 0.000000 0.000000 -25.605033 -3.487045 -2.034771 -40.320375 -5.556694 -4.299209 -12.621005 -32.808612 4.752151 0.000000 0.000000 0.000000 17.375381 9.191498 5.687442 51.065350 6.347219 -5.058331 -10.012344 22.094951 -0.516039 0.000000 0.000000 0.000000 
-0.797892 0.961842 0.816648 -2.186635 3.477635 -3.904632 8.053728 -0.074771 2.143108 -2.786308 0.252268 2.800373 -0.249065 5.363433 13.915114 0.000000 0.000000 0.000000 -7.293727 0.413548 -10.864217 2.971137 -0.253241 22.351961 -3.669514 -12.103001 16.278849 0.000000 0.000000 0.000000 -3.736233 -0.486657 26.518195 9.462469 -1.618300 -24.933130 0.084399 3.346463 26.974116 -1.868174 2.974696 -11.327933 0.000000 0.000000 0.000000 -26.179051 -3.220683 -1.393242 -39.314879 -6.180533 -4.359402 -10.763879 -32.749453 4.374076 0.000000 0.000000 0.000000 18.626768 9.266204 5.405943 51.136133 6.759609 -5.041388 -9.269970 23.066752 -0.464893 0.000000 0.000000 0.000000 
-0.801459 0.960866 0.819000 -2.082569 1.824759 -3.651671 8.331658 -0.050322 1.882591 -2.291566 0.199497 2.883250 -0.921717 4.759056 15.929230 0.000000 0.000000 0.000000 -6.907898 0.432897 -9.252015 2.571597 -0.037017 19.334081 -2.920005 -10.866512 15.150196 0.000000 0.000000 0.000000 -4.379467 -0.189260 23.680694 9.768784 -2.110119 -21.454653 0.604904 3.212575 24.435589 -2.545288 3.154497 -8.081148 0.000000 0.000000 0.000000 -24.919094 -2.757377 -1.262674 -40.197215 -6.064237 -4.377729 -11.224858 -31.503483 4.361438 0.000000 0.000000 0.000000 17.855615 9.908825 5.279282 51.849475 6.975612 -4.576342 -9.585350 23.812341 -0.610336 0.000000 0.000000 0.000000 
-0.809608 0.959354 0.822883 -1.696967 1.892246 -3.380531 8.480999 -0.066887 1.414779 -1.877476 0.135810 3.323628 -1.731560 3.771955 16.627308 0.000000 0.000000 0.000000 -6.901335 0.356744 -7.168585 2.020874 0.051279 14.958713 -2.452251 -10.092534 15.430355 0.000000 0.000000 0.000000 -3.926385 -0.255937 22.351738 8.304119 -1.718434 -21.188840 0.271012 1.984358 24.591970 -1.163192 1.929983 -8.971042 0.000000 0.000000 0.000000 -23.613645 -2.135268 -1.109069 -40.890410 -7.234551 -4.227706 -9.608956 -30.894727 3.912342 0.000000 0.000000 0.000000 18.690685 8.964918 4.612436 51.163329 7.850919 -4.237312 -6.169183 22.423728 -0.035506 0.000000 0.000000 0.000000 
