HIERARCHY
ROOT Hips
{
	OFFSET -0.001795 -0.223333 0.028219
	CHANNELS 6 Xposition Yposition Zposition Zrotation Yrotation Xrotation 
	JOINT LeftUpLeg
	{
		OFFSET 0.069520 -0.091406 -0.006815
		CHANNELS 3 Zrotation Yrotation Xrotation
		JOINT LeftLeg
		{
			OFFSET 0.034277 -0.375199 -0.004496
			CHANNELS 3 Zrotation Yrotation Xrotation
			JOINT LeftFoot
			{
				OFFSET -0.013596 -0.397961 -0.043693
				CHANNELS 3 Zrotation Yrotation Xrotation
				JOINT LeftToe
				{
					OFFSET 0.026358 -0.055791 0.119288
					CHANNELS 3 Zrotation Yrotation Xrotation
					End Site
					{
						OFFSET 0.000000 0.000000 0.000000
					}
				}
			}
		}
	}
	JOINT RightUpLeg
	{
		OFFSET -0.067670 -0.090522 -0.004320
		CHANNELS 3 Zrotation Yrotation Xrotation
		JOINT RightLeg
		{
			OFFSET -0.038290 -0.382569 -0.008850
			CHANNELS 3 Zrotation Yrotation Xrotation
			JOINT RightFoot
			{
				OFFSET 0.015774 -0.398415 -0.042312
				CHANNELS 3 Zrotation Yrotation Xrotation
				JOINT RightToe
				{
					OFFSET -0.025372 -0.048144 0.123348
					CHANNELS 3 Zrotation Yrotation Xrotation
					End Site
					{
						OFFSET 0.000000 0.000000 0.000000
					}
				}
			}
		}
	}
	JOINT Spine
	{
		OFFSET -0.002533 0.108963 -0.026696
		CHANNELS 3 Zrotation Yrotation Xrotation
		JOINT Spine1
		{
			OFFSET 0.005487 0.135180 0.001092
			CHANNELS 3 Zrotation Yrotation Xrotation
			JOINT Spine2
			{
				OFFSET 0.001457 0.052922 0.025425
				CHANNELS 3 Zrotation Yrotation Xrotation
				JOINT Neck
				{
					OFFSET -0.002778 0.213870 -0.042857
					CHANNELS 3 Zrotation Yrotation Xrotation
					JOINT Head
					{
						OFFSET 0.005152 0.064970 0.051349
						CHANNELS 3 Zrotation Yrotation Xrotation
						End Site
						{
							OFFSET 0.000000 0.000000 0.000000
						}
					}
				}
				JOINT LeftShoulder
				{
					OFFSET 0.078845 0.121749 -0.034090
					CHANNELS 3 Zrotation Yrotation Xrotation
					JOINT LeftArm
					{
						OFFSET 0.090977 0.030469 -0.008868
						CHANNELS 3 Zrotation Yrotation Xrotation
						JOINT LeftForeArm
						{
							OFFSET 0.259612 -0.012772 -0.027456
							CHANNELS 3 Zrotation Yrotation Xrotation
							JOINT LeftHand
							{
								OFFSET 0.249234 0.008986 -0.001171
								CHANNELS 3 Zrotation Yrotation Xrotation
								End Site
								{
									OFFSET 0.000000 0.000000 0.000000
								}
							}
						}
					}
				}
				JOINT RightShoulder
				{
					OFFSET -0.081759 0.118833 -0.038615
					CHANNELS 3 Zrotation Yrotation Xrotation
					JOINT RightArm
					{
						OFFSET -0.096012 0.032551 -0.009143
						CHANNELS 3 Zrotation Yrotation Xrotation
						JOINT RightForeArm
						{
							OFFSET -0.253742 -0.013329 -0.021401
							CHANNELS 3 Zrotation Yrotation Xrotation
							JOINT RightHand
							{
								OFFSET -0.255298 0.007772 -0.005559
								CHANNELS 3 Zrotation Yrotation Xrotation
								End Site
								{
									OFFSET 0.000000 0.000000 0.000000
								}
							}
						}
					}
				}
			}
		}
	}
}
MOTION
Frames: 100
Frame Time: 0.050000
0.000000 0.936709 0.000000 1.067412 -7.897274 -4.553151 -1.312455 -0.993687 -9.831250 -0.915216 -0.028379 12.926595 1.768420 5.936814 8.845479 0.000000 0.000000 0.000000 -2.497628 0.437443 -4.793336 -0.676849 4.314177 45.962887 2.891132 1.912713 8.011708 0.000000 0.000000 0.000000 2.234532 -0.348530 6.421591 -0.486137 0.211500 -2.906084 -0.944322 2.097146 6.716408 4.413262 -1.827950 -15.881615 0.000000 0.000000 0.000000 -21.354307 -19.867894 9.983504 -40.946869 -30.802334 4.985196 3.904428 -29.264520 0.214783 0.000000 0.000000 0.000000 23.377845 11.713911 4.021982 48.193100 18.924222 2.701990 -4.693882 37.301341 -0.378922 0.000000 0.000000 0.000000 
0.008269 0.939607 0.029151 0.116382 -7.603439 -4.603654 -0.934923 -0.784291 -7.913641 -1.240786 0.038189 13.143183 1.725603 5.611992 7.503767 0.000000 0.000000 0.000000 -3.085407 0.906869 -10.793660 2.325040 3.539724 55.083628 3.594157 0.395505 13.886502 0.000000 0.000000 0.000000 2.121482 -0.356210 6.671413 0.220147 -0.107615 -2.590718 -1.702535 0.662189 6.943200 4.936227 -1.977895 -18.498769 0.000000 0.000000 0.000000 -20.436925 -20.014642 10.261297 -38.981864 -34.236865 5.716847 6.143558 -27.973135 -0.301946 0.000000 0.000000 0.000000 21.791214 10.197927 2.827793 50.595272 18.143583 2.606634 -2.405804 37.534232 0.247305 0.000000 0.000000 0.000000 
0.013992 0.942826 0.056568 -0.426992 -7.434733 -5.237505 -1.783166 -0.493661 -4.393227 0.157416 -0.288193 11.443399 1.717644 5.416698 6.623185 0.000000 0.000000 0.000000 -2.527502 1.415501 -15.837890 3.274803 3.110027 57.917824 2.375785 -0.779754 11.617404 0.000000 0.000000 0.000000 2.448713 -0.452344 8.305318 0.820527 -0.364247 -3.883090 -2.862718 1.059454 7.444603 4.298514 -1.669025 -17.284454 0.000000 0.000000 0.000000 -18.712266 -21.741800 10.711980 -37.274694 -38.172310 6.722882 8.031641 -24.806876 -0.725768 0.000000 0.000000 0.000000 19.380355 10.505337 3.281808 51.206891 17.853345 2.371924 -2.322692 38.084578 0.365106 0.000000 0.000000 0.000000 
0.017150 0.946198 0.083598 -1.313649 -7.226905 -5.311449 -1.273277 -0.157140 -1.387411 0.282314 -0.289293 9.566402 1.527774 4.983529 6.152593 0.000000 0.000000 0.000000 -1.411220 1.943654 -19.443996 2.596810 3.015038 53.891277 1.817838 -0.056225 7.784679 0.000000 0.000000 0.000000 2.554230 -0.475596 8.561959 0.969685 -0.453435 -2.360388 -2.857250 -0.520129 6.381941 3.393308 -1.110335 -18.644320 0.000000 0.000000 0.000000 -17.771661 -21.663227 10.810941 -35.817210 -41.353314 7.464743 11.982542 -22.753763 -1.406944 0.000000 0.000000 0.000000 19.030193 10.376207 2.823256 50.220845 17.667884 2.412037 -3.648990 37.323783 -0.237426 0.000000 0.000000 0.000000 
0.018161 0.948279 0.111417 -1.969822 -6.854515 -5.135757 -1.165001 0.101103 1.018948 0.951624 -0.400287 8.279054 1.353565 4.572291 5.695134 0.000000 0.000000 0.000000 -0.416025 2.421075 -22.140304 0.787242 3.107475 45.733795 2.421689 1.328425 7.541054 0.000000 0.000000 0.000000 1.922137 -0.494898 9.707243 1.504077 -0.661242 -3.858340 -3.283426 -0.936785 7.138763 4.363543 -1.738726 -18.513055 0.000000 0.000000 0.000000 -16.612201 -22.845154 11.289176 -33.175507 -44.876973 7.753852 14.092352 -20.143144 -1.601575 0.000000 0.000000 0.000000 18.727824 9.864547 2.544386 49.332074 17.279959 2.118498 -3.215001 37.568204 -0.104342 0.000000 0.000000 0.000000 
0.017147 0.948420 0.140878 -2.287638 -5.951375 -4.960470 -0.739045 0.290535 2.837551 0.779375 -0.370565 8.063356 0.979539 3.721597 4.983226 0.000000 0.000000 0.000000 0.513154 2.696756 -23.224458 -1.015011 2.728233 35.190757 2.976738 1.856680 8.700640 0.000000 0.000000 0.000000 1.117706 -0.482311 10.697034 1.789834 -0.780265 -3.700648 -2.845086 -2.090685 6.306227 3.631697 -1.209937 -20.095462 0.000000 0.000000 0.000000 -15.835340 -22.732075 11.220024 -33.377851 -48.457924 9.082594 16.953895 -16.464213 -1.668603 0.000000 0.000000 0.000000 17.148279 10.249563 2.614572 49.880309 16.644938 1.974511 -4.081609 37.990236 -0.493646 0.000000 0.000000 0.000000 
0.013959 0.947243 0.172560 -2.614399 -5.249256 -4.041183 -0.714266 0.444282 4.317808 1.583455 -0.502124 7.309375 0.823140 3.211558 4.191360 0.000000 0.000000 0.000000 0.918118 2.590299 -22.092994 -1.788395 1.707130 21.740631 4.882995 4.061950 11.677316 0.000000 0.000000 0.000000 0.527538 -0.431951 10.444902 1.534416 -0.649540 -3.787551 -2.650769 -2.974683 5.917134 3.807347 -1.294762 -20.803918 0.000000 0.000000 0.000000 -14.957800 -23.025615 11.335734 -32.646537 -50.741044 9.621288 17.710582 -14.032851 -1.478183 0.000000 0.000000 0.000000 16.469126 10.299568 2.535304 50.549237 16.246463 1.893981 -4.540658 37.367783 -0.694985 0.000000 0.000000 0.000000 
0.007894 0.944243 0.206574 -2.995652 -3.991569 -2.853553 -0.008735 0.560770 5.819956 1.898155 -0.516350 6.193749 0.450567 2.163520 3.125581 0.000000 0.000000 0.000000 1.298879 2.497602 -21.229117 -0.683000 0.675894 11.646382 6.728100 4.709040 16.962885 0.000000 0.000000 0.000000 0.026463 -0.386707 9.999052 1.453148 -0.609824 -3.255878 -3.123120 -4.086183 4.839840 3.796609 -1.359613 -19.978836 0.000000 0.000000 0.000000 -13.127360 -23.282935 11.138781 -33.506832 -53.025809 10.940120 17.672831 -11.487902 -1.175534 0.000000 0.000000 0.000000 16.846847 9.986481 2.257393 51.030632 15.952752 1.935419 -5.325851 36.737734 -0.976436 0.000000 0.000000 0.000000 
-0.001269 0.940416 0.242324 -3.378043 -3.149764 -1.987420 1.265464 0.624899 7.440515 1.598298 -0.447194 5.741813 0.199430 1.404670 2.384954 0.000000 0.000000 0.000000 2.489130 2.504918 -20.037575 -0.545528 0.420781 7.593621 7.457132 4.375883 20.232588 0.000000 0.000000 0.000000 -0.172760 -0.361460 9.550366 1.625380 -0.653962 -3.834446 -4.212922 -4.056803 4.888538 5.447735 -2.144294 -20.497714 0.000000 0.000000 0.000000 -13.764571 -24.542915 11.789637 -32.495633 -53.523607 10.618734 16.427151 -10.534078 -0.981230 0.000000 0.000000 0.000000 18.444918 9.823501 2.259288 50.486586 16.022489 1.956088 -5.965308 35.636524 -1.043586 0.000000 0.000000 0.000000 
-0.012941 0.936344 0.279063 -3.617461 -2.267372 -1.379109 2.451614 0.572228 8.042433 1.540435 -0.521911 7.560622 -0.057780 0.857520 2.266727 0.000000 0.000000 0.000000 3.942968 2.643741 -19.605502 -1.306075 0.620671 8.944770 6.621707 3.463600 19.569888 0.000000 0.000000 0.000000 -0.855777 -0.311095 9.644389 1.262996 -0.500367 -3.266420 -4.276572 -4.433222 3.897432 7.041313 -2.952252 -20.534098 0.000000 0.000000 0.000000 -13.988259 -24.831264 11.949948 -33.581702 -53.954676 11.319319 16.533427 -10.092571 -0.944660 0.000000 0.000000 0.000000 19.228373 10.321392 2.493039 50.405868 16.952674 2.468779 -8.165564 33.483425 -1.581422 0.000000 0.000000 0.000000 
-0.025726 0.933710 0.316109 -3.933734 -1.332328 -0.985767 4.333202 0.374608 7.476573 0.685973 -0.542844 11.910367 -0.679798 0.028097 3.186843 0.000000 0.000000 0.000000 5.605125 2.800727 -19.135865 -2.429847 0.993718 11.597476 5.310838 2.746252 16.730223 0.000000 0.000000 0.000000 -1.234084 -0.293918 9.984295 1.283885 -0.493421 -3.406429 -4.722031 -4.178220 3.429617 7.962034 -3.320084 -20.670624 0.000000 0.000000 0.000000 -14.699268 -25.685039 12.353514 -34.299859 -52.285329 11.026615 16.061527 -11.144034 -1.026351 0.000000 0.000000 0.000000 20.146594 10.550141 2.810223 50.260807 18.040301 2.940281 -10.235119 31.697799 -1.959065 0.000000 0.000000 0.000000 
-0.038155 0.934498 0.352736 -4.363905 -1.190790 -0.144510 5.968938 0.168206 5.700854 0.176964 -0.610964 17.149714 -1.734513 -0.288707 7.095669 0.000000 0.000000 0.000000 6.792496 2.808776 -18.212959 -2.172079 1.009041 12.724493 4.585486 2.913753 13.742309 0.000000 0.000000 0.000000 -1.059463 -0.287450 9.276930 1.566367 -0.660749 -2.262491 -5.472700 -3.783814 2.199149 8.325317 -3.483550 -19.954883 0.000000 0.000000 0.000000 -16.284361 -24.686037 11.970046 -36.279730 -49.439139 10.868564 14.494023 -12.592586 -1.021559 0.000000 0.000000 0.000000 20.814904 11.849057 3.693246 49.569528 20.041778 3.819012 -12.948175 29.415430 -2.415645 0.000000 0.000000 0.000000 
-0.049904 0.937700 0.388392 -4.982165 -1.394747 0.468522 7.906312 -0.024785 2.556135 -0.298205 -0.709901 25.475687 -4.004598 -2.132564 12.057174 0.000000 0.000000 0.000000 8.575296 2.789315 -16.780379 -2.611724 1.149529 13.317800 4.328258 3.278329 12.015581 0.000000 0.000000 0.000000 -0.210496 -0.331914 8.455014 1.254608 -0.501696 -2.713340 -5.822982 -2.233034 2.535217 8.332442 -3.284426 -20.363757 0.000000 0.000000 0.000000 -18.213019 -24.287348 11.726639 -37.598207 -43.651766 9.211308 14.011864 -17.015268 -1.366989 0.000000 0.000000 0.000000 19.932574 12.118538 4.327146 49.398373 21.708498 4.340996 -14.433043 27.704873 -2.466717 0.000000 0.000000 0.000000 
-0.060149 0.941190 0.422842 -5.452308 -1.052295 0.076435 9.867586 -0.105337 -0.867536 -1.405554 -0.548734 34.875692 -4.853818 -1.606376 16.253039 0.000000 0.000000 0.000000 9.557380 2.256823 -13.292717 -2.154492 0.953975 11.962406 4.064043 3.479273 10.739148 0.000000 0.000000 0.000000 -0.219620 -0.345300 8.727254 1.141644 -0.423418 -3.413307 -5.325570 -0.187236 3.167311 8.272377 -3.089908 -20.213648 0.000000 0.000000 0.000000 -19.969586 -24.239422 11.375686 -39.078392 -38.945733 8.010176 12.200509 -21.675738 -1.492049 0.000000 0.000000 0.000000 19.231274 11.762863 4.750346 47.795298 23.034637 4.461364 -14.299095 28.164873 -2.317958 0.000000 0.000000 0.000000 
-0.068405 0.943099 0.455432 -5.378752 -0.347505 -0.503171 10.621103 -0.103606 -5.009315 -2.425192 -0.333348 42.159531 -3.827049 1.747804 20.659328 0.000000 0.000000 0.000000 10.023109 1.616241 -9.651981 -2.086501 0.834099 10.395114 3.643184 3.479652 9.294189 0.000000 0.000000 0.000000 0.088762 -0.387623 9.025162 0.739972 -0.218470 -3.981417 -5.782870 1.375847 3.901837 10.167055 -3.961326 -20.317813 0.000000 0.000000 0.000000 -20.980345 -22.735775 9.994883 -41.735178 -35.382411 7.470770 11.020603 -24.079237 -1.501704 0.000000 0.000000 0.000000 19.412870 12.028001 5.509565 45.808638 24.654697 4.603631 -14.118792 27.482701 -2.076099 0.000000 0.000000 0.000000 
-0.074363 0.945271 0.485714 -5.050278 -0.297465 -0.818588 10.547991 -0.093107 -8.681850 -4.224102 0.585189 44.384077 0.278674 7.159675 19.313300 0.000000 0.000000 0.000000 9.708615 0.964774 -6.251563 -1.469325 0.606832 8.467397 3.713219 4.038046 8.550331 0.000000 0.000000 0.000000 0.031350 -0.371171 8.770106 -0.243525 0.209681 -3.802362 -5.191949 3.323773 4.602183 11.423494 -4.749887 -19.247986 0.000000 0.000000 0.000000 -21.143131 -21.786185 8.877822 -43.195496 -31.903658 6.554440 9.457450 -26.369399 -1.385978 0.000000 0.000000 0.000000 19.622267 12.030541 6.068410 43.085533 26.709705 4.741624 -13.829011 26.297830 -1.818365 0.000000 0.000000 0.000000 
-0.077996 0.946466 0.513879 -4.626783 0.005733 -1.092439 9.921919 -0.149263 -11.488636 -5.028193 0.878738 36.240672 5.392754 14.486867 21.178227 0.000000 0.000000 0.000000 9.360792 0.516870 -3.843707 -1.239425 0.536508 7.959163 3.577306 4.205068 7.784001 0.000000 0.000000 0.000000 -0.104288 -0.381519 9.277102 -0.894477 0.505991 -4.055848 -4.659294 5.485225 5.231814 11.922957 -4.612375 -20.335290 0.000000 0.000000 0.000000 -21.926849 -20.872322 7.676011 -43.957141 -27.739364 5.280913 8.056011 -28.627988 -1.300864 0.000000 0.000000 0.000000 19.524764 12.188340 6.787827 40.083310 29.009265 4.814987 -14.250349 24.598681 -1.676553 0.000000 0.000000 0.000000 
-0.079379 0.946530 0.540647 -4.292080 -0.339530 -1.126084 8.917778 -0.261713 -14.116757 -6.059535 1.088588 21.282525 20.855002 28.926045 46.302949 0.000000 0.000000 0.000000 8.687711 0.184143 -2.039506 -0.631424 0.430721 7.947045 3.721130 4.880355 7.084205 0.000000 0.000000 0.000000 0.385956 -0.439247 9.689511 -1.915575 0.949455 -4.041105 -4.169504 7.911456 5.075141 11.498705 -4.042744 -20.696200 0.000000 0.000000 0.000000 -22.155389 -20.004924 6.436000 -44.097924 -23.895376 4.098483 4.982368 -28.092610 -0.633384 0.000000 0.000000 0.000000 19.480951 11.909009 7.221204 37.616152 31.326296 4.979581 -15.042213 23.082767 -1.626565 0.000000 0.000000 0.000000 
-0.078794 0.945351 0.566924 -3.978038 -0.845321 -1.056632 7.538281 -0.457880 -16.376815 -5.259430 0.707985 9.286441 19.849577 27.426377 51.495480 0.000000 0.000000 0.000000 7.983889 -0.135471 -0.197577 -0.262457 0.356255 7.633116 3.894051 5.721118 6.240580 0.000000 0.000000 0.000000 1.020850 -0.519838 10.262442 -2.561235 1.225727 -4.859293 -3.764170 9.355554 5.862471 10.997957 -3.420042 -21.790621 0.000000 0.000000 0.000000 -22.340132 -18.289129 5.094132 -44.502723 -20.090874 2.794520 3.346712 -26.769107 -0.263214 0.000000 0.000000 0.000000 18.910480 12.199216 7.614979 35.601426 33.477365 5.136885 -15.474890 21.256864 -1.521202 0.000000 0.000000 0.000000 
-0.076873 0.943408 0.594072 -3.943271 -1.488163 -0.995297 5.914020 -0.686729 -17.159187 -3.245608 0.348855 3.797503 4.887713 14.708719 31.565600 0.000000 0.000000 0.000000 7.975887 -0.431748 1.504877 -0.832572 0.462210 7.681844 4.025470 6.519236 5.366147 0.000000 0.000000 0.000000 1.600574 -0.593974 10.710845 -3.046550 1.419783 -5.525894 -3.452464 10.792893 5.770210 9.503215 -2.393748 -22.009715 0.000000 0.000000 0.000000 -21.296751 -16.634896 3.861838 -45.071409 -16.660794 1.610841 0.834334 -24.691533 0.267337 0.000000 0.000000 0.000000 18.383131 11.353738 7.324953 35.423679 35.379902 5.689933 -15.541767 21.045535 -1.476130 0.000000 0.000000 0.000000 
-0.073822 0.940862 0.623399 -3.617808 -1.959094 -1.341711 4.020960 -0.933956 -16.942810 -0.931055 0.012585 3.785024 0.093570 6.685590 19.611568 0.000000 0.000000 0.000000 7.435033 -0.837975 4.112814 -1.256483 0.508269 7.127473 4.119864 7.264487 4.522592 0.000000 0.000000 0.000000 1.488708 -0.581143 10.837182 -3.707463 1.687127 -6.101104 -2.849481 11.446307 6.436359 9.721694 -2.507065 -21.982232 0.000000 0.000000 0.000000 -20.127530 -15.862642 3.471325 -45.804969 -13.959975 0.511096 0.606808 -21.362693 0.302301 0.000000 0.000000 0.000000 18.675544 11.016771 7.277369 35.677772 37.017362 6.203575 -16.425443 21.471065 -1.626270 0.000000 0.000000 0.000000 
-0.070017 0.937071 0.655008 -3.524929 -1.736458 -1.692989 2.736519 -1.087401 -16.373952 0.362738 -0.294225 7.041399 0.199079 5.261582 13.579348 0.000000 0.000000 0.000000 7.051631 -1.102076 5.928810 -1.655918 0.655379 8.514879 4.126242 8.217934 3.223397 0.000000 0.000000 0.000000 1.021354 -0.547346 11.076255 -3.323705 1.531353 -6.106211 -3.277674 11.487071 5.905707 9.658215 -2.539523 -21.418630 0.000000 0.000000 0.000000 -19.534213 -14.958340 2.949665 -45.472400 -11.728588 -0.290130 1.525844 -18.762154 0.125014 0.000000 0.000000 0.000000 20.140509 10.186795 7.104417 36.911443 37.839422 6.761723 -17.699411 22.450416 -1.888546 0.000000 0.000000 0.000000 
-0.065014 0.932585 0.688335 -3.557788 -1.802555 -2.136307 1.838244 -1.137548 -15.357980 1.137453 -0.557316 10.068018 1.677781 6.932207 10.951031 0.000000 0.000000 0.000000 6.115566 -0.980380 5.624887 -1.143044 0.852667 13.732494 4.792994 9.832233 3.237689 0.000000 0.000000 0.000000 -0.236325 -0.416265 10.940829 -3.074035 1.438075 -4.926385 -2.850840 10.613100 4.792345 9.069660 -2.700315 -19.304481 0.000000 0.000000 0.000000 -19.335186 -14.066260 2.750370 -44.385579 -10.092637 -0.857586 1.224134 -17.050666 0.199936 0.000000 0.000000 0.000000 21.306962 10.682174 7.274936 37.592528 36.934876 6.690328 -17.904679 23.796734 -2.105957 0.000000 0.000000 0.000000 
-0.058399 0.931490 0.721327 -3.387406 -0.501171 -2.879406 1.738373 -1.079583 -14.120489 -0.307908 -0.377112 12.934153 1.725465 6.213763 7.595880 0.000000 0.000000 0.000000 5.379514 -0.734404 4.364325 -1.013246 1.177290 21.065236 6.030933 10.813813 5.971857 0.000000 0.000000 0.000000 -1.221812 -0.340387 11.088065 -3.084597 1.470335 -4.182308 -2.252858 8.969856 4.728087 7.469696 -1.825855 -19.610703 0.000000 0.000000 0.000000 -21.272244 -14.185206 2.954243 -40.464260 -9.874700 -0.766251 1.936473 -14.984937 0.129128 0.000000 0.000000 0.000000 21.612403 10.619424 6.940592 39.731557 34.304635 6.370335 -15.983937 26.249015 -2.019773 0.000000 0.000000 0.000000 
-0.051139 0.932472 0.752480 -2.842256 1.126333 -3.648119 0.602924 -0.999950 -11.472488 -0.567553 -0.366920 13.189950 1.392063 5.008832 5.383207 0.000000 0.000000 0.000000 3.279823 -0.113031 0.558845 0.632794 0.938533 32.616202 8.921499 12.579806 12.352542 0.000000 0.000000 0.000000 -2.759033 -0.231862 11.829718 -2.074342 1.051920 -4.588497 -2.472161 7.109496 5.315978 7.559546 -1.950375 -19.978429 0.000000 0.000000 0.000000 -22.346024 -13.703303 2.934456 -37.449389 -11.987236 -0.158067 3.548705 -13.050694 -0.044189 0.000000 0.000000 0.000000 22.400074 10.332269 6.573443 43.328943 31.080234 5.967271 -14.754737 29.145503 -2.001930 0.000000 0.000000 0.000000 
-0.044256 0.935405 0.781911 -2.677914 2.188248 -4.075527 0.192580 -0.786986 -8.711182 -1.008033 -0.270765 12.504861 1.056533 4.000058 4.208786 0.000000 0.000000 0.000000 2.148649 0.608528 -5.246784 1.432673 0.595911 42.872948 11.216105 10.136918 22.777537 0.000000 0.000000 0.000000 -2.812298 -0.236379 11.465624 -1.708532 0.897410 -3.792992 -3.112115 5.740008 5.780499 6.233101 -1.247988 -20.123475 0.000000 0.000000 0.000000 -21.844168 -15.077760 3.972251 -35.045249 -15.741525 0.757651 5.736225 -12.827280 -0.277596 0.000000 0.000000 0.000000 21.890198 10.099931 6.156496 47.158525 28.556124 5.801662 -12.001261 30.194800 -1.435371 0.000000 0.000000 0.000000 
-0.038424 0.938406 0.811313 -2.885259 3.943674 -4.624671 -0.161650 -0.494659 -5.380776 -0.527291 -0.346880 10.917955 0.358066 2.289635 3.175991 0.000000 0.000000 0.000000 1.974688 1.037212 -8.972074 1.128960 0.352050 46.750672 11.188773 7.079786 28.693745 0.000000 0.000000 0.000000 -2.013494 -0.339354 11.588414 -1.827292 0.957101 -2.800052 -3.751594 4.037754 5.357217 5.768984 -1.143383 -19.517606 0.000000 0.000000 0.000000 -21.597790 -16.178317 4.782771 -31.759480 -20.252857 1.704005 6.929962 -11.463429 -0.353281 0.000000 0.000000 0.000000 21.279100 9.987037 5.798713 50.182650 24.736546 4.818071 -9.211817 31.634236 -0.826124 0.000000 0.000000 0.000000 
-0.033671 0.941451 0.840974 -3.115893 5.694890 -5.061336 -0.166770 -0.216968 -2.407443 -0.227379 -0.376951 9.709536 -0.415759 0.559112 2.630458 0.000000 0.000000 0.000000 1.877851 1.342473 -11.852922 1.148392 -0.090280 45.513402 7.195464 3.020500 25.191840 0.000000 0.000000 0.000000 -2.035530 -0.358914 11.489981 -1.121981 0.630402 -2.069949 -4.166030 3.414297 5.293909 5.371098 -0.876856 -19.479436 0.000000 0.000000 0.000000 -21.709858 -18.009228 5.674338 -28.529774 -24.395614 2.388451 8.911686 -10.641267 -0.519448 0.000000 0.000000 0.000000 21.620812 8.942124 5.322732 52.103495 21.788116 3.753513 -7.667171 31.654018 -0.390006 0.000000 0.000000 0.000000 
-0.030357 0.942770 0.870622 -3.580560 7.675273 -5.254341 0.308149 -0.042922 -0.404648 0.065214 -0.449537 9.589641 -1.140372 -1.287105 1.821852 0.000000 0.000000 0.000000 2.768154 1.717635 -14.571112 0.709810 -0.090799 37.252698 0.504729 -3.888782 14.726948 0.000000 0.000000 0.000000 -1.931956 -0.394674 11.524051 -1.072585 0.639071 -2.442851 -3.842590 1.406548 5.988449 4.589031 -0.509949 -19.850310 0.000000 0.000000 0.000000 -20.586979 -18.683921 6.404220 -25.931714 -28.292946 2.650985 9.895612 -10.887060 -0.609242 0.000000 0.000000 0.000000 21.214958 8.818627 4.932932 53.374765 19.154498 2.709561 -5.805996 32.239726 0.044718 0.000000 0.000000 0.000000 
-0.028355 0.943140 0.900114 -3.587510 8.193288 -5.312273 0.508470 0.098795 1.447709 0.103498 -0.472184 9.769497 -1.273964 -1.858863 1.306815 0.000000 0.000000 0.000000 3.932688 2.067173 -16.399384 -0.121217 0.391241 25.531007 -0.919327 -7.311918 20.280763 0.000000 0.000000 0.000000 -2.313860 -0.379588 11.802722 -0.834646 0.545751 -2.721465 -3.891336 1.238798 6.142225 4.307740 -0.081715 -21.903723 0.000000 0.000000 0.000000 -20.177164 -19.751904 6.955923 -23.281312 -31.442843 2.749985 10.502517 -9.500930 -0.579599 0.000000 0.000000 0.000000 21.335077 8.101178 4.569625 54.133769 18.378785 2.392938 -5.231953 32.089454 0.222898 0.000000 0.000000 0.000000 
-0.027387 0.941840 0.930043 -3.834957 8.672966 -4.849914 1.025296 0.181118 2.882378 0.219784 -0.491609 9.659548 -1.272330 -2.380963 0.458678 0.000000 0.000000 0.000000 5.204263 2.371619 -17.548438 -0.972315 0.595725 16.423888 1.374565 -3.229828 19.549847 0.000000 0.000000 0.000000 -2.086658 -0.396442 11.649043 -0.610158 0.476462 -3.406572 -4.038914 0.448605 6.948792 3.973449 0.174749 -23.125186 0.000000 0.000000 0.000000 -18.906653 -20.322803 7.405134 -22.178788 -32.589539 2.603508 11.972084 -10.622498 -0.783754 0.000000 0.000000 0.000000 21.342045 8.281279 4.582392 54.196808 18.132945 2.219490 -5.239669 32.434529 0.220753 0.000000 0.000000 0.000000 
-0.027225 0.939324 0.961518 -3.617711 8.709961 -4.186901 0.937163 0.233680 3.606337 0.501150 -0.612089 10.774479 -1.041438 -2.321369 -0.205108 0.000000 0.000000 0.000000 5.898262 2.547404 -18.217116 -1.264570 0.613744 13.298396 3.046218 0.082363 17.914025 0.000000 0.000000 0.000000 -1.547367 -0.429261 11.426643 -0.797593 0.528402 -2.698558 -4.446378 0.161202 5.513989 3.960414 0.154261 -22.950789 0.000000 0.000000 0.000000 -18.541476 -20.780858 7.668183 -22.670428 -33.251645 2.856422 12.949075 -9.916425 -0.815274 0.000000 0.000000 0.000000 22.031609 8.499525 4.647122 53.201089 18.113321 2.256296 -7.031129 31.915679 -0.304904 0.000000 0.000000 0.000000 
-0.027475 0.936978 0.996076 -3.288852 8.291215 -3.992404 0.884921 0.254570 3.823236 0.403876 -0.799156 14.031970 -0.859632 -1.677789 0.205699 0.000000 0.000000 0.000000 6.741443 2.539760 -17.168296 -2.009027 0.808098 13.485919 3.873467 2.171905 15.916926 0.000000 0.000000 0.000000 -1.040439 -0.430897 10.692523 -0.768744 0.489231 -2.209468 -5.031870 0.116057 4.855639 4.598165 -0.299268 -22.107090 0.000000 0.000000 0.000000 -18.826433 -20.233681 7.416377 -23.933430 -32.986427 3.100102 13.775807 -9.429565 -0.846982 0.000000 0.000000 0.000000 22.397988 9.214522 5.020143 52.214902 18.831761 2.559362 -9.199250 30.741271 -0.875710 0.000000 0.000000 0.000000 
-0.028087 0.936569 1.033502 -3.287483 8.482563 -3.955211 2.236279 0.046334 1.534155 -1.021242 -0.995326 21.912994 -2.230010 -2.525631 3.386529 0.000000 0.000000 0.000000 7.973826 2.570793 -16.227783 -3.230111 1.198582 16.166306 3.402146 2.038686 14.075481 0.000000 0.000000 0.000000 0.103733 -0.463207 9.553468 -0.846251 0.466366 -0.897868 -5.831263 1.127394 2.961362 5.395951 -0.854464 -19.856606 0.000000 0.000000 0.000000 -19.822277 -19.882365 6.796576 -26.706772 -30.674441 3.442048 14.131198 -11.495928 -1.114241 0.000000 0.000000 0.000000 23.146571 8.551645 5.032232 50.511386 18.297378 2.208104 -9.807094 30.044057 -0.954098 0.000000 0.000000 0.000000 
-0.028573 0.937309 1.070584 -3.091379 9.054654 -5.004703 4.795452 -0.203516 -2.247496 -4.636019 -0.602038 33.672680 -5.339404 -3.601749 11.403514 0.000000 0.000000 0.000000 8.716452 2.226000 -13.264866 -3.957964 1.418717 17.383707 2.662251 1.761188 11.285072 0.000000 0.000000 0.000000 1.177365 -0.546306 9.554419 -1.787985 0.956801 -1.824048 -5.344507 2.222970 3.997554 4.707456 -0.325950 -19.890519 0.000000 0.000000 0.000000 -21.835349 -19.202853 6.021235 -30.330619 -28.827479 3.774912 14.270281 -13.617750 -1.387491 0.000000 0.000000 0.000000 22.503781 7.939887 5.050356 49.862662 18.444695 2.026830 -10.000067 30.659572 -0.917039 0.000000 0.000000 0.000000 
-0.028380 0.937817 1.104837 -3.133126 8.879686 -5.943639 6.555162 -0.378481 -7.170860 -6.717791 -0.305205 44.795110 -6.794654 -1.866515 19.636116 0.000000 0.000000 0.000000 9.372158 1.714091 -9.646427 -4.183481 1.463206 16.816414 2.379534 2.058566 8.997690 0.000000 0.000000 0.000000 1.595923 -0.542667 9.149053 -1.739687 0.969252 -2.640815 -5.205015 3.659301 5.325998 6.464982 -1.378523 -18.738447 0.000000 0.000000 0.000000 -23.337536 -17.743086 4.708891 -33.285732 -26.709444 3.795521 12.048745 -15.392145 -1.296640 0.000000 0.000000 0.000000 21.702434 7.900874 5.400060 49.205808 19.260799 2.109933 -10.145900 31.051726 -0.857521 0.000000 0.000000 0.000000 
-0.027382 0.939507 1.135445 -2.955998 8.944888 -6.747290 6.475766 -0.558459 -11.241077 -6.360277 -0.808855 49.358275 -6.038709 1.557341 25.391692 0.000000 0.000000 0.000000 9.311286 1.175753 -6.447284 -3.878700 1.360096 16.315694 2.224775 2.256953 7.698405 0.000000 0.000000 0.000000 1.323291 -0.533403 9.350514 -2.106918 1.136462 -2.428699 -4.690538 4.999394 5.487381 7.575950 -2.043443 -17.977402 0.000000 0.000000 0.000000 -24.222076 -18.477171 4.628506 -35.930882 -23.051468 3.316182 10.791956 -16.773094 -1.267394 0.000000 0.000000 0.000000 21.770080 7.809918 5.733539 46.686608 21.241681 2.491106 -9.222462 30.124552 -0.576551 0.000000 0.000000 0.000000 
-0.026129 0.941257 1.162849 -2.527755 7.784424 -7.093163 5.570121 -0.803312 -14.587394 -4.668278 -1.111624 44.670207 -0.545905 7.792032 22.439630 0.000000 0.000000 0.000000 9.223349 0.611122 -3.310879 -4.247673 1.424950 14.764688 2.661408 3.524786 6.717386 0.000000 0.000000 0.000000 1.205737 -0.504002 9.196445 -2.455156 1.283300 -2.164854 -4.310162 6.317376 5.875067 8.378482 -2.422594 -18.259229 0.000000 0.000000 0.000000 -24.340486 -17.413123 3.796972 -38.847099 -20.145138 2.749140 8.068205 -18.148939 -0.947278 0.000000 0.000000 0.000000 21.275721 8.886109 6.480070 45.739353 23.936489 3.391225 -10.393911 29.342916 -0.830585 0.000000 0.000000 0.000000 
-0.024337 0.942261 1.188063 -2.195416 6.297600 -6.916249 4.938115 -0.963086 -16.400160 -3.267857 -0.555850 29.405736 5.372121 16.383986 31.545370 0.000000 0.000000 0.000000 9.170305 0.248203 -1.415742 -4.769337 1.554533 14.096402 3.219827 4.975957 6.025536 0.000000 0.000000 0.000000 1.263401 -0.498762 9.199606 -3.514632 1.763684 -2.515423 -3.753242 8.151842 6.401004 8.495176 -2.207811 -19.192723 0.000000 0.000000 0.000000 -23.882180 -17.443833 3.543785 -41.323729 -17.505173 2.074437 6.421347 -18.041745 -0.697072 0.000000 0.000000 0.000000 20.959204 9.715549 7.200249 44.095023 27.278864 4.357333 -10.037532 27.588636 -0.718651 0.000000 0.000000 0.000000 
-0.021761 0.941395 1.212850 -2.042748 4.175958 -6.847487 4.414102 -0.959950 -16.144488 -2.393002 -0.146790 16.599373 0.720261 10.218970 26.867410 0.000000 0.000000 0.000000 9.304072 -0.131707 0.542221 -5.628667 1.758663 13.440479 3.911709 6.953474 5.006509 0.000000 0.000000 0.000000 0.847784 -0.478832 9.566741 -3.605225 1.787555 -2.836901 -3.255274 10.058889 6.918945 8.554820 -2.141921 -19.294205 0.000000 0.000000 0.000000 -22.421072 -16.372603 2.853005 -44.258130 -15.424549 1.366231 4.622004 -18.253447 -0.442667 0.000000 0.000000 0.000000 19.372319 11.176538 7.929751 44.304143 31.214736 6.064589 -11.547345 26.049447 -0.993797 0.000000 0.000000 0.000000 
-0.017934 0.939657 1.238675 -1.890983 2.429324 -7.267678 3.097456 -1.025766 -15.167654 -0.780373 -0.263396 10.739038 -5.414172 -0.525275 19.381496 0.000000 0.000000 0.000000 9.026288 -0.677085 3.513201 -6.172221 1.794143 12.027762 4.443456 8.820178 3.864999 0.000000 0.000000 0.000000 0.554138 -0.486486 10.383756 -4.627107 2.226763 -3.895928 -2.257340 11.091663 8.553332 8.708854 -2.137323 -19.923304 0.000000 0.000000 0.000000 -21.266019 -16.097834 2.916410 -46.675453 -14.210380 0.678398 3.844955 -16.364495 -0.251816 0.000000 0.000000 0.000000 18.354898 12.497099 8.479385 44.220156 35.225173 7.679781 -12.477830 24.846356 -1.153564 0.000000 0.000000 0.000000 
-0.013074 0.935368 1.266046 -2.084838 0.966192 -7.488893 1.916534 -1.029187 -13.576781 1.484506 -0.647057 9.630058 -5.734738 -2.778951 15.946491 0.000000 0.000000 0.000000 8.861026 -1.158342 6.190982 -6.500074 1.778410 10.925304 4.679373 10.505716 2.218885 0.000000 0.000000 0.000000 -0.271018 -0.419085 10.527968 -4.200096 2.026893 -3.389075 -2.444297 12.593900 8.623851 9.524666 -2.565119 -19.797290 0.000000 0.000000 0.000000 -19.971726 -15.868646 2.726748 -48.014156 -13.606666 0.359078 3.838137 -14.124537 -0.215284 0.000000 0.000000 0.000000 18.862621 13.722764 9.459181 43.409605 38.501163 8.809996 -12.626081 23.120691 -1.141359 0.000000 0.000000 0.000000 
-0.006987 0.929654 1.294246 -2.502266 -0.312053 -7.655625 1.244733 -1.017199 -12.642611 3.069990 -1.098317 11.949901 -4.147962 -1.867473 12.757122 0.000000 0.000000 0.000000 8.334077 -1.357621 7.547173 -5.869715 1.779282 12.206094 4.774495 12.017419 0.571396 0.000000 0.000000 0.000000 -0.958454 -0.368431 10.871142 -4.919101 2.354643 -2.925428 -1.809631 12.294177 8.053985 9.543109 -2.958941 -18.557146 0.000000 0.000000 0.000000 -19.690599 -15.767540 3.023515 -47.882702 -12.340115 -0.209250 2.979332 -12.291500 -0.050685 0.000000 0.000000 0.000000 19.015570 15.498811 10.221940 44.174998 40.578353 9.998520 -12.661769 21.486015 -1.106755 0.000000 0.000000 0.000000 
0.000064 0.924922 1.322304 -2.817986 -0.961976 -7.290659 0.751238 -1.005783 -11.914533 3.777291 -1.352158 13.513251 -2.821680 -1.627145 8.415161 0.000000 0.000000 0.000000 7.872767 -1.360794 7.745865 -5.254939 1.942258 15.375985 4.047123 12.152231 -1.870737 0.000000 0.000000 0.000000 -1.895592 -0.300466 11.415153 -4.490454 2.135763 -3.442869 -2.171650 12.100454 7.736897 9.622543 -3.133487 -18.195921 0.000000 0.000000 0.000000 -20.576365 -15.410844 2.886778 -46.343631 -10.975594 -0.633804 1.959881 -12.347646 0.074725 0.000000 0.000000 0.000000 20.008410 16.155201 10.717148 44.755406 41.266621 10.443932 -11.886886 21.693442 -1.019349 0.000000 0.000000 0.000000 
0.007816 0.923588 1.348875 -2.652508 -2.528859 -6.857149 0.576379 -0.962261 -11.331287 3.025910 -1.238855 15.261491 -1.408244 -0.398464 5.589236 0.000000 0.000000 0.000000 6.802082 -1.108083 6.684296 -4.909103 2.380372 20.380096 4.112905 12.936548 -2.509082 0.000000 0.000000 0.000000 -2.815690 -0.201234 11.616783 -5.361631 2.539712 -2.732162 -1.810028 11.822749 5.950785 9.719872 -3.572232 -16.886915 0.000000 0.000000 0.000000 -21.167511 -14.639241 2.721785 -44.201843 -10.807906 -0.544557 0.200838 -10.697429 0.259196 0.000000 0.000000 0.000000 20.027724 17.211843 10.961428 46.341902 41.053885 11.075974 -11.852061 21.230431 -1.016823 0.000000 0.000000 0.000000 
0.015922 0.925853 1.372684 -2.507297 -2.561957 -6.764940 0.140766 -0.898887 -10.069350 2.382281 -1.095673 15.695144 -1.088054 -0.312404 4.358369 0.000000 0.000000 0.000000 5.604747 -0.746063 4.748392 -3.465478 2.581469 27.327209 4.198217 11.807153 -1.023145 0.000000 0.000000 0.000000 -4.236271 -0.071987 12.091636 -5.294817 2.494287 -3.101352 -0.861352 9.969325 6.860149 8.069190 -2.441414 -18.686145 0.000000 0.000000 0.000000 -23.002229 -13.841541 2.850164 -42.010972 -11.771807 -0.355903 0.699507 -10.746168 0.241671 0.000000 0.000000 0.000000 19.802308 18.523067 11.056270 47.760919 41.372969 11.736631 -10.534583 21.508029 -0.870917 0.000000 0.000000 0.000000 
0.023767 0.928775 1.393855 -3.133391 -3.263221 -6.706732 0.627293 -0.674219 -7.993468 1.794077 -0.880251 14.647877 -0.664278 0.050678 3.316231 0.000000 0.000000 0.000000 4.315464 -0.132858 0.670551 -0.885747 2.374184 36.074039 6.457087 11.913516 5.560170 0.000000 0.000000 0.000000 -4.030049 -0.081151 12.725471 -4.878417 2.278980 -3.563989 -0.990667 10.011211 7.629932 7.970061 -2.318056 -19.289967 0.000000 0.000000 0.000000 -22.713929 -13.990379 3.068789 -40.455515 -13.531567 0.143141 -0.710889 -11.607621 0.403925 0.000000 0.000000 0.000000 20.173929 18.329405 10.971809 47.824379 40.762967 11.375805 -10.257674 23.085205 -0.881780 0.000000 0.000000 0.000000 
0.030986 0.931447 1.413132 -3.253855 -3.193087 -6.012891 0.357726 -0.600252 -6.878962 1.535284 -0.773156 13.583200 -0.599720 -0.029015 2.817886 0.000000 0.000000 0.000000 2.893294 0.514244 -4.374179 1.726941 1.532188 42.046839 6.895577 6.768391 14.349992 0.000000 0.000000 0.000000 -4.332022 -0.043148 12.911733 -4.634066 2.168692 -3.393738 -0.832039 8.622356 7.456403 5.735423 -0.968048 -20.487736 0.000000 0.000000 0.000000 -23.354096 -15.208652 4.210030 -38.604889 -15.120907 0.514200 0.595344 -11.974041 0.301355 0.000000 0.000000 0.000000 17.796235 19.294540 10.589652 50.031829 39.933965 11.946680 -10.569712 24.159207 -1.017107 0.000000 0.000000 0.000000 
0.037741 0.933060 1.431785 -3.645265 -2.950386 -5.702056 0.501046 -0.504051 -5.862548 1.126965 -0.672755 13.352108 -0.589390 -0.309982 2.095293 0.000000 0.000000 0.000000 2.935608 0.980324 -8.004814 2.051696 1.445274 44.685176 5.122946 1.265673 18.823802 0.000000 0.000000 0.000000 -3.957550 -0.083753 13.760082 -3.981708 1.866378 -3.628544 -1.356270 7.565819 7.350775 5.447081 -0.797381 -21.265387 0.000000 0.000000 0.000000 -23.385956 -16.224825 5.091413 -38.124722 -17.440458 1.116461 1.648727 -13.040107 0.217452 0.000000 0.000000 0.000000 17.094811 19.761959 10.480189 50.354733 39.905443 12.096774 -11.068594 24.789960 -1.164370 0.000000 0.000000 0.000000 
0.044177 0.934952 1.450253 -4.028802 -2.525107 -5.587013 0.719006 -0.397231 -4.737912 0.645656 -0.566156 13.232122 -0.726737 -0.778299 1.652240 0.000000 0.000000 0.000000 2.970962 1.394373 -11.148223 1.644466 1.522806 44.126487 2.533025 -2.217940 16.551813 0.000000 0.000000 0.000000 -3.485865 -0.150419 14.414159 -3.723441 1.760639 -3.298326 -1.389701 6.762237 6.863221 4.796942 -0.485948 -21.299021 0.000000 0.000000 0.000000 -23.942946 -17.901443 6.250851 -36.705320 -20.557144 1.960110 3.106747 -13.311747 0.061527 0.000000 0.000000 0.000000 16.929766 19.348726 10.070374 50.368800 39.406057 11.913998 -11.759346 25.271338 -1.340561 0.000000 0.000000 0.000000 
0.050245 0.936744 1.469158 -4.335892 -1.280692 -5.194872 0.722907 -0.316338 -3.762268 0.515056 -0.544737 12.698993 -1.204775 -1.905926 1.319367 0.000000 0.000000 0.000000 3.369084 1.814226 -14.058622 0.805166 1.582426 42.111959 0.018053 -3.290198 7.229199 0.000000 0.000000 0.000000 -3.061320 -0.226105 14.582446 -2.835984 1.367391 -3.353944 -1.961365 5.373294 6.940804 4.410024 -0.355383 -21.258088 0.000000 0.000000 0.000000 -23.525506 -18.599577 6.893944 -36.467171 -24.202230 2.904990 4.998240 -15.533726 -0.182176 0.000000 0.000000 0.000000 16.743491 19.265473 9.832384 50.606533 38.556006 11.583755 -12.472645 25.515383 -1.514495 0.000000 0.000000 0.000000 
0.055771 0.938572 1.488662 -4.498056 -0.309855 -4.651563 0.395281 -0.219929 -2.519873 0.829737 -0.583971 11.527473 -1.587950 -2.787683 1.136426 0.000000 0.000000 0.000000 4.049025 2.260919 -16.816407 -0.377420 1.794308 38.385546 -0.314985 -1.973952 2.467066 0.000000 0.000000 0.000000 -2.892302 -0.261967 14.597012 -1.996818 0.990840 -2.521895 -2.672073 4.806062 6.010181 5.012916 -0.717912 -20.911011 0.000000 0.000000 0.000000 -22.582553 -19.982593 7.600972 -36.613014 -27.803755 4.051355 7.403097 -16.483871 -0.550807 0.000000 0.000000 0.000000 16.419083 17.898613 9.065926 52.167941 37.536296 11.661776 -13.255400 25.344089 -1.633091 0.000000 0.000000 0.000000 
0.060456 0.939947 1.509106 -4.504168 0.454100 -4.257028 0.159004 -0.077153 -0.860182 0.855633 -0.534624 10.059856 -1.944474 -3.583508 1.033369 0.000000 0.000000 0.000000 4.980624 2.633993 -18.606794 -1.686736 1.950745 32.524196 0.296789 -1.100592 3.789230 0.000000 0.000000 0.000000 -2.719876 -0.295100 14.576077 -1.473306 0.761408 -2.998024 -3.201928 4.046678 6.544802 5.353332 -0.915118 -21.206578 0.000000 0.000000 0.000000 -21.666086 -20.287270 7.848727 -36.541476 -30.922095 4.877530 9.358281 -18.607815 -0.945909 0.000000 0.000000 0.000000 16.417769 17.120128 8.600960 53.338322 35.706946 11.037048 -13.115771 25.701847 -1.617764 0.000000 0.000000 0.000000 
0.064183 0.940240 1.530682 -4.586482 1.457102 -3.604395 -0.051224 0.064454 0.727785 1.201285 -0.526732 8.318386 -2.322915 -4.575738 0.682478 0.000000 0.000000 0.000000 5.481549 2.990047 -20.715589 -1.677457 1.413502 24.100837 0.784746 -2.374307 9.670439 0.000000 0.000000 0.000000 -2.439632 -0.343093 14.538310 -0.645911 0.396854 -3.115923 -4.107811 3.315080 6.335003 5.328268 -0.940027 -20.916211 0.000000 0.000000 0.000000 -21.160465 -20.774262 8.107402 -36.982586 -33.490199 5.748665 10.649602 -18.480748 -1.147892 0.000000 0.000000 0.000000 17.051121 15.834902 8.014026 54.835740 33.819073 10.482237 -13.971030 25.982615 -1.781861 0.000000 0.000000 0.000000 
0.066610 0.939220 1.553202 -4.622222 1.498117 -2.499862 -0.485654 0.183645 1.935649 1.861784 -0.555207 6.684545 -2.192478 -4.666999 0.069257 0.000000 0.000000 0.000000 6.249512 3.386354 -22.573865 -1.407407 0.897571 15.037583 1.998269 -2.625967 16.774864 0.000000 0.000000 0.000000 -2.051877 -0.372304 14.127581 -0.921039 0.523974 -3.344022 -4.548065 2.611464 5.720250 5.728653 -1.206903 -21.007339 0.000000 0.000000 0.000000 -19.805702 -20.511032 8.047624 -37.886673 -35.150141 6.437531 12.006316 -18.694072 -1.369737 0.000000 0.000000 0.000000 17.727843 15.123573 7.586508 55.726863 31.536961 9.558104 -14.413293 26.821161 -1.951588 0.000000 0.000000 0.000000 
0.067326 0.937392 1.576616 -4.408730 2.344269 -1.469714 -0.875105 0.282955 2.856957 2.366823 -0.578867 5.658259 -2.375514 -5.444604 -0.543699 0.000000 0.000000 0.000000 6.744131 3.586955 -23.590933 -1.896576 0.753573 10.188942 4.562720 1.235705 18.670109 0.000000 0.000000 0.000000 -1.878831 -0.403572 14.188218 -1.007963 0.580001 -3.827466 -5.560699 2.156290 5.630654 5.930536 -1.267606 -21.185282 0.000000 0.000000 0.000000 -19.184473 -21.727176 8.635663 -36.934144 -37.254615 6.891219 12.306954 -16.496151 -1.239414 0.000000 0.000000 0.000000 19.590110 14.137372 7.346719 54.738449 30.784053 8.860242 -14.958773 27.282972 -2.079711 0.000000 0.000000 0.000000 
0.066144 0.934566 1.601981 -4.560845 2.746785 -1.008028 -0.667029 0.356954 3.749297 2.686185 -0.657067 6.095542 -2.232041 -5.806455 -1.581819 0.000000 0.000000 0.000000 8.289007 3.914195 -23.935377 -3.875927 1.137443 10.029428 7.318831 5.622195 19.540407 0.000000 0.000000 0.000000 -1.524435 -0.461080 14.379233 -1.237380 0.684038 -3.803960 -6.554883 1.626513 5.112832 7.048971 -1.994002 -20.501129 0.000000 0.000000 0.000000 -18.432019 -22.654599 9.107657 -35.478724 -38.523893 6.930647 12.400259 -14.155445 -1.060072 0.000000 0.000000 0.000000 20.587835 13.748710 7.209025 54.850420 30.210317 8.617442 -15.777404 27.796019 -2.306409 0.000000 0.000000 0.000000 
0.063380 0.932156 1.630458 -4.645407 3.217723 -0.371423 -0.176017 0.355417 4.022698 2.622746 -0.742319 7.579594 -2.233426 -6.159853 -2.093697 0.000000 0.000000 0.000000 9.464809 4.236488 -24.681109 -5.422891 1.636743 12.456851 8.364965 7.806498 18.935912 0.000000 0.000000 0.000000 -1.615636 -0.447182 14.173240 -1.567074 0.824806 -3.448859 -6.785793 0.829488 5.295457 7.086866 -1.875729 -21.826150 0.000000 0.000000 0.000000 -18.483785 -23.607201 9.809771 -33.559642 -39.540688 6.684629 13.367587 -12.393840 -1.011103 0.000000 0.000000 0.000000 20.758262 13.736584 7.079342 54.038352 30.042273 8.348980 -17.335082 28.373677 -2.732354 0.000000 0.000000 0.000000 
0.059623 0.931446 1.663313 -5.129804 4.233850 0.011127 1.257150 0.312068 4.617369 2.144842 -0.765839 9.174928 -2.813570 -7.006900 -1.416488 0.000000 0.000000 0.000000 10.430747 4.319180 -24.402034 -5.643967 1.861147 14.898414 7.892840 7.882347 17.559309 0.000000 0.000000 0.000000 -1.600262 -0.470549 14.237659 -1.322948 0.735662 -3.865212 -7.287099 -0.312358 5.227778 7.398439 -2.101175 -21.801407 0.000000 0.000000 0.000000 -18.290646 -23.680576 9.971994 -32.442475 -39.782323 6.434636 13.165572 -10.709449 -0.837808 0.000000 0.000000 0.000000 19.919466 13.149508 6.507318 54.139152 30.268344 8.554209 -19.072656 28.443967 -3.158634 0.000000 0.000000 0.000000 
0.055083 0.933565 1.700841 -5.726459 4.671388 0.810714 2.598703 0.192678 4.209034 2.081836 -0.990976 12.674500 -3.618962 -7.587612 0.260365 0.000000 0.000000 0.000000 11.545237 4.324686 -23.503698 -5.498310 1.897732 16.023641 7.632673 7.922009 16.755386 0.000000 0.000000 0.000000 -1.665503 -0.408340 12.772911 -0.954794 0.534838 -2.487088 -8.111724 -0.606655 3.511278 7.577107 -2.187278 -21.323480 0.000000 0.000000 0.000000 -18.335178 -22.626321 9.288068 -33.636467 -39.374034 6.799562 13.465532 -10.293695 -0.839927 0.000000 0.000000 0.000000 19.589315 12.459611 6.091230 53.665449 29.853341 8.439488 -20.664309 28.860628 -3.594976 0.000000 0.000000 0.000000 
0.050122 0.936483 1.741907 -6.515291 4.299551 1.184272 4.653078 -0.024035 2.208676 0.981950 -1.227164 20.367961 -5.053199 -8.214802 3.711628 0.000000 0.000000 0.000000 13.225363 4.255340 -21.635329 -5.580732 1.982005 16.744985 7.320878 8.510622 14.563257 0.000000 0.000000 0.000000 -1.001380 -0.414375 11.173815 -1.051790 0.604080 -3.518476 -8.704863 0.476315 3.815569 7.683880 -1.972249 -22.327584 0.000000 0.000000 0.000000 -18.809669 -21.884601 8.603881 -35.133833 -37.168980 6.596422 14.641438 -11.242058 -1.068357 0.000000 0.000000 0.000000 17.144546 11.497635 5.642962 54.601083 29.881312 8.706940 -21.279263 28.611212 -3.586252 0.000000 0.000000 0.000000 
0.045775 0.939684 1.783846 -7.187814 3.720678 0.024227 7.420083 -0.206755 -1.419325 -1.368705 -1.180279 33.456882 -8.174640 -9.433407 10.918553 0.000000 0.000000 0.000000 14.941864 3.605457 -17.174567 -5.885542 2.015122 15.987312 7.187937 9.381656 12.547155 0.000000 0.000000 0.000000 -1.053902 -0.425188 11.551329 -1.510612 0.818367 -4.163869 -8.778222 2.570857 3.402494 7.761497 -1.814394 -22.208060 0.000000 0.000000 0.000000 -18.798713 -22.549130 8.351685 -35.609727 -34.923095 6.207455 14.340525 -12.926449 -1.263036 0.000000 0.000000 0.000000 14.985954 10.801084 5.475717 54.368489 28.378014 8.014632 -21.571318 29.715702 -3.669294 0.000000 0.000000 0.000000 
0.043668 0.940247 1.824797 -7.305357 4.046910 -1.223703 9.202982 -0.262103 -6.166733 -2.485326 -1.499734 46.522860 -10.458573 -8.754452 18.242045 0.000000 0.000000 0.000000 15.477675 2.719998 -12.848653 -5.676480 1.905496 15.384728 6.578514 9.754521 10.010079 0.000000 0.000000 0.000000 -0.994892 -0.487326 12.619184 -1.902477 1.022083 -5.526888 -9.554411 4.012931 4.392386 8.697901 -2.038300 -22.855913 0.000000 0.000000 0.000000 -18.601997 -21.831959 7.398109 -36.151228 -34.591487 6.273069 14.921579 -13.897618 -1.507535 0.000000 0.000000 0.000000 14.559407 10.507150 5.675305 52.335003 27.031432 6.799732 -22.009665 30.372958 -3.694077 0.000000 0.000000 0.000000 
0.044767 0.941049 1.863806 -6.739548 4.395007 -1.445131 9.165180 -0.348715 -11.404719 -2.874840 -1.881802 54.693833 -9.656641 -4.879012 23.319177 0.000000 0.000000 0.000000 15.431565 1.888560 -9.253969 -6.316678 1.942146 13.994473 6.130880 10.189540 7.882367 0.000000 0.000000 0.000000 -1.557306 -0.419204 12.433799 -3.021778 1.502411 -6.171895 -9.235269 4.900904 4.670831 9.009624 -2.431580 -21.045465 0.000000 0.000000 0.000000 -17.661571 -21.564123 6.952712 -37.138809 -34.056970 6.316382 15.528389 -16.182560 -1.906407 0.000000 0.000000 0.000000 13.674092 9.853755 5.424663 51.822341 25.987987 6.215037 -21.432824 30.577609 -3.491529 0.000000 0.000000 0.000000 
0.048713 0.942794 1.900864 -6.352078 5.030367 -2.255990 9.141985 -0.484176 -16.937999 -3.340341 -2.012884 57.956965 -6.585581 -0.312853 24.017525 0.000000 0.000000 0.000000 15.124666 1.245805 -6.420007 -6.417517 2.012136 14.724107 5.716580 9.980450 6.890490 0.000000 0.000000 0.000000 -2.070205 -0.395509 12.952262 -3.869989 1.870714 -5.353626 -8.859524 6.373072 4.078173 9.487722 -2.707968 -19.991468 0.000000 0.000000 0.000000 -16.777743 -21.207046 6.253156 -38.269323 -34.609138 6.807935 16.646370 -18.443766 -2.496249 0.000000 0.000000 0.000000 14.174371 9.054067 5.408560 50.435468 24.112194 5.056899 -20.872061 30.051345 -3.166382 0.000000 0.000000 0.000000 
0.055427 0.943761 1.936264 -5.575252 5.952168 -2.748116 8.795011 -0.786844 -23.124348 -3.902996 -1.743553 55.919081 -1.798252 3.075614 14.518995 0.000000 0.000000 0.000000 14.029489 0.623787 -3.708861 -6.194031 1.971083 15.168264 5.170424 9.644990 5.596967 0.000000 0.000000 0.000000 -3.115204 -0.319105 13.702331 -3.956769 1.923328 -5.654243 -8.629336 7.615184 4.180608 10.391364 -3.177481 -19.483704 0.000000 0.000000 0.000000 -16.617746 -20.905867 5.653237 -38.669699 -34.802046 7.005368 16.242737 -20.426596 -2.797759 0.000000 0.000000 0.000000 14.409378 8.222247 5.323721 50.625733 21.583346 3.901356 -20.453862 29.342409 -2.856547 0.000000 0.000000 0.000000 
0.064404 0.943636 1.971106 -5.062970 6.053257 -2.689420 8.662320 -1.023774 -27.573065 -3.586350 -1.406553 48.496070 -0.008585 3.628597 7.936456 0.000000 0.000000 0.000000 13.426805 0.160659 -1.646463 -6.444940 2.069044 15.653072 4.703292 9.066378 4.815402 0.000000 0.000000 0.000000 -3.264531 -0.292641 13.443540 -4.412219 2.119857 -4.746532 -8.447399 9.208131 3.492651 10.529802 -3.065708 -19.518422 0.000000 0.000000 0.000000 -16.346233 -20.241232 4.892257 -39.876777 -35.342289 7.513539 16.744264 -21.406303 -3.172088 0.000000 0.000000 0.000000 14.841496 6.828444 4.958168 50.232924 19.125876 2.753647 -18.733771 28.060757 -2.254449 0.000000 0.000000 0.000000 
0.075362 0.940543 2.006544 -4.556274 6.884079 -2.974287 8.381905 -1.232131 -29.045126 -2.470583 -1.340578 37.004528 -0.235968 4.435083 10.607007 0.000000 0.000000 0.000000 12.164119 -0.457094 1.355434 -5.828934 1.893064 15.658664 3.993386 8.736749 2.691162 0.000000 0.000000 0.000000 -3.189577 -0.339772 14.171676 -4.540121 2.186643 -4.773036 -8.141700 9.400854 3.730968 9.139254 -2.229621 -19.343873 0.000000 0.000000 0.000000 -16.274582 -19.699153 4.510469 -40.443668 -35.271724 7.587729 17.166345 -22.110600 -3.421046 0.000000 0.000000 0.000000 14.984217 6.197337 4.730996 50.379841 16.195270 1.468041 -17.178667 26.489651 -1.794743 0.000000 0.000000 0.000000 
0.088186 0.936072 2.043983 -4.219407 7.503347 -2.427632 7.981034 -1.386580 -29.128298 -0.911535 -0.855237 20.581870 -1.943036 3.675070 15.242232 0.000000 0.000000 0.000000 11.428639 -0.930626 3.637385 -5.377491 1.769998 15.778968 2.679065 6.737213 0.529069 0.000000 0.000000 0.000000 -2.790167 -0.384640 13.988457 -4.327973 2.096468 -4.320258 -8.298013 9.266101 3.387468 8.296737 -1.478973 -20.459801 0.000000 0.000000 0.000000 -16.617827 -18.059259 3.594060 -40.991343 -34.760510 7.592270 17.089382 -21.708275 -3.379509 0.000000 0.000000 0.000000 14.373527 5.060149 4.081184 52.314986 13.362202 0.521847 -16.079105 25.418942 -1.474128 0.000000 0.000000 0.000000 
0.103094 0.930799 2.084693 -3.918984 7.995861 -1.970080 7.996002 -1.324543 -27.523702 -0.692431 -0.137043 5.679076 -4.190384 3.750267 23.590294 0.000000 0.000000 0.000000 10.641138 -1.376095 5.900856 -5.051414 1.690270 16.060263 1.836721 4.951578 -0.202863 0.000000 0.000000 0.000000 -2.562544 -0.404282 13.764371 -4.499243 2.171525 -4.646286 -8.140451 9.418712 2.570266 7.803175 -1.191434 -20.249051 0.000000 0.000000 0.000000 -16.713779 -18.509207 3.704286 -40.275800 -34.304200 7.378904 15.729863 -19.080663 -2.697880 0.000000 0.000000 0.000000 16.093448 3.286445 3.418655 51.969185 11.696081 -0.287336 -13.376674 23.610649 -0.919675 0.000000 0.000000 0.000000 
0.120391 0.925387 2.128969 -3.928242 8.525518 -2.329891 7.197930 -1.411199 -25.910467 -0.516342 -0.030889 2.288986 -5.254958 3.529999 26.486558 0.000000 0.000000 0.000000 9.801794 -2.179081 10.022988 -4.762913 1.551125 15.057528 1.563828 4.209149 -0.114052 0.000000 0.000000 0.000000 -2.492177 -0.456706 14.459403 -4.254678 2.078641 -5.914048 -7.153930 8.463014 3.742223 6.911135 -0.846209 -19.915545 0.000000 0.000000 0.000000 -16.409789 -18.332124 3.941469 -40.251346 -34.888983 7.365021 15.747834 -15.738694 -2.169454 0.000000 0.000000 0.000000 17.257339 2.882748 3.207867 53.198212 10.137247 -1.137528 -13.741061 23.219998 -0.958749 0.000000 0.000000 0.000000 
0.140071 0.922418 2.176615 -3.559976 9.383483 -2.190834 5.451064 -1.866287 -26.554538 -0.140864 -0.311099 7.435485 -5.488123 2.818366 25.038660 0.000000 0.000000 0.000000 8.688287 -2.619202 12.631459 -4.888292 1.625271 16.249673 1.875726 4.130518 1.743056 0.000000 0.000000 0.000000 -2.715547 -0.395886 13.391767 -4.045899 1.999625 -5.232298 -6.167993 7.311717 4.003299 5.293305 0.004475 -20.170796 0.000000 0.000000 0.000000 -17.695695 -18.413667 4.122343 -39.146929 -35.259397 7.301687 15.742889 -12.761910 -1.723296 0.000000 0.000000 0.000000 18.166780 2.676565 2.997025 54.924316 8.997636 -1.655796 -13.399382 21.767482 -0.865794 0.000000 0.000000 0.000000 
0.161874 0.924720 2.226899 -3.420560 9.270983 -1.817303 4.338819 -2.012081 -25.809771 -0.009313 -0.570122 11.635752 -5.089690 1.792795 21.222503 0.000000 0.000000 0.000000 6.679796 -2.563542 13.685600 -4.774490 1.750824 19.446844 4.442418 7.716488 6.714826 0.000000 0.000000 0.000000 -3.039870 -0.261439 10.911646 -3.329297 1.673816 -3.815790 -5.238026 6.978832 4.351548 4.311706 0.369708 -19.310990 0.000000 0.000000 0.000000 -18.256462 -19.368433 4.729491 -38.407967 -34.352069 6.881294 15.608499 -10.300501 -1.371303 0.000000 0.000000 0.000000 18.372935 2.394696 2.759672 56.807053 8.822464 -1.721577 -11.175194 22.440312 -0.567644 0.000000 0.000000 0.000000 
0.184067 0.931577 2.277759 -2.695176 8.997413 -1.685054 2.490451 -2.101811 -23.517321 0.023977 -0.677387 13.304698 -4.104695 2.139890 18.765483 0.000000 0.000000 0.000000 3.900913 -1.904420 12.122780 -3.957549 1.738762 25.976088 8.293269 10.407519 15.877486 0.000000 0.000000 0.000000 -3.925197 -0.152470 9.980908 -3.382192 1.710149 -4.931121 -3.341173 6.450026 5.563284 3.147018 0.923700 -19.345447 0.000000 0.000000 0.000000 -20.200483 -18.800282 4.660424 -36.769490 -33.413064 6.236782 14.796168 -11.123487 -1.317083 0.000000 0.000000 0.000000 18.068803 2.508144 2.569486 58.500881 8.733577 -1.762838 -7.811451 22.303891 -0.081874 0.000000 0.000000 0.000000 
0.204345 0.936925 2.325686 -2.074205 9.101990 -2.188306 0.545920 -1.939620 -19.342553 0.337120 -0.740230 13.169083 -3.352050 1.727224 15.100613 0.000000 0.000000 0.000000 1.938423 -1.219950 9.058855 -4.365752 2.088423 34.678894 13.112040 12.500137 26.148014 0.000000 0.000000 0.000000 -4.395907 -0.120427 9.917964 -2.757927 1.448430 -4.730469 -3.029842 5.581829 4.618169 2.986305 0.848909 -18.878406 0.000000 0.000000 0.000000 -20.213467 -18.382414 4.668469 -37.008942 -33.583604 6.372127 13.309308 -11.545050 -1.165409 0.000000 0.000000 0.000000 17.335270 3.160781 2.622360 61.250253 9.288840 -1.205186 -6.553318 22.777081 0.078108 0.000000 0.000000 0.000000 
0.221258 0.940912 2.369551 -1.762685 10.055563 -2.639768 -0.684148 -1.599063 -15.123622 0.319321 -0.681503 12.058053 -3.288729 0.567475 12.132282 0.000000 0.000000 0.000000 1.393761 -0.534182 4.263453 -4.572350 2.090111 44.600257 14.337960 11.643743 30.591619 0.000000 0.000000 0.000000 -4.703362 -0.108939 9.688558 -2.233367 1.232599 -4.419055 -2.585601 3.379227 4.523615 2.886999 0.716514 -18.996446 0.000000 0.000000 0.000000 -20.487930 -19.000330 5.577868 -35.305962 -33.549733 5.904146 13.025919 -11.598278 -1.075270 0.000000 0.000000 0.000000 17.562829 4.499668 2.963604 61.751458 10.165871 -0.787678 -5.342889 24.038885 0.231140 0.000000 0.000000 0.000000 
0.234992 0.944935 2.410607 -1.771080 10.710953 -3.883110 -1.702434 -1.113620 -10.372982 1.110920 -0.782091 11.117387 -3.266715 -0.485284 9.857461 0.000000 0.000000 0.000000 1.421683 -0.014301 0.119108 -5.099502 2.179467 51.976214 12.767127 11.956418 25.660610 0.000000 0.000000 0.000000 -5.014484 -0.119488 10.007309 -1.699136 0.993830 -3.734756 -2.269251 1.523190 4.804288 2.703146 0.634453 -18.994544 0.000000 0.000000 0.000000 -20.456682 -18.684408 5.917986 -33.662430 -34.433346 5.665386 12.945448 -11.114949 -0.979119 0.000000 0.000000 0.000000 16.846074 5.882057 3.280240 62.640976 11.724443 0.077179 -4.424089 25.579448 0.365290 0.000000 0.000000 0.000000 
0.246303 0.948956 2.449798 -2.229880 11.824761 -4.904772 -1.578902 -0.600106 -6.043666 1.242301 -0.729898 9.918062 -3.644982 -1.867474 8.368967 0.000000 0.000000 0.000000 2.667768 0.571435 -4.464147 -5.308161 1.824130 56.133665 9.008015 10.979720 16.371432 0.000000 0.000000 0.000000 -4.984428 -0.153539 10.135886 -1.031868 0.738251 -4.162687 -2.212902 0.299007 5.871397 3.634988 -0.169229 -17.553383 0.000000 0.000000 0.000000 -20.049661 -19.179302 6.396526 -32.993332 -35.378825 5.638605 13.802674 -10.869964 -1.029027 0.000000 0.000000 0.000000 17.514171 5.550122 3.046839 62.329967 12.586141 0.341884 -4.962432 26.835472 0.285485 0.000000 0.000000 0.000000 
0.255711 0.951638 2.487224 -3.283207 13.304359 -5.724521 -0.992594 -0.207001 -2.371764 2.117312 -0.811015 8.865047 -4.144689 -3.483076 6.991607 0.000000 0.000000 0.000000 3.632375 1.146899 -8.783879 -4.474829 0.676109 55.630117 6.269868 8.895322 10.925813 0.000000 0.000000 0.000000 -4.538619 -0.214269 10.202117 -0.366340 0.446351 -3.760136 -2.373833 -1.306553 6.448080 4.550736 -0.828392 -17.535636 0.000000 0.000000 0.000000 -18.775860 -19.382600 6.723391 -32.697985 -36.407121 5.700334 14.502101 -13.046276 -1.299780 0.000000 0.000000 0.000000 17.962504 5.912616 3.098987 61.383677 12.488999 0.139706 -5.476840 29.457039 0.181370 0.000000 0.000000 0.000000 
0.263366 0.953837 2.523261 -4.221165 14.766440 -6.039331 -0.198214 0.054659 0.826010 2.827958 -0.803721 7.376311 -4.736844 -4.970978 6.222522 0.000000 0.000000 0.000000 4.638974 1.701462 -12.893545 -3.463438 -0.183419 50.530216 3.940965 5.723366 8.030948 0.000000 0.000000 0.000000 -4.834928 -0.230884 10.595771 1.018294 -0.165358 -3.661338 -3.180558 -1.739732 6.354453 4.795621 -0.999091 -16.980250 0.000000 0.000000 0.000000 -17.752725 -19.478032 6.566946 -33.631842 -37.271033 6.178370 16.088669 -13.672599 -1.594807 0.000000 0.000000 0.000000 18.583343 5.737090 3.160160 60.639458 12.471906 0.072330 -6.552467 31.320146 -0.025880 0.000000 0.000000 0.000000 
0.269625 0.954252 2.558963 -4.933390 15.612523 -6.151513 0.922905 0.177574 3.569573 2.776808 -0.707980 6.376734 -5.002026 -5.916523 5.510417 0.000000 0.000000 0.000000 5.160565 2.097689 -16.160960 -2.556898 -0.259849 41.826766 2.190808 2.794895 6.520654 0.000000 0.000000 0.000000 -4.664106 -0.259547 10.756030 1.074363 -0.182492 -3.629642 -3.109854 -2.329565 6.547418 4.354306 -0.797914 -16.623957 0.000000 0.000000 0.000000 -17.331710 -19.594649 6.663021 -34.559978 -37.503838 6.423919 15.974749 -15.836750 -1.826940 0.000000 0.000000 0.000000 17.698182 6.000238 3.217130 60.421520 11.931864 -0.186049 -6.336737 33.078304 0.033936 0.000000 0.000000 0.000000 
0.274392 0.952360 2.595212 -5.131951 16.036809 -5.793529 1.745153 0.226549 6.055283 2.471661 -0.574189 5.289008 -5.009911 -6.484719 4.736396 0.000000 0.000000 0.000000 4.987823 2.225934 -17.915466 -0.904451 -0.120339 27.473742 0.411769 -0.955540 7.067065 0.000000 0.000000 0.000000 -4.901320 -0.268653 11.433336 1.326603 -0.220575 -4.532719 -3.860366 -2.890892 6.512635 3.738430 -0.343701 -17.316028 0.000000 0.000000 0.000000 -16.992909 -19.241851 6.505863 -36.673447 -37.973713 7.078315 16.307806 -16.547651 -1.961720 0.000000 0.000000 0.000000 16.961318 6.178077 3.234792 60.996048 11.398905 -0.395114 -8.243259 34.808697 -0.485780 0.000000 0.000000 0.000000 
0.277489 0.948209 2.633153 -4.744788 15.917064 -4.771900 1.916930 0.273232 7.889144 2.314617 -0.504237 4.662938 -4.678075 -6.509052 3.876483 0.000000 0.000000 0.000000 4.948342 2.315751 -19.124522 -0.206452 0.155527 13.105762 0.526269 -2.284041 14.734587 0.000000 0.000000 0.000000 -4.941431 -0.247116 11.510211 0.618757 0.182669 -5.862459 -4.904497 -3.141226 7.042111 4.839012 -1.020442 -17.397982 0.000000 0.000000 0.000000 -17.052597 -18.765728 6.303814 -38.446250 -37.579224 7.345084 15.888432 -18.678146 -2.142318 0.000000 0.000000 0.000000 18.209381 6.222536 3.358763 60.102201 11.448987 -0.527167 -10.645890 36.540886 -1.187802 0.000000 0.000000 0.000000 
0.278711 0.942454 2.673416 -4.066363 15.492151 -3.785778 1.835430 0.343791 9.662565 2.145361 -0.496481 4.859528 -4.036606 -6.148750 2.736267 0.000000 0.000000 0.000000 5.792667 2.480444 -19.386194 -0.738564 0.284432 7.352170 1.322766 -2.009313 19.672837 0.000000 0.000000 0.000000 -5.524728 -0.170336 11.172632 0.003257 0.400509 -5.366185 -5.510546 -3.189384 5.805285 4.763737 -0.920921 -17.755064 0.000000 0.000000 0.000000 -18.559728 -17.095913 5.467866 -40.707712 -35.775344 7.430926 15.914274 -20.823450 -2.416018 0.000000 0.000000 0.000000 19.250804 6.238328 3.339106 59.314759 11.715014 -0.331810 -15.905386 37.217907 -2.861450 0.000000 0.000000 0.000000 
0.278534 0.935915 2.717458 -3.892302 16.139745 -3.302567 2.428327 0.268977 10.508063 2.221324 -0.700078 7.323250 -3.692417 -5.927076 2.090890 0.000000 0.000000 0.000000 7.304472 2.670740 -19.142820 -2.137288 0.586961 8.818258 0.931895 -2.364564 18.970366 0.000000 0.000000 0.000000 -5.991801 -0.134335 11.134894 -0.132736 0.490631 -5.749513 -6.679049 -3.231012 5.050552 6.278446 -1.963515 -16.467117 0.000000 0.000000 0.000000 -19.695277 -16.874692 5.136025 -42.519779 -32.689740 6.884449 13.509799 -21.479496 -2.060961 0.000000 0.000000 0.000000 19.901347 4.982498 2.794408 58.556840 12.114049 -0.109762 -18.552030 37.247124 -3.611742 0.000000 0.000000 0.000000 
0.277621 0.932427 2.766330 -4.298225 16.674978 -2.657252 3.588443 0.089886 10.506745 2.557660 -1.082336 10.876280 -3.956053 -5.095497 3.817755 0.000000 0.000000 0.000000 8.351638 2.775889 -18.867152 -1.824006 0.543064 11.807545 0.209993 -2.907633 15.777710 0.000000 0.000000 0.000000 -5.685355 -0.119236 9.836729 -0.170780 0.417397 -4.314117 -7.300657 -3.612214 3.710022 7.146527 -2.602421 -15.652376 0.000000 0.000000 0.000000 -21.560772 -14.297176 3.618851 -44.550104 -27.883882 5.651451 10.512454 -21.037237 -1.458042 0.000000 0.000000 0.000000 20.389717 4.742238 2.620787 56.899461 12.182496 -0.004336 -20.269701 36.768040 -4.144870 0.000000 0.000000 0.000000 
0.276644 0.933456 2.818466 -5.104240 16.206597 -2.077151 5.581159 -0.174952 8.471474 1.625809 -1.692131 18.443347 -4.844663 -3.528256 8.523652 0.000000 0.000000 0.000000 10.602973 2.936889 -17.667709 -2.086153 0.623970 14.086054 -0.085453 -2.823920 12.017649 0.000000 0.000000 0.000000 -4.821496 -0.106319 7.743565 0.262143 0.231240 -4.453838 -7.998706 -2.791486 3.620783 7.005979 -2.472937 -15.332159 0.000000 0.000000 0.000000 -23.048770 -11.788957 1.807572 -45.676368 -21.715650 3.608996 8.662496 -19.578226 -1.066637 0.000000 0.000000 0.000000 19.062260 4.632829 2.721571 55.520105 11.802809 -0.180311 -19.386203 34.184958 -3.491297 0.000000 0.000000 0.000000 
0.275888 0.936782 2.868580 -5.715992 15.010130 -2.462358 7.586294 -0.345141 3.462749 -0.797708 -2.625142 32.188092 -6.921231 -2.950484 15.764626 0.000000 0.000000 0.000000 12.504939 2.558242 -13.726398 -2.078064 0.647216 13.393691 0.206072 -1.877073 9.589461 0.000000 0.000000 0.000000 -3.627401 -0.146104 7.038909 -0.920792 0.714216 -4.203131 -7.305932 -0.886895 3.086590 6.751312 -2.296161 -14.712786 0.000000 0.000000 0.000000 -23.829123 -10.591974 0.644641 -45.467374 -16.304799 1.726354 5.258289 -18.033636 -0.453206 0.000000 0.000000 0.000000 17.158319 3.555395 2.278481 54.770900 11.064846 -0.421156 -16.958533 32.508392 -2.572612 0.000000 0.000000 0.000000 
0.275578 0.938733 2.913546 -6.080422 13.851821 -3.438925 9.079869 -0.423262 -4.324534 -4.109065 -3.161747 48.152974 -7.925537 -0.683463 24.474302 0.000000 0.000000 0.000000 14.020758 1.845126 -9.195369 -2.321279 0.720668 12.372384 0.576777 -0.750168 7.693401 0.000000 0.000000 0.000000 -3.129349 -0.186834 7.372182 -1.177040 0.876277 -5.380062 -7.230219 1.390012 4.600152 8.486154 -3.127352 -15.392368 0.000000 0.000000 0.000000 -23.338849 -8.835150 -0.827260 -45.837803 -12.001133 0.133490 3.933327 -16.460316 -0.260397 0.000000 0.000000 0.000000 17.132543 3.426384 2.638081 50.870072 12.362313 -0.249769 -15.089240 28.650240 -1.714840 0.000000 0.000000 0.000000 
0.276150 0.940836 2.954474 -5.664863 12.083484 -4.054806 8.503569 -0.565650 -11.632726 -5.994494 -2.819281 58.377636 -5.801809 1.779137 25.017186 0.000000 0.000000 0.000000 14.307456 0.919109 -4.728813 -2.474855 0.757332 10.804800 1.358854 1.181109 6.433975 0.000000 0.000000 0.000000 -3.323526 -0.187392 7.782586 -1.890252 1.173049 -5.896954 -6.438233 3.492972 4.866246 9.398572 -3.928129 -14.057565 0.000000 0.000000 0.000000 -22.349629 -7.816597 -1.510203 -46.044379 -8.916767 -1.050792 1.345833 -17.198346 0.088098 0.000000 0.000000 0.000000 16.000835 2.614150 2.324183 49.901167 14.109548 0.424344 -14.388059 25.986400 -1.336630 0.000000 0.000000 0.000000 
0.277830 0.944730 2.993827 -4.974416 9.884175 -4.397947 7.609541 -0.902170 -18.439308 -6.993854 -1.600443 62.260623 -2.019228 3.603640 16.472221 0.000000 0.000000 0.000000 13.921591 0.093729 -1.052964 -2.815095 0.847141 10.195542 2.637740 3.965259 6.165862 0.000000 0.000000 0.000000 -3.740602 -0.152318 7.586903 -2.758973 1.494246 -5.484601 -5.245124 5.817181 4.586188 10.166509 -4.434268 -13.737824 0.000000 0.000000 0.000000 -21.315890 -6.789003 -2.112578 -46.406770 -6.752760 -1.872158 1.114111 -18.324012 0.072839 0.000000 0.000000 0.000000 15.754460 2.613103 2.459047 48.484965 16.229206 1.176139 -14.902230 23.729257 -1.257356 0.000000 0.000000 0.000000 
0.281040 0.947609 3.032421 -4.059615 8.519747 -5.399364 6.503801 -1.332555 -23.487712 -6.220286 -1.384791 59.951819 0.808386 5.114151 8.011425 0.000000 0.000000 0.000000 12.897126 -0.872197 3.434382 -3.137438 0.885779 9.071732 3.791566 6.404510 6.305490 0.000000 0.000000 0.000000 -4.103647 -0.141985 7.753048 -3.264505 1.698679 -5.803126 -3.870604 7.064018 4.842630 10.277016 -4.700650 -12.965064 0.000000 0.000000 0.000000 -21.177147 -5.767269 -2.638238 -46.423830 -4.610906 -2.737553 -0.483638 -20.164868 0.333111 0.000000 0.000000 0.000000 14.995740 2.950704 2.573531 47.370069 18.277697 1.935103 -14.897370 23.066510 -1.228629 0.000000 0.000000 0.000000 
0.286249 0.949264 3.070812 -3.198071 6.285673 -5.936564 5.603173 -1.592994 -26.385025 -4.466262 -1.189667 51.406418 0.154026 4.179008 8.660919 0.000000 0.000000 0.000000 11.858959 -1.628374 7.166523 -4.004927 1.067524 8.857633 4.948043 9.157390 5.761580 0.000000 0.000000 0.000000 -3.971263 -0.128226 6.986244 -3.795704 1.890620 -4.743047 -3.163316 8.486391 4.614298 9.349011 -4.050091 -12.987236 0.000000 0.000000 0.000000 -20.720107 -5.309019 -2.745924 -47.338272 -3.664006 -3.245143 -0.166195 -20.782377 0.272941 0.000000 0.000000 0.000000 14.758829 3.374460 2.752640 47.744092 21.800192 3.476461 -15.455890 22.605918 -1.294742 0.000000 0.000000 0.000000 
0.293319 0.946584 3.109769 -2.577814 4.290664 -6.506382 4.807297 -1.679938 -27.015535 -2.690490 -0.991829 39.080403 -1.069830 2.389141 9.649680 0.000000 0.000000 0.000000 10.398145 -2.227239 10.746118 -4.460062 1.144761 8.471713 6.316169 12.393892 5.427973 0.000000 0.000000 0.000000 -3.656460 -0.135214 6.783933 -3.572587 1.770443 -4.247124 -2.491096 9.236828 4.588252 8.796488 -3.867317 -12.318274 0.000000 0.000000 0.000000 -20.223410 -4.460875 -2.933380 -48.668231 -2.968511 -3.743863 0.343201 -21.219511 0.182052 0.000000 0.000000 0.000000 14.216644 3.876932 2.847936 49.804015 24.461022 5.063657 -17.309604 23.526281 -1.674013 0.000000 0.000000 0.000000 
0.301702 0.939948 3.149966 -2.559707 1.894834 -6.646257 5.092177 -1.390317 -26.148917 -1.402610 -0.575441 24.200866 -2.495414 0.715655 11.822470 0.000000 0.000000 0.000000 9.556309 -2.624841 13.451780 -4.854842 1.274272 9.018841 6.810113 14.334190 4.179999 0.000000 0.000000 0.000000 -2.335017 -0.171171 6.331276 -3.951470 1.910943 -3.988912 -1.493240 10.053645 4.276891 7.524206 -3.025656 -12.400975 0.000000 0.000000 0.000000 -20.420143 -3.673260 -3.187696 -49.543207 -1.975933 -4.303540 0.239030 -20.592163 0.233583 0.000000 0.000000 0.000000 13.917957 3.707565 2.599726 52.328898 25.917339 6.317513 -18.723667 26.265235 -2.192561 0.000000 0.000000 0.000000 
0.311200 0.931037 3.192664 -2.633503 0.025448 -6.800785 6.082033 -0.954778 -24.401842 -1.471605 -0.072645 10.497067 -2.529102 1.229599 13.697333 0.000000 0.000000 0.000000 8.361870 -2.888856 16.072131 -5.009381 1.389858 9.918845 7.464026 16.691901 3.157647 0.000000 0.000000 0.000000 -1.312340 -0.196588 5.976172 -3.100177 1.508958 -3.745302 -1.605692 11.045938 4.180645 8.299014 -3.514645 -12.550217 0.000000 0.000000 0.000000 -20.202256 -3.035151 -3.455372 -50.787040 -0.220563 -5.241553 0.675364 -20.128350 0.153184 0.000000 0.000000 0.000000 16.357935 2.688041 2.277951 53.003875 26.425348 6.523289 -17.949596 29.481981 -2.326172 0.000000 0.000000 0.000000 
0.321882 0.920224 3.238114 -2.581532 -2.191394 -6.800654 6.985092 -0.602280 -24.092004 -1.838381 0.158321 3.219460 -1.527026 3.612747 16.948337 0.000000 0.000000 0.000000 7.093476 -3.072101 18.951990 -6.011614 1.710118 11.009276 7.618631 19.082704 0.965036 0.000000 0.000000 0.000000 -0.297114 -0.204946 5.298642 -3.597606 1.739409 -1.873793 -1.256640 12.268783 2.607860 8.188388 -3.660573 -11.470194 0.000000 0.000000 0.000000 -21.433775 -2.302396 -4.136502 -49.221063 2.123444 -5.783244 -0.422348 -18.949129 0.342607 0.000000 0.000000 0.000000 19.369290 1.998655 2.073687 53.939290 24.219928 5.548549 -16.912400 33.204082 -2.413578 0.000000 0.000000 0.000000 
0.334224 0.908498 3.287186 -2.371177 -4.126372 -6.267611 6.288087 -0.634070 -23.950960 -1.322543 0.101207 2.832497 0.468273 5.423069 13.674334 0.000000 0.000000 0.000000 5.149027 -2.783533 20.080104 -5.336889 1.834030 13.499076 7.611076 18.554801 1.312117 0.000000 0.000000 0.000000 1.146597 -0.222415 4.711000 -4.334666 2.032307 -3.165089 -1.146749 12.508996 3.991594 8.524890 -4.313698 -10.043147 0.000000 0.000000 0.000000 -22.034981 -1.576531 -4.358844 -49.139811 3.335970 -6.434885 -0.513336 -16.526545 0.384127 0.000000 0.000000 0.000000 22.782071 0.161030 1.006499 53.427754 22.592410 4.313663 -11.465612 33.138890 -1.040231 0.000000 0.000000 0.000000 
0.348057 0.901356 3.340073 -2.101041 -6.921920 -6.869194 6.428175 -0.394634 -21.884300 -2.113250 0.233047 3.063284 0.344710 5.762815 17.357445 0.000000 0.000000 0.000000 3.189889 -2.553061 23.426020 -7.006405 2.315130 14.004822 9.776510 20.150371 4.703585 0.000000 0.000000 0.000000 0.582179 -0.220056 5.147904 -4.457117 1.970674 -5.525603 0.960861 13.946017 7.848812 9.581893 -4.101011 -14.631616 0.000000 0.000000 0.000000 -23.650122 -2.486052 -3.971933 -47.486975 4.894142 -6.966933 -2.188691 -16.451629 0.676357 0.000000 0.000000 0.000000 22.382580 -0.033735 0.886381 56.562798 20.109387 3.193423 -10.525784 33.754170 -0.681574 0.000000 0.000000 0.000000 
0.363383 0.899675 3.395360 -1.705454 -7.557933 -5.966023 4.491271 -0.809918 -22.865196 -1.248636 0.040999 8.460191 -0.143357 5.652754 20.440192 0.000000 0.000000 0.000000 0.741189 -1.839854 21.833048 -5.780891 2.647919 19.018218 12.894347 17.838674 14.058681 0.000000 0.000000 0.000000 1.619971 -0.173772 3.520602 -6.357569 2.871412 -4.166818 1.196875 12.656245 6.797891 8.269958 -3.639705 -13.290009 0.000000 0.000000 0.000000 -20.901970 -0.816303 -3.836656 -50.240745 4.250417 -7.404077 0.660999 -14.246303 0.269915 0.000000 0.000000 0.000000 23.563560 -0.319495 0.252993 58.087515 14.397061 0.589160 -8.151052 32.222486 -0.195451 0.000000 0.000000 0.000000 
