HIERARCHY
ROOT Hips
{
	OFFSET -0.001795 -0.223333 0.028219
	CHANNELS 6 Xposition Yposition Zposition Zrotation Yrotation Xrotation 
	JOINT LeftUpLeg
	{
		OFFSET 0.069520 -0.091406 -0.006815
		CHANNELS 3 Zrotation Yrotation Xrotation
		JOINT LeftLeg
		{
			OFFSET 0.034277 -0.375199 -0.004496
			CHANNELS 3 Zrotation Yrotation Xrotation
			JOINT LeftFoot
			{
				OFFSET -0.013596 -0.397961 -0.043693
				CHANNELS 3 Zrotation Yrotation Xrotation
				JOINT LeftToe
				{
					OFFSET 0.026358 -0.055791 0.119288
					CHANNELS 3 Zrotation Yrotation Xrotation
					End Site
					{
						OFFSET 0.000000 0.000000 0.000000
					}
				}
			}
		}
	}
	JOINT RightUpLeg
	{
		OFFSET -0.067670 -0.090522 -0.004320
		CHANNELS 3 Zrotation Yrotation Xrotation
		JOINT RightLeg
		{
			OFFSET -0.038290 -0.382569 -0.008850
			CHANNELS 3 Zrotation Yrotation Xrotation
			JOINT RightFoot
			{
				OFFSET 0.015774 -0.398415 -0.042312
				CHANNELS 3 Zrotation Yrotation Xrotation
				JOINT RightToe
				{
					OFFSET -0.025372 -0.048144 0.123348
					CHANNELS 3 Zrotation Yrotation Xrotation
					End Site
					{
						OFFSET 0.000000 0.000000 0.000000
					}
				}
			}
		}
	}
	JOINT Spine
	{
		OFFSET -0.002533 0.108963 -0.026696
		CHANNELS 3 Zrotation Yrotation Xrotation
		JOINT Spine1
		{
			OFFSET 0.005487 0.135180 0.001092
			CHANNELS 3 Zrotation Yrotation Xrotation
			JOINT Spine2
			{
				OFFSET 0.001457 0.052922 0.025425
				CHANNELS 3 Zrotation Yrotation Xrotation
				JOINT Neck
				{
					OFFSET -0.002778 0.213870 -0.042857
					CHANNELS 3 Zrotation Yrotation Xrotation
					JOINT Head
					{
						OFFSET 0.005152 0.064970 0.051349
						CHANNELS 3 Zrotation Yrotation Xrotation
						End Site
						{
							OFFSET 0.000000 0.000000 0.000000
						}
					}
				}
				JOINT LeftShoulder
				{
					OFFSET 0.078845 0.121749 -0.034090
					CHANNELS 3 Zrotation Yrotation Xrotation
					JOINT LeftArm
					{
						OFFSET 0.090977 0.030469 -0.008868
						CHANNELS 3 Zrotation Yrotation Xrotation
						JOINT LeftForeArm
						{
							OFFSET 0.259612 -0.012772 -0.027456
							CHANNELS 3 Zrotation Yrotation Xrotation
							JOINT LeftHand
							{
								OFFSET 0.249234 0.008986 -0.001171
								CHANNELS 3 Zrotation Yrotation Xrotation
								End Site
								{
									OFFSET 0.000000 0.000000 0.000000
								}
							}
						}
					}
				}
				JOINT RightShoulder
				{
					OFFSET -0.081759 0.118833 -0.038615
					CHANNELS 3 Zrotation Yrotation Xrotation
					JOINT RightArm
					{
						OFFSET -0.096012 0.032551 -0.009143
						CHANNELS 3 Zrotation Yrotation Xrotation
						JOINT RightForeArm
						{
							OFFSET -0.253742 -0.013329 -0.021401
							CHANNELS 3 Zrotation Yrotation Xrotation
							JOINT RightHand
							{
								OFFSET -0.255298 0.007772 -0.005559
								CHANNELS 3 Zrotation Yrotation Xrotation
								End Site
								{
									OFFSET 0.000000 0.000000 0.000000
								}
							}
						}
					}
				}
			}
		}
	}
}
MOTION
Frames: 144
Frame Time: 0.050000
0.000000 0.910754 0.000000 -0.185706 0.761308 -12.620786 -3.105587 -1.712056 -13.818383 -2.259653 -0.270494 28.042375 4.515992 11.601993 10.165948 0.000000 0.000000 0.000000 -3.475347 0.360161 -5.362542 -0.424237 2.983192 60.107188 4.070330 5.139216 7.953019 0.000000 0.000000 0.000000 -7.563904 0.342479 21.938232 11.673298 -3.339620 -18.249809 -0.763986 5.312435 25.782941 3.520320 -1.633469 -8.584782 0.000000 0.000000 0.000000 -27.959796 5.455336 -7.235910 -49.294002 16.690437 -14.159870 -6.576709 -25.472006 2.568940 0.000000 0.000000 0.000000 20.510689 1.145934 1.036419 52.731235 -9.188672 -11.842167 4.751295 29.037212 2.843147 0.000000 0.000000 0.000000 
-0.015233 0.897745 -0.062791 -0.547762 1.079930 -12.119020 -0.292934 -1.743693 -17.814222 -3.909230 0.297116 27.312077 2.795004 8.547475 9.085756 0.000000 0.000000 0.000000 -2.538389 0.191940 -2.590727 -1.578144 4.139355 66.543072 8.469246 4.430210 24.724027 0.000000 0.000000 0.000000 -8.180699 0.357629 19.496601 13.130833 -4.245396 -15.339746 0.525602 7.074149 23.607897 2.825572 -0.428310 -11.114139 0.000000 0.000000 0.000000 -26.554381 6.171801 -8.126742 -48.802957 20.772281 -15.219930 -10.727400 -22.558243 2.934708 0.000000 0.000000 0.000000 18.422843 -0.173305 0.553154 54.419114 -12.235169 -13.005900 8.811944 32.320100 4.449787 0.000000 0.000000 0.000000 
-0.030738 0.890220 -0.130691 0.803760 2.283809 -12.390715 -1.270923 -1.883132 -17.316186 -3.509782 0.173314 20.633109 2.474434 8.089102 9.056457 0.000000 0.000000 0.000000 -2.949781 -0.519648 6.516990 -1.893371 3.321938 57.060777 8.460535 5.339451 23.145203 0.000000 0.000000 0.000000 -5.276435 -0.088003 17.374488 9.364555 -3.247637 -12.068405 -0.546205 4.487425 22.148416 1.054686 0.787576 -12.234121 0.000000 0.000000 0.000000 -27.674955 6.789026 -8.199805 -46.325144 22.229611 -14.852840 -8.438903 -23.787158 2.689731 0.000000 0.000000 0.000000 18.472910 1.820555 1.187923 54.126951 -11.560636 -12.554260 6.985576 31.510385 3.651646 0.000000 0.000000 0.000000 
-0.048194 0.888577 -0.205701 1.343324 1.912228 -12.557631 -1.172405 -2.019355 -18.695481 -2.744334 0.142881 11.649417 2.680964 11.055677 21.025667 0.000000 0.000000 0.000000 -1.047500 -0.949858 10.149558 -4.048594 4.304623 49.823170 7.195406 5.929393 17.849355 0.000000 0.000000 0.000000 -4.623601 -0.158696 19.508190 11.341166 -3.624400 -15.206774 -2.830890 6.962891 23.147561 0.540316 1.282435 -9.780491 0.000000 0.000000 0.000000 -28.203414 9.720766 -10.976231 -45.074341 24.306508 -15.088685 -9.132920 -25.363220 2.927474 0.000000 0.000000 0.000000 20.483091 0.787641 1.295146 50.370687 -11.649236 -12.071829 10.250283 30.916221 4.542074 0.000000 0.000000 0.000000 
-0.066656 0.889917 -0.284896 1.845859 1.807382 -11.338625 -0.125132 -2.029194 -20.619749 -3.650876 0.381217 4.920642 2.368833 11.008737 23.039249 0.000000 0.000000 0.000000 1.113606 -1.095505 9.831365 -4.445946 3.883050 42.409723 2.185348 2.120683 6.089882 0.000000 0.000000 0.000000 -2.392858 -0.489475 20.870143 9.386569 -2.701071 -16.809305 -3.040808 8.045152 23.267027 2.945734 -0.476615 -10.171176 0.000000 0.000000 0.000000 -26.674816 8.890777 -10.335314 -46.821410 22.507344 -15.114918 -9.344990 -25.012886 2.876234 0.000000 0.000000 0.000000 19.460115 -1.903667 0.019483 52.117106 -10.881362 -12.140512 10.570360 29.715421 4.569136 0.000000 0.000000 0.000000 
-0.083700 0.898030 -0.359860 1.470614 3.832926 -11.149931 0.056291 -2.093354 -20.875210 -3.558502 0.311822 7.852319 2.886251 10.462707 15.216407 0.000000 0.000000 0.000000 3.324005 -0.787852 5.985891 -3.354569 2.736720 40.589235 -0.615568 -2.496230 2.132223 0.000000 0.000000 0.000000 -0.528524 -1.037306 24.307497 8.461941 -1.852057 -21.102565 -3.659544 4.802897 25.414534 3.415074 -1.344551 -9.224706 0.000000 0.000000 0.000000 -26.743362 10.187181 -10.418707 -47.624752 20.434918 -14.980695 -9.718994 -24.052404 3.001688 0.000000 0.000000 0.000000 17.982664 -2.159562 -0.503432 53.280005 -10.574811 -12.416359 12.117226 24.802684 3.933733 0.000000 0.000000 0.000000 
-0.099165 0.911981 -0.428097 0.926234 5.854557 -12.299955 0.908109 -1.930123 -20.190508 -5.314966 0.495968 18.519848 5.392922 13.367827 9.862127 0.000000 0.000000 0.000000 3.947419 -0.359248 2.785918 -2.000866 1.611265 39.897447 -0.271726 -2.113527 3.426183 0.000000 0.000000 0.000000 -0.741614 -1.241131 26.461102 8.591099 -1.739938 -22.125773 -2.794279 3.469391 26.417163 2.122630 -0.346750 -9.064367 0.000000 0.000000 0.000000 -27.471839 8.531380 -9.442421 -48.275749 18.577450 -14.650088 -9.327129 -24.276670 2.991069 0.000000 0.000000 0.000000 17.449195 -2.721347 -0.798879 53.333700 -12.212767 -13.241178 11.968562 22.127321 3.402257 0.000000 0.000000 0.000000 
-0.112834 0.928480 -0.492171 0.954018 7.073324 -11.779087 1.426203 -1.740444 -18.956312 -8.929494 1.437309 32.008147 7.133898 15.790164 7.403810 0.000000 0.000000 0.000000 3.760004 0.130351 -0.741957 -2.208466 1.443575 38.288960 0.334275 -1.056595 4.546480 0.000000 0.000000 0.000000 -1.530276 -1.193446 26.982102 9.154861 -1.776304 -23.006726 -3.547643 2.862823 26.839199 1.754535 -0.136107 -8.348463 0.000000 0.000000 0.000000 -27.979605 8.831230 -9.793044 -47.376110 15.196206 -13.102436 -10.824151 -23.438767 3.184134 0.000000 0.000000 0.000000 17.215663 -3.585768 -1.240105 53.043775 -15.685450 -14.570858 16.474039 20.672859 3.955789 0.000000 0.000000 0.000000 
-0.124015 0.940631 -0.554256 0.756119 8.940382 -11.322769 2.011499 -1.403888 -16.196003 -11.345743 2.092264 44.402870 6.138244 14.304464 8.135468 0.000000 0.000000 0.000000 3.883896 0.659009 -4.647156 -2.315749 1.137616 36.761315 0.295049 -2.054366 7.541868 0.000000 0.000000 0.000000 -1.527556 -1.349884 27.379905 8.380248 -1.285288 -25.040204 -3.638818 0.736550 27.956717 1.534449 0.026621 -9.647162 0.000000 0.000000 0.000000 -27.748558 10.096618 -10.151393 -47.404522 13.640394 -12.702204 -11.671450 -25.931781 3.822492 0.000000 0.000000 0.000000 14.835177 -4.663705 -1.905607 55.555897 -18.174184 -16.275695 19.130462 18.586340 3.965342 0.000000 0.000000 0.000000 
-0.132401 0.945956 -0.615683 0.510832 9.675214 -10.831150 2.364134 -0.689911 -8.904120 -11.886305 2.068276 51.625728 3.266165 9.664844 8.870951 0.000000 0.000000 0.000000 3.986030 1.197415 -8.888622 -2.479915 1.082986 35.803607 0.487032 -2.225843 9.677552 0.000000 0.000000 0.000000 0.023481 -1.633378 26.182413 7.478727 -0.952278 -25.501875 -4.991530 -0.657608 29.111437 0.805257 0.607011 -10.718078 0.000000 0.000000 0.000000 -29.449747 9.729581 -10.084634 -45.119956 10.706467 -11.104361 -11.832383 -26.878967 4.052896 0.000000 0.000000 0.000000 14.405041 -5.479724 -2.397913 56.498940 -20.671704 -17.738047 21.527210 18.308937 4.331486 0.000000 0.000000 0.000000 
-0.139351 0.944731 -0.677602 0.107749 8.609505 -9.981103 1.441268 -0.077392 -0.781373 -10.707178 1.708154 52.442730 0.860219 5.536010 8.888037 0.000000 0.000000 0.000000 4.203064 1.776627 -13.585963 -2.160297 1.115468 34.429299 0.534861 -2.907190 11.999996 0.000000 0.000000 0.000000 0.957937 -1.555117 23.756581 7.314752 -1.046767 -24.039946 -6.249892 -1.165784 28.804856 0.395831 0.891086 -11.586266 0.000000 0.000000 0.000000 -29.839346 10.128747 -10.138311 -44.254562 9.269500 -10.392687 -12.714443 -28.816838 4.634830 0.000000 0.000000 0.000000 14.345295 -5.512415 -2.576436 58.217552 -21.432668 -18.603420 20.862758 17.240423 3.925010 0.000000 0.000000 0.000000 
-0.145843 0.936268 -0.741893 -0.063326 8.025176 -9.982454 -0.730645 0.610523 7.224995 -6.101620 -0.591105 48.474288 -2.984791 0.079524 11.372815 0.000000 0.000000 0.000000 4.215693 2.265150 -17.807928 -2.702710 1.451822 33.459069 1.556247 -1.899531 14.756801 0.000000 0.000000 0.000000 1.474943 -1.637069 23.948811 5.774932 -0.750066 -22.381918 -5.246869 -3.322739 27.677238 -1.412065 2.006874 -12.109458 0.000000 0.000000 0.000000 -29.426559 8.904545 -8.316813 -45.342862 7.086885 -10.078880 -11.315284 -30.198906 4.662037 0.000000 0.000000 0.000000 12.262564 -6.142371 -3.155369 60.313346 -22.975775 -20.023925 21.347657 18.251431 4.165958 0.000000 0.000000 0.000000 
-0.152299 0.924231 -0.810863 -0.447760 7.742059 -10.221152 -2.376686 1.225678 12.963751 -1.595047 -2.037910 38.259767 -5.359502 -5.198159 8.969478 0.000000 0.000000 0.000000 5.177844 2.747260 -20.468152 -3.663553 1.831913 30.643955 0.954432 -3.055239 15.069396 0.000000 0.000000 0.000000 1.236696 -1.687664 25.025530 7.510620 -1.236856 -22.819149 -7.340360 -3.718947 27.791733 -1.470221 1.961127 -11.676012 0.000000 0.000000 0.000000 -28.278708 10.061458 -8.644086 -44.738193 5.222377 -9.353678 -13.556714 -30.649482 5.390118 0.000000 0.000000 0.000000 13.241847 -5.872122 -3.179777 62.683426 -22.258274 -20.600629 17.734025 18.908637 3.725095 0.000000 0.000000 0.000000 
-0.159370 0.912093 -0.884987 -0.958707 8.789849 -9.935140 -2.474744 1.339547 14.665481 2.115929 -2.894817 30.338046 -4.450035 -8.418543 1.336280 0.000000 0.000000 0.000000 4.285180 2.953844 -24.519707 -3.386440 1.534313 26.291181 2.351637 -1.973390 20.247020 0.000000 0.000000 0.000000 -0.530609 -1.635840 27.887968 7.452932 -1.084879 -24.024558 -6.295063 -5.775064 29.258298 -1.035769 1.548280 -16.418165 0.000000 0.000000 0.000000 -27.557014 8.630223 -6.873867 -44.851551 2.400577 -8.787252 -11.871310 -32.961952 5.518950 0.000000 0.000000 0.000000 13.085084 -6.289892 -3.587490 63.802169 -21.725600 -21.014701 18.109210 23.619437 4.849698 0.000000 0.000000 0.000000 
-0.165180 0.908505 -0.961915 -1.573720 7.179380 -9.937401 -2.519422 0.968388 9.765383 1.211352 -2.539595 31.522596 -1.495319 -4.674155 -2.321003 0.000000 0.000000 0.000000 3.085172 2.985498 -26.766048 -1.417196 0.916730 23.041857 3.871100 -0.185820 21.435776 0.000000 0.000000 0.000000 -2.759938 -1.347770 32.846104 10.045148 -1.736046 -25.309084 -6.047262 -3.480732 29.121574 -0.401561 1.436874 -18.284464 0.000000 0.000000 0.000000 -26.534029 8.171749 -6.801081 -44.838301 -1.238001 -7.346116 -13.183056 -32.448651 5.684920 0.000000 0.000000 0.000000 10.012142 -6.320550 -3.101140 67.566760 -18.413968 -20.270757 17.827218 25.644743 5.405322 0.000000 0.000000 0.000000 
-0.168512 0.913973 -1.035419 -0.881210 6.193846 -8.328764 -3.373177 0.330907 2.824925 0.886596 -2.278492 31.306360 -0.293275 -3.356277 -4.461452 0.000000 0.000000 0.000000 0.606106 2.634744 -29.281633 2.249290 -0.264070 26.953576 0.567385 -4.479832 16.751614 0.000000 0.000000 0.000000 -3.693937 -1.108965 35.656147 10.329360 -1.829514 -25.075524 -5.626391 -3.827438 28.047599 -1.665064 2.200511 -18.901019 0.000000 0.000000 0.000000 -25.655372 7.239874 -5.746503 -45.621649 -2.350876 -7.063255 -13.688336 -35.279277 6.515469 0.000000 0.000000 0.000000 9.330279 -3.964345 -2.121518 67.463016 -14.957519 -18.264984 19.669047 28.518283 6.463091 0.000000 0.000000 0.000000 
-0.170064 0.928002 -1.102496 -0.776539 4.857319 -6.311281 -2.998035 -0.420919 -3.752444 0.329899 -1.831736 30.500928 -1.211355 -3.448052 -1.410430 0.000000 0.000000 0.000000 -0.589865 2.571562 -31.238820 4.418469 -1.252115 37.048684 -2.384201 -9.455654 14.788139 0.000000 0.000000 0.000000 -2.855049 -1.292669 37.599188 9.375601 -1.650285 -24.333323 -4.387422 -5.577816 26.753144 -3.964339 3.377783 -20.373096 0.000000 0.000000 0.000000 -27.401634 5.615211 -4.182890 -44.929607 -3.723056 -6.608000 -12.259721 -36.956411 6.553925 0.000000 0.000000 0.000000 8.175257 -0.567200 -0.850080 68.404373 -10.327356 -16.034416 18.634302 33.430295 7.124755 0.000000 0.000000 0.000000 
-0.170935 0.945233 -1.163756 -0.539967 4.338097 -3.267965 -2.916180 -1.160588 -9.993920 -0.026994 -1.443425 27.981287 -2.113190 -5.384514 -1.275925 0.000000 0.000000 0.000000 -2.518593 1.987470 -29.238043 7.911286 -3.594787 47.322884 -4.354795 -12.548943 10.565411 0.000000 0.000000 0.000000 -4.203577 -0.804581 39.006810 12.465164 -2.088428 -26.711906 -4.851818 -3.645302 27.828219 -5.876182 4.895990 -21.728584 0.000000 0.000000 0.000000 -27.575405 4.483803 -3.964331 -45.754743 -3.044131 -6.927087 -14.260408 -35.983621 6.915267 0.000000 0.000000 0.000000 11.957702 2.414546 0.445881 64.694334 -5.480870 -12.410293 15.405056 40.781314 7.979590 0.000000 0.000000 0.000000 
-0.171893 0.955693 -1.220906 0.659919 3.850570 0.936286 -1.828930 -1.853205 -16.717319 -1.990613 -0.702523 28.810296 -1.791792 -1.528738 4.108290 0.000000 0.000000 0.000000 -2.951185 1.785430 -26.559978 8.841682 -4.874245 56.321518 -5.499984 -15.905245 23.461268 0.000000 0.000000 0.000000 -4.442699 -0.528387 37.042333 13.014167 -2.444185 -24.315436 -6.545716 -2.807170 25.688474 -0.202889 1.383411 -22.870814 0.000000 0.000000 0.000000 -26.998757 3.175159 -3.443917 -47.260631 -2.250469 -7.044660 -12.284751 -38.308165 6.589853 0.000000 0.000000 0.000000 13.107962 4.553603 1.470833 62.605272 -0.190102 -8.868021 12.281886 42.827963 7.140952 0.000000 0.000000 0.000000 
-0.174545 0.944391 -1.274263 2.233919 3.714740 3.820410 -1.519357 -2.637418 -23.534148 -4.426049 0.085535 35.657842 2.595626 7.679245 6.281671 0.000000 0.000000 0.000000 -3.612706 1.280175 -19.379032 8.208329 -4.828101 60.141814 -0.067786 -9.569002 31.279500 0.000000 0.000000 0.000000 -5.782404 -0.013530 38.241143 10.862346 -1.837911 -24.322153 -1.529758 0.126682 23.579766 -0.245256 1.715191 -20.144381 0.000000 0.000000 0.000000 -30.885285 -3.189637 -0.818952 -42.679550 -0.293271 -6.478395 -11.641238 -34.145203 5.140908 0.000000 0.000000 0.000000 13.891745 5.470282 2.394450 58.380090 3.472020 -6.279290 9.803673 47.624152 7.312395 0.000000 0.000000 0.000000 
-0.179495 0.907914 -1.325746 3.548729 2.844381 6.530691 0.509173 -3.065020 -31.460101 -7.950085 2.023027 45.520285 5.880413 13.168456 4.101554 0.000000 0.000000 0.000000 -2.242308 1.080297 -13.138657 6.603572 -2.942951 53.856066 -0.605035 -9.013262 24.716122 0.000000 0.000000 0.000000 -5.854092 0.199669 35.957904 11.607408 -2.353529 -21.335905 -2.591368 1.088010 23.668394 -0.958064 2.261466 -19.958746 0.000000 0.000000 0.000000 -31.388764 -0.999024 -2.637925 -41.002916 0.640486 -6.463402 -11.761117 -34.561571 5.201276 0.000000 0.000000 0.000000 14.310606 9.648365 4.655696 53.394780 6.925760 -4.419832 4.255990 51.579544 5.356076 0.000000 0.000000 0.000000 
-0.185416 0.863936 -1.377887 3.723414 3.198000 7.634879 0.917396 -3.466997 -35.700843 -7.094934 1.601265 56.320457 4.143728 8.155859 -2.243232 0.000000 0.000000 0.000000 -0.741985 0.767933 -8.079393 5.139712 -1.774795 45.848802 -2.711807 -8.392270 5.420629 0.000000 0.000000 0.000000 -4.599928 -0.394796 40.849671 16.211075 -3.064233 -23.793628 -6.807535 5.526993 22.131058 -0.196965 2.557460 -20.622683 0.000000 0.000000 0.000000 -31.288067 -4.621470 -2.241522 -37.338172 3.682133 -5.993921 -11.872195 -36.524229 5.092700 0.000000 0.000000 0.000000 18.501384 11.833880 7.392063 45.632240 12.161779 -2.351920 -4.576267 47.871582 1.321753 0.000000 0.000000 0.000000 
-0.189808 0.847690 -1.427288 1.989047 0.619842 7.975754 3.200137 -2.573116 -37.382496 -7.463405 2.925664 60.098457 5.317323 9.191499 -8.050056 0.000000 0.000000 0.000000 0.744316 0.803508 -7.820253 4.928510 -0.864935 40.595790 -4.062320 -7.444259 -9.077030 0.000000 0.000000 0.000000 -4.669783 -0.006757 46.721421 12.554879 -1.767429 -27.397603 -0.553503 5.554840 26.766242 -1.703238 3.421936 -23.429456 0.000000 0.000000 0.000000 -30.197644 -5.065184 -0.923822 -37.645545 -1.416897 -5.216525 -11.385214 -33.968883 4.725369 0.000000 0.000000 0.000000 12.680592 13.109901 6.854703 45.572423 19.311550 0.209721 -9.485239 43.379639 -0.806362 0.000000 0.000000 0.000000 
-0.189574 0.876614 -1.466736 0.791283 -0.138333 11.220949 5.305828 -1.995786 -41.605524 -7.465982 3.124642 57.674393 3.796670 8.058922 -0.133426 0.000000 0.000000 0.000000 1.475379 1.170054 -10.914393 4.148533 -0.333706 34.838934 -2.740892 -3.263809 -8.743914 0.000000 0.000000 0.000000 -4.412352 0.005203 52.228531 10.349550 -1.047747 -29.523198 4.138302 4.326430 28.142441 -4.568845 4.819443 -24.914105 0.000000 0.000000 0.000000 -28.442947 -5.648500 0.350615 -38.251768 -6.587638 -4.165915 -11.422152 -36.743863 5.302780 0.000000 0.000000 0.000000 10.590892 14.700785 7.062426 42.198909 24.561106 1.844535 -15.583571 41.262757 -3.146314 0.000000 0.000000 0.000000 
-0.186094 0.929909 -1.494644 1.655685 -0.151663 16.431721 5.253976 -2.216912 -45.491860 -8.619671 3.467569 50.452529 -0.226437 4.145360 11.527843 0.000000 0.000000 0.000000 -2.630911 1.440654 -16.784787 4.820014 -0.651466 29.980451 2.026767 4.134135 1.843774 0.000000 0.000000 0.000000 -4.519954 0.051290 53.682402 12.704721 -1.661788 -27.498494 2.000234 5.581037 26.418551 -3.319518 4.141042 -21.995431 0.000000 0.000000 0.000000 -25.309197 -6.718916 0.700576 -36.870519 -12.191255 -2.286463 -8.728896 -41.409391 4.888811 0.000000 0.000000 0.000000 16.395893 15.312410 8.784794 32.349887 28.447183 1.464239 -15.913859 38.776804 -3.072001 0.000000 0.000000 0.000000 
-0.180717 0.970695 -1.514162 2.300772 -1.820538 19.446933 4.176549 -2.399781 -48.155232 -9.059159 3.721585 45.494194 -0.582952 3.726469 12.402085 0.000000 0.000000 0.000000 -7.505078 1.272337 -21.459943 6.260493 -1.121112 34.206457 3.302700 4.044102 7.022085 0.000000 0.000000 0.000000 -4.979939 0.811184 54.247078 10.755797 -1.281060 -27.334029 6.176371 4.848042 26.995498 -9.122875 7.344067 -20.321350 0.000000 0.000000 0.000000 -26.813683 -10.617166 3.656778 -31.596511 -15.173000 -1.567248 -2.412340 -47.053161 3.001138 0.000000 0.000000 0.000000 11.030076 17.225105 8.583222 33.818396 28.704760 1.981332 -13.693618 37.984770 -2.369737 0.000000 0.000000 0.000000 
-0.175200 0.970033 -1.526306 2.155387 -3.699517 21.563094 5.730352 -1.331307 -51.008650 -9.883062 4.187617 41.653771 0.167823 2.946214 6.604046 0.000000 0.000000 0.000000 -10.761888 1.124342 -26.133331 8.618023 -2.189730 44.202039 0.210817 -5.198972 13.080416 0.000000 0.000000 0.000000 -5.199928 1.526363 55.069089 10.272827 -1.440260 -25.331869 7.742825 7.416297 25.489181 -11.585020 8.386223 -25.342566 0.000000 0.000000 0.000000 -21.645577 -13.299564 4.622175 -31.101608 -17.656480 -0.768784 4.393141 -48.719651 -0.213294 0.000000 0.000000 0.000000 8.499827 18.583013 9.055188 34.485795 27.179605 2.065263 -14.611707 35.975142 -2.469325 0.000000 0.000000 0.000000 
-0.168162 0.930298 -1.533203 3.238819 -5.489116 21.485291 6.453658 -0.486309 -55.220557 -9.537857 4.409850 43.462011 0.887955 3.583639 4.668553 0.000000 0.000000 0.000000 -14.000801 0.783513 -28.230130 8.533637 -1.969711 50.157185 -3.187885 -12.377998 16.730584 0.000000 0.000000 0.000000 -6.019461 2.847684 59.461340 13.226679 -2.025548 -25.622767 4.829487 8.728555 24.959409 -10.047372 7.321674 -31.114627 0.000000 0.000000 0.000000 -17.986741 -14.799706 5.160990 -27.388815 -19.335385 -0.491847 18.041464 -48.535235 -6.594835 0.000000 0.000000 0.000000 5.132086 22.215151 10.082924 34.473284 27.844397 2.560351 -11.701511 31.173906 -1.526936 0.000000 0.000000 0.000000 
-0.158963 0.861449 -1.534428 2.571400 -8.257444 21.111306 8.012919 1.573399 -59.935958 -7.688304 4.671553 52.698339 0.639138 -0.219267 -3.584294 0.000000 0.000000 0.000000 -16.183765 0.773763 -28.417933 8.146483 -0.981704 54.007718 -1.647090 -6.560328 5.237429 0.000000 0.000000 0.000000 -3.975762 2.712520 61.494801 7.015765 -0.680945 -27.451199 8.865330 6.597201 24.825087 -10.035833 7.070051 -28.994905 0.000000 0.000000 0.000000 -18.891208 -15.637556 6.631920 -22.399640 -20.257609 -0.800672 23.279517 -44.835890 -7.890868 0.000000 0.000000 0.000000 5.386506 23.714766 10.326654 33.637571 23.066364 1.198480 -10.762542 33.972303 -1.617214 0.000000 0.000000 0.000000 
-0.147685 0.777947 -1.527002 0.782571 -9.758955 20.979529 9.709613 4.206654 -67.853317 -5.425982 4.588546 70.339553 0.548665 -5.122852 -11.664634 0.000000 0.000000 0.000000 -18.746743 0.630096 -28.575954 9.407541 -1.275416 61.400487 -3.234115 -8.398638 -0.222616 0.000000 0.000000 0.000000 -2.932086 3.123031 66.605511 9.782178 -0.810589 -31.163822 5.815878 7.900303 24.195721 -8.039719 5.967904 -35.657184 0.000000 0.000000 0.000000 -18.889198 -15.411930 6.074752 -16.148079 -19.957904 -0.968418 26.978666 -43.675253 -9.418912 0.000000 0.000000 0.000000 4.538724 25.352715 10.939249 33.170103 25.756243 2.062763 -10.409050 28.768006 -1.358800 0.000000 0.000000 0.000000 
-0.135060 0.699320 -1.508395 -1.109298 -12.654342 18.805741 9.213924 6.398303 -73.972183 -2.448981 2.675596 88.179031 4.087373 1.322171 -17.747694 0.000000 0.000000 0.000000 -20.106884 0.795523 -29.772029 9.673205 0.010034 72.144257 -4.225526 -10.963662 -0.005580 0.000000 0.000000 0.000000 -0.899110 3.490833 71.822409 6.307886 -0.157711 -33.950973 6.358341 5.915053 24.646351 -7.592594 5.555117 -36.532532 0.000000 0.000000 0.000000 -18.558310 -19.088457 8.773501 -11.758774 -20.286942 -1.201686 32.011147 -38.110883 -9.889993 0.000000 0.000000 0.000000 3.783033 25.956430 10.647986 31.928725 25.523270 1.784233 -9.841370 28.690528 -1.307930 0.000000 0.000000 0.000000 
-0.122812 0.644655 -1.478648 -3.203105 -15.844392 18.951058 9.345211 9.566760 -78.922036 -1.368591 1.150966 102.121390 4.484706 2.353750 -17.594918 0.000000 0.000000 0.000000 -20.672952 1.221303 -30.681295 9.474661 2.184083 79.361376 -4.021170 -10.693307 0.993289 0.000000 0.000000 0.000000 -0.959568 5.487968 73.969682 4.650581 -0.075261 -33.021498 7.330190 6.531532 24.067145 -8.369306 5.879672 -36.527451 0.000000 0.000000 0.000000 -14.272514 -21.360418 9.413075 -11.419339 -22.209298 -1.138037 34.402965 -33.512906 -9.427595 0.000000 0.000000 0.000000 2.293591 28.254300 11.235534 29.287694 26.494259 1.768183 -13.136602 25.199640 -1.814596 0.000000 0.000000 0.000000 
-0.112512 0.619673 -1.439598 -4.357186 -16.612480 20.846942 8.523449 10.311817 -82.564304 -1.234459 -0.028377 108.509134 4.847325 3.826035 -17.123600 0.000000 0.000000 0.000000 -19.049872 1.608222 -29.830088 7.266590 5.294135 80.963536 -3.546813 -8.974169 -0.756534 0.000000 0.000000 0.000000 -2.197829 7.078000 74.077892 5.093800 -0.192423 -31.932353 7.140095 8.535106 23.473005 -7.705489 5.693261 -38.425579 0.000000 0.000000 0.000000 -11.902162 -23.509941 9.809270 -10.680402 -24.858277 -1.160491 40.153766 -32.367169 -10.999087 0.000000 0.000000 0.000000 1.968888 29.285562 11.893090 24.255681 26.792263 1.182502 -13.787706 24.277866 -1.855500 0.000000 0.000000 0.000000 
-0.104663 0.617574 -1.394596 -6.230802 -17.906128 23.146296 9.920184 12.944336 -83.285406 -1.395313 0.117197 111.028289 3.333285 1.493130 -12.834655 0.000000 0.000000 0.000000 -16.203629 2.045861 -26.892224 3.103110 10.122648 77.406480 -0.491468 -3.906772 5.174404 0.000000 0.000000 0.000000 -5.606807 10.268921 71.663447 6.929153 -0.399205 -32.003873 8.194760 12.264755 24.616743 -7.332258 5.867264 -38.919419 0.000000 0.000000 0.000000 -10.970746 -27.254015 10.927145 -8.986677 -26.972796 -1.489883 42.820593 -33.523810 -12.555600 0.000000 0.000000 0.000000 4.339816 29.248857 13.194758 19.579119 23.333313 0.011142 -14.834883 26.641541 -2.239461 0.000000 0.000000 0.000000 
-0.099915 0.634540 -1.342847 -5.662147 -14.853622 25.141946 8.384554 9.030183 -82.155224 -0.401137 -1.540788 109.387834 3.442531 2.849954 -10.966767 0.000000 0.000000 0.000000 -13.069520 1.992556 -25.220935 1.605473 10.085600 76.826920 2.892819 -1.159762 14.905246 0.000000 0.000000 0.000000 -7.925351 10.348100 70.255463 6.078214 -0.266850 -31.216082 9.950309 8.422865 23.961532 -7.677541 5.440441 -39.502025 0.000000 0.000000 0.000000 -7.864609 -25.465804 10.495398 -4.949870 -31.922237 -2.379935 44.070927 -29.380524 -10.832783 0.000000 0.000000 0.000000 0.525911 30.173382 12.101565 22.982510 22.233642 0.257343 -17.554738 28.358038 -2.957793 0.000000 0.000000 0.000000 
-0.098129 0.658174 -1.285541 -3.980337 -10.585466 25.999168 5.385354 2.893721 -76.626127 1.529563 -4.375794 105.567169 2.672544 2.178218 -8.251563 0.000000 0.000000 0.000000 -9.459423 2.287189 -28.999734 2.354629 8.464540 85.206628 4.793431 2.030019 16.491469 0.000000 0.000000 0.000000 -9.559746 9.073858 68.039329 8.412112 -0.519418 -31.271354 9.360542 4.707551 26.568817 -8.284399 5.121114 -43.952954 0.000000 0.000000 0.000000 -6.901533 -27.244360 11.808355 2.127479 -30.232576 -3.431450 42.185395 -27.083340 -9.422956 0.000000 0.000000 0.000000 2.686224 28.814316 11.837994 23.973945 18.908965 -0.435100 -19.268339 28.182572 -3.412413 0.000000 0.000000 0.000000 
-0.098947 0.682853 -1.222011 -2.630999 -7.480797 24.744851 1.894995 -1.704656 -65.927534 5.095186 -8.451752 97.163275 3.450072 3.157731 -10.561667 0.000000 0.000000 0.000000 -7.745511 2.935960 -37.798233 5.123169 3.909196 98.578901 3.753309 1.833641 13.353234 0.000000 0.000000 0.000000 -10.283905 8.616184 71.572389 13.078136 -0.859690 -33.931947 6.268483 1.729950 27.207692 -7.915985 4.749030 -46.489682 0.000000 0.000000 0.000000 2.279343 -26.002016 9.482030 1.211760 -28.082319 -2.711433 41.925095 -26.629984 -9.277582 0.000000 0.000000 0.000000 4.532487 25.521940 10.581455 27.724222 17.178012 -0.653300 -17.155921 32.458837 -3.473636 0.000000 0.000000 0.000000 
-0.102970 0.710218 -1.148273 -4.238036 -6.822041 23.175415 2.686481 -1.487732 -51.485888 7.482961 -8.209060 84.997213 3.738724 2.375830 -14.114558 0.000000 0.000000 0.000000 -6.593861 4.798237 -53.091394 7.673414 -1.216376 107.734101 -0.161524 -2.135387 3.848454 0.000000 0.000000 0.000000 -9.602052 7.908579 72.469665 15.303159 -1.058335 -34.718695 4.002353 -2.342225 29.092879 -6.797699 4.014592 -48.821169 0.000000 0.000000 0.000000 7.799656 -20.266676 6.407465 -1.415994 -26.641874 -1.983327 41.629710 -30.036667 -9.927373 0.000000 0.000000 0.000000 6.476761 22.954089 9.213341 30.027274 12.669107 -1.533313 -16.496369 36.660703 -4.129462 0.000000 0.000000 0.000000 
-0.113095 0.743823 -1.056467 -6.664897 -8.917743 22.640708 6.608042 0.047762 -35.194262 4.959777 -2.040868 70.617071 3.669054 4.734080 -9.687924 0.000000 0.000000 0.000000 -10.905642 5.604070 -71.079459 13.591009 -10.956901 101.229521 -5.245960 -12.489628 -3.848764 0.000000 0.000000 0.000000 -7.468703 6.991860 69.923108 19.224601 -1.771126 -33.449747 1.851465 -4.496438 28.613884 -10.242493 4.645460 -51.320643 0.000000 0.000000 0.000000 4.363544 -12.034884 4.233335 -7.622570 -26.413885 -1.361108 45.280993 -37.298558 -12.984448 0.000000 0.000000 0.000000 10.911185 15.643154 5.715544 25.460174 8.526888 -2.002606 -6.734869 42.878896 -1.810766 0.000000 0.000000 0.000000 
-0.133551 0.784054 -0.943013 -9.853994 -9.686408 22.733879 9.244117 0.045231 -19.223988 4.990537 -1.060982 55.697795 1.997793 3.268118 -3.199261 0.000000 0.000000 0.000000 -12.740377 5.638801 -77.223448 18.250496 -11.778620 74.902480 -7.225553 -19.073317 3.575328 0.000000 0.000000 0.000000 -2.649081 3.273645 65.911991 18.840990 -1.856310 -32.388440 2.120359 -7.591260 28.275530 -16.728535 6.740838 -45.509759 0.000000 0.000000 0.000000 -4.556042 -8.632727 4.496570 -12.307902 -23.406250 -1.263119 49.241531 -45.979294 -17.607195 0.000000 0.000000 0.000000 12.055064 9.922143 2.117002 24.721409 5.359377 -2.185079 0.534119 43.868795 0.291804 0.000000 0.000000 0.000000 
-0.164195 0.813903 -0.816609 -10.387243 -8.641629 25.638035 8.204193 -0.375539 -10.543939 8.106170 -3.111186 47.087621 -1.623290 -2.123304 3.382744 0.000000 0.000000 0.000000 -14.430725 3.978637 -77.110714 19.201191 -9.175467 53.682800 -6.472992 -18.374910 8.528734 0.000000 0.000000 0.000000 1.102576 -0.168026 60.282401 19.343722 -1.739126 -32.537561 1.652549 -6.743551 25.228806 -15.639379 6.409514 -43.538902 0.000000 0.000000 0.000000 -15.063581 -4.574036 4.008795 -20.547248 -19.503986 -1.554453 39.751863 -59.818434 -18.130583 0.000000 0.000000 0.000000 11.973035 8.926086 1.619006 26.657194 -2.793910 -3.419224 -0.782535 49.378043 -0.494183 0.000000 0.000000 0.000000 
-0.201889 0.828102 -0.690229 -9.650393 -8.779977 25.199606 6.810241 -0.458323 -12.164215 10.199799 -4.673204 56.606381 -1.786349 -2.266413 3.592551 0.000000 0.000000 0.000000 -8.457671 6.968803 -68.905659 11.214036 -3.150163 48.733291 -4.582253 -14.395763 6.607358 0.000000 0.000000 0.000000 0.778907 -0.080735 57.316835 19.775144 -1.667983 -33.141633 2.577273 -4.351134 25.672686 -18.706409 7.810559 -44.251908 0.000000 0.000000 0.000000 -24.784834 -1.700050 2.531544 -26.176525 -12.918122 -2.753451 4.186961 -65.502536 2.013407 0.000000 0.000000 0.000000 12.922366 7.908228 1.510607 29.539784 -3.464990 -4.128048 -4.905014 51.595046 -2.048286 0.000000 0.000000 0.000000 
-0.240066 0.825863 -0.571295 -8.894841 -7.538385 22.931780 8.191475 -0.156031 -22.780461 12.770711 -9.464812 75.647064 -2.591898 -7.148118 -2.519845 0.000000 0.000000 0.000000 -2.868587 7.999943 -60.146010 7.544027 -0.733487 56.360455 -6.117199 -16.110810 -2.683702 0.000000 0.000000 0.000000 0.237135 -0.194727 58.397919 17.063375 -1.122588 -34.707266 4.611805 0.276115 24.463143 -15.131933 7.089094 -43.192661 0.000000 0.000000 0.000000 -31.112207 -0.009914 -0.785766 -31.268424 -2.480938 -4.539801 -16.325537 -54.770495 11.509108 0.000000 0.000000 0.000000 13.318406 6.609376 1.867620 32.011436 -0.804611 -4.100326 -5.735608 50.391336 -1.345087 0.000000 0.000000 0.000000 
-0.271730 0.814707 -0.457805 -6.986681 -5.181535 19.608710 9.308063 0.313808 -36.264537 11.279447 -12.716985 87.284007 0.434005 -5.461723 -11.080830 0.000000 0.000000 0.000000 -2.028912 5.822067 -49.764216 8.146848 -1.528167 61.442538 -7.664246 -19.207743 -10.958072 0.000000 0.000000 0.000000 -1.645254 0.106255 60.512772 18.017470 -1.162167 -35.472864 4.998214 6.378467 25.349793 -12.718660 6.974002 -43.858768 0.000000 0.000000 0.000000 -35.157996 1.835684 -6.268573 -29.784609 7.398304 -5.405042 -26.645672 -44.212555 12.499436 0.000000 0.000000 0.000000 12.821479 6.612582 3.349913 33.084178 7.542932 -2.848116 -10.657844 45.313519 -1.910645 0.000000 0.000000 0.000000 
-0.291190 0.804849 -0.341800 -6.984684 -6.791598 16.451400 12.621717 2.977901 -50.479147 6.045840 -7.010277 88.981880 1.745252 -3.671656 -13.966460 0.000000 0.000000 0.000000 0.771886 5.154194 -38.005791 8.230902 -0.630192 62.775680 -8.003747 -19.562417 -13.775149 0.000000 0.000000 0.000000 -5.361139 3.055574 60.732610 17.463884 -0.668244 -38.034958 7.611072 13.743934 30.093962 -12.464684 7.914579 -43.774140 0.000000 0.000000 0.000000 -33.375534 2.749655 -10.202858 -28.225809 13.697767 -5.810869 -29.824966 -29.713856 8.499314 0.000000 0.000000 0.000000 13.707310 4.940634 4.117130 28.542356 12.310251 -2.435108 -13.561737 48.602524 -2.277915 0.000000 0.000000 0.000000 
-0.299427 0.803403 -0.217464 -5.152407 -4.982504 14.717858 11.900666 3.029493 -62.902623 0.797879 -2.246318 79.035527 2.154167 0.027365 -10.216283 0.000000 0.000000 0.000000 -0.254294 2.831580 -25.254925 6.740203 -0.239254 57.318582 -6.610069 -14.211097 -13.371239 0.000000 0.000000 0.000000 -8.679425 4.220264 58.026620 16.848260 -0.902626 -36.467362 8.279884 16.648255 29.954320 -11.321875 8.079375 -42.399666 0.000000 0.000000 0.000000 -31.739956 5.764666 -13.541307 -28.333635 20.264615 -6.858383 -27.119333 -17.956695 4.362561 0.000000 0.000000 0.000000 12.335272 4.583377 4.301487 30.519379 14.048952 -2.134249 -18.617351 52.771607 -3.960128 0.000000 0.000000 0.000000 
-0.297743 0.811433 -0.083180 -4.087639 -6.192980 14.277082 15.339344 6.384733 -68.197117 -6.164941 3.402208 59.334371 2.460612 2.302777 -7.488895 0.000000 0.000000 0.000000 -2.046049 1.305802 -13.259112 4.770003 1.033008 48.451735 -4.473858 -6.913063 -11.163348 0.000000 0.000000 0.000000 -12.790305 6.656035 54.623248 18.103515 -1.435265 -34.250578 7.833058 21.032451 29.209286 -10.973860 8.646142 -39.915436 0.000000 0.000000 0.000000 -30.062941 7.703188 -15.867488 -28.550299 25.988794 -7.929447 -25.073313 -9.128874 1.776696 0.000000 0.000000 0.000000 11.961753 3.088381 4.006872 30.263509 13.230536 -2.198588 -15.839378 58.296168 -2.291771 0.000000 0.000000 0.000000 
-0.288347 0.826119 0.057943 -4.056404 -8.092646 16.226903 15.608985 7.389319 -67.218882 -6.266125 2.044783 32.689364 1.819296 3.033955 -2.022294 0.000000 0.000000 0.000000 -2.894442 0.426066 -3.108110 -0.239130 2.960144 37.149129 0.294377 1.416549 -1.010338 0.000000 0.000000 0.000000 -14.023601 6.873051 47.639811 14.916203 -1.598808 -30.234348 6.752016 21.261136 26.962702 -11.932578 8.878463 -39.144908 0.000000 0.000000 0.000000 -27.065118 12.360108 -17.086006 -31.108470 30.612224 -10.138085 -21.652787 -2.269358 0.091767 0.000000 0.000000 0.000000 12.047770 2.188096 3.404220 31.160654 11.107087 -2.465663 -9.607747 61.240261 1.002436 0.000000 0.000000 0.000000 
-0.275057 0.848498 0.203559 -4.669720 -9.092912 18.941573 14.988436 7.524988 -66.956984 -4.624870 1.007973 21.702427 0.280978 2.998227 7.243325 0.000000 0.000000 0.000000 -3.849269 0.137517 2.635746 -3.057078 3.284747 29.701145 7.766690 6.956750 14.976230 0.000000 0.000000 0.000000 -15.436579 7.268389 43.670344 13.183236 -1.386528 -29.477103 8.054227 19.718472 26.686681 -11.163780 8.465046 -37.555554 0.000000 0.000000 0.000000 -29.406626 12.821261 -17.884198 -31.677177 34.504960 -11.135380 -20.464332 -1.633627 0.007613 0.000000 0.000000 0.000000 9.681063 0.476533 1.808410 33.953903 8.364879 -2.821467 -2.680628 65.590026 5.513316 0.000000 0.000000 0.000000 
-0.261717 0.865125 0.349637 -5.072556 -10.390459 19.618749 13.608185 7.452381 -67.600989 -1.293860 -0.014532 21.754279 -5.566354 -0.824593 22.849762 0.000000 0.000000 0.000000 -3.680978 -0.029075 5.662603 -6.358359 4.719323 30.012991 14.001501 9.252097 27.383434 0.000000 0.000000 0.000000 -17.496848 8.482940 42.792064 13.542821 -1.322733 -30.129324 6.847631 19.468871 27.975199 -6.577523 6.733847 -37.898565 0.000000 0.000000 0.000000 -27.665184 13.329188 -17.333939 -36.859853 33.106790 -13.150829 -18.588030 0.566406 -0.404973 0.000000 0.000000 0.000000 10.132419 -2.467811 0.355633 36.753989 5.659972 -3.740640 11.533166 67.876766 15.677762 0.000000 0.000000 0.000000 
-0.249074 0.865040 0.493165 -3.627776 -9.546634 20.100623 10.903334 5.233171 -68.988216 -2.962320 0.598212 28.450749 -4.440035 0.813138 22.763673 0.000000 0.000000 0.000000 -2.821859 -0.083239 4.470125 -8.056439 6.479932 35.941541 15.544487 10.041314 30.360006 0.000000 0.000000 0.000000 -19.468687 9.762575 44.686105 10.065642 -0.755529 -30.477983 8.117801 14.636432 28.010307 -7.708944 6.590109 -37.873819 0.000000 0.000000 0.000000 -25.064869 10.449544 -12.934227 -44.268297 28.977547 -15.331860 -18.875427 -0.990369 -0.049325 0.000000 0.000000 0.000000 12.240740 -3.527394 -0.550338 39.182762 3.100798 -4.635016 15.192042 64.160245 15.911556 0.000000 0.000000 0.000000 
-0.236890 0.850293 0.637190 -1.833462 -7.111534 20.383853 7.880391 1.901919 -69.653145 -2.176781 0.274670 40.382319 -4.851149 -1.639955 17.048939 0.000000 0.000000 0.000000 -2.714540 0.295762 -1.338981 -5.484246 7.141569 48.570297 14.654314 11.502488 27.208184 0.000000 0.000000 0.000000 -19.324752 9.511475 47.000501 10.828707 -0.467110 -33.523333 5.438175 9.334549 29.293231 -8.977119 6.468704 -40.127645 0.000000 0.000000 0.000000 -24.979070 8.183510 -9.863781 -46.229177 24.855125 -15.048666 -20.258843 -4.120330 0.687874 0.000000 0.000000 0.000000 16.266698 -3.227909 -0.870350 39.633362 -0.751125 -6.097557 18.648282 60.457845 15.841996 0.000000 0.000000 0.000000 
-0.224551 0.845457 0.779476 0.279778 -5.544326 17.735155 5.936594 -0.467687 -63.730135 -4.249141 1.498385 47.119221 -1.805322 0.165249 8.859627 0.000000 0.000000 0.000000 -4.439069 0.829200 -8.210607 -1.057593 5.923531 63.676987 11.855061 10.971224 21.919137 0.000000 0.000000 0.000000 -20.535635 10.386656 50.798886 12.459442 -0.612509 -34.293376 3.896750 5.993981 29.036089 -10.553936 6.999220 -38.526479 0.000000 0.000000 0.000000 -26.415947 5.490743 -7.326426 -44.922405 18.271686 -12.658355 -24.355755 -9.797795 2.328369 0.000000 0.000000 0.000000 19.736517 -1.773991 -0.655410 40.098869 -3.764645 -7.055770 16.118832 54.902891 11.951979 0.000000 0.000000 0.000000 
-0.212766 0.852475 0.917675 1.186839 -3.605060 14.708660 2.664913 -2.836077 -54.408843 -4.105799 1.316838 49.630179 -0.876740 -1.198711 1.481479 0.000000 0.000000 0.000000 -4.528149 1.471776 -18.377622 2.529603 3.081313 75.279278 7.779505 8.139810 15.359073 0.000000 0.000000 0.000000 -18.812653 8.906693 51.954461 11.488676 -0.725570 -32.821497 2.881918 2.409813 27.640652 -10.369582 6.845454 -35.426712 0.000000 0.000000 0.000000 -29.166634 2.282440 -4.271620 -40.780577 11.834810 -9.784897 -25.896294 -22.279642 6.061306 0.000000 0.000000 0.000000 25.240185 0.313835 -0.601260 38.219343 -6.915779 -7.412651 15.302282 51.432338 9.799575 0.000000 0.000000 0.000000 
-0.202787 0.866380 1.049874 0.747198 -1.852401 10.323405 0.129602 -3.591834 -42.617915 -1.461392 -0.580694 51.256640 -0.344432 -2.527025 -3.452518 0.000000 0.000000 0.000000 -4.713830 2.106510 -29.500057 6.551166 -1.788651 80.142294 3.403176 3.182611 8.908265 0.000000 0.000000 0.000000 -16.765425 7.409856 54.370123 15.814070 -0.796354 -36.729875 -0.950560 0.290900 29.297760 -10.746876 7.231881 -33.529845 0.000000 0.000000 0.000000 -30.547496 0.879749 -2.437093 -36.114178 4.601187 -7.361854 -30.366105 -35.678890 11.733183 0.000000 0.000000 0.000000 28.190623 2.415539 -0.031490 34.779073 -9.547305 -7.457501 14.740312 50.623699 8.810285 0.000000 0.000000 0.000000 
-0.195355 0.882451 1.178969 -0.220113 2.984450 6.056000 -1.325891 -3.226618 -29.235264 0.476942 -2.881248 48.564300 -0.450657 -4.517265 -5.948448 0.000000 0.000000 0.000000 -4.111857 2.296730 -40.370639 9.847623 -6.982717 72.643023 -1.424079 -5.214524 4.126321 0.000000 0.000000 0.000000 -13.420089 3.845057 53.297075 18.902779 -1.482428 -35.868813 -3.180263 -3.220554 29.603245 -11.319698 7.425612 -33.081201 0.000000 0.000000 0.000000 -29.241284 -0.448685 -0.400940 -30.231537 -7.415153 -4.194767 -36.924068 -60.088918 25.527569 0.000000 0.000000 0.000000 23.201771 1.608470 -0.878711 34.145968 -11.149668 -7.719380 16.387920 51.603434 9.438821 0.000000 0.000000 0.000000 
-0.191989 0.895922 1.310134 -1.233677 5.544494 3.076786 -1.624278 -1.460558 -13.695542 4.037453 -4.623440 40.743609 -0.380626 -4.922470 -6.474287 0.000000 0.000000 0.000000 -2.945770 2.455587 -45.679808 9.573824 -5.317420 53.232855 -3.214001 -9.508351 6.330098 0.000000 0.000000 0.000000 -11.996973 2.135298 47.899084 25.693289 -2.427412 -36.751470 -8.006621 -6.856369 30.901519 -15.941378 9.598386 -34.466028 0.000000 0.000000 0.000000 -28.485945 1.353984 -0.385381 -21.860565 -17.332267 -2.452330 4.478732 -82.247679 1.399245 0.000000 0.000000 0.000000 16.248423 0.189521 -1.558854 31.713774 -12.643292 -7.549660 21.892023 56.486425 12.725519 0.000000 0.000000 0.000000 
-0.191035 0.915011 1.451533 -2.810107 8.235541 1.651022 0.892060 -0.031735 -0.051617 8.308478 -5.438809 31.271958 -4.880390 -10.332577 0.253707 0.000000 0.000000 0.000000 -3.027931 1.875288 -47.406361 6.418610 -2.068639 30.307014 3.369292 -1.402142 22.015336 0.000000 0.000000 0.000000 -7.868384 -0.104499 40.428161 25.940941 -2.592347 -37.232835 -9.306458 -12.091922 31.777148 -19.229687 10.654708 -35.760209 0.000000 0.000000 0.000000 -22.975408 2.952232 -0.173987 -19.019665 -21.160956 -2.186441 88.789833 -79.737648 -71.613400 0.000000 0.000000 0.000000 6.318992 -4.710492 -2.857997 30.720006 -15.234178 -7.955367 32.767531 60.188162 18.762035 0.000000 0.000000 0.000000 
-0.191033 0.935391 1.604164 -2.540890 13.086450 0.026377 3.662073 0.209495 12.237072 11.934318 -5.718112 24.200651 -13.823429 -13.731467 16.408940 0.000000 0.000000 0.000000 -5.259812 0.046281 -42.497656 0.774499 0.061760 12.524124 6.810135 1.209738 31.955448 0.000000 0.000000 0.000000 -4.229275 -1.386437 31.789585 21.632849 -2.287126 -37.235636 -10.231279 -21.758649 33.235375 -19.619484 10.360983 -32.231490 0.000000 0.000000 0.000000 -18.071114 7.570429 -1.680660 -19.277525 -22.771368 -2.151367 88.687675 -73.131041 -62.326122 0.000000 0.000000 0.000000 -1.940981 -6.738457 -2.083863 29.924547 -17.431287 -8.431096 39.007268 69.345710 23.901919 0.000000 0.000000 0.000000 
-0.190402 0.944932 1.756528 -2.009838 15.518037 -0.379033 6.486290 -0.437170 15.858885 12.117315 -6.909400 28.275288 -13.057880 -10.783926 18.211233 0.000000 0.000000 0.000000 -6.530717 -0.756014 -39.790185 -4.186268 0.839859 5.298254 9.135448 2.801482 37.001398 0.000000 0.000000 0.000000 -4.076794 -0.966910 24.347953 21.648778 -2.405603 -37.552165 -12.452916 -22.660978 34.090968 -19.932891 12.292550 -24.107160 0.000000 0.000000 0.000000 -11.179402 8.722476 -2.846812 -21.002211 -19.439422 -2.158888 88.204148 -76.137231 -64.100901 0.000000 0.000000 0.000000 -6.905730 -9.045630 -1.667020 29.288976 -21.188828 -9.203302 49.035820 74.675914 34.346555 0.000000 0.000000 0.000000 
-0.190212 0.934533 1.897344 -1.859910 19.159987 -1.693601 9.112426 -0.944695 11.838770 9.096125 -10.473673 43.850243 -7.924593 -7.142206 11.331162 0.000000 0.000000 0.000000 -9.783013 -2.472039 -37.442344 -3.700976 0.816593 6.905745 8.019556 2.171509 36.737347 0.000000 0.000000 0.000000 -3.140758 -1.235241 23.228426 21.836998 -2.342589 -39.169233 -12.332260 -20.381102 34.813410 -16.490617 11.870314 -16.441254 0.000000 0.000000 0.000000 -8.194423 8.634412 -3.226897 -23.544016 -16.795955 -2.398088 87.369706 -75.944391 -64.197448 0.000000 0.000000 0.000000 -6.216415 -10.774539 -2.650876 25.134217 -22.386453 -7.744798 51.983853 80.173455 42.284443 0.000000 0.000000 0.000000 
-0.192053 0.896437 2.020239 -2.178696 20.164986 -4.284071 11.897144 -0.888149 2.429956 -1.119265 -10.039814 63.274227 1.071555 1.046044 -2.058281 0.000000 0.000000 0.000000 -10.639134 -3.248802 -38.620378 -2.408426 0.673568 16.129051 9.182479 2.648187 38.719013 0.000000 0.000000 0.000000 -0.559861 -2.589141 29.183549 26.348304 -2.634793 -40.727199 -12.480904 -12.375566 32.669334 -15.279236 13.367775 -9.075127 0.000000 0.000000 0.000000 -16.651182 10.137368 -5.540165 -18.617948 -9.592656 -2.631819 94.797745 -75.372483 -76.066874 0.000000 0.000000 0.000000 1.428837 -6.213081 -2.371432 20.888813 -22.027733 -6.120352 -74.676208 83.836363 -66.745726 0.000000 0.000000 0.000000 
-0.197298 0.853132 2.114456 -1.264229 20.959535 -5.005650 12.985991 -0.758596 -11.930438 -9.785938 -6.073182 75.406188 3.050891 -1.574164 -14.780585 0.000000 0.000000 0.000000 -11.082062 -4.469353 -43.129288 -2.142313 0.253804 29.985924 10.848892 6.051436 33.688785 0.000000 0.000000 0.000000 0.953859 -5.637840 42.525668 26.992510 -1.352708 -44.987112 -10.028376 -1.427414 31.857447 -10.245649 10.773497 -2.762202 0.000000 0.000000 0.000000 -22.066051 7.173622 -7.034189 -18.739901 -1.502090 -3.002178 88.066558 -79.240190 -76.541700 0.000000 0.000000 0.000000 12.467173 -3.575104 -0.834093 15.094473 -17.189987 -3.987932 -56.556411 71.759318 -38.245391 0.000000 0.000000 0.000000 
-0.204004 0.822843 2.178849 -0.259194 19.048904 -4.877226 11.444342 -1.679720 -27.958823 -14.912542 0.165614 74.047579 5.058028 1.637076 -20.348679 0.000000 0.000000 0.000000 -6.696526 -2.955739 -49.986432 -6.224294 2.168251 43.041590 10.516517 5.813415 31.437484 0.000000 0.000000 0.000000 0.398219 -8.583613 57.745072 22.504959 -0.472272 -44.398635 -3.629410 5.992040 28.791149 -7.901851 9.026171 -5.821845 0.000000 0.000000 0.000000 -28.157417 3.619349 -8.227719 -20.079468 5.619044 -3.549272 34.872456 -80.488526 -29.163867 0.000000 0.000000 0.000000 18.467620 -0.034878 2.134255 17.520014 -10.163993 -4.364228 -47.516442 60.674773 -24.175814 0.000000 0.000000 0.000000 
-0.208905 0.808114 2.225078 1.247154 19.204162 -3.491075 10.536429 -3.930836 -43.622765 -15.117848 1.888355 64.943434 2.903952 -1.525865 -13.966728 0.000000 0.000000 0.000000 -7.420667 -3.896445 -53.423439 -6.117551 2.272906 50.891008 12.436741 9.222703 28.598824 0.000000 0.000000 0.000000 -3.658801 -9.332004 71.529280 18.567438 -0.615948 -39.977640 2.074976 8.576076 25.020872 -7.183277 8.126362 -17.759175 0.000000 0.000000 0.000000 -30.463062 0.397880 -7.288845 -27.083887 5.699648 -4.448879 1.916073 -66.661832 -0.236881 0.000000 0.000000 0.000000 14.263455 5.845062 4.402221 28.033626 -2.794574 -5.237896 -38.780247 56.674286 -15.983087 0.000000 0.000000 0.000000 
-0.210618 0.796822 2.262994 1.559459 17.725410 -0.193353 8.369840 -5.980880 -52.337793 -8.947232 -0.876672 58.410618 -1.770684 -7.397739 -4.269948 0.000000 0.000000 0.000000 -5.673667 -3.037929 -58.107073 -6.007027 2.782868 54.365520 10.046085 5.940850 28.120402 0.000000 0.000000 0.000000 -6.108550 -8.432855 79.320454 14.574667 -0.507398 -37.267895 6.658244 9.907264 25.026386 -4.711543 6.221556 -32.455142 0.000000 0.000000 0.000000 -29.328710 -2.131890 -5.343304 -35.125219 2.287377 -4.988377 -9.302109 -58.916935 6.290843 0.000000 0.000000 0.000000 7.250561 8.199011 4.223169 39.010403 6.318279 -3.685603 -34.674609 53.028269 -11.826224 0.000000 0.000000 0.000000 
-0.207651 0.779948 2.297850 1.434466 14.401364 1.412450 10.358402 -5.085574 -57.881299 -8.512226 -0.077440 64.578834 -4.074302 -8.765723 0.859521 0.000000 0.000000 0.000000 -5.233591 -1.847971 -60.951688 -3.502907 1.999365 58.418851 7.718876 4.346117 23.504470 0.000000 0.000000 0.000000 -8.054932 -5.659561 84.458058 12.579215 -0.499026 -35.534036 8.902276 11.572415 26.059152 -6.241450 6.704318 -36.529994 0.000000 0.000000 0.000000 -27.665076 -4.627437 -3.670472 -42.124162 0.724624 -5.598888 -9.045701 -53.324102 5.464859 0.000000 0.000000 0.000000 2.707750 9.715782 4.075690 46.118158 11.597415 -1.515550 -30.732357 51.096391 -9.072889 0.000000 0.000000 0.000000 
-0.198646 0.761893 2.327211 1.054015 12.487708 2.309670 9.804607 -5.259614 -61.696831 -6.929416 -0.759102 72.061368 -5.487829 -11.015216 1.961014 0.000000 0.000000 0.000000 -5.400079 -1.314311 -62.813196 -1.412082 1.026444 64.556872 4.598295 3.678937 13.040324 0.000000 0.000000 0.000000 -8.500697 -4.401405 88.027142 10.818293 -0.349614 -34.986659 9.055879 11.188920 25.801227 -6.253625 6.322779 -39.693288 0.000000 0.000000 0.000000 -26.344706 -6.245965 -2.036091 -44.701870 -0.566871 -5.671452 -10.213876 -50.880120 5.914563 0.000000 0.000000 0.000000 0.315395 11.702484 4.360886 50.609081 14.132132 0.021950 -25.242880 50.040351 -6.691554 0.000000 0.000000 0.000000 
-0.185308 0.747421 2.346977 0.274257 10.334565 3.118366 8.905233 -5.366557 -64.762565 -4.851279 -2.080146 78.607094 -4.603884 -9.941947 0.560475 0.000000 0.000000 0.000000 -4.689557 -0.091401 -65.009158 0.668115 -0.036100 69.075642 0.154578 -2.944032 7.938673 0.000000 0.000000 0.000000 -8.476479 -3.174491 90.229208 9.333419 -0.165501 -35.057399 9.821119 11.217498 26.294711 -6.652449 6.449120 -38.774969 0.000000 0.000000 0.000000 -28.003666 -8.329570 -0.878825 -43.612710 -1.877195 -5.028899 -10.070298 -50.027793 5.856252 0.000000 0.000000 0.000000 -1.100856 13.161580 4.615472 50.571513 14.480900 0.248293 -22.124148 47.925042 -5.270372 0.000000 0.000000 0.000000 
-0.168581 0.737830 2.356893 -0.791053 8.093272 4.293690 8.507244 -4.796590 -65.883808 -4.353625 -1.917020 82.330629 -4.029002 -10.309375 -1.847625 0.000000 0.000000 0.000000 -4.469361 0.984615 -67.773506 2.039503 -0.517825 71.974264 -1.055121 -5.330820 7.326804 0.000000 0.000000 0.000000 -8.291635 -1.897059 90.929706 8.545814 -0.079740 -35.329064 10.543699 12.079825 27.759432 -6.259411 6.395765 -39.018477 0.000000 0.000000 0.000000 -26.364631 -9.494081 -0.264641 -44.745187 -3.655151 -4.617224 -11.344903 -51.604273 6.529474 0.000000 0.000000 0.000000 -2.727350 13.715202 4.487494 52.031679 14.264721 0.467488 -20.194718 45.933134 -4.176657 0.000000 0.000000 0.000000 
-0.151023 0.733591 2.358520 -0.959577 7.994945 5.290025 7.478489 -5.501981 -66.924133 -4.092501 -2.118869 82.502771 -3.274785 -9.491715 -3.150905 0.000000 0.000000 0.000000 -5.286777 0.463517 -68.925876 2.830975 -1.178332 73.379560 -2.608669 -8.015523 5.236286 0.000000 0.000000 0.000000 -7.924629 -2.207486 90.568497 8.354759 -0.049838 -35.294898 10.916008 12.386413 27.166519 -6.551769 6.551873 -37.971481 0.000000 0.000000 0.000000 -27.803557 -9.733363 -0.454336 -42.290245 -3.065302 -4.347557 -13.555334 -54.201022 7.978312 0.000000 0.000000 0.000000 -1.505192 13.883258 4.862909 50.174784 11.677646 -0.873871 -16.746361 46.795007 -2.948152 0.000000 0.000000 0.000000 
-0.135287 0.732732 2.356360 -1.412080 6.500060 5.604479 7.036363 -5.119308 -66.875450 -3.501310 -2.311802 83.521217 -3.444047 -10.618088 -4.148714 0.000000 0.000000 0.000000 -4.743984 1.540308 -69.429194 2.866000 -0.813337 73.999289 -4.105591 -11.067456 4.152404 0.000000 0.000000 0.000000 -8.339807 -0.720003 88.381205 9.796147 -0.274125 -35.342540 10.641042 13.787294 26.961546 -8.038150 7.351200 -38.332748 0.000000 0.000000 0.000000 -28.826699 -9.646563 -1.311142 -40.084343 -1.806492 -4.244220 -12.284790 -55.994378 7.369137 0.000000 0.000000 0.000000 2.886651 14.018892 6.035319 47.487782 8.497659 -2.567641 -14.802475 44.732426 -2.089693 0.000000 0.000000 0.000000 
-0.123280 0.734742 2.353754 -1.677006 7.411775 3.908074 4.410866 -6.763784 -64.262617 -2.670305 -3.823630 83.010078 -2.172786 -8.769460 -5.866085 0.000000 0.000000 0.000000 -4.935810 0.992881 -67.115918 2.487091 -0.873643 75.002176 -4.458344 -11.363308 1.929494 0.000000 0.000000 0.000000 -8.820685 -0.819672 87.727321 12.824383 -0.172189 -38.611856 10.804937 14.588653 27.676334 -9.100575 8.348126 -35.160936 0.000000 0.000000 0.000000 -33.254172 -9.155964 -2.715175 -34.533794 1.531302 -4.235542 -17.206414 -58.496100 10.646151 0.000000 0.000000 0.000000 6.919933 13.959050 7.053152 45.202704 4.531996 -4.465531 -10.075660 42.657575 -0.524821 0.000000 0.000000 0.000000 
-0.115492 0.740317 2.352492 -2.287363 6.191007 1.708416 2.436098 -6.856731 -60.301256 -1.142592 -5.281921 82.364854 -0.633139 -6.462489 -8.240111 0.000000 0.000000 0.000000 -3.304364 2.508628 -63.580751 2.055279 -0.329661 75.509205 -5.489798 -13.143849 -1.963613 0.000000 0.000000 0.000000 -9.975515 1.033500 84.390153 17.810333 -0.557664 -39.789109 9.520998 16.753734 28.758015 -9.787519 9.548613 -32.290299 0.000000 0.000000 0.000000 -34.327672 -8.494032 -4.384878 -31.847478 3.944350 -4.292301 -22.022187 -59.349484 13.443190 0.000000 0.000000 0.000000 11.688818 13.969697 8.623192 43.566480 1.325750 -5.998715 -6.674532 39.330991 0.401489 0.000000 0.000000 0.000000 
-0.112101 0.751326 2.352990 -2.145526 6.706107 -1.360457 -0.858900 -7.701403 -54.047458 1.322579 -8.267084 80.236290 0.289010 -6.435321 -11.556607 0.000000 0.000000 0.000000 -3.343108 2.184900 -57.902776 3.052007 -1.764965 75.041398 -6.650428 -15.584344 -6.013869 0.000000 0.000000 0.000000 -10.332974 1.001480 79.851748 23.015676 -0.772779 -41.514513 6.234605 17.135331 29.890928 -10.602192 10.896487 -27.644888 0.000000 0.000000 0.000000 -36.750345 -6.042344 -6.920149 -27.214943 6.654647 -4.159145 -25.537128 -60.120455 15.915495 0.000000 0.000000 0.000000 16.484350 13.349656 9.845633 43.299638 -2.067643 -7.844385 -2.168506 36.416544 1.518887 0.000000 0.000000 0.000000 
-0.112479 0.771379 2.353743 -1.859563 7.509103 -5.071858 -3.763068 -7.644543 -46.004207 3.800344 -10.693785 75.533712 0.942688 -5.379948 -12.493814 0.000000 0.000000 0.000000 -3.153960 1.930612 -49.728790 3.814187 -3.103824 72.824112 -7.368384 -17.297023 -10.777712 0.000000 0.000000 0.000000 -10.274543 0.533465 72.074109 25.013009 -1.715132 -39.558354 2.700613 15.562092 30.891748 -9.046726 10.299404 -27.506643 0.000000 0.000000 0.000000 -35.389999 -3.125539 -8.123493 -27.058843 7.799942 -4.653375 -25.293567 -62.048585 16.296434 0.000000 0.000000 0.000000 18.376074 11.098751 9.005949 44.579476 -5.067595 -9.477066 2.802598 33.626286 2.765769 0.000000 0.000000 0.000000 
-0.115909 0.808224 2.350879 -1.947310 8.435504 -7.213296 -4.803554 -6.620743 -38.591470 5.916312 -11.656597 67.829178 0.297048 -5.628337 -10.062976 0.000000 0.000000 0.000000 -2.561651 1.862444 -41.080466 4.727534 -4.217854 66.516642 -7.447111 -17.758875 -10.968154 0.000000 0.000000 0.000000 -9.847095 -0.013702 62.918584 25.971943 -3.229753 -35.172183 -1.134232 13.704049 28.708196 -7.584905 9.227126 -23.840424 0.000000 0.000000 0.000000 -32.486309 1.066485 -9.756818 -27.320854 8.421691 -4.933371 -29.957007 -64.483595 19.835873 0.000000 0.000000 0.000000 17.960141 10.056967 8.079719 48.265198 -8.435277 -11.101688 6.349042 33.134871 3.836580 0.000000 0.000000 0.000000 
-0.121008 0.868205 2.342124 -1.929332 6.908300 -8.447346 -2.970520 -4.456566 -31.357177 5.511308 -8.742134 57.704435 -1.418247 -3.350333 -0.458357 0.000000 0.000000 0.000000 -1.334868 2.200097 -32.182722 6.349702 -4.116130 55.627731 -7.179962 -17.431264 -4.077176 0.000000 0.000000 0.000000 -10.907169 1.063313 52.538937 21.973904 -4.303668 -27.946299 1.172020 9.960099 26.979575 -7.752038 8.198025 -28.949084 0.000000 0.000000 0.000000 -26.793086 9.144881 -11.631550 -32.084634 7.441720 -6.064722 -48.466601 -65.990562 33.191725 0.000000 0.000000 0.000000 11.546666 3.556280 2.844914 51.581205 -10.414239 -11.663807 13.091202 33.042103 6.108082 0.000000 0.000000 0.000000 
-0.126099 0.959232 2.326689 -1.761691 5.890310 -6.608706 -1.231226 -2.941365 -25.063264 5.001525 -4.952843 38.974955 -6.285385 -2.741902 16.848968 0.000000 0.000000 0.000000 -0.830979 1.975589 -24.480288 5.373653 -2.068631 39.306642 -4.209887 -12.358866 12.760919 0.000000 0.000000 0.000000 -11.806559 1.578960 43.395647 21.256977 -4.309333 -26.969732 2.023134 7.754610 28.018765 -7.710810 7.831036 -27.520381 0.000000 0.000000 0.000000 -24.111879 12.470596 -11.981156 -33.069641 9.971833 -7.190343 -64.138942 -61.564449 41.747544 0.000000 0.000000 0.000000 7.572719 0.212090 0.662842 53.178936 -13.361344 -12.884174 18.427051 33.641955 7.910763 0.000000 0.000000 0.000000 
-0.130097 1.062132 2.303924 -2.368380 3.894181 -4.438268 1.784281 -1.799077 -21.262324 2.113853 -1.474620 19.216850 -8.655246 2.625934 38.067849 0.000000 0.000000 0.000000 0.265490 1.876145 -19.348708 3.963371 -0.720664 27.598587 -1.128765 -10.526506 31.532305 0.000000 0.000000 0.000000 -9.753673 1.046961 35.770429 17.477990 -3.278212 -27.093449 2.298259 5.325626 28.180904 -8.181376 7.844377 -21.838026 0.000000 0.000000 0.000000 -22.898779 16.525162 -13.184474 -34.667794 12.512938 -8.426706 -68.875792 -51.936725 38.222416 0.000000 0.000000 0.000000 5.819699 -1.351626 -0.296832 51.688577 -12.285776 -12.201027 23.908354 31.450986 8.782548 0.000000 0.000000 0.000000 
-0.131867 1.156526 2.272090 -2.097919 3.524688 -3.175383 1.286662 -1.701288 -19.513696 1.017524 -0.498460 8.079168 -11.130331 2.961490 46.782009 0.000000 0.000000 0.000000 1.071182 1.593481 -15.098586 1.668302 0.164414 26.505003 0.471036 -9.555229 36.928125 0.000000 0.000000 0.000000 -7.872669 0.521742 32.879347 14.891971 -2.557527 -27.567348 2.459045 7.643481 26.364437 -4.935137 6.030097 -17.218813 0.000000 0.000000 0.000000 -21.096281 12.331545 -10.733520 -37.288704 14.337469 -9.484865 -59.644259 -45.982420 27.840271 0.000000 0.000000 0.000000 9.108974 -1.516206 -0.066660 48.274402 -11.920377 -11.167378 22.399998 30.647494 8.069675 0.000000 0.000000 0.000000 
-0.132503 1.222482 2.235070 -1.617220 3.664112 -3.561123 1.548205 -1.544628 -18.223977 -1.538439 -0.077692 8.971130 -7.849667 4.551875 41.737605 0.000000 0.000000 0.000000 1.573148 1.372149 -12.457735 -0.549997 0.975358 27.587916 0.547273 -9.293521 36.112346 0.000000 0.000000 0.000000 -6.566061 0.145897 31.345071 10.971979 -1.732524 -27.013536 2.633218 4.906501 25.720422 -6.404689 6.621750 -18.159611 0.000000 0.000000 0.000000 -23.769097 11.173090 -10.162337 -39.636537 14.164888 -10.226733 -49.209020 -44.285292 22.469192 0.000000 0.000000 0.000000 10.797923 1.973606 1.324770 46.872324 -7.844062 -9.603621 16.452031 30.530033 6.009976 0.000000 0.000000 0.000000 
-0.133209 1.267621 2.198882 -0.918189 5.602607 -4.326488 1.158949 -1.586046 -17.521930 -2.602254 -0.166420 17.027596 -5.828753 3.936630 31.514424 0.000000 0.000000 0.000000 -0.016404 1.128129 -11.784872 -0.058256 0.599188 26.517430 2.377741 -6.775718 36.359701 0.000000 0.000000 0.000000 -7.757499 0.276734 32.692973 12.519540 -1.824976 -29.041056 2.404743 4.330742 25.907060 -5.953715 6.391940 -19.233090 0.000000 0.000000 0.000000 -26.933174 10.374595 -10.741411 -39.907788 14.196372 -10.257483 -39.733130 -39.081239 15.841694 0.000000 0.000000 0.000000 10.443635 1.756158 1.261184 47.851693 -5.151183 -8.878112 12.411554 29.280004 4.714446 0.000000 0.000000 0.000000 
-0.134227 1.292975 2.166349 -0.041520 6.633643 -5.278293 1.252906 -1.228539 -13.884989 -4.056757 -0.117537 25.175208 -3.599979 5.021921 26.116523 0.000000 0.000000 0.000000 -1.295686 0.939539 -11.240296 -0.685492 0.731569 25.075229 4.150449 -4.457776 36.435516 0.000000 0.000000 0.000000 -7.714523 0.183530 30.125304 11.647164 -1.865712 -27.244942 0.566902 1.856833 25.543080 -7.763496 7.404174 -17.838181 0.000000 0.000000 0.000000 -28.421968 10.849294 -10.860695 -39.867812 13.557093 -10.166520 -33.276158 -35.790047 12.393767 0.000000 0.000000 0.000000 11.459798 2.700150 1.527004 49.338280 -3.207692 -8.493534 8.582474 29.682779 3.758169 0.000000 0.000000 0.000000 
-0.135900 1.301174 2.136816 -0.443330 9.100359 -6.533054 1.661940 -0.696855 -8.393028 -1.427026 -1.600200 30.122987 -5.202978 2.837553 24.641960 0.000000 0.000000 0.000000 -0.904728 0.819751 -9.571557 -0.790713 0.562124 21.555894 5.642615 -2.804541 38.843751 0.000000 0.000000 0.000000 -8.277466 0.129385 26.477496 13.938232 -2.615886 -25.955717 -1.306490 1.145798 25.230366 -6.074515 6.319095 -14.767923 0.000000 0.000000 0.000000 -27.921049 10.736714 -10.881828 -40.539420 13.330719 -10.234056 -32.351886 -32.632206 10.861162 0.000000 0.000000 0.000000 9.081419 2.312332 1.306462 52.676069 -4.766489 -9.412876 9.660081 28.163881 3.841011 0.000000 0.000000 0.000000 
-0.138013 1.287063 2.108454 -0.824537 10.822469 -6.911357 3.115428 -0.155268 -1.443504 -0.659273 -2.119112 30.516175 -6.255702 2.662579 26.985020 0.000000 0.000000 0.000000 -1.530761 0.815232 -10.624913 -1.077385 0.544294 20.965384 6.950586 -1.321500 40.100584 0.000000 0.000000 0.000000 -8.685672 0.137839 21.003091 15.246030 -3.125718 -24.921191 -3.721800 -1.270936 26.914933 -7.141687 6.992228 -13.468634 0.000000 0.000000 0.000000 -28.085155 12.829281 -11.875180 -40.401485 12.595039 -10.139760 -32.608410 -32.218265 10.955647 0.000000 0.000000 0.000000 6.136273 3.214563 1.483022 56.884179 -6.750759 -11.033059 8.524600 27.875668 3.550867 0.000000 0.000000 0.000000 
-0.139528 1.242005 2.078489 -1.822836 10.687948 -7.125142 5.864570 -0.018667 5.478483 0.199241 -2.030539 27.179352 -8.282558 1.353720 29.986636 0.000000 0.000000 0.000000 -1.440827 0.896085 -11.622728 -0.133022 0.259918 19.893129 6.375445 -1.994336 40.140252 0.000000 0.000000 0.000000 -8.794344 0.151515 16.658609 17.001742 -3.792464 -23.985475 -5.049362 -0.772652 27.255770 -7.200231 7.042023 -14.902260 0.000000 0.000000 0.000000 -25.975064 13.656914 -11.906247 -42.119650 11.727347 -10.338777 -33.880769 -30.893649 10.827932 0.000000 0.000000 0.000000 6.246766 2.309712 1.145889 56.447139 -10.405505 -12.459770 9.856428 29.217688 4.099783 0.000000 0.000000 0.000000 
-0.139417 1.168911 2.042495 -2.307800 10.967069 -7.186492 6.490501 -0.061390 11.942596 2.974649 -2.072134 19.886067 -13.424941 -1.321517 37.636885 0.000000 0.000000 0.000000 -1.347489 1.037330 -13.718882 0.424256 0.090416 18.516931 4.295380 -4.414723 40.673649 0.000000 0.000000 0.000000 -8.426791 0.095263 13.903402 17.653868 -4.290915 -22.275439 -6.769369 -1.775545 25.072731 -7.461959 6.966992 -17.526870 0.000000 0.000000 0.000000 -23.218407 12.452968 -10.178802 -45.857984 13.177191 -11.804883 -30.159342 -33.381918 10.635860 0.000000 0.000000 0.000000 6.850457 1.185831 0.626982 56.516557 -13.546574 -13.682828 11.313819 28.949393 4.366677 0.000000 0.000000 0.000000 
-0.138395 1.068718 1.994076 -2.360914 11.598863 -8.139976 6.243198 -0.101548 16.315526 5.037883 -2.337502 17.321750 -16.860157 -7.120626 33.447271 0.000000 0.000000 0.000000 -0.393291 1.298328 -16.006936 0.020539 0.137673 20.628954 2.201947 -5.026233 33.829663 0.000000 0.000000 0.000000 -6.489411 -0.107402 13.821579 11.944878 -2.403589 -23.125238 -5.772280 -6.808883 26.408147 -9.053611 7.482795 -16.761032 0.000000 0.000000 0.000000 -22.980561 15.508266 -10.740396 -46.769405 9.430551 -11.052002 -28.152554 -33.466652 10.678039 0.000000 0.000000 0.000000 7.775979 2.010590 0.647728 57.682922 -14.458504 -14.948568 8.804900 26.773207 3.235401 0.000000 0.000000 0.000000 
-0.136930 0.970143 1.924709 -3.923079 14.080629 -11.073228 6.114886 -0.229580 15.937307 7.348000 -3.904586 22.284236 -12.587165 -11.505591 16.245515 0.000000 0.000000 0.000000 2.519047 2.022968 -20.471334 -1.836402 0.325373 29.337924 -2.269552 -8.076945 17.302326 0.000000 0.000000 0.000000 -4.928898 -0.751723 22.441396 13.090573 -2.152582 -27.945780 -7.218261 -4.272733 26.712742 -7.031664 6.559376 -22.108077 0.000000 0.000000 0.000000 -22.690669 8.410761 -7.392422 -46.853882 7.016584 -10.222460 -21.109913 -35.689298 8.529157 0.000000 0.000000 0.000000 14.975114 -2.379409 -0.957559 52.557871 -15.280893 -14.095578 8.247366 26.966611 3.357773 0.000000 0.000000 0.000000 
-0.134017 0.915327 1.845321 -4.318859 15.559585 -14.376114 4.783745 0.016767 9.732404 6.556528 -6.108345 33.369391 -5.846394 -10.736491 1.797904 0.000000 0.000000 0.000000 0.618319 1.750169 -25.532535 -2.308402 0.139740 34.744759 -3.048210 -9.385767 18.271883 0.000000 0.000000 0.000000 -5.962648 -1.387970 31.803968 11.838352 -1.570384 -30.893832 -4.719995 -4.155525 28.168091 -6.300531 6.192362 -27.505529 0.000000 0.000000 0.000000 -27.459843 4.392752 -5.927600 -43.890163 0.091435 -7.356574 -11.263623 -35.992789 5.315890 0.000000 0.000000 0.000000 17.169416 -2.752362 -1.079186 52.449010 -14.731975 -14.311509 5.836558 26.093283 2.759416 0.000000 0.000000 0.000000 
-0.130197 0.906571 1.773437 -4.419390 14.604673 -14.164500 3.344917 0.021083 2.441850 4.397164 -6.269755 38.653643 -2.818326 -7.166035 -1.529285 0.000000 0.000000 0.000000 -1.117688 1.392849 -27.926553 -2.522296 0.578171 30.944828 -0.928589 -7.020285 24.420221 0.000000 0.000000 0.000000 -7.208744 -1.147492 33.697607 12.989008 -2.055523 -29.184348 -3.308739 -2.228348 25.907524 -7.603154 7.252283 -24.392088 0.000000 0.000000 0.000000 -27.190483 5.047589 -6.789502 -45.208539 -3.092506 -6.065692 -7.844153 -33.068617 3.687687 0.000000 0.000000 0.000000 14.553109 -1.556665 -0.305100 56.182942 -15.340986 -15.199624 5.444835 24.503838 2.512605 0.000000 0.000000 0.000000 
-0.128521 0.923048 1.714586 -4.525898 13.485058 -13.186721 3.188148 -0.072725 0.001729 3.012290 -4.667482 34.868908 -2.384301 -5.896994 -1.105374 0.000000 0.000000 0.000000 -2.545702 1.102954 -28.455511 -0.643693 -0.136019 33.126610 -0.720087 -7.132759 24.917094 0.000000 0.000000 0.000000 -7.369522 -0.898359 32.606556 13.482806 -2.117834 -29.782007 -2.863948 -1.789423 27.048704 -8.696695 8.023638 -22.932982 0.000000 0.000000 0.000000 -28.612431 5.561072 -7.336226 -44.131690 -1.214999 -6.651292 -7.174117 -32.334580 3.454092 0.000000 0.000000 0.000000 14.330600 -0.712086 0.076024 55.855053 -15.723289 -15.310075 10.246568 25.181731 3.570530 0.000000 0.000000 0.000000 
-0.130340 0.944887 1.665547 -4.240076 10.635135 -12.376780 2.663934 -0.070624 -0.440680 1.478431 -2.831896 29.302861 -1.551676 -1.494426 2.712662 0.000000 0.000000 0.000000 -2.935545 1.156515 -23.715843 3.346081 -1.978811 38.586541 -0.884408 -6.991167 19.359970 0.000000 0.000000 0.000000 -7.773521 -0.364129 29.104256 13.255644 -2.417753 -27.051925 -2.353573 -0.414717 26.552026 -9.762822 8.749863 -21.864408 0.000000 0.000000 0.000000 -26.724930 8.321524 -8.664395 -46.351714 -0.133542 -7.357417 -7.034334 -30.893148 3.265178 0.000000 0.000000 0.000000 13.728617 0.144082 0.458659 56.105838 -14.861179 -14.881177 10.549093 24.832610 3.549800 0.000000 0.000000 0.000000 
-0.135614 0.961746 1.619941 -3.604228 10.339179 -12.096518 1.739380 0.029751 0.938185 2.441917 -2.158725 21.673622 -3.166472 -2.625404 5.870531 0.000000 0.000000 0.000000 -2.414318 1.034748 -16.839334 3.202747 -2.713727 47.785791 -1.949909 -8.527036 16.435644 0.000000 0.000000 0.000000 -7.626277 -0.254348 25.805999 12.595128 -2.520713 -24.756881 -2.293427 -0.138038 26.069039 -9.902481 8.959467 -18.898125 0.000000 0.000000 0.000000 -25.872121 9.238053 -9.122439 -47.559929 3.578430 -8.867245 -6.114037 -30.480168 2.951593 0.000000 0.000000 0.000000 15.006205 -0.258876 0.296514 55.131318 -13.496948 -13.989049 11.470852 26.180651 3.996377 0.000000 0.000000 0.000000 
-0.143786 0.969745 1.572667 -2.860955 11.779745 -11.437970 0.943733 -0.082786 -0.765149 1.276873 -1.415086 17.332701 -3.795910 -1.263791 9.765905 0.000000 0.000000 0.000000 -2.479249 0.495681 -7.681175 3.614139 -4.139460 53.634610 -0.094430 -7.757385 27.141827 0.000000 0.000000 0.000000 -8.472985 -0.096665 22.523956 12.508830 -2.736445 -22.516683 -2.019636 0.822015 26.431530 -7.701047 7.728616 -16.512026 0.000000 0.000000 0.000000 -23.551108 9.949639 -9.473092 -49.036206 5.236390 -9.734039 -5.044141 -29.375929 2.418151 0.000000 0.000000 0.000000 15.227759 -2.384746 -0.462962 54.812924 -12.596481 -13.438575 13.992465 27.487651 4.976924 0.000000 0.000000 0.000000 
-0.155310 0.964234 1.518886 -0.941814 11.944635 -9.681659 -1.235323 -0.635384 -6.282402 0.854101 -1.318213 17.473083 -4.227466 -0.883973 11.809374 0.000000 0.000000 0.000000 -2.115558 -0.304067 2.586251 2.243666 -2.737900 49.939499 3.442536 -4.327484 33.411977 0.000000 0.000000 0.000000 -9.604433 0.146746 19.723902 10.239554 -2.182441 -20.890374 -0.305727 1.023271 25.753111 -6.892780 7.114622 -15.481841 0.000000 0.000000 0.000000 -22.103523 10.313609 -9.344419 -49.134000 6.987333 -10.403436 -4.877416 -29.204977 2.320411 0.000000 0.000000 0.000000 14.384676 -0.648465 0.439038 55.745365 -11.747768 -13.164488 13.823326 29.382138 5.349754 0.000000 0.000000 0.000000 
-0.171340 0.951757 1.455875 0.297396 11.671643 -7.549457 -1.763575 -1.337248 -11.803722 0.378406 -1.166155 17.315183 -3.493015 0.302019 11.881626 0.000000 0.000000 0.000000 -0.661997 -1.056013 9.126726 0.369769 -0.762578 40.738188 3.635794 -2.156815 27.721544 0.000000 0.000000 0.000000 -9.210981 0.175954 19.742252 9.437007 -1.846266 -21.416492 -0.200350 3.565861 24.858174 -4.895035 5.894798 -13.681023 0.000000 0.000000 0.000000 -22.126497 9.432648 -9.567518 -47.665370 8.997736 -10.532757 -3.483160 -29.677213 1.752374 0.000000 0.000000 0.000000 16.086281 -0.964959 0.774603 54.216856 -10.315979 -12.194351 13.814121 31.244145 5.887815 0.000000 0.000000 0.000000 
-0.191204 0.938860 1.384128 0.537162 10.990079 -5.965441 -1.153497 -2.039738 -17.571938 -0.119274 -0.966664 16.758853 -3.948864 0.319488 13.610811 0.000000 0.000000 0.000000 1.542434 -1.558417 11.559413 -1.295957 0.546544 29.630254 0.583817 -4.245106 18.351573 0.000000 0.000000 0.000000 -8.067868 0.043441 22.659161 8.747118 -1.565515 -22.085429 0.481328 5.560638 24.093949 -5.411484 6.554031 -18.062230 0.000000 0.000000 0.000000 -23.103988 8.309602 -9.728079 -45.795587 8.307814 -9.564899 -3.680391 -28.399657 1.593214 0.000000 0.000000 0.000000 15.702918 0.082640 1.518197 54.242330 -8.145726 -11.126858 12.492386 32.646042 5.845890 0.000000 0.000000 0.000000 
-0.211913 0.931545 1.310502 -0.340316 11.308329 -4.836103 0.500495 -2.492014 -22.642131 0.213797 -0.732036 12.647454 -5.276676 0.124380 17.284683 0.000000 0.000000 0.000000 3.570062 -1.318244 8.782371 -0.974905 0.435421 25.086081 -1.918755 -7.301780 11.366821 0.000000 0.000000 0.000000 -6.064349 -0.488199 26.936563 9.704689 -1.606526 -24.041203 -0.179892 6.369907 23.038819 -6.026304 7.027502 -20.619372 0.000000 0.000000 0.000000 -24.055759 8.864065 -10.692801 -44.876973 9.292627 -9.451462 -7.403861 -29.106179 2.485813 0.000000 0.000000 0.000000 15.851405 2.101047 2.740988 53.245609 -5.326744 -9.698088 9.649215 33.811918 5.210425 0.000000 0.000000 0.000000 
-0.230629 0.937459 1.243596 -0.760336 11.688696 -3.474865 2.688341 -2.339360 -24.388165 -2.638925 -0.019206 9.177711 -3.401841 3.117115 17.468925 0.000000 0.000000 0.000000 4.541387 -0.518245 3.356684 -0.743157 0.317118 23.915122 -2.396583 -7.788403 9.075455 0.000000 0.000000 0.000000 -5.783981 -0.612937 27.817829 10.754590 -1.861655 -24.003514 -0.103764 7.137491 23.685946 -5.646415 6.953144 -23.731824 0.000000 0.000000 0.000000 -23.040954 6.859112 -9.526327 -47.462023 8.484194 -9.806404 -7.767801 -27.929103 2.421147 0.000000 0.000000 0.000000 13.093453 1.631682 2.305585 55.618586 -3.615929 -8.940780 7.189598 34.420535 4.709030 0.000000 0.000000 0.000000 
-0.245442 0.953555 1.187575 -0.569530 12.745202 -2.622244 2.632989 -2.337432 -23.861965 -3.170331 -0.111779 13.007150 -1.717364 4.352161 14.032478 0.000000 0.000000 0.000000 4.652932 0.058243 -0.456349 -1.238180 0.433197 21.797919 -1.507775 -6.266660 12.262085 0.000000 0.000000 0.000000 -6.834873 -0.517443 29.276319 11.922760 -1.892673 -26.340302 0.388875 6.084591 25.142066 -5.621570 6.892820 -24.890126 0.000000 0.000000 0.000000 -22.767030 7.626967 -9.730856 -49.532582 8.368209 -10.452390 -11.799033 -27.187760 3.371133 0.000000 0.000000 0.000000 11.708172 1.520961 2.019566 56.949433 -3.322818 -8.870549 9.158616 33.665740 5.124958 0.000000 0.000000 0.000000 
-0.257037 0.972030 1.140204 -0.481224 14.273503 -2.309333 2.314060 -2.271328 -22.450891 -3.363779 -0.774030 23.067737 -0.169695 5.389259 10.487241 0.000000 0.000000 0.000000 4.526863 0.358291 -2.506858 -1.424914 0.434559 19.389892 -0.513568 -4.674542 15.646660 0.000000 0.000000 0.000000 -6.991347 -0.623006 29.637977 11.669802 -1.716211 -27.051559 0.419146 4.077475 25.371709 -6.414488 7.171268 -23.500562 0.000000 0.000000 0.000000 -23.386596 8.549085 -10.113430 -51.733175 10.169824 -11.870917 -12.200096 -27.630466 3.645605 0.000000 0.000000 0.000000 10.081865 2.013880 1.935670 58.365307 -5.701965 -10.090755 10.219174 33.185038 5.289070 0.000000 0.000000 0.000000 
-0.266213 0.983945 1.096477 -0.512639 15.207391 -2.181710 2.778482 -1.628325 -17.658496 -3.857949 -1.419488 30.592664 0.931680 6.919315 9.858390 0.000000 0.000000 0.000000 3.963190 0.609077 -4.473773 -1.556104 0.440511 18.204240 1.163828 -1.757422 17.068635 0.000000 0.000000 0.000000 -7.037949 -0.657514 29.085658 11.193544 -1.551772 -27.424642 0.109587 3.217475 26.121931 -5.992842 6.931910 -22.588129 0.000000 0.000000 0.000000 -23.685513 8.065965 -9.865706 -51.715842 10.278490 -11.971804 -12.196068 -26.929418 3.585055 0.000000 0.000000 0.000000 9.946773 1.475058 1.670118 58.600535 -7.900052 -11.222676 12.264420 32.337704 5.723304 0.000000 0.000000 0.000000 
-0.273466 0.985180 1.054540 -1.023158 16.320814 -2.141776 3.800115 -0.985157 -12.161446 -3.506470 -2.307461 35.509180 0.255964 5.435016 9.089021 0.000000 0.000000 0.000000 4.248862 0.935386 -6.987632 -1.637753 0.404917 18.138402 1.017620 -1.762376 16.899417 0.000000 0.000000 0.000000 -5.882120 -0.968900 28.318743 10.177488 -1.251171 -27.723002 -0.647451 1.445068 26.248814 -6.191278 6.892188 -23.576607 0.000000 0.000000 0.000000 -24.079298 8.797017 -10.120849 -51.696121 10.910060 -12.297711 -11.419746 -27.805042 3.595728 0.000000 0.000000 0.000000 10.143866 1.278421 1.502703 58.676430 -9.505591 -12.084785 12.022598 29.876482 5.043606 0.000000 0.000000 0.000000 
-0.278992 0.976384 1.012545 -1.247822 16.928301 -2.764326 3.902668 -0.448064 -5.179149 -1.848887 -3.336062 37.055114 -2.788652 4.490465 17.853873 0.000000 0.000000 0.000000 4.102267 1.230314 -9.678720 -1.447444 0.261701 19.878030 0.207060 -2.703286 14.714997 0.000000 0.000000 0.000000 -5.215889 -1.187577 28.466115 9.576229 -1.067883 -27.856361 -1.746550 0.471298 26.379335 -5.656915 6.508079 -22.904333 0.000000 0.000000 0.000000 -23.646427 6.998969 -8.717153 -51.343978 10.418650 -12.102133 -7.598001 -29.250754 2.858666 0.000000 0.000000 0.000000 11.099292 0.038269 0.940232 57.722675 -10.424577 -12.496652 10.110348 29.768052 4.517788 0.000000 0.000000 0.000000 
-0.282287 0.964766 0.969231 -2.187118 16.787498 -2.887070 4.338673 -0.144017 1.637850 0.862627 -3.554508 31.944966 -6.316295 0.896902 20.687506 0.000000 0.000000 0.000000 4.901725 1.642270 -12.861821 -1.822128 0.353040 21.011964 -0.519527 -3.663121 12.354670 0.000000 0.000000 0.000000 -3.935293 -1.385074 27.312070 8.280240 -0.772419 -27.726426 -2.213453 -0.914714 27.183816 -5.498040 6.257531 -22.353471 0.000000 0.000000 0.000000 -22.826727 8.766447 -9.076048 -50.034380 8.624208 -11.269540 -6.850440 -28.417714 2.690681 0.000000 0.000000 0.000000 12.138355 0.325643 1.031504 57.638051 -9.340740 -12.300486 6.669909 28.615447 3.419803 0.000000 0.000000 0.000000 
-0.282884 0.954578 0.923373 -3.605092 18.233691 -2.857439 5.725994 -0.249272 7.534979 3.611555 -2.874482 21.939508 -7.381371 -3.062299 15.380340 0.000000 0.000000 0.000000 4.939845 1.966850 -16.528926 -1.847661 0.230748 22.044789 -0.204771 -2.796970 11.908365 0.000000 0.000000 0.000000 -3.360128 -1.643481 27.390755 9.451595 -0.974640 -28.147459 -3.103360 -1.361178 27.158179 -4.653216 5.783596 -23.304099 0.000000 0.000000 0.000000 -21.098317 6.814248 -7.573597 -49.097367 7.074076 -10.479524 -2.629093 -28.560967 1.586318 0.000000 0.000000 0.000000 11.337167 -1.251772 0.275454 57.543290 -10.244754 -12.569128 4.856146 27.540793 2.879685 0.000000 0.000000 0.000000 
-0.280940 0.947890 0.875168 -4.272725 18.151547 -3.236973 6.217212 -0.373362 10.597209 3.052117 -1.651619 14.655452 -5.171461 -2.850874 9.893307 0.000000 0.000000 0.000000 4.834425 2.109745 -18.456285 -2.780246 0.586267 21.048601 0.337688 -1.809783 12.302434 0.000000 0.000000 0.000000 -3.664700 -1.710701 28.510503 8.918103 -0.778624 -29.437240 -2.008760 -2.183268 27.916654 -3.879047 5.181521 -23.073209 0.000000 0.000000 0.000000 -20.506479 6.721730 -7.066449 -45.482557 3.168581 -8.393962 -0.205383 -26.169910 0.941801 0.000000 0.000000 0.000000 10.775542 -2.660045 -0.520936 56.415860 -9.824973 -12.313548 3.256010 25.902388 2.316132 0.000000 0.000000 0.000000 
-0.276993 0.947692 0.827221 -4.563582 18.147871 -2.996849 6.155576 -0.355044 10.113919 2.106744 -0.978246 10.369271 -3.873453 -2.569248 6.908413 0.000000 0.000000 0.000000 3.268728 1.915922 -19.426683 -1.828618 0.409279 17.282517 0.578264 -2.049846 16.090701 0.000000 0.000000 0.000000 -4.956463 -1.411256 28.512220 9.159729 -0.936041 -28.209172 -1.202842 -2.071336 27.940522 -2.859950 4.605995 -24.750252 0.000000 0.000000 0.000000 -18.201384 5.234406 -5.692359 -43.417850 -0.506062 -6.808528 7.090242 -25.034292 -0.741575 0.000000 0.000000 0.000000 10.921216 -3.376396 -0.841927 54.153366 -9.131622 -11.606558 -0.015610 24.155860 1.487314 0.000000 0.000000 0.000000 
-0.272448 0.952578 0.784131 -4.393822 16.695163 -2.617872 5.260540 -0.153622 8.095478 0.907015 -0.648667 9.084517 -3.459295 -2.027520 6.794193 0.000000 0.000000 0.000000 1.673416 1.770814 -21.178572 -0.450778 0.125708 15.855305 0.845002 -2.619853 19.759174 0.000000 0.000000 0.000000 -6.453926 -0.931193 28.342145 11.183773 -1.632364 -26.399482 -1.450870 -0.268607 25.945885 -2.610729 4.542925 -24.262841 0.000000 0.000000 0.000000 -15.777092 5.744834 -5.601182 -39.800931 -3.595898 -5.017423 9.502437 -23.066265 -1.315766 0.000000 0.000000 0.000000 9.094126 -4.003892 -1.170037 51.265543 -9.289755 -10.711492 -1.825959 22.432887 1.017741 0.000000 0.000000 0.000000 
-0.268491 0.957315 0.748909 -4.818921 15.025178 -2.759782 5.166697 -0.100163 6.943328 0.217193 -0.488624 8.608280 -3.432142 -2.824424 5.741827 0.000000 0.000000 0.000000 0.859519 1.716730 -21.709363 1.291885 -0.348623 17.442907 0.421547 -3.451551 18.620915 0.000000 0.000000 0.000000 -7.961518 -0.443031 27.957800 12.918571 -2.027125 -27.233667 -1.303407 0.923720 26.875015 -2.822089 4.755201 -24.657934 0.000000 0.000000 0.000000 -14.505463 6.739523 -5.774066 -34.848332 -5.895699 -3.835441 11.265080 -19.878620 -1.478806 0.000000 0.000000 0.000000 5.981961 -3.043653 -0.852085 47.682720 -9.379235 -9.964986 -2.537155 19.643990 0.697098 0.000000 0.000000 0.000000 
-0.265713 0.960602 0.721247 -5.393880 14.266693 -3.757781 5.393003 -0.101991 6.776911 -0.188347 -0.364491 7.763261 -3.630181 -3.040982 6.044136 0.000000 0.000000 0.000000 0.783135 1.699849 -20.813088 1.492020 -0.653791 23.429667 -2.146891 -7.693032 16.522595 0.000000 0.000000 0.000000 -8.260330 -0.364321 28.262752 13.514554 -2.147380 -27.791361 -0.879339 1.428361 27.174907 -3.770152 5.347511 -23.356493 0.000000 0.000000 0.000000 -12.731462 7.851225 -5.816935 -29.195076 -8.422131 -2.721336 11.877900 -15.881689 -1.294513 0.000000 0.000000 0.000000 3.260395 -3.430843 -1.148198 43.132277 -8.822235 -8.812460 -4.698681 16.145059 0.289099 0.000000 0.000000 0.000000 
-0.264097 0.962871 0.699163 -5.941628 13.311362 -4.313312 5.481930 -0.089359 6.441196 -0.436231 -0.282184 7.106562 -3.198741 -2.249391 6.136559 0.000000 0.000000 0.000000 1.488796 1.759967 -18.918369 1.347413 -0.981551 30.754483 -3.094133 -9.615089 16.405495 0.000000 0.000000 0.000000 -8.232716 -0.287744 27.588374 13.636242 -2.159405 -28.194515 -0.797116 1.984380 27.333713 -3.634477 5.318803 -24.092520 0.000000 0.000000 0.000000 -11.376045 8.425543 -5.723986 -23.429616 -10.060361 -1.980688 12.673657 -12.617956 -1.154460 0.000000 0.000000 0.000000 1.887249 -3.645323 -1.299690 38.590008 -8.047079 -7.699536 -7.144224 13.270590 0.039611 0.000000 0.000000 0.000000 
-0.263350 0.964552 0.681186 -5.866858 13.084487 -4.270294 5.031233 -0.043847 6.071136 -0.080663 -0.265393 5.907399 -3.668697 -2.985433 6.360914 0.000000 0.000000 0.000000 2.022737 1.631259 -15.862671 0.222945 -0.796872 35.366306 -2.909700 -9.451508 16.406802 0.000000 0.000000 0.000000 -8.220783 -0.233147 26.656754 13.197571 -1.912451 -29.503520 -0.945837 1.765076 28.003189 -3.538541 5.207357 -21.947826 0.000000 0.000000 0.000000 -9.408663 7.942469 -4.955746 -19.651718 -9.836427 -1.806698 12.942762 -9.430527 -0.907777 0.000000 0.000000 0.000000 0.061337 -4.277818 -1.617186 35.497935 -8.239863 -7.166573 -7.873360 12.321148 -0.006378 0.000000 0.000000 0.000000 
-0.263160 0.963934 0.666499 -5.477025 11.897281 -3.579147 4.164342 0.020822 4.614755 0.094382 -0.286536 5.944104 -3.260727 -2.294041 6.423970 0.000000 0.000000 0.000000 2.787914 1.427183 -12.328166 -2.652484 0.697020 35.752876 -2.248543 -8.413472 15.983747 0.000000 0.000000 0.000000 -7.769400 -0.170372 25.279676 11.441748 -1.381056 -30.788042 -0.259846 1.565907 28.127911 -3.364621 4.951059 -20.907287 0.000000 0.000000 0.000000 -8.919006 7.000115 -4.339973 -15.391925 -9.463005 -1.577935 13.831416 -6.796771 -0.733915 0.000000 0.000000 0.000000 -0.835408 -3.505317 -1.357703 31.911388 -8.551891 -6.563249 -9.915363 10.261936 -0.090026 0.000000 0.000000 0.000000 
-0.263493 0.961748 0.654826 -4.745835 11.366306 -3.276627 3.164660 0.062048 3.486771 0.111391 -0.300153 6.178019 -3.031763 -1.827649 6.573677 0.000000 0.000000 0.000000 2.915403 1.122135 -9.274244 -4.492701 1.638561 32.939431 -2.304288 -8.412609 15.077042 0.000000 0.000000 0.000000 -7.823230 -0.083078 24.473621 10.804226 -1.166996 -31.627157 -0.538585 1.628348 27.999732 -2.871801 4.529114 -19.092329 0.000000 0.000000 0.000000 -7.038251 6.628968 -3.737787 -13.376315 -9.124245 -1.473479 13.509997 -4.307109 -0.486952 0.000000 0.000000 0.000000 -1.570656 -3.565358 -1.402698 29.065583 -8.018114 -5.876078 -11.032281 8.756487 -0.072285 0.000000 0.000000 0.000000 
-0.264571 0.959763 0.645325 -4.295825 10.168245 -3.191734 2.275906 0.080622 2.531102 0.270791 -0.352780 6.800491 -2.147157 -0.257698 6.662451 0.000000 0.000000 0.000000 3.080387 0.804255 -6.405915 -5.979086 2.311929 27.997912 -2.660607 -8.915895 13.247155 0.000000 0.000000 0.000000 -7.389826 -0.068796 23.836106 9.487181 -0.853005 -32.219385 -0.218967 2.048025 27.965427 -2.621408 4.307969 -18.547303 0.000000 0.000000 0.000000 -6.307891 5.424268 -3.063543 -11.083571 -8.108353 -1.346049 13.283302 -2.656098 -0.333150 0.000000 0.000000 0.000000 -1.482774 -2.607768 -1.058789 26.453333 -7.737679 -5.336998 -12.373629 6.625850 0.013403 0.000000 0.000000 0.000000 
-0.266802 0.958590 0.637663 -4.043991 9.221109 -3.237172 1.920980 0.070291 1.930170 0.073437 -0.342651 7.279400 -1.304921 1.147245 6.575673 0.000000 0.000000 0.000000 2.350025 0.503367 -4.151087 -6.289900 2.326160 23.250748 -3.173758 -9.783426 11.673148 0.000000 0.000000 0.000000 -7.325432 -0.010676 23.150598 9.180655 -0.752352 -32.858455 0.029103 1.989179 28.976238 -2.635414 4.298947 -19.768003 0.000000 0.000000 0.000000 -5.424611 5.636048 -2.930036 -10.629741 -7.741794 -1.373031 12.928448 -2.094717 -0.262701 0.000000 0.000000 0.000000 -1.820961 -1.927945 -0.828930 24.625075 -7.292236 -4.961952 -12.271615 5.534709 0.068314 0.000000 0.000000 0.000000 
-0.270589 0.957368 0.631408 -3.673960 8.108531 -3.008637 1.436089 0.039694 1.082196 0.302770 -0.387665 7.585680 -0.772537 2.298487 7.141792 0.000000 0.000000 0.000000 1.322133 0.336510 -2.980886 -6.132833 2.148294 19.429566 -3.291341 -10.007472 10.681019 0.000000 0.000000 0.000000 -7.011048 0.009682 22.542915 9.037854 -0.698113 -33.178879 -0.003933 2.453022 29.101742 -3.028822 4.562513 -19.958430 0.000000 0.000000 0.000000 -4.956611 5.341764 -2.716125 -10.363853 -7.479881 -1.373672 12.510822 -1.166871 -0.172315 0.000000 0.000000 0.000000 -2.329247 -1.535002 -0.717686 23.463703 -7.074847 -4.707460 -13.352925 3.898341 0.193758 0.000000 0.000000 0.000000 
-0.276026 0.956736 0.627170 -3.371498 7.801522 -2.947334 1.474054 0.003017 0.549754 0.234487 -0.393083 7.934717 -0.768590 2.346212 7.282329 0.000000 0.000000 0.000000 0.744660 0.289758 -2.672938 -5.902162 1.995618 17.671393 -3.921164 -11.263144 10.504398 0.000000 0.000000 0.000000 -7.045558 0.041856 22.193658 9.203374 -0.717917 -33.269110 -0.075639 1.866162 29.423797 -3.374063 4.681967 -20.336951 0.000000 0.000000 0.000000 -4.252763 5.671188 -2.679436 -10.457517 -7.027005 -1.429510 12.192731 -0.628218 -0.110320 0.000000 0.000000 0.000000 -3.221077 -0.961752 -0.542410 22.051991 -6.719750 -4.370869 -13.352781 2.306802 0.305562 0.000000 0.000000 0.000000 
-0.282975 0.956360 0.624769 -3.200021 7.302126 -2.795764 1.504233 -0.029815 0.073561 0.300898 -0.378118 7.530434 -0.233791 3.942259 8.853302 0.000000 0.000000 0.000000 0.105934 0.220392 -2.124353 -5.367509 1.730427 15.294394 -3.037542 -9.639338 11.042559 0.000000 0.000000 0.000000 -7.034057 0.075440 21.683384 9.749251 -0.826836 -33.104759 -0.214849 2.046319 28.972500 -3.833771 4.975391 -20.998989 0.000000 0.000000 0.000000 -3.927959 5.618797 -2.602498 -10.396500 -7.097108 -1.412921 12.533130 1.002114 0.009445 0.000000 0.000000 0.000000 -3.905106 -0.767445 -0.501483 20.922057 -6.738991 -4.098601 -13.358915 1.609909 0.358709 0.000000 0.000000 0.000000 
-0.290751 0.956143 0.624072 -3.069886 7.221898 -2.573144 1.717839 -0.045292 -0.075256 0.394905 -0.391639 7.510959 0.045768 4.186249 8.312059 0.000000 0.000000 0.000000 -0.037490 0.214177 -2.083289 -5.054523 1.594008 14.275540 -2.559166 -8.736456 11.223067 0.000000 0.000000 0.000000 -6.526588 -0.005287 21.594932 9.619162 -0.743153 -33.753846 -0.417142 1.859406 29.307362 -3.516507 4.740106 -21.446084 0.000000 0.000000 0.000000 -3.715046 5.610642 -2.554197 -10.126338 -6.536767 -1.417621 12.254392 2.083603 0.091464 0.000000 0.000000 0.000000 -3.938453 -1.411106 -0.707552 19.560363 -6.519232 -3.811229 -12.882965 1.286507 0.359860 0.000000 0.000000 0.000000 
-0.298879 0.955897 0.624274 -3.077965 7.276170 -2.568959 2.023007 -0.023503 0.360305 0.396271 -0.341425 6.555873 0.693473 5.360399 8.447782 0.000000 0.000000 0.000000 -0.097607 0.188574 -1.838817 -4.706114 1.455058 13.341379 -1.902738 -7.514001 11.623742 0.000000 0.000000 0.000000 -5.814617 -0.134096 21.501287 9.628617 -0.747656 -33.689095 -0.753997 1.957110 28.865867 -4.049178 5.103348 -21.274934 0.000000 0.000000 0.000000 -3.078025 5.505671 -2.417093 -10.354261 -6.793801 -1.418887 11.851982 3.975500 0.213301 0.000000 0.000000 0.000000 -4.483260 -1.671335 -0.817570 18.899010 -7.038944 -3.694332 -11.859138 0.943417 0.355041 0.000000 0.000000 0.000000 
-0.306794 0.955951 0.624957 -2.803990 7.215784 -2.558551 2.158453 -0.006569 0.665125 0.288054 -0.308444 6.248961 1.056696 5.891057 8.238077 0.000000 0.000000 0.000000 -0.287136 0.180046 -1.778942 -4.345801 1.349870 12.925177 -1.584969 -6.944306 11.808494 0.000000 0.000000 0.000000 -5.216263 -0.242298 21.711770 8.986392 -0.560673 -34.622570 -0.665050 1.950412 29.568515 -4.117467 5.162174 -21.565393 0.000000 0.000000 0.000000 -3.091908 5.298276 -2.336322 -10.094105 -6.631615 -1.418933 11.337287 5.207400 0.276529 0.000000 0.000000 0.000000 -4.789741 -2.321441 -1.048475 18.222767 -7.029244 -3.578002 -10.907284 0.294110 0.366494 0.000000 0.000000 0.000000 
-0.314598 0.955913 0.625739 -2.662192 7.398598 -2.503376 2.635534 -0.006573 0.922752 0.147619 -0.247025 5.408551 0.874150 5.867774 8.946247 0.000000 0.000000 0.000000 -0.372936 0.194828 -1.940447 -3.840138 1.206111 12.464580 -1.461758 -6.897796 12.892027 0.000000 0.000000 0.000000 -4.463381 -0.380207 21.546215 8.770417 -0.539982 -34.372154 -1.171369 1.921204 29.102047 -4.442232 5.376005 -21.455203 0.000000 0.000000 0.000000 -2.934264 5.388971 -2.350684 -10.064389 -6.517559 -1.400450 10.423377 6.029051 0.285708 0.000000 0.000000 0.000000 -5.039850 -2.471725 -1.105589 17.644364 -7.257324 -3.452178 -9.724804 0.399871 0.315932 0.000000 0.000000 0.000000 
-0.322534 0.955387 0.626543 -2.519141 7.129099 -2.544635 2.830600 0.006032 1.209962 0.134824 -0.218328 4.865849 1.442102 6.974088 9.445360 0.000000 0.000000 0.000000 -0.329940 0.174582 -1.731910 -3.717998 1.170833 12.202077 -0.915689 -5.743212 12.190701 0.000000 0.000000 0.000000 -4.042568 -0.447722 21.655086 8.585842 -0.497767 -34.427717 -1.367130 1.971664 29.133846 -4.322678 5.278991 -20.828176 0.000000 0.000000 0.000000 -3.274192 5.485601 -2.437466 -9.639778 -6.012401 -1.369997 9.363612 6.800310 0.272502 0.000000 0.000000 0.000000 -4.984654 -2.418681 -1.082764 17.027074 -7.104695 -3.315655 -8.542033 -0.094118 0.293750 0.000000 0.000000 0.000000 
-0.330709 0.954912 0.627320 -2.345974 6.946548 -2.628925 3.256645 0.016147 1.629761 -0.071152 -0.158608 4.179713 1.580181 7.370043 9.989700 0.000000 0.000000 0.000000 -0.315046 0.151170 -1.497945 -3.232584 1.047211 11.814860 -0.877203 -5.620642 11.849875 0.000000 0.000000 0.000000 -3.847395 -0.464172 21.396550 8.566920 -0.533540 -33.862275 -1.706009 2.185119 28.784432 -4.442493 5.370485 -21.016019 0.000000 0.000000 0.000000 -3.053896 5.356579 -2.355748 -9.565030 -5.951738 -1.352612 8.052578 7.607630 0.226960 0.000000 0.000000 0.000000 -5.289887 -2.474686 -1.114429 16.782369 -6.587003 -3.216300 -7.325638 -0.038067 0.246380 0.000000 0.000000 0.000000 
-0.339071 0.954510 0.627826 -2.173160 7.147522 -2.605666 3.680646 0.009937 1.874566 -0.171500 -0.117925 3.515055 1.479941 7.367109 10.411900 0.000000 0.000000 0.000000 -0.112163 0.136374 -1.336738 -2.833894 0.939209 11.454418 -1.199387 -6.144547 11.493949 0.000000 0.000000 0.000000 -3.818007 -0.466408 21.165063 8.441552 -0.531346 -33.583427 -1.936728 1.900869 28.661312 -4.500402 5.376112 -20.971784 0.000000 0.000000 0.000000 -3.055143 5.610336 -2.446638 -9.179479 -6.217965 -1.308707 6.931257 8.304787 0.172994 0.000000 0.000000 0.000000 -5.811238 -2.151659 -1.016161 16.676978 -6.168222 -3.147867 -6.515791 0.190143 0.209074 0.000000 0.000000 0.000000 
-0.347602 0.954367 0.628102 -2.050977 7.283659 -2.702072 4.301363 0.005364 2.389918 -0.467491 -0.049048 2.685303 1.277199 7.161724 10.741491 0.000000 0.000000 0.000000 0.078700 0.116521 -1.133578 -2.417366 0.829116 11.045834 -1.341633 -6.417921 11.537802 0.000000 0.000000 0.000000 -3.665532 -0.487491 20.890460 7.825480 -0.455438 -33.142303 -1.821706 1.376035 28.537855 -4.948543 5.594989 -21.086198 0.000000 0.000000 0.000000 -2.504737 5.467011 -2.289361 -9.276848 -6.347373 -1.329518 6.002618 8.564449 0.116519 0.000000 0.000000 0.000000 -6.565384 -2.147059 -1.004619 17.045281 -5.308466 -3.140290 -6.292458 0.722729 0.184486 0.000000 0.000000 0.000000 
-0.356132 0.953983 0.628135 -2.086557 6.901090 -2.646246 4.843906 -0.014247 2.433687 -0.423100 -0.046027 2.487755 1.409839 7.424166 11.001574 0.000000 0.000000 0.000000 0.487340 0.103671 -0.996400 -1.999343 0.717377 10.329491 -1.500682 -6.748061 11.377635 0.000000 0.000000 0.000000 -3.915618 -0.417331 20.596549 7.732347 -0.416848 -33.491238 -1.631245 1.418032 28.961325 -4.851760 5.515589 -20.854660 0.000000 0.000000 0.000000 -2.415568 5.127016 -2.142174 -8.570034 -6.187719 -1.273655 5.831947 8.722743 0.107030 0.000000 0.000000 0.000000 -6.877860 -1.729449 -0.880196 16.590264 -4.814500 -3.019538 -6.294514 1.632413 0.158973 0.000000 0.000000 0.000000 
-0.364527 0.953802 0.628236 -2.127214 7.111649 -2.472162 5.416203 -0.060393 2.046464 -0.452950 -0.055772 2.831743 1.404802 7.364528 10.784357 0.000000 0.000000 0.000000 1.013479 0.105896 -1.002161 -1.708038 0.625052 9.568897 -1.914515 -7.615206 11.827022 0.000000 0.000000 0.000000 -4.227218 -0.352338 20.086855 7.858916 -0.472979 -32.977459 -1.570216 1.331253 28.540257 -4.317057 5.146919 -20.768262 0.000000 0.000000 0.000000 -2.137467 4.890648 -2.014652 -7.920113 -6.364030 -1.192529 5.926303 8.353591 0.110196 0.000000 0.000000 0.000000 -7.209410 -1.491804 -0.814505 16.458827 -4.090389 -2.919521 -6.750661 2.050732 0.155923 0.000000 0.000000 0.000000 
-0.372502 0.953456 0.628541 -2.197216 6.906320 -2.521204 5.844161 -0.077100 2.035636 -0.478045 -0.062500 3.109102 1.922918 8.095829 10.529445 0.000000 0.000000 0.000000 1.319951 0.070604 -0.694180 -1.410301 0.534513 8.643824 -1.683821 -7.275276 12.228526 0.000000 0.000000 0.000000 -4.318480 -0.323091 19.836803 7.773377 -0.446612 -33.197978 -1.398254 1.316714 28.945804 -4.341696 5.159138 -20.800121 0.000000 0.000000 0.000000 -2.186607 4.582531 -1.902212 -7.333908 -6.415930 -1.144802 6.256240 7.836425 0.128129 0.000000 0.000000 0.000000 -7.490051 -1.108866 -0.709842 16.593681 -3.282067 -2.893718 -7.907759 2.786327 0.146307 0.000000 0.000000 0.000000 
-0.379891 0.953138 0.629097 -2.193490 6.811663 -2.423996 6.341484 -0.105658 1.815999 -0.723360 -0.038974 3.310514 2.250680 8.661733 10.687179 0.000000 0.000000 0.000000 1.727622 0.013232 -0.224314 -1.240041 0.463121 7.535383 -1.769998 -7.407181 11.973369 0.000000 0.000000 0.000000 -4.727120 -0.227983 18.993255 8.196309 -0.595747 -32.221009 -1.410318 1.541470 28.404901 -4.027461 4.957760 -20.221871 0.000000 0.000000 0.000000 -2.731751 4.378682 -1.908097 -6.529740 -6.265247 -1.044195 6.730212 6.680801 0.137187 0.000000 0.000000 0.000000 -7.236611 -0.630460 -0.559706 16.055366 -2.868560 -2.750051 -8.746674 3.057848 0.143297 0.000000 0.000000 0.000000 
-0.386652 0.953428 0.629601 -2.231573 7.206506 -2.539307 6.705084 -0.126676 1.889259 -0.802937 -0.023310 3.107996 2.558734 9.318786 11.125582 0.000000 0.000000 0.000000 1.881474 -0.035578 0.179082 -1.143643 0.422030 6.970401 -1.150778 -6.208095 12.238436 0.000000 0.000000 0.000000 -4.755400 -0.235324 18.888638 8.121595 -0.580065 -32.244740 -1.427629 1.486164 28.456286 -4.085935 5.028641 -20.029096 0.000000 0.000000 0.000000 -3.261328 4.108460 -1.885227 -6.344266 -6.682869 -1.026576 7.933464 5.728808 0.170710 0.000000 0.000000 0.000000 -6.891573 -0.593522 -0.550237 15.887191 -2.763309 -2.722198 -9.267096 3.550172 0.125102 0.000000 0.000000 0.000000 
-0.392821 0.954042 0.629734 -2.175960 7.158226 -2.487470 6.979042 -0.138198 1.941609 -0.756180 -0.022009 2.913598 2.553677 9.416555 11.504635 0.000000 0.000000 0.000000 2.212248 -0.043992 0.218118 -1.155528 0.403852 6.393001 -1.140983 -6.362559 13.006885 0.000000 0.000000 0.000000 -4.908503 -0.192432 18.269821 8.315143 -0.686927 -31.259110 -1.605534 1.645867 28.012374 -4.195643 5.109115 -19.499270 0.000000 0.000000 0.000000 -4.091270 3.995469 -1.969323 -6.157278 -6.740514 -0.997422 8.860508 4.438355 0.159066 0.000000 0.000000 0.000000 -6.282823 -0.051246 -0.357839 15.667747 -2.667677 -2.668015 -9.879974 4.026476 0.101047 0.000000 0.000000 0.000000 
-0.398654 0.954854 0.629165 -2.252603 7.152458 -2.311058 7.467844 -0.168825 1.697521 -0.879640 0.000751 2.680077 2.572243 9.676367 12.314073 0.000000 0.000000 0.000000 2.423261 -0.010196 -0.071964 -1.001736 0.362372 5.991439 -0.730865 -5.836705 14.138596 0.000000 0.000000 0.000000 -4.912881 -0.189888 18.260735 8.381265 -0.697396 -31.267549 -1.608385 1.915689 28.208574 -4.362409 5.272644 -19.284247 0.000000 0.000000 0.000000 -4.844578 3.829118 -2.030642 -6.357511 -6.671997 -1.014399 9.923063 3.174370 0.125274 0.000000 0.000000 0.000000 -5.652441 0.046713 -0.316834 15.451428 -3.059735 -2.674080 -9.709291 4.514845 0.075211 0.000000 0.000000 0.000000 
-0.404071 0.955440 0.627916 -2.227762 7.217061 -2.127241 7.841321 -0.197392 1.221349 -1.004384 0.012730 2.758061 2.520318 9.813764 13.065227 0.000000 0.000000 0.000000 2.874675 0.031563 -0.429614 -0.919469 0.351153 6.096714 -1.228553 -6.736118 14.075183 0.000000 0.000000 0.000000 -4.813755 -0.193315 17.828635 8.208942 -0.712093 -30.569200 -1.681273 1.945977 28.006939 -3.851065 4.909486 -18.690947 0.000000 0.000000 0.000000 -5.369664 3.772953 -2.095432 -6.675961 -6.739551 -1.041393 9.947422 1.736668 0.052494 0.000000 0.000000 0.000000 -5.085998 0.384389 -0.179121 15.268127 -3.245233 -2.649647 -8.831238 4.789700 0.062527 0.000000 0.000000 0.000000 
-0.408908 0.955611 0.626018 -2.216431 7.200981 -2.033275 8.231937 -0.221101 0.766832 -1.037870 0.005904 3.092529 2.214076 9.438248 13.382789 0.000000 0.000000 0.000000 2.973035 0.092286 -0.904527 -0.586259 0.302633 6.401550 -1.230950 -6.772683 14.219253 0.000000 0.000000 0.000000 -4.987957 -0.170388 18.042735 8.227574 -0.729898 -30.375222 -1.686417 2.266502 27.926483 -4.095881 5.132614 -19.039994 0.000000 0.000000 0.000000 -5.759942 3.489203 -2.064110 -7.092349 -6.654874 -1.071619 10.233684 0.459866 -0.019658 0.000000 0.000000 0.000000 -4.649326 0.758209 -0.046931 15.896034 -3.770953 -2.795094 -8.473309 5.114013 0.054832 0.000000 0.000000 0.000000 
-0.412751 0.955479 0.623748 -2.155011 7.485007 -1.742104 8.281293 -0.240511 0.185734 -1.152768 0.011885 3.298461 2.572603 9.938284 13.115041 0.000000 0.000000 0.000000 3.297183 0.196000 -1.698844 -0.652436 0.323794 6.786538 -1.717085 -7.684290 14.563227 0.000000 0.000000 0.000000 -4.733854 -0.219964 18.278923 8.004294 -0.667259 -30.531450 -1.756069 2.229019 28.081327 -3.943262 5.028185 -18.243488 0.000000 0.000000 0.000000 -6.115678 3.105510 -1.975746 -7.361335 -7.022380 -1.096949 9.593545 -0.024003 -0.039887 0.000000 0.000000 0.000000 -3.808993 0.648061 -0.035028 16.123254 -4.200149 -2.879381 -7.056319 5.699905 0.048532 0.000000 0.000000 0.000000 
-0.415362 0.954879 0.621363 -2.121185 7.767168 -1.446865 8.432916 -0.266664 -0.645968 -1.231791 0.003687 3.805461 2.528302 9.866564 12.979841 0.000000 0.000000 0.000000 3.076787 0.312745 -2.612669 -0.294379 0.270428 7.332568 -1.514446 -7.348046 15.014731 0.000000 0.000000 0.000000 -4.568029 -0.247426 18.208010 7.830323 -0.662232 -29.938666 -1.700218 1.892968 27.777704 -4.182609 5.145104 -18.069694 0.000000 0.000000 0.000000 -6.336990 3.494659 -2.162893 -8.181218 -8.131030 -1.171220 9.807124 -0.306529 -0.052972 0.000000 0.000000 0.000000 -3.696779 0.675557 -0.005485 17.208211 -4.236333 -3.070089 -6.856071 6.076839 0.040933 0.000000 0.000000 0.000000 
-0.416734 0.954700 0.619171 -1.984610 7.293409 -0.978150 7.867695 -0.258051 -1.363082 -1.413283 0.008638 4.461589 4.209054 12.179924 12.245666 0.000000 0.000000 0.000000 2.915842 0.384941 -3.237726 -0.434159 0.300277 7.294712 -0.937382 -6.334753 14.821368 0.000000 0.000000 0.000000 -4.335819 -0.254931 17.940863 7.713695 -0.703676 -29.029106 -2.292331 2.053806 26.740375 -4.135470 5.012859 -15.851307 0.000000 0.000000 0.000000 -6.506765 1.966967 -1.565534 -8.343546 -6.001889 -1.178421 9.155957 -1.579294 -0.105842 0.000000 0.000000 0.000000 -0.968105 0.889431 0.245717 16.684324 -4.036519 -2.960161 -7.257587 7.188064 -0.010283 0.000000 0.000000 0.000000 
-0.416992 0.956078 0.617460 -1.569222 7.135495 -0.708871 7.565768 -0.260458 -1.838422 -1.494121 0.006466 4.907535 3.793537 11.578127 12.424756 0.000000 0.000000 0.000000 2.269066 0.409726 -3.551937 -0.124041 0.247741 7.419414 -0.738532 -5.964527 14.640965 0.000000 0.000000 0.000000 -5.825170 -0.013464 17.817574 7.654414 -0.705158 -28.999384 -1.195213 1.055007 25.254000 -4.230726 4.828514 -15.232600 0.000000 0.000000 0.000000 -6.390113 3.225005 -1.997285 -9.355516 -6.212838 -1.267590 10.475529 -3.876700 -0.260380 0.000000 0.000000 0.000000 -2.691018 2.360721 0.688191 18.566892 -4.412539 -3.222443 -6.278589 8.325083 -0.015481 0.000000 0.000000 0.000000 
-0.416599 0.957055 0.616338 -0.747190 7.197141 -0.810854 7.211392 -0.257858 -2.057435 -1.727525 0.026191 5.295620 2.479425 9.855751 13.443704 0.000000 0.000000 0.000000 0.804269 0.330401 -3.097159 0.211799 0.171547 6.855955 0.263757 -4.200261 14.947787 0.000000 0.000000 0.000000 -6.331166 0.061917 18.281358 7.357854 -0.514330 -30.829332 -1.638660 1.245801 26.844184 -3.533449 4.349162 -13.170115 0.000000 0.000000 0.000000 -6.350257 2.089950 -1.523851 -9.052218 -5.938582 -1.271157 8.162694 -2.900130 -0.127646 0.000000 0.000000 0.000000 -0.201487 1.999838 0.697267 17.694571 -3.777521 -3.104613 -3.930710 6.395419 0.082548 0.000000 0.000000 0.000000 
