HIERARCHY
ROOT Hips
{
	OFFSET -0.001795 -0.223333 0.028219
	CHANNELS 6 Xposition Yposition Zposition Zrotation Yrotation Xrotation 
	JOINT LeftUpLeg
	{
		OFFSET 0.069520 -0.091406 -0.006815
		CHANNELS 3 Zrotation Yrotation Xrotation
		JOINT LeftLeg
		{
			OFFSET 0.034277 -0.375199 -0.004496
			CHANNELS 3 Zrotation Yrotation Xrotation
			JOINT LeftFoot
			{
				OFFSET -0.013596 -0.397961 -0.043693
				CHANNELS 3 Zrotation Yrotation Xrotation
				JOINT LeftToe
				{
					OFFSET 0.026358 -0.055791 0.119288
					CHANNELS 3 Zrotation Yrotation Xrotation
					End Site
					{
						OFFSET 0.000000 0.000000 0.000000
					}
				}
			}
		}
	}
	JOINT RightUpLeg
	{
		OFFSET -0.067670 -0.090522 -0.004320
		CHANNELS 3 Zrotation Yrotation Xrotation
		JOINT RightLeg
		{
			OFFSET -0.038290 -0.382569 -0.008850
			CHANNELS 3 Zrotation Yrotation Xrotation
			JOINT RightFoot
			{
				OFFSET 0.015774 -0.398415 -0.042312
				CHANNELS 3 Zrotation Yrotation Xrotation
				JOINT RightToe
				{
					OFFSET -0.025372 -0.048144 0.123348
					CHANNELS 3 Zrotation Yrotation Xrotation
					End Site
					{
						OFFSET 0.000000 0.000000 0.000000
					}
				}
			}
		}
	}
	JOINT Spine
	{
		OFFSET -0.002533 0.108963 -0.026696
		CHANNELS 3 Zrotation Yrotation Xrotation
		JOINT Spine1
		{
			OFFSET 0.005487 0.135180 0.001092
			CHANNELS 3 Zrotation Yrotation Xrotation
			JOINT Spine2
			{
				OFFSET 0.001457 0.052922 0.025425
				CHANNELS 3 Zrotation Yrotation Xrotation
				JOINT Neck
				{
					OFFSET -0.002778 0.213870 -0.042857
					CHANNELS 3 Zrotation Yrotation Xrotation
					JOINT Head
					{
						OFFSET 0.005152 0.064970 0.051349
						CHANNELS 3 Zrotation Yrotation Xrotation
						End Site
						{
							OFFSET 0.000000 0.000000 0.000000
						}
					}
				}
				JOINT LeftShoulder
				{
					OFFSET 0.078845 0.121749 -0.034090
					CHANNELS 3 Zrotation Yrotation Xrotation
					JOINT LeftArm
					{
						OFFSET 0.090977 0.030469 -0.008868
						CHANNELS 3 Zrotation Yrotation Xrotation
						JOINT LeftForeArm
						{
							OFFSET 0.259612 -0.012772 -0.027456
							CHANNELS 3 Zrotation Yrotation Xrotation
							JOINT LeftHand
							{
								OFFSET 0.249234 0.008986 -0.001171
								CHANNELS 3 Zrotation Yrotation Xrotation
								End Site
								{
									OFFSET 0.000000 0.000000 0.000000
								}
							}
						}
					}
				}
				JOINT RightShoulder
				{
					OFFSET -0.081759 0.118833 -0.038615
					CHANNELS 3 Zrotation Yrotation Xrotation
					JOINT RightArm
					{
						OFFSET -0.096012 0.032551 -0.009143
						CHANNELS 3 Zrotation Yrotation Xrotation
						JOINT RightForeArm
						{
							OFFSET -0.253742 -0.013329 -0.021401
							CHANNELS 3 Zrotation Yrotation Xrotation
							JOINT RightHand
							{
								OFFSET -0.255298 0.007772 -0.005559
								CHANNELS 3 Zrotation Yrotation Xrotation
								End Site
								{
									OFFSET 0.000000 0.000000 0.000000
								}
							}
						}
					}
				}
			}
		}
	}
}
MOTION
Frames: 104
Frame Time: 0.050000
0.000000 0.952788 0.000000 -0.770665 0.763979 0.189245 4.427468 0.144125 4.037140 -2.206655 0.318644 -5.610937 2.932827 8.982361 9.876536 0.000000 0.000000 0.000000 -2.707783 -0.063298 1.587582 2.246142 -0.225911 0.839125 -2.869669 -9.430816 7.893088 0.000000 0.000000 0.000000 -0.635429 -0.188356 5.436930 4.563006 -0.562852 -22.876408 -0.673954 -0.206355 27.900220 0.682232 1.329823 -27.920661 0.000000 0.000000 0.000000 -27.031428 1.005475 -2.419494 -46.905820 -5.835420 -5.614421 -13.820241 -26.612714 4.632906 0.000000 0.000000 0.000000 18.454387 4.597254 1.596066 51.741585 7.524393 -4.359266 9.707071 32.209534 4.211435 0.000000 0.000000 0.000000 
-0.000683 0.951765 0.000183 -0.841609 0.141265 0.759454 4.512013 0.137711 3.943819 -2.024769 0.321716 -6.290651 3.254306 9.169579 8.587589 0.000000 0.000000 0.000000 -2.773859 0.027719 0.532908 2.311797 -0.219647 1.356767 -3.114500 -9.684436 6.636974 0.000000 0.000000 0.000000 -0.394270 -0.181718 4.937666 4.213358 -0.475491 -22.971583 -0.877032 -0.190899 28.062495 0.583931 1.336831 -28.124680 0.000000 0.000000 0.000000 -26.933570 1.490401 -2.577491 -47.172541 -6.002180 -5.626146 -13.235507 -26.986563 4.592141 0.000000 0.000000 0.000000 18.242711 4.852083 1.640129 52.388348 6.118363 -4.972925 9.853397 34.037070 4.523463 0.000000 0.000000 0.000000 
-0.001072 0.951272 0.000298 -0.618651 0.044366 1.230108 4.439809 0.081715 2.862751 -2.204892 0.309890 -4.765204 3.094126 8.716564 7.881530 0.000000 0.000000 0.000000 -2.939246 0.057626 0.252249 2.077075 -0.199730 0.942924 -3.212158 -9.777569 6.146102 0.000000 0.000000 0.000000 -0.093800 -0.196805 4.920641 3.986569 -0.426296 -22.836068 -1.030094 -0.518043 28.128690 0.042672 1.612441 -28.981964 0.000000 0.000000 0.000000 -26.756651 0.854964 -2.000299 -46.751137 -6.502749 -5.448259 -14.133331 -26.530831 4.733619 0.000000 0.000000 0.000000 18.395524 4.875594 1.548342 52.440712 6.235179 -4.904270 9.226806 34.340492 4.355641 0.000000 0.000000 0.000000 
-0.001400 0.950879 0.000662 -0.458298 0.105415 1.409150 4.403934 0.063543 2.535770 -2.374363 0.320523 -4.746750 3.343122 9.037750 7.393147 0.000000 0.000000 0.000000 -3.306801 0.103595 -0.231941 2.332777 -0.223303 1.246980 -3.321420 -10.028842 6.242946 0.000000 0.000000 0.000000 -0.292934 -0.189636 5.029413 4.153949 -0.464802 -22.857470 -1.199082 -0.791023 28.440952 -0.336087 1.774909 -28.942627 0.000000 0.000000 0.000000 -27.101785 0.945504 -1.997830 -46.205509 -6.786885 -5.339609 -15.283411 -27.750071 5.276006 0.000000 0.000000 0.000000 17.865739 5.621196 1.911252 52.148261 5.625526 -5.160322 10.797340 35.912207 5.062085 0.000000 0.000000 0.000000 
-0.001715 0.950879 0.001285 -0.362143 0.305683 1.565600 4.335870 0.034963 2.021612 -2.525177 0.323773 -4.281842 3.312434 8.923442 7.099940 0.000000 0.000000 0.000000 -3.231049 0.093769 -0.120724 2.107096 -0.208116 0.749759 -3.410513 -10.237815 6.385802 0.000000 0.000000 0.000000 -0.220413 -0.217769 5.638742 4.522414 -0.604269 -22.074753 -1.617887 -0.613383 27.669209 -0.457356 1.864924 -28.161356 0.000000 0.000000 0.000000 -26.558061 0.501480 -1.810926 -46.083869 -6.703466 -5.244959 -17.629483 -29.938066 6.354473 0.000000 0.000000 0.000000 17.629842 5.276645 1.777779 51.632941 5.058754 -5.263188 12.791517 38.040406 6.094638 0.000000 0.000000 0.000000 
-0.001991 0.950999 0.002469 -0.348430 0.229376 2.018225 4.480760 0.002276 1.562751 -2.813750 0.344191 -4.267662 3.705478 9.624433 7.152565 0.000000 0.000000 0.000000 -3.389778 0.126521 -0.466633 2.213183 -0.219007 0.767612 -3.256820 -9.921479 6.403022 0.000000 0.000000 0.000000 -0.331862 -0.208217 5.583613 4.578703 -0.606611 -22.228473 -1.332355 -0.669350 28.360517 -0.619652 1.950042 -28.591178 0.000000 0.000000 0.000000 -26.288955 0.332137 -1.608942 -46.204140 -7.095168 -5.196375 -19.872566 -32.710350 7.730823 0.000000 0.000000 0.000000 16.982555 5.503672 1.902129 51.360097 4.388375 -5.576962 15.466308 40.794605 7.604719 0.000000 0.000000 0.000000 
-0.002279 0.950800 0.004481 -0.216274 0.204604 2.376950 4.508212 -0.050314 0.626891 -3.388690 0.382510 -3.778386 3.971123 10.077041 7.097343 0.000000 0.000000 0.000000 -3.361139 0.159735 -0.899715 2.022214 -0.193279 0.941778 -3.307475 -9.924178 5.950317 0.000000 0.000000 0.000000 -0.276926 -0.228466 6.028219 4.553250 -0.620940 -21.872315 -1.493366 -0.605968 28.108103 -0.499189 1.881612 -28.328693 0.000000 0.000000 0.000000 -26.065396 0.502037 -1.728191 -45.868246 -7.029915 -5.156325 -22.589652 -36.798546 9.763975 0.000000 0.000000 0.000000 16.612477 5.284703 1.794413 51.112384 3.505439 -5.874382 20.581504 45.108884 10.719907 0.000000 0.000000 0.000000 
-0.002725 0.950604 0.008198 -0.197154 0.263305 2.835607 4.468134 -0.106178 -0.365940 -3.492715 0.387438 -3.162947 4.099559 10.212700 6.655278 0.000000 0.000000 0.000000 -3.293873 0.196725 -1.388359 1.905143 -0.172538 1.262412 -3.267914 -9.707762 5.413883 0.000000 0.000000 0.000000 -0.545120 -0.214198 6.157224 4.654865 -0.644486 -21.850118 -1.389117 -0.472332 28.630927 -0.027284 1.635932 -28.169733 0.000000 0.000000 0.000000 -25.156595 0.853618 -1.905772 -46.070966 -7.131614 -5.169754 -27.908424 -41.240130 13.273603 0.000000 0.000000 0.000000 16.221759 4.608180 1.502489 50.685646 3.025110 -6.071330 28.234893 49.686583 15.767765 0.000000 0.000000 0.000000 
-0.003340 0.950016 0.014129 -0.091364 0.414992 3.088797 4.122867 -0.141383 -1.042696 -3.308030 0.368671 -2.665511 3.939884 9.768364 5.907039 0.000000 0.000000 0.000000 -3.190892 0.200149 -1.444553 1.574806 -0.130393 1.422245 -3.209798 -9.378766 4.613279 0.000000 0.000000 0.000000 -0.878142 -0.192295 6.229308 4.770355 -0.697045 -21.446419 -1.356686 -0.320383 28.645486 0.152153 1.567888 -27.989551 0.000000 0.000000 0.000000 -24.159260 1.525612 -2.316701 -45.729913 -6.586049 -5.298684 -36.684113 -46.251616 19.223637 0.000000 0.000000 0.000000 15.861119 3.803286 1.150178 50.691338 1.838788 -6.540136 37.609489 53.936869 22.620898 0.000000 0.000000 0.000000 
-0.004141 0.949036 0.022373 -0.017802 0.301997 3.560169 3.965007 -0.183633 -1.765179 -3.301764 0.363562 -1.645863 3.756057 9.150800 4.722537 0.000000 0.000000 0.000000 -3.263451 0.205055 -1.434032 1.502799 -0.118172 1.534456 -3.191197 -9.140739 3.830615 0.000000 0.000000 0.000000 -1.225729 -0.157029 5.980825 4.669967 -0.677407 -21.319682 -1.073611 -0.094323 29.035945 0.457763 1.423879 -28.030981 0.000000 0.000000 0.000000 -23.206897 2.195481 -2.662820 -45.710601 -6.310104 -5.410979 -48.764697 -50.195974 27.709991 0.000000 0.000000 0.000000 15.688309 3.072441 0.823080 50.265227 0.796687 -6.933351 50.271945 57.197850 32.171578 0.000000 0.000000 0.000000 
-0.004979 0.947894 0.032261 -0.173042 0.387894 3.765852 3.930561 -0.207625 -2.147927 -3.143253 0.342407 -0.796893 3.499001 8.390461 3.621815 0.000000 0.000000 0.000000 -3.132475 0.187296 -1.207352 1.340016 -0.091404 1.812567 -3.069579 -8.633692 2.973520 0.000000 0.000000 0.000000 -1.435890 -0.141050 5.963913 4.643622 -0.688993 -21.002499 -1.008013 -0.009681 29.095220 0.568131 1.400055 -28.282105 0.000000 0.000000 0.000000 -22.587439 2.458762 -2.799168 -45.587320 -5.986412 -5.502213 -60.015420 -52.960599 36.392865 0.000000 0.000000 0.000000 15.442429 2.693155 0.669363 50.501126 0.021129 -7.271312 61.541990 58.948370 41.162426 0.000000 0.000000 0.000000 
-0.005746 0.946029 0.042910 -0.344546 0.368652 4.046601 3.916678 -0.256052 -2.961970 -2.890245 0.302899 0.822315 3.141473 7.250371 2.025159 0.000000 0.000000 0.000000 -2.953680 0.161274 -0.877907 1.210290 -0.055985 2.492145 -3.032891 -8.296686 2.076179 0.000000 0.000000 0.000000 -1.852939 -0.117994 6.303019 4.864954 -0.745944 -21.006255 -0.928284 -0.019768 29.092727 0.713018 1.366120 -29.095619 0.000000 0.000000 0.000000 -21.760160 2.918685 -2.979283 -45.532849 -5.820358 -5.544365 -70.329347 -54.011132 44.290806 0.000000 0.000000 0.000000 14.959411 2.539245 0.603648 50.435387 -0.318843 -7.385796 72.458573 59.500407 49.787031 0.000000 0.000000 0.000000 
-0.006066 0.943675 0.053783 -0.497909 0.185546 4.328591 3.799965 -0.311404 -3.896457 -2.708988 0.263735 2.740914 3.070854 6.655468 0.526908 0.000000 0.000000 0.000000 -2.769181 0.175791 -1.088741 0.927335 0.015738 3.607186 -2.756739 -7.207596 0.685144 0.000000 0.000000 0.000000 -2.284348 -0.091332 6.714859 4.915525 -0.785656 -20.634816 -0.722948 0.239027 28.981461 0.389187 1.624381 -30.101819 0.000000 0.000000 0.000000 -21.249850 2.837199 -2.923707 -45.213230 -6.133801 -5.379863 -77.315295 -54.693347 50.018539 0.000000 0.000000 0.000000 14.646450 2.779173 0.763271 50.484482 -0.054321 -7.277772 79.794408 60.500516 56.764330 0.000000 0.000000 0.000000 
-0.005721 0.941046 0.064679 -0.540794 0.543706 4.630291 3.578307 -0.406433 -5.373865 -2.664043 0.221294 5.779555 2.824293 5.327991 -1.857691 0.000000 0.000000 0.000000 -2.861722 0.183778 -1.158186 0.846868 0.057458 4.634129 -2.815178 -6.904394 -0.700991 0.000000 0.000000 0.000000 -2.569803 -0.079476 7.340012 5.110118 -0.832263 -20.589730 -0.675618 0.417999 29.166916 0.369943 1.746928 -30.992263 0.000000 0.000000 0.000000 -21.093806 2.576539 -2.868358 -44.814020 -6.789559 -5.101895 -82.711583 -55.527104 54.922478 0.000000 0.000000 0.000000 14.628381 3.012489 0.974793 50.032255 0.367439 -7.083496 86.723466 61.614004 64.153270 0.000000 0.000000 0.000000 
-0.004542 0.938804 0.075780 -0.609786 0.655474 5.067659 3.516925 -0.495927 -6.767285 -2.787102 0.210974 8.506247 2.675282 4.435069 -3.350994 0.000000 0.000000 0.000000 -2.865377 0.210625 -1.474529 0.597446 0.125661 5.595896 -2.562271 -5.787911 -2.023019 0.000000 0.000000 0.000000 -2.766674 -0.070171 7.953858 5.225381 -0.866107 -20.462277 -0.686532 0.536373 29.295529 0.310806 1.825953 -31.345885 0.000000 0.000000 0.000000 -21.166503 2.602434 -2.945439 -44.422974 -7.673172 -4.764774 -86.156353 -56.271157 58.464019 0.000000 0.000000 0.000000 14.097243 3.355229 1.195410 49.903143 0.936806 -6.847166 91.589048 62.517820 69.725693 0.000000 0.000000 0.000000 
-0.002938 0.936268 0.087348 -0.536262 1.051380 5.376012 2.906690 -0.616143 -8.216110 -2.897794 0.188874 11.771903 2.897338 4.248536 -5.030988 0.000000 0.000000 0.000000 -2.982468 0.198571 -1.273025 0.451252 0.184773 6.746643 -2.774196 -5.979684 -3.111020 0.000000 0.000000 0.000000 -3.129029 -0.049508 8.863922 5.203337 -0.837756 -20.618793 -0.490815 0.870944 29.663027 -0.121505 2.144758 -31.376543 0.000000 0.000000 0.000000 -21.641265 1.979439 -2.802215 -43.901979 -8.224125 -4.528672 -89.752339 -57.667790 62.752796 0.000000 0.000000 0.000000 14.476147 3.779138 1.540650 49.194804 1.621597 -6.567588 97.046572 63.865224 76.863317 0.000000 0.000000 0.000000 
-0.001151 0.933604 0.099997 -0.548184 1.432187 5.345825 2.368821 -0.710760 -9.177731 -3.033721 0.173233 14.733367 3.362351 4.662332 -6.632641 0.000000 0.000000 0.000000 -2.647860 0.162875 -0.932742 0.069813 0.283396 7.788855 -2.850803 -5.655689 -4.632393 0.000000 0.000000 0.000000 -3.478705 -0.027732 9.665374 5.082552 -0.812038 -20.404333 -0.008689 1.246944 29.888853 -0.361967 2.365709 -31.319549 0.000000 0.000000 0.000000 -21.946254 2.005604 -3.032329 -43.617431 -8.664588 -4.339294 -93.355404 -58.264136 66.387565 0.000000 0.000000 0.000000 14.326096 4.274759 1.919672 49.541389 1.908284 -6.530800 102.733121 65.064448 84.502711 0.000000 0.000000 0.000000 
0.000536 0.930465 0.113706 -0.427651 1.745398 5.555911 1.854585 -0.827273 -10.309485 -2.733222 0.040820 17.802610 3.669759 4.749514 -8.145500 0.000000 0.000000 0.000000 -2.376690 0.225318 -1.791260 0.114611 0.377239 10.808612 -3.376477 -6.347491 -6.985182 0.000000 0.000000 0.000000 -4.152445 0.037975 10.664453 5.347374 -0.832582 -20.956225 0.222520 2.115193 30.585287 -0.343636 2.546258 -31.598777 0.000000 0.000000 0.000000 -22.311433 1.789291 -3.270965 -43.489573 -9.056297 -4.165392 -96.794202 -59.492548 70.497870 0.000000 0.000000 0.000000 14.148374 4.137241 2.084790 49.843730 2.844405 -6.294447 109.913116 65.436770 93.649895 0.000000 0.000000 0.000000 
0.002274 0.927112 0.128705 -0.539313 2.062453 5.701759 1.520400 -0.899613 -10.928719 -2.649407 -0.039345 20.017171 4.118819 5.404430 -9.204862 0.000000 0.000000 0.000000 -1.859340 0.384964 -3.789047 0.174352 0.532512 16.228535 -4.190505 -8.362811 -8.578742 0.000000 0.000000 0.000000 -4.484265 0.069405 11.418417 5.110415 -0.757598 -21.054344 0.363068 2.501904 30.930031 -0.093564 2.505859 -31.386713 0.000000 0.000000 0.000000 -22.749064 1.967106 -3.622348 -43.366411 -9.474827 -3.990682 -98.178842 -60.278244 72.444425 0.000000 0.000000 0.000000 13.819566 4.583739 2.425071 50.542308 3.450398 -6.162545 111.494970 65.520831 96.124546 0.000000 0.000000 0.000000 
0.004333 0.923342 0.145750 -0.250219 3.011174 5.528005 0.867984 -0.916822 -10.559956 -2.374251 -0.244344 22.607909 4.294311 5.167889 -10.415587 0.000000 0.000000 0.000000 -1.822166 0.621746 -6.687681 1.218284 0.344915 23.599934 -5.055679 -11.033492 -9.477864 0.000000 0.000000 0.000000 -4.916294 0.102263 12.596852 4.694531 -0.652775 -20.669351 0.252434 2.813985 30.919524 0.497591 2.349829 -31.495045 0.000000 0.000000 0.000000 -23.061146 2.145832 -4.079647 -43.262433 -11.024444 -3.362191 -98.570826 -60.561660 72.717532 0.000000 0.000000 0.000000 13.642484 4.041210 2.312127 51.324055 4.849518 -5.649084 114.649888 66.305086 101.433290 0.000000 0.000000 0.000000 
0.006581 0.919267 0.165652 -0.030561 3.451065 4.551028 0.804530 -0.779643 -8.947875 -3.012305 -0.121529 24.219179 4.736035 5.890257 -11.244656 0.000000 0.000000 0.000000 -2.041242 0.848293 -9.756566 1.803928 0.152898 33.816232 -5.289689 -12.200674 -7.224239 0.000000 0.000000 0.000000 -5.765012 0.190732 14.343548 4.654092 -0.641335 -20.679413 0.513051 3.457217 31.152851 0.446846 2.536532 -31.646656 0.000000 0.000000 0.000000 -23.554434 1.621049 -4.135670 -42.358274 -12.020348 -2.905379 -99.053046 -62.245801 74.571421 0.000000 0.000000 0.000000 12.460159 3.962748 2.363835 52.036976 5.562340 -5.392041 114.977973 67.090074 103.501319 0.000000 0.000000 0.000000 
0.008619 0.915589 0.188657 -0.506967 4.149824 3.639399 0.935457 -0.619705 -7.181273 -3.016504 -0.215270 25.500142 4.662206 4.872744 -12.608601 0.000000 0.000000 0.000000 -2.558127 1.212358 -15.620417 4.238724 -1.418889 46.267641 -5.584565 -13.454557 -4.152540 0.000000 0.000000 0.000000 -5.877285 0.167271 16.532952 4.333394 -0.523866 -21.049002 0.396810 2.138550 31.696538 0.204989 2.547786 -32.824766 0.000000 0.000000 0.000000 -24.680926 1.670694 -4.006589 -41.433272 -13.021297 -2.672303 -99.258567 -64.074085 77.299168 0.000000 0.000000 0.000000 12.012183 3.954941 2.191058 52.600601 5.845922 -5.356271 115.655652 66.878866 103.701099 0.000000 0.000000 0.000000 
0.010084 0.912246 0.214887 -1.267730 4.110176 3.855726 1.572070 -0.452282 -5.353047 -2.848987 -0.249486 25.041197 4.663749 4.212221 -13.886277 0.000000 0.000000 0.000000 -3.410231 1.531843 -22.837930 7.242574 -3.623224 53.184871 -6.429873 -15.705012 -3.430745 0.000000 0.000000 0.000000 -5.301034 0.067149 17.382720 5.115827 -0.743283 -20.914973 -0.928203 1.357149 31.500923 -0.719595 2.861514 -32.463827 0.000000 0.000000 0.000000 -23.837070 1.501234 -3.464588 -41.915422 -14.181736 -2.415151 -98.339616 -66.036977 79.015523 0.000000 0.000000 0.000000 11.067224 4.432858 2.230424 54.114272 6.014369 -5.299415 114.449205 67.683063 102.770528 0.000000 0.000000 0.000000 
0.010969 0.909307 0.244364 -1.654987 4.404624 3.980661 2.298411 -0.266937 -2.886740 -2.893222 -0.225434 24.156547 4.584327 3.200091 -15.112574 0.000000 0.000000 0.000000 -3.902433 1.745062 -29.565470 8.359428 -4.475503 54.066565 -6.857418 -16.797967 -3.173290 0.000000 0.000000 0.000000 -4.881174 -0.055175 19.965954 5.542897 -0.753792 -22.380996 -1.373455 0.010453 31.706517 -1.398252 3.010537 -33.036287 0.000000 0.000000 0.000000 -23.691976 0.665573 -2.489618 -42.374335 -15.295809 -2.244111 -101.490404 -67.460755 84.582400 0.000000 0.000000 0.000000 10.448981 4.608522 2.110250 54.852835 5.126518 -5.764357 116.918660 66.726700 103.936514 0.000000 0.000000 0.000000 
0.011053 0.903657 0.277347 -2.273098 3.632088 4.376416 3.178722 -0.162594 -1.085027 -3.160398 -0.062747 23.602244 4.806203 4.174772 -14.964363 0.000000 0.000000 0.000000 -3.525409 2.197857 -35.322874 8.759264 -4.059635 49.707610 -7.241187 -17.736919 -4.863489 0.000000 0.000000 0.000000 -4.560701 -0.102693 20.981733 6.253732 -0.956575 -22.160583 -1.910625 -0.769939 31.742174 -2.345362 3.300184 -34.324530 0.000000 0.000000 0.000000 -24.985972 0.808519 -2.280720 -42.338308 -16.912355 -1.857174 -103.953019 -68.677244 89.222056 0.000000 0.000000 0.000000 10.685429 4.910470 2.077128 54.528423 4.615155 -6.039816 119.657566 65.806501 105.334835 0.000000 0.000000 0.000000 
0.010275 0.894774 0.315290 -2.765550 3.254531 4.735612 3.373680 -0.040010 1.110702 -1.998027 -0.396173 23.512856 4.486347 2.050966 -17.077206 0.000000 0.000000 0.000000 -2.817707 2.730790 -40.147019 8.235946 -3.180973 43.945948 -6.266508 -15.069004 -5.249392 0.000000 0.000000 0.000000 -3.556927 -0.327058 22.282953 6.359996 -0.985895 -22.149635 -2.538238 -1.424884 30.647993 -2.277496 3.101218 -33.602571 0.000000 0.000000 0.000000 -24.545686 0.762707 -1.939343 -42.305973 -17.012296 -1.827824 -109.626807 -68.886475 95.921930 0.000000 0.000000 0.000000 13.023633 5.992007 2.464647 52.302404 3.108486 -6.426564 124.079478 66.210552 109.994421 0.000000 0.000000 0.000000 
0.008508 0.882902 0.359489 -2.260845 4.588477 5.430164 3.787073 0.039280 3.326112 -1.097506 -0.757251 23.403554 4.388327 0.362729 -18.438599 0.000000 0.000000 0.000000 -2.850097 2.627079 -42.516007 7.412789 -2.817367 41.673323 -5.938127 -14.186478 -5.277688 0.000000 0.000000 0.000000 -3.144932 -0.490872 22.862309 7.276600 -1.186046 -22.180226 -3.744559 -2.622677 30.492857 -2.189292 2.997156 -34.787888 0.000000 0.000000 0.000000 -25.001721 -0.286812 -1.179422 -42.537358 -17.861904 -1.567559 -110.274991 -69.893415 97.942249 0.000000 0.000000 0.000000 14.468663 5.600220 2.185217 51.287204 1.848934 -6.798816 126.178312 65.900339 111.674984 0.000000 0.000000 0.000000 
0.005423 0.872193 0.408606 -1.934095 5.100034 6.941287 3.143928 0.137810 4.625067 0.977925 -1.452387 23.669449 4.202051 0.080850 -17.731338 0.000000 0.000000 0.000000 -2.533729 2.772264 -45.148489 6.899100 -2.796864 44.532822 -5.654734 -13.493061 -4.715614 0.000000 0.000000 0.000000 -2.474932 -0.640392 22.504961 7.111890 -1.237220 -20.703711 -3.903023 -4.224180 29.058684 -2.204988 2.813916 -35.756903 0.000000 0.000000 0.000000 -24.978952 0.562408 -1.341806 -43.196433 -17.866319 -1.531274 -114.616026 -68.081047 101.519882 0.000000 0.000000 0.000000 14.540107 6.753925 2.456084 51.408847 1.586278 -6.717169 128.467296 67.786967 115.402530 0.000000 0.000000 0.000000 
0.000814 0.869712 0.460238 -2.226050 5.633769 8.806557 3.906631 0.010797 3.802472 2.236756 -2.093138 26.243341 3.774348 1.519995 -13.494591 0.000000 0.000000 0.000000 -1.667587 3.088183 -46.722506 6.298167 -2.761812 47.950159 -5.261764 -12.550775 -4.034541 0.000000 0.000000 0.000000 -1.157382 -0.884995 21.074718 7.612416 -1.287259 -21.225490 -4.089342 -4.144356 29.504465 -3.303108 3.373831 -35.814302 0.000000 0.000000 0.000000 -27.089947 0.315378 -1.458712 -41.602217 -17.070311 -1.874500 -113.631293 -68.284062 100.255657 0.000000 0.000000 0.000000 15.779977 6.485098 2.426057 49.339266 1.774754 -6.470214 126.321274 70.299180 115.341960 0.000000 0.000000 0.000000 
-0.005218 0.877323 0.512157 -3.124303 4.858252 10.068969 3.829553 -0.191717 -0.209124 2.902726 -3.073486 34.825530 2.137686 2.982753 -3.393569 0.000000 0.000000 0.000000 0.585993 4.019816 -45.026514 6.287289 -2.723277 50.162762 -5.375939 -12.492694 -6.483999 0.000000 0.000000 0.000000 0.077498 -1.148450 21.122774 7.534446 -1.140115 -22.812050 -2.916185 -3.695233 30.952055 -4.714619 4.008873 -38.259106 0.000000 0.000000 0.000000 -29.865774 -0.063039 -1.306421 -40.071132 -16.574918 -2.227476 -115.939742 -69.486483 104.224664 0.000000 0.000000 0.000000 13.374228 6.869973 2.637173 50.495708 3.786696 -5.945239 127.381503 71.692941 118.331672 0.000000 0.000000 0.000000 
-0.011245 0.888630 0.564952 -3.795459 3.303368 12.363358 2.165014 -0.676264 -8.119022 3.530804 -4.299591 46.247083 1.690884 3.913887 0.785407 0.000000 0.000000 0.000000 2.821274 5.058200 -44.392778 5.547360 -1.801727 48.678585 -6.014438 -14.446924 -6.419405 0.000000 0.000000 0.000000 1.482913 -1.340147 19.827481 6.850123 -0.888266 -23.886231 -2.562485 -2.711244 31.642066 -4.886589 4.075934 -38.588459 0.000000 0.000000 0.000000 -29.232646 0.823767 -1.867687 -40.708899 -14.624556 -2.853124 -119.880885 -70.088338 109.452128 0.000000 0.000000 0.000000 13.549241 7.571626 2.994699 49.653390 5.558335 -5.197950 130.243002 71.967104 122.052477 0.000000 0.000000 0.000000 
-0.016577 0.898549 0.623333 -3.977058 1.249916 13.796916 0.171288 -1.384355 -15.623373 3.852436 -4.845636 54.692485 4.103233 8.134250 -1.918882 0.000000 0.000000 0.000000 4.493127 5.311973 -39.645225 3.525962 -0.148913 42.545233 -5.446193 -12.368766 -8.367830 0.000000 0.000000 0.000000 1.047248 -1.152548 19.604040 5.820204 -0.560125 -25.429795 -0.172198 -0.163515 33.233959 -5.244734 4.422579 -40.375298 0.000000 0.000000 0.000000 -30.779257 0.333349 -2.214737 -39.454844 -13.213389 -3.207551 -123.173820 -69.611482 112.178734 0.000000 0.000000 0.000000 11.494993 6.145142 2.561254 51.337445 8.058586 -4.469962 134.194648 72.533734 128.929852 0.000000 0.000000 0.000000 
-0.020865 0.909244 0.692723 -3.363972 0.421092 13.838641 -0.982605 -2.131297 -22.228539 3.855757 -5.122124 59.527371 5.018802 9.906713 -2.918228 0.000000 0.000000 0.000000 5.779394 4.699564 -32.714554 1.291903 1.015871 38.563939 -4.569965 -8.733739 -10.428885 0.000000 0.000000 0.000000 0.138382 -0.908900 19.575321 5.764392 -0.619609 -24.576802 -0.046354 1.256907 31.676932 -4.415803 4.221559 -40.027710 0.000000 0.000000 0.000000 -30.288782 0.628649 -2.888498 -39.286014 -10.343160 -3.746364 -122.676551 -68.358515 109.524382 0.000000 0.000000 0.000000 11.145223 6.781233 2.988533 51.062669 8.366508 -4.144582 141.128923 71.514394 137.406588 0.000000 0.000000 0.000000 
-0.023582 0.924364 0.774839 -2.180640 -0.116695 12.745987 -1.296388 -2.661346 -27.026525 1.634518 -3.449140 60.300956 6.092133 12.010694 -4.389246 0.000000 0.000000 0.000000 5.136072 3.175211 -23.456058 0.040111 1.404303 33.257464 -4.320255 -8.510912 -8.497560 0.000000 0.000000 0.000000 -2.829739 -0.183351 18.164590 6.529510 -0.812866 -24.219013 0.683631 2.945340 32.932489 -4.936881 4.721605 -39.460082 0.000000 0.000000 0.000000 -29.830300 1.206223 -3.867326 -38.857447 -7.605215 -4.424640 -123.733694 -65.944630 107.365269 0.000000 0.000000 0.000000 11.271097 6.398483 3.091411 49.967373 8.345769 -4.282552 142.717415 72.494209 141.256844 0.000000 0.000000 0.000000 
-0.024967 0.943719 0.868542 -1.650247 -0.929373 11.470979 -0.798131 -2.644852 -28.236266 -0.477902 -1.466629 55.496461 6.415339 12.104207 -7.835988 0.000000 0.000000 0.000000 3.734382 2.117816 -17.146908 0.400088 1.338047 33.208059 -2.743753 -6.229789 -2.153417 0.000000 0.000000 0.000000 -4.816972 0.248726 16.581248 6.713534 -0.986462 -22.959203 2.728315 4.668880 31.982626 -5.058185 4.982634 -38.541539 0.000000 0.000000 0.000000 -29.887733 3.439508 -6.117960 -39.301899 -3.677811 -5.241836 -119.648446 -60.802676 95.734221 0.000000 0.000000 0.000000 8.291344 3.871506 1.908020 52.426590 6.267217 -4.965188 134.557333 69.468093 129.357470 0.000000 0.000000 0.000000 
-0.025433 0.960565 0.968205 -1.069649 -0.452451 9.700525 -1.821992 -2.611192 -25.356194 -0.491421 -1.360344 47.320833 5.721276 9.773371 -9.932054 0.000000 0.000000 0.000000 2.855833 1.506772 -13.027303 0.259890 1.429870 35.536850 -2.152579 -6.608310 3.044562 0.000000 0.000000 0.000000 -6.237498 0.465223 15.380008 8.695531 -1.388425 -23.746667 1.408911 3.535657 32.397864 -3.802865 4.346284 -37.858322 0.000000 0.000000 0.000000 -29.442549 6.954370 -8.040303 -40.429569 -0.919098 -6.358921 -115.816511 -54.092653 83.619191 0.000000 0.000000 0.000000 7.747505 2.715854 1.283117 53.241090 3.176628 -6.424993 126.237901 64.627387 113.389392 0.000000 0.000000 0.000000 
-0.025447 0.963623 1.068747 -0.783755 0.560392 7.232564 -2.514909 -2.218179 -20.230947 -0.221192 -1.482174 40.749523 4.888134 8.268489 -7.407063 0.000000 0.000000 0.000000 2.315435 1.271152 -11.301985 -0.723790 1.867814 38.725273 -2.899844 -7.834074 1.465196 0.000000 0.000000 0.000000 -6.959721 0.507590 14.949226 9.641800 -1.695364 -23.223918 0.034990 2.066981 32.211961 -3.496489 4.084060 -39.394684 0.000000 0.000000 0.000000 -28.447941 8.214638 -8.235139 -41.656379 0.078766 -6.993835 -117.226718 -50.256741 81.010555 0.000000 0.000000 0.000000 8.397068 1.386489 0.593863 52.651761 0.538963 -7.543486 121.240911 63.345473 104.727060 0.000000 0.000000 0.000000 
-0.024762 0.957586 1.169411 -1.548530 1.615498 4.490140 -3.196888 -1.672176 -14.617947 1.060091 -2.142193 37.836751 3.936779 6.135117 -6.421468 0.000000 0.000000 0.000000 2.432948 1.224242 -10.711710 -0.099578 1.551449 43.176418 -2.148695 -6.935839 4.416687 0.000000 0.000000 0.000000 -5.738814 0.223837 14.599059 8.149553 -1.375963 -23.122331 0.123406 -1.243865 32.262053 -3.515967 3.675000 -40.056917 0.000000 0.000000 0.000000 -29.460717 9.381614 -8.148317 -41.794220 -0.781066 -7.057476 -115.789525 -50.296619 80.918665 0.000000 0.000000 0.000000 8.159652 0.338824 -0.156858 51.822217 -2.469267 -8.815762 115.344009 60.802836 92.638568 0.000000 0.000000 0.000000 
-0.024891 0.951455 1.269624 -2.593761 1.642291 3.456722 -2.558637 -1.049947 -9.815094 1.038316 -2.051469 36.391043 3.990692 6.451043 -5.836587 0.000000 0.000000 0.000000 2.891457 1.432331 -12.073176 1.084893 0.965560 45.317219 -3.094397 -8.307312 1.587603 0.000000 0.000000 0.000000 -4.688286 0.050123 13.225040 9.866106 -1.575790 -25.347596 -1.818522 -1.751235 34.994074 -3.983672 3.817849 -41.668301 0.000000 0.000000 0.000000 -29.854433 10.260911 -8.443904 -41.905949 -2.212550 -7.016217 -116.264482 -49.467633 81.277029 0.000000 0.000000 0.000000 8.681948 -0.854048 -0.729055 50.769531 -3.311828 -9.306367 110.245514 59.240490 84.748557 0.000000 0.000000 0.000000 
-0.026780 0.950264 1.368648 -2.915505 2.698039 1.909015 -1.884965 -0.540906 -5.481545 0.325310 -1.791724 34.745126 4.288723 8.174977 -2.514701 0.000000 0.000000 0.000000 3.597975 1.731287 -13.893785 1.325396 0.577429 44.374458 -2.949562 -7.515130 0.127629 0.000000 0.000000 0.000000 -4.755092 0.015548 12.967443 9.873905 -1.702502 -24.426831 -2.178347 -3.492892 34.384034 -3.158773 3.281884 -40.562037 0.000000 0.000000 0.000000 -27.813705 11.418688 -8.416966 -44.675527 -3.651996 -6.933027 -116.435618 -45.666595 77.713407 0.000000 0.000000 0.000000 8.258736 -2.090371 -1.389172 50.130672 -5.892375 -10.080786 108.537537 56.935713 79.026046 0.000000 0.000000 0.000000 
-0.030218 0.956490 1.466329 -3.302888 3.908713 1.850930 -1.154177 -0.269511 -3.028801 1.247575 -2.271098 33.786273 4.343303 8.513512 -1.605731 0.000000 0.000000 0.000000 4.750532 1.975681 -14.920341 1.062598 0.439618 38.376746 -3.102625 -8.347711 1.860364 0.000000 0.000000 0.000000 -4.164983 -0.082432 13.009116 9.209704 -1.478422 -25.003373 -2.199023 -7.606903 34.449921 -3.795587 3.049737 -41.887583 0.000000 0.000000 0.000000 -28.040402 10.665415 -6.721715 -45.034356 -5.616373 -6.686149 -116.536388 -47.391728 82.278930 0.000000 0.000000 0.000000 7.606061 -1.592202 -1.459481 50.057393 -8.127292 -11.028933 106.505923 56.445989 73.991758 0.000000 0.000000 0.000000 
-0.034312 0.965026 1.563493 -3.823844 3.723175 1.197761 0.352615 -0.095491 -1.035960 0.719186 -2.132087 35.110563 4.331050 9.739286 2.655068 0.000000 0.000000 0.000000 6.526497 2.239705 -15.331895 -0.277415 0.956725 30.735002 -2.639569 -7.228262 1.832230 0.000000 0.000000 0.000000 -3.653115 -0.146498 12.635160 10.962709 -1.762681 -26.300893 -4.170222 -8.413145 35.291123 -3.994788 2.947899 -40.226888 0.000000 0.000000 0.000000 -28.140973 10.656888 -6.270324 -45.493965 -6.662637 -6.655468 -116.134203 -48.244973 83.997253 0.000000 0.000000 0.000000 8.129228 -1.457027 -1.564046 50.404746 -9.245849 -11.691664 103.533062 56.292587 70.316141 0.000000 0.000000 0.000000 
-0.036871 0.967189 1.659058 -3.691460 3.493285 1.077424 1.096567 -0.139216 -1.465732 0.152046 -2.132291 38.974764 4.409513 10.494907 5.045255 0.000000 0.000000 0.000000 7.877308 2.454784 -15.711707 -2.370335 1.503710 23.729230 -1.471578 -4.984691 3.550827 0.000000 0.000000 0.000000 -2.872516 -0.198906 11.134035 9.665298 -1.513203 -25.858760 -4.421967 -9.462764 35.744362 -3.109877 2.284180 -37.834594 0.000000 0.000000 0.000000 -28.362718 9.913215 -5.311474 -45.618850 -7.020457 -6.682086 -114.059383 -48.422933 82.644678 0.000000 0.000000 0.000000 6.384738 -1.424098 -1.432725 53.334165 -11.360964 -13.461443 101.587315 55.389118 66.945760 0.000000 0.000000 0.000000 
-0.037794 0.958628 1.752579 -3.483271 1.612326 -0.108656 1.629036 -0.204119 -2.375938 -0.144373 -1.971326 43.944968 4.849965 11.288722 5.216288 0.000000 0.000000 0.000000 8.654028 2.433193 -14.833551 -2.068704 1.484072 22.923202 0.266166 -1.980136 5.811734 0.000000 0.000000 0.000000 -2.317926 -0.231534 10.612932 9.034166 -1.508738 -24.744266 -4.013168 -8.901653 35.354710 -2.299611 1.770866 -36.729793 0.000000 0.000000 0.000000 -28.960011 9.424711 -4.800665 -45.511772 -6.494057 -6.912978 -112.055511 -50.654702 83.342626 0.000000 0.000000 0.000000 7.152438 -1.042729 -1.442604 52.708126 -12.326285 -13.653448 100.406455 56.202519 66.279695 0.000000 0.000000 0.000000 
-0.037823 0.941945 1.840080 -3.000035 0.907761 -0.915067 1.988786 -0.434713 -5.629352 -0.176702 -2.070010 48.735975 5.665981 12.471489 3.651414 0.000000 0.000000 0.000000 8.474183 2.082294 -12.823429 -1.416089 1.468956 25.862253 0.172942 -0.377671 1.632415 0.000000 0.000000 0.000000 -1.967749 -0.261141 10.572768 8.387580 -1.433623 -24.091409 -3.489186 -7.309194 35.221738 -2.755261 2.180858 -36.036375 0.000000 0.000000 0.000000 -29.862742 9.503065 -5.433638 -45.084513 -5.142701 -7.153366 -110.268655 -50.834030 80.458966 0.000000 0.000000 0.000000 8.939190 -0.660057 -1.411082 51.799256 -12.492425 -13.317272 101.689168 57.074176 69.104795 0.000000 0.000000 0.000000 
-0.037456 0.927679 1.919022 -2.425887 0.110210 -1.228526 2.605502 -0.784189 -11.137346 -1.112299 -1.360775 50.383042 6.636903 13.643270 -0.603868 0.000000 0.000000 0.000000 8.251572 1.392991 -8.955919 -1.258152 1.668531 29.298566 -0.097250 0.862786 -2.057087 0.000000 0.000000 0.000000 -2.413798 -0.217468 10.961546 8.429338 -1.569453 -22.979375 -2.205119 -3.768664 33.649377 -0.934568 1.763946 -34.436712 0.000000 0.000000 0.000000 -29.206737 8.114906 -5.651553 -45.864043 -2.575467 -7.615432 -107.676154 -49.553215 74.187799 0.000000 0.000000 0.000000 10.219786 -1.427666 -1.525191 50.771825 -10.682419 -12.071923 102.450539 58.910257 73.694231 0.000000 0.000000 0.000000 
-0.036973 0.926174 1.992009 -1.992699 -1.714768 -1.549317 2.951020 -1.043471 -16.158876 -2.035547 -0.253188 47.401618 7.042423 14.189500 -2.936376 0.000000 0.000000 0.000000 7.952367 0.371569 -3.151996 -1.936860 1.962698 27.284735 0.499489 2.366489 -1.789110 0.000000 0.000000 0.000000 -2.725174 -0.173674 11.396902 7.639171 -1.311552 -23.847582 -0.505152 -0.097878 33.806078 -0.134539 1.753567 -33.113554 0.000000 0.000000 0.000000 -27.781255 8.690200 -6.790313 -45.968445 1.464367 -8.748492 -107.506961 -48.302343 70.957751 0.000000 0.000000 0.000000 11.035688 -2.179615 -1.592847 49.732064 -8.225284 -10.858002 102.132554 59.839129 75.940039 0.000000 0.000000 0.000000 
-0.036416 0.936620 2.064525 -1.222733 -2.505170 -1.015544 2.457577 -1.373999 -20.540505 -2.344885 0.107139 37.580409 6.211957 12.832353 -0.422687 0.000000 0.000000 0.000000 6.246792 -0.551449 2.647618 -2.930984 2.014851 22.941179 2.719678 5.815960 1.666776 0.000000 0.000000 0.000000 -3.771574 -0.038669 9.854518 7.378837 -1.302856 -23.262369 0.681047 2.394412 33.770280 0.470671 1.795562 -32.948224 0.000000 0.000000 0.000000 -26.763347 9.928062 -8.160150 -45.266379 4.880339 -9.512677 -109.483146 -45.409223 67.995650 0.000000 0.000000 0.000000 9.407289 -2.890635 -1.551985 51.569917 -7.333388 -10.799481 105.348654 58.647708 79.382789 0.000000 0.000000 0.000000 
-0.035958 0.953474 2.140344 -1.174199 -3.727210 -0.183729 1.785414 -1.455468 -20.648656 -1.563372 -0.052854 20.369872 4.340271 10.289305 6.111826 0.000000 0.000000 0.000000 4.612947 -1.057286 6.851411 -2.628924 1.802382 20.798125 5.112755 7.063667 7.836694 0.000000 0.000000 0.000000 -4.345567 0.034444 8.383856 7.410072 -1.203186 -24.396394 1.842616 3.993626 34.940034 0.393453 1.980315 -32.680943 0.000000 0.000000 0.000000 -25.444868 13.233589 -10.320781 -44.788727 6.782551 -9.999160 -111.395573 -40.565201 62.987855 0.000000 0.000000 0.000000 8.861048 -4.558233 -2.162243 51.454547 -6.154783 -10.364044 105.886371 55.337548 76.838953 0.000000 0.000000 0.000000 
-0.036099 0.967869 2.220556 -1.200364 -4.096934 -0.246594 0.330622 -1.499346 -17.987626 -0.726845 -0.050290 5.770965 2.244443 8.260733 14.153032 0.000000 0.000000 0.000000 3.881668 -1.241857 8.851505 -1.512612 1.629119 22.570069 6.401553 5.561859 14.307258 0.000000 0.000000 0.000000 -5.080654 0.080376 6.039248 6.963120 -1.274540 -22.553349 2.631832 5.140550 34.493446 0.188214 2.211741 -31.621111 0.000000 0.000000 0.000000 -22.032319 14.782455 -10.692744 -47.153210 7.695331 -10.737979 -111.790103 -38.320444 59.967645 0.000000 0.000000 0.000000 7.763770 -5.659504 -2.508978 53.486208 -6.761055 -10.814357 105.115011 51.454561 72.179928 0.000000 0.000000 0.000000 
-0.037045 0.965993 2.301366 -1.095133 -3.928734 -1.669916 -1.154081 -1.447916 -14.791377 -0.537751 -0.011671 2.826764 1.138115 7.399030 17.825500 0.000000 0.000000 0.000000 2.701149 -1.158113 9.300529 -0.738872 2.016204 31.113526 7.333818 5.250309 17.988491 0.000000 0.000000 0.000000 -7.105498 0.191120 6.449410 6.779514 -1.114618 -23.864057 3.566155 2.598619 35.663850 -0.252828 2.003616 -31.537637 0.000000 0.000000 0.000000 -21.975274 15.884347 -10.657646 -45.975414 8.259117 -10.855771 -112.791519 -37.355100 60.993342 0.000000 0.000000 0.000000 6.478615 -5.198707 -2.384049 54.014864 -7.222484 -11.382533 108.570099 48.349380 70.523398 0.000000 0.000000 0.000000 
-0.038788 0.952641 2.375326 -1.150703 -1.902321 -3.192327 -2.004906 -1.389509 -12.880535 -1.365544 -0.008230 8.255027 1.121137 6.609390 13.346222 0.000000 0.000000 0.000000 1.771507 -0.533529 4.422775 2.134959 1.232283 44.881941 5.950723 2.712180 18.993351 0.000000 0.000000 0.000000 -8.491817 0.270530 7.921983 7.586954 -1.298033 -23.968537 2.124821 -0.249721 34.703255 -1.550538 2.431457 -32.674933 0.000000 0.000000 0.000000 -22.181298 15.069993 -9.715645 -44.610949 5.655801 -9.780574 -112.411968 -39.256286 64.107623 0.000000 0.000000 0.000000 8.255844 -4.569611 -2.430934 53.107410 -8.657677 -11.860925 106.848907 46.338192 64.795491 0.000000 0.000000 0.000000 
-0.041131 0.942481 2.437449 -0.951118 -0.712716 -4.738563 -2.100992 -1.136864 -10.309440 -1.962410 0.008289 13.193629 1.821873 6.441024 7.929033 0.000000 0.000000 0.000000 1.334606 0.158680 -1.570050 2.816397 0.776056 51.175172 0.730805 -3.703461 12.126383 0.000000 0.000000 0.000000 -8.721959 0.299724 9.902483 7.897127 -1.331262 -24.502606 0.146643 -2.011617 34.594838 -1.988752 2.490709 -33.805750 0.000000 0.000000 0.000000 -24.422672 11.909148 -7.763945 -42.829919 -0.157211 -7.801421 -109.449158 -46.443122 71.167629 0.000000 0.000000 0.000000 11.031092 -3.249231 -2.277683 52.563646 -8.821020 -11.857728 102.111001 47.438401 60.919811 0.000000 0.000000 0.000000 
-0.043794 0.947493 2.491368 -1.278997 0.139758 -5.862225 -1.811921 -0.613735 -5.667969 -1.789663 -0.049978 12.835590 2.140654 6.802741 6.968932 0.000000 0.000000 0.000000 1.481739 0.883762 -7.912068 3.516947 0.057753 49.058157 -2.935980 -9.226801 6.383276 0.000000 0.000000 0.000000 -7.719210 0.226378 11.816389 7.533063 -1.171526 -25.349832 -1.392986 -4.631797 34.375306 -3.617534 2.970301 -34.296911 0.000000 0.000000 0.000000 -24.701413 9.938116 -5.843710 -43.469073 -6.089303 -6.222970 -107.340880 -52.515873 77.924430 0.000000 0.000000 0.000000 10.892589 -2.184596 -2.071644 52.676121 -9.085325 -12.032133 99.309166 47.539739 57.222995 0.000000 0.000000 0.000000 
-0.046619 0.956357 2.540494 -1.899144 1.399399 -5.889020 -1.465900 -0.168741 -1.625367 -0.534920 -0.303368 11.073616 1.278447 4.947716 5.778222 0.000000 0.000000 0.000000 2.553317 1.439154 -11.913217 2.129963 0.367093 38.305920 -2.811428 -8.737629 5.856634 0.000000 0.000000 0.000000 -6.355592 0.079082 12.036299 7.269277 -1.088006 -25.440069 -2.540699 -6.645587 33.877545 -5.021228 3.485140 -34.533888 0.000000 0.000000 0.000000 -26.158207 9.270396 -5.206019 -44.475215 -11.786276 -4.498407 -106.419278 -55.811287 81.701186 0.000000 0.000000 0.000000 9.530665 -1.798357 -1.876772 53.766125 -10.030264 -12.715463 99.323770 47.063463 55.966296 0.000000 0.000000 0.000000 
-0.049649 0.961498 2.588164 -2.085237 1.944438 -6.278587 -1.092568 0.264840 2.701986 -0.035890 -0.356941 9.602055 0.928998 3.954658 4.752385 0.000000 0.000000 0.000000 2.909608 1.544261 -12.479555 0.655262 0.592467 22.923948 -0.585477 -4.585757 8.000285 0.000000 0.000000 0.000000 -4.757416 -0.082321 12.115371 6.335485 -0.769779 -26.586238 -3.532297 -6.654570 34.308596 -5.096174 3.580630 -33.833099 0.000000 0.000000 0.000000 -24.690322 7.727313 -4.168507 -46.697817 -14.345424 -3.617314 -110.794328 -56.567665 87.743827 0.000000 0.000000 0.000000 9.639448 -2.052805 -1.937273 54.192236 -10.722980 -13.192965 101.332480 46.522328 57.471798 0.000000 0.000000 0.000000 
-0.052708 0.960293 2.635533 -1.559224 3.630080 -6.497554 -1.559809 0.425808 4.241967 0.245477 -0.549413 12.039776 1.032762 3.860228 3.843389 0.000000 0.000000 0.000000 3.661076 1.370192 -10.548803 -0.660776 0.580426 12.764431 0.483073 -2.927968 10.177284 0.000000 0.000000 0.000000 -4.332559 -0.132935 10.982726 5.249541 -0.541352 -25.927892 -3.414182 -7.115646 33.969173 -5.580966 3.929077 -33.698841 0.000000 0.000000 0.000000 -23.926844 6.200167 -3.355224 -48.065866 -15.150368 -3.215324 -115.521911 -55.351941 91.684613 0.000000 0.000000 0.000000 9.246038 -2.269758 -1.899350 54.461340 -11.078763 -13.370434 103.995021 47.383689 61.311907 0.000000 0.000000 0.000000 
-0.054883 0.956971 2.682055 -1.196373 5.821484 -6.762936 -1.196331 0.400620 4.230558 -0.112583 -0.876643 18.373745 0.009550 1.574757 3.003876 0.000000 0.000000 0.000000 3.729571 1.105919 -8.417749 -0.647113 0.476059 10.996453 -0.027513 -4.320000 12.423091 0.000000 0.000000 0.000000 -3.670221 -0.190372 10.039939 3.890779 -0.185429 -25.812415 -3.101850 -6.655186 33.579487 -4.565622 3.711079 -32.634568 0.000000 0.000000 0.000000 -24.308246 5.826732 -3.793075 -47.634026 -15.525932 -2.872885 -113.917664 -52.844094 85.347463 0.000000 0.000000 0.000000 9.572179 -2.671700 -1.877549 53.941959 -10.565136 -12.895657 106.317750 48.803702 66.511527 0.000000 0.000000 0.000000 
-0.056308 0.952317 2.724766 -1.105555 6.823646 -7.271356 0.305219 0.287524 3.687347 -2.081908 -0.785554 25.647846 0.686676 2.785899 2.731412 0.000000 0.000000 0.000000 4.179372 0.912079 -6.628479 -0.832663 0.541857 12.531516 -0.943101 -5.445543 10.356941 0.000000 0.000000 0.000000 -3.423743 -0.182906 8.343627 3.580938 -0.115740 -25.185222 -2.151093 -5.422816 33.358469 -4.166488 3.823012 -31.859712 0.000000 0.000000 0.000000 -25.349118 6.039876 -4.685658 -46.603423 -13.393182 -3.526143 -114.071642 -50.372368 81.018219 0.000000 0.000000 0.000000 10.223318 -2.777679 -1.736810 52.973148 -8.798268 -11.879830 107.740983 51.141430 72.136484 0.000000 0.000000 0.000000 
-0.056957 0.951000 2.762344 -1.153864 7.089869 -7.318749 2.346449 0.055418 1.295400 -3.543956 -0.652501 31.978223 0.632341 2.197737 1.731315 0.000000 0.000000 0.000000 3.904064 0.491786 -3.534612 0.315840 0.262722 12.258339 -1.456696 -5.862452 7.712361 0.000000 0.000000 0.000000 -2.731012 -0.187058 7.029008 3.938739 -0.173416 -25.926133 -1.995978 -4.239359 33.866052 -4.279241 4.122601 -30.363555 0.000000 0.000000 0.000000 -26.241975 6.134907 -5.348240 -45.641500 -10.378181 -4.466269 -112.550976 -48.341102 75.719621 0.000000 0.000000 0.000000 10.116103 -1.583758 -0.992582 53.782336 -6.951458 -11.294088 109.330153 52.615410 76.920564 0.000000 0.000000 0.000000 
-0.056393 0.951993 2.794053 -1.181155 6.635049 -7.378462 2.738423 -0.053915 -0.422538 -4.248902 -0.368270 32.984460 2.432772 4.771591 -0.659272 0.000000 0.000000 0.000000 4.003917 0.018584 -0.068407 0.501263 0.209760 10.905477 -1.249821 -5.480079 7.675413 0.000000 0.000000 0.000000 -2.386039 -0.168907 5.853750 3.646346 -0.144272 -25.032365 -0.964178 -2.988602 32.621034 -3.192630 3.684616 -30.298224 0.000000 0.000000 0.000000 -24.950662 7.072192 -6.088715 -46.825691 -7.325991 -5.438364 -109.879098 -44.834094 67.853327 0.000000 0.000000 0.000000 9.284695 -1.491441 -0.828184 54.063816 -4.415615 -10.059901 110.603522 54.006712 80.602424 0.000000 0.000000 0.000000 
-0.054590 0.951712 2.820362 -1.346989 6.805791 -7.207629 2.607044 -0.044184 -0.245044 -2.808628 -0.644368 27.371520 3.207127 6.204880 -1.025909 0.000000 0.000000 0.000000 4.027273 -0.403916 2.885172 0.625455 0.138816 8.598332 -0.071329 -2.859241 7.401144 0.000000 0.000000 0.000000 -1.947020 -0.168771 5.412383 3.359676 -0.071964 -25.096072 -0.542754 -2.924603 32.835947 -1.988634 3.047504 -29.597121 0.000000 0.000000 0.000000 -24.055756 6.861178 -5.886318 -47.996378 -5.362787 -6.247898 -108.412611 -43.840815 65.081905 0.000000 0.000000 0.000000 9.014769 -1.593953 -0.842474 55.079394 -1.424023 -8.870353 113.090310 55.308440 85.418851 0.000000 0.000000 0.000000 
-0.051946 0.950868 2.841214 -1.367336 6.243090 -6.772101 2.193421 0.004809 0.423534 -1.534625 -0.651334 20.858787 2.393603 3.963991 -2.212364 0.000000 0.000000 0.000000 3.944572 -0.618666 4.350256 0.560940 0.131403 7.293544 0.069879 -2.643334 7.510079 0.000000 0.000000 0.000000 -2.334302 -0.151982 5.321181 3.248861 -0.026017 -25.739164 0.114772 -2.641546 32.953339 -0.838255 2.408092 -29.821239 0.000000 0.000000 0.000000 -23.174803 6.757260 -5.636572 -48.422012 -4.736838 -6.579868 -106.240293 -43.533603 62.726007 0.000000 0.000000 0.000000 9.671329 -0.726787 -0.476326 55.550782 1.450458 -7.715243 115.033618 56.849344 89.758946 0.000000 0.000000 0.000000 
-0.048571 0.948876 2.856968 -1.418058 6.102905 -5.362947 1.936802 0.046763 1.061087 -1.768663 -0.290805 14.829940 1.816723 2.644953 -2.345410 0.000000 0.000000 0.000000 3.432222 -0.651466 4.645672 1.081322 0.011052 5.988149 0.018191 -2.272812 6.024940 0.000000 0.000000 0.000000 -2.320361 -0.111591 4.064842 3.363178 -0.053465 -25.740068 -0.041932 -3.041130 33.014502 -0.796817 2.275838 -29.279665 0.000000 0.000000 0.000000 -23.306086 6.660039 -5.474842 -48.099833 -3.774328 -6.933521 -105.697055 -44.130033 63.119517 0.000000 0.000000 0.000000 11.220161 -0.560559 -0.514173 54.524152 2.796356 -7.065351 118.798285 57.213947 94.308807 0.000000 0.000000 0.000000 
-0.044974 0.948291 2.868961 -1.498235 4.900030 -4.283740 2.413225 0.118213 2.310191 -2.140449 -0.032130 10.657825 1.623725 2.804468 -1.258261 0.000000 0.000000 0.000000 3.089801 -0.668434 4.838520 0.786729 0.055218 5.269677 0.333555 -1.145233 4.673580 0.000000 0.000000 0.000000 -2.457969 -0.079747 3.166878 3.737318 -0.160096 -25.650955 -0.020319 -3.139115 33.194548 -0.477159 1.960392 -29.605567 0.000000 0.000000 0.000000 -22.932206 7.260535 -5.502347 -48.712590 -3.420160 -7.229175 -104.081554 -44.877696 63.169934 0.000000 0.000000 0.000000 11.751581 -0.296203 -0.546449 54.148289 3.896462 -6.585376 119.397335 57.228929 94.395412 0.000000 0.000000 0.000000 
-0.041060 0.947194 2.878373 -1.497459 4.334359 -2.941400 2.584782 0.180805 3.460536 -2.570079 0.145145 6.945001 1.775296 3.740604 0.061895 0.000000 0.000000 0.000000 2.676446 -0.623884 4.604287 0.683312 0.054696 4.478111 0.645664 -0.290358 4.269855 0.000000 0.000000 0.000000 -2.807499 -0.047397 2.381363 4.238944 -0.255532 -26.173345 -0.273870 -3.508110 33.368756 -0.213941 1.708817 -30.076170 0.000000 0.000000 0.000000 -22.484121 8.154003 -5.768266 -49.432748 -3.092359 -7.474262 -102.661584 -45.279620 62.808233 0.000000 0.000000 0.000000 11.856606 -0.548802 -0.793628 54.381675 3.405720 -6.822960 119.403022 56.476296 92.917677 0.000000 0.000000 0.000000 
-0.037188 0.946674 2.886232 -1.392696 4.152571 -2.477970 2.376310 0.231419 4.119073 -2.282009 0.132097 5.495049 1.507242 3.318363 0.355566 0.000000 0.000000 0.000000 2.337727 -0.592032 4.477353 0.530919 0.064653 3.976545 0.443367 -0.571155 3.784542 0.000000 0.000000 0.000000 -2.959628 -0.033838 1.962490 4.413682 -0.312542 -25.855096 -0.765240 -3.956868 33.391255 0.078719 1.438115 -30.018097 0.000000 0.000000 0.000000 -23.068961 8.429521 -5.854121 -49.149778 -3.263483 -7.416126 -100.877891 -46.717419 63.158803 0.000000 0.000000 0.000000 12.519201 -0.660382 -0.990095 54.423365 2.318621 -7.310504 117.678286 55.797584 89.522001 0.000000 0.000000 0.000000 
-0.033525 0.945803 2.892995 -1.344442 3.832047 -1.813202 2.278636 0.277823 4.762942 -2.135030 0.153443 3.537685 1.403311 3.374162 0.964999 0.000000 0.000000 0.000000 1.724368 -0.587558 4.683913 0.788981 0.013145 3.472228 0.406217 -0.490785 3.347499 0.000000 0.000000 0.000000 -2.932209 -0.018421 1.357788 4.264404 -0.314992 -25.196452 -0.826588 -3.829223 32.922095 0.795646 1.022972 -29.783007 0.000000 0.000000 0.000000 -23.009344 8.270295 -5.745827 -49.003938 -3.203785 -7.366897 -98.918638 -47.420230 62.126029 0.000000 0.000000 0.000000 12.903073 -1.355793 -1.385756 54.694609 0.536149 -8.056877 115.167048 54.747533 85.088739 0.000000 0.000000 0.000000 
-0.030180 0.945135 2.898267 -1.394847 3.728054 -1.455553 2.361032 0.312980 5.409512 -2.348323 0.202696 2.346709 1.308071 3.187144 0.983878 0.000000 0.000000 0.000000 1.367174 -0.591734 4.875039 0.957151 -0.024852 2.958865 0.383852 -0.549178 3.347422 0.000000 0.000000 0.000000 -2.980945 -0.010494 1.093258 4.373309 -0.350238 -25.033725 -1.026543 -3.867580 32.792578 1.032684 0.851497 -29.397543 0.000000 0.000000 0.000000 -23.216853 8.488431 -5.894386 -48.691089 -3.257774 -7.280522 -96.486472 -47.986425 60.536595 0.000000 0.000000 0.000000 13.241761 -1.924925 -1.720506 54.553235 -1.270730 -8.794386 112.052631 53.443940 79.726624 0.000000 0.000000 0.000000 
-0.027187 0.944498 2.902004 -1.392407 3.714229 -1.096574 2.250765 0.344146 5.811169 -2.274006 0.209940 1.374279 1.182570 3.021988 1.190627 0.000000 0.000000 0.000000 0.773575 -0.580291 5.065613 1.107701 -0.057264 2.527208 0.385285 -0.558441 3.374048 0.000000 0.000000 0.000000 -3.022060 -0.005667 1.023001 4.432693 -0.390841 -24.545985 -1.207199 -3.989769 32.328050 1.340501 0.669841 -29.464450 0.000000 0.000000 0.000000 -23.192600 8.431189 -5.830895 -48.281148 -3.187428 -7.212452 -95.119381 -48.422501 59.775574 0.000000 0.000000 0.000000 13.569845 -2.168100 -1.914657 54.340705 -2.867715 -9.377895 109.717073 52.906157 76.206091 0.000000 0.000000 0.000000 
-0.024650 0.944067 2.904168 -1.351994 3.469706 -0.710471 2.131658 0.376053 6.154482 -2.178322 0.211868 0.678185 1.122751 2.988567 1.396596 0.000000 0.000000 0.000000 0.569195 -0.555596 4.961873 1.038212 -0.052816 2.301112 0.332297 -0.660935 3.292768 0.000000 0.000000 0.000000 -3.056811 -0.001178 1.022831 4.573981 -0.435689 -24.392933 -1.265128 -3.917259 32.217725 1.194264 0.718750 -29.193121 0.000000 0.000000 0.000000 -23.424297 8.394968 -5.820983 -47.937984 -2.812923 -7.302978 -94.298934 -48.613206 59.251170 0.000000 0.000000 0.000000 13.756694 -2.381626 -2.059627 53.989227 -4.070028 -9.815098 107.865089 52.633436 73.741059 0.000000 0.000000 0.000000 
-0.022474 0.943724 2.904819 -1.320926 3.111393 -0.244070 1.962678 0.409980 6.437088 -2.075323 0.214638 -0.053888 1.092214 3.081236 1.764471 0.000000 0.000000 0.000000 0.370641 -0.522584 4.783663 0.893146 -0.037582 2.107637 0.476305 -0.226366 3.050052 0.000000 0.000000 0.000000 -3.007878 0.003350 1.015129 4.589564 -0.464951 -24.011380 -1.290241 -3.749019 31.962795 1.322602 0.635434 -29.095380 0.000000 0.000000 0.000000 -23.390062 8.076256 -5.610021 -47.623765 -2.151209 -7.482798 -94.564548 -49.498279 60.394098 0.000000 0.000000 0.000000 14.131371 -2.109452 -1.986291 53.868246 -4.867670 -10.093071 107.126790 53.129848 73.420643 0.000000 0.000000 0.000000 
-0.020709 0.943833 2.904168 -1.294350 2.573699 0.033104 1.925073 0.429862 6.597838 -2.232526 0.242323 -0.675346 1.239437 3.489388 2.054901 0.000000 0.000000 0.000000 0.351175 -0.492345 4.539650 0.644178 -0.002650 2.128127 0.627979 0.069591 3.141645 0.000000 0.000000 0.000000 -2.903727 0.005551 0.986052 4.548111 -0.471336 -23.836688 -1.185224 -3.575433 31.994685 1.394395 0.579133 -29.278734 0.000000 0.000000 0.000000 -23.555311 8.028665 -5.551180 -47.541568 -1.371421 -7.771601 -94.764812 -49.703457 60.854496 0.000000 0.000000 0.000000 14.422138 -2.115763 -2.055865 53.707940 -5.024721 -10.129250 106.673518 53.499262 73.249613 0.000000 0.000000 0.000000 
-0.019266 0.943921 2.902749 -1.328650 1.935454 0.407290 1.896708 0.423309 6.377178 -2.273499 0.255301 -1.124798 1.323155 3.683237 2.148294 0.000000 0.000000 0.000000 0.338762 -0.470319 4.366636 0.489623 0.011582 1.908333 1.015647 1.080235 2.912549 0.000000 0.000000 0.000000 -2.659105 0.007473 0.894096 4.478096 -0.484673 -23.473052 -1.172919 -3.237760 31.774588 1.604121 0.452188 -29.175245 0.000000 0.000000 0.000000 -23.815625 7.841957 -5.459673 -47.290239 -0.670317 -7.972969 -94.990029 -50.247519 61.615596 0.000000 0.000000 0.000000 14.621136 -1.863147 -1.973322 53.831909 -4.866385 -10.057277 106.210091 54.644615 74.088968 0.000000 0.000000 0.000000 
-0.018135 0.944298 2.901150 -1.289399 1.781757 0.576092 1.805835 0.432275 6.390262 -2.249722 0.258375 -1.458724 1.319681 3.782665 2.425253 0.000000 0.000000 0.000000 0.330090 -0.462011 4.299407 0.419359 0.019871 1.880801 1.083451 1.200299 2.983825 0.000000 0.000000 0.000000 -2.622273 0.010292 0.793902 4.582197 -0.531691 -23.158648 -1.196683 -3.189073 31.605965 1.692927 0.406061 -29.304416 0.000000 0.000000 0.000000 -23.937237 7.725154 -5.388579 -47.263554 -0.627417 -7.981182 -94.914894 -50.646863 62.015648 0.000000 0.000000 0.000000 14.790226 -1.562694 -1.853521 53.801743 -4.202865 -9.753891 106.314379 55.798998 75.561951 0.000000 0.000000 0.000000 
-0.017193 0.944455 2.899581 -1.255644 1.625860 0.657587 1.804401 0.437269 6.432520 -2.356202 0.272602 -1.732870 1.429742 4.035642 2.523028 0.000000 0.000000 0.000000 0.187092 -0.454295 4.313904 0.480819 0.012147 1.872470 1.114153 1.331285 2.856264 0.000000 0.000000 0.000000 -2.489667 0.007427 0.872735 4.608277 -0.545727 -23.065499 -1.354778 -3.133068 31.578691 2.022181 0.216685 -29.314338 0.000000 0.000000 0.000000 -24.217730 7.178346 -5.065730 -47.087296 -0.531683 -8.000699 -94.656928 -51.132183 62.316204 0.000000 0.000000 0.000000 14.908910 -0.910766 -1.547436 53.619216 -3.346679 -9.352367 106.927398 57.318159 77.988304 0.000000 0.000000 0.000000 
-0.016438 0.944589 2.897941 -1.232114 1.728628 0.710743 1.835360 0.440563 6.533187 -2.336174 0.274700 -2.076001 1.464012 4.178363 2.715354 0.000000 0.000000 0.000000 0.194379 -0.460838 4.367163 0.537823 -0.000254 1.723921 1.011835 1.176159 2.684616 0.000000 0.000000 0.000000 -2.365087 0.004335 0.937656 4.631263 -0.560965 -22.882087 -1.401232 -3.086814 31.303023 2.188663 0.153791 -29.378846 0.000000 0.000000 0.000000 -24.242106 6.600318 -4.743889 -47.049010 -0.715600 -7.909186 -94.167203 -51.353211 62.061973 0.000000 0.000000 0.000000 14.891611 -0.534806 -1.338293 53.472058 -2.441384 -8.918502 107.530165 58.614590 80.228451 0.000000 0.000000 0.000000 
-0.015814 0.944617 2.896068 -1.266342 1.647344 0.866659 1.942423 0.424913 6.420259 -2.349743 0.279244 -2.308960 1.545603 4.352835 2.756892 0.000000 0.000000 0.000000 0.157143 -0.456542 4.350104 0.604957 -0.005799 1.802978 0.957911 1.095390 2.579512 0.000000 0.000000 0.000000 -2.131506 0.000417 0.979195 4.589189 -0.556896 -22.787007 -1.532317 -3.128474 31.286657 2.473671 -0.000925 -29.588896 0.000000 0.000000 0.000000 -24.507778 6.049940 -4.400073 -46.884627 -1.068304 -7.774090 -93.539134 -51.658533 61.868491 0.000000 0.000000 0.000000 14.789935 0.022011 -1.066553 53.211656 -1.419630 -8.446018 109.057383 60.005607 83.470298 0.000000 0.000000 0.000000 
-0.015455 0.944676 2.893898 -1.288097 1.730575 0.981454 2.113902 0.394597 6.192099 -2.458401 0.288218 -2.346560 1.490923 4.250483 2.766798 0.000000 0.000000 0.000000 0.080736 -0.420957 4.049938 0.793093 -0.029487 1.805936 0.840871 0.888168 2.433715 0.000000 0.000000 0.000000 -2.023313 -0.003455 1.088306 4.625679 -0.558634 -22.872441 -1.625412 -3.112550 31.289601 2.723717 -0.120853 -29.662685 0.000000 0.000000 0.000000 -24.633329 5.370673 -4.004704 -46.845059 -1.490674 -7.627418 -92.915532 -51.904265 61.565764 0.000000 0.000000 0.000000 14.888434 0.254180 -0.941828 52.651754 -0.506785 -7.984366 110.691088 61.149371 86.633149 0.000000 0.000000 0.000000 
-0.015345 0.944855 2.891693 -1.358455 1.721339 1.006444 2.370883 0.356392 5.903521 -2.665422 0.302789 -2.071608 1.446866 4.150549 2.731985 0.000000 0.000000 0.000000 0.024133 -0.384701 3.732438 0.869952 -0.033282 1.995552 0.743587 0.629806 2.477354 0.000000 0.000000 0.000000 -1.884705 -0.011989 1.327740 4.560954 -0.543068 -22.858402 -1.528058 -3.195212 31.258348 2.903810 -0.214160 -29.922809 0.000000 0.000000 0.000000 -24.878633 4.988115 -3.759963 -46.465515 -1.955349 -7.428391 -92.595932 -52.409975 61.837395 0.000000 0.000000 0.000000 14.943212 0.675233 -0.750035 52.121794 0.360659 -7.552439 112.772584 62.236555 90.153431 0.000000 0.000000 0.000000 
-0.015557 0.944927 2.889853 -1.375773 1.616673 0.909841 2.503336 0.341391 5.786448 -2.772574 0.311201 -1.891578 1.491104 4.275224 2.835746 0.000000 0.000000 0.000000 -0.021933 -0.369059 3.609787 0.904770 -0.034096 2.105271 0.655730 0.290510 2.726973 0.000000 0.000000 0.000000 -2.000537 -0.014971 1.536883 4.792509 -0.620915 -22.603252 -1.568528 -3.090177 31.053591 3.022207 -0.268388 -29.920334 0.000000 0.000000 0.000000 -25.029596 4.581327 -3.537513 -46.097151 -2.073893 -7.322025 -92.371207 -52.739519 61.904758 0.000000 0.000000 0.000000 15.180072 1.091423 -0.556185 51.455850 1.062862 -7.157305 115.279103 63.150547 94.019336 0.000000 0.000000 0.000000 
-0.016036 0.944891 2.888577 -1.413765 1.488949 0.883197 2.690316 0.333962 5.844095 -2.884189 0.321710 -1.873318 1.544542 4.350149 2.763606 0.000000 0.000000 0.000000 0.002674 -0.367696 3.587893 0.865006 -0.025583 2.203714 0.525783 -0.039238 2.750320 0.000000 0.000000 0.000000 -1.945049 -0.020256 1.697922 4.751565 -0.614114 -22.571061 -1.439563 -3.209030 30.996352 3.156724 -0.368829 -30.026573 0.000000 0.000000 0.000000 -25.383207 4.191094 -3.253419 -45.659294 -2.259764 -7.228470 -91.808787 -53.072774 61.816461 0.000000 0.000000 0.000000 15.457142 1.503410 -0.409686 50.830044 1.698206 -6.817068 116.442121 63.718595 95.850670 0.000000 0.000000 0.000000 
-0.016651 0.944860 2.887694 -1.421666 1.205558 0.703163 2.822610 0.342936 6.047438 -3.020928 0.337471 -2.084476 1.580237 4.435248 2.819849 0.000000 0.000000 0.000000 -0.111797 -0.364327 3.626489 0.891303 -0.025076 2.302417 0.437803 -0.232930 2.686355 0.000000 0.000000 0.000000 -2.024449 -0.023410 1.872179 4.880088 -0.667409 -22.358266 -1.314559 -3.129404 30.788263 3.379204 -0.510938 -29.943726 0.000000 0.000000 0.000000 -25.586968 4.006544 -3.127388 -45.172506 -2.113340 -7.207344 -91.967976 -53.534922 62.405619 0.000000 0.000000 0.000000 15.669522 1.893124 -0.256315 50.311936 2.158057 -6.545888 117.420054 64.040259 97.211059 0.000000 0.000000 0.000000 
-0.017234 0.944846 2.886986 -1.452932 0.868004 0.542977 2.914238 0.347954 6.135002 -3.064593 0.343110 -2.015702 1.875330 4.991808 2.775251 0.000000 0.000000 0.000000 -0.164857 -0.359010 3.616415 0.819917 -0.007485 2.535793 0.466352 -0.158929 2.646475 0.000000 0.000000 0.000000 -2.037329 -0.031019 2.170938 4.910002 -0.680842 -22.378903 -1.075753 -3.083385 30.678838 3.315642 -0.467704 -30.327051 0.000000 0.000000 0.000000 -25.612021 3.855193 -2.979026 -44.912758 -2.157503 -7.163298 -91.351144 -54.432346 62.831694 0.000000 0.000000 0.000000 15.813968 2.269513 -0.116687 50.128934 2.558566 -6.349419 118.085302 63.926270 97.724704 0.000000 0.000000 0.000000 
-0.017835 0.944998 2.886378 -1.511754 0.589184 0.276887 2.923984 0.368668 6.377321 -3.084172 0.347174 -2.036296 2.108423 5.446146 2.779164 0.000000 0.000000 0.000000 -0.118059 -0.388530 3.893985 0.809990 -0.007762 2.460776 0.543841 -0.015884 2.710341 0.000000 0.000000 0.000000 -1.980376 -0.039778 2.402080 5.047375 -0.733214 -22.234053 -0.860016 -2.910549 30.541560 3.458648 -0.505812 -30.704741 0.000000 0.000000 0.000000 -25.562432 3.456327 -2.717500 -44.710962 -2.263260 -7.095869 -90.688908 -55.590662 63.435151 0.000000 0.000000 0.000000 16.179196 2.795547 0.121110 49.814749 3.100242 -6.084359 118.443422 64.083059 98.292488 0.000000 0.000000 0.000000 
-0.018425 0.945258 2.885875 -1.496827 0.310773 -0.048304 2.794852 0.406797 6.718714 -3.009379 0.343668 -2.150925 2.274632 5.830201 2.966389 0.000000 0.000000 0.000000 -0.163837 -0.417590 4.223770 0.836395 -0.011052 2.440385 0.648769 0.219109 2.719949 0.000000 0.000000 0.000000 -1.928214 -0.054134 2.849551 5.187778 -0.780552 -22.183912 -0.780449 -2.679392 30.235123 3.591200 -0.509895 -31.220604 0.000000 0.000000 0.000000 -25.486393 3.251050 -2.605709 -44.583129 -2.273296 -7.046654 -90.431502 -56.115938 63.694998 0.000000 0.000000 0.000000 16.456394 3.168922 0.296131 49.864827 3.390969 -5.945602 118.903510 63.909131 98.656948 0.000000 0.000000 0.000000 
-0.019019 0.945490 2.885424 -1.446649 0.222516 -0.079044 2.714409 0.423390 6.856322 -2.985656 0.343333 -2.322016 2.430468 6.204581 3.194144 0.000000 0.000000 0.000000 -0.186692 -0.434324 4.411279 0.709932 -0.003385 2.175558 0.642280 0.114748 2.889072 0.000000 0.000000 0.000000 -1.877593 -0.059783 3.006505 5.285371 -0.809115 -22.165827 -0.727711 -2.849062 29.958970 3.371477 -0.436455 -31.106832 0.000000 0.000000 0.000000 -25.452857 3.151585 -2.474314 -44.426605 -2.415531 -6.973188 -90.541439 -56.349741 64.094681 0.000000 0.000000 0.000000 16.756461 3.469968 0.369964 49.689311 3.547215 -5.823784 119.077804 63.523908 98.221992 0.000000 0.000000 0.000000 
-0.019680 0.945637 2.884917 -1.369607 0.244470 -0.250905 2.578428 0.442473 6.976547 -2.950408 0.340682 -2.366175 2.436888 6.229991 3.231986 0.000000 0.000000 0.000000 -0.265027 -0.452171 4.639050 0.730929 -0.013634 1.948638 0.598451 -0.036041 2.982294 0.000000 0.000000 0.000000 -1.836209 -0.070135 3.322778 5.431206 -0.846830 -22.193696 -0.797556 -2.880811 29.679070 3.182161 -0.318343 -31.249573 0.000000 0.000000 0.000000 -25.421024 2.951229 -2.353033 -44.243499 -2.429310 -6.917405 -91.152212 -56.584352 64.839770 0.000000 0.000000 0.000000 16.918239 3.506032 0.367151 49.512461 3.430511 -5.824210 119.108697 63.084088 97.694158 0.000000 0.000000 0.000000 
-0.020369 0.945708 2.883978 -1.261839 0.134133 -0.356972 2.413825 0.458196 6.988154 -2.782706 0.325859 -2.255592 2.381472 6.167796 3.379051 0.000000 0.000000 0.000000 -0.394085 -0.461874 4.830278 0.774532 -0.023777 1.796679 0.633797 0.028335 3.010978 0.000000 0.000000 0.000000 -1.722926 -0.078788 3.482472 5.398593 -0.827431 -22.376009 -0.798160 -2.844485 29.820630 3.005650 -0.228576 -31.326525 0.000000 0.000000 0.000000 -25.512519 2.875123 -2.288766 -44.252501 -2.639056 -6.871056 -92.189691 -56.310902 65.549868 0.000000 0.000000 0.000000 16.840029 3.450715 0.339161 49.732203 3.099044 -5.995244 119.118395 62.081920 96.560566 0.000000 0.000000 0.000000 
-0.021042 0.946027 2.882449 -1.213040 0.197377 -0.442169 2.274837 0.450602 6.741810 -2.650531 0.310322 -1.927417 2.450279 6.254947 3.227607 0.000000 0.000000 0.000000 -0.459535 -0.467734 4.930310 0.877319 -0.042699 1.605089 0.529188 -0.267405 3.111325 0.000000 0.000000 0.000000 -1.557916 -0.089803 3.642834 5.346962 -0.818627 -22.313457 -0.806233 -2.712312 29.774077 2.930773 -0.153910 -31.389339 0.000000 0.000000 0.000000 -25.464628 2.494923 -2.107508 -44.477175 -2.833033 -6.815034 -93.202748 -56.191603 66.298766 0.000000 0.000000 0.000000 16.929364 3.388952 0.344514 49.652189 2.836219 -6.097069 119.048453 61.228237 95.587477 0.000000 0.000000 0.000000 
-0.021716 0.946044 2.880373 -1.084631 0.388580 -0.512774 2.195244 0.445737 6.621529 -2.707231 0.314184 -1.886040 2.430041 6.233481 3.270766 0.000000 0.000000 0.000000 -0.632568 -0.465913 5.015417 1.028002 -0.068290 1.382525 0.476609 -0.348884 3.039174 0.000000 0.000000 0.000000 -1.467397 -0.099418 3.847279 5.233355 -0.792205 -22.234207 -0.920506 -2.612092 29.812730 2.826282 -0.047339 -31.575332 0.000000 0.000000 0.000000 -25.442843 2.279745 -2.042020 -44.903909 -3.022865 -6.791025 -94.951910 -55.944156 67.636588 0.000000 0.000000 0.000000 16.697882 3.508028 0.475665 49.991164 2.519375 -6.276496 119.315190 60.413737 95.137563 0.000000 0.000000 0.000000 
-0.022410 0.946278 2.877980 -0.954268 0.550426 -0.453499 2.147249 0.421144 6.260900 -2.800311 0.321287 -1.845670 2.454029 6.296205 3.313709 0.000000 0.000000 0.000000 -0.850377 -0.443595 4.918724 1.216146 -0.097798 1.154837 0.278164 -0.840002 3.093687 0.000000 0.000000 0.000000 -1.320279 -0.105085 3.851069 4.990795 -0.730433 -22.160634 -0.971054 -2.191828 29.900261 2.663080 0.129912 -31.638616 0.000000 0.000000 0.000000 -25.390501 2.026009 -2.054278 -45.075656 -3.477511 -6.620370 -96.326217 -55.634945 68.397919 0.000000 0.000000 0.000000 16.836329 3.314250 0.498440 49.857287 2.481858 -6.315772 119.265132 60.038863 95.013505 0.000000 0.000000 0.000000 
-0.023004 0.946093 2.875357 -0.803447 0.649029 -0.383108 2.161756 0.396607 5.946102 -3.022053 0.339777 -1.674124 2.538651 6.450198 3.277286 0.000000 0.000000 0.000000 -1.065212 -0.403742 4.633030 1.350659 -0.112295 1.214971 0.201217 -0.961416 2.971063 0.000000 0.000000 0.000000 -1.260711 -0.109800 3.942229 4.713736 -0.659619 -22.095168 -1.061260 -2.027804 29.948237 2.337216 0.358079 -31.884013 0.000000 0.000000 0.000000 -25.185320 1.937098 -2.055821 -45.380643 -3.910573 -6.491083 -98.068277 -55.716257 70.119730 0.000000 0.000000 0.000000 16.598852 3.432621 0.628491 50.049484 2.574176 -6.319672 119.548118 59.546249 94.973391 0.000000 0.000000 0.000000 
-0.023394 0.946145 2.872619 -0.679254 0.935150 -0.293111 2.246685 0.369250 5.685927 -3.250168 0.359366 -1.723242 2.534199 6.510548 3.474731 0.000000 0.000000 0.000000 -1.114249 -0.385319 4.447476 1.333341 -0.117689 0.975163 -0.115844 -1.813523 3.220704 0.000000 0.000000 0.000000 -1.229500 -0.108481 3.870491 4.595827 -0.625008 -22.033479 -1.147389 -1.985726 30.120728 1.860068 0.638650 -31.892405 0.000000 0.000000 0.000000 -25.493859 1.708468 -2.002413 -45.277346 -4.703742 -6.212929 -99.236788 -55.624301 71.094583 0.000000 0.000000 0.000000 16.703163 3.586317 0.764267 49.633830 2.919810 -6.170588 119.828221 59.691430 95.639772 0.000000 0.000000 0.000000 
-0.023488 0.946055 2.870000 -0.552878 0.913935 -0.211129 2.248644 0.342782 5.306185 -3.453499 0.377767 -1.604607 2.653894 6.780242 3.604529 0.000000 0.000000 0.000000 -1.370322 -0.338068 4.099442 1.481959 -0.127630 1.256113 -0.065010 -1.725365 3.290415 0.000000 0.000000 0.000000 -1.328122 -0.104540 3.890443 4.452833 -0.589790 -21.992255 -1.072355 -1.812253 30.104023 1.493796 0.874382 -32.151641 0.000000 0.000000 0.000000 -25.457856 1.499278 -1.919955 -45.264243 -5.453906 -5.938234 -100.329866 -55.826956 72.358170 0.000000 0.000000 0.000000 16.341344 3.637572 0.844156 49.447810 3.384316 -5.978407 119.910388 60.345701 96.621124 0.000000 0.000000 0.000000 
-0.023365 0.946104 2.867761 -0.485709 0.959215 -0.085818 2.319875 0.321183 5.072792 -3.717715 0.401885 -1.774081 2.728197 7.102646 4.198424 0.000000 0.000000 0.000000 -1.426690 -0.314738 3.876491 1.590246 -0.142770 1.171955 -0.284728 -2.406187 3.680175 0.000000 0.000000 0.000000 -1.352982 -0.095869 3.651092 4.318026 -0.561122 -21.854897 -1.216531 -1.888500 30.178713 0.773764 1.238092 -32.169817 0.000000 0.000000 0.000000 -25.698350 1.416234 -1.864168 -44.759099 -6.195739 -5.650656 -101.329384 -55.722652 73.234888 0.000000 0.000000 0.000000 16.301246 3.807676 0.926306 48.958836 3.823524 -5.768725 120.234939 60.943347 97.647522 0.000000 0.000000 0.000000 
-0.023104 0.946142 2.866029 -0.353541 0.940679 -0.002338 2.235755 0.313815 4.894877 -3.759921 0.406166 -1.937046 2.717670 7.153574 4.434910 0.000000 0.000000 0.000000 -1.662738 -0.290949 3.760179 1.792403 -0.168046 1.110997 -0.385334 -2.799580 4.063163 0.000000 0.000000 0.000000 -1.382461 -0.092553 3.596237 4.125972 -0.510942 -21.838555 -1.217467 -1.955950 30.100392 0.389541 1.428122 -32.250361 0.000000 0.000000 0.000000 -25.923359 1.390015 -1.838343 -44.112386 -6.638743 -5.442088 -102.578139 -55.445596 74.144235 0.000000 0.000000 0.000000 16.103334 3.879147 0.949177 48.587890 4.146034 -5.597395 120.395310 61.893010 98.830024 0.000000 0.000000 0.000000 
-0.022950 0.946446 2.864745 -0.259326 0.916267 0.113939 2.377243 0.302712 4.853500 -3.983086 0.426027 -2.232854 2.738563 7.349787 4.972857 0.000000 0.000000 0.000000 -1.751510 -0.269019 3.571246 1.901306 -0.179438 1.167652 -0.604125 -3.424844 4.367464 0.000000 0.000000 0.000000 -1.311785 -0.091718 3.496456 3.893371 -0.445271 -21.893706 -1.381186 -2.157176 30.178089 -0.220492 1.718015 -32.535866 0.000000 0.000000 0.000000 -25.886855 1.300403 -1.697562 -43.561188 -6.889234 -5.336332 -103.502590 -55.016386 74.639412 0.000000 0.000000 0.000000 16.026352 3.854476 0.891185 48.360794 4.418552 -5.470332 120.098918 62.536351 99.034127 0.000000 0.000000 0.000000 
-0.023020 0.946282 2.863772 -0.303689 0.771173 0.142623 2.525126 0.300590 4.926653 -4.039832 0.432125 -2.308071 2.762500 7.354120 4.853285 0.000000 0.000000 0.000000 -1.765246 -0.248364 3.352967 2.162088 -0.205315 1.380111 -1.027342 -4.387097 4.340382 0.000000 0.000000 0.000000 -1.299400 -0.091428 3.475344 3.953330 -0.467037 -21.841102 -1.404845 -2.244507 30.026562 -0.374936 1.771218 -32.553037 0.000000 0.000000 0.000000 -26.199572 1.317296 -1.676888 -42.736011 -6.770702 -5.302418 -104.480975 -54.621751 75.125875 0.000000 0.000000 0.000000 15.916751 3.994528 0.921605 47.807095 4.354548 -5.417340 121.879782 62.813256 101.287950 0.000000 0.000000 0.000000 
-0.023385 0.946219 2.862921 -0.447131 1.072777 0.140725 2.590206 0.297031 4.988452 -4.106270 0.434276 -2.509166 2.731329 7.224820 4.578323 0.000000 0.000000 0.000000 -1.425088 -0.246781 3.115831 2.211381 -0.209800 1.547173 -1.364357 -5.106702 4.249744 0.000000 0.000000 0.000000 -1.425596 -0.098677 3.880729 4.329929 -0.564041 -21.793189 -1.648628 -2.402361 29.520333 -0.485150 1.845112 -32.670569 0.000000 0.000000 0.000000 -26.268467 1.197635 -1.646503 -42.082032 -6.466639 -5.279968 -104.946992 -53.754316 74.414555 0.000000 0.000000 0.000000 15.913184 3.807666 0.823993 47.715976 4.410985 -5.338644 122.715677 62.693872 102.153674 0.000000 0.000000 0.000000 
-0.023903 0.945384 2.862086 -0.634486 0.996276 0.139637 2.965863 0.269561 4.895703 -4.359280 0.457314 -2.270349 2.924379 7.491306 4.261539 0.000000 0.000000 0.000000 -1.364749 -0.219857 2.786381 2.719364 -0.265276 1.966887 -1.560406 -5.531320 4.177415 0.000000 0.000000 0.000000 -1.811848 -0.077982 3.695759 4.310787 -0.559413 -21.820248 -1.322725 -2.958541 29.528576 -1.330122 2.183226 -32.869109 0.000000 0.000000 0.000000 -26.726782 1.419963 -1.610565 -41.385982 -6.342817 -5.312127 -105.174950 -52.957451 73.882762 0.000000 0.000000 0.000000 15.665751 4.128758 0.861841 47.540829 4.157369 -5.384173 124.095627 62.345006 102.982306 0.000000 0.000000 0.000000 
-0.024533 0.945873 2.861336 -0.795451 0.788053 0.262798 3.033637 0.256574 4.729455 -3.935443 0.422432 -2.131956 2.940129 7.492825 4.182283 0.000000 0.000000 0.000000 -1.238530 -0.183527 2.336575 2.894760 -0.283444 2.127569 -1.992176 -6.517905 4.173212 0.000000 0.000000 0.000000 -1.628095 -0.097759 4.168890 3.918067 -0.449378 -22.008113 -1.134906 -2.823537 28.999397 -1.283700 2.159806 -32.602557 0.000000 0.000000 0.000000 -25.936621 1.125934 -1.396321 -41.488348 -6.129746 -5.328748 -105.299454 -53.499238 74.607311 0.000000 0.000000 0.000000 15.735022 3.806076 0.680887 47.896982 5.169911 -4.990327 121.967870 63.336308 101.496075 0.000000 0.000000 0.000000 
-0.025134 0.945750 2.860884 -0.998062 0.314958 0.666271 3.560510 0.203505 4.297506 -4.451989 0.470776 -2.363725 3.525877 8.652563 4.457775 0.000000 0.000000 0.000000 -1.228636 -0.077798 1.193956 3.206682 -0.308580 3.024832 -2.468056 -7.713407 4.519997 0.000000 0.000000 0.000000 -2.702109 -0.039644 3.844305 5.240496 -0.787894 -22.187345 -1.054084 -2.710394 29.334785 -0.645920 1.754202 -31.481382 0.000000 0.000000 0.000000 -27.097600 1.396196 -1.550868 -41.166194 -5.911756 -5.452340 -105.813230 -52.104904 73.598910 0.000000 0.000000 0.000000 16.537094 4.680250 1.049949 47.255528 4.554820 -5.175570 124.740899 63.666721 105.096968 0.000000 0.000000 0.000000 
-0.025731 0.946080 2.860698 -0.692533 0.590782 0.325591 3.501481 0.187130 3.965767 -4.405538 0.469117 -1.443679 3.503353 8.778405 5.074069 0.000000 0.000000 0.000000 -1.485603 -0.076870 1.259656 3.186966 -0.305417 3.349002 -1.984469 -6.635735 4.570468 0.000000 0.000000 0.000000 -2.719298 -0.058951 4.808268 5.031203 -0.696979 -22.695085 -1.215036 -2.366248 29.406934 0.023263 1.464222 -31.096118 0.000000 0.000000 0.000000 -27.236534 0.033764 -0.850775 -41.426037 -5.418694 -5.598417 -102.057567 -54.266388 72.076545 0.000000 0.000000 0.000000 17.202550 4.627823 1.126721 45.942206 5.999781 -4.582584 122.761536 65.093641 104.517256 0.000000 0.000000 0.000000 
