HIERARCHY
ROOT Hips
{
	OFFSET -0.001795 -0.223333 0.028219
	CHANNELS 6 Xposition Yposition Zposition Zrotation Yrotation Xrotation 
	JOINT LeftUpLeg
	{
		OFFSET 0.069520 -0.091406 -0.006815
		CHANNELS 3 Zrotation Yrotation Xrotation
		JOINT LeftLeg
		{
			OFFSET 0.034277 -0.375199 -0.004496
			CHANNELS 3 Zrotation Yrotation Xrotation
			JOINT LeftFoot
			{
				OFFSET -0.013596 -0.397961 -0.043693
				CHANNELS 3 Zrotation Yrotation Xrotation
				JOINT LeftToe
				{
					OFFSET 0.026358 -0.055791 0.119288
					CHANNELS 3 Zrotation Yrotation Xrotation
					End Site
					{
						OFFSET 0.000000 0.000000 0.000000
					}
				}
			}
		}
	}
	JOINT RightUpLeg
	{
		OFFSET -0.067670 -0.090522 -0.004320
		CHANNELS 3 Zrotation Yrotation Xrotation
		JOINT RightLeg
		{
			OFFSET -0.038290 -0.382569 -0.008850
			CHANNELS 3 Zrotation Yrotation Xrotation
			JOINT RightFoot
			{
				OFFSET 0.015774 -0.398415 -0.042312
				CHANNELS 3 Zrotation Yrotation Xrotation
				JOINT RightToe
				{
					OFFSET -0.025372 -0.048144 0.123348
					CHANNELS 3 Zrotation Yrotation Xrotation
					End Site
					{
						OFFSET 0.000000 0.000000 0.000000
					}
				}
			}
		}
	}
	JOINT Spine
	{
		OFFSET -0.002533 0.108963 -0.026696
		CHANNELS 3 Zrotation Yrotation Xrotation
		JOINT Spine1
		{
			OFFSET 0.005487 0.135180 0.001092
			CHANNELS 3 Zrotation Yrotation Xrotation
			JOINT Spine2
			{
				OFFSET 0.001457 0.052922 0.025425
				CHANNELS 3 Zrotation Yrotation Xrotation
				JOINT Neck
				{
					OFFSET -0.002778 0.213870 -0.042857
					CHANNELS 3 Zrotation Yrotation Xrotation
					JOINT Head
					{
						OFFSET 0.005152 0.064970 0.051349
						CHANNELS 3 Zrotation Yrotation Xrotation
						End Site
						{
							OFFSET 0.000000 0.000000 0.000000
						}
					}
				}
				JOINT LeftShoulder
				{
					OFFSET 0.078845 0.121749 -0.034090
					CHANNELS 3 Zrotation Yrotation Xrotation
					JOINT LeftArm
					{
						OFFSET 0.090977 0.030469 -0.008868
						CHANNELS 3 Zrotation Yrotation Xrotation
						JOINT LeftForeArm
						{
							OFFSET 0.259612 -0.012772 -0.027456
							CHANNELS 3 Zrotation Yrotation Xrotation
							JOINT LeftHand
							{
								OFFSET 0.249234 0.008986 -0.001171
								CHANNELS 3 Zrotation Yrotation Xrotation
								End Site
								{
									OFFSET 0.000000 0.000000 0.000000
								}
							}
						}
					}
				}
				JOINT RightShoulder
				{
					OFFSET -0.081759 0.118833 -0.038615
					CHANNELS 3 Zrotation Yrotation Xrotation
					JOINT RightArm
					{
						OFFSET -0.096012 0.032551 -0.009143
						CHANNELS 3 Zrotation Yrotation Xrotation
						JOINT RightForeArm
						{
							OFFSET -0.253742 -0.013329 -0.021401
							CHANNELS 3 Zrotation Yrotation Xrotation
							JOINT RightHand
							{
								OFFSET -0.255298 0.007772 -0.005559
								CHANNELS 3 Zrotation Yrotation Xrotation
								End Site
								{
									OFFSET 0.000000 0.000000 0.000000
								}
							}
						}
					}
				}
			}
		}
	}
}
MOTION
Frames: 128
Frame Time: 0.050000
0.000000 0.964012 0.000000 -1.604784 4.539865 1.543238 3.083761 0.048419 2.128651 -2.389271 0.283269 -3.759661 3.333627 10.413316 11.740603 0.000000 0.000000 0.000000 0.214334 0.089381 -0.874942 0.767976 -0.088762 -0.006196 0.972133 -3.996718 17.056891 0.000000 0.000000 0.000000 -1.098713 -0.187606 6.046334 4.421868 -0.291416 -25.576726 -1.070034 -1.361387 28.282325 1.850093 0.738627 -26.299644 0.000000 0.000000 0.000000 -28.056810 -1.152747 -1.638829 -48.896363 -7.223382 -5.211086 -11.722699 -24.187996 3.673987 0.000000 0.000000 0.000000 20.782671 4.225986 1.826673 54.646235 8.940275 -4.071586 5.156645 26.429077 2.449156 0.000000 0.000000 0.000000 
0.001850 0.963498 -0.000059 -1.806173 3.791810 2.201510 3.300275 0.038743 2.102487 -2.389946 0.296256 -4.625675 3.126926 9.981831 11.606792 0.000000 0.000000 0.000000 -0.115057 0.187044 -1.802028 1.041290 -0.108856 0.326892 1.903546 -2.436864 16.869176 0.000000 0.000000 0.000000 -0.907898 -0.159360 5.012428 4.234116 -0.257535 -25.529286 -0.944958 -0.912596 28.644334 2.428342 0.355002 -25.798141 0.000000 0.000000 0.000000 -28.173502 -1.043425 -1.686493 -49.048420 -7.509001 -5.158826 -11.820781 -24.325650 3.730808 0.000000 0.000000 0.000000 20.190267 4.308783 1.881025 56.718583 8.538035 -4.354871 3.779472 27.246975 2.272488 0.000000 0.000000 0.000000 
0.003416 0.962907 -0.000383 -1.523661 3.592932 2.350772 3.129249 0.017592 1.590178 -2.841198 0.318179 -3.738347 3.203200 9.921057 10.929304 0.000000 0.000000 0.000000 -0.253460 0.217473 -2.103667 0.672840 -0.057053 0.592805 1.678619 -2.730837 16.434212 0.000000 0.000000 0.000000 -0.841316 -0.150265 4.689829 3.895989 -0.185187 -25.484319 -1.139725 -1.010741 28.768444 1.872885 0.643976 -25.839904 0.000000 0.000000 0.000000 -27.857676 -1.240685 -1.432229 -48.528264 -7.756772 -5.052642 -12.645298 -24.461172 3.934404 0.000000 0.000000 0.000000 20.726078 4.741653 2.054030 56.074443 8.349829 -4.409887 3.933479 27.115315 2.261514 0.000000 0.000000 0.000000 
0.004705 0.963033 -0.000604 -1.658383 3.356562 2.461446 2.972649 0.010731 1.361237 -2.550386 0.297257 -3.465044 3.410351 10.191456 10.747413 0.000000 0.000000 0.000000 -0.333516 0.232633 -2.253569 0.979003 -0.090852 0.658993 1.681125 -2.737413 16.336769 0.000000 0.000000 0.000000 -0.917998 -0.135033 4.383101 4.199513 -0.235013 -25.952768 -1.076767 -1.023976 29.329120 2.133085 0.422402 -25.414793 0.000000 0.000000 0.000000 -28.229785 -0.801249 -1.676550 -48.289507 -7.849782 -5.056066 -13.312911 -24.918339 4.180001 0.000000 0.000000 0.000000 20.226626 5.004044 2.174774 56.069157 8.042115 -4.595765 4.495920 27.476913 2.421752 0.000000 0.000000 0.000000 
0.005709 0.963414 -0.000744 -1.666328 3.314807 2.291418 2.934958 0.018755 1.447035 -2.608046 0.300633 -3.354135 3.459177 10.303347 10.902617 0.000000 0.000000 0.000000 -0.460677 0.204736 -1.966611 1.056994 -0.101975 0.592050 1.807611 -2.483005 16.222367 0.000000 0.000000 0.000000 -0.988040 -0.141581 4.664992 4.595823 -0.355765 -25.433945 -1.183897 -0.643303 28.662450 2.098491 0.451699 -24.613941 0.000000 0.000000 0.000000 -28.025642 -0.988371 -1.704389 -48.153987 -8.052366 -4.855808 -14.211393 -25.250943 4.414914 0.000000 0.000000 0.000000 20.491754 4.899316 2.188387 55.619961 7.916294 -4.573667 5.352308 27.696451 2.643351 0.000000 0.000000 0.000000 
0.006532 0.963630 -0.000789 -1.716796 3.175697 2.240804 2.887586 0.018698 1.397150 -2.599364 0.299143 -3.176863 3.617894 10.558125 10.954134 0.000000 0.000000 0.000000 -0.543815 0.201685 -1.931764 1.030754 -0.099296 0.565675 2.138937 -1.990761 16.436527 0.000000 0.000000 0.000000 -1.161591 -0.126456 4.494901 4.702822 -0.379733 -25.490724 -1.049922 -0.794537 29.017816 2.150616 0.375892 -24.656077 0.000000 0.000000 0.000000 -27.866324 -0.898332 -1.632430 -48.151955 -8.360790 -4.810420 -14.512546 -25.829387 4.615505 0.000000 0.000000 0.000000 20.299743 5.272517 2.336076 55.543313 7.980479 -4.563476 5.219058 27.628256 2.587243 0.000000 0.000000 0.000000 
0.007096 0.963639 -0.000798 -1.742673 2.913962 2.201305 2.914397 0.023811 1.462999 -2.621624 0.304031 -3.359408 3.671465 10.721524 11.409933 0.000000 0.000000 0.000000 -0.567655 0.195608 -1.868388 1.013839 -0.096228 0.580915 2.275751 -1.727536 16.242817 0.000000 0.000000 0.000000 -1.168241 -0.129516 4.599036 4.804865 -0.416688 -25.340374 -1.086655 -0.669152 28.797321 2.168358 0.349691 -24.503303 0.000000 0.000000 0.000000 -27.910501 -0.902279 -1.621508 -48.018641 -8.301819 -4.808380 -14.963366 -26.046958 4.764179 0.000000 0.000000 0.000000 20.288655 5.384172 2.375191 55.489406 7.777609 -4.627298 5.604369 27.855565 2.695229 0.000000 0.000000 0.000000 
0.007557 0.963468 -0.000791 -1.767787 2.651681 2.277574 2.922460 0.015251 1.307894 -2.591324 0.302185 -3.244779 3.703551 10.775166 11.529641 0.000000 0.000000 0.000000 -0.512782 0.207412 -1.992743 0.973742 -0.085648 0.757288 2.220005 -1.728073 15.828994 0.000000 0.000000 0.000000 -1.186263 -0.125223 4.513596 4.798985 -0.416712 -25.355941 -1.099144 -0.624768 28.934749 2.157638 0.330788 -24.462303 0.000000 0.000000 0.000000 -27.800181 -0.837869 -1.594367 -47.864764 -8.202892 -4.864757 -15.282795 -26.386471 4.917103 0.000000 0.000000 0.000000 20.189486 5.288653 2.289680 55.578747 7.853747 -4.608730 5.609705 27.784006 2.687361 0.000000 0.000000 0.000000 
0.007903 0.963440 -0.000826 -1.747600 2.408003 2.310884 2.923418 0.014401 1.270200 -2.624026 0.305770 -3.218819 3.696340 10.764767 11.638044 0.000000 0.000000 0.000000 -0.564672 0.227173 -2.195077 1.027399 -0.086755 0.912619 2.202330 -1.851728 15.962255 0.000000 0.000000 0.000000 -1.195779 -0.123421 4.485607 4.782364 -0.423373 -25.238801 -1.078135 -0.554149 28.779708 2.049719 0.381424 -24.415378 0.000000 0.000000 0.000000 -27.866378 -0.854500 -1.560356 -47.658332 -8.039286 -4.904541 -15.289669 -26.287151 4.897223 0.000000 0.000000 0.000000 20.242131 5.226598 2.220849 55.497630 7.587922 -4.705604 5.476904 27.895417 2.662109 0.000000 0.000000 0.000000 
0.008197 0.963447 -0.000940 -1.768466 2.298517 2.354767 2.898174 0.007396 1.136412 -2.574901 0.301850 -3.122953 3.755564 10.875958 11.760951 0.000000 0.000000 0.000000 -0.564760 0.243231 -2.361500 1.073738 -0.089534 0.996234 2.163672 -2.005143 16.142924 0.000000 0.000000 0.000000 -1.149452 -0.125258 4.471577 4.765527 -0.429640 -25.099664 -1.158558 -0.513336 28.698044 1.877519 0.494401 -24.540343 0.000000 0.000000 0.000000 -27.908878 -0.871707 -1.547157 -47.526107 -8.009580 -4.895071 -15.397792 -26.318862 4.927358 0.000000 0.000000 0.000000 20.328079 5.114673 2.145720 55.528430 7.486683 -4.741012 5.385659 28.018489 2.655866 0.000000 0.000000 0.000000 
0.008428 0.963561 -0.001127 -1.748265 2.444813 2.408353 2.943759 -0.004817 0.986835 -2.585233 0.300511 -3.016507 3.528203 10.532354 11.775177 0.000000 0.000000 0.000000 -0.613836 0.265695 -2.593673 1.191821 -0.098831 1.185902 1.968855 -2.415591 16.400649 0.000000 0.000000 0.000000 -1.064147 -0.128018 4.419628 4.609769 -0.388764 -25.125241 -1.217495 -0.719093 28.787488 1.776435 0.549531 -24.745829 0.000000 0.000000 0.000000 -27.856248 -0.890103 -1.484510 -47.506451 -8.016133 -4.910617 -15.322192 -26.224575 4.895372 0.000000 0.000000 0.000000 20.147448 4.935817 2.016842 55.751682 7.392221 -4.796022 5.270399 27.944713 2.619544 0.000000 0.000000 0.000000 
0.008620 0.963811 -0.001272 -1.711005 2.665787 2.315264 2.954462 -0.003939 1.020202 -2.629071 0.302299 -2.980850 3.370363 10.319451 11.844430 0.000000 0.000000 0.000000 -0.553925 0.268627 -2.626209 1.192490 -0.099078 1.209362 1.597800 -3.205891 16.923976 0.000000 0.000000 0.000000 -1.037185 -0.136367 4.610750 4.589393 -0.375706 -25.221001 -1.334498 -0.802533 28.865650 1.643604 0.630259 -24.650756 0.000000 0.000000 0.000000 -27.975421 -1.011442 -1.436236 -47.304833 -8.117134 -4.860423 -15.330435 -26.068294 4.859685 0.000000 0.000000 0.000000 20.231013 4.815630 1.969736 55.567009 7.300033 -4.844322 5.179415 27.921151 2.599317 0.000000 0.000000 0.000000 
0.008771 0.964040 -0.001308 -1.673359 2.830848 2.305403 2.880014 -0.004519 0.987669 -2.524202 0.293271 -2.964538 3.237525 10.144787 11.926278 0.000000 0.000000 0.000000 -0.431665 0.276098 -2.702993 1.155945 -0.091765 1.332169 1.120388 -4.039818 17.015209 0.000000 0.000000 0.000000 -1.014524 -0.142436 4.745493 4.524739 -0.352223 -25.341609 -1.387032 -0.925095 28.973275 1.571003 0.671620 -24.694577 0.000000 0.000000 0.000000 -27.967915 -1.064585 -1.392179 -47.278619 -8.248993 -4.820716 -15.229429 -25.761618 4.772861 0.000000 0.000000 0.000000 20.221556 4.675605 1.892813 55.448864 7.244747 -4.877183 5.119886 27.763119 2.567517 0.000000 0.000000 0.000000 
0.008885 0.964217 -0.001222 -1.619479 2.889919 2.268123 2.765016 0.004199 1.066845 -2.407871 0.285591 -3.080017 3.175851 10.091650 12.090957 0.000000 0.000000 0.000000 -0.359836 0.268120 -2.621409 1.107993 -0.088093 1.258561 0.798623 -4.602385 17.054232 0.000000 0.000000 0.000000 -1.028288 -0.144732 4.832754 4.499497 -0.334295 -25.533332 -1.400364 -0.997559 29.275862 1.375466 0.776727 -24.665009 0.000000 0.000000 0.000000 -28.052556 -0.959895 -1.438003 -47.147270 -8.449976 -4.776469 -15.260823 -25.546943 4.742649 0.000000 0.000000 0.000000 20.217681 4.655070 1.883377 55.189260 7.325833 -4.866424 5.140092 27.666062 2.560082 0.000000 0.000000 0.000000 
0.008990 0.964276 -0.001044 -1.588819 2.982113 2.225885 2.668886 0.014956 1.188580 -2.336788 0.281355 -3.200588 3.181320 10.108557 12.087032 0.000000 0.000000 0.000000 -0.282837 0.252682 -2.464546 1.002616 -0.077733 1.177843 0.627575 -4.833588 16.879992 0.000000 0.000000 0.000000 -1.021780 -0.146555 4.870421 4.480918 -0.326740 -25.569353 -1.440214 -0.991986 29.426341 1.428582 0.750339 -24.627359 0.000000 0.000000 0.000000 -28.165216 -1.072590 -1.394196 -47.102310 -8.644811 -4.708832 -15.067828 -25.132581 4.610916 0.000000 0.000000 0.000000 20.281498 4.541760 1.844257 55.064801 7.413369 -4.844873 5.177352 27.450379 2.548425 0.000000 0.000000 0.000000 
0.009082 0.964361 -0.000801 -1.564667 2.781135 2.219510 2.547048 0.026101 1.274770 -2.194900 0.274032 -3.353067 3.263623 10.277155 12.346101 0.000000 0.000000 0.000000 -0.345091 0.247564 -2.413485 0.954603 -0.072670 1.131354 0.847534 -4.471467 16.830540 0.000000 0.000000 0.000000 -0.935757 -0.153785 4.943500 4.396634 -0.311550 -25.548295 -1.433716 -0.869242 29.487585 1.445055 0.766109 -25.001105 0.000000 0.000000 0.000000 -28.129635 -1.103981 -1.360022 -47.217203 -8.739723 -4.692139 -15.046985 -24.899113 4.562681 0.000000 0.000000 0.000000 20.285602 4.588212 1.868623 55.047688 7.629414 -4.755187 5.324610 27.247430 2.557509 0.000000 0.000000 0.000000 
0.009150 0.964491 -0.000490 -1.560566 2.557822 2.222641 2.475699 0.034299 1.340519 -2.144523 0.272951 -3.457803 3.412438 10.534875 12.561260 0.000000 0.000000 0.000000 -0.218639 0.248228 -2.424522 0.771880 -0.048147 1.187677 0.816710 -4.525950 16.696969 0.000000 0.000000 0.000000 -0.889027 -0.159801 5.046296 4.443757 -0.329269 -25.455025 -1.497809 -0.736214 29.459729 1.471300 0.759856 -25.146072 0.000000 0.000000 0.000000 -28.186265 -1.116011 -1.349475 -47.278513 -8.760120 -4.690443 -14.878899 -24.752485 4.497813 0.000000 0.000000 0.000000 20.401160 4.676801 1.910235 54.905075 7.809162 -4.666350 5.384027 27.207170 2.562506 0.000000 0.000000 0.000000 
0.009192 0.964638 -0.000095 -1.512991 2.457611 2.197397 2.438909 0.048220 1.518254 -2.224592 0.282361 -3.689202 3.489584 10.682428 12.739174 0.000000 0.000000 0.000000 -0.223430 0.237821 -2.320945 0.664281 -0.032749 1.253591 0.889665 -4.308193 16.338204 0.000000 0.000000 0.000000 -0.958689 -0.159323 5.153254 4.592325 -0.365179 -25.450613 -1.585865 -0.608369 29.482264 1.505969 0.788312 -25.668723 0.000000 0.000000 0.000000 -28.106778 -0.996750 -1.440750 -47.466886 -8.704837 -4.721357 -15.073885 -24.562209 4.505421 0.000000 0.000000 0.000000 20.567421 4.666674 1.920740 54.826405 7.984333 -4.590719 5.539007 27.180529 2.597349 0.000000 0.000000 0.000000 
0.009170 0.964649 0.000390 -1.478554 2.318226 2.266658 2.374623 0.052182 1.534887 -2.179225 0.282658 -3.896161 3.559477 10.848041 13.081124 0.000000 0.000000 0.000000 -0.191099 0.226886 -2.212933 0.524925 -0.020998 1.089920 0.966198 -4.113364 16.064201 0.000000 0.000000 0.000000 -1.038877 -0.153325 5.129562 4.694713 -0.390848 -25.440868 -1.551533 -0.636048 29.576040 1.440863 0.828165 -25.988345 0.000000 0.000000 0.000000 -28.007491 -0.894445 -1.445430 -47.729941 -8.748545 -4.748522 -15.184381 -24.805985 4.591837 0.000000 0.000000 0.000000 20.654572 4.828318 1.980278 54.831362 8.151882 -4.520445 5.559133 27.391226 2.622496 0.000000 0.000000 0.000000 
0.009110 0.964514 0.000968 -1.458570 2.293794 2.346498 2.374218 0.054526 1.572221 -2.196840 0.286301 -4.061158 3.547615 10.838540 13.133627 0.000000 0.000000 0.000000 -0.214196 0.208154 -2.022794 0.431444 -0.013774 0.972647 1.148321 -3.585988 15.416966 0.000000 0.000000 0.000000 -1.109365 -0.145443 5.027669 4.738816 -0.393319 -25.566403 -1.551731 -0.694256 29.918758 1.506570 0.799741 -26.381527 0.000000 0.000000 0.000000 -27.930759 -0.708727 -1.513873 -48.067482 -8.777846 -4.805911 -15.497379 -25.162030 4.752677 0.000000 0.000000 0.000000 20.691149 4.802607 1.956608 54.987267 8.355099 -4.470195 5.827992 27.463819 2.697528 0.000000 0.000000 0.000000 
0.009060 0.964384 0.001677 -1.470100 2.177821 2.307824 2.411953 0.064363 1.726258 -2.198861 0.288142 -4.142305 3.519352 10.779870 13.120769 0.000000 0.000000 0.000000 -0.240048 0.175977 -1.697743 0.419666 -0.019909 0.750979 1.327723 -3.136102 14.976889 0.000000 0.000000 0.000000 -1.042858 -0.149289 5.025649 4.646029 -0.375599 -25.543896 -1.473743 -0.745187 30.025785 1.487478 0.789571 -26.403983 0.000000 0.000000 0.000000 -27.997210 -0.729339 -1.450366 -48.163531 -8.810823 -4.824791 -15.752297 -25.674162 4.930135 0.000000 0.000000 0.000000 20.681866 4.993091 2.030981 55.294470 8.426594 -4.454449 5.789878 27.701961 2.717043 0.000000 0.000000 0.000000 
0.009113 0.964240 0.002560 -1.475770 2.105081 2.293732 2.315200 0.078576 1.874660 -2.127400 0.283598 -4.133798 3.661280 10.927696 12.812057 0.000000 0.000000 0.000000 -0.188401 0.143706 -1.379733 0.323905 -0.011569 0.669567 1.371175 -2.805607 14.204002 0.000000 0.000000 0.000000 -1.128937 -0.140290 4.907264 4.778154 -0.410613 -25.483777 -1.450209 -0.727078 30.214295 1.428815 0.828734 -26.571048 0.000000 0.000000 0.000000 -28.073013 -0.621737 -1.505827 -48.367694 -8.918777 -4.821574 -16.169299 -26.233839 5.161136 0.000000 0.000000 0.000000 20.739123 5.112281 2.098283 55.342143 8.820443 -4.300246 6.010060 27.317191 2.721979 0.000000 0.000000 0.000000 
0.009396 0.964318 0.003577 -1.434563 1.992129 2.237211 2.323719 0.093088 2.077841 -2.181258 0.290426 -4.322122 3.588256 10.855696 13.069740 0.000000 0.000000 0.000000 -0.227991 0.096367 -0.900850 0.269027 -0.012623 0.462829 1.442367 -2.408477 13.398838 0.000000 0.000000 0.000000 -1.196660 -0.132639 4.791911 4.873653 -0.442051 -25.369335 -1.456697 -0.683251 30.245926 1.362945 0.845713 -26.310248 0.000000 0.000000 0.000000 -28.227178 -0.559734 -1.546887 -48.599677 -8.953658 -4.827760 -16.405348 -26.364331 5.255018 0.000000 0.000000 0.000000 20.816806 5.257401 2.171284 55.463362 8.859263 -4.285550 6.135424 27.347996 2.753431 0.000000 0.000000 0.000000 
0.009997 0.964261 0.004576 -1.391447 1.621136 2.154567 2.216820 0.113138 2.266104 -2.117138 0.289649 -4.434029 3.671334 11.014439 13.417741 0.000000 0.000000 0.000000 -0.438651 0.058822 -0.482637 0.388584 -0.027221 0.424442 1.665410 -1.698031 12.464632 0.000000 0.000000 0.000000 -1.280559 -0.120591 4.565771 5.097608 -0.511602 -25.178742 -1.512934 -0.472109 30.442727 1.202547 0.930822 -26.220188 0.000000 0.000000 0.000000 -28.336853 -0.260087 -1.728895 -48.784148 -9.105813 -4.803476 -16.676081 -26.431528 5.350179 0.000000 0.000000 0.000000 20.901892 5.286193 2.179655 55.326201 9.201880 -4.143472 6.291982 26.950361 2.737308 0.000000 0.000000 0.000000 
0.010931 0.964249 0.005336 -1.351086 1.313895 2.201245 2.033009 0.129350 2.364158 -1.995117 0.287325 -4.696356 3.803709 11.265561 13.831986 0.000000 0.000000 0.000000 -0.609391 0.038374 -0.231244 0.437029 -0.039961 0.207296 1.825763 -1.248753 11.988239 0.000000 0.000000 0.000000 -1.184953 -0.117146 4.311450 4.932122 -0.483471 -25.086248 -1.475864 -0.499844 30.712193 1.021511 0.979184 -25.951349 0.000000 0.000000 0.000000 -28.297870 -0.162613 -1.682432 -49.137954 -9.274793 -4.816085 -16.542213 -26.102170 5.269702 0.000000 0.000000 0.000000 20.814992 5.386576 2.176845 55.413082 9.364296 -4.090974 6.199295 26.637844 2.670385 0.000000 0.000000 0.000000 
0.012285 0.964349 0.005671 -1.331848 1.015627 2.316728 1.978980 0.131292 2.341834 -1.770934 0.275731 -4.784683 3.365077 10.601802 14.023386 0.000000 0.000000 0.000000 -0.849039 0.052561 -0.316662 0.530750 -0.048499 0.248390 2.069074 -0.754780 11.831188 0.000000 0.000000 0.000000 -1.075549 -0.112769 4.019205 4.941928 -0.502992 -24.887339 -1.568838 -0.393479 30.850009 0.799797 1.068499 -25.458803 0.000000 0.000000 0.000000 -28.211767 0.002466 -1.741411 -49.414630 -9.496593 -4.764577 -16.570808 -25.799680 5.221957 0.000000 0.000000 0.000000 20.773430 5.393481 2.157113 55.476368 9.674659 -3.959793 6.079704 26.252058 2.595976 0.000000 0.000000 0.000000 
0.014173 0.964433 0.005659 -1.344790 0.757900 2.384869 1.945975 0.130663 2.298959 -1.301905 0.248258 -4.875452 2.507412 9.345108 14.414303 0.000000 0.000000 0.000000 -1.058770 0.075438 -0.505987 0.665239 -0.058685 0.372542 2.186660 -0.607599 11.938382 0.000000 0.000000 0.000000 -1.077041 -0.111039 3.978334 4.888269 -0.488990 -24.963636 -1.517723 -0.482696 31.042694 0.782331 1.031684 -25.448520 0.000000 0.000000 0.000000 -28.036444 0.102842 -1.680295 -49.669399 -9.391422 -4.869846 -16.310315 -25.432355 5.097930 0.000000 0.000000 0.000000 20.593813 5.335269 2.052116 55.370215 9.820689 -3.898235 6.038074 25.803133 2.519585 0.000000 0.000000 0.000000 
0.016685 0.964349 0.005512 -1.351299 0.684280 2.541348 2.061188 0.114911 2.145997 -1.055144 0.235178 -4.978162 1.383727 7.693456 14.730855 0.000000 0.000000 0.000000 -1.207049 0.097686 -0.708801 0.719897 -0.063225 0.412739 2.108873 -0.771222 11.941446 0.000000 0.000000 0.000000 -1.064493 -0.113054 4.035424 4.877389 -0.472814 -25.172539 -1.506647 -0.570019 31.225134 0.582761 1.103389 -25.057640 0.000000 0.000000 0.000000 -28.135205 0.328341 -1.778541 -49.608366 -9.481966 -4.861920 -16.055092 -24.988748 4.950218 0.000000 0.000000 0.000000 20.645651 5.260201 1.976477 54.791614 9.780991 -3.917656 6.218155 25.523307 2.513162 0.000000 0.000000 0.000000 
0.019868 0.963819 0.005950 -1.303296 0.496428 2.577380 2.021354 0.114431 2.105464 -0.863931 0.224564 -5.021616 0.530882 6.438885 15.028099 0.000000 0.000000 0.000000 -1.438334 0.108659 -0.772409 0.711772 -0.060121 0.470306 2.061060 -0.848429 11.832963 0.000000 0.000000 0.000000 -1.036721 -0.115989 4.088432 4.779418 -0.449176 -25.254647 -1.511850 -0.659708 31.229099 0.655651 1.010030 -24.848592 0.000000 0.000000 0.000000 -27.890666 0.545467 -1.813612 -49.783128 -9.296879 -4.970133 -15.583484 -24.630359 4.778332 0.000000 0.000000 0.000000 20.388037 5.228057 1.894695 54.512932 9.513634 -4.013588 6.127921 25.180895 2.436408 0.000000 0.000000 0.000000 
0.023728 0.963275 0.007189 -1.396282 0.337780 2.688371 1.862795 0.120691 2.104496 -0.402549 0.199944 -5.166359 -0.115214 5.468783 15.181749 0.000000 0.000000 0.000000 -1.564837 0.091271 -0.533707 0.709378 -0.064406 0.323979 2.017812 -0.666275 11.144395 0.000000 0.000000 0.000000 -0.916684 -0.120319 4.037114 4.601849 -0.399983 -25.423781 -1.354231 -0.614709 31.570101 0.594704 1.027708 -24.731059 0.000000 0.000000 0.000000 -27.955370 0.767614 -1.928902 -49.848604 -9.244953 -5.033972 -14.843064 -24.388063 4.569777 0.000000 0.000000 0.000000 20.403935 4.911088 1.711985 54.112716 9.606400 -3.998699 6.066334 24.817625 2.381043 0.000000 0.000000 0.000000 
0.028201 0.962813 0.009448 -1.461962 0.099702 2.715242 1.661130 0.131462 2.133532 -0.482078 0.198995 -4.951562 0.062368 5.623628 14.890774 0.000000 0.000000 0.000000 -1.742762 0.072490 -0.256313 0.472576 -0.048208 0.046583 2.273139 -0.177818 11.111013 0.000000 0.000000 0.000000 -0.693857 -0.132726 4.062705 4.330390 -0.330199 -25.599276 -1.279746 -0.369779 31.855430 0.798999 0.905208 -24.545005 0.000000 0.000000 0.000000 -28.033590 0.972809 -2.082682 -49.705832 -9.095069 -5.116317 -14.042259 -23.954101 4.307401 0.000000 0.000000 0.000000 20.329974 4.686750 1.624443 53.855298 9.526780 -4.072299 5.850610 24.809990 2.344102 0.000000 0.000000 0.000000 
0.033185 0.962375 0.012447 -1.498261 0.372537 2.779256 1.599079 0.139194 2.225174 -0.817517 0.219832 -4.942637 -0.051706 5.401688 14.609380 0.000000 0.000000 0.000000 -1.935826 0.050780 0.055933 0.236734 -0.031595 -0.173484 2.320533 -0.038904 11.102024 0.000000 0.000000 0.000000 -0.716985 -0.132686 4.091958 4.261569 -0.300196 -25.782427 -1.179198 -0.287956 32.099124 0.925038 0.883515 -24.740620 0.000000 0.000000 0.000000 -27.774634 1.326930 -2.389276 -50.057260 -8.921946 -5.194547 -13.813092 -23.874407 4.238792 0.000000 0.000000 0.000000 19.934933 4.099585 1.391284 54.110990 9.490517 -4.136950 6.003201 24.774041 2.393302 0.000000 0.000000 0.000000 
0.038726 0.962084 0.016078 -1.582508 0.426175 2.981235 1.209895 0.141950 2.081517 -0.597550 0.197811 -4.671447 -0.003653 5.392728 14.304759 0.000000 0.000000 0.000000 -2.168140 0.038109 0.301246 0.138512 -0.033909 -0.501437 2.383761 0.072797 11.156149 0.000000 0.000000 0.000000 -0.743352 -0.133515 4.159316 4.137085 -0.251373 -26.112296 -1.009227 -0.091652 32.340103 1.043428 0.866399 -24.959416 0.000000 0.000000 0.000000 -27.620039 1.687044 -2.694887 -50.257639 -8.919545 -5.202831 -13.447190 -23.495889 4.083585 0.000000 0.000000 0.000000 19.633297 3.848880 1.333037 54.250647 9.306068 -4.256584 6.089555 25.022381 2.457219 0.000000 0.000000 0.000000 
0.044847 0.961525 0.020083 -1.471205 0.999624 3.227675 0.908870 0.125062 1.763162 -0.859154 0.202286 -4.227503 -0.231798 4.990036 13.909863 0.000000 0.000000 0.000000 -2.511558 0.075811 -0.055075 -0.015028 0.023592 0.559129 1.982034 -0.320151 10.398554 0.000000 0.000000 0.000000 -1.000569 -0.113035 3.978621 4.077829 -0.221588 -26.188500 -0.964062 -0.093026 32.536449 1.359973 0.745814 -25.155761 0.000000 0.000000 0.000000 -27.250932 2.166019 -3.104304 -50.760567 -8.776821 -5.279246 -13.250671 -23.278478 3.998141 0.000000 0.000000 0.000000 19.648357 3.173764 1.073277 54.211245 9.223314 -4.333235 6.397789 24.884179 2.528713 0.000000 0.000000 0.000000 
0.051653 0.961394 0.024578 -1.562431 1.455463 3.549197 0.729053 0.115535 1.589970 -1.036350 0.210153 -4.101613 -0.433654 4.658735 13.682777 0.000000 0.000000 0.000000 -2.642314 0.125896 -0.649437 -0.150542 0.091527 1.875442 1.570380 -0.877523 9.887681 0.000000 0.000000 0.000000 -1.178691 -0.110049 4.195593 3.999514 -0.171730 -26.642966 -0.811859 -0.152455 32.768230 1.614748 0.645156 -25.363255 0.000000 0.000000 0.000000 -26.774313 2.538962 -3.381343 -51.126025 -9.372892 -5.052539 -13.069750 -23.005464 3.905024 0.000000 0.000000 0.000000 19.101887 2.483232 0.777147 54.742794 9.268008 -4.353488 6.621890 25.056097 2.622184 0.000000 0.000000 0.000000 
0.059287 0.961063 0.029466 -1.486035 2.540502 3.715880 0.281350 0.110871 1.363068 -1.002503 0.193643 -3.620302 -0.922349 3.900266 13.301303 0.000000 0.000000 0.000000 -2.514925 0.242033 -2.189983 -0.417238 0.270157 5.487729 0.125498 -3.297515 8.782631 0.000000 0.000000 0.000000 -1.651614 -0.090132 4.403739 4.254986 -0.233420 -26.303704 -0.815002 -0.542853 32.528469 2.262415 0.339452 -25.785852 0.000000 0.000000 0.000000 -26.997010 2.569229 -3.585411 -51.219124 -9.635423 -4.873518 -13.134416 -23.307377 3.953824 0.000000 0.000000 0.000000 18.981480 2.100922 0.649836 54.932774 9.088610 -4.408200 6.558377 25.317327 2.658967 0.000000 0.000000 0.000000 
0.067397 0.960185 0.035348 -1.153703 3.482020 3.617547 0.030302 0.136638 1.560668 -1.856184 0.242730 -3.165342 -1.414787 3.105108 12.945659 0.000000 0.000000 0.000000 -2.948932 0.472298 -5.345393 -0.405918 0.501598 12.217318 -1.020336 -5.456981 8.392257 0.000000 0.000000 0.000000 -2.366640 -0.073551 5.372314 4.745082 -0.314987 -26.528814 -1.223672 -1.031663 32.657388 2.554645 0.207513 -26.230237 0.000000 0.000000 0.000000 -27.393035 2.627083 -3.717458 -50.290189 -10.686829 -4.397316 -13.995825 -23.696279 4.199098 0.000000 0.000000 0.000000 19.332608 2.034816 0.653393 54.696085 9.453911 -4.275999 6.264315 25.600925 2.646330 0.000000 0.000000 0.000000 
0.075371 0.959468 0.042854 -1.260147 5.260029 2.837337 0.271759 0.169993 2.121621 -2.455102 0.262837 -1.974494 -2.224318 1.763391 12.293965 0.000000 0.000000 0.000000 -3.007925 0.673044 -8.504112 -0.025896 0.551997 21.216390 -1.944075 -7.181048 8.236663 0.000000 0.000000 0.000000 -3.071097 -0.066758 6.697767 5.174041 -0.424197 -26.004689 -0.714719 -2.527054 32.857689 1.782151 0.695071 -27.651899 0.000000 0.000000 0.000000 -28.273168 1.836450 -3.187270 -49.260749 -12.483856 -3.688187 -14.546499 -23.619858 4.301588 0.000000 0.000000 0.000000 18.660266 1.316742 0.198376 54.582249 9.870909 -4.087720 7.370891 26.065871 2.936761 0.000000 0.000000 0.000000 
0.082671 0.960184 0.053349 -1.426849 6.514301 2.293727 0.438607 0.254009 3.349764 -2.756433 0.279360 -2.025827 -2.979902 0.759218 12.449583 0.000000 0.000000 0.000000 -3.686295 0.871142 -13.039926 2.073618 -0.336054 30.352662 -3.414262 -10.873098 13.222161 0.000000 0.000000 0.000000 -3.404396 -0.080512 8.027319 5.969253 -0.555237 -26.599292 -1.419996 -4.108427 33.354278 2.104553 0.397776 -28.327586 0.000000 0.000000 0.000000 -28.646935 2.424149 -3.282290 -48.425803 -14.043009 -3.189395 -15.722615 -24.266447 4.741363 0.000000 0.000000 0.000000 18.261382 1.949837 0.379843 54.984329 9.835462 -4.138498 7.332274 27.126211 3.049989 0.000000 0.000000 0.000000 
0.089012 0.960263 0.067186 -1.699473 7.080119 2.062736 0.450336 0.314906 4.212458 -2.587966 0.258800 -1.601886 -3.275036 0.317553 12.379202 0.000000 0.000000 0.000000 -3.837099 1.047043 -17.341725 3.906863 -1.338247 34.507481 -6.402407 -16.528454 23.424093 0.000000 0.000000 0.000000 -3.580208 -0.084961 8.586334 6.458911 -0.629343 -27.156981 -1.378526 -5.384457 34.165511 0.218757 1.320006 -28.676759 0.000000 0.000000 0.000000 -29.278461 2.119812 -2.727253 -48.218329 -15.005039 -3.020812 -16.394379 -25.124345 5.152742 0.000000 0.000000 0.000000 17.109279 1.824168 0.160623 55.769710 9.198404 -4.511628 8.667465 28.238753 3.494098 0.000000 0.000000 0.000000 
0.094104 0.959770 0.084020 -2.010982 7.448413 1.904860 0.569009 0.407390 5.662233 -2.112455 0.225870 -1.966013 -3.946040 -0.729176 12.392584 0.000000 0.000000 0.000000 -3.190833 1.244114 -19.814802 4.542870 -1.587188 32.987343 -9.354461 -20.395987 30.689218 0.000000 0.000000 0.000000 -3.139911 -0.153295 9.581193 6.823654 -0.688119 -27.482185 -1.886853 -5.835289 34.064556 0.057296 1.365710 -28.632047 0.000000 0.000000 0.000000 -29.400720 1.826173 -2.456171 -47.610071 -15.516110 -2.821969 -16.629066 -25.693294 5.328689 0.000000 0.000000 0.000000 16.684725 1.596138 -0.003971 56.368003 9.149851 -4.533809 8.798573 28.424400 3.547228 0.000000 0.000000 0.000000 
0.097767 0.958394 0.103396 -2.336814 7.472414 1.890660 0.881741 0.483330 7.209790 -1.842277 0.214613 -2.503324 -4.466965 -1.542451 12.482594 0.000000 0.000000 0.000000 -2.859069 1.418424 -22.391640 5.193380 -1.589447 28.412908 -8.522918 -19.277912 29.261275 0.000000 0.000000 0.000000 -2.787112 -0.208936 10.278924 7.267441 -0.737665 -28.113814 -1.928474 -6.469609 34.460291 -0.421957 1.539498 -29.035036 0.000000 0.000000 0.000000 -29.467683 2.204881 -2.430760 -47.807286 -16.082908 -2.741098 -17.783984 -26.291690 5.815601 0.000000 0.000000 0.000000 16.690626 1.093447 -0.409916 55.996197 9.171623 -4.550071 8.886990 28.891997 3.604317 0.000000 0.000000 0.000000 
0.100360 0.955757 0.125804 -2.429244 6.798139 2.307884 0.678914 0.583020 8.279718 -1.069784 0.167002 -2.716034 -4.914885 -2.179835 12.865824 0.000000 0.000000 0.000000 -2.216991 1.625886 -23.350956 4.809819 -1.022918 20.453599 -4.353448 -12.727951 16.353812 0.000000 0.000000 0.000000 -2.678379 -0.216398 10.422294 7.185837 -0.705519 -28.386059 -1.902420 -6.584643 34.624212 -0.328113 1.442802 -30.068098 0.000000 0.000000 0.000000 -29.181124 2.791991 -2.584191 -48.044938 -15.964678 -2.839485 -18.406106 -26.854959 6.156397 0.000000 0.000000 0.000000 16.682329 0.998063 -0.597175 56.463819 8.945592 -4.663367 8.700783 28.531740 3.476043 0.000000 0.000000 0.000000 
0.101840 0.951820 0.151672 -2.291081 6.368179 2.626385 0.563543 0.702443 9.750482 -0.748414 0.155593 -3.128952 -5.411251 -2.721172 13.518987 0.000000 0.000000 0.000000 -2.014857 1.696771 -23.503984 4.607441 -0.668926 10.154255 -3.206541 -11.048861 18.415422 0.000000 0.000000 0.000000 -2.639379 -0.230779 10.952153 6.946845 -0.602227 -29.174666 -1.707854 -7.201667 34.842199 -0.890856 1.599167 -30.128340 0.000000 0.000000 0.000000 -28.615258 3.611417 -2.720419 -49.129374 -16.389605 -2.772191 -19.332899 -26.818973 6.489779 0.000000 0.000000 0.000000 16.299812 0.942892 -0.802824 56.865470 8.907143 -4.710720 8.886533 27.824979 3.369004 0.000000 0.000000 0.000000 
0.102450 0.946570 0.181216 -2.139317 5.397291 2.896393 0.140431 0.883857 11.291428 0.213154 0.102648 -3.511995 -6.311752 -3.374063 15.338782 0.000000 0.000000 0.000000 -1.602672 1.868181 -24.170347 4.308184 -0.512372 1.895097 -2.686527 -11.188229 24.308847 0.000000 0.000000 0.000000 -2.338289 -0.248825 10.894181 6.611013 -0.503970 -29.579030 -1.867701 -7.172448 34.991235 -0.755478 1.418714 -30.180842 0.000000 0.000000 0.000000 -28.457213 4.287797 -2.926253 -49.857747 -15.780506 -3.085468 -20.011517 -27.299795 6.865815 0.000000 0.000000 0.000000 16.949522 0.964455 -1.000032 56.562315 8.937941 -4.690389 8.712163 26.797207 3.143907 0.000000 0.000000 0.000000 
0.101961 0.940167 0.214266 -1.507787 4.789606 3.156267 -0.500324 1.067171 12.347574 0.902140 0.014947 -2.510226 -7.466045 -4.337455 17.153509 0.000000 0.000000 0.000000 -1.161264 1.997671 -24.378095 3.130226 -0.366210 -0.337533 -1.837457 -10.442095 26.721734 0.000000 0.000000 0.000000 -2.087279 -0.265556 10.898912 6.736550 -0.509100 -29.734203 -2.633383 -6.984151 34.879009 -0.389462 1.153118 -29.765987 0.000000 0.000000 0.000000 -28.728274 4.420476 -2.954394 -50.091540 -15.499200 -3.220687 -19.699716 -27.193011 6.769132 0.000000 0.000000 0.000000 17.537597 1.709724 -0.720869 56.562186 8.947792 -4.675118 6.636222 25.772024 2.545163 0.000000 0.000000 0.000000 
0.099790 0.934866 0.251293 -1.296807 5.872755 3.066265 0.113439 1.051258 13.737983 0.630682 -0.028472 -0.832932 -7.860958 -4.228376 18.165543 0.000000 0.000000 0.000000 -0.654430 2.013619 -24.060528 2.133469 -0.215124 2.146033 -2.001265 -10.296832 25.772562 0.000000 0.000000 0.000000 -1.400360 -0.331488 10.424885 6.049371 -0.392254 -29.419912 -2.860961 -7.971539 34.578884 0.607562 0.480574 -28.924980 0.000000 0.000000 0.000000 -28.638057 4.128866 -2.673024 -50.815906 -14.841567 -3.484659 -19.134975 -25.974686 6.298093 0.000000 0.000000 0.000000 18.401077 1.436041 -1.035405 55.770468 8.209740 -4.899534 6.361161 25.100318 2.380879 0.000000 0.000000 0.000000 
0.095353 0.933227 0.292323 -0.825899 5.448537 3.550955 0.219613 1.092441 14.316415 0.746465 -0.179099 2.399116 -8.776653 -5.078514 19.335074 0.000000 0.000000 0.000000 0.060023 2.169992 -24.045350 1.357424 -0.030201 5.816834 -1.928462 -9.799404 22.654672 0.000000 0.000000 0.000000 -1.300738 -0.306023 9.721268 6.620592 -0.501771 -29.325057 -3.743357 -8.213595 34.670777 1.107996 0.111352 -29.242158 0.000000 0.000000 0.000000 -29.055641 5.030822 -3.114097 -51.139362 -14.075497 -3.865183 -18.527951 -25.599870 6.095292 0.000000 0.000000 0.000000 19.665178 0.608077 -1.803181 54.575019 8.300313 -4.733707 6.777353 24.346442 2.348425 0.000000 0.000000 0.000000 
0.087782 0.937183 0.337378 -0.819979 4.775720 3.802970 1.280583 0.868982 13.010084 0.918747 -0.515407 8.749089 -11.891899 -7.044347 24.323944 0.000000 0.000000 0.000000 1.497033 2.369239 -22.880121 0.623778 0.165085 8.446297 -2.082506 -9.561020 18.898267 0.000000 0.000000 0.000000 -1.081633 -0.251689 7.914140 6.602213 -0.609458 -27.758201 -3.715613 -9.156766 34.338037 0.936671 -0.015973 -29.448541 0.000000 0.000000 0.000000 -29.500486 6.308730 -3.525837 -51.682791 -13.423362 -4.253662 -17.427400 -24.798205 5.713549 0.000000 0.000000 0.000000 19.188517 1.183069 -1.827168 54.472452 8.409772 -4.588951 6.368653 24.454101 2.196123 0.000000 0.000000 0.000000 
0.077525 0.944704 0.384045 -1.362316 3.709692 3.212911 3.962314 0.334297 8.908961 -0.652183 -0.711440 20.425398 -12.625892 -7.050505 26.697766 0.000000 0.000000 0.000000 3.356176 2.416549 -20.026919 0.540547 0.231586 9.848306 -1.794143 -8.862574 16.665463 0.000000 0.000000 0.000000 -0.603221 -0.268284 7.339048 7.022472 -0.669890 -28.365160 -3.758384 -8.880995 34.649558 0.146380 0.308940 -28.687585 0.000000 0.000000 0.000000 -30.015226 7.404320 -4.151454 -50.715299 -11.543301 -5.112375 -18.424088 -24.582815 5.926982 0.000000 0.000000 0.000000 18.211635 1.154400 -1.821664 54.434418 8.601381 -4.567125 7.404015 23.245204 2.237947 0.000000 0.000000 0.000000 
0.066219 0.949758 0.429636 -1.530647 2.376702 2.300077 5.999341 -0.038892 2.809606 -2.520458 -0.521658 35.492436 -11.288789 -4.982766 27.927119 0.000000 0.000000 0.000000 5.214156 2.235882 -16.411940 -0.273571 0.437721 10.504858 -1.360679 -7.832615 14.400328 0.000000 0.000000 0.000000 -0.541654 -0.286766 7.745937 6.768013 -0.625160 -28.505934 -3.295675 -8.086130 35.053940 -0.316716 0.526896 -28.063894 0.000000 0.000000 0.000000 -31.648791 7.600992 -4.408036 -48.463269 -10.534701 -5.516242 -18.371261 -24.577969 5.860913 0.000000 0.000000 0.000000 17.115205 1.456747 -1.504445 55.115006 8.189157 -4.920000 8.238756 24.676011 2.568334 0.000000 0.000000 0.000000 
0.055180 0.953793 0.473538 -1.389634 0.616517 1.104848 6.897715 -0.214834 -3.404530 -3.603056 0.121088 46.500545 -6.624084 0.333698 26.943567 0.000000 0.000000 0.000000 6.438087 1.669578 -11.632712 -0.896737 0.543410 9.486658 -0.602062 -6.207095 12.524791 0.000000 0.000000 0.000000 -1.472958 -0.223436 8.308329 6.632319 -0.594705 -28.780236 -2.009021 -6.191822 35.191596 0.604186 0.095502 -27.483123 0.000000 0.000000 0.000000 -32.020364 7.600829 -4.737587 -47.477871 -9.210545 -5.904725 -18.556631 -24.541626 5.844475 0.000000 0.000000 0.000000 17.246420 0.730429 -1.701942 54.307595 8.414871 -4.817718 10.419648 26.503467 3.309128 0.000000 0.000000 0.000000 
0.044638 0.958483 0.516234 -1.249370 -2.051566 0.280810 6.953524 -0.308161 -8.704256 -4.085136 1.143773 49.766057 0.432692 6.777954 17.735606 0.000000 0.000000 0.000000 7.210909 0.995758 -7.178733 -1.333432 0.580929 8.161700 0.767307 -3.720847 11.739021 0.000000 0.000000 0.000000 -2.278088 -0.156410 8.828808 6.858220 -0.706039 -28.298982 -1.145203 -3.285741 34.889986 1.560736 -0.296508 -26.400416 0.000000 0.000000 0.000000 -31.588001 7.634799 -5.227008 -47.603605 -8.160703 -6.118282 -17.720618 -24.259949 5.503485 0.000000 0.000000 0.000000 17.612259 0.484449 -1.584243 53.750045 9.298598 -4.433066 10.589532 28.504141 3.717723 0.000000 0.000000 0.000000 
0.034757 0.961558 0.558135 -0.782875 -5.317556 -0.214869 6.335497 -0.416706 -13.908721 -3.977714 1.922118 47.785206 3.968580 10.097146 8.566861 0.000000 0.000000 0.000000 6.743601 0.274083 -2.931949 -0.990567 0.443279 6.428792 2.506494 -0.600344 11.260215 0.000000 0.000000 0.000000 -3.295114 -0.046742 8.688602 7.010459 -0.758008 -28.257604 -0.329383 -0.471054 35.225784 1.686152 -0.212809 -26.283272 0.000000 0.000000 0.000000 -31.332907 8.808823 -6.351969 -47.613195 -6.914560 -6.469413 -17.750753 -23.935327 5.402520 0.000000 0.000000 0.000000 17.020938 0.512851 -1.325444 54.023807 10.673886 -3.941917 10.596247 30.130768 4.036372 0.000000 0.000000 0.000000 
0.025661 0.961795 0.599898 -0.294455 -8.548420 -0.390004 5.878357 -0.434816 -17.516426 -3.806930 2.088450 40.006505 5.340676 12.077675 7.656209 0.000000 0.000000 0.000000 6.044354 -0.282176 0.643294 -0.969155 0.375517 5.186076 4.113262 2.435078 10.682494 0.000000 0.000000 0.000000 -3.793186 0.018525 8.246724 6.066223 -0.669770 -27.473252 1.146338 2.254550 35.116002 1.590207 0.035636 -26.572433 0.000000 0.000000 0.000000 -30.160290 9.289888 -6.790371 -48.843738 -5.937163 -6.831883 -16.590937 -23.566816 5.045374 0.000000 0.000000 0.000000 16.975973 -0.123654 -1.512954 54.220453 12.316299 -3.240646 9.931850 31.244031 4.095849 0.000000 0.000000 0.000000 
0.017203 0.958551 0.643029 -0.218377 -10.869885 -0.654497 5.835498 -0.348485 -18.670396 -3.519978 1.404728 27.272160 5.638471 12.355228 7.856266 0.000000 0.000000 0.000000 5.056098 -0.757595 4.515042 -0.170100 0.227654 4.354645 5.197724 5.439820 9.036550 0.000000 0.000000 0.000000 -3.523218 0.006044 7.990862 5.465075 -0.554118 -27.626835 1.690342 3.575327 35.741630 0.914967 0.449904 -26.818201 0.000000 0.000000 0.000000 -29.762826 10.191832 -7.296084 -49.176980 -4.726409 -7.335388 -17.488161 -23.540348 5.265099 0.000000 0.000000 0.000000 16.171393 0.406256 -1.192762 53.649102 13.662455 -2.696710 9.683808 33.255011 4.313201 0.000000 0.000000 0.000000 
0.008717 0.952975 0.688929 0.002215 -13.603314 -0.473701 5.975127 -0.190310 -19.099817 -3.754067 0.703867 8.802489 6.756162 14.093831 19.276093 0.000000 0.000000 0.000000 3.970946 -0.998183 7.582652 -0.021230 0.217939 4.394219 6.020184 8.397641 7.083994 0.000000 0.000000 0.000000 -3.103880 -0.014470 7.053573 4.530669 -0.410428 -27.356087 2.104555 4.691146 35.832074 0.100183 0.889914 -27.860203 0.000000 0.000000 0.000000 -29.442485 11.088623 -7.607674 -49.777098 -4.029967 -7.712981 -17.363598 -22.993471 5.168460 0.000000 0.000000 0.000000 15.913280 0.784050 -1.144742 53.724002 14.659239 -2.253234 9.653149 33.933019 4.334444 0.000000 0.000000 0.000000 
0.000307 0.943657 0.738449 -0.393859 -15.571110 -0.071774 6.233776 -0.046483 -18.682639 -3.138752 0.517850 -7.351441 2.953205 9.293533 26.789043 0.000000 0.000000 0.000000 3.877452 -1.256056 10.758700 -0.710625 0.337377 4.948952 5.936094 10.663821 4.129360 0.000000 0.000000 0.000000 -2.763854 -0.031811 6.072821 4.327452 -0.327372 -27.885271 2.680027 5.285438 36.143920 0.020961 0.832802 -28.067511 0.000000 0.000000 0.000000 -29.471873 11.538787 -7.673124 -49.941219 -2.661191 -8.290701 -17.526213 -22.290514 5.067827 0.000000 0.000000 0.000000 15.302861 0.282277 -1.496943 54.431938 15.070178 -2.084853 10.446979 33.784497 4.483486 0.000000 0.000000 0.000000 
-0.007802 0.934359 0.791615 -0.581184 -17.493711 -0.632687 6.191133 0.038304 -18.160229 -2.730120 0.657367 -12.170223 -2.786579 2.497258 29.270650 0.000000 0.000000 0.000000 3.182109 -1.307095 13.646986 -1.261565 0.610565 7.612749 6.237934 12.434973 2.898570 0.000000 0.000000 0.000000 -2.775084 -0.029179 6.143309 3.503128 -0.149860 -28.122402 3.883424 5.826405 36.414312 0.505056 0.393928 -27.497833 0.000000 0.000000 0.000000 -28.939112 10.724677 -6.720030 -50.645792 -3.192691 -8.256147 -15.452966 -21.233580 4.405816 0.000000 0.000000 0.000000 14.906344 -0.298724 -1.894098 55.262238 14.356555 -2.439487 10.994159 34.218851 4.645981 0.000000 0.000000 0.000000 
-0.014595 0.927491 0.848350 -0.243466 -18.743711 -1.065194 4.905961 -0.135946 -19.526190 -1.392753 0.373323 -7.016206 -6.047014 -1.572695 29.411161 0.000000 0.000000 0.000000 2.818138 -1.311496 15.948661 -3.849341 1.419824 11.276250 6.877184 14.125122 2.663530 0.000000 0.000000 0.000000 -3.605040 0.029020 5.433482 3.423012 -0.149880 -28.043594 4.548231 5.324633 37.340860 1.045030 -0.190348 -27.278994 0.000000 0.000000 0.000000 -30.246117 10.556566 -6.161393 -49.846661 -3.401274 -8.404219 -15.160027 -20.582947 4.272252 0.000000 0.000000 0.000000 16.351554 -0.514797 -2.516595 53.834223 13.667905 -2.711522 12.340009 32.848629 4.661893 0.000000 0.000000 0.000000 
-0.020205 0.926455 0.907097 0.529371 -18.906039 -1.396688 2.612916 -0.614694 -20.076416 -0.114444 0.041520 -0.853588 -6.653337 -2.993970 27.517057 0.000000 0.000000 0.000000 1.043558 -0.935847 14.894021 -4.200398 2.674997 19.601034 9.250837 15.189467 6.947562 0.000000 0.000000 0.000000 -5.405924 0.143675 4.409396 3.975325 -0.399613 -26.532636 4.264609 4.284819 36.942958 0.840666 -0.298767 -27.329352 0.000000 0.000000 0.000000 -29.901919 10.481094 -5.608675 -51.067411 -4.891538 -8.003365 -14.327233 -20.638474 4.183526 0.000000 0.000000 0.000000 16.660709 -0.205593 -2.734170 54.214393 10.317688 -4.064343 11.904595 32.852173 4.398067 0.000000 0.000000 0.000000 
-0.025574 0.933219 0.963044 1.842486 -19.815195 -2.158908 0.794794 -0.958872 -19.757293 -0.454268 0.044108 5.665534 -5.232482 -3.102167 21.959898 0.000000 0.000000 0.000000 -1.158404 -0.401185 10.106712 -2.612776 4.658260 32.713939 11.278691 11.025854 16.134286 0.000000 0.000000 0.000000 -7.941317 0.354746 4.958037 6.053738 -0.806270 -26.561881 3.134176 3.762836 36.549892 0.715967 -0.412724 -27.422388 0.000000 0.000000 0.000000 -30.297052 10.574231 -5.211125 -49.727034 -6.599460 -7.378090 -15.749300 -20.700353 4.533642 0.000000 0.000000 0.000000 16.109541 0.125478 -2.785233 55.449389 7.062688 -5.538850 13.741598 31.572768 4.558319 0.000000 0.000000 0.000000 
-0.031636 0.940810 1.012443 2.476559 -21.186749 -2.518537 -0.066466 -1.045599 -17.306441 -0.992846 0.208275 7.517712 -3.950256 -2.493192 18.766789 0.000000 0.000000 0.000000 -2.575657 0.039970 2.696274 1.432368 6.143420 46.449844 10.063755 2.867628 25.896170 0.000000 0.000000 0.000000 -7.862983 0.381509 5.450105 5.324622 -0.760632 -25.882949 2.431573 1.909436 35.999061 -0.016471 -0.451618 -28.116260 0.000000 0.000000 0.000000 -30.191280 9.825760 -3.573743 -48.697655 -9.423302 -6.483053 -16.819594 -22.052894 5.164944 0.000000 0.000000 0.000000 16.308543 0.976588 -3.138063 55.978730 4.563086 -6.527317 13.271729 30.618833 3.979096 0.000000 0.000000 0.000000 
-0.038896 0.949035 1.055965 2.992768 -21.688135 -3.190960 -0.948525 -1.051723 -13.318415 -1.409370 0.292501 6.600550 -3.406214 -2.299714 17.106264 0.000000 0.000000 0.000000 -3.260947 0.404860 -3.260059 5.867602 5.559541 54.158693 5.525949 -5.639900 32.240632 0.000000 0.000000 0.000000 -8.303278 0.501996 7.001486 6.143945 -0.782765 -27.033158 0.654165 -0.619607 36.611018 -0.198716 -0.958595 -27.310904 0.000000 0.000000 0.000000 -30.552494 8.693830 -1.466778 -46.563844 -12.598041 -5.752203 -17.278846 -24.386545 5.964119 0.000000 0.000000 0.000000 18.227099 2.920433 -3.470367 54.796997 2.486413 -6.955592 13.849461 29.639290 3.693407 0.000000 0.000000 0.000000 
-0.047309 0.955632 1.096217 2.741447 -23.435812 -3.580990 -0.458300 -0.756107 -9.263155 -2.438585 0.510911 5.326760 -2.481951 -1.514664 15.709557 0.000000 0.000000 0.000000 -3.206290 0.736581 -7.568715 8.643188 4.771063 55.864175 0.551696 -11.637874 31.053331 0.000000 0.000000 0.000000 -7.666475 0.479131 7.612619 6.413283 -0.849167 -27.047829 -0.603707 -1.820011 36.913255 -0.226989 -1.409430 -26.957650 0.000000 0.000000 0.000000 -30.912235 8.347972 -0.173039 -44.646475 -15.864033 -4.949829 -16.625126 -26.507145 6.435816 0.000000 0.000000 0.000000 19.365211 3.103440 -4.504286 53.842350 1.310137 -6.987404 14.365203 29.122571 3.491079 0.000000 0.000000 0.000000 
-0.056663 0.961039 1.133209 2.540660 -25.288531 -3.714043 -0.117693 -0.456956 -5.401616 -3.256531 0.656251 3.526817 -1.653919 -0.663681 14.920813 0.000000 0.000000 0.000000 -3.321634 1.127010 -11.413676 10.155066 3.911086 53.095928 -2.684487 -14.174721 20.852196 0.000000 0.000000 0.000000 -6.991033 0.460194 8.293897 6.481718 -0.777863 -27.740092 -1.621522 -3.761698 37.289317 -1.097727 -1.502395 -26.048393 0.000000 0.000000 0.000000 -30.979080 8.137507 1.305501 -43.210169 -18.193683 -4.569903 -16.211562 -28.057889 6.830644 0.000000 0.000000 0.000000 19.593926 3.979526 -5.239841 53.379904 -0.145639 -7.210630 14.499441 29.633964 3.239102 0.000000 0.000000 0.000000 
-0.067372 0.964097 1.167110 1.989214 -27.234195 -3.471571 0.395874 -0.139876 -2.039535 -3.715141 0.723953 1.911066 -0.822209 0.274934 14.084338 0.000000 0.000000 0.000000 -3.255500 1.511885 -14.403985 11.100403 3.003261 48.106330 -3.895515 -13.827457 10.696959 0.000000 0.000000 0.000000 -6.365706 0.427309 8.603039 6.573163 -0.818924 -27.584631 -2.353999 -4.883323 37.204674 -1.490298 -1.667785 -25.991641 0.000000 0.000000 0.000000 -30.696673 7.710970 2.501815 -42.474905 -20.141616 -4.112219 -14.144355 -30.244672 6.889729 0.000000 0.000000 0.000000 20.093477 4.576427 -5.996707 52.914327 -0.816057 -7.040851 14.609717 30.147291 3.048315 0.000000 0.000000 0.000000 
-0.079467 0.965208 1.198341 1.232774 -29.136579 -3.286716 0.749262 0.187983 1.094741 -3.525155 0.678576 0.817691 0.027527 1.314391 13.093643 0.000000 0.000000 0.000000 -2.760122 1.925525 -16.865394 10.789225 2.425957 41.462581 -3.759943 -13.982716 10.642962 0.000000 0.000000 0.000000 -5.228553 0.370360 9.734210 5.933486 -0.724082 -27.724574 -2.403519 -5.780879 36.583445 -2.254963 -1.527843 -25.481477 0.000000 0.000000 0.000000 -30.353758 7.146216 3.573157 -41.917916 -21.580428 -3.685833 -12.186283 -31.143772 6.518532 0.000000 0.000000 0.000000 20.183603 4.593915 -6.782667 52.806294 -1.513726 -7.040495 15.153667 30.685853 2.983207 0.000000 0.000000 0.000000 
-0.092923 0.964086 1.227631 0.678763 -30.712901 -2.975997 0.523838 0.546300 4.186095 -2.642695 0.497240 -0.754339 0.780553 2.330097 12.054935 0.000000 0.000000 0.000000 -2.365703 2.255934 -18.494912 9.041770 1.971722 33.261113 -3.040519 -13.327152 11.076026 0.000000 0.000000 0.000000 -4.994927 0.390547 10.298404 6.643029 -0.736765 -28.309900 -3.268161 -6.425422 36.399422 -2.310469 -1.752304 -24.861580 0.000000 0.000000 0.000000 -30.647953 7.350559 4.092122 -41.297854 -22.535289 -3.550947 -11.033835 -31.983583 6.409608 0.000000 0.000000 0.000000 19.869094 4.309295 -7.462339 53.368653 -1.841943 -7.160663 15.863688 31.505889 2.986448 0.000000 0.000000 0.000000 
-0.107911 0.961447 1.255659 0.249846 -32.362483 -2.288750 0.528178 0.881747 6.551696 -2.345781 0.450948 -1.905230 1.507284 3.423029 11.082816 0.000000 0.000000 0.000000 -1.770139 2.576746 -19.740508 6.068045 1.480799 23.650069 -2.100931 -12.736229 12.266397 0.000000 0.000000 0.000000 -4.470284 0.396242 11.117969 6.344215 -0.516705 -29.414201 -2.979754 -7.060228 36.271819 -2.502364 -1.906918 -25.601662 0.000000 0.000000 0.000000 -30.924268 7.535823 4.585120 -41.008655 -22.837305 -3.566908 -10.687386 -32.817451 6.512155 0.000000 0.000000 0.000000 19.456286 3.823600 -8.130488 53.591962 -2.001344 -7.212481 16.130370 31.817368 2.858058 0.000000 0.000000 0.000000 
-0.124536 0.957563 1.283372 0.096000 -33.553174 -1.985431 0.040193 1.261290 8.842593 -1.515718 0.318145 -2.465942 2.068377 4.375679 10.044930 0.000000 0.000000 0.000000 -1.955175 2.525249 -19.433769 4.353750 0.610206 13.453264 -1.171502 -12.843838 15.025786 0.000000 0.000000 0.000000 -4.228290 0.394828 11.365493 5.910019 -0.410831 -29.638851 -3.140816 -7.243688 35.660506 -2.340325 -2.105333 -25.634389 0.000000 0.000000 0.000000 -30.832122 7.913671 4.547327 -41.261500 -22.676291 -3.559996 -10.512678 -33.131648 6.582982 0.000000 0.000000 0.000000 18.870284 3.628780 -8.278724 54.451347 -2.424630 -7.611958 17.027833 32.592469 2.989927 0.000000 0.000000 0.000000 
-0.143601 0.952031 1.311714 0.581257 -34.140303 -1.978629 -0.392210 1.682814 11.023250 -1.472279 0.317508 -2.804010 2.217639 4.704389 9.051395 0.000000 0.000000 0.000000 -3.322245 2.378941 -19.173980 4.242668 0.004011 3.052318 -1.608584 -15.848586 20.795354 0.000000 0.000000 0.000000 -4.104773 0.415987 11.729860 4.823998 -0.001060 -31.120031 -3.365143 -8.825269 36.446174 -2.716914 -2.276241 -26.430436 0.000000 0.000000 0.000000 -31.132119 8.852415 4.655829 -41.669784 -23.217573 -3.549753 -10.422288 -33.558043 6.773087 0.000000 0.000000 0.000000 18.051142 3.833012 -8.550707 55.709563 -2.792343 -8.136083 17.359275 32.758597 2.790857 0.000000 0.000000 0.000000 
-0.165479 0.945379 1.340805 0.789620 -35.391320 -1.710060 -0.840082 2.093910 12.802830 -1.058682 0.244933 -2.339128 2.749722 5.775515 8.134852 0.000000 0.000000 0.000000 -3.971660 2.349822 -19.083185 4.073942 0.040839 -4.021947 -3.841132 -20.095804 26.718263 0.000000 0.000000 0.000000 -3.543169 0.310694 11.103801 4.350895 0.134199 -31.568624 -3.895542 -8.581273 36.288643 -2.110520 -2.716046 -25.586284 0.000000 0.000000 0.000000 -30.301774 9.256780 4.289340 -43.556102 -21.938948 -3.624761 -11.759803 -33.454189 7.260292 0.000000 0.000000 0.000000 18.350082 4.532479 -8.609794 55.547444 -3.264805 -8.185461 17.552565 32.807878 2.769318 0.000000 0.000000 0.000000 
-0.190721 0.938622 1.370442 1.304818 -36.161382 -1.733355 -1.078211 2.458055 14.261561 -1.064107 0.235726 -0.937135 3.017648 6.369064 7.823941 0.000000 0.000000 0.000000 -3.947403 2.283065 -18.605730 3.690502 0.124051 -6.329984 -5.335166 -22.127660 29.875167 0.000000 0.000000 0.000000 -3.585626 0.328686 11.137084 4.696153 0.232427 -32.317030 -4.414177 -8.654805 36.008594 -2.297692 -2.692168 -25.124852 0.000000 0.000000 0.000000 -30.376081 9.405398 4.355342 -45.157184 -21.440336 -3.652656 -12.262128 -32.953783 7.316657 0.000000 0.000000 0.000000 17.463776 4.477973 -8.328146 56.492122 -3.134792 -8.596428 16.277185 32.351264 2.372048 0.000000 0.000000 0.000000 
-0.219575 0.932912 1.400339 0.985874 -36.403031 -1.400727 -0.197203 2.761805 15.822903 -1.120576 0.253044 0.663579 3.035500 6.391488 8.475888 0.000000 0.000000 0.000000 -2.531472 2.250224 -17.912277 2.845101 0.033290 -4.619423 -5.656377 -22.368870 28.782113 0.000000 0.000000 0.000000 -2.365854 0.119175 10.295602 2.715310 0.428388 -32.254515 -3.299019 -9.843734 35.803072 -2.510582 -2.712161 -24.357844 0.000000 0.000000 0.000000 -31.091200 10.321294 4.215677 -46.412842 -20.884310 -3.812400 -12.621298 -31.337410 6.994362 0.000000 0.000000 0.000000 16.960664 4.651457 -8.424988 56.126097 -3.804798 -8.802837 16.412194 31.902145 2.204152 0.000000 0.000000 0.000000 
-0.252219 0.931025 1.429792 0.675039 -37.316897 -1.077584 1.029690 2.892043 16.670270 -1.613156 0.428375 3.278780 3.034449 6.039102 12.328306 0.000000 0.000000 0.000000 -1.611148 2.270256 -17.635918 3.505762 0.012252 -0.751554 -6.627618 -22.961198 24.956649 0.000000 0.000000 0.000000 -1.899106 0.050517 9.831443 2.622598 0.664000 -33.404573 -3.317123 -10.739248 36.922306 -3.470656 -2.455824 -25.080956 0.000000 0.000000 0.000000 -32.085136 11.301594 4.359238 -47.033425 -19.854096 -4.506169 -13.851477 -31.162410 7.409694 0.000000 0.000000 0.000000 16.735276 3.537102 -9.437036 55.724018 -4.395280 -9.036273 17.013897 31.221763 2.103154 0.000000 0.000000 0.000000 
-0.287687 0.933832 1.457288 0.434350 -38.914298 -0.700872 2.302252 2.600640 15.529007 -2.040521 0.958082 8.915470 1.979003 3.939974 19.044123 0.000000 0.000000 0.000000 -0.183115 2.190930 -16.703779 3.643377 0.065514 2.057840 -6.450473 -22.059948 20.530003 0.000000 0.000000 0.000000 -1.576424 -0.027097 8.427826 2.942399 0.157386 -30.826180 -2.887352 -10.845138 34.990941 -3.411916 -2.536752 -25.037060 0.000000 0.000000 0.000000 -32.536303 12.233953 3.922037 -48.336134 -18.956868 -4.620624 -12.915791 -30.502268 6.987338 0.000000 0.000000 0.000000 17.243784 4.514407 -9.538359 54.054562 -4.913232 -8.408150 16.556754 31.298856 1.909699 0.000000 0.000000 0.000000 
-0.324140 0.938820 1.481691 -0.024011 -40.746199 -0.409216 3.748387 1.880803 11.827730 -1.817793 2.422036 18.573679 -1.189051 0.402908 28.219138 0.000000 0.000000 0.000000 1.219152 1.880165 -14.712260 4.232443 0.121940 3.390125 -5.919655 -20.611173 17.374301 0.000000 0.000000 0.000000 -1.515471 -0.047026 7.704215 3.525695 -0.012145 -30.229828 -2.459549 -10.585350 34.128543 -3.603435 -2.441781 -24.135553 0.000000 0.000000 0.000000 -32.411536 13.145813 3.402415 -49.324035 -17.032812 -5.153515 -13.156055 -30.214547 7.072363 0.000000 0.000000 0.000000 16.024885 4.029744 -9.321633 54.082161 -4.574163 -8.484907 16.657520 30.673387 1.757306 0.000000 0.000000 0.000000 
-0.358872 0.942871 1.502282 -1.041264 -43.565969 -0.055355 5.699021 1.299181 6.831202 0.306064 5.210573 31.417594 -6.277002 -4.925018 29.883401 0.000000 0.000000 0.000000 4.107336 1.544160 -12.312308 2.862584 0.224322 4.373020 -4.639331 -18.061089 14.603915 0.000000 0.000000 0.000000 -0.803580 -0.108639 7.636503 4.605698 -0.150488 -30.077945 -2.559242 -8.772064 34.195587 -3.682556 -2.440066 -24.532229 0.000000 0.000000 0.000000 -32.026798 12.895472 3.561286 -49.204922 -16.443719 -5.357211 -14.046505 -29.639445 7.106925 0.000000 0.000000 0.000000 16.287077 4.515541 -9.255228 53.018784 -4.451380 -8.140245 15.947562 30.370315 1.660359 0.000000 0.000000 0.000000 
-0.391074 0.945507 1.520215 -0.807738 -45.661632 -0.973879 7.165884 1.090270 1.379182 4.229567 7.260005 42.112749 -10.827925 -8.045272 33.058040 0.000000 0.000000 0.000000 4.841807 0.990625 -9.376747 2.945578 0.276657 4.863592 -3.990817 -15.988806 12.247150 0.000000 0.000000 0.000000 -1.019610 -0.059305 8.440687 4.267843 -0.176920 -29.774304 -1.300352 -8.373501 33.620253 -4.730547 -1.887970 -24.389242 0.000000 0.000000 0.000000 -33.870286 12.812578 4.524838 -46.895270 -16.727657 -5.877113 -15.618272 -29.633085 7.451864 0.000000 0.000000 0.000000 14.799602 5.136925 -8.346069 52.887040 -3.816245 -8.009409 16.866558 30.722266 1.708067 0.000000 0.000000 0.000000 
-0.420695 0.949173 1.536550 -0.397475 -49.888760 -1.673475 7.389017 1.204766 -4.448686 6.590220 8.598152 46.024240 -8.537040 -6.086270 31.358413 0.000000 0.000000 0.000000 5.893155 0.469642 -6.330368 1.801179 0.309365 4.258250 -1.962067 -12.095342 10.509820 0.000000 0.000000 0.000000 -0.724947 -0.051984 8.945491 3.729305 0.081291 -30.781358 -0.378996 -5.724184 34.219812 -3.251996 -2.783767 -23.222126 0.000000 0.000000 0.000000 -34.050698 12.803541 4.818345 -46.056083 -16.320232 -6.168423 -16.754408 -29.572424 7.692219 0.000000 0.000000 0.000000 15.403807 4.766639 -9.086584 52.131427 -3.160831 -7.345684 17.485680 29.708976 1.750760 0.000000 0.000000 0.000000 
-0.448742 0.952105 1.551893 0.032135 -54.886958 -1.985078 6.641734 1.416799 -8.300414 6.703510 8.376079 42.456537 -1.950514 -2.426483 14.159938 0.000000 0.000000 0.000000 6.071330 0.110955 -4.027800 1.617177 0.348595 3.987620 0.339365 -7.779617 9.271060 0.000000 0.000000 0.000000 -0.688309 -0.025215 9.035177 3.279130 -0.048879 -29.836006 1.053950 -3.360465 33.192589 -3.075612 -2.849184 -22.588774 0.000000 0.000000 0.000000 -34.133891 12.565636 5.413605 -45.897861 -15.648153 -6.399627 -16.750365 -29.852035 7.712717 0.000000 0.000000 0.000000 14.870952 5.248968 -8.808379 52.030992 -2.569347 -7.072942 18.013558 31.127786 1.787921 0.000000 0.000000 0.000000 
-0.475461 0.954275 1.566732 0.921417 -58.711989 -2.694994 4.691354 1.281179 -10.992184 6.572385 5.692407 33.879962 0.195497 0.779317 4.089661 0.000000 0.000000 0.000000 5.986588 -0.119003 -2.027576 0.911246 0.387755 4.041075 1.958841 -4.413695 8.324489 0.000000 0.000000 0.000000 -1.148151 0.091856 9.731862 3.939118 0.076013 -30.471781 1.111617 -1.939493 33.144016 -3.380367 -2.814869 -22.467074 0.000000 0.000000 0.000000 -34.142980 13.139886 5.430399 -46.286059 -15.389043 -6.530224 -16.635047 -29.920845 7.736445 0.000000 0.000000 0.000000 14.816813 4.826248 -9.372670 51.682013 -2.058726 -6.772877 19.320168 31.458320 1.937600 0.000000 0.000000 0.000000 
-0.501609 0.954431 1.581326 1.055288 -63.183358 -2.663246 3.247941 1.288838 -12.734432 3.673374 2.682678 20.190680 6.192840 8.307292 13.063053 0.000000 0.000000 0.000000 5.750877 -0.280102 0.320051 0.802497 0.378322 3.154558 3.870715 -0.539231 7.590434 0.000000 0.000000 0.000000 -0.804944 0.062854 9.561948 3.952775 0.054963 -30.294529 1.369567 -0.514052 33.696980 -3.679069 -2.896674 -22.444310 0.000000 0.000000 0.000000 -33.667930 13.040920 6.243589 -47.084089 -15.684468 -6.459697 -16.752806 -30.093707 7.845704 0.000000 0.000000 0.000000 14.089223 4.940584 -9.555248 52.101930 -0.887270 -6.498061 20.158804 32.877725 1.884453 0.000000 0.000000 0.000000 
-0.527943 0.953198 1.595512 1.823510 -67.121669 -3.297802 1.641249 1.113261 -13.527644 1.525017 0.591928 6.892206 7.860590 7.663435 21.960502 0.000000 0.000000 0.000000 5.953558 -0.309102 1.632340 -0.887422 0.461638 4.214042 5.002984 2.945067 6.295023 0.000000 0.000000 0.000000 -0.887724 0.128408 9.874678 4.334577 0.103442 -30.213610 0.675556 -0.441897 33.340851 -4.201791 -2.930271 -22.199318 0.000000 0.000000 0.000000 -33.196624 14.418947 5.869118 -47.472459 -16.010173 -6.157573 -17.633244 -29.821884 8.100980 0.000000 0.000000 0.000000 14.146595 5.371709 -10.461414 52.276661 -1.179208 -6.415337 21.023392 33.123729 1.719515 0.000000 0.000000 0.000000 
-0.555337 0.951790 1.609315 2.093769 -71.776982 -3.706618 1.571412 1.367189 -13.441886 -1.065868 0.634352 -0.178994 2.411085 0.372808 22.793683 0.000000 0.000000 0.000000 6.265769 -0.273905 3.525546 -2.781158 0.541114 4.625509 6.612106 6.867966 5.556464 0.000000 0.000000 0.000000 -0.898221 0.126614 9.819364 4.396955 -0.068702 -29.832605 1.077305 0.125051 33.184805 -4.542151 -2.979017 -21.757684 0.000000 0.000000 0.000000 -34.723217 13.835221 8.303698 -46.239710 -18.375941 -6.145851 -15.302455 -28.432992 6.697430 0.000000 0.000000 0.000000 15.046613 5.286251 -12.210131 51.560074 -1.992678 -6.075479 21.940144 31.985429 1.582898 0.000000 0.000000 0.000000 
-0.583987 0.949350 1.622802 1.547303 -75.415271 -4.119777 0.635926 1.197469 -12.956674 -0.649960 0.634843 0.357968 -3.711689 -6.154312 20.886344 0.000000 0.000000 0.000000 6.314718 -0.066419 6.099901 -3.824472 0.666438 5.399378 7.686676 9.705787 4.943882 0.000000 0.000000 0.000000 -1.068603 0.273223 10.662104 4.707660 -0.028101 -29.613621 0.352446 -0.265168 32.886529 -4.156051 -3.538061 -21.350687 0.000000 0.000000 0.000000 -34.278128 13.878338 9.322177 -46.759443 -20.557938 -5.256625 -13.641609 -27.751889 5.891091 0.000000 0.000000 0.000000 16.573072 5.248548 -14.812110 51.220613 -5.009746 -6.526374 23.217825 31.959527 1.588063 0.000000 0.000000 0.000000 
-0.613358 0.947239 1.636291 0.425944 -79.177645 -3.966679 0.454333 1.247262 -12.210217 -0.046677 1.068632 4.273145 -5.483662 -7.702097 19.437438 0.000000 0.000000 0.000000 6.030782 0.371669 8.686110 -4.357466 0.835112 6.420410 8.504190 12.073361 4.357485 0.000000 0.000000 0.000000 -1.426040 0.314206 10.398764 5.012195 -0.196385 -28.763785 -0.687278 -0.985811 33.085907 -2.556141 -4.816631 -20.872687 0.000000 0.000000 0.000000 -32.576382 14.026222 9.877748 -48.116659 -22.263733 -3.947686 -12.171750 -27.545680 5.397951 0.000000 0.000000 0.000000 16.941145 6.469584 -16.446986 51.518583 -7.644083 -7.280481 21.539422 31.352057 0.927972 0.000000 0.000000 0.000000 
-0.642625 0.946192 1.649362 -7.062445 -83.699066 3.491656 0.300579 1.233051 -10.787590 2.138082 0.938497 6.164541 -4.354894 -6.214447 17.696456 0.000000 0.000000 0.000000 5.448395 0.662018 8.940941 -4.333158 1.311899 9.068081 10.994892 15.446987 5.400156 0.000000 0.000000 0.000000 -1.953239 0.333632 9.544318 5.164680 -0.221006 -27.990560 -0.262684 -1.862384 33.007127 -3.227541 -4.689984 -20.985215 0.000000 0.000000 0.000000 -32.758117 13.869554 11.902294 -47.108205 -24.591982 -3.298268 -10.506501 -28.060461 4.847855 0.000000 0.000000 0.000000 16.628247 6.834957 -18.164673 50.729279 -10.414866 -8.056938 21.545836 31.058419 0.582017 0.000000 0.000000 0.000000 
-0.670694 0.948474 1.661471 -18.892724 -86.833778 14.991266 0.002937 1.022429 -8.671550 2.773091 1.157815 7.171527 -2.671522 -3.975281 15.566540 0.000000 0.000000 0.000000 4.617525 0.943591 8.930777 -4.520821 2.034236 12.081662 14.192976 16.309180 8.599994 0.000000 0.000000 0.000000 -2.245890 0.309342 8.646796 5.429819 -0.242029 -27.329943 -0.886321 -3.121889 32.761315 -2.805488 -5.080367 -21.086924 0.000000 0.000000 0.000000 -31.516291 14.128316 12.507304 -47.713788 -27.182880 -1.624343 -8.893326 -28.043378 4.410070 0.000000 0.000000 0.000000 15.210995 6.636723 -18.949869 51.640344 -12.222436 -9.537996 21.635865 29.504286 0.155462 0.000000 0.000000 0.000000 
-0.695879 0.951314 1.672143 -70.965249 -88.736196 67.129479 0.464463 1.040981 -6.123719 1.485218 1.475123 6.102808 -1.393918 -2.124829 14.619801 0.000000 0.000000 0.000000 3.575605 0.891527 7.149293 -3.990255 3.237329 16.169278 18.201387 14.828620 14.144106 0.000000 0.000000 0.000000 -2.535553 0.299429 7.922180 5.498684 -0.306086 -26.703436 -1.591800 -4.135607 31.792301 -2.101175 -5.270260 -20.460732 0.000000 0.000000 0.000000 -30.568052 14.170051 12.965077 -47.556187 -28.629540 -0.535780 -8.175476 -27.984173 4.124848 0.000000 0.000000 0.000000 14.729067 6.364440 -20.045719 51.998258 -13.783519 -10.513347 20.020220 27.710234 -0.287882 0.000000 0.000000 0.000000 
-0.717109 0.953856 1.680952 -150.576009 -87.045609 146.857019 0.245564 0.992187 -3.850105 1.449281 1.376957 4.901620 0.192063 0.165804 14.230253 0.000000 0.000000 0.000000 2.794832 0.740446 4.820860 -3.200327 4.894922 20.575201 20.984483 11.621315 19.508306 0.000000 0.000000 0.000000 -2.158707 0.224996 7.618507 5.165598 -0.198098 -26.893660 -2.008370 -5.177478 31.702284 -1.385453 -5.523439 -20.678916 0.000000 0.000000 0.000000 -29.092663 12.810497 14.724903 -47.390394 -30.410200 0.789998 -5.983440 -28.430259 3.380151 0.000000 0.000000 0.000000 13.806168 6.485951 -20.955773 52.394822 -15.443521 -11.733642 20.373302 26.927037 -0.495121 0.000000 0.000000 0.000000 
-0.734180 0.954799 1.687824 -161.122166 -85.048235 157.804083 0.326335 1.079629 -2.266385 0.695355 1.467056 3.659332 1.154237 1.733632 13.882616 0.000000 0.000000 0.000000 2.126931 0.466962 1.299131 -1.061944 7.104816 25.889622 21.360789 5.578021 24.874556 0.000000 0.000000 0.000000 -2.336969 0.262116 7.539510 5.266657 -0.249443 -26.343957 -2.419444 -6.500990 30.728394 -1.942890 -5.111269 -20.549120 0.000000 0.000000 0.000000 -28.037351 11.991217 15.670216 -46.504147 -31.949978 1.864412 -4.153011 -29.068511 2.839575 0.000000 0.000000 0.000000 14.110945 6.926301 -22.501831 52.180185 -16.685980 -11.919676 19.123458 26.201591 -0.758454 0.000000 0.000000 0.000000 
-0.747590 0.956585 1.692916 -163.391026 -83.565411 159.968272 0.213957 1.162072 -0.495693 0.578451 1.344066 2.491911 1.891931 2.832976 14.072022 0.000000 0.000000 0.000000 1.427846 0.430164 -1.032531 0.238578 8.268283 28.443270 14.049318 2.058239 18.772294 0.000000 0.000000 0.000000 -2.895204 0.471091 8.527413 5.173171 0.104282 -27.809390 -2.574857 -8.304431 32.001891 -2.060399 -5.526650 -23.264790 0.000000 0.000000 0.000000 -27.560816 10.952316 17.457035 -44.067013 -33.393370 1.975125 -2.318609 -30.687428 2.373961 0.000000 0.000000 0.000000 14.307830 7.913771 -24.028938 51.239606 -18.137696 -11.897537 19.029472 26.397494 -0.887951 0.000000 0.000000 0.000000 
-0.758044 0.958297 1.696267 -162.757507 -83.022563 159.743301 -0.016217 1.156303 0.297437 0.839292 1.093282 1.541725 2.294203 3.288471 14.415889 0.000000 0.000000 0.000000 0.545701 0.516930 -3.243775 1.779789 7.633205 27.591260 1.352616 -1.782353 7.787393 0.000000 0.000000 0.000000 -2.892265 0.510627 8.736787 5.077959 0.101730 -27.627905 -2.930639 -10.302834 31.869730 -3.188763 -5.124079 -23.883128 0.000000 0.000000 0.000000 -26.512794 11.327575 17.196250 -45.347047 -34.195087 3.365144 0.336645 -32.750413 2.189390 0.000000 0.000000 0.000000 14.005794 8.585610 -24.839250 51.078529 -18.399641 -11.755606 19.126062 26.192009 -0.969615 0.000000 0.000000 0.000000 
-0.766395 0.959061 1.698460 -163.351069 -82.430809 161.262123 -0.083969 1.198310 0.843522 -0.127912 1.508172 1.668271 2.040952 5.390565 9.808589 0.000000 0.000000 0.000000 -0.383018 0.690379 -4.753617 2.162847 5.167784 21.839474 -5.367069 -1.105818 0.250008 0.000000 0.000000 0.000000 -2.477008 0.504358 9.244980 5.678181 0.303223 -27.969645 -4.054779 -10.659057 30.828262 -4.287350 -4.496711 -22.657538 0.000000 0.000000 0.000000 -25.597820 11.614618 16.474546 -45.337363 -33.844287 3.754777 -0.323779 -34.723135 2.777193 0.000000 0.000000 0.000000 14.322000 9.142083 -25.650685 50.052081 -20.234170 -11.791220 20.301800 26.667387 -0.782931 0.000000 0.000000 0.000000 
-0.773731 0.959894 1.699191 -162.528903 -81.777826 161.072347 0.152599 1.331043 1.520776 -0.207119 1.338694 0.553167 1.892432 5.584762 9.271071 0.000000 0.000000 0.000000 0.220591 0.580545 -4.933411 0.738436 3.103073 15.446197 -4.017520 -0.072279 1.438157 0.000000 0.000000 0.000000 -1.699030 0.317670 8.960218 6.187018 0.215526 -27.370170 -4.371421 -9.387946 30.002892 -3.261702 -5.143751 -23.720571 0.000000 0.000000 0.000000 -25.221327 9.768631 17.480606 -45.058272 -33.581780 3.652032 0.138400 -35.758889 2.494772 0.000000 0.000000 0.000000 14.958510 8.860051 -25.865838 50.345125 -20.779512 -12.047587 20.097849 27.343208 -0.685542 0.000000 0.000000 0.000000 
-0.780535 0.959531 1.698900 -161.437946 -81.899768 160.072228 0.487741 1.465815 2.117724 -0.598594 1.395072 0.115927 1.624288 5.405618 8.970555 0.000000 0.000000 0.000000 0.866222 0.480103 -4.945976 -0.374306 2.277508 12.366998 -1.584248 -1.220399 5.305597 0.000000 0.000000 0.000000 -1.150368 0.314642 9.637070 4.601787 0.126328 -28.054508 -2.753542 -9.912529 29.956551 -3.387555 -4.736023 -23.298413 0.000000 0.000000 0.000000 -26.485562 10.364442 18.296863 -44.174756 -34.628092 3.066388 -0.370440 -35.984827 2.732171 0.000000 0.000000 0.000000 14.731617 8.975431 -25.530801 50.311469 -20.357004 -11.802060 19.239993 27.370721 -0.907344 0.000000 0.000000 0.000000 
-0.786786 0.958822 1.697772 -161.315046 -82.653250 160.305834 0.347527 1.437929 2.471689 -0.678030 1.282490 -0.583540 1.330550 4.987407 8.784315 0.000000 0.000000 0.000000 0.785220 0.484135 -4.993323 -0.729488 1.805698 10.377571 -0.451038 -3.168227 8.506201 0.000000 0.000000 0.000000 -0.998492 0.250510 9.366017 3.879694 0.033853 -28.107929 -2.182690 -9.437639 29.738297 -3.012716 -4.809445 -23.179843 0.000000 0.000000 0.000000 -27.167936 10.145405 18.737130 -44.204142 -33.908639 2.290095 -1.437648 -36.339777 3.103005 0.000000 0.000000 0.000000 14.986452 9.062284 -25.206207 50.799507 -20.996828 -12.156731 19.049385 27.596525 -0.930729 0.000000 0.000000 0.000000 
-0.792447 0.958059 1.696092 -159.478247 -83.522647 158.782611 0.601906 1.459190 2.393467 -1.006717 1.379932 -0.490202 0.797641 4.281119 8.350345 0.000000 0.000000 0.000000 0.462790 0.510844 -4.621121 -0.600013 1.457493 8.601540 0.621193 -4.095376 10.565131 0.000000 0.000000 0.000000 -0.724332 0.169727 9.021918 3.392082 -0.080156 -27.850372 -1.692742 -8.660473 29.556889 -2.881964 -4.897251 -23.278105 0.000000 0.000000 0.000000 -28.932244 10.525042 19.237768 -43.204436 -33.340324 0.793413 -2.701295 -35.953210 3.390297 0.000000 0.000000 0.000000 15.107757 8.905641 -24.322570 51.630920 -20.958519 -12.638203 18.539845 28.062805 -0.950583 0.000000 0.000000 0.000000 
-0.797614 0.958105 1.693807 -158.779414 -84.449631 158.370387 0.573414 1.395075 2.218447 -1.102274 1.408330 -0.265352 0.427347 3.593806 8.293958 0.000000 0.000000 0.000000 0.351341 0.511846 -4.282707 -0.761158 1.321086 7.960629 0.477840 -4.663810 10.928416 0.000000 0.000000 0.000000 -0.662106 0.163603 9.059632 3.041565 -0.131715 -27.818359 -1.240490 -7.989357 29.263259 -2.610001 -5.011093 -23.282808 0.000000 0.000000 0.000000 -30.189733 10.435382 19.734462 -42.756166 -32.135081 -0.503577 -3.252271 -34.487757 3.169066 0.000000 0.000000 0.000000 15.436559 8.792902 -23.745706 51.929886 -20.610243 -12.563391 18.181066 27.343018 -0.881530 0.000000 0.000000 0.000000 
-0.802949 0.958555 1.690923 -156.593311 -85.640197 156.317735 0.847902 1.408786 2.088459 -1.570538 1.601907 0.165660 -0.187258 2.463464 8.336053 0.000000 0.000000 0.000000 0.047268 0.542689 -3.593192 -0.417933 1.209513 7.265297 0.022508 -5.437431 11.117539 0.000000 0.000000 0.000000 -0.387130 0.104541 8.896822 2.351738 -0.201209 -27.814984 -0.982052 -7.569295 29.255710 -2.199574 -5.221033 -23.509698 0.000000 0.000000 0.000000 -31.477046 10.992620 19.659084 -42.258996 -30.527079 -1.872737 -4.976362 -32.627987 3.314568 0.000000 0.000000 0.000000 15.655407 8.714504 -23.179093 52.108914 -20.372337 -12.533418 18.088899 27.276965 -0.806485 0.000000 0.000000 0.000000 
-0.808683 0.958936 1.687566 -153.745892 -86.323004 153.558561 0.790677 1.363326 2.065147 -1.308037 1.553915 0.659195 -0.302136 2.306480 8.133046 0.000000 0.000000 0.000000 0.099987 0.526388 -3.265814 -0.295856 1.150294 6.868633 -0.162060 -6.371769 11.949348 0.000000 0.000000 0.000000 -0.256133 0.081562 8.863521 1.779286 -0.227841 -27.883575 -0.560769 -6.950743 29.021288 -2.383047 -5.047469 -22.919743 0.000000 0.000000 0.000000 -32.491054 11.286034 19.591936 -41.758993 -28.858681 -2.995562 -7.031234 -29.834759 3.232374 0.000000 0.000000 0.000000 15.855006 8.342499 -22.799625 52.467651 -20.144870 -12.609355 18.480227 27.091601 -0.687089 0.000000 0.000000 0.000000 
-0.814698 0.959236 1.683860 -147.976273 -86.917088 147.748287 1.081254 1.423902 2.157892 -1.360924 1.621251 1.085192 -0.376473 2.072150 8.218667 0.000000 0.000000 0.000000 0.211262 0.508092 -2.458373 -0.086483 1.022462 5.757602 -0.122540 -7.315129 13.126418 0.000000 0.000000 0.000000 -0.069493 0.058990 8.892756 1.464186 -0.167851 -28.229559 -0.616237 -6.757857 28.887242 -2.237294 -5.132049 -22.980806 0.000000 0.000000 0.000000 -32.691671 11.807544 18.899908 -42.444528 -26.728291 -3.679244 -8.641214 -27.531010 3.198196 0.000000 0.000000 0.000000 15.761897 8.332594 -22.309098 52.838810 -20.218144 -12.909262 19.095079 26.839240 -0.568788 0.000000 0.000000 0.000000 
-0.820607 0.959230 1.680042 -141.355858 -87.262321 141.184793 1.404032 1.501541 2.290063 -1.454390 1.647271 1.158589 -0.119299 2.239891 8.502727 0.000000 0.000000 0.000000 0.753413 0.437511 -1.515976 -0.124009 0.943486 5.093585 -1.197445 -7.828884 12.496223 0.000000 0.000000 0.000000 -0.042298 0.049348 8.819422 1.113319 -0.181823 -28.189101 -0.365081 -6.336938 28.598648 -1.714335 -5.313660 -22.971913 0.000000 0.000000 0.000000 -32.757786 11.954199 18.392638 -42.914044 -24.651182 -4.307062 -9.799935 -25.152732 2.974479 0.000000 0.000000 0.000000 16.171217 8.516891 -22.160799 52.419248 -20.288586 -12.593432 19.319357 26.942021 -0.442219 0.000000 0.000000 0.000000 
-0.826051 0.958957 1.676257 -131.176815 -87.678565 131.139352 1.610289 1.561630 2.593854 -1.397656 1.535862 0.807106 0.026215 2.342427 8.570766 0.000000 0.000000 0.000000 1.052977 0.414434 -0.642775 0.008236 0.895323 4.590088 -1.875394 -7.779636 11.436354 0.000000 0.000000 0.000000 0.016441 0.030007 8.692574 1.064730 -0.125413 -28.392931 -0.555983 -6.121280 28.631504 -1.133443 -5.634205 -23.429447 0.000000 0.000000 0.000000 -32.544360 11.901614 17.996227 -43.720536 -23.202315 -4.614191 -10.119740 -23.738328 2.779977 0.000000 0.000000 0.000000 16.379440 8.635957 -22.023484 52.569139 -20.104666 -12.489466 19.210982 26.425635 -0.407901 0.000000 0.000000 0.000000 
-0.830926 0.958836 1.672602 -121.808346 -87.810579 121.881845 2.012745 1.659270 2.679338 -1.464898 1.551336 0.853936 0.043044 2.286287 8.648528 0.000000 0.000000 0.000000 1.458094 0.370434 -0.097584 0.085901 0.848411 3.931787 -2.281188 -8.338414 11.639409 0.000000 0.000000 0.000000 -0.009584 0.001213 8.349107 0.967457 -0.143241 -28.332204 -0.434822 -5.950993 28.541894 -1.041008 -5.668834 -23.513133 0.000000 0.000000 0.000000 -32.415722 11.874778 17.725265 -44.214879 -22.740855 -4.629573 -9.926338 -22.617064 2.537471 0.000000 0.000000 0.000000 16.460807 8.879688 -21.752391 52.597762 -19.727921 -12.271076 18.421327 25.885801 -0.488683 0.000000 0.000000 0.000000 
-0.835235 0.958575 1.669116 -113.984048 -88.011073 114.181648 2.270767 1.729610 2.852823 -1.422123 1.495220 0.724107 -0.267415 1.800462 8.683239 0.000000 0.000000 0.000000 1.735047 0.345900 0.348011 0.302121 0.841081 3.601183 -3.303686 -9.062335 11.359996 0.000000 0.000000 0.000000 -0.144583 -0.003318 8.082062 1.067975 -0.171860 -28.134164 -0.495102 -5.769279 28.239540 -0.383954 -5.897535 -23.646990 0.000000 0.000000 0.000000 -31.796077 11.465531 17.403898 -44.796855 -21.992110 -4.524274 -10.259520 -22.600718 2.622013 0.000000 0.000000 0.000000 16.368206 8.839180 -21.433145 53.106863 -19.047387 -12.203966 18.043037 25.498355 -0.555164 0.000000 0.000000 0.000000 
-0.838933 0.958395 1.665944 -112.881000 -87.905081 113.068902 2.567765 1.847121 3.191309 -1.334567 1.401977 0.324847 -0.097612 1.827002 9.228518 0.000000 0.000000 0.000000 2.092746 0.319495 0.806795 0.527095 0.845489 3.250350 -3.956824 -9.578945 11.326029 0.000000 0.000000 0.000000 -0.173332 -0.018611 7.838456 1.086051 -0.200962 -27.981123 -0.485781 -5.760576 28.147121 -0.088699 -5.990222 -23.673020 0.000000 0.000000 0.000000 -31.634765 11.308563 17.427477 -44.809239 -22.141930 -4.376333 -10.014972 -23.156170 2.670300 0.000000 0.000000 0.000000 16.366321 9.006175 -21.370379 53.300117 -18.631976 -12.065087 17.754120 25.301384 -0.603147 0.000000 0.000000 0.000000 
-0.842156 0.958118 1.663240 -109.352803 -87.906270 109.363836 2.693723 1.914515 3.502023 -1.106478 1.312681 0.285858 -0.009860 1.839835 9.518668 0.000000 0.000000 0.000000 2.290605 0.317318 1.220915 0.794432 0.861819 3.029842 -4.511168 -10.273227 11.699331 0.000000 0.000000 0.000000 -0.325047 -0.008184 7.733986 1.256590 -0.264367 -27.649751 -0.465743 -5.768140 27.765069 0.214262 -6.055704 -23.594840 0.000000 0.000000 0.000000 -31.199406 10.600001 17.649028 -45.005803 -22.119746 -4.166568 -10.295767 -24.173630 2.912788 0.000000 0.000000 0.000000 16.509972 9.384536 -21.238068 53.304392 -18.236191 -11.752656 17.385086 25.032867 -0.638770 0.000000 0.000000 0.000000 
-0.844845 0.957952 1.661076 -120.297345 -87.683477 120.240437 2.731498 1.981170 3.777578 -0.964618 1.227304 -0.106860 0.575283 2.264144 10.578261 0.000000 0.000000 0.000000 2.460851 0.347834 1.762684 0.782762 0.854103 2.642239 -4.537207 -9.924352 11.248277 0.000000 0.000000 0.000000 -0.361878 -0.021230 7.470149 1.119471 -0.328983 -27.332873 -0.143320 -5.662625 27.610252 0.127394 -5.972402 -23.516492 0.000000 0.000000 0.000000 -30.672311 10.198639 17.748453 -44.961829 -22.864002 -3.658959 -10.224926 -25.323712 3.134769 0.000000 0.000000 0.000000 16.388405 9.730302 -21.094636 53.512829 -17.845632 -11.639907 17.369236 25.151639 -0.686632 0.000000 0.000000 0.000000 
-0.846936 0.957751 1.659383 -129.899868 -87.419240 129.840172 2.436626 1.971805 4.143767 -0.800906 1.125666 -0.580979 1.682538 3.675197 10.987658 0.000000 0.000000 0.000000 2.443577 0.379285 1.947708 0.988588 0.889162 2.546140 -4.655190 -9.784048 11.033589 0.000000 0.000000 0.000000 -0.497938 -0.017887 7.268073 1.158454 -0.369793 -27.104883 0.011150 -5.649695 27.491912 0.132676 -5.892613 -23.145181 0.000000 0.000000 0.000000 -30.177866 9.539593 18.102115 -44.826679 -23.606401 -3.180038 -10.419497 -26.638343 3.430048 0.000000 0.000000 0.000000 16.273201 10.199121 -20.960802 53.442489 -17.414277 -11.366925 17.683418 25.327320 -0.697824 0.000000 0.000000 0.000000 
-0.848234 0.957714 1.658028 -138.153000 -87.080634 137.942627 2.437502 2.034675 4.407121 -0.738492 1.084259 -0.902828 2.167739 3.913537 12.087882 0.000000 0.000000 0.000000 2.360996 0.433696 2.217689 1.006323 0.895429 2.221630 -4.171143 -9.455508 11.302143 0.000000 0.000000 0.000000 -0.622885 0.013011 7.488785 1.365930 -0.351184 -27.196170 -0.030379 -5.895163 27.629488 0.052030 -5.843644 -23.032189 0.000000 0.000000 0.000000 -29.767265 9.160486 18.463877 -44.890791 -24.782786 -2.585340 -10.068862 -28.080240 3.643974 0.000000 0.000000 0.000000 16.076675 10.354576 -21.122278 53.654472 -17.003795 -11.260414 18.004865 25.622829 -0.740252 0.000000 0.000000 0.000000 
-0.848946 0.957530 1.656880 -143.617829 -86.616030 143.341999 2.693845 2.140030 4.504429 -0.983393 1.185710 -0.891532 2.379304 4.093634 12.467758 0.000000 0.000000 0.000000 2.371636 0.438296 2.175863 1.072143 0.917852 2.171103 -3.803315 -9.269941 11.613708 0.000000 0.000000 0.000000 -0.517058 0.004910 7.559959 1.258006 -0.407163 -26.925879 0.109039 -6.192209 27.335005 -0.279414 -5.627633 -22.791697 0.000000 0.000000 0.000000 -29.261986 8.748724 18.676994 -44.925560 -25.513691 -2.060807 -9.743358 -28.604088 3.652969 0.000000 0.000000 0.000000 15.786403 10.770509 -20.895269 53.813555 -16.588406 -11.190579 17.957012 26.062617 -0.812206 0.000000 0.000000 0.000000 
-0.849335 0.957478 1.655893 -150.299455 -85.923355 150.155155 2.764459 2.200872 4.570858 -1.023037 1.202671 -1.058688 2.504679 4.263774 12.688736 0.000000 0.000000 0.000000 2.272853 0.465258 2.066599 1.122413 0.945699 1.786781 -3.167429 -8.824108 11.946177 0.000000 0.000000 0.000000 -0.514252 0.026526 7.788089 1.438242 -0.330119 -27.251398 0.000964 -6.389013 27.488212 -0.404053 -5.558457 -22.717417 0.000000 0.000000 0.000000 -28.881735 8.450788 19.047255 -44.777216 -26.210778 -1.674629 -9.708108 -29.494981 3.798288 0.000000 0.000000 0.000000 15.730776 11.030148 -21.274515 53.800168 -16.805864 -11.221253 18.299922 26.318706 -0.831249 0.000000 0.000000 0.000000 
-0.849742 0.957304 1.655043 -154.282546 -85.340061 154.328252 2.946028 2.243848 4.320767 -1.205234 1.311894 -0.866793 2.490883 4.188833 12.947149 0.000000 0.000000 0.000000 2.322581 0.468898 2.009460 1.043010 0.954656 1.608159 -3.000766 -8.322821 11.585017 0.000000 0.000000 0.000000 -0.434311 0.006850 7.626791 1.374535 -0.393820 -26.900543 0.228945 -6.386059 27.106276 -0.760549 -5.218609 -21.917431 0.000000 0.000000 0.000000 -28.538768 8.055237 19.287238 -44.777250 -26.724450 -1.283489 -9.361032 -29.421922 3.646871 0.000000 0.000000 0.000000 15.676789 11.246541 -21.327581 53.942615 -17.004786 -11.355810 17.854758 26.739031 -0.944505 0.000000 0.000000 0.000000 
-0.850437 0.957294 1.654364 -156.681692 -84.929512 156.807787 3.013031 2.280436 4.313826 -1.384283 1.385638 -0.891736 2.742536 4.448949 13.203242 0.000000 0.000000 0.000000 2.323252 0.494001 2.124628 0.757136 0.925732 1.163996 -2.199752 -7.669090 11.689419 0.000000 0.000000 0.000000 -0.472032 0.031240 7.834158 1.623574 -0.314862 -27.199829 0.106950 -6.537355 27.269496 -0.740683 -5.219613 -21.919665 0.000000 0.000000 0.000000 -28.502505 8.074363 19.493646 -44.752926 -27.184556 -1.108908 -9.437324 -29.263986 3.610220 0.000000 0.000000 0.000000 15.634227 11.394612 -21.585813 53.979128 -17.107656 -11.386442 17.400989 26.564121 -1.037822 0.000000 0.000000 0.000000 
-0.851419 0.957393 1.653867 -158.881916 -84.450010 159.066894 2.972583 2.289723 4.278285 -1.271349 1.341171 -1.065222 3.121012 4.517398 14.254897 0.000000 0.000000 0.000000 2.332510 0.530039 2.305238 0.515953 0.909194 0.793031 -1.578711 -7.006120 11.621127 0.000000 0.000000 0.000000 -0.450860 0.022574 7.750949 1.797762 -0.300841 -27.209424 0.192051 -6.422135 27.346858 -0.972355 -5.058711 -21.599418 0.000000 0.000000 0.000000 -28.525697 8.125372 19.676886 -44.852030 -27.687731 -0.910964 -8.914121 -28.784751 3.348141 0.000000 0.000000 0.000000 15.539503 11.882561 -21.603349 54.185095 -17.329542 -11.506864 16.824573 26.334874 -1.156429 0.000000 0.000000 0.000000 
-0.852539 0.957287 1.653538 -159.082814 -84.274299 159.186399 2.999064 2.311164 4.308631 -1.248602 1.379910 -0.783694 3.211666 4.715525 14.156267 0.000000 0.000000 0.000000 2.439609 0.546654 2.578029 0.362390 0.889709 0.578833 -1.388654 -6.814096 11.595802 0.000000 0.000000 0.000000 -0.431624 0.034065 7.924405 1.950865 -0.297625 -27.177604 0.351364 -6.387432 27.382861 -1.069919 -4.983682 -21.476340 0.000000 0.000000 0.000000 -28.822573 8.400167 19.730167 -44.942936 -27.767296 -1.028181 -8.784049 -28.297878 3.237309 0.000000 0.000000 0.000000 15.593173 11.960414 -21.689122 53.922842 -17.366719 -11.349470 16.132053 25.854624 -1.206147 0.000000 0.000000 0.000000 
-0.853523 0.957284 1.653293 -158.598445 -84.194487 158.579841 3.219641 2.371286 4.235591 -1.291908 1.437056 -0.513604 3.122008 4.348782 14.715214 0.000000 0.000000 0.000000 2.635577 0.548351 2.852588 0.421686 0.898836 0.556426 -1.976383 -7.173684 11.449510 0.000000 0.000000 0.000000 -0.218484 0.010012 7.995264 2.067414 -0.256819 -27.371244 0.357869 -6.327090 27.819295 -1.303521 -4.963749 -21.695596 0.000000 0.000000 0.000000 -29.024741 8.476766 19.931216 -45.230437 -28.092029 -0.979801 -8.060579 -27.498839 2.876209 0.000000 0.000000 0.000000 15.546266 12.089013 -21.715336 53.973214 -17.141488 -11.261419 15.172131 25.437698 -1.312840 0.000000 0.000000 0.000000 
-0.854175 0.957495 1.653100 -158.963499 -84.187751 158.801862 3.000672 2.304375 4.174159 -0.925278 1.367160 -0.136839 3.223992 4.389778 14.935995 0.000000 0.000000 0.000000 2.708331 0.585680 3.233717 0.467321 0.903628 0.335654 -2.466478 -7.528717 11.386371 0.000000 0.000000 0.000000 -0.260969 0.023668 8.112386 2.251804 -0.278688 -27.255964 0.498506 -5.935663 27.970431 -1.466132 -4.963280 -21.812274 0.000000 0.000000 0.000000 -29.166268 8.505046 19.865114 -45.333818 -28.012639 -1.092321 -7.950277 -26.885364 2.760307 0.000000 0.000000 0.000000 15.953359 12.457319 -21.781833 53.558611 -17.507900 -11.035034 14.449583 25.323955 -1.347741 0.000000 0.000000 0.000000 
-0.854477 0.958030 1.652971 -159.710174 -84.234642 159.422310 2.817727 2.257320 4.205433 -0.674410 1.267532 -0.213524 3.417364 4.191387 15.915163 0.000000 0.000000 0.000000 2.782402 0.624323 3.569498 0.251120 0.872638 0.029393 -2.552603 -7.695499 11.537703 0.000000 0.000000 0.000000 -0.146015 0.021793 8.215367 2.197724 -0.254097 -27.326013 0.429039 -5.525441 28.316606 -1.036677 -5.203105 -22.049885 0.000000 0.000000 0.000000 -28.770962 8.410307 19.532492 -45.948193 -27.697939 -0.917353 -7.600135 -26.519022 2.641613 0.000000 0.000000 0.000000 16.499586 12.580953 -22.298520 53.391599 -17.716437 -10.773219 13.993252 25.331339 -1.369803 0.000000 0.000000 0.000000 
-0.854365 0.958942 1.652926 -159.803044 -84.298751 159.432015 2.697521 2.202524 4.061809 -0.347402 1.148263 -0.218886 3.543154 3.726534 17.281731 0.000000 0.000000 0.000000 2.775223 0.629398 3.620564 0.491626 0.907214 0.009173 -3.056690 -8.390217 11.967465 0.000000 0.000000 0.000000 -0.083400 0.008217 8.160293 2.119388 -0.345673 -26.916534 0.710571 -5.127544 28.049440 -1.239073 -5.165219 -22.289666 0.000000 0.000000 0.000000 -28.819659 8.364947 19.375788 -45.893627 -27.200761 -1.160447 -8.030418 -26.063830 2.687518 0.000000 0.000000 0.000000 16.528334 12.663940 -21.934333 53.320989 -17.185435 -10.479932 13.716575 25.706636 -1.411545 0.000000 0.000000 0.000000 
-0.853988 0.959374 1.653066 -162.276999 -83.978828 161.693014 2.591737 2.234207 4.373887 -0.551511 1.192737 -0.514559 3.985947 3.979523 18.072459 0.000000 0.000000 0.000000 2.955955 0.657505 3.887952 0.312180 0.890085 -0.136320 -4.007057 -9.053446 12.093809 0.000000 0.000000 0.000000 -0.204301 0.058819 8.446874 2.213279 -0.334595 -26.843898 0.390661 -4.914639 28.468770 -0.062009 -5.593670 -22.116132 0.000000 0.000000 0.000000 -28.159652 8.639066 18.657919 -46.563235 -25.939213 -1.199309 -7.778620 -26.854548 2.792158 0.000000 0.000000 0.000000 16.802115 12.968019 -22.333049 52.823877 -16.852240 -9.930573 14.293333 26.703851 -1.401308 0.000000 0.000000 0.000000 
-0.853246 0.960128 1.653335 -163.028275 -83.895167 162.536972 2.751626 2.279622 4.367612 -0.650141 1.230866 -0.468304 3.040570 3.025772 17.617336 0.000000 0.000000 0.000000 2.815738 0.696501 3.942286 0.687745 0.978205 -0.733687 -4.475785 -9.778934 12.833259 0.000000 0.000000 0.000000 0.022416 0.011431 8.240428 1.672294 -0.369584 -26.780014 0.801901 -4.540027 28.400083 -1.182497 -5.277439 -22.530547 0.000000 0.000000 0.000000 -28.511405 8.712771 18.770523 -46.085676 -25.504937 -1.631305 -8.318077 -26.530550 2.864367 0.000000 0.000000 0.000000 16.549067 12.255324 -22.122086 53.446316 -16.864913 -10.480795 14.601671 27.739401 -1.443932 0.000000 0.000000 0.000000 
-0.852003 0.960118 1.653805 -164.469897 -83.746386 164.289809 2.660113 2.257716 4.361446 -1.121852 1.271516 -1.431883 4.013800 3.794058 18.526091 0.000000 0.000000 0.000000 2.410936 0.682491 3.310691 1.218806 1.081890 -0.571045 -4.687186 -10.029428 13.099784 0.000000 0.000000 0.000000 0.311619 -0.028380 8.191110 1.314275 -0.437593 -26.616575 0.917495 -3.965579 28.082697 -0.493980 -5.348688 -21.630525 0.000000 0.000000 0.000000 -29.317641 8.557111 19.292362 -45.003397 -24.887586 -2.422310 -8.627227 -26.978704 2.886340 0.000000 0.000000 0.000000 17.083590 11.495261 -22.613613 53.298176 -16.588970 -10.168694 14.575006 29.087369 -1.457159 0.000000 0.000000 0.000000 
-0.849916 0.961018 1.654418 -161.856445 -84.501345 162.329056 2.552329 2.084104 3.655220 -0.392664 0.904886 -2.109362 3.123611 2.236565 19.538243 0.000000 0.000000 0.000000 2.435145 0.557031 2.591625 0.944463 1.082146 -1.513842 -3.930402 -10.716804 15.029001 0.000000 0.000000 0.000000 0.233967 -0.091870 7.333682 2.172747 -0.514131 -26.149949 0.888793 -3.403177 27.073843 -3.005515 -4.595641 -22.577458 0.000000 0.000000 0.000000 -28.312949 9.426737 17.171237 -46.987471 -24.349406 -1.628799 -8.260717 -24.438711 2.578571 0.000000 0.000000 0.000000 16.214265 10.575623 -21.620518 54.758760 -14.425629 -10.076727 12.600296 26.674075 -1.765211 0.000000 0.000000 0.000000 
-0.847330 0.961648 1.655000 -167.483697 -84.092930 166.843852 2.032558 1.983220 3.698484 -0.280421 1.054700 -0.776610 3.585462 2.235999 21.193285 0.000000 0.000000 0.000000 1.512151 0.843591 3.138227 1.562382 1.134444 -0.609210 -3.597181 -10.175948 14.659394 0.000000 0.000000 0.000000 0.617753 -0.142998 7.141058 1.106188 -1.040394 -22.732183 0.926604 -0.978413 25.224587 -0.645604 -5.328475 -21.538867 0.000000 0.000000 0.000000 -28.146235 6.264162 18.717831 -46.085643 -22.100938 -2.786530 -6.810731 -25.695898 2.297057 0.000000 0.000000 0.000000 19.280595 11.020178 -23.165829 52.204131 -15.748652 -8.228574 12.447782 27.281701 -1.425401 0.000000 0.000000 0.000000 
