HIERARCHY
ROOT Hips
{
	OFFSET -0.001795 -0.223333 0.028219
	CHANNELS 6 Xposition Yposition Zposition Zrotation Yrotation Xrotation 
	JOINT LeftUpLeg
	{
		OFFSET 0.069520 -0.091406 -0.006815
		CHANNELS 3 Zrotation Yrotation Xrotation
		JOINT LeftLeg
		{
			OFFSET 0.034277 -0.375199 -0.004496
			CHANNELS 3 Zrotation Yrotation Xrotation
			JOINT LeftFoot
			{
				OFFSET -0.013596 -0.397961 -0.043693
				CHANNELS 3 Zrotation Yrotation Xrotation
				JOINT LeftToe
				{
					OFFSET 0.026358 -0.055791 0.119288
					CHANNELS 3 Zrotation Yrotation Xrotation
					End Site
					{
						OFFSET 0.000000 0.000000 0.000000
					}
				}
			}
		}
	}
	JOINT RightUpLeg
	{
		OFFSET -0.067670 -0.090522 -0.004320
		CHANNELS 3 Zrotation Yrotation Xrotation
		JOINT RightLeg
		{
			OFFSET -0.038290 -0.382569 -0.008850
			CHANNELS 3 Zrotation Yrotation Xrotation
			JOINT RightFoot
			{
				OFFSET 0.015774 -0.398415 -0.042312
				CHANNELS 3 Zrotation Yrotation Xrotation
				JOINT RightToe
				{
					OFFSET -0.025372 -0.048144 0.123348
					CHANNELS 3 Zrotation Yrotation Xrotation
					End Site
					{
						OFFSET 0.000000 0.000000 0.000000
					}
				}
			}
		}
	}
	JOINT Spine
	{
		OFFSET -0.002533 0.108963 -0.026696
		CHANNELS 3 Zrotation Yrotation Xrotation
		JOINT Spine1
		{
			OFFSET 0.005487 0.135180 0.001092
			CHANNELS 3 Zrotation Yrotation Xrotation
			JOINT Spine2
			{
				OFFSET 0.001457 0.052922 0.025425
				CHANNELS 3 Zrotation Yrotation Xrotation
				JOINT Neck
				{
					OFFSET -0.002778 0.213870 -0.042857
					CHANNELS 3 Zrotation Yrotation Xrotation
					JOINT Head
					{
						OFFSET 0.005152 0.064970 0.051349
						CHANNELS 3 Zrotation Yrotation Xrotation
						End Site
						{
							OFFSET 0.000000 0.000000 0.000000
						}
					}
				}
				JOINT LeftShoulder
				{
					OFFSET 0.078845 0.121749 -0.034090
					CHANNELS 3 Zrotation Yrotation Xrotation
					JOINT LeftArm
					{
						OFFSET 0.090977 0.030469 -0.008868
						CHANNELS 3 Zrotation Yrotation Xrotation
						JOINT LeftForeArm
						{
							OFFSET 0.259612 -0.012772 -0.027456
							CHANNELS 3 Zrotation Yrotation Xrotation
							JOINT LeftHand
							{
								OFFSET 0.249234 0.008986 -0.001171
								CHANNELS 3 Zrotation Yrotation Xrotation
								End Site
								{
									OFFSET 0.000000 0.000000 0.000000
								}
							}
						}
					}
				}
				JOINT RightShoulder
				{
					OFFSET -0.081759 0.118833 -0.038615
					CHANNELS 3 Zrotation Yrotation Xrotation
					JOINT RightArm
					{
						OFFSET -0.096012 0.032551 -0.009143
						CHANNELS 3 Zrotation Yrotation Xrotation
						JOINT RightForeArm
						{
							OFFSET -0.253742 -0.013329 -0.021401
							CHANNELS 3 Zrotation Yrotation Xrotation
							JOINT RightHand
							{
								OFFSET -0.255298 0.007772 -0.005559
								CHANNELS 3 Zrotation Yrotation Xrotation
								End Site
								{
									OFFSET 0.000000 0.000000 0.000000
								}
							}
						}
					}
				}
			}
		}
	}
}
MOTION
Frames: 104
Frame Time: 0.050000
0.000000 0.956152 0.000000 -1.055404 -7.694746 2.725879 4.914606 -0.027478 -0.373335 0.000375 0.336722 -8.912877 -0.274822 4.890273 18.606089 0.000000 0.000000 0.000000 -1.772174 0.149102 -0.911685 -0.001498 -0.241779 -6.799724 1.965825 -3.540806 14.687538 0.000000 0.000000 0.000000 3.756971 -0.098724 0.520202 -3.446417 1.661431 0.186317 -1.513633 4.714740 -0.460625 4.513365 -3.302192 -1.729166 0.000000 0.000000 0.000000 -21.507897 -0.794497 -2.161055 -42.769498 -4.442015 -3.020876 -3.172672 -11.777963 0.722965 0.000000 0.000000 0.000000 20.064393 -3.027897 -3.432566 50.983974 2.363702 -3.505606 2.254805 14.701491 0.717661 0.000000 0.000000 0.000000 
0.000165 0.954585 0.000100 -1.448219 -8.873680 2.975973 5.746635 0.009469 0.038824 -0.803140 0.406770 -9.605632 0.353888 5.595340 18.424467 0.000000 0.000000 0.000000 -1.411793 0.226108 -1.972758 -0.003327 -0.199456 -5.543366 2.340026 -2.727232 13.948492 0.000000 0.000000 0.000000 4.250104 -0.140414 0.906307 -3.413526 1.644988 0.120769 -2.246090 6.177666 -1.902120 6.075595 -4.576760 -1.084105 0.000000 0.000000 0.000000 -21.993057 -0.839669 -2.566069 -43.270125 -4.175398 -2.932421 -2.449086 -12.247764 0.654263 0.000000 0.000000 0.000000 20.523249 -4.079980 -3.837901 51.751824 1.004574 -4.040740 1.902007 15.593479 0.743174 0.000000 0.000000 0.000000 
0.000224 0.954031 -0.000024 -1.205172 -8.583125 2.995647 5.730186 -0.031265 -0.759235 -1.215733 0.380236 -8.423475 0.313857 5.476850 17.958463 0.000000 0.000000 0.000000 -1.448055 0.242273 -2.154098 -0.421539 -0.175118 -5.295615 2.143917 -2.917827 13.674560 0.000000 0.000000 0.000000 4.389595 -0.163813 1.152889 -2.959840 1.378578 -1.230806 -3.147409 6.484071 -1.586763 7.091153 -5.633374 0.187422 0.000000 0.000000 0.000000 -20.963061 -1.357890 -2.291880 -44.877458 -3.294483 -3.370444 -1.333805 -12.297111 0.531204 0.000000 0.000000 0.000000 21.124159 -3.637959 -3.494935 52.257086 0.145071 -4.516747 0.459721 15.128444 0.573276 0.000000 0.000000 0.000000 
0.000177 0.953850 -0.000065 -1.438839 -8.592236 3.375898 6.640672 -0.034715 -1.050736 -2.360683 0.445068 -8.572151 0.302817 5.471434 18.003988 0.000000 0.000000 0.000000 -1.239030 0.291587 -2.784929 -0.407959 -0.167773 -5.066837 2.226425 -2.941808 14.046559 0.000000 0.000000 0.000000 4.390012 -0.155794 0.990596 -3.174061 1.482914 -1.092311 -2.583330 6.069935 -2.386940 7.485772 -5.971391 0.485490 0.000000 0.000000 0.000000 -20.748216 -0.479540 -2.621621 -45.845062 -2.908774 -3.563826 -1.357486 -13.535419 0.589710 0.000000 0.000000 0.000000 20.717284 -3.787421 -3.694865 52.302401 -0.481464 -4.664768 0.813649 15.469347 0.610952 0.000000 0.000000 0.000000 
0.000139 0.954098 -0.000076 -1.310925 -8.821716 3.382886 6.256052 -0.042354 -1.181395 -1.938926 0.417343 -8.319471 0.438254 5.634985 18.029620 0.000000 0.000000 0.000000 -1.265860 0.317379 -3.072091 -0.601580 -0.159902 -5.092341 2.316353 -3.184307 14.846216 0.000000 0.000000 0.000000 4.372719 -0.155226 0.992183 -3.102641 1.444171 -1.224922 -2.639516 6.596444 -2.516260 7.517114 -5.859817 -0.190583 0.000000 0.000000 0.000000 -20.673832 -0.234190 -2.855340 -46.033490 -2.920700 -3.541818 -1.255352 -15.370668 0.640912 0.000000 0.000000 0.000000 20.096949 -4.373208 -3.844152 52.904767 -0.898372 -4.891484 1.106217 16.061113 0.681356 0.000000 0.000000 0.000000 
-0.000004 0.954261 -0.000065 -1.282112 -8.888160 3.595632 6.397689 -0.052838 -1.467882 -2.228604 0.431074 -8.209175 0.468848 5.685656 18.110125 0.000000 0.000000 0.000000 -1.352708 0.363825 -3.575791 -0.645890 -0.155577 -5.027200 2.565327 -3.116250 15.658223 0.000000 0.000000 0.000000 4.280815 -0.162424 1.072544 -3.019262 1.390813 -1.622671 -2.459509 6.770910 -2.507265 7.767079 -5.981183 -0.545415 0.000000 0.000000 0.000000 -20.835025 0.401743 -3.238742 -46.251493 -2.809949 -3.599593 -1.559309 -18.171399 0.794676 0.000000 0.000000 0.000000 19.760616 -4.869521 -4.059023 53.574457 -0.734791 -4.874746 1.601591 16.708237 0.776286 0.000000 0.000000 0.000000 
-0.000222 0.954011 -0.000101 -1.244515 -9.029528 3.608062 6.406324 -0.052628 -1.522045 -2.298417 0.433443 -8.102268 0.556678 5.778797 18.044598 0.000000 0.000000 0.000000 -1.492455 0.377381 -3.700216 -0.678364 -0.154315 -5.035542 2.953620 -2.587059 15.949299 0.000000 0.000000 0.000000 4.474869 -0.177020 1.195631 -3.033121 1.389436 -1.817437 -2.680660 6.877213 -2.571771 7.719957 -5.792569 -1.274262 0.000000 0.000000 0.000000 -20.320286 1.206084 -3.605193 -45.944930 -2.559775 -3.667463 -2.654695 -21.734307 1.141460 0.000000 0.000000 0.000000 19.273891 -4.865299 -3.975967 54.446172 -0.932891 -5.035963 2.628253 18.486325 1.016711 0.000000 0.000000 0.000000 
-0.000561 0.954019 -0.000270 -1.147929 -8.568051 3.268450 6.441657 -0.044513 -1.270878 -2.477222 0.440029 -8.082554 0.287609 5.451973 18.010744 0.000000 0.000000 0.000000 -1.830439 0.354405 -3.370612 -0.487079 -0.154044 -4.786414 3.147525 -2.052677 15.726775 0.000000 0.000000 0.000000 4.720445 -0.188510 1.319184 -2.965067 1.352966 -2.080727 -3.132010 6.712708 -2.180423 8.282007 -6.076809 -2.040383 0.000000 0.000000 0.000000 -19.873993 0.703510 -3.296736 -44.935077 -3.217904 -3.365852 -1.343423 -27.601717 1.109401 0.000000 0.000000 0.000000 19.131376 -5.138400 -4.053963 54.753271 -1.094601 -5.180590 5.142768 20.676593 1.574295 0.000000 0.000000 0.000000 
-0.001069 0.954076 -0.000621 -1.123501 -8.260841 3.029307 6.337023 -0.039418 -1.073522 -2.258617 0.425962 -8.108577 0.116968 5.247022 18.004201 0.000000 0.000000 0.000000 -1.999303 0.317000 -2.886989 -0.402091 -0.163828 -4.939176 3.394244 -1.428502 15.458311 0.000000 0.000000 0.000000 4.901116 -0.182192 1.235147 -2.676669 1.230194 -1.822636 -3.609834 6.750434 -2.198230 8.106060 -5.794234 -2.740545 0.000000 0.000000 0.000000 -18.536780 1.645657 -3.632607 -43.124056 -5.084230 -2.581173 0.328797 -38.011938 0.872874 0.000000 0.000000 0.000000 18.520470 -5.150032 -3.907817 55.142846 -1.088234 -5.216994 8.016046 24.531037 2.507888 0.000000 0.000000 0.000000 
-0.001832 0.954766 -0.001156 -0.962287 -7.699643 2.508526 6.065983 -0.018793 -0.474483 -1.971096 0.415049 -8.435180 -0.268691 4.832023 18.265993 0.000000 0.000000 0.000000 -1.939425 0.250847 -2.124088 -0.484775 -0.165660 -5.077726 2.878200 -2.150301 15.222799 0.000000 0.000000 0.000000 4.989279 -0.143364 0.849940 -2.771603 1.293132 -1.265221 -3.839362 7.104173 -2.222858 8.427700 -6.148708 -2.230526 0.000000 0.000000 0.000000 -16.306049 1.321576 -3.223953 -38.792192 -9.463918 -0.958730 8.047297 -51.059310 -2.705977 0.000000 0.000000 0.000000 17.799078 -4.844901 -3.502973 54.771214 -1.248579 -5.259356 11.757547 27.552341 3.782714 0.000000 0.000000 0.000000 
-0.002603 0.955240 -0.001681 -0.693828 -7.059598 2.216577 5.651347 -0.035312 -0.655498 -1.627089 0.377284 -7.878891 -0.595251 4.446914 18.255784 0.000000 0.000000 0.000000 -2.052477 0.224317 -1.783548 -0.561249 -0.158988 -4.982495 2.414985 -2.782926 15.018547 0.000000 0.000000 0.000000 5.135715 -0.144240 0.875512 -2.459654 1.150827 -1.240935 -4.682275 7.113225 -2.581427 8.369123 -6.559322 -0.223785 0.000000 0.000000 0.000000 -13.982638 0.009738 -2.307044 -31.909274 -13.814343 0.263956 31.222246 -61.737359 -17.694221 0.000000 0.000000 0.000000 17.198739 -4.224748 -2.998457 53.697745 -1.566862 -5.271752 15.620630 31.708506 5.566729 0.000000 0.000000 0.000000 
-0.003279 0.956103 -0.002081 -0.686001 -6.507841 1.919443 5.276618 -0.030303 -0.424815 -0.876945 0.335744 -7.928809 -0.922769 4.105722 18.445276 0.000000 0.000000 0.000000 -1.579115 0.194199 -1.605854 -0.905479 -0.135059 -4.807938 1.610486 -4.279973 15.387863 0.000000 0.000000 0.000000 5.029736 -0.127801 0.754727 -2.469633 1.179153 -0.291361 -4.374915 6.662656 -3.683935 7.676649 -6.158140 0.602463 0.000000 0.000000 0.000000 -10.880414 -1.076988 -1.316332 -23.834319 -19.911309 1.121138 66.562727 -57.217450 -38.019561 0.000000 0.000000 0.000000 16.191406 -3.608546 -2.646887 51.715832 -1.450005 -4.898072 22.531046 35.168680 8.423649 0.000000 0.000000 0.000000 
-0.003680 0.956605 -0.002193 -0.538117 -5.978233 1.537429 4.852434 -0.046204 -0.660931 -0.343630 0.270475 -6.985638 -1.152437 3.805143 18.270676 0.000000 0.000000 0.000000 -1.431501 0.154427 -1.204183 -0.960424 -0.132971 -4.831091 0.763188 -5.767525 15.615740 0.000000 0.000000 0.000000 4.370628 -0.119916 0.847897 -1.990649 0.946670 -0.567142 -3.851204 5.886907 -3.247226 5.880929 -5.032571 2.129674 0.000000 0.000000 0.000000 -6.696762 -2.319580 -0.120413 -12.192992 -25.878616 0.426725 78.283129 -39.566779 -31.401483 0.000000 0.000000 0.000000 15.867231 -2.332577 -2.087873 49.501533 -0.747208 -4.441286 28.926574 37.764945 11.310892 0.000000 0.000000 0.000000 
-0.003837 0.957436 -0.001906 -0.538187 -5.565126 1.355508 4.471449 -0.048957 -0.627848 0.354751 0.220400 -6.789657 -1.377066 3.567144 18.365871 0.000000 0.000000 0.000000 -1.478780 0.120474 -0.799096 -0.835217 -0.138033 -4.796153 0.652738 -5.793809 15.345727 0.000000 0.000000 0.000000 3.391978 -0.128639 1.234693 -1.246760 0.593708 -0.913432 -2.386247 4.835820 -3.093797 3.656854 -3.193697 2.144061 0.000000 0.000000 0.000000 -1.531769 -2.249543 0.558915 -0.420911 -30.461914 -1.491842 77.036791 -23.157072 -17.569140 0.000000 0.000000 0.000000 15.039678 -1.163951 -1.662076 48.210895 0.565587 -3.786413 34.325576 40.100998 13.990418 0.000000 0.000000 0.000000 
-0.003888 0.958285 -0.001254 -0.580944 -6.119566 1.488557 4.397172 -0.043255 -0.584398 0.538324 0.213237 -6.863353 -1.130614 3.910758 18.632901 0.000000 0.000000 0.000000 -1.084868 0.151126 -1.280274 -0.991920 -0.100981 -4.136384 0.197300 -6.569390 15.011472 0.000000 0.000000 0.000000 2.444392 -0.106752 1.187679 -0.503129 0.244006 -0.693275 -1.463129 4.562389 -3.767648 2.311362 -2.405825 4.526342 0.000000 0.000000 0.000000 4.191848 -1.762287 1.038030 12.527860 -32.476882 -4.234071 68.854820 -9.700399 -6.075607 0.000000 0.000000 0.000000 14.781394 -0.175630 -1.317717 47.096103 0.822228 -3.499640 38.308954 42.530796 16.436709 0.000000 0.000000 0.000000 
-0.003930 0.959481 -0.000603 -0.609443 -6.434498 1.386488 4.170028 -0.040246 -0.577260 0.969220 0.169838 -6.498604 -0.993468 4.113098 18.832835 0.000000 0.000000 0.000000 -0.778028 0.171000 -1.596122 -1.159868 -0.044521 -3.120836 -0.124813 -7.008122 14.483693 0.000000 0.000000 0.000000 1.293666 -0.101407 1.590422 0.800252 -0.366636 -0.763194 -0.720275 4.620969 -4.163776 0.808127 -1.139990 4.510066 0.000000 0.000000 0.000000 9.683679 -1.203210 1.475341 20.839073 -31.243786 -5.645605 60.801243 -2.094115 -0.926549 0.000000 0.000000 0.000000 14.127524 0.171419 -1.154605 46.997402 1.617413 -3.141009 40.448084 45.260490 18.544719 0.000000 0.000000 0.000000 
-0.003951 0.960312 -0.000142 -0.695089 -7.393322 1.264647 3.997182 -0.005457 -0.142796 1.213189 0.140783 -6.248059 -0.305106 4.786266 18.101011 0.000000 0.000000 0.000000 -0.446201 0.202111 -2.024742 -1.420323 0.019570 -2.142042 -0.007827 -6.819440 14.107995 0.000000 0.000000 0.000000 0.731223 -0.106865 2.030209 1.541657 -0.717069 -0.577628 -0.106834 5.059247 -4.807677 -0.436717 -0.079124 4.159023 0.000000 0.000000 0.000000 13.461374 -0.424438 1.725164 26.250923 -29.017533 -6.025477 52.829786 0.570264 0.517501 0.000000 0.000000 0.000000 13.846918 0.348660 -1.093899 46.282780 2.227210 -2.797413 44.219892 47.352874 21.294846 0.000000 0.000000 0.000000 
-0.004006 0.961342 0.000058 -0.528804 -7.861487 1.062178 3.560155 -0.001731 -0.135866 1.456802 0.065580 -5.141903 0.127248 5.059701 16.843526 0.000000 0.000000 0.000000 -0.372633 0.210836 -2.139766 -1.807712 0.085901 -1.431325 0.101026 -6.540161 13.669768 0.000000 0.000000 0.000000 0.322939 -0.107530 2.351386 2.092359 -0.971908 -0.726666 -0.401291 5.382551 -4.702974 -1.119002 0.560044 3.071410 0.000000 0.000000 0.000000 16.243930 -0.438440 2.072001 28.398909 -27.483287 -5.946781 47.901265 1.292439 0.724017 0.000000 0.000000 0.000000 14.133179 0.378571 -1.073414 46.240428 3.079610 -2.501432 45.254345 48.354639 22.385184 0.000000 0.000000 0.000000 
-0.004174 0.962200 0.000163 -0.425884 -8.298303 0.941880 3.358235 0.007717 -0.039775 1.363728 0.031463 -4.345779 0.592199 5.431165 15.625095 0.000000 0.000000 0.000000 -0.475287 0.204296 -2.049038 -1.879473 0.097650 -1.301419 0.413245 -5.979517 13.499773 0.000000 0.000000 0.000000 0.303720 -0.118048 2.622207 2.060797 -0.963130 -0.478449 -0.283897 5.726319 -4.869963 -1.525441 0.897181 2.804187 0.000000 0.000000 0.000000 17.720614 -0.282173 2.241157 28.115429 -26.815601 -5.701710 46.193086 0.959295 0.543404 0.000000 0.000000 0.000000 13.951669 0.240644 -1.110709 46.165890 4.532892 -1.953550 45.218265 48.914733 22.689216 0.000000 0.000000 0.000000 
-0.004338 0.962930 0.000603 -0.305079 -8.622325 0.862511 3.317992 0.017128 0.058225 1.153067 0.010785 -3.549421 0.664835 5.199305 14.276883 0.000000 0.000000 0.000000 -0.746069 0.210462 -2.049512 -2.043502 0.113769 -1.235596 1.139142 -4.823410 13.760946 0.000000 0.000000 0.000000 0.247732 -0.117197 2.654297 2.356718 -1.101079 -0.497372 -0.608258 6.255056 -4.817871 -1.341848 0.806594 1.940740 0.000000 0.000000 0.000000 18.627427 -0.122087 2.403196 27.242123 -27.155623 -5.746637 46.467313 0.684727 0.351747 0.000000 0.000000 0.000000 13.490988 -0.023585 -1.119241 46.150270 6.030297 -1.422400 45.013522 50.244646 23.438702 0.000000 0.000000 0.000000 
-0.004348 0.963933 0.001539 -0.362745 -8.613119 0.757155 3.346450 0.028907 0.216180 1.011928 0.016330 -3.383453 0.869528 5.504858 14.157791 0.000000 0.000000 0.000000 -0.798157 0.175376 -1.643064 -2.093857 0.098798 -1.572512 1.561289 -4.178143 14.048775 0.000000 0.000000 0.000000 0.527504 -0.128693 2.694170 2.339316 -1.082589 -1.014020 -0.696348 6.582249 -4.475061 -1.007852 0.573294 1.599301 0.000000 0.000000 0.000000 19.045511 0.082634 2.464475 26.173557 -28.180965 -5.938157 48.903667 0.177403 0.072227 0.000000 0.000000 0.000000 12.739998 -0.078568 -1.023171 46.341442 8.006144 -0.731681 42.164386 52.395528 23.175617 0.000000 0.000000 0.000000 
-0.004049 0.964512 0.002914 -0.320651 -8.656614 0.680770 3.405277 0.041029 0.372919 0.758102 0.024579 -3.017375 0.824229 5.286662 13.510155 0.000000 0.000000 0.000000 -0.985188 0.151198 -1.306380 -1.989334 0.078521 -1.786349 1.748371 -3.839916 14.038325 0.000000 0.000000 0.000000 0.745706 -0.124934 2.444252 2.459992 -1.134945 -1.183736 -1.068194 7.239835 -4.460770 -0.492765 0.159187 1.545047 0.000000 0.000000 0.000000 19.156189 0.307464 2.579356 25.287187 -29.765712 -6.385606 52.346710 -0.379807 -0.344036 0.000000 0.000000 0.000000 12.046527 -0.712064 -1.154883 46.004929 9.924019 -0.039838 40.186288 55.786965 24.063053 0.000000 0.000000 0.000000 
-0.003515 0.964954 0.004402 -0.273188 -8.709465 0.813537 3.320816 0.031980 0.259062 0.727539 0.024160 -2.937282 0.840301 5.327103 13.615178 0.000000 0.000000 0.000000 -1.262531 0.159837 -1.304641 -1.874726 0.059640 -1.968323 2.076895 -3.377917 14.324472 0.000000 0.000000 0.000000 1.065066 -0.104536 1.807407 2.066356 -0.950007 -1.357878 -0.918629 7.174245 -4.350655 -0.355203 0.016578 1.934818 0.000000 0.000000 0.000000 19.031349 0.643326 2.474731 23.717453 -31.553188 -6.583973 56.433286 -1.778802 -1.078606 0.000000 0.000000 0.000000 10.174345 -1.133342 -1.216983 45.279443 12.536527 0.925666 36.806441 59.289210 23.806050 0.000000 0.000000 0.000000 
-0.002766 0.964939 0.005581 -0.117284 -8.861681 1.048957 3.352465 0.018293 0.068540 0.634196 0.033415 -2.944563 0.363583 4.556313 13.732021 0.000000 0.000000 0.000000 -1.906139 0.192899 -1.447885 -1.619361 0.022310 -2.312660 2.821327 -2.292658 14.839517 0.000000 0.000000 0.000000 1.467253 -0.094698 1.402829 1.425058 -0.653307 -1.522174 -0.780487 7.142944 -4.399370 -0.021207 -0.290754 2.376718 0.000000 0.000000 0.000000 18.912850 0.435460 2.457772 21.649424 -33.403674 -6.638068 61.174366 -3.026711 -1.874701 0.000000 0.000000 0.000000 8.330929 -1.441332 -1.214346 43.250644 15.178672 1.790386 32.756032 65.249625 24.066471 0.000000 0.000000 0.000000 
-0.002128 0.965201 0.006239 0.033702 -8.555057 0.860355 3.261596 0.039855 0.402024 0.771799 0.035822 -3.306831 -0.287134 3.628730 14.048070 0.000000 0.000000 0.000000 -2.396262 0.183219 -1.128501 -1.620147 0.012454 -2.525996 3.451493 -1.314580 15.291956 0.000000 0.000000 0.000000 1.817621 -0.104259 1.451863 1.186470 -0.543356 -1.596299 -1.033164 6.755811 -4.537227 0.759294 -0.891366 2.245679 0.000000 0.000000 0.000000 18.549246 0.512706 2.368590 19.194490 -35.159273 -6.501291 65.516301 -4.865842 -3.150743 0.000000 0.000000 0.000000 6.280124 -1.350889 -1.012194 40.502769 18.585530 2.747787 22.807421 72.268298 20.014627 0.000000 0.000000 0.000000 
-0.001612 0.964951 0.006395 0.135676 -8.437849 1.073489 3.539943 0.024345 0.199048 0.581324 0.054851 -3.323142 -1.149445 2.231966 13.973394 0.000000 0.000000 0.000000 -2.530467 0.210013 -1.422844 -1.613859 0.011623 -2.536491 3.350091 -1.561490 15.470720 0.000000 0.000000 0.000000 2.513613 -0.100592 1.126526 0.828889 -0.375499 -1.928620 -1.635625 6.647218 -4.316251 1.654408 -1.513196 1.538674 0.000000 0.000000 0.000000 17.773730 -0.495603 2.431458 16.799979 -36.870219 -6.338312 68.181984 -7.059501 -4.764517 0.000000 0.000000 0.000000 3.391926 -1.153554 -0.679962 37.000358 22.866413 3.679901 -13.707351 78.017116 -7.071983 0.000000 0.000000 0.000000 
-0.001204 0.964987 0.006233 0.227684 -8.376088 1.197161 3.448535 0.023269 0.215842 0.720557 0.063562 -3.830345 -1.492936 1.840958 14.510752 0.000000 0.000000 0.000000 -2.846632 0.225134 -1.482054 -1.248748 -0.021564 -2.702723 3.299880 -1.665567 15.534348 0.000000 0.000000 0.000000 3.107132 -0.095312 0.870297 0.758296 -0.339758 -2.261368 -2.495654 6.703774 -4.224066 2.888653 -2.382731 0.779196 0.000000 0.000000 0.000000 17.022116 -1.997958 2.632904 12.929397 -38.296374 -5.667758 70.252711 -10.231966 -7.196190 0.000000 0.000000 0.000000 0.925275 -0.866105 -0.369136 32.262303 28.731654 4.564251 -59.447533 73.496878 -41.345940 0.000000 0.000000 0.000000 
-0.000764 0.965319 0.006045 0.351966 -8.655229 1.209097 3.603294 0.041946 0.458372 0.767507 0.066570 -4.006691 -2.360016 0.361384 14.361300 0.000000 0.000000 0.000000 -2.765535 0.238114 -1.681682 -1.497603 -0.011688 -2.831985 3.182600 -2.219792 16.160176 0.000000 0.000000 0.000000 4.003064 -0.121750 1.038413 -0.446444 0.204298 -1.964822 -2.953557 6.945969 -4.589809 3.633494 -2.936537 0.586549 0.000000 0.000000 0.000000 15.737902 -2.991445 2.717548 9.490357 -40.129133 -5.068610 69.290379 -13.654151 -9.379513 0.000000 0.000000 0.000000 -2.520470 0.094365 0.199530 25.148337 34.396163 4.402068 -76.287015 58.261531 -41.988733 0.000000 0.000000 0.000000 
-0.000476 0.965219 0.005858 0.463771 -8.424129 1.132401 3.668764 0.045978 0.532485 1.012512 0.060822 -4.340021 -3.390920 -1.034314 15.030708 0.000000 0.000000 0.000000 -2.697915 0.218826 -1.462355 -1.598459 -0.014623 -3.036272 2.707001 -2.962273 16.035862 0.000000 0.000000 0.000000 4.706468 -0.177316 1.600778 -0.466761 0.211050 -2.959633 -4.232680 7.393244 -4.396978 5.601531 -4.456964 0.380919 0.000000 0.000000 0.000000 14.327644 -4.495968 2.964046 2.200346 -41.948442 -3.277582 68.558381 -19.407726 -13.340632 0.000000 0.000000 0.000000 -5.978089 0.110228 0.371740 16.587551 40.085521 3.126160 -79.661608 43.057358 -30.842228 0.000000 0.000000 0.000000 
-0.000655 0.965419 0.005855 0.755740 -8.258329 1.468768 3.219567 -0.010169 -0.212336 0.872318 0.058413 -4.016078 -2.844829 -0.029053 15.401196 0.000000 0.000000 0.000000 -2.530859 0.256068 -2.021988 -2.302404 0.022509 -3.201456 2.422302 -3.822588 16.930200 0.000000 0.000000 0.000000 5.691611 -0.183109 1.387368 -1.182736 0.536875 -2.537525 -5.351441 7.272559 -5.087251 7.055218 -5.524005 0.071498 0.000000 0.000000 0.000000 12.142369 -5.366687 2.975929 -4.788603 -41.533550 -1.139919 66.111568 -25.566297 -16.725136 0.000000 0.000000 0.000000 -9.724377 1.301374 0.879236 7.173960 41.322244 0.504865 -81.720248 29.159690 -19.882663 0.000000 0.000000 0.000000 
-0.001619 0.964747 0.005873 1.149291 -7.845231 1.559339 2.957467 -0.068445 -0.978677 1.156690 0.006131 -3.410379 -3.686431 -1.071954 16.053989 0.000000 0.000000 0.000000 -2.591520 0.282484 -2.367383 -2.572017 0.092656 -2.334314 1.696720 -4.471445 15.605303 0.000000 0.000000 0.000000 5.867457 -0.252600 2.089197 -1.499901 0.672931 -3.437606 -6.357734 7.192171 -4.652576 8.297911 -6.482121 -0.090874 0.000000 0.000000 0.000000 9.664453 -5.973879 2.891180 -11.497819 -39.000930 0.717643 62.731511 -33.706675 -20.692265 0.000000 0.000000 0.000000 -12.856249 1.263336 0.957610 -2.350877 43.083186 -2.399641 -81.404996 17.913631 -10.320930 0.000000 0.000000 0.000000 
-0.003711 0.964625 0.005745 1.075590 -8.070290 1.792722 2.925133 -0.120757 -1.729887 1.568595 -0.050597 -3.042040 -3.558429 -0.511740 17.236725 0.000000 0.000000 0.000000 -1.956533 0.284297 -2.562905 -3.221195 0.127507 -2.513055 1.633380 -4.636216 15.617846 0.000000 0.000000 0.000000 7.026527 -0.301077 2.269680 -2.616558 1.168525 -3.354739 -7.205918 6.895339 -4.488950 9.499318 -7.562426 0.414900 0.000000 0.000000 0.000000 6.617318 -6.232731 2.647179 -16.574512 -35.233976 1.777940 54.213408 -40.411741 -20.784433 0.000000 0.000000 0.000000 -15.319188 1.550800 1.147154 -10.353571 42.760738 -4.891815 -83.961162 10.102039 -4.221283 0.000000 0.000000 0.000000 
-0.006498 0.964405 0.005687 1.037989 -8.513521 1.811521 3.017401 -0.160383 -2.386636 1.878161 -0.136945 -1.955849 -3.477401 -0.371321 17.510562 0.000000 0.000000 0.000000 -1.507997 0.295383 -2.808525 -3.639833 0.190934 -2.004899 1.758205 -4.229948 14.972991 0.000000 0.000000 0.000000 7.229701 -0.382308 3.036820 -3.028882 1.337085 -3.748775 -7.967901 7.047104 -3.551249 10.472984 -8.279759 -0.002791 0.000000 0.000000 0.000000 3.828010 -6.160849 2.354307 -21.080412 -31.863316 2.313045 40.633873 -43.305847 -16.005864 0.000000 0.000000 0.000000 -17.416057 0.855511 1.058724 -15.757013 41.408989 -6.297112 -85.324477 4.331466 0.660759 0.000000 0.000000 0.000000 
-0.009357 0.964514 0.005925 0.758397 -9.084863 2.002287 2.832900 -0.162691 -2.377690 2.649074 -0.210461 -2.113017 -2.572374 0.963501 17.732607 0.000000 0.000000 0.000000 -1.080726 0.334154 -3.339647 -3.426965 0.176817 -1.919973 1.821461 -4.568971 15.805506 0.000000 0.000000 0.000000 7.564279 -0.444234 3.522235 -3.552828 1.570798 -3.529246 -8.589446 7.055563 -3.798440 11.006047 -8.904118 0.738797 0.000000 0.000000 0.000000 1.226043 -6.386072 2.172108 -24.472848 -28.393185 2.424651 25.478240 -40.318441 -8.697665 0.000000 0.000000 0.000000 -18.281864 0.278796 1.017262 -19.152695 40.381541 -7.070845 -88.063915 2.633891 2.200197 0.000000 0.000000 0.000000 
-0.011521 0.965338 0.006591 0.689575 -9.518984 2.090040 2.851838 -0.154616 -2.284599 2.863153 -0.237557 -2.058520 -2.279938 1.330560 17.723546 0.000000 0.000000 0.000000 -0.779684 0.334414 -3.400181 -3.777928 0.184459 -2.164294 2.329084 -4.027686 16.427428 0.000000 0.000000 0.000000 7.202968 -0.499039 4.194976 -3.920304 1.708415 -4.094592 -8.293233 6.384784 -3.173360 10.476141 -8.459260 0.707544 0.000000 0.000000 0.000000 -1.091387 -5.426458 1.659407 -28.151888 -25.871382 2.484191 14.464333 -34.791056 -3.658398 0.000000 0.000000 0.000000 -18.775732 -0.448879 1.083292 -21.564310 39.655166 -7.781843 -88.849381 1.991516 2.332368 0.000000 0.000000 0.000000 
-0.012554 0.965873 0.007554 0.519766 -10.130351 2.188398 3.256529 -0.156488 -2.526001 2.834710 -0.258062 -1.703060 -2.522520 1.075151 18.434888 0.000000 0.000000 0.000000 -0.600242 0.343755 -3.538745 -3.784079 0.185507 -2.106188 2.781545 -3.422064 16.583673 0.000000 0.000000 0.000000 7.101583 -0.577588 5.064879 -4.178351 1.817851 -4.052709 -8.981671 6.659158 -3.675311 11.130131 -9.264724 1.753030 0.000000 0.000000 0.000000 -2.319051 -4.662945 1.265806 -32.266088 -24.617360 2.756319 7.600750 -28.295531 -1.175675 0.000000 0.000000 0.000000 -19.246217 -2.124663 0.812904 -21.686805 38.782296 -7.538137 -88.379411 1.718140 2.734246 0.000000 0.000000 0.000000 
-0.012384 0.966922 0.008726 0.409565 -10.772407 2.422278 3.314784 -0.143283 -2.371870 3.088564 -0.284814 -1.756615 -2.682089 0.638492 18.123406 0.000000 0.000000 0.000000 -0.520397 0.361487 -3.748822 -3.920084 0.202527 -1.957752 3.327262 -2.516560 16.428654 0.000000 0.000000 0.000000 7.132980 -0.657769 5.884801 -4.861612 2.082384 -4.687235 -9.138736 6.148112 -3.131885 11.811211 -9.858656 1.908713 0.000000 0.000000 0.000000 -3.949780 -3.597983 0.759226 -36.380548 -22.345718 2.579131 5.886845 -24.322357 -0.557131 0.000000 0.000000 0.000000 -20.248679 -3.931888 0.763104 -22.611568 37.846722 -7.702513 -85.777506 0.411461 3.413876 0.000000 0.000000 0.000000 
-0.011242 0.967461 0.009991 0.180483 -11.741761 2.228261 3.751764 -0.087770 -1.833461 2.941481 -0.279252 -1.671180 -2.976759 -0.004521 17.961603 0.000000 0.000000 0.000000 -0.426340 0.363416 -3.799522 -4.104304 0.245919 -1.484190 4.188971 -1.201959 16.457973 0.000000 0.000000 0.000000 6.778549 -0.728435 7.038689 -4.962816 2.124233 -4.548168 -9.428500 6.477274 -3.598740 12.579937 -10.824891 3.086588 0.000000 0.000000 0.000000 -4.944633 -2.205060 0.128898 -40.104363 -20.521811 2.387323 4.524371 -21.763307 -0.232619 0.000000 0.000000 0.000000 -20.943965 -5.786097 0.583066 -22.332918 36.759216 -7.330170 -83.775401 1.281380 2.623981 0.000000 0.000000 0.000000 
-0.009472 0.968185 0.011290 0.129426 -12.140248 2.463078 3.721398 -0.069801 -1.532028 2.862692 -0.235857 -2.296995 -2.904737 0.051811 18.000989 0.000000 0.000000 0.000000 -0.530463 0.383280 -3.996412 -4.215430 0.254467 -1.453980 4.621046 -0.540794 16.520183 0.000000 0.000000 0.000000 6.317697 -0.760441 7.777317 -4.807608 2.015408 -5.224193 -9.559035 6.180243 -3.198316 12.904091 -11.283583 3.736695 0.000000 0.000000 0.000000 -6.010158 -0.614912 -0.568589 -42.850782 -18.217865 1.778455 3.761339 -20.207770 -0.050902 0.000000 0.000000 0.000000 -21.856943 -7.074039 0.610981 -22.208628 34.427695 -6.762269 -80.579594 1.039227 2.499244 0.000000 0.000000 0.000000 
-0.007752 0.967999 0.012363 -0.132763 -12.405368 2.352480 4.453012 -0.020747 -1.098859 1.927525 -0.132899 -2.409809 -2.937265 -0.165464 17.522862 0.000000 0.000000 0.000000 -0.418392 0.391001 -4.099389 -4.414084 0.305080 -0.983455 5.142337 0.282268 16.613309 0.000000 0.000000 0.000000 6.007270 -0.819362 8.921030 -4.791412 1.985418 -5.599461 -9.538148 5.781163 -2.787159 13.492492 -11.777331 3.731344 0.000000 0.000000 0.000000 -6.260395 0.898129 -1.142460 -45.495600 -16.924080 1.409551 3.026750 -19.984782 0.101911 0.000000 0.000000 0.000000 -22.479081 -9.323244 0.498153 -21.761529 33.145579 -6.408745 -79.778226 2.543253 1.054213 0.000000 0.000000 0.000000 
-0.006292 0.967673 0.013133 -0.437065 -12.670423 2.183086 4.688761 0.016899 -0.625873 1.971669 -0.122754 -2.715925 -2.945347 -0.210464 17.529181 0.000000 0.000000 0.000000 -0.242788 0.360953 -3.821991 -4.626765 0.347254 -0.664395 5.597188 1.449654 15.912783 0.000000 0.000000 0.000000 5.786526 -0.838039 9.529294 -4.595582 1.888988 -5.806376 -9.987535 5.713936 -2.572272 14.204487 -12.620035 4.408587 0.000000 0.000000 0.000000 -6.190891 1.944481 -1.528855 -46.491926 -15.776488 0.982888 1.964944 -19.895731 0.289747 0.000000 0.000000 0.000000 -22.367752 -10.143226 0.377606 -20.401054 30.763196 -5.520882 -79.366615 5.595140 -1.369553 0.000000 0.000000 0.000000 
-0.005249 0.967286 0.013457 -0.863809 -13.073907 2.166056 5.259812 0.056061 -0.252492 1.782234 -0.108754 -2.630413 -2.990811 -0.626787 16.546117 0.000000 0.000000 0.000000 -0.116376 0.368942 -3.931930 -4.533394 0.348981 -0.512611 6.356573 2.492842 16.350900 0.000000 0.000000 0.000000 5.720552 -0.863779 10.059870 -4.888072 2.013890 -5.707362 -10.359327 5.568580 -2.354690 15.080674 -13.726419 5.435803 0.000000 0.000000 0.000000 -5.757413 2.888030 -1.809966 -47.342963 -15.872030 1.023687 1.931500 -20.208540 0.310399 0.000000 0.000000 0.000000 -21.809450 -11.722091 0.104813 -19.480484 29.615770 -5.096861 -79.242786 7.529758 -2.991628 0.000000 0.000000 0.000000 
-0.004459 0.966956 0.013536 -1.284436 -13.293207 2.147752 5.637507 0.076735 -0.099904 1.690187 -0.106561 -2.492160 -2.659511 -0.290799 16.036081 0.000000 0.000000 0.000000 0.228987 0.381085 -4.108952 -4.601391 0.387408 -0.096853 6.699183 3.003168 16.463667 0.000000 0.000000 0.000000 5.383287 -0.838189 10.173007 -4.537746 1.865506 -5.603523 -10.600624 5.579989 -2.170152 15.355429 -14.225049 6.136937 0.000000 0.000000 0.000000 -5.550207 3.163035 -1.878982 -46.528826 -15.876548 0.975881 2.388909 -20.001578 0.232496 0.000000 0.000000 0.000000 -21.366356 -12.432412 -0.079295 -18.282441 28.712282 -4.673140 -79.870077 9.380361 -4.519591 0.000000 0.000000 0.000000 
-0.003855 0.966868 0.013530 -1.752071 -13.732489 1.926756 5.900611 0.117417 0.380095 1.969873 -0.126315 -2.722395 -2.407959 0.104374 16.276402 0.000000 0.000000 0.000000 0.354754 0.339508 -3.724670 -4.023611 0.327031 -0.173987 6.937267 3.359227 16.455057 0.000000 0.000000 0.000000 5.248817 -0.833872 10.448111 -4.515073 1.836535 -5.893115 -10.759052 5.808124 -1.520237 16.020512 -15.147689 6.854897 0.000000 0.000000 0.000000 -4.809215 3.708164 -1.961838 -45.419599 -16.422623 1.068270 3.204073 -20.908249 0.102222 0.000000 0.000000 0.000000 -20.500358 -13.428160 -0.420315 -17.474330 28.342171 -4.455857 -80.633346 10.342785 -5.448377 0.000000 0.000000 0.000000 
-0.003115 0.967289 0.013577 -2.114669 -13.986885 2.030282 6.259962 0.129385 0.390896 1.804673 -0.117246 -2.573534 -2.126776 0.431652 16.000377 0.000000 0.000000 0.000000 0.569843 0.339347 -3.766866 -3.634655 0.299448 -0.059917 6.805197 3.135502 16.355338 0.000000 0.000000 0.000000 5.217728 -0.811619 10.132594 -4.663912 1.921898 -5.397157 -10.595285 5.698282 -1.565500 16.465275 -15.927176 7.975076 0.000000 0.000000 0.000000 -3.862191 4.253122 -2.005527 -44.266460 -16.676678 1.121088 4.712793 -22.372215 -0.176996 0.000000 0.000000 0.000000 -20.131102 -14.169577 -0.552184 -16.761754 28.075521 -4.302732 -80.695694 10.569941 -5.742080 0.000000 0.000000 0.000000 
-0.002069 0.968053 0.013810 -2.559374 -14.429193 2.037120 6.357195 0.131764 0.208302 1.745565 -0.130237 -2.208412 -1.023472 2.220793 16.545444 0.000000 0.000000 0.000000 0.826810 0.318083 -3.617463 -3.455002 0.277417 -0.121349 7.178561 3.597979 16.571794 0.000000 0.000000 0.000000 5.230241 -0.809773 10.164961 -4.711739 1.949320 -5.187539 -10.279696 6.272090 -1.605977 16.265095 -16.059713 8.729394 0.000000 0.000000 0.000000 -3.039603 5.029192 -2.159251 -43.430600 -17.276624 1.282893 6.572381 -24.769831 -0.630016 0.000000 0.000000 0.000000 -19.715509 -15.108080 -0.843349 -16.494288 28.579745 -4.335142 -80.497168 10.353419 -5.426808 0.000000 0.000000 0.000000 
-0.000483 0.968656 0.014528 -2.535755 -14.523180 2.189474 6.275954 0.121524 0.059204 1.408394 -0.088151 -2.311343 -0.628799 2.892852 16.905215 0.000000 0.000000 0.000000 0.675243 0.370160 -4.094231 -3.503961 0.316728 0.367450 7.357994 3.746293 16.820763 0.000000 0.000000 0.000000 5.170847 -0.787074 9.837521 -4.689662 1.953959 -4.888170 -10.212640 6.309376 -1.880500 15.760565 -15.621183 8.921019 0.000000 0.000000 0.000000 -2.016761 5.823607 -2.263249 -42.641403 -17.379795 1.296260 9.539321 -29.285609 -1.546503 0.000000 0.000000 0.000000 -19.719976 -15.227084 -0.848669 -16.153691 28.977610 -4.357708 -80.982203 10.177781 -5.301795 0.000000 0.000000 0.000000 
0.001635 0.968992 0.015915 -2.184538 -15.163758 1.997911 5.730501 0.132827 0.343104 1.391708 -0.082623 -2.437108 -0.428631 3.203867 17.387218 0.000000 0.000000 0.000000 0.474460 0.342573 -3.815071 -3.658244 0.314739 0.191842 6.929635 3.092620 16.424625 0.000000 0.000000 0.000000 5.227424 -0.749839 9.315804 -4.589612 1.896603 -5.004987 -10.210058 7.161670 -1.895413 15.435346 -14.936403 7.648688 0.000000 0.000000 0.000000 -1.720212 6.252607 -2.359465 -41.872019 -17.034685 1.117360 14.855829 -34.512547 -3.585620 0.000000 0.000000 0.000000 -20.046651 -14.346962 -0.747631 -15.962845 28.861626 -4.247571 -80.923844 10.185706 -5.098852 0.000000 0.000000 0.000000 
0.003881 0.969285 0.018124 -1.722086 -15.029011 1.671865 4.876428 0.148936 0.941589 1.630866 -0.076834 -3.092302 -0.357929 3.411148 17.779527 0.000000 0.000000 0.000000 -0.002173 0.311980 -3.405022 -3.574765 0.295254 0.012300 6.282411 1.959426 16.394638 0.000000 0.000000 0.000000 5.742054 -0.759940 8.913719 -5.347311 2.294314 -4.059660 -9.825831 6.798397 -2.524727 14.519565 -13.629096 6.540164 0.000000 0.000000 0.000000 -1.497664 7.395387 -2.700504 -40.064018 -17.996657 1.403647 22.210417 -41.572075 -7.238654 0.000000 0.000000 0.000000 -21.085470 -13.675244 -0.347711 -16.185115 28.782837 -4.291040 -81.316309 9.234894 -4.431155 0.000000 0.000000 0.000000 
0.005857 0.969429 0.020756 -1.176566 -14.658368 1.117138 4.186267 0.199250 1.835821 1.810157 -0.050228 -3.927617 -0.976767 2.668470 18.340441 0.000000 0.000000 0.000000 -0.188833 0.289448 -3.113092 -4.304553 0.394916 0.406544 5.759877 1.020946 16.493450 0.000000 0.000000 0.000000 5.992654 -0.719827 8.192577 -5.624162 2.452031 -3.689334 -10.181877 7.315489 -2.550085 14.594890 -13.696899 6.244216 0.000000 0.000000 0.000000 -0.204949 7.368093 -2.426500 -36.508744 -20.655053 1.948853 33.885908 -48.638322 -14.381480 0.000000 0.000000 0.000000 -21.990189 -12.305362 -0.162897 -16.392312 28.052200 -4.082813 -79.755226 9.116866 -3.843590 0.000000 0.000000 0.000000 
0.007397 0.970398 0.023523 -0.971525 -13.881929 1.055941 3.719528 0.189511 1.857020 2.467015 -0.108001 -3.947855 -1.997783 1.315875 18.570677 0.000000 0.000000 0.000000 -0.457116 0.250494 -2.608878 -4.451172 0.356904 -0.290560 5.619522 0.407460 17.379978 0.000000 0.000000 0.000000 7.060864 -0.727190 7.360436 -5.848627 2.637092 -2.678231 -11.079271 7.784335 -4.412044 14.489631 -14.211092 7.922747 0.000000 0.000000 0.000000 2.753234 5.713828 -1.257952 -32.269577 -24.672666 2.677335 52.021553 -49.836584 -24.767667 0.000000 0.000000 0.000000 -23.695655 -10.887857 0.106591 -16.178714 27.959648 -3.871919 -77.243875 8.531165 -2.461631 0.000000 0.000000 0.000000 
0.008502 0.970806 0.026114 -1.024847 -12.375359 0.716336 3.964491 0.220147 2.456470 2.516019 -0.090762 -4.194708 -3.363550 -0.683425 17.808457 0.000000 0.000000 0.000000 -0.289373 0.167691 -1.738489 -5.022492 0.395454 -0.585768 5.424101 0.152180 17.779612 0.000000 0.000000 0.000000 7.762731 -0.757313 7.206959 -5.909281 2.734633 -1.894536 -11.039928 7.016188 -5.855087 14.226441 -13.667597 7.367060 0.000000 0.000000 0.000000 6.224471 4.480225 -0.195661 -26.502311 -31.548578 3.372396 68.485022 -42.136467 -29.065662 0.000000 0.000000 0.000000 -25.317586 -9.481745 0.572433 -16.971687 28.251086 -4.023178 -74.304897 7.074196 -1.081667 0.000000 0.000000 0.000000 
0.009171 0.971211 0.028527 -0.931734 -10.789368 0.440931 4.037296 0.223935 2.741841 2.843394 -0.134161 -3.841279 -4.939615 -3.277073 16.520460 0.000000 0.000000 0.000000 -0.411959 0.076453 -0.667879 -5.066736 0.316794 -1.720630 4.953705 -0.917994 18.933059 0.000000 0.000000 0.000000 7.845195 -0.758785 7.103119 -5.251194 2.405059 -2.309744 -10.916870 6.789098 -6.374714 12.947759 -12.586906 7.577363 0.000000 0.000000 0.000000 10.089461 2.220167 1.119032 -16.369359 -39.604118 2.140045 74.887073 -27.299451 -21.505960 0.000000 0.000000 0.000000 -26.759632 -8.382440 0.807556 -17.610957 30.140642 -4.432141 -71.698076 5.048416 0.574095 0.000000 0.000000 0.000000 
0.009830 0.971035 0.030909 -1.281822 -8.864837 0.368986 4.837203 0.192821 2.762752 2.572021 -0.124966 -3.440047 -6.167494 -5.454906 15.136607 0.000000 0.000000 0.000000 0.048602 -0.075181 0.793064 -4.993964 0.219312 -3.026299 3.841133 -2.283351 18.721963 0.000000 0.000000 0.000000 7.385749 -0.758354 7.215333 -4.161910 1.892078 -2.675550 -9.450002 5.800935 -6.799085 10.828335 -10.545614 7.498514 0.000000 0.000000 0.000000 15.109917 0.867623 2.178549 -3.534059 -44.998535 -1.635969 74.324278 -11.404640 -9.478603 0.000000 0.000000 0.000000 -28.183185 -7.756230 1.222196 -18.067741 32.549091 -5.061863 -69.635304 2.016410 2.360093 0.000000 0.000000 0.000000 
0.010994 0.970209 0.033165 -1.840672 -7.977144 0.272439 5.729280 0.163585 2.663192 2.187543 -0.086993 -3.426354 -6.870091 -6.204194 15.634656 0.000000 0.000000 0.000000 0.500173 -0.194296 1.822903 -4.965476 0.164245 -3.779434 3.704595 -2.175246 18.386856 0.000000 0.000000 0.000000 7.026854 -0.722629 7.007717 -3.669880 1.688704 -2.252920 -7.569682 5.604918 -7.964786 10.268759 -10.010782 7.730372 0.000000 0.000000 0.000000 20.054542 0.070332 3.050630 10.330595 -46.811596 -6.711167 70.536281 2.622290 0.731759 0.000000 0.000000 0.000000 -27.993216 -7.587348 1.366954 -18.664257 34.871549 -5.721486 -67.739368 0.782600 2.964974 0.000000 0.000000 0.000000 
0.013313 0.969819 0.034916 -1.990844 -6.801209 0.542047 6.117892 0.118729 2.341878 1.843785 -0.045155 -3.549424 -7.657041 -7.369369 15.452522 0.000000 0.000000 0.000000 0.573062 -0.204551 1.865768 -4.941942 0.182150 -3.614521 3.103219 -2.746316 17.874884 0.000000 0.000000 0.000000 6.423141 -0.629695 6.207121 -2.634213 1.215289 -2.329844 -6.767307 5.299929 -8.091954 9.075602 -8.999789 7.928406 0.000000 0.000000 0.000000 24.271941 -0.557611 3.714939 16.378732 -45.989877 -8.801890 69.112561 9.918341 5.450768 0.000000 0.000000 0.000000 -27.967090 -7.490526 1.380505 -17.916574 36.417933 -5.865610 -66.515250 0.229824 3.216721 0.000000 0.000000 0.000000 
0.016627 0.968989 0.035769 -1.950824 -6.836230 0.140973 6.099721 0.112326 2.035883 1.590288 -0.076984 -2.457595 -7.924917 -7.777169 15.483987 0.000000 0.000000 0.000000 0.268934 -0.199908 1.991654 -4.840903 0.228571 -2.948401 2.981784 -2.764333 17.417132 0.000000 0.000000 0.000000 6.277462 -0.663739 6.794996 -2.436935 1.106652 -3.427801 -5.508419 5.900099 -7.666811 8.837792 -8.455497 6.565965 0.000000 0.000000 0.000000 25.755055 -0.447677 3.891538 17.000171 -44.759214 -8.741461 69.025288 10.650208 5.839164 0.000000 0.000000 0.000000 -27.258264 -7.825997 1.185185 -16.850388 37.358855 -5.769254 -68.027427 0.965844 2.850588 0.000000 0.000000 0.000000 
0.021068 0.967230 0.035472 -1.443976 -7.431625 -0.632737 5.142991 0.150422 2.192197 1.764827 -0.165690 -1.054088 -7.456266 -7.719694 14.233777 0.000000 0.000000 0.000000 -0.639610 -0.167388 2.194608 -4.273834 0.260745 -1.932748 2.310482 -3.483242 16.101572 0.000000 0.000000 0.000000 6.325999 -0.739475 7.902035 -2.132076 0.971301 -3.089557 -5.206373 6.597936 -8.791468 8.508884 -7.887248 5.452136 0.000000 0.000000 0.000000 24.794965 0.549271 3.811827 11.726308 -44.529639 -6.878536 69.403542 6.070584 2.672065 0.000000 0.000000 0.000000 -26.423616 -7.861854 1.029681 -14.941669 38.606828 -5.423212 -69.063102 1.010755 3.010736 0.000000 0.000000 0.000000 
0.025782 0.962854 0.033982 -1.277933 -7.499397 -1.314098 4.993449 0.127585 1.565725 1.220929 -0.202538 1.288719 -7.022118 -8.004015 12.196821 0.000000 0.000000 0.000000 -1.180793 -0.087506 1.557789 -3.237768 0.342953 0.486672 0.641670 -5.561453 13.885623 0.000000 0.000000 0.000000 7.425424 -0.837292 8.378893 -2.288545 1.047762 -2.809954 -5.547488 7.093409 -8.674979 8.405381 -7.741810 4.994865 0.000000 0.000000 0.000000 21.306544 0.838810 3.356921 3.236325 -42.751759 -3.804019 71.044222 -4.715314 -4.792915 0.000000 0.000000 0.000000 -23.152439 -7.688192 0.409648 -13.770689 40.403176 -5.311977 -73.700443 1.670882 2.943714 0.000000 0.000000 0.000000 
0.030455 0.954817 0.031771 -0.980991 -7.963801 -2.647946 4.497436 0.102514 0.741159 0.989730 -0.306415 5.177119 -6.140865 -8.044091 9.124141 0.000000 0.000000 0.000000 -2.249411 0.043052 0.418646 -1.674246 0.446280 4.781044 -0.912386 -7.255020 10.625199 0.000000 0.000000 0.000000 8.376534 -1.069865 10.548199 -2.510233 1.136734 -3.435949 -6.282547 8.270844 -8.107668 9.716673 -8.638379 3.816024 0.000000 0.000000 0.000000 15.162599 1.259094 2.460062 -7.070985 -40.053558 -0.566907 70.733392 -20.874361 -16.198126 0.000000 0.000000 0.000000 -17.542564 -8.857699 -0.834412 -12.602645 41.403954 -4.986876 -80.398715 2.761163 2.698783 0.000000 0.000000 0.000000 
0.034637 0.944473 0.030330 -0.476089 -7.888507 -4.322576 4.415191 0.095146 0.286672 -0.200970 -0.172884 9.003754 -5.499618 -8.629672 5.653714 0.000000 0.000000 0.000000 -3.421352 0.104369 -0.048519 -0.715595 0.552220 8.721936 -2.114787 -8.311145 7.129573 0.000000 0.000000 0.000000 8.824085 -1.116166 11.185486 -1.912829 0.886904 -2.220684 -7.461307 8.412840 -7.291709 9.808484 -8.335411 2.214708 0.000000 0.000000 0.000000 9.688267 2.404715 1.276321 -19.097786 -36.589374 2.428005 67.229735 -36.172321 -25.589211 0.000000 0.000000 0.000000 -12.513368 -7.857652 -1.397151 -9.373471 41.429884 -4.032053 -89.095719 5.289727 0.702685 0.000000 0.000000 0.000000 
0.038263 0.935150 0.029910 0.181845 -7.533228 -5.463363 4.131708 0.071045 -0.192921 -1.273818 0.032978 11.863966 -5.038557 -9.308613 2.718431 0.000000 0.000000 0.000000 -4.334480 0.191043 -1.325067 -0.416809 0.765854 12.859894 -3.360155 -10.062638 4.841461 0.000000 0.000000 0.000000 9.404714 -1.130061 11.225563 -1.855982 0.877129 -1.344000 -8.667294 7.915512 -6.048424 11.473691 -9.121307 0.055866 0.000000 0.000000 0.000000 2.446397 1.590858 0.033495 -24.397171 -31.499442 3.002657 62.720768 -48.543239 -31.309271 0.000000 0.000000 0.000000 -7.445455 -6.898697 -1.722863 -6.809618 41.501828 -3.395391 -99.331523 8.431561 -3.248773 0.000000 0.000000 0.000000 
0.041148 0.933192 0.030371 0.694975 -7.278251 -5.721830 3.717652 0.050788 -0.369487 -1.839453 0.163056 12.525560 -5.050821 -9.579508 2.281210 0.000000 0.000000 0.000000 -5.154783 0.220560 -1.717234 -0.274662 0.813538 14.056162 -3.573375 -10.334939 4.316878 0.000000 0.000000 0.000000 9.505556 -1.127481 11.189112 -1.918980 0.908471 -1.379886 -9.497411 8.226540 -5.149651 12.216014 -9.668825 -0.338933 0.000000 0.000000 0.000000 -0.693473 0.290997 -0.194353 -26.747559 -29.790533 3.141436 60.634675 -54.444818 -34.061236 0.000000 0.000000 0.000000 -6.067916 -6.978599 -1.949766 -2.430147 41.834444 -2.099654 -106.312265 11.610782 -7.613798 0.000000 0.000000 0.000000 
0.043040 0.938710 0.030828 1.119061 -6.466583 -5.420822 3.163969 0.028280 -0.378972 -1.845069 0.143910 11.551794 -5.881230 -9.962535 4.468106 0.000000 0.000000 0.000000 -5.802395 0.187169 -0.877667 -0.301421 0.691184 12.357406 -3.224140 -9.998248 5.619580 0.000000 0.000000 0.000000 9.373336 -0.983212 9.735163 -2.043599 0.968509 -1.590467 -9.834077 8.695133 -3.827710 12.640984 -9.810507 -1.218455 0.000000 0.000000 0.000000 0.607719 0.156540 0.099243 -25.417050 -33.418599 3.383142 67.825327 -52.992011 -38.020565 0.000000 0.000000 0.000000 -8.330713 -6.921426 -1.848393 -1.354248 41.581011 -1.679745 -106.798931 12.278068 -7.864537 0.000000 0.000000 0.000000 
0.043611 0.949628 0.030798 1.351559 -5.386098 -3.960509 2.368652 -0.010076 -0.461938 -0.742144 -0.091701 8.876705 -7.158898 -10.750351 7.226955 0.000000 0.000000 0.000000 -5.672423 0.182314 -0.692587 -1.059588 0.630985 9.316054 -2.778918 -10.146339 9.253575 0.000000 0.000000 0.000000 9.263179 -0.787016 7.472364 -2.446500 1.159698 -1.830977 -9.563079 8.569964 -3.831891 12.377057 -10.099443 0.384217 0.000000 0.000000 0.000000 5.620031 -0.860576 1.345351 -18.583686 -39.250220 2.379168 70.965504 -41.362248 -31.446733 0.000000 0.000000 0.000000 -13.593480 -6.382340 -1.338458 -3.920368 41.860293 -2.294289 -99.231985 9.769122 -3.296717 0.000000 0.000000 0.000000 
0.042793 0.958953 0.029909 0.994495 -4.354438 -2.256436 2.357181 -0.049171 -0.766490 0.195885 -0.210588 5.934554 -8.260585 -11.105713 9.873529 0.000000 0.000000 0.000000 -5.001433 0.145079 -0.111420 -1.948056 0.518695 5.336309 -1.714107 -8.927320 12.376337 0.000000 0.000000 0.000000 8.493779 -0.643352 5.920844 -1.905204 0.899147 -3.291970 -8.712266 8.691368 -3.474208 11.491492 -9.643095 1.251155 0.000000 0.000000 0.000000 13.350475 -0.996848 2.767668 -7.473595 -45.940037 -1.124162 70.829609 -23.203474 -18.531298 0.000000 0.000000 0.000000 -19.115457 -5.808154 -0.863827 -7.213079 42.104617 -3.114072 -88.889754 5.751819 1.563664 0.000000 0.000000 0.000000 
0.040752 0.964633 0.028137 0.347466 -3.967294 -1.535208 2.976931 -0.004191 -0.078811 0.848391 -0.217974 3.037044 -9.250497 -11.542360 11.968669 0.000000 0.000000 0.000000 -3.802721 0.096745 0.160343 -3.015675 0.550373 3.579106 -0.754872 -7.669251 14.181748 0.000000 0.000000 0.000000 7.813784 -0.672178 6.253536 -1.591464 0.760277 -4.332997 -7.340592 8.115047 -3.998936 11.257206 -9.806862 2.571793 0.000000 0.000000 0.000000 20.383682 0.056483 3.673474 6.939001 -48.094251 -6.662546 66.558794 -5.382062 -5.590591 0.000000 0.000000 0.000000 -23.448419 -6.416303 -0.379051 -12.533579 42.934071 -4.813152 -79.364196 0.671994 5.039601 0.000000 0.000000 0.000000 
0.038225 0.967178 0.026033 -0.094935 -3.587181 -0.377601 3.528567 -0.054545 -0.678308 0.761423 -0.125899 0.953950 -9.518212 -10.567428 14.292849 0.000000 0.000000 0.000000 -2.817653 0.102477 -0.263938 -3.814535 0.568801 2.429828 -0.318648 -6.927035 14.504191 0.000000 0.000000 0.000000 6.837895 -0.658748 6.313230 -0.740844 0.404089 -5.454812 -5.987739 7.553867 -4.327589 9.955017 -9.193294 4.434106 0.000000 0.000000 0.000000 25.810439 1.163450 4.279705 16.223534 -47.455842 -10.047916 62.467371 6.347595 1.768476 0.000000 0.000000 0.000000 -26.340304 -7.350525 0.039532 -16.533768 43.938671 -6.312025 -72.828762 -1.480920 5.660599 0.000000 0.000000 0.000000 
0.035780 0.967606 0.023816 -0.526372 -3.493929 0.100534 3.897622 -0.067970 -0.832271 0.952162 -0.118156 0.190395 -9.059924 -9.833760 14.228441 0.000000 0.000000 0.000000 -2.233732 0.151342 -1.073577 -4.230203 0.674365 3.099676 0.382039 -5.518671 14.111752 0.000000 0.000000 0.000000 6.406394 -0.670851 6.574276 -0.226036 0.183366 -5.212276 -5.031663 6.936042 -5.328958 9.334801 -8.855079 5.470608 0.000000 0.000000 0.000000 27.844284 2.717450 4.388407 22.966831 -46.244799 -12.087700 59.226019 10.261328 4.036329 0.000000 0.000000 0.000000 -27.000853 -8.700000 0.286031 -19.597316 44.546548 -7.596112 -68.838302 -1.564886 5.008383 0.000000 0.000000 0.000000 
0.033185 0.966234 0.021743 -0.483082 -3.174731 0.038118 3.614557 -0.059163 -0.643563 1.668935 -0.177195 -0.314527 -9.072523 -9.957580 13.976689 0.000000 0.000000 0.000000 -1.869379 0.124765 -0.859212 -5.111112 0.817402 3.389777 0.789568 -4.164891 12.588842 0.000000 0.000000 0.000000 5.651891 -0.699577 7.442667 0.462658 -0.088249 -5.920446 -4.830210 6.711810 -5.556977 8.354866 -8.148201 6.070001 0.000000 0.000000 0.000000 29.178660 3.128425 4.592275 26.165427 -45.616591 -13.094478 57.148680 11.500333 4.560820 0.000000 0.000000 0.000000 -26.594473 -8.897885 0.263716 -19.541956 44.469713 -7.595671 -68.002674 0.146927 3.814839 0.000000 0.000000 0.000000 
0.029884 0.964796 0.019834 -0.503880 -3.620984 -0.162716 3.538156 -0.022437 -0.135972 1.920492 -0.192662 -0.600876 -8.214375 -9.123942 13.015414 0.000000 0.000000 0.000000 -1.831331 0.158333 -1.274645 -5.286099 0.898695 4.043626 1.457446 -2.855764 12.312192 0.000000 0.000000 0.000000 5.618116 -0.717990 7.772053 0.598272 -0.169004 -5.240582 -4.405978 6.529404 -6.247506 7.729849 -7.420187 5.623254 0.000000 0.000000 0.000000 28.294383 3.651229 4.349041 27.925756 -45.843230 -13.708099 57.977883 10.054781 4.089746 0.000000 0.000000 0.000000 -25.693699 -9.360583 0.269323 -19.470599 44.827071 -7.780239 -69.542596 2.067472 2.527606 0.000000 0.000000 0.000000 
0.024731 0.963345 0.018333 -0.128951 -4.610640 -0.592053 3.172781 0.027047 0.438249 2.177826 -0.224091 -0.622535 -7.408586 -8.114759 12.607385 0.000000 0.000000 0.000000 -2.323118 0.165485 -1.227365 -5.442935 0.908212 3.951810 2.764094 -0.515070 12.331119 0.000000 0.000000 0.000000 5.309756 -0.707414 8.111610 0.611819 -0.201342 -4.799963 -4.288511 6.755525 -6.641576 7.008110 -6.604921 4.929937 0.000000 0.000000 0.000000 27.810872 3.331522 4.251145 27.803884 -45.547765 -13.448402 59.003208 8.442788 3.405554 0.000000 0.000000 0.000000 -24.610822 -8.883493 0.255551 -17.545425 45.735836 -7.397028 -72.339549 5.498311 0.206369 0.000000 0.000000 0.000000 
0.017235 0.962373 0.017093 0.035445 -5.364791 -0.738234 3.252509 0.078387 1.098905 2.280438 -0.207195 -1.215618 -6.645290 -7.083879 12.290269 0.000000 0.000000 0.000000 -1.985975 0.149649 -1.096327 -5.827333 0.932276 3.686501 3.261784 0.623288 11.749494 0.000000 0.000000 0.000000 5.022219 -0.655106 7.812569 0.542726 -0.200204 -3.883488 -4.340975 6.535075 -7.267006 6.460554 -6.021173 4.616766 0.000000 0.000000 0.000000 26.949746 2.870449 4.056218 28.489825 -45.675729 -13.591133 61.564685 7.606710 3.313107 0.000000 0.000000 0.000000 -23.096232 -7.932508 0.326595 -14.662456 45.974940 -6.570193 -75.937035 10.290381 -3.485614 0.000000 0.000000 0.000000 
0.007504 0.962450 0.016238 -0.017940 -6.212961 -0.900266 3.597848 0.123884 1.685379 2.261984 -0.191285 -1.543781 -5.456946 -5.201578 12.236408 0.000000 0.000000 0.000000 -1.579030 0.088302 -0.444480 -6.008817 0.831817 2.462763 4.417814 2.655867 11.947168 0.000000 0.000000 0.000000 4.833789 -0.591584 7.242478 0.802649 -0.331477 -3.552788 -4.740588 6.683787 -7.030934 6.253743 -5.792597 4.363276 0.000000 0.000000 0.000000 26.187325 2.015675 3.947381 27.923189 -45.354295 -13.190634 65.324924 5.402412 2.295775 0.000000 0.000000 0.000000 -21.517968 -7.085331 0.247071 -12.197920 46.656923 -5.866663 -78.968843 14.210089 -6.858910 0.000000 0.000000 0.000000 
-0.003052 0.962884 0.015249 -0.169804 -6.852545 -0.904214 4.252278 0.134670 1.832957 2.122765 -0.167813 -1.760072 -4.669353 -3.618608 13.016524 0.000000 0.000000 0.000000 -1.155605 0.039729 -0.002015 -6.072515 0.743924 1.534111 5.725543 5.055235 12.101057 0.000000 0.000000 0.000000 4.234457 -0.535588 7.024751 0.837484 -0.353472 -3.577599 -4.335972 6.692781 -6.766759 6.030270 -5.530618 4.098502 0.000000 0.000000 0.000000 25.469444 1.087318 3.788828 27.515132 -45.005427 -12.761922 68.124118 4.009113 1.692727 0.000000 0.000000 0.000000 -20.586284 -6.099696 0.354600 -9.152373 47.513254 -4.987517 -81.811497 18.141510 -10.702539 0.000000 0.000000 0.000000 
-0.012822 0.963442 0.013969 -0.363059 -7.414693 -0.728550 4.835786 0.130849 1.755394 1.911378 -0.142498 -1.860226 -3.579341 -1.664180 13.592278 0.000000 0.000000 0.000000 -0.706444 0.020617 0.053545 -6.086797 0.656772 0.668814 7.052679 7.054092 12.933788 0.000000 0.000000 0.000000 4.324428 -0.531333 6.869550 0.421386 -0.174327 -3.669537 -4.647437 6.843665 -6.399071 6.323059 -5.809128 4.225074 0.000000 0.000000 0.000000 25.227912 0.499422 3.771466 27.639128 -45.304716 -12.920653 70.362287 3.819582 1.661485 0.000000 0.000000 0.000000 -19.298294 -5.612567 0.262307 -7.279110 48.008567 -4.381656 -83.938920 20.182233 -12.937117 0.000000 0.000000 0.000000 
-0.020547 0.964040 0.012305 -0.059915 -7.971585 -0.638883 4.745302 0.102295 1.156903 1.796978 -0.157735 -1.342752 -2.625590 0.193996 14.721379 0.000000 0.000000 0.000000 -0.932422 0.037104 -0.030084 -5.547561 0.543566 0.116400 7.614051 7.717095 13.445857 0.000000 0.000000 0.000000 4.314123 -0.546541 7.118438 -0.080948 0.045084 -4.405494 -4.931007 7.291160 -6.015071 6.027134 -5.537231 4.003988 0.000000 0.000000 0.000000 24.257700 -0.671408 3.765413 27.054463 -45.675271 -12.888082 73.595449 2.555674 0.828253 0.000000 0.000000 0.000000 -17.804293 -4.836269 0.165668 -4.779713 49.260033 -3.532505 -86.255191 22.825179 -15.850024 0.000000 0.000000 0.000000 
-0.025903 0.963467 0.010590 0.183409 -7.979557 -0.386907 4.825526 0.077737 0.775293 1.597801 -0.144431 -1.155524 -2.287539 0.644810 14.468326 0.000000 0.000000 0.000000 -1.034270 0.046345 -0.088645 -5.386631 0.491382 -0.273649 7.724199 8.288289 12.943653 0.000000 0.000000 0.000000 4.436176 -0.514161 6.487365 -0.706881 0.317456 -3.886724 -5.361365 7.131667 -6.319803 6.187729 -5.826236 4.747066 0.000000 0.000000 0.000000 23.077984 -1.314823 3.690673 25.434574 -47.219593 -12.823296 76.034072 0.405954 -0.676866 0.000000 0.000000 0.000000 -16.107722 -3.819289 0.195658 -1.705124 48.967884 -2.342238 -87.355769 25.663838 -18.776553 0.000000 0.000000 0.000000 
-0.029331 0.962433 0.009006 0.438551 -8.178952 -0.496311 4.309868 0.071547 0.650613 1.509910 -0.110224 -1.699047 -0.756448 3.486045 16.054894 0.000000 0.000000 0.000000 -1.482613 0.052127 0.054592 -4.909551 0.415323 -0.605481 8.063284 9.051412 12.779907 0.000000 0.000000 0.000000 4.814024 -0.499990 6.047059 -1.006657 0.446891 -3.906375 -5.839986 7.386914 -5.066022 6.322075 -5.634146 3.193366 0.000000 0.000000 0.000000 20.894426 -2.169901 3.476854 20.088744 -47.948403 -10.998871 81.234495 -4.041232 -4.512065 0.000000 0.000000 0.000000 -13.587690 -3.010899 0.050843 2.957500 48.553603 -0.603937 -91.359373 30.113195 -24.495168 0.000000 0.000000 0.000000 
-0.031348 0.961376 0.007498 0.810805 -7.657940 -0.804031 3.828979 0.093057 1.042369 1.143523 -0.043430 -2.294606 0.249697 5.114282 16.042976 0.000000 0.000000 0.000000 -1.753504 0.047550 0.218520 -4.303777 0.377320 -0.412495 6.960358 7.349639 12.165579 0.000000 0.000000 0.000000 4.757000 -0.487086 5.960107 -1.717197 0.774532 -3.251937 -5.814654 6.968455 -5.004412 5.963529 -5.382783 3.435375 0.000000 0.000000 0.000000 16.374654 -2.754476 2.977576 13.221351 -48.680982 -8.374989 84.176733 -13.095100 -12.367447 0.000000 0.000000 0.000000 -10.472424 -2.401366 -0.039565 9.973889 46.247925 1.814081 -95.789891 37.637705 -34.502310 0.000000 0.000000 0.000000 
-0.032691 0.960053 0.005791 0.906234 -7.254740 -1.143853 3.511497 0.117832 1.408297 0.992334 0.016774 -3.297567 1.371446 7.138265 17.224716 0.000000 0.000000 0.000000 -2.222013 0.020479 0.799103 -3.719339 0.271650 -1.138926 7.255537 7.750303 12.526713 0.000000 0.000000 0.000000 5.201169 -0.492901 5.808911 -1.898894 0.883434 -1.756743 -6.444233 6.780992 -5.107068 6.143511 -5.304154 2.345133 0.000000 0.000000 0.000000 11.750348 -2.808549 2.451664 2.962962 -47.548591 -4.227529 87.984216 -24.132629 -23.481489 0.000000 0.000000 0.000000 -7.098153 -2.140715 -0.250665 18.158748 42.657195 4.167563 -101.427573 46.368916 -47.729017 0.000000 0.000000 0.000000 
-0.033680 0.959227 0.004033 0.861060 -6.813537 -1.516186 3.554360 0.144018 1.803559 0.771329 0.066050 -3.945159 1.888370 8.090619 17.801437 0.000000 0.000000 0.000000 -2.252257 0.027833 0.660651 -3.261493 0.274276 -0.552989 6.922145 7.008193 12.740612 0.000000 0.000000 0.000000 5.404860 -0.540382 6.337404 -1.922064 0.900198 -1.570483 -6.574112 6.329515 -4.211253 6.648493 -5.565774 1.602637 0.000000 0.000000 0.000000 6.656973 -2.352419 1.650291 -6.607143 -43.832823 -0.597413 92.597911 -37.498153 -38.519646 0.000000 0.000000 0.000000 -2.963882 -3.195492 -0.880144 25.746546 39.194725 5.720702 -107.477926 55.956938 -64.147061 0.000000 0.000000 0.000000 
-0.034524 0.958061 0.002372 0.595390 -6.841920 -1.306085 3.773099 0.144038 1.857090 0.830838 0.101089 -4.845583 2.321667 8.817311 18.320749 0.000000 0.000000 0.000000 -2.459506 0.052370 0.450987 -2.391281 0.177433 -0.809559 7.163610 7.395771 12.884200 0.000000 0.000000 0.000000 5.144995 -0.512542 6.099796 -1.804183 0.849146 -1.256383 -6.198220 6.257212 -3.169365 6.779358 -5.404760 0.284587 0.000000 0.000000 0.000000 2.071412 -1.412268 0.749258 -14.932023 -39.622920 1.765556 95.353028 -49.957378 -52.935880 0.000000 0.000000 0.000000 0.677681 -4.157160 -1.513425 32.690514 33.058559 5.850370 -116.763759 66.296080 -85.743234 0.000000 0.000000 0.000000 
-0.035187 0.957245 0.001155 0.113622 -6.917153 -0.366333 4.527552 0.092524 1.257568 0.517926 0.158446 -5.596984 2.395621 8.909091 18.323539 0.000000 0.000000 0.000000 -1.813311 0.112852 -0.601104 -1.999467 0.132730 -0.959756 6.498425 5.975434 13.044226 0.000000 0.000000 0.000000 4.946647 -0.497285 5.808037 -1.684509 0.790896 -1.318625 -5.520539 5.926024 -2.319323 6.975904 -5.444464 -0.315545 0.000000 0.000000 0.000000 -1.702408 0.088927 -0.277411 -21.291820 -33.662706 2.653707 100.757913 -62.109240 -70.012653 0.000000 0.000000 0.000000 4.381381 -5.540377 -2.402992 37.020746 27.700980 5.021475 -129.541693 76.485431 -111.381475 0.000000 0.000000 0.000000 
-0.035318 0.956615 0.000704 -0.281174 -7.229954 0.235271 5.086709 0.044146 0.452199 0.300359 0.157397 -5.191590 2.659568 9.203830 18.092483 0.000000 0.000000 0.000000 -1.634545 0.177354 -1.433436 -1.400287 0.077001 -1.009702 6.551221 5.620086 13.690806 0.000000 0.000000 0.000000 4.931765 -0.502484 5.757279 -1.869413 0.870089 -1.664560 -5.118247 5.961135 -0.925843 7.115864 -5.188914 -2.259179 0.000000 0.000000 0.000000 -6.117316 1.720085 -1.534122 -26.395556 -28.166920 2.610892 104.257008 -73.963979 -85.663695 0.000000 0.000000 0.000000 8.411488 -6.741974 -3.374843 39.639601 21.172876 3.148916 -179.953929 83.753113 -173.827714 0.000000 0.000000 0.000000 
-0.035006 0.955682 0.001526 -0.444201 -7.592618 1.211463 5.031232 -0.010753 -0.429572 0.641340 0.134400 -5.268380 2.975211 9.573840 17.957703 0.000000 0.000000 0.000000 -1.694496 0.281452 -2.631587 -0.821816 0.024532 -1.065998 6.427461 5.029689 14.166949 0.000000 0.000000 0.000000 4.758104 -0.485461 5.451225 -2.372767 1.094320 -1.936092 -4.508507 6.178588 -0.441109 7.623124 -5.404143 -3.163020 0.000000 0.000000 0.000000 -10.106412 2.223927 -2.383772 -30.154062 -22.391424 1.874241 84.527385 -84.514706 -76.563174 0.000000 0.000000 0.000000 11.505394 -7.558990 -4.158458 41.735121 14.755934 1.133451 103.868221 81.826794 101.052717 0.000000 0.000000 0.000000 
-0.034170 0.955208 0.003959 -0.653510 -7.734859 1.769520 5.167282 -0.049762 -1.126759 0.665875 0.109194 -4.745699 3.174144 9.786838 17.620502 0.000000 0.000000 0.000000 -1.235945 0.349059 -3.483257 -1.162670 0.073335 -0.645557 6.171435 4.339385 14.454893 0.000000 0.000000 0.000000 4.792227 -0.477606 5.205978 -2.555258 1.169385 -2.232642 -4.459428 6.344776 0.372605 8.124821 -5.388146 -5.176057 0.000000 0.000000 0.000000 -13.846498 2.741243 -3.258699 -33.055933 -18.059366 1.045308 -16.267164 -81.003819 16.145838 0.000000 0.000000 0.000000 13.877587 -8.156747 -4.763155 44.381117 9.633263 -0.641328 64.253643 74.549488 55.366562 0.000000 0.000000 0.000000 
-0.033074 0.954687 0.007884 -0.633101 -7.700216 1.994768 4.829867 -0.075863 -1.466347 1.037452 0.052171 -4.163427 3.278017 9.877702 17.191750 0.000000 0.000000 0.000000 -1.156745 0.353814 -3.542035 -1.530941 0.111115 -0.534886 6.064506 4.333089 14.138379 0.000000 0.000000 0.000000 4.624079 -0.491098 5.454176 -2.738686 1.242755 -2.621818 -4.350044 6.430783 0.388815 7.989747 -5.048792 -6.337525 0.000000 0.000000 0.000000 -16.300087 2.341282 -3.523665 -36.629484 -14.689507 0.316909 -20.193560 -66.588565 15.064035 0.000000 0.000000 0.000000 15.980897 -8.518739 -5.244934 46.511125 4.764172 -2.460424 41.714640 64.503914 30.267056 0.000000 0.000000 0.000000 
-0.031866 0.954209 0.012672 -0.609117 -7.615150 2.575329 4.840995 -0.094681 -1.677376 0.768533 0.086513 -4.414630 3.300177 9.881769 16.945758 0.000000 0.000000 0.000000 -0.989150 0.396525 -4.021271 -2.088229 0.176439 -0.259309 5.901671 4.246105 13.792984 0.000000 0.000000 0.000000 4.399111 -0.447400 4.912712 -2.777412 1.252720 -2.917820 -4.108466 5.803031 0.798533 7.618681 -4.495752 -8.034525 0.000000 0.000000 0.000000 -18.626076 2.045296 -3.630480 -39.336768 -12.304526 -0.396699 -14.636802 -51.723093 8.612738 0.000000 0.000000 0.000000 17.054156 -8.464782 -5.501224 48.107149 1.717460 -3.710659 27.648351 52.385138 15.925832 0.000000 0.000000 0.000000 
-0.030751 0.953829 0.017494 -0.614818 -7.478154 3.036939 4.706661 -0.106856 -1.729118 0.828364 0.095737 -4.720691 3.288200 9.846805 16.726490 0.000000 0.000000 0.000000 -1.178153 0.397625 -4.002570 -1.936775 0.141947 -0.619003 5.810301 4.157523 13.695002 0.000000 0.000000 0.000000 4.242215 -0.435038 4.762364 -2.627094 1.174656 -3.394784 -4.325610 5.728618 0.674009 7.221197 -4.216206 -8.001338 0.000000 0.000000 0.000000 -19.329931 1.582199 -3.520247 -41.269903 -10.296872 -1.029572 -9.230882 -37.843783 4.271446 0.000000 0.000000 0.000000 17.630330 -8.509662 -5.616090 49.112014 -0.845810 -4.766332 19.466890 42.121783 9.089514 0.000000 0.000000 0.000000 
-0.029742 0.954049 0.021763 -0.655531 -7.265182 3.489162 4.747792 -0.113662 -1.727329 0.674747 0.128906 -5.184013 3.184296 9.714833 16.715644 0.000000 0.000000 0.000000 -1.046858 0.399685 -4.030027 -2.253616 0.152320 -0.915987 5.719069 3.975668 13.762618 0.000000 0.000000 0.000000 4.208231 -0.418305 4.464577 -2.800490 1.244570 -3.739012 -3.851631 5.398631 0.752740 7.177285 -3.970377 -9.318052 0.000000 0.000000 0.000000 -19.086383 1.609627 -3.408185 -43.205886 -8.983940 -1.548467 -5.179990 -27.992359 2.156604 0.000000 0.000000 0.000000 17.650921 -8.351885 -5.608684 49.872453 -1.286159 -5.000332 11.257857 31.982655 4.284657 0.000000 0.000000 0.000000 
-0.028748 0.954210 0.025396 -0.796004 -7.003505 3.706522 4.919389 -0.106736 -1.538069 0.503515 0.159451 -5.585990 3.052145 9.539308 16.637657 0.000000 0.000000 0.000000 -1.120540 0.366133 -3.643908 -1.962612 0.090767 -1.575092 5.650230 3.710472 14.062102 0.000000 0.000000 0.000000 4.105116 -0.413381 4.425046 -2.429112 1.069627 -4.540155 -3.872856 5.638062 0.978065 6.708131 -3.401641 -10.706285 0.000000 0.000000 0.000000 -18.507272 1.692445 -3.427976 -44.139706 -8.482595 -1.764806 -2.575651 -20.755270 1.116669 0.000000 0.000000 0.000000 17.541370 -8.270474 -5.475969 50.366247 -1.750901 -5.262895 5.080044 22.690677 1.772726 0.000000 0.000000 0.000000 
-0.027796 0.954206 0.028540 -0.786184 -6.885165 4.027612 5.042696 -0.113190 -1.591887 0.126836 0.195401 -5.805403 3.000478 9.465196 16.569507 0.000000 0.000000 0.000000 -1.099280 0.354072 -3.506337 -2.072691 0.065073 -2.184910 5.519256 3.303097 14.366712 0.000000 0.000000 0.000000 4.190412 -0.402363 4.147456 -2.872425 1.261092 -4.513394 -3.273028 5.117205 0.921760 6.481087 -3.177961 -11.401395 0.000000 0.000000 0.000000 -17.940582 2.212728 -3.468846 -44.453933 -7.522492 -2.148007 -0.610613 -16.564287 0.632787 0.000000 0.000000 0.000000 16.616870 -8.185494 -5.401364 51.347048 -2.667408 -5.701576 1.436434 17.268237 0.796080 0.000000 0.000000 0.000000 
-0.026863 0.954359 0.031192 -0.859569 -6.978134 4.145312 5.084963 -0.102044 -1.366032 0.034781 0.213216 -6.089457 3.043398 9.514796 16.569786 0.000000 0.000000 0.000000 -1.183916 0.327177 -3.186300 -1.896772 0.009890 -2.956937 5.665313 3.120004 15.133458 0.000000 0.000000 0.000000 3.992042 -0.395608 4.185019 -2.621509 1.145560 -4.869980 -3.020936 5.348231 1.080632 5.732743 -2.507983 -12.601412 0.000000 0.000000 0.000000 -17.170529 3.156045 -3.833566 -45.333142 -6.827977 -2.463125 0.529250 -13.934633 0.396972 0.000000 0.000000 0.000000 16.273955 -8.569816 -5.520497 51.830197 -3.167867 -5.971904 0.427648 13.712572 0.518890 0.000000 0.000000 0.000000 
-0.026049 0.954379 0.033211 -0.886527 -7.163613 4.194798 5.144885 -0.080279 -0.963941 -0.168859 0.247351 -6.604379 3.105299 9.594993 16.641737 0.000000 0.000000 0.000000 -1.215962 0.328297 -3.190274 -1.894109 -0.001108 -3.149375 5.790551 2.963884 15.755722 0.000000 0.000000 0.000000 4.100415 -0.394485 4.084110 -2.745102 1.190396 -5.122328 -2.777943 5.526653 1.463765 5.835466 -2.589815 -12.552527 0.000000 0.000000 0.000000 -16.808512 3.359966 -3.862563 -45.776862 -5.485109 -3.015446 1.527084 -12.417876 0.251700 0.000000 0.000000 0.000000 16.141465 -8.701577 -5.559070 52.131436 -3.407235 -6.141948 -0.232764 11.375884 0.373758 0.000000 0.000000 0.000000 
-0.025308 0.954517 0.034511 -0.882280 -7.355226 4.134287 5.147118 -0.065930 -0.732174 -0.313236 0.260445 -6.695657 3.186826 9.696099 16.659438 0.000000 0.000000 0.000000 -1.445852 0.322250 -3.066856 -1.707444 -0.036215 -3.593211 6.210115 3.070736 16.865204 0.000000 0.000000 0.000000 4.018575 -0.395783 4.178642 -2.689265 1.160888 -5.298892 -2.579793 5.642109 1.598837 5.418397 -2.198580 -13.475320 0.000000 0.000000 0.000000 -16.532216 3.808383 -4.024731 -46.822271 -4.390214 -3.519065 2.075397 -11.058249 0.175747 0.000000 0.000000 0.000000 15.911264 -8.679254 -5.513816 52.731358 -3.385330 -6.218024 -0.898751 10.603970 0.300678 0.000000 0.000000 0.000000 
-0.024781 0.955020 0.035118 -0.782458 -7.372724 4.164853 5.085666 -0.058178 -0.563646 -0.473712 0.282621 -7.013209 3.136998 9.652342 16.878335 0.000000 0.000000 0.000000 -1.573744 0.333317 -3.162380 -1.784860 -0.035083 -3.661876 6.375624 3.023320 17.477683 0.000000 0.000000 0.000000 3.919696 -0.389015 4.152917 -2.741334 1.181402 -5.347222 -2.316157 5.471286 1.520651 5.204009 -2.051489 -13.704610 0.000000 0.000000 0.000000 -16.518885 4.351873 -4.247136 -47.533081 -3.022704 -4.099761 2.131405 -10.367321 0.164381 0.000000 0.000000 0.000000 16.063699 -8.286798 -5.384753 53.308354 -3.405393 -6.293108 -1.168599 10.583513 0.277371 0.000000 0.000000 0.000000 
-0.024414 0.955466 0.035177 -0.691839 -7.557330 4.157111 5.012451 -0.048238 -0.401364 -0.590814 0.299065 -7.250180 3.177665 9.722102 17.104363 0.000000 0.000000 0.000000 -1.638102 0.341771 -3.244054 -1.994097 -0.030774 -3.811606 6.717873 3.196015 18.191840 0.000000 0.000000 0.000000 3.639336 -0.374673 4.170105 -2.524393 1.085447 -5.459942 -2.170443 5.590412 1.419367 5.476581 -2.125328 -14.377091 0.000000 0.000000 0.000000 -16.012115 4.373498 -4.166529 -49.021762 -2.353901 -4.506118 2.124815 -9.687911 0.154871 0.000000 0.000000 0.000000 15.929250 -8.139089 -5.292471 53.899989 -2.931870 -6.149109 -1.442356 10.667010 0.259719 0.000000 0.000000 0.000000 
-0.024264 0.955899 0.034709 -0.536518 -7.435931 4.153859 4.843648 -0.035125 -0.118431 -0.592697 0.322531 -7.879760 3.028109 9.565616 17.425115 0.000000 0.000000 0.000000 -1.726894 0.339686 -3.198476 -2.246420 -0.021601 -3.921970 6.862050 3.423103 18.279613 0.000000 0.000000 0.000000 3.375678 -0.357326 4.127308 -2.256218 0.970966 -5.786489 -2.245565 5.645269 1.684030 5.720361 -2.262968 -14.431945 0.000000 0.000000 0.000000 -16.146209 4.323497 -4.180663 -49.634963 -2.107834 -4.689801 1.459514 -9.750077 0.210288 0.000000 0.000000 0.000000 16.138387 -7.793308 -5.125587 54.362835 -2.397462 -6.000221 -1.356681 11.483497 0.288171 0.000000 0.000000 0.000000 
-0.024264 0.956390 0.033750 -0.366679 -7.558510 4.066409 4.625791 -0.028498 -0.039534 -0.540970 0.323744 -7.969677 3.037715 9.599064 17.668342 0.000000 0.000000 0.000000 -1.684268 0.317059 -2.942575 -2.563248 -0.012696 -4.088415 6.710134 3.433249 17.729491 0.000000 0.000000 0.000000 3.101894 -0.350123 4.271147 -2.066831 0.892080 -5.694601 -2.426113 5.579299 1.448292 6.556952 -2.832228 -14.082268 0.000000 0.000000 0.000000 -16.026421 4.275000 -4.125762 -49.849722 -2.232068 -4.646265 0.809961 -9.945583 0.268863 0.000000 0.000000 0.000000 16.398107 -7.227258 -4.896496 54.197467 -1.475764 -5.560995 -1.170005 11.696873 0.305488 0.000000 0.000000 0.000000 
-0.024472 0.956447 0.032012 -0.133916 -7.348876 3.885956 4.529734 -0.015815 0.191493 -0.746399 0.347959 -8.348088 2.853343 9.390597 17.852493 0.000000 0.000000 0.000000 -2.070183 0.303629 -2.673715 -2.538236 -0.015097 -4.120882 6.978182 4.267530 17.189883 0.000000 0.000000 0.000000 2.991636 -0.345177 4.317631 -2.068936 0.899939 -5.419723 -2.495892 5.071728 1.240462 6.693929 -2.957433 -13.980332 0.000000 0.000000 0.000000 -16.458471 3.933430 -3.969964 -49.036846 -2.823381 -4.312451 0.237392 -10.587029 0.341625 0.000000 0.000000 0.000000 15.755416 -6.758414 -4.627906 54.742310 -0.202699 -5.027545 -0.816157 12.821162 0.358366 0.000000 0.000000 0.000000 
-0.024764 0.956993 0.029472 -0.172320 -6.951193 3.619783 4.397297 -0.014139 0.220012 -0.322689 0.322932 -8.284659 2.624169 9.128363 17.963335 0.000000 0.000000 0.000000 -2.061610 0.292773 -2.565916 -2.270320 -0.025179 -4.049199 6.719732 3.694539 17.514235 0.000000 0.000000 0.000000 3.234358 -0.367028 4.480737 -2.059777 0.893291 -6.208277 -2.724783 5.193040 2.395326 6.664132 -2.938459 -14.026021 0.000000 0.000000 0.000000 -17.364680 2.915795 -3.644722 -47.618593 -3.173982 -4.127390 -0.564204 -11.623030 0.453426 0.000000 0.000000 0.000000 17.379857 -6.063601 -4.425031 53.490078 0.827515 -4.610497 -1.208497 13.728080 0.359400 0.000000 0.000000 0.000000 
-0.025258 0.957383 0.026582 -0.205906 -6.753229 3.734396 4.279210 -0.056972 -0.457828 0.073292 0.277528 -7.694936 2.562439 9.071168 17.993307 0.000000 0.000000 0.000000 -2.095624 0.297055 -2.606795 -1.540380 -0.075149 -4.213501 5.806898 2.356557 17.079818 0.000000 0.000000 0.000000 3.158908 -0.331589 3.965749 -2.376847 1.035554 -5.542823 -2.368145 4.903538 2.309466 7.189645 -3.318080 -13.803576 0.000000 0.000000 0.000000 -16.302451 2.528105 -3.237168 -47.860872 -4.017091 -3.835510 -0.755523 -14.006355 0.571312 0.000000 0.000000 0.000000 15.467012 -5.959962 -4.141729 55.046069 2.244370 -4.067477 -1.892495 14.741350 0.309045 0.000000 0.000000 0.000000 
-0.025730 0.958654 0.023687 -0.057561 -5.821761 3.213768 3.994291 -0.034606 -0.050700 0.467011 0.271451 -8.053938 1.950488 8.386837 18.377152 0.000000 0.000000 0.000000 -2.374525 0.210392 -1.461771 -1.167492 -0.135869 -5.122360 5.547675 1.993065 17.233711 0.000000 0.000000 0.000000 3.063431 -0.317704 3.904554 -2.300364 1.017812 -5.657947 -2.194085 4.801794 3.503649 6.569164 -3.032292 -13.200926 0.000000 0.000000 0.000000 -16.666231 1.255944 -2.684862 -46.489158 -5.078760 -3.418327 -2.009266 -14.078948 0.725023 0.000000 0.000000 0.000000 16.339586 -4.770075 -3.567667 53.493937 3.842679 -3.412627 -1.714897 15.377723 0.355844 0.000000 0.000000 0.000000 
