HIERARCHY
ROOT Hips
{
	OFFSET -0.001795 -0.223333 0.028219
	CHANNELS 6 Xposition Yposition Zposition Zrotation Yrotation Xrotation 
	JOINT LeftUpLeg
	{
		OFFSET 0.069520 -0.091406 -0.006815
		CHANNELS 3 Zrotation Yrotation Xrotation
		JOINT LeftLeg
		{
			OFFSET 0.034277 -0.375199 -0.004496
			CHANNELS 3 Zrotation Yrotation Xrotation
			JOINT LeftFoot
			{
				OFFSET -0.013596 -0.397961 -0.043693
				CHANNELS 3 Zrotation Yrotation Xrotation
				JOINT LeftToe
				{
					OFFSET 0.026358 -0.055791 0.119288
					CHANNELS 3 Zrotation Yrotation Xrotation
					End Site
					{
						OFFSET 0.000000 0.000000 0.000000
					}
				}
			}
		}
	}
	JOINT RightUpLeg
	{
		OFFSET -0.067670 -0.090522 -0.004320
		CHANNELS 3 Zrotation Yrotation Xrotation
		JOINT RightLeg
		{
			OFFSET -0.038290 -0.382569 -0.008850
			CHANNELS 3 Zrotation Yrotation Xrotation
			JOINT RightFoot
			{
				OFFSET 0.015774 -0.398415 -0.042312
				CHANNELS 3 Zrotation Yrotation Xrotation
				JOINT RightToe
				{
					OFFSET -0.025372 -0.048144 0.123348
					CHANNELS 3 Zrotation Yrotation Xrotation
					End Site
					{
						OFFSET 0.000000 0.000000 0.000000
					}
				}
			}
		}
	}
	JOINT Spine
	{
		OFFSET -0.002533 0.108963 -0.026696
		CHANNELS 3 Zrotation Yrotation Xrotation
		JOINT Spine1
		{
			OFFSET 0.005487 0.135180 0.001092
			CHANNELS 3 Zrotation Yrotation Xrotation
			JOINT Spine2
			{
				OFFSET 0.001457 0.052922 0.025425
				CHANNELS 3 Zrotation Yrotation Xrotation
				JOINT Neck
				{
					OFFSET -0.002778 0.213870 -0.042857
					CHANNELS 3 Zrotation Yrotation Xrotation
					JOINT Head
					{
						OFFSET 0.005152 0.064970 0.051349
						CHANNELS 3 Zrotation Yrotation Xrotation
						End Site
						{
							OFFSET 0.000000 0.000000 0.000000
						}
					}
				}
				JOINT LeftShoulder
				{
					OFFSET 0.078845 0.121749 -0.034090
					CHANNELS 3 Zrotation Yrotation Xrotation
					JOINT LeftArm
					{
						OFFSET 0.090977 0.030469 -0.008868
						CHANNELS 3 Zrotation Yrotation Xrotation
						JOINT LeftForeArm
						{
							OFFSET 0.259612 -0.012772 -0.027456
							CHANNELS 3 Zrotation Yrotation Xrotation
							JOINT LeftHand
							{
								OFFSET 0.249234 0.008986 -0.001171
								CHANNELS 3 Zrotation Yrotation Xrotation
								End Site
								{
									OFFSET 0.000000 0.000000 0.000000
								}
							}
						}
					}
				}
				JOINT RightShoulder
				{
					OFFSET -0.081759 0.118833 -0.038615
					CHANNELS 3 Zrotation Yrotation Xrotation
					JOINT RightArm
					{
						OFFSET -0.096012 0.032551 -0.009143
						CHANNELS 3 Zrotation Yrotation Xrotation
						JOINT RightForeArm
						{
							OFFSET -0.253742 -0.013329 -0.021401
							CHANNELS 3 Zrotation Yrotation Xrotation
							JOINT RightHand
							{
								OFFSET -0.255298 0.007772 -0.005559
								CHANNELS 3 Zrotation Yrotation Xrotation
								End Site
								{
									OFFSET 0.000000 0.000000 0.000000
								}
							}
						}
					}
				}
			}
		}
	}
}
MOTION
Frames: 112
Frame Time: 0.050000
0.000000 0.951261 0.000000 2.202797 -4.404530 3.137650 2.123668 -0.368582 -4.620936 -2.528722 0.311499 -1.183952 8.447310 17.813207 17.295752 0.000000 0.000000 0.000000 -9.505741 0.497092 -5.318128 3.132146 -0.244644 3.468063 -6.862985 -17.907365 10.319415 0.000000 0.000000 0.000000 8.667430 -1.403001 11.264090 -3.509379 1.376665 -24.641615 1.426436 9.962146 24.163755 5.137892 0.355265 -30.610768 0.000000 0.000000 0.000000 20.961894 -17.312556 4.392892 16.115628 -33.045009 -5.996257 64.077479 -14.331304 -10.903587 0.000000 0.000000 0.000000 8.842883 11.286472 5.370398 30.804686 44.165952 6.247666 99.633137 68.853267 85.786594 0.000000 0.000000 0.000000 
0.001053 0.952944 0.000124 1.829984 -4.086795 3.546732 1.729574 -0.399677 -4.849966 -1.777072 0.237726 -1.713831 8.872838 18.446104 16.376275 0.000000 0.000000 0.000000 -9.188042 0.513579 -6.129134 3.167523 -0.253125 3.405024 -6.858004 -18.058502 12.332572 0.000000 0.000000 0.000000 7.705737 -1.274574 10.867258 -0.960319 0.768529 -24.021389 -0.658381 8.570079 23.683374 5.275076 0.235459 -31.862264 0.000000 0.000000 0.000000 21.291260 -16.697811 4.109167 19.861279 -35.200344 -7.322144 59.052431 -14.702900 -9.660474 0.000000 0.000000 0.000000 10.800041 12.623610 6.108667 30.279222 41.267948 5.149662 105.648398 65.356004 87.674694 0.000000 0.000000 0.000000 
0.001518 0.953662 -0.000276 1.462586 -4.296295 3.906791 2.502111 -0.386053 -4.980482 -2.021331 0.254055 -1.119634 8.073908 17.298687 17.448084 0.000000 0.000000 0.000000 -9.218521 0.543334 -6.952457 4.163250 -0.369369 3.972811 -7.498710 -19.186117 12.221321 0.000000 0.000000 0.000000 8.801199 -1.335318 10.240779 -2.209177 1.057069 -23.616065 -0.689803 7.233912 23.672151 4.161079 0.298712 -29.043283 0.000000 0.000000 0.000000 21.824976 -17.178616 3.850869 21.229166 -35.930111 -7.619136 56.321982 -18.197357 -10.536378 0.000000 0.000000 0.000000 10.210673 12.593904 5.786675 32.456658 35.657517 4.149032 104.849509 59.518168 79.653057 0.000000 0.000000 0.000000 
0.001443 0.953501 -0.001118 1.495191 -4.136521 4.017669 2.933773 -0.390075 -5.231592 -2.672837 0.329632 -1.697555 8.980431 18.596904 18.781123 0.000000 0.000000 0.000000 -9.183477 0.545986 -7.115651 3.906321 -0.342491 3.503289 -7.918861 -19.947925 13.341224 0.000000 0.000000 0.000000 8.500584 -1.338658 10.519552 -1.909874 0.985370 -23.434041 -1.131192 6.682947 24.130387 5.154493 -0.304184 -29.144359 0.000000 0.000000 0.000000 23.829892 -17.799638 3.609525 21.587203 -36.504191 -7.807539 56.592114 -20.987189 -11.949270 0.000000 0.000000 0.000000 10.754177 11.744127 5.410898 32.987175 33.071476 3.482497 104.157680 54.901914 73.377078 0.000000 0.000000 0.000000 
0.000989 0.953751 -0.002259 1.866862 -3.288526 3.997213 2.780655 -0.392382 -5.122816 -2.987101 0.352162 -0.991644 8.145951 17.523439 17.965838 0.000000 0.000000 0.000000 -9.401842 0.512812 -6.710393 3.899879 -0.359337 2.506480 -8.094296 -20.177935 13.543053 0.000000 0.000000 0.000000 8.515571 -1.398521 10.948780 -2.469387 1.131806 -23.181975 -1.273954 5.067265 24.235637 4.628054 -0.252089 -28.792608 0.000000 0.000000 0.000000 22.014830 -19.024335 3.774269 21.922680 -37.602650 -8.060901 57.606020 -28.278939 -15.870809 0.000000 0.000000 0.000000 11.237988 10.491145 4.737873 32.614965 28.570680 2.150563 108.843219 53.563110 76.092383 0.000000 0.000000 0.000000 
0.000054 0.953703 -0.003631 2.095803 -3.126732 4.523216 3.083146 -0.421879 -5.657371 -3.443997 0.400435 -1.197741 8.736869 18.385313 19.745133 0.000000 0.000000 0.000000 -9.249543 0.525726 -6.905232 3.172360 -0.283045 1.881669 -8.126642 -20.230753 13.850547 0.000000 0.000000 0.000000 7.969972 -1.401559 11.429269 -1.740964 0.949344 -22.720546 -1.845405 4.425085 23.885247 4.420667 -0.219718 -28.746577 0.000000 0.000000 0.000000 20.565511 -19.399240 3.958053 20.025175 -40.290875 -8.351470 63.156796 -37.471582 -23.112196 0.000000 0.000000 0.000000 12.144455 9.584392 4.312897 32.561290 24.850663 1.193963 111.648872 52.315114 77.249659 0.000000 0.000000 0.000000 
-0.001149 0.953425 -0.005226 2.144612 -3.587205 4.803368 3.201456 -0.428622 -5.833391 -3.565278 0.415841 -0.941961 8.855256 18.489982 19.685721 0.000000 0.000000 0.000000 -9.274861 0.550843 -7.264863 3.245981 -0.288857 1.738916 -8.147036 -20.303766 13.799305 0.000000 0.000000 0.000000 7.856188 -1.424334 11.784518 -1.897929 0.976742 -22.551003 -2.028058 3.686611 24.323012 4.606379 -0.421084 -29.481619 0.000000 0.000000 0.000000 17.313006 -20.918570 4.510885 16.812123 -41.405072 -7.624434 70.918289 -47.207398 -33.347777 0.000000 0.000000 0.000000 12.545510 7.761127 3.307821 33.287602 21.728252 0.449928 114.152164 51.743383 78.767005 0.000000 0.000000 0.000000 
-0.002857 0.953385 -0.006773 2.151826 -4.155259 5.579512 3.394618 -0.472753 -6.643452 -3.736560 0.438124 -0.959076 9.113451 18.771968 19.825204 0.000000 0.000000 0.000000 -9.027561 0.609264 -8.278247 2.554458 -0.201254 2.091894 -7.549403 -19.319067 12.853851 0.000000 0.000000 0.000000 7.937817 -1.446819 11.789047 -1.970009 0.981211 -22.344816 -3.000484 2.710559 24.237644 4.208593 -0.463601 -28.883470 0.000000 0.000000 0.000000 14.612652 -22.027927 5.044647 9.756659 -42.702866 -5.762181 84.639753 -58.187092 -50.967263 0.000000 0.000000 0.000000 12.484360 6.595385 2.514488 34.341913 18.302219 -0.277172 116.627047 52.720126 82.005240 0.000000 0.000000 0.000000 
-0.004646 0.952771 -0.008330 2.126742 -5.169059 6.363904 3.854487 -0.474614 -7.060213 -4.074601 0.482328 -1.484410 9.562813 19.253159 20.420229 0.000000 0.000000 0.000000 -8.776584 0.686129 -9.386324 1.927236 -0.121284 2.227280 -7.259642 -18.938112 13.012910 0.000000 0.000000 0.000000 7.890845 -1.397499 11.298945 -1.950944 0.938853 -21.294621 -4.136175 1.918029 23.960320 4.237009 -0.636226 -29.356300 0.000000 0.000000 0.000000 10.524347 -22.792415 5.896863 2.430838 -43.824854 -3.720605 105.374306 -68.427308 -78.745210 0.000000 0.000000 0.000000 13.330801 5.002232 1.475723 34.851650 14.518501 -1.125114 117.918556 52.666981 82.378587 0.000000 0.000000 0.000000 
-0.006488 0.952509 -0.009880 2.059780 -5.732998 6.687543 4.502343 -0.458078 -7.410323 -4.535241 0.536491 -1.666368 9.889380 19.604377 21.064165 0.000000 0.000000 0.000000 -8.540255 0.723313 -9.717956 1.435662 -0.056716 2.459817 -6.841689 -18.307360 13.295729 0.000000 0.000000 0.000000 8.082052 -1.448620 11.570264 -1.860026 0.901246 -21.202826 -5.402616 0.693190 24.539557 3.760430 -0.593566 -29.916017 0.000000 0.000000 0.000000 5.625446 -25.284061 7.577817 -5.891991 -43.541541 -1.286737 135.525436 -76.782555 -118.893735 0.000000 0.000000 0.000000 14.034812 4.280171 0.793257 35.377117 11.240278 -1.901839 114.889552 55.262154 81.109165 0.000000 0.000000 0.000000 
-0.008065 0.952384 -0.011702 1.967601 -6.446131 7.332245 4.864078 -0.463606 -7.996959 -4.806079 0.573170 -1.633788 10.453510 20.262700 21.138966 0.000000 0.000000 0.000000 -8.375204 0.785020 -10.525814 1.287937 -0.044395 2.230024 -5.974796 -16.974627 13.765859 0.000000 0.000000 0.000000 8.401918 -1.484763 11.459589 -2.066921 0.930848 -20.614888 -6.778606 -0.703854 24.771945 4.182636 -0.966612 -31.339720 0.000000 0.000000 0.000000 0.931798 -27.235279 9.471944 -14.119156 -44.505710 1.147319 -169.223025 -83.873589 175.403265 0.000000 0.000000 0.000000 15.394452 3.937310 0.126676 35.893553 9.079198 -2.346161 107.198197 59.043756 76.314213 0.000000 0.000000 0.000000 
-0.009479 0.952541 -0.013575 1.917444 -6.502923 7.648289 5.114080 -0.465891 -8.341732 -4.780684 0.570032 -1.670372 10.101652 19.778455 21.411131 0.000000 0.000000 0.000000 -8.404420 0.801612 -10.796579 1.343206 -0.067942 1.660479 -5.985565 -17.088689 14.491099 0.000000 0.000000 0.000000 8.678619 -1.568642 11.851277 -1.943109 0.893819 -20.393132 -8.334815 -2.545022 24.876823 3.875943 -1.165572 -30.785584 0.000000 0.000000 0.000000 -3.219269 -29.315144 11.623252 -20.345874 -47.198967 3.484147 -67.024574 -81.226084 66.066424 0.000000 0.000000 0.000000 16.897430 4.463621 -0.200872 36.424601 8.105373 -2.470346 89.595088 63.833446 63.942636 0.000000 0.000000 0.000000 
-0.011062 0.952788 -0.015553 1.947330 -5.904386 7.651424 5.369207 -0.465210 -8.506304 -5.199292 0.605466 -2.003858 10.314729 20.102262 22.202377 0.000000 0.000000 0.000000 -8.343832 0.789292 -10.821484 1.487518 -0.079041 1.866434 -6.519176 -18.001512 15.430364 0.000000 0.000000 0.000000 8.481464 -1.565855 11.964617 -1.831628 0.868476 -19.835521 -9.142078 -4.821940 24.760052 3.119185 -1.076156 -30.804490 0.000000 0.000000 0.000000 -5.619012 -31.620232 13.606873 -24.024984 -52.513064 6.065319 -29.991350 -71.077153 27.256115 0.000000 0.000000 0.000000 17.390332 5.493988 -0.211936 38.231347 8.618067 -2.264103 59.510295 64.441295 39.670156 0.000000 0.000000 0.000000 
-0.013295 0.952936 -0.017405 1.906506 -5.602683 7.508681 5.617761 -0.444697 -8.291738 -5.264557 0.606077 -2.251326 10.055827 19.806125 22.104339 0.000000 0.000000 0.000000 -8.280064 0.769957 -10.500611 1.749004 -0.124241 1.274577 -6.609558 -18.097827 15.304571 0.000000 0.000000 0.000000 8.076550 -1.496133 11.774042 -1.822651 0.863698 -19.213171 -9.798234 -5.727294 24.851805 2.686473 -1.178754 -28.443582 0.000000 0.000000 0.000000 -4.816742 -33.433837 14.138966 -22.507203 -57.545749 6.812585 -13.555589 -64.274070 13.032818 0.000000 0.000000 0.000000 17.494974 7.164988 0.469074 39.951834 9.586862 -2.029893 40.094672 62.519026 25.158541 0.000000 0.000000 0.000000 
-0.016056 0.953500 -0.019081 1.786920 -5.432746 7.426750 6.152644 -0.403362 -7.940994 -5.475465 0.619469 -2.730585 9.940976 19.667363 22.533744 0.000000 0.000000 0.000000 -8.147175 0.774276 -10.674017 2.145526 -0.158623 1.562098 -6.984621 -18.714101 15.573087 0.000000 0.000000 0.000000 7.769779 -1.459873 11.800245 -1.954841 0.897144 -18.522103 -9.516856 -6.002494 24.342824 2.483958 -1.144610 -27.684116 0.000000 0.000000 0.000000 -2.212627 -34.458070 13.568555 -15.931326 -61.160109 4.614397 0.333238 -62.001375 3.763692 0.000000 0.000000 0.000000 17.171541 8.621814 1.222537 40.708243 11.485308 -1.454106 31.923108 58.286958 18.376513 0.000000 0.000000 0.000000 
-0.018846 0.953890 -0.020561 1.713900 -5.563394 7.571205 6.342266 -0.389335 -7.794964 -5.313232 0.602458 -2.908291 10.104098 19.862003 22.509729 0.000000 0.000000 0.000000 -7.652237 0.796403 -10.671641 2.325285 -0.191405 0.860749 -6.635198 -18.104298 14.886371 0.000000 0.000000 0.000000 7.602393 -1.390389 11.272519 -2.396191 1.017718 -18.377930 -8.939368 -4.951569 24.916811 2.961288 -1.457410 -25.586876 0.000000 0.000000 0.000000 2.915918 -34.284071 11.432832 -6.812936 -61.617765 0.236078 17.312245 -64.378829 -6.979570 0.000000 0.000000 0.000000 16.333247 9.464140 1.994606 40.900465 13.468057 -1.020942 30.019933 57.879329 17.435413 0.000000 0.000000 0.000000 
-0.021277 0.954723 -0.021711 1.684475 -5.928723 7.970812 6.515290 -0.394747 -8.326445 -5.031379 0.579845 -2.727610 9.847210 19.476711 22.705177 0.000000 0.000000 0.000000 -7.635658 0.833395 -11.183110 2.546954 -0.214163 0.649098 -6.686746 -18.209558 14.600954 0.000000 0.000000 0.000000 7.635612 -1.367379 10.931409 -2.622905 1.072069 -18.504055 -8.423027 -3.362327 24.878450 4.224490 -2.190474 -23.348533 0.000000 0.000000 0.000000 6.525356 -33.323013 9.762656 -1.070738 -58.332793 -2.615778 37.310120 -66.956442 -20.931648 0.000000 0.000000 0.000000 15.979294 9.640950 2.446555 39.459872 14.754243 -0.737985 35.071674 58.571882 20.926936 0.000000 0.000000 0.000000 
-0.022894 0.955185 -0.022553 1.573382 -6.186012 8.261412 6.574251 -0.399798 -8.629063 -4.687619 0.545947 -2.966207 9.967498 19.581318 23.334046 0.000000 0.000000 0.000000 -7.620316 0.859721 -11.528080 2.891000 -0.243496 0.690182 -6.960601 -18.712512 14.832697 0.000000 0.000000 0.000000 7.884616 -1.371978 10.608112 -3.343879 1.269533 -18.141474 -7.765873 -2.073308 25.002008 5.551195 -3.035029 -21.449654 0.000000 0.000000 0.000000 8.155233 -31.744887 8.728934 1.194830 -55.865009 -3.658427 53.530600 -66.980044 -32.473458 0.000000 0.000000 0.000000 15.114495 9.361573 2.627374 38.982325 16.371404 -0.400103 37.002520 59.497777 22.795973 0.000000 0.000000 0.000000 
-0.024283 0.955443 -0.023250 1.619869 -6.413567 8.666457 6.426142 -0.422631 -9.034622 -4.425651 0.522131 -2.844824 9.886443 19.443909 23.458246 0.000000 0.000000 0.000000 -7.591778 0.872896 -11.528077 2.805983 -0.237611 0.455177 -6.361518 -17.694674 14.299599 0.000000 0.000000 0.000000 7.847583 -1.333838 10.174405 -3.381683 1.270408 -18.455218 -7.234640 -0.871222 25.417519 6.704133 -3.547129 -21.983407 0.000000 0.000000 0.000000 7.437999 -30.210895 8.501516 -2.989942 -52.518019 -2.057928 65.111709 -66.389657 -40.581527 0.000000 0.000000 0.000000 15.741129 8.844083 2.594815 37.943633 17.381344 -0.246320 36.817632 60.282822 23.349327 0.000000 0.000000 0.000000 
-0.025828 0.954778 -0.023642 1.533570 -5.905971 9.035946 6.805615 -0.422743 -9.414315 -4.668332 0.540440 -2.844223 9.546605 19.070081 23.904620 0.000000 0.000000 0.000000 -7.675948 0.882050 -11.944770 3.352005 -0.285740 0.861603 -6.700489 -18.241062 14.617904 0.000000 0.000000 0.000000 8.231658 -1.319562 9.406478 -4.085121 1.496344 -16.987147 -6.571071 -0.860939 25.061263 7.712024 -4.024771 -22.537273 0.000000 0.000000 0.000000 4.579129 -28.636698 8.892868 -8.578334 -49.912199 -0.198541 65.263230 -68.330797 -41.897435 0.000000 0.000000 0.000000 15.582044 7.940698 2.215745 38.242738 19.155070 0.255787 35.632443 60.460663 22.840476 0.000000 0.000000 0.000000 
-0.028008 0.954439 -0.023831 1.284968 -5.420623 8.832337 7.457668 -0.379501 -9.064734 -5.039416 0.572186 -2.820860 9.102121 18.574308 22.944943 0.000000 0.000000 0.000000 -7.628402 0.835307 -11.120105 3.762237 -0.329550 0.832977 -6.605999 -18.006548 14.519827 0.000000 0.000000 0.000000 8.506470 -1.392941 9.780976 -4.462346 1.618713 -16.976104 -6.256586 -0.729473 25.901784 8.911666 -4.799020 -22.258683 0.000000 0.000000 0.000000 1.713072 -27.189627 9.186258 -14.861126 -46.257805 1.392764 56.773037 -73.344437 -38.501361 0.000000 0.000000 0.000000 16.386491 6.548364 1.588609 37.121376 21.963570 0.846486 26.459593 59.172666 16.986844 0.000000 0.000000 0.000000 
-0.030763 0.953411 -0.023983 1.149782 -4.781869 8.654419 8.088075 -0.350075 -9.011726 -5.418088 0.604483 -2.622417 8.877811 18.370400 23.018007 0.000000 0.000000 0.000000 -7.843811 0.802732 -10.916474 4.277036 -0.384919 1.075662 -6.885669 -18.412324 14.685160 0.000000 0.000000 0.000000 8.327233 -1.338355 9.415441 -4.518547 1.678587 -15.331681 -6.647243 -0.930353 25.587127 10.351448 -5.564176 -22.660125 0.000000 0.000000 0.000000 -0.632463 -26.070175 9.403012 -18.034787 -40.271984 1.474932 37.393668 -79.382061 -25.974162 0.000000 0.000000 0.000000 15.708300 5.426448 1.105547 35.540079 25.014016 1.519275 19.799978 61.236152 13.760998 0.000000 0.000000 0.000000 
-0.033498 0.953512 -0.023986 0.712904 -5.700950 8.414426 8.589199 -0.282643 -8.264993 -5.551565 0.626102 -2.887796 9.073367 18.500799 22.369527 0.000000 0.000000 0.000000 -7.498744 0.842622 -11.182028 4.561906 -0.401845 1.430040 -6.645489 -18.067449 14.142889 0.000000 0.000000 0.000000 7.750319 -1.297195 9.838737 -4.676371 1.714550 -15.080487 -6.794026 -0.098417 25.535533 11.830017 -6.612715 -21.666558 0.000000 0.000000 0.000000 -1.207428 -24.816712 9.077418 -19.335142 -32.681165 0.697988 -39.958172 -84.686298 42.341486 0.000000 0.000000 0.000000 14.896619 5.410496 1.214136 29.544713 28.084484 1.505002 16.528546 67.068376 13.100937 0.000000 0.000000 0.000000 
-0.035861 0.953354 -0.023906 0.604258 -6.152893 8.350478 9.528668 -0.212966 -8.102108 -5.968003 0.674902 -2.831715 9.267416 18.692796 22.640799 0.000000 0.000000 0.000000 -7.241982 0.860065 -11.168003 4.283661 -0.369649 1.406930 -6.491179 -17.859380 14.167514 0.000000 0.000000 0.000000 7.175829 -1.229280 9.887857 -5.349158 1.933784 -14.532701 -7.160738 0.718253 25.339663 13.050665 -7.485785 -20.729168 0.000000 0.000000 0.000000 -0.998841 -23.245638 8.424556 -17.474935 -26.031377 -0.330971 -97.234812 -79.030634 91.816352 0.000000 0.000000 0.000000 11.991706 5.113071 1.338215 22.719515 30.827307 0.956299 -1.512294 76.596117 1.283967 0.000000 0.000000 0.000000 
-0.037587 0.953929 -0.023510 0.370469 -7.038543 8.283133 9.750537 -0.171614 -7.610858 -5.815246 0.667433 -3.104577 9.593129 18.996941 22.966999 0.000000 0.000000 0.000000 -6.635381 0.904989 -11.328115 3.623548 -0.295818 1.478356 -5.835631 -16.868685 14.224048 0.000000 0.000000 0.000000 6.786647 -1.205542 10.275459 -5.469599 1.951061 -14.603121 -7.422687 1.837317 25.083581 14.502022 -8.596877 -19.456046 0.000000 0.000000 0.000000 1.610728 -21.836699 7.363214 -17.667865 -19.471773 -0.942112 -118.152934 -72.448790 107.367358 0.000000 0.000000 0.000000 8.008251 4.721651 1.412499 13.234880 35.108675 -0.355999 -44.227319 79.922414 -34.960175 0.000000 0.000000 0.000000 
-0.038806 0.954093 -0.023040 0.220033 -7.630733 8.408448 9.763059 -0.156425 -7.167168 -5.332573 0.618381 -3.778359 9.459800 18.739230 23.422133 0.000000 0.000000 0.000000 -6.631529 0.934983 -11.631754 3.462816 -0.276172 1.352465 -5.378891 -16.188467 14.320711 0.000000 0.000000 0.000000 6.861047 -1.168080 9.791669 -6.411839 2.257151 -14.226909 -7.693281 3.494444 24.788207 16.145773 -9.854690 -18.186564 0.000000 0.000000 0.000000 3.114822 -20.893596 6.740330 -16.844201 -16.623999 -1.213365 -128.214803 -67.793171 113.930791 0.000000 0.000000 0.000000 4.100294 4.917893 1.700308 4.341541 37.584195 -2.213488 -67.513712 75.882654 -52.267004 0.000000 0.000000 0.000000 
-0.039657 0.954493 -0.023124 0.542065 -7.366325 8.405702 9.442343 -0.183800 -6.986307 -5.362150 0.613785 -4.198743 9.942020 19.368771 24.418610 0.000000 0.000000 0.000000 -6.569760 0.928182 -11.574529 2.830458 -0.216834 1.422418 -5.077588 -15.713740 14.703040 0.000000 0.000000 0.000000 6.946494 -1.205672 10.081147 -7.784072 2.677340 -14.989611 -7.822878 4.309167 25.027540 17.916203 -10.596579 -19.546650 0.000000 0.000000 0.000000 4.150974 -20.731776 6.500998 -17.514435 -16.637506 -1.217419 -137.054927 -67.890391 124.965984 0.000000 0.000000 0.000000 1.019320 5.370776 1.913982 -2.440904 40.448657 -4.059529 -61.539848 71.535992 -43.735612 0.000000 0.000000 0.000000 
-0.040490 0.954433 -0.024107 0.683249 -7.269195 8.317895 9.556463 -0.177667 -6.837511 -5.485329 0.619591 -4.628145 9.480336 18.791300 25.149662 0.000000 0.000000 0.000000 -6.693143 0.946235 -12.063256 2.805954 -0.213255 1.523202 -5.713469 -16.816742 15.053341 0.000000 0.000000 0.000000 7.412757 -1.224885 9.716768 -8.987330 3.070152 -15.017130 -8.395971 5.022848 25.223026 19.556633 -11.049362 -21.497898 0.000000 0.000000 0.000000 3.873346 -20.959332 6.605355 -17.621547 -19.885293 -0.942926 -145.817950 -73.958159 140.725584 0.000000 0.000000 0.000000 -1.151624 6.093168 2.130862 -6.520355 43.764146 -5.606645 -48.485099 70.400630 -32.628878 0.000000 0.000000 0.000000 
-0.041337 0.954418 -0.025615 1.118408 -6.213641 8.148427 9.303370 -0.218913 -7.240446 -5.790248 0.636724 -4.274203 9.108842 18.475361 24.840157 0.000000 0.000000 0.000000 -7.337159 0.877529 -11.706662 3.092668 -0.248071 1.638769 -5.761824 -16.739763 14.877183 0.000000 0.000000 0.000000 7.185733 -1.202015 9.676484 -9.716377 3.337607 -14.927820 -8.686311 5.022654 25.149339 20.410642 -11.311141 -22.285992 0.000000 0.000000 0.000000 2.276148 -22.797122 7.427916 -17.534153 -24.843727 -0.495798 -179.584019 -85.457207 -176.178730 0.000000 0.000000 0.000000 -2.598604 8.121339 2.732921 -7.463286 45.665069 -6.113865 -40.848552 69.753386 -26.415619 0.000000 0.000000 0.000000 
-0.042223 0.954434 -0.027119 1.099736 -5.435377 8.210454 9.627472 -0.224646 -7.546537 -6.023331 0.644874 -4.344830 8.443096 17.757602 25.282668 0.000000 0.000000 0.000000 -7.162476 0.869877 -11.748900 2.887928 -0.231942 1.711529 -6.306026 -17.553992 14.849453 0.000000 0.000000 0.000000 7.184277 -1.138642 8.890462 -10.474971 3.641574 -14.318958 -9.032834 4.695353 25.327097 21.185544 -11.404767 -23.586743 0.000000 0.000000 0.000000 1.810389 -24.112144 7.917522 -18.073015 -29.009626 -0.057062 60.041782 -80.916442 -48.742466 0.000000 0.000000 0.000000 -3.316739 9.212489 3.031594 -8.781511 47.882355 -6.949487 -34.781062 70.872955 -22.456048 0.000000 0.000000 0.000000 
-0.042856 0.953582 -0.027999 1.095059 -5.396186 8.329480 9.761031 -0.222995 -7.682507 -6.168238 0.656602 -4.326621 8.111948 17.336511 24.552545 0.000000 0.000000 0.000000 -7.318362 0.871633 -11.899620 2.893282 -0.229916 1.876939 -6.288550 -17.529638 14.943184 0.000000 0.000000 0.000000 6.831455 -1.095037 8.791199 -11.008978 3.798899 -14.555099 -9.027616 5.077542 25.678419 20.484838 -11.171530 -22.822719 0.000000 0.000000 0.000000 1.113857 -25.367997 8.440183 -17.535746 -31.053288 0.039093 46.134504 -72.849820 -31.760723 0.000000 0.000000 0.000000 -4.827277 9.824914 3.091728 -8.650790 48.091398 -6.856381 -41.152215 72.070140 -27.622528 0.000000 0.000000 0.000000 
-0.043123 0.953442 -0.028105 0.943278 -5.522693 8.656841 10.079171 -0.207738 -8.167068 -6.241150 0.666341 -4.211644 8.407009 17.685995 24.676894 0.000000 0.000000 0.000000 -7.136882 0.890499 -11.952472 3.028568 -0.252589 1.247384 -6.488364 -17.880213 14.997247 0.000000 0.000000 0.000000 6.799742 -1.094735 8.750190 -11.912818 4.081596 -14.672309 -9.231658 4.960424 25.591477 20.959453 -11.397171 -23.084696 0.000000 0.000000 0.000000 0.993880 -26.009216 8.690104 -18.995516 -30.378828 0.186162 39.816031 -69.968484 -25.381612 0.000000 0.000000 0.000000 -6.425838 9.599212 2.911467 -8.072726 48.151878 -6.655271 -55.375301 71.342631 -38.076572 0.000000 0.000000 0.000000 
-0.042907 0.953164 -0.027707 0.793586 -6.010289 9.056280 10.043621 -0.203828 -8.473431 -5.911144 0.639506 -4.481399 8.693312 17.974327 24.926624 0.000000 0.000000 0.000000 -7.018790 0.920938 -12.114643 2.922418 -0.245009 0.814451 -6.230365 -17.534204 15.214552 0.000000 0.000000 0.000000 6.432857 -1.080085 8.985007 -12.226094 4.096689 -15.474446 -9.538366 5.487997 25.995462 21.445957 -11.654750 -23.265436 0.000000 0.000000 0.000000 0.888317 -25.706262 8.612662 -21.304815 -28.451783 0.191001 30.366392 -70.508271 -18.669349 0.000000 0.000000 0.000000 -6.574711 8.448782 2.557698 -8.219752 49.138296 -6.884159 -68.174047 69.622812 -46.789756 0.000000 0.000000 0.000000 
-0.042569 0.952577 -0.027115 0.604021 -6.217324 9.675119 10.246769 -0.194917 -9.067787 -5.680924 0.621576 -4.477053 8.804305 18.074163 24.864690 0.000000 0.000000 0.000000 -7.175308 0.949648 -12.528096 3.223899 -0.278346 0.248586 -6.396470 -17.894140 15.809137 0.000000 0.000000 0.000000 5.893542 -1.021864 8.891743 -12.124219 4.077238 -15.185225 -9.880796 5.498241 25.572985 22.019421 -11.915506 -23.421953 0.000000 0.000000 0.000000 -0.033220 -25.355478 8.697444 -23.962685 -26.219884 0.162090 21.024994 -69.704074 -11.680344 0.000000 0.000000 0.000000 -6.237008 7.651944 2.369387 -6.206622 50.135040 -6.330401 -80.828205 68.137871 -55.672662 0.000000 0.000000 0.000000 
-0.042166 0.952418 -0.026473 0.018632 -6.425716 10.342748 10.747598 -0.160882 -9.645958 -5.269115 0.586924 -4.543653 9.121766 18.427832 25.061429 0.000000 0.000000 0.000000 -6.777017 1.001466 -12.872786 3.364847 -0.295965 -0.463261 -5.900532 -17.196718 16.466783 0.000000 0.000000 0.000000 5.526618 -0.970535 8.607522 -11.962361 4.049537 -14.712237 -10.217192 5.822062 25.346173 22.587042 -12.151196 -23.570376 0.000000 0.000000 0.000000 -1.660076 -24.743460 8.794417 -26.507128 -24.511497 0.076457 14.324977 -65.828813 -6.477421 0.000000 0.000000 0.000000 -4.039160 6.557334 2.164523 -2.683761 52.216522 -5.293668 -88.123658 68.748569 -62.138887 0.000000 0.000000 0.000000 
-0.041923 0.951860 -0.025785 -0.412282 -6.901834 10.785760 11.151799 -0.123432 -9.642267 -5.552903 0.610939 -5.141869 9.920852 19.348001 25.141207 0.000000 0.000000 0.000000 -6.234980 1.087182 -13.639654 3.616345 -0.308139 -0.158447 -6.213943 -17.768877 16.392369 0.000000 0.000000 0.000000 4.968259 -0.934520 8.925750 -11.681973 3.876468 -15.434426 -10.149183 6.022911 26.264653 23.981094 -13.160163 -23.574870 0.000000 0.000000 0.000000 -3.844362 -23.968083 8.938954 -28.554841 -23.878332 0.011141 13.679888 -58.775317 -5.165708 0.000000 0.000000 0.000000 -0.267036 6.769347 2.432745 3.027174 55.088263 -3.404303 -95.319670 72.770322 -72.348525 0.000000 0.000000 0.000000 
-0.041464 0.951839 -0.024888 -1.207025 -7.160388 11.248652 11.872826 -0.058122 -9.928110 -5.275300 0.588916 -5.404759 9.857575 19.208610 25.643835 0.000000 0.000000 0.000000 -5.595615 1.142677 -13.800027 3.944832 -0.336739 -1.107151 -6.234657 -17.949254 17.390896 0.000000 0.000000 0.000000 4.749041 -0.889478 8.552621 -11.175358 3.800497 -14.211676 -10.389082 5.824532 25.200090 24.880265 -13.429009 -24.173241 0.000000 0.000000 0.000000 -6.082467 -23.581621 9.214285 -30.392483 -22.927005 -0.000639 13.220117 -51.063522 -4.121998 0.000000 0.000000 0.000000 3.795462 7.534903 2.914405 14.717608 56.245533 1.696816 -92.157850 81.318802 -77.441176 0.000000 0.000000 0.000000 
-0.040668 0.951120 -0.023769 -1.496286 -7.613421 10.986840 12.078620 -0.025224 -9.541384 -5.630490 0.624671 -5.342440 10.149704 19.514705 25.459563 0.000000 0.000000 0.000000 -5.536796 1.144935 -13.697028 4.463587 -0.368929 -0.748935 -6.563345 -18.513961 17.411909 0.000000 0.000000 0.000000 3.974309 -0.817427 8.950071 -10.934825 3.682331 -14.601582 -9.967866 5.889503 25.986852 26.380583 -14.418855 -24.457446 0.000000 0.000000 0.000000 -7.583369 -23.383538 9.447561 -30.888525 -23.274147 0.020852 14.384575 -43.951387 -3.919891 0.000000 0.000000 0.000000 8.392348 8.144257 3.380540 24.828861 54.073683 5.581357 8.971530 87.531691 14.565067 0.000000 0.000000 0.000000 
-0.039360 0.951532 -0.022610 -1.507696 -7.484525 10.837464 12.187879 -0.018296 -9.504552 -5.906928 0.650228 -5.021454 9.894061 19.223178 25.265930 0.000000 0.000000 0.000000 -5.508732 1.102094 -13.101461 4.164546 -0.351228 -1.506877 -6.787002 -18.865788 17.802099 0.000000 0.000000 0.000000 3.711071 -0.767673 8.677414 -10.872112 3.694954 -14.223828 -9.662817 5.678933 26.154409 26.131113 -14.229995 -24.693085 0.000000 0.000000 0.000000 -7.843970 -23.121406 9.404229 -30.334023 -24.172913 0.148427 13.844786 -40.117556 -3.363103 0.000000 0.000000 0.000000 11.765924 8.307091 3.593416 31.815452 49.165885 7.059720 52.502908 79.802402 50.373420 0.000000 0.000000 0.000000 
-0.037715 0.951330 -0.021726 -1.471362 -6.790227 10.689010 11.711950 -0.074680 -9.562557 -5.784240 0.631173 -4.965927 9.730375 19.123643 24.811371 0.000000 0.000000 0.000000 -5.537406 1.050032 -12.538935 3.780427 -0.335652 -2.202397 -6.866325 -18.965993 18.748921 0.000000 0.000000 0.000000 3.769656 -0.740043 8.104511 -10.559358 3.640989 -13.758258 -9.063041 4.977559 26.270587 25.340545 -13.925420 -24.341432 0.000000 0.000000 0.000000 -9.048071 -22.840676 9.545713 -29.301819 -24.577352 0.140348 13.338384 -40.610827 -3.213016 0.000000 0.000000 0.000000 13.512462 7.988901 3.447522 34.833584 43.945789 6.516715 57.175312 74.678937 50.243211 0.000000 0.000000 0.000000 
-0.036011 0.951055 -0.021508 -1.191222 -6.741703 10.537489 11.358635 -0.099900 -9.429199 -6.001612 0.651679 -4.806658 10.003022 19.473014 24.831886 0.000000 0.000000 0.000000 -5.792207 1.022438 -12.321799 3.816942 -0.339379 -2.382886 -7.844782 -20.437444 19.033029 0.000000 0.000000 0.000000 3.922026 -0.755833 8.138145 -10.405097 3.524548 -14.654041 -8.753190 5.215014 27.268856 25.220326 -13.524722 -25.543500 0.000000 0.000000 0.000000 -8.925377 -22.551694 9.391280 -28.362041 -25.373120 0.145323 13.833225 -43.441150 -3.664241 0.000000 0.000000 0.000000 14.254056 7.500013 3.276280 34.462896 40.595632 5.292818 56.029473 73.877537 48.577802 0.000000 0.000000 0.000000 
-0.034548 0.950715 -0.022076 -1.006026 -5.936111 10.685282 10.988367 -0.156064 -9.833608 -5.722271 0.621322 -4.395119 9.333170 18.754446 23.959013 0.000000 0.000000 0.000000 -6.051060 0.982089 -12.023834 3.760782 -0.346188 -2.879323 -8.065654 -20.667129 19.222712 0.000000 0.000000 0.000000 4.369717 -0.804406 7.996832 -10.125808 3.433992 -14.763104 -8.076426 5.179832 27.290436 24.420008 -12.835392 -25.912196 0.000000 0.000000 0.000000 -8.670320 -22.485371 9.247800 -27.679944 -26.274702 0.284795 11.202441 -48.476902 -3.017074 0.000000 0.000000 0.000000 14.057165 7.206840 3.203585 33.538776 39.611156 4.775778 48.086177 74.217725 42.221835 0.000000 0.000000 0.000000 
-0.033375 0.950212 -0.023138 -0.669657 -5.148811 10.973906 10.703420 -0.206323 -10.421080 -5.583073 0.600443 -4.241358 8.740411 18.108557 23.533146 0.000000 0.000000 0.000000 -6.472939 0.967795 -12.291236 4.076928 -0.372907 -2.851919 -8.887378 -21.793794 19.062259 0.000000 0.000000 0.000000 5.275991 -0.898764 7.788020 -10.068530 3.454390 -14.370676 -7.588000 4.912673 26.971985 23.975302 -12.269549 -26.526675 0.000000 0.000000 0.000000 -8.423465 -22.596370 9.220483 -26.886677 -26.248285 0.248779 7.846337 -55.733835 -1.798085 0.000000 0.000000 0.000000 13.194612 7.639974 3.410041 32.895314 41.454667 5.180184 33.324995 74.111888 30.265581 0.000000 0.000000 0.000000 
-0.032506 0.950162 -0.024101 -0.538459 -4.546454 11.067590 10.495197 -0.242551 -10.680694 -5.252221 0.571799 -3.550077 8.438120 17.797790 22.965385 0.000000 0.000000 0.000000 -6.970539 0.927567 -12.128596 4.171453 -0.385714 -2.938049 -8.625883 -21.333316 19.705685 0.000000 0.000000 0.000000 6.035089 -0.984559 7.731990 -9.710900 3.326713 -14.633609 -6.567966 5.791998 27.345473 23.046689 -11.349092 -27.293312 0.000000 0.000000 0.000000 -8.664559 -22.910972 9.220400 -25.625244 -26.727483 0.212935 2.010046 -61.368811 1.180679 0.000000 0.000000 0.000000 13.314642 8.706676 4.167331 31.794840 43.896234 5.526249 15.407892 71.303544 15.820060 0.000000 0.000000 0.000000 
-0.032004 0.950164 -0.024577 -0.162275 -4.318311 11.008828 9.995187 -0.287012 -10.735127 -4.937578 0.540615 -3.655301 8.381835 17.768781 23.370589 0.000000 0.000000 0.000000 -7.467940 0.906473 -12.299898 4.253650 -0.393471 -2.774400 -8.883321 -21.683218 19.568037 0.000000 0.000000 0.000000 6.956428 -1.085571 7.730750 -9.696483 3.324053 -14.685213 -5.557768 6.370680 27.162826 21.843087 -10.344219 -27.775336 0.000000 0.000000 0.000000 -8.135821 -22.967321 9.056845 -23.995582 -27.148723 0.158332 -2.169526 -68.943873 4.022363 0.000000 0.000000 0.000000 12.456988 9.635280 4.669630 32.518544 46.556532 6.623774 6.114672 65.610248 8.309435 0.000000 0.000000 0.000000 
-0.031858 0.950430 -0.024578 -0.046351 -4.021885 10.962494 9.979741 -0.295717 -10.604444 -4.684964 0.515524 -3.693582 8.585171 18.067650 23.379723 0.000000 0.000000 0.000000 -7.510861 0.891680 -12.204052 3.994789 -0.378093 -2.383971 -8.213760 -20.654264 19.649940 0.000000 0.000000 0.000000 7.987836 -1.190237 7.658304 -9.054247 3.087487 -15.316597 -5.008142 7.417402 27.455265 20.351301 -9.236159 -28.004267 0.000000 0.000000 0.000000 -7.026520 -22.749905 8.647274 -21.246522 -28.941860 0.099771 0.283345 -76.546697 2.250738 0.000000 0.000000 0.000000 12.003783 10.710406 5.333703 31.441087 48.432624 6.875758 2.364816 60.266368 5.328293 0.000000 0.000000 0.000000 
-0.032268 0.950450 -0.024080 0.406504 -3.655791 10.609220 9.528618 -0.333334 -10.351119 -4.304202 0.480309 -3.463835 8.268003 17.722708 23.448207 0.000000 0.000000 0.000000 -8.174296 0.834568 -11.887651 3.987149 -0.380748 -2.097393 -8.029863 -20.310357 19.142789 0.000000 0.000000 0.000000 8.423349 -1.167119 7.085225 -8.710623 2.964513 -15.798956 -3.900228 7.858881 27.815131 19.792544 -8.680603 -28.615455 0.000000 0.000000 0.000000 -4.771804 -22.409640 8.142817 -19.243484 -31.985899 0.124374 39.357514 -83.088257 -32.551720 0.000000 0.000000 0.000000 11.576512 11.547785 5.774863 30.829604 49.697035 7.070767 2.277493 56.051291 4.763840 0.000000 0.000000 0.000000 
-0.033058 0.951036 -0.023379 0.462201 -3.049297 10.217677 9.505760 -0.344279 -9.917405 -4.188442 0.464660 -3.708263 8.022826 17.494552 23.381850 0.000000 0.000000 0.000000 -8.278145 0.791646 -11.415152 4.001208 -0.386202 -1.550107 -7.943032 -20.080042 18.399110 0.000000 0.000000 0.000000 8.897520 -1.202411 7.005996 -7.729870 2.672247 -15.861546 -3.806734 7.995238 27.485551 18.510487 -7.864812 -28.458305 0.000000 0.000000 0.000000 -1.613326 -22.189651 7.619768 -14.810032 -37.378868 -0.288773 93.164772 -76.889701 -77.424646 0.000000 0.000000 0.000000 11.822143 11.771909 5.990435 29.503693 49.060390 6.438344 4.303641 54.828552 5.617119 0.000000 0.000000 0.000000 
-0.034066 0.951384 -0.022614 0.514796 -2.426029 9.868348 9.425690 -0.359523 -9.840904 -3.975050 0.442067 -3.268585 7.641337 17.088214 23.093637 0.000000 0.000000 0.000000 -8.212438 0.753572 -10.822745 3.388781 -0.342625 -1.595368 -7.708828 -19.644341 18.684172 0.000000 0.000000 0.000000 8.794279 -1.144097 6.624975 -6.829249 2.412685 -15.873310 -3.561404 7.253900 27.466646 17.474421 -7.445727 -27.952268 0.000000 0.000000 0.000000 1.043960 -21.903681 7.211014 -9.673844 -43.593130 -1.419450 96.804427 -65.859203 -69.612526 0.000000 0.000000 0.000000 11.631372 12.020684 6.004274 29.162532 47.071969 5.785950 7.084330 56.023291 7.129384 0.000000 0.000000 0.000000 
-0.034881 0.951925 -0.021676 0.414112 -2.024058 9.463970 9.413318 -0.362240 -9.954439 -4.175573 0.456977 -2.728900 7.872795 17.444728 23.205143 0.000000 0.000000 0.000000 -8.099734 0.727023 -10.388209 3.593722 -0.358562 -1.010409 -7.666007 -19.501513 17.766907 0.000000 0.000000 0.000000 8.657677 -1.155254 6.916198 -5.764043 2.096479 -16.033826 -3.509654 6.542458 27.061175 16.269655 -6.909967 -27.396313 0.000000 0.000000 0.000000 3.396949 -22.143508 6.992714 -5.228010 -47.953936 -2.881085 93.808528 -58.084537 -58.845159 0.000000 0.000000 0.000000 12.134963 11.664818 5.826607 29.131702 44.078951 4.980623 12.205750 58.132685 10.260046 0.000000 0.000000 0.000000 
-0.035504 0.951546 -0.020523 0.557329 -1.403840 9.318570 9.283017 -0.383488 -9.842402 -4.404923 0.471204 -2.739585 7.652934 17.253491 23.233728 0.000000 0.000000 0.000000 -8.269597 0.681801 -9.689225 3.726393 -0.378626 -1.384538 -7.744810 -19.547152 18.022418 0.000000 0.000000 0.000000 8.781060 -1.131212 6.595730 -5.730049 2.104355 -15.904763 -3.775924 4.890047 27.221028 15.248078 -6.660806 -26.774138 0.000000 0.000000 0.000000 4.712773 -22.345160 6.858395 -2.096958 -51.614184 -4.097665 85.016640 -53.710595 -47.189492 0.000000 0.000000 0.000000 12.023488 11.088601 5.321247 29.552330 40.957203 4.277241 18.405675 61.726491 14.625161 0.000000 0.000000 0.000000 
-0.035743 0.951350 -0.019200 0.834067 -0.663589 9.212156 9.199600 -0.404731 -9.617185 -4.812928 0.496670 -3.019759 7.339745 16.989847 23.798497 0.000000 0.000000 0.000000 -8.793263 0.629850 -9.166753 4.252144 -0.432742 -1.756796 -8.272048 -20.273556 18.276774 0.000000 0.000000 0.000000 8.877592 -1.089436 6.142446 -5.503468 2.069643 -15.327265 -4.492403 3.509264 26.776342 14.667969 -6.698949 -25.590929 0.000000 0.000000 0.000000 4.310455 -23.222580 7.173972 -3.836555 -53.096981 -3.351435 75.956340 -55.362387 -41.698672 0.000000 0.000000 0.000000 12.399212 9.436826 4.410956 30.921807 38.631638 4.049955 25.558844 65.075596 20.265079 0.000000 0.000000 0.000000 
-0.035753 0.951164 -0.017650 0.963720 -0.338189 9.103366 9.107958 -0.412042 -9.258224 -5.115105 0.511488 -3.632740 7.316822 17.017656 24.026295 0.000000 0.000000 0.000000 -9.104170 0.598404 -8.666415 4.498123 -0.457473 -1.751207 -8.497638 -20.576454 18.461765 0.000000 0.000000 0.000000 9.284194 -1.094916 5.883424 -5.582816 2.100377 -15.403098 -5.082673 2.223793 27.175973 14.295842 -6.797243 -25.082574 0.000000 0.000000 0.000000 1.857728 -24.067937 7.865640 -7.973766 -53.085022 -1.568320 62.820428 -59.622356 -35.423064 0.000000 0.000000 0.000000 13.470292 7.860785 3.530490 31.942727 37.420447 3.894990 31.086300 68.825054 25.581770 0.000000 0.000000 0.000000 
-0.035618 0.951051 -0.016170 1.296701 0.035055 9.222731 8.636437 -0.448845 -9.290704 -5.386084 0.524391 -3.853731 6.860645 16.521608 24.249537 0.000000 0.000000 0.000000 -9.922187 0.563246 -8.398116 4.907519 -0.495332 -2.315534 -9.302047 -21.728760 19.539286 0.000000 0.000000 0.000000 9.692036 -1.022477 4.944777 -5.936487 2.249194 -14.414396 -5.758859 1.005275 27.114370 14.300237 -6.918931 -25.163156 0.000000 0.000000 0.000000 -0.749706 -24.664229 8.603119 -12.876684 -50.880088 0.370078 47.854329 -63.450672 -27.343418 0.000000 0.000000 0.000000 13.462635 6.258320 2.560315 32.753366 36.890894 3.936427 35.056558 74.154935 31.193038 0.000000 0.000000 0.000000 
-0.035651 0.951044 -0.014662 1.337060 -0.579095 9.363365 8.522607 -0.433137 -8.679903 -5.611542 0.538334 -4.594013 7.443107 17.151044 24.194753 0.000000 0.000000 0.000000 -10.162079 0.579718 -8.556127 5.134931 -0.505005 -2.592089 -9.099909 -21.487882 19.721751 0.000000 0.000000 0.000000 9.522482 -0.991859 4.822360 -5.419491 2.067723 -14.547852 -6.675748 0.613984 27.325238 14.434600 -7.168159 -24.907974 0.000000 0.000000 0.000000 -2.769829 -24.149466 8.879758 -17.211937 -46.727866 1.527616 34.611282 -67.791058 -20.043920 0.000000 0.000000 0.000000 13.167977 5.120416 1.866804 31.868497 37.428816 3.844731 38.078349 79.987965 36.912190 0.000000 0.000000 0.000000 
-0.035976 0.950836 -0.013280 1.360803 -1.304911 9.546153 8.396022 -0.424200 -8.478120 -5.554859 0.539865 -4.892412 7.419235 17.017686 24.117286 0.000000 0.000000 0.000000 -10.241570 0.605300 -8.582369 5.043369 -0.485756 -3.122493 -8.980454 -21.393426 19.544019 0.000000 0.000000 0.000000 9.558518 -0.856967 3.698062 -5.763139 2.178625 -13.996948 -6.843911 0.929489 27.958803 14.833771 -7.416014 -25.178751 0.000000 0.000000 0.000000 -4.215989 -23.210989 8.832731 -19.706598 -43.018626 1.737520 26.441918 -72.502533 -15.644465 0.000000 0.000000 0.000000 12.718656 4.528059 1.563863 30.135342 38.611308 3.662042 18.690574 86.941188 22.828746 0.000000 0.000000 0.000000 
-0.036559 0.950743 -0.012209 1.362598 -2.414686 9.891233 8.613103 -0.393766 -8.241711 -5.904361 0.570130 -5.499108 8.008429 17.603305 24.289668 0.000000 0.000000 0.000000 -10.407619 0.649560 -9.088221 4.952695 -0.463281 -3.474908 -8.781216 -21.223497 19.475524 0.000000 0.000000 0.000000 9.259571 -0.772574 3.155784 -5.527152 2.091892 -13.472546 -7.083598 1.603370 27.619569 15.120919 -7.728661 -24.362442 0.000000 0.000000 0.000000 -3.918220 -21.907266 8.289901 -21.965729 -39.952485 1.868480 27.138535 -76.633559 -17.279780 0.000000 0.000000 0.000000 12.218298 3.833513 1.237911 28.711808 40.710834 3.801470 -84.816714 87.071272 -76.451038 0.000000 0.000000 0.000000 
-0.037202 0.950099 -0.011769 1.273826 -3.129000 10.019743 8.986439 -0.359555 -7.775304 -6.175613 0.585489 -6.301132 8.242706 17.801217 24.567283 0.000000 0.000000 0.000000 -10.190223 0.682684 -9.268977 4.660045 -0.434522 -3.731798 -8.322824 -20.618725 19.074600 0.000000 0.000000 0.000000 9.274077 -0.733315 2.821893 -5.832602 2.178313 -13.416913 -6.839479 2.063413 28.128371 15.102018 -7.919759 -23.657516 0.000000 0.000000 0.000000 -3.990500 -20.623617 7.828566 -23.674980 -38.834696 2.007377 36.821717 -79.691498 -26.234714 0.000000 0.000000 0.000000 11.823587 3.556216 1.124983 28.484735 42.908457 4.181697 -109.879364 84.270892 -98.565949 0.000000 0.000000 0.000000 
-0.037688 0.949610 -0.012200 1.071134 -3.897390 10.362915 9.275837 -0.338642 -8.293499 -6.079364 0.596596 -5.966161 8.707333 18.279515 25.127852 0.000000 0.000000 0.000000 -9.935476 0.727326 -9.724965 4.456604 -0.412470 -3.784036 -8.033428 -20.278972 19.091669 0.000000 0.000000 0.000000 9.320987 -0.760861 2.968488 -6.068183 2.229562 -13.604370 -6.483270 2.614654 27.922981 15.239776 -7.863665 -24.093181 0.000000 0.000000 0.000000 -4.846267 -19.974807 7.728275 -24.906405 -38.234734 2.147219 48.615551 -80.213823 -36.573343 0.000000 0.000000 0.000000 12.216732 3.510782 1.103560 29.453561 44.483699 4.852835 -96.592136 83.713347 -84.390752 0.000000 0.000000 0.000000 
-0.038154 0.949273 -0.013199 0.639761 -4.207692 10.508947 9.896311 -0.300579 -8.745387 -6.121761 0.611121 -5.527711 8.744345 18.272490 24.745586 0.000000 0.000000 0.000000 -9.413689 0.763674 -10.269790 4.297463 -0.399225 -3.462006 -7.967199 -20.223572 18.737687 0.000000 0.000000 0.000000 9.587802 -0.801139 3.126637 -6.296030 2.295082 -13.591643 -5.969436 2.676940 27.775036 15.140031 -7.789768 -24.220879 0.000000 0.000000 0.000000 -6.109638 -19.597050 7.804136 -26.372564 -38.514375 2.507336 52.599258 -79.650977 -39.507390 0.000000 0.000000 0.000000 13.121843 4.209298 1.397786 31.777708 45.219815 5.775273 -58.793497 85.034333 -48.948671 0.000000 0.000000 0.000000 
-0.038930 0.948858 -0.014459 0.614947 -3.900470 10.737518 10.156380 -0.298897 -9.401415 -6.051488 0.611928 -4.848831 8.389948 17.863110 24.335076 0.000000 0.000000 0.000000 -9.337178 0.767353 -10.485380 4.208269 -0.396530 -3.350082 -7.713201 -19.799751 18.540702 0.000000 0.000000 0.000000 9.702088 -0.802000 2.983188 -6.372267 2.333972 -13.311047 -5.861210 2.668467 27.462910 14.952590 -7.632658 -24.222453 0.000000 0.000000 0.000000 -7.968540 -20.206883 8.332486 -26.958447 -39.304077 2.800050 43.858797 -77.819960 -30.973181 0.000000 0.000000 0.000000 14.728995 4.720575 1.655711 35.488070 44.293663 6.726260 -6.163049 83.444249 0.027061 0.000000 0.000000 0.000000 
-0.040345 0.948653 -0.015609 0.324333 -3.791014 10.726175 10.783139 -0.260756 -9.743824 -6.260120 0.630694 -4.615857 8.418713 17.904279 24.059641 0.000000 0.000000 0.000000 -9.004245 0.779792 -10.690554 4.264637 -0.400833 -3.130835 -7.873024 -20.032982 18.311516 0.000000 0.000000 0.000000 9.981338 -0.830262 3.043323 -6.499347 2.387448 -13.012836 -5.452319 2.576898 27.149765 15.114359 -7.742994 -24.170881 0.000000 0.000000 0.000000 -9.522065 -20.754349 8.827509 -28.148316 -39.903830 3.220338 34.606806 -75.944383 -22.474033 0.000000 0.000000 0.000000 16.603029 5.348618 1.942318 39.077846 42.772209 7.384924 15.317115 78.423949 17.648025 0.000000 0.000000 0.000000 
-0.042386 0.948185 -0.016955 0.330754 -3.294780 10.725469 11.187358 -0.249517 -10.111883 -6.370981 0.640136 -4.177636 8.243657 17.742321 23.797748 0.000000 0.000000 0.000000 -8.878739 0.771101 -10.699449 4.314163 -0.409393 -3.131297 -8.128502 -20.372975 18.478886 0.000000 0.000000 0.000000 10.120296 -0.834618 2.951460 -6.493237 2.400105 -12.826499 -5.418567 2.297005 27.136825 14.764023 -7.630054 -23.742793 0.000000 0.000000 0.000000 -10.403043 -21.505733 9.304589 -28.391073 -40.402715 3.398025 27.031255 -73.921075 -15.911940 0.000000 0.000000 0.000000 17.579257 5.769781 2.161807 42.349288 40.889592 7.685619 21.836423 73.364658 21.137357 0.000000 0.000000 0.000000 
-0.044844 0.947935 -0.018561 0.150075 -3.151433 10.612085 11.726518 -0.214292 -10.191481 -6.286253 0.638581 -3.809038 8.122681 17.600219 23.580613 0.000000 0.000000 0.000000 -8.400741 0.783502 -10.780311 4.495045 -0.423250 -2.547162 -8.049604 -20.233828 18.007669 0.000000 0.000000 0.000000 10.203263 -0.861299 3.133472 -6.253789 2.326829 -12.723282 -5.336610 1.961764 26.833218 14.636139 -7.569661 -23.719676 0.000000 0.000000 0.000000 -10.357751 -21.968556 9.535552 -28.475459 -40.772258 3.548411 24.240300 -71.672435 -13.214917 0.000000 0.000000 0.000000 17.779612 6.044891 2.241895 44.584957 39.441353 7.807241 23.865352 69.448917 21.069642 0.000000 0.000000 0.000000 
-0.047277 0.947678 -0.020603 -0.068299 -2.947014 10.551115 12.233254 -0.179468 -10.512689 -6.359760 0.650499 -3.395113 8.101235 17.605502 23.861144 0.000000 0.000000 0.000000 -8.176230 0.789946 -10.918888 4.817226 -0.449302 -2.288011 -8.093718 -20.281896 17.854516 0.000000 0.000000 0.000000 10.586325 -0.877720 3.061368 -6.628671 2.464622 -12.544829 -5.149041 1.526891 26.978582 14.024174 -7.274016 -23.617628 0.000000 0.000000 0.000000 -9.875313 -22.373828 9.678935 -27.605833 -41.183088 3.437427 25.345616 -70.395367 -13.682972 0.000000 0.000000 0.000000 17.339071 6.652337 2.487172 45.046702 39.070435 7.782830 21.132210 66.918048 18.111571 0.000000 0.000000 0.000000 
-0.049309 0.947645 -0.022973 -0.224863 -2.856681 10.614006 12.526269 -0.159297 -10.735754 -6.396228 0.656904 -3.176809 8.071300 17.563481 23.377860 0.000000 0.000000 0.000000 -8.183292 0.810109 -11.564712 5.261837 -0.487615 -1.628824 -7.902786 -19.988189 18.051066 0.000000 0.000000 0.000000 10.460440 -0.838120 2.794492 -6.612298 2.465811 -12.394600 -4.762520 1.473328 26.998204 13.442947 -6.958861 -23.413892 0.000000 0.000000 0.000000 -9.054669 -22.835527 9.716868 -25.451340 -41.984035 3.068168 31.542322 -68.707729 -17.687943 0.000000 0.000000 0.000000 16.909294 6.709884 2.519860 44.179657 39.341240 7.644318 16.314773 65.820991 14.504918 0.000000 0.000000 0.000000 
-0.050755 0.947639 -0.025252 -0.281166 -2.734094 10.484795 12.608733 -0.151751 -10.813389 -6.549334 0.671767 -3.051701 8.264552 17.823831 23.313489 0.000000 0.000000 0.000000 -8.244415 0.812396 -11.911091 5.372159 -0.503732 -0.931473 -7.577805 -19.453214 17.399785 0.000000 0.000000 0.000000 10.477407 -0.877033 3.115162 -6.454008 2.415207 -12.411149 -4.745566 1.565620 26.810846 13.134904 -6.734649 -23.411233 0.000000 0.000000 0.000000 -7.564147 -22.431793 9.230350 -24.025056 -43.099172 2.914735 41.168140 -67.824889 -24.141709 0.000000 0.000000 0.000000 16.220812 7.385784 2.907098 41.492511 40.777135 7.450258 8.845730 65.154209 9.439356 0.000000 0.000000 0.000000 
-0.051564 0.947701 -0.027231 -0.203764 -2.716516 10.264650 12.457056 -0.160860 -10.613346 -6.663963 0.677303 -3.253357 8.522113 18.162122 23.674597 0.000000 0.000000 0.000000 -8.516216 0.796584 -11.986367 5.660987 -0.529588 -0.933922 -7.261926 -18.980323 18.196039 0.000000 0.000000 0.000000 10.231353 -0.868430 3.249019 -6.713690 2.502282 -12.533766 -4.491498 1.971137 27.014545 12.730589 -6.585846 -22.672652 0.000000 0.000000 0.000000 -5.355604 -22.098096 8.629777 -22.677474 -44.040454 2.692503 51.799374 -66.675567 -31.223242 0.000000 0.000000 0.000000 14.594762 7.866847 3.220920 38.251594 42.543181 7.107547 -2.851972 65.369021 2.029744 0.000000 0.000000 0.000000 
-0.051849 0.947903 -0.028628 -0.035753 -3.133414 10.041314 12.145875 -0.168153 -10.239162 -6.664017 0.684710 -3.231043 8.532826 18.113982 23.098063 0.000000 0.000000 0.000000 -8.931937 0.786657 -12.092543 6.057892 -0.564658 -0.452573 -6.928232 -18.498093 18.045421 0.000000 0.000000 0.000000 9.861755 -0.875467 3.599580 -6.847662 2.519506 -13.085515 -4.325373 2.689899 27.253969 13.125390 -6.747045 -22.776900 0.000000 0.000000 0.000000 -2.999686 -21.165178 7.816759 -22.524764 -43.885415 2.592600 62.459802 -66.550092 -39.045513 0.000000 0.000000 0.000000 12.657145 8.387141 3.511411 33.253660 45.100524 6.346550 -15.140745 66.009057 -5.878044 0.000000 0.000000 0.000000 
-0.051695 0.948187 -0.029536 0.251738 -3.488856 10.159496 11.607124 -0.199246 -10.040832 -6.685070 0.686756 -3.449578 8.948587 18.601521 23.272871 0.000000 0.000000 0.000000 -9.576292 0.780228 -12.578195 6.306706 -0.581741 -0.407112 -6.698462 -18.198247 18.326822 0.000000 0.000000 0.000000 9.783219 -0.795113 2.998338 -7.162675 2.626657 -12.912087 -4.497850 3.854661 27.404434 13.519509 -6.801271 -23.026087 0.000000 0.000000 0.000000 -1.390746 -20.262757 7.167516 -22.902091 -43.255551 2.521801 71.295294 -67.745491 -47.075987 0.000000 0.000000 0.000000 9.491059 8.383405 3.514446 28.862465 49.144939 6.008653 -31.931368 64.526003 -16.160818 0.000000 0.000000 0.000000 
-0.051402 0.948386 -0.029981 0.649140 -3.553044 9.773072 11.229439 -0.219826 -9.602755 -6.943882 0.711010 -3.454555 9.057297 18.736316 22.992633 0.000000 0.000000 0.000000 -10.149632 0.740554 -12.347614 6.409482 -0.592980 -0.286325 -6.390534 -17.717443 18.391978 0.000000 0.000000 0.000000 9.571946 -0.787905 3.164369 -7.349936 2.681251 -13.224499 -4.659450 4.952393 27.493555 14.482686 -7.344690 -22.592259 0.000000 0.000000 0.000000 -0.248788 -20.007726 6.858641 -24.218844 -42.323542 2.641447 76.646212 -69.397888 -53.162552 0.000000 0.000000 0.000000 6.447285 8.449198 3.474536 21.799178 54.341633 4.512262 -47.035138 60.278104 -23.821545 0.000000 0.000000 0.000000 
-0.051171 0.948747 -0.030266 0.969034 -3.579283 9.436293 11.005969 -0.226681 -9.510368 -7.556660 0.776935 -3.129406 8.932005 18.583779 23.538131 0.000000 0.000000 0.000000 -10.433726 0.715694 -12.124748 6.202553 -0.573683 -0.371746 -6.431891 -17.835606 19.197692 0.000000 0.000000 0.000000 9.447768 -0.726792 2.826843 -7.848894 2.885811 -12.622412 -5.167400 5.938245 27.306646 15.283322 -7.758047 -22.397391 0.000000 0.000000 0.000000 -0.206445 -20.206462 6.870440 -25.407580 -40.727133 2.598340 77.148566 -73.138469 -57.243776 0.000000 0.000000 0.000000 3.557922 8.063292 3.172156 13.692837 59.773433 1.800140 -58.222111 54.253161 -27.170398 0.000000 0.000000 0.000000 
-0.050953 0.948753 -0.030463 1.027231 -3.745561 9.127159 10.951403 -0.218945 -9.337403 -7.643039 0.793946 -2.959849 8.964793 18.607237 23.503992 0.000000 0.000000 0.000000 -10.458592 0.707583 -11.740571 6.213826 -0.572781 -0.373950 -6.157925 -17.416392 19.032399 0.000000 0.000000 0.000000 9.145941 -0.733579 3.133730 -8.082467 2.950492 -12.956909 -5.473496 6.806476 27.448781 16.630609 -8.526196 -22.420180 0.000000 0.000000 0.000000 -0.218756 -20.464661 6.923195 -27.188098 -39.160063 2.660634 69.536698 -77.607864 -54.580538 0.000000 0.000000 0.000000 0.862879 7.783001 2.867173 1.639797 64.175774 -4.173689 -65.126123 45.987115 -25.852593 0.000000 0.000000 0.000000 
-0.050746 0.949342 -0.030682 1.019421 -3.766167 9.013880 11.332305 -0.190150 -9.437314 -7.914910 0.830627 -2.668545 8.473711 17.996272 24.175048 0.000000 0.000000 0.000000 -10.369332 0.707746 -11.609697 5.884195 -0.542268 -0.477354 -6.151563 -17.465428 19.764025 0.000000 0.000000 0.000000 8.965458 -0.750774 3.406247 -8.319757 3.033674 -12.935340 -6.393377 7.132468 27.216184 17.955107 -9.436088 -22.129779 0.000000 0.000000 0.000000 0.149736 -21.091706 7.068413 -28.456858 -37.592009 2.620787 50.574393 -81.111706 -40.444324 0.000000 0.000000 0.000000 -2.020985 7.319787 2.450910 -11.146111 66.549890 -11.652073 -69.091044 38.683551 -23.065551 0.000000 0.000000 0.000000 
-0.050403 0.949910 -0.030869 0.693223 -3.940560 8.781093 11.572988 -0.165417 -9.184281 -7.817681 0.817542 -2.885066 8.624519 18.164335 24.337009 0.000000 0.000000 0.000000 -9.679509 0.733373 -11.392906 5.663045 -0.519587 -0.560460 -5.977475 -17.232625 19.792092 0.000000 0.000000 0.000000 8.433423 -0.780433 4.042941 -8.553408 3.100066 -13.159096 -6.733056 7.097494 27.341961 18.687421 -9.924320 -22.242964 0.000000 0.000000 0.000000 0.085910 -21.749131 7.299890 -30.409654 -35.968030 2.663097 12.378905 -83.193579 -7.328911 0.000000 0.000000 0.000000 -3.863454 6.340853 1.974489 -23.444374 68.101027 -19.718286 -70.602655 32.914186 -19.970349 0.000000 0.000000 0.000000 
-0.049888 0.950784 -0.030968 0.397058 -4.436581 8.778952 11.787587 -0.135760 -9.037583 -7.689998 0.802672 -3.264481 8.832740 18.361216 24.652326 0.000000 0.000000 0.000000 -9.189412 0.764551 -11.250271 5.476157 -0.493171 -0.933145 -6.004053 -17.341669 19.751116 0.000000 0.000000 0.000000 7.959914 -0.830381 4.835565 -8.699174 3.145437 -13.074157 -7.434614 6.909994 26.777044 19.162542 -10.463474 -21.559384 0.000000 0.000000 0.000000 0.189132 -21.944426 7.374955 -31.909507 -34.895705 2.757675 -19.109355 -81.288691 20.208852 0.000000 0.000000 0.000000 -4.767174 5.630731 1.707885 -30.606720 68.017543 -24.359149 -72.726187 29.378676 -18.428049 0.000000 0.000000 0.000000 
-0.049234 0.951184 -0.031145 -0.042338 -4.777034 8.875042 12.253623 -0.095080 -8.998203 -8.029260 0.841575 -3.265874 8.846146 18.326674 24.124969 0.000000 0.000000 0.000000 -8.550259 0.810890 -11.574590 5.485911 -0.489585 -0.795928 -6.012998 -17.395210 19.521610 0.000000 0.000000 0.000000 7.279523 -0.838527 5.419418 -8.896465 3.197251 -13.186509 -7.730742 6.183880 26.598268 19.120399 -10.605774 -21.290026 0.000000 0.000000 0.000000 -0.131223 -22.334634 7.598618 -32.901446 -33.857873 2.757023 -33.047126 -79.225292 31.643285 0.000000 0.000000 0.000000 -4.550890 4.160843 1.307198 -31.476671 68.538972 -25.530989 -76.478354 29.439669 -19.814127 0.000000 0.000000 0.000000 
-0.048449 0.951688 -0.031413 -0.457740 -5.159884 9.084202 12.393256 -0.078162 -8.844957 -7.811449 0.815387 -3.648562 8.991148 18.452860 23.462092 0.000000 0.000000 0.000000 -7.637789 0.866073 -11.720371 5.126545 -0.453198 -1.029279 -6.273849 -17.844795 19.357310 0.000000 0.000000 0.000000 6.488059 -0.847458 6.187124 -9.011258 3.216554 -13.330311 -7.978033 5.197407 26.665109 18.701364 -10.728389 -20.404924 0.000000 0.000000 0.000000 -0.724249 -22.049276 7.664995 -33.166778 -33.250070 2.702601 -35.740691 -77.803105 33.600787 0.000000 0.000000 0.000000 -2.883931 3.582491 1.226025 -25.930550 68.554961 -22.372493 -81.862576 33.493933 -25.168504 0.000000 0.000000 0.000000 
-0.047470 0.951818 -0.031631 -1.071829 -5.392394 9.635977 12.689027 -0.052702 -9.214410 -7.638350 0.794631 -3.903818 8.792323 18.157492 23.242675 0.000000 0.000000 0.000000 -6.677145 0.945655 -12.243497 4.632953 -0.410041 -1.181990 -6.054877 -17.560857 19.284242 0.000000 0.000000 0.000000 5.850954 -0.753105 5.630932 -8.623007 3.139049 -12.228882 -8.299883 4.618787 26.027444 18.227732 -10.546551 -19.998580 0.000000 0.000000 0.000000 -1.876647 -22.132523 7.930450 -32.913344 -33.084230 2.687955 -27.816864 -76.691018 26.621018 0.000000 0.000000 0.000000 0.311660 3.321339 1.202811 -11.914675 67.750467 -13.402046 -88.165891 40.895837 -34.669716 0.000000 0.000000 0.000000 
-0.046341 0.951432 -0.031350 -1.438853 -5.589600 10.147640 12.641610 -0.052231 -9.484281 -7.274247 0.756635 -4.181421 8.951502 18.326880 22.407206 0.000000 0.000000 0.000000 -6.415575 1.003102 -12.871166 4.682495 -0.410702 -0.997319 -5.974543 -17.438075 18.817022 0.000000 0.000000 0.000000 5.067244 -0.733363 6.141813 -8.595266 3.071949 -12.982945 -8.087158 3.791158 26.242512 17.824785 -10.423699 -19.852346 0.000000 0.000000 0.000000 -2.800195 -21.533862 7.954446 -33.165923 -33.021756 2.731716 -18.314930 -75.721637 18.948164 0.000000 0.000000 0.000000 4.021607 3.417301 1.216854 5.208438 65.106842 -3.158015 -96.421408 50.993835 -50.021332 0.000000 0.000000 0.000000 
-0.045028 0.951018 -0.030543 -1.829693 -5.402357 10.474341 12.752451 -0.050462 -9.694873 -7.060455 0.726530 -4.485950 8.665705 17.970803 22.398121 0.000000 0.000000 0.000000 -6.053324 1.038321 -13.156561 4.356263 -0.386834 -1.031771 -5.884922 -17.291082 18.814336 0.000000 0.000000 0.000000 4.466042 -0.659122 5.832866 -8.298543 2.989975 -12.608934 -8.174455 2.676477 25.711617 17.085113 -10.086932 -19.534032 0.000000 0.000000 0.000000 -4.455555 -21.194367 8.197954 -32.966328 -32.634777 2.656276 -7.629914 -72.524785 10.120722 0.000000 0.000000 0.000000 8.386501 3.808453 1.222558 20.684125 58.857645 4.435362 -107.627452 62.823160 -72.864658 0.000000 0.000000 0.000000 
-0.043660 0.949983 -0.029317 -2.135048 -5.790510 10.377608 12.542281 -0.049690 -9.448600 -6.887310 0.720740 -4.401528 8.936220 18.274822 21.289749 0.000000 0.000000 0.000000 -5.680655 1.055489 -13.027557 4.311114 -0.378017 -0.525663 -5.670026 -16.896982 17.665774 0.000000 0.000000 0.000000 3.962657 -0.622966 6.033117 -8.023800 2.886762 -12.683420 -7.979252 1.977952 25.582612 15.683001 -9.384861 -18.969193 0.000000 0.000000 0.000000 -5.654193 -20.453815 8.220751 -33.986447 -32.428313 2.782253 -0.970156 -67.986566 5.022180 0.000000 0.000000 0.000000 11.544462 4.317226 1.222521 31.943605 52.809906 8.112764 -121.613921 72.874152 -98.812457 0.000000 0.000000 0.000000 
-0.042438 0.949655 -0.028080 -2.339733 -6.215007 10.588124 12.570115 -0.029362 -9.602518 -6.639836 0.713403 -4.050594 8.766437 17.991365 20.805211 0.000000 0.000000 0.000000 -5.585222 1.067737 -12.972057 4.192698 -0.364516 -0.772661 -5.564861 -16.751219 17.314186 0.000000 0.000000 0.000000 4.111375 -0.623906 5.824861 -8.463944 3.017305 -12.820443 -7.607073 1.399029 25.827999 14.612942 -8.758235 -19.148776 0.000000 0.000000 0.000000 -6.968739 -20.699099 8.676270 -33.121283 -32.535248 2.639107 2.801521 -62.721199 2.264220 0.000000 0.000000 0.000000 14.247317 4.714820 1.148315 39.686315 47.199560 9.257378 -144.709418 80.430744 -132.123341 0.000000 0.000000 0.000000 
-0.041439 0.948914 -0.027202 -2.573925 -6.739572 10.438333 12.681529 -0.003934 -9.209324 -6.736578 0.730434 -4.101488 9.315640 18.680199 20.129230 0.000000 0.000000 0.000000 -5.582968 1.064346 -12.790240 4.228946 -0.361002 -0.491837 -5.049523 -15.922184 16.752274 0.000000 0.000000 0.000000 3.919072 -0.647484 6.478900 -8.357739 2.948570 -13.245351 -7.395416 0.843053 26.171992 13.482215 -8.228332 -18.781627 0.000000 0.000000 0.000000 -7.898277 -21.234546 9.214543 -32.330698 -32.412068 2.449564 4.508425 -57.736487 1.095142 0.000000 0.000000 0.000000 16.139950 5.051485 1.030929 44.871082 43.439336 9.557372 175.163281 83.624113 -179.209704 0.000000 0.000000 0.000000 
-0.040768 0.948741 -0.026735 -2.785166 -7.149919 10.615856 12.936140 0.036165 -9.396868 -6.815944 0.749889 -3.873991 9.866865 19.354602 20.825461 0.000000 0.000000 0.000000 -5.316192 1.106277 -13.093715 4.094051 -0.344140 -0.207642 -4.870264 -15.672714 16.571508 0.000000 0.000000 0.000000 4.038407 -0.663370 6.523095 -8.485697 2.990561 -13.096798 -7.546219 0.193754 26.168132 12.743446 -7.814480 -19.031429 0.000000 0.000000 0.000000 -8.519298 -21.851327 9.742317 -31.049810 -32.643577 2.304913 3.903684 -52.193540 1.163694 0.000000 0.000000 0.000000 18.137299 5.599153 0.967732 47.544681 40.670070 9.258250 130.804334 83.603100 131.303826 0.000000 0.000000 0.000000 
-0.040469 0.948669 -0.026382 -2.928769 -7.357185 10.514565 13.123363 0.065254 -9.416759 -7.170313 0.800634 -3.416765 10.419092 20.105835 20.125609 0.000000 0.000000 0.000000 -5.160216 1.112998 -13.051870 4.186084 -0.348350 -0.031101 -4.544003 -15.127978 16.289452 0.000000 0.000000 0.000000 3.692336 -0.693780 7.540083 -8.310860 2.895327 -13.609089 -7.473721 -0.256717 26.176201 11.816656 -7.504455 -17.855251 0.000000 0.000000 0.000000 -9.284717 -22.938275 10.490505 -29.128408 -32.452305 1.936056 3.592310 -47.528766 1.026923 0.000000 0.000000 0.000000 19.303512 6.003799 0.948591 49.406501 38.317992 8.803208 109.695220 81.756079 106.835458 0.000000 0.000000 0.000000 
-0.040493 0.948573 -0.025929 -2.922495 -7.330514 10.576782 13.206701 0.076229 -9.587199 -7.348720 0.824711 -3.205760 10.601909 20.324491 20.704904 0.000000 0.000000 0.000000 -5.094300 1.149068 -13.519725 4.176275 -0.344650 0.520065 -4.522225 -15.121024 16.417650 0.000000 0.000000 0.000000 3.340114 -0.692357 8.126429 -7.975133 2.796792 -13.319643 -7.866877 -0.817772 25.979768 11.456647 -7.370921 -17.607679 0.000000 0.000000 0.000000 -9.952224 -23.394249 10.935628 -27.377656 -32.549984 1.675919 4.887796 -43.731196 0.308510 0.000000 0.000000 0.000000 20.271755 6.115865 0.785970 50.640529 35.885419 8.090181 100.678353 79.335148 94.700265 0.000000 0.000000 0.000000 
-0.040761 0.948747 -0.025293 -3.008788 -7.103984 10.685356 13.238987 0.072018 -9.814989 -7.285843 0.812264 -3.260058 10.778954 20.580913 20.784186 0.000000 0.000000 0.000000 -5.107224 1.159909 -13.719795 4.541807 -0.377436 0.803257 -4.477613 -14.984391 16.213104 0.000000 0.000000 0.000000 3.202231 -0.736280 9.083429 -7.758913 2.720118 -13.430924 -8.082129 -1.127382 26.016966 11.499341 -7.539135 -16.943930 0.000000 0.000000 0.000000 -10.618597 -24.042424 11.447088 -24.962564 -32.783946 1.306028 7.223749 -40.127052 -0.667223 0.000000 0.000000 0.000000 20.976571 5.580864 0.364781 51.798644 33.366163 7.242584 96.522146 76.196431 87.054754 0.000000 0.000000 0.000000 
-0.041069 0.949032 -0.024599 -2.961590 -6.576206 10.962747 13.182130 0.046983 -10.150933 -7.175016 0.788597 -3.357546 10.620884 20.397160 21.353585 0.000000 0.000000 0.000000 -5.132264 1.182147 -14.158526 4.501565 -0.379219 0.968841 -4.518733 -14.978745 16.125490 0.000000 0.000000 0.000000 3.157763 -0.777565 9.771328 -7.395467 2.604292 -13.413573 -8.543672 -1.329564 26.033275 11.483000 -7.540053 -16.783661 0.000000 0.000000 0.000000 -11.425549 -24.041118 11.652423 -22.792918 -33.386389 1.011525 9.938436 -37.141127 -1.576928 0.000000 0.000000 0.000000 21.704930 4.999740 -0.001921 53.045705 30.619891 6.243211 93.174399 73.601036 81.033943 0.000000 0.000000 0.000000 
-0.041308 0.949084 -0.023787 -2.829191 -6.042347 11.217623 12.914608 0.005864 -10.554135 -7.206320 0.786678 -3.182487 10.823759 20.709275 21.679162 0.000000 0.000000 0.000000 -5.436733 1.189911 -14.649237 4.874666 -0.419721 1.441594 -4.717800 -15.158387 15.593726 0.000000 0.000000 0.000000 3.129890 -0.832851 10.665323 -7.393474 2.572783 -14.178060 -8.441472 -1.289042 26.645516 11.848064 -7.687524 -17.301701 0.000000 0.000000 0.000000 -11.833679 -24.373142 11.889915 -21.761872 -33.855380 0.851160 12.429916 -34.967102 -2.281790 0.000000 0.000000 0.000000 22.137858 4.358270 -0.305918 53.995950 28.443588 5.317095 91.025392 71.608963 77.074485 0.000000 0.000000 0.000000 
-0.041632 0.948783 -0.022847 -2.580317 -5.511400 11.357820 12.561379 -0.044884 -10.788805 -7.229163 0.775157 -3.313360 10.723289 20.638520 21.710005 0.000000 0.000000 0.000000 -5.536099 1.184995 -14.834086 4.935659 -0.432724 1.637058 -5.005846 -15.501546 15.094696 0.000000 0.000000 0.000000 3.017449 -0.868956 11.469528 -7.175246 2.498041 -14.449807 -8.496216 -1.221974 26.855778 11.628576 -7.501138 -17.258958 0.000000 0.000000 0.000000 -11.771423 -23.440919 11.377223 -22.099680 -34.220444 0.928899 13.786798 -34.120633 -2.611278 0.000000 0.000000 0.000000 22.982921 3.789473 -0.603720 53.900029 26.625264 4.433404 90.320961 70.209900 75.091874 0.000000 0.000000 0.000000 
-0.042226 0.948485 -0.021527 -2.493089 -5.265047 11.658464 12.510897 -0.062803 -11.044866 -7.327641 0.774867 -3.475671 10.612808 20.522350 21.720906 0.000000 0.000000 0.000000 -5.816985 1.187805 -15.190307 5.463333 -0.487934 1.607531 -5.106741 -15.637919 15.068118 0.000000 0.000000 0.000000 2.991921 -0.901739 12.007526 -6.964221 2.417446 -14.783906 -7.971166 -0.681909 26.857932 11.935625 -7.547866 -17.619097 0.000000 0.000000 0.000000 -12.423626 -22.923738 11.177127 -23.063876 -33.826602 0.999624 14.808856 -35.487928 -3.022926 0.000000 0.000000 0.000000 23.229353 3.202990 -0.755960 53.779455 25.697589 3.954272 90.013245 69.969601 74.859844 0.000000 0.000000 0.000000 
-0.043182 0.948016 -0.019807 -2.341395 -4.831880 11.866780 12.152173 -0.116217 -11.134858 -7.184286 0.746603 -3.706910 10.696398 20.690658 21.549249 0.000000 0.000000 0.000000 -6.032100 1.171230 -15.286449 5.602380 -0.506395 1.354904 -5.496672 -16.234249 15.034970 0.000000 0.000000 0.000000 3.437093 -0.990757 12.207914 -7.235967 2.516431 -14.579273 -7.533717 -0.328493 26.725380 12.022802 -7.466679 -17.801485 0.000000 0.000000 0.000000 -13.036683 -22.012902 10.768595 -24.488126 -33.012707 1.073210 16.056746 -38.554593 -3.677133 0.000000 0.000000 0.000000 23.386913 3.129351 -0.616730 53.495568 25.792599 3.940449 85.750820 71.138983 72.277338 0.000000 0.000000 0.000000 
-0.044489 0.947572 -0.017751 -2.380544 -4.596839 11.843975 11.886449 -0.151905 -10.903367 -6.852487 0.700049 -4.223844 10.791092 20.832479 21.793437 0.000000 0.000000 0.000000 -5.993620 1.159936 -15.142082 5.710960 -0.520231 1.344362 -5.323509 -15.865923 14.693226 0.000000 0.000000 0.000000 3.565489 -1.037738 12.574271 -7.236184 2.517456 -14.631653 -6.815245 0.673025 26.734418 12.625197 -7.629900 -18.298074 0.000000 0.000000 0.000000 -13.535010 -21.230873 10.259125 -26.579565 -31.879832 1.178938 17.336618 -42.962249 -4.610688 0.000000 0.000000 0.000000 23.602810 3.017933 -0.311623 52.424287 26.915463 4.217897 78.294175 73.227442 67.890987 0.000000 0.000000 0.000000 
-0.045665 0.947281 -0.015939 -2.253191 -3.924357 12.025110 11.492794 -0.207509 -11.223216 -6.744718 0.682423 -4.082244 10.848137 21.008845 21.249589 0.000000 0.000000 0.000000 -5.963246 1.141937 -15.046031 5.585815 -0.515481 1.053992 -5.427121 -15.922635 14.394185 0.000000 0.000000 0.000000 4.114700 -1.122028 12.345411 -7.491554 2.618369 -14.391977 -6.111391 1.451847 26.514593 12.992451 -7.564980 -18.944854 0.000000 0.000000 0.000000 -13.521792 -20.700592 9.753037 -29.121518 -31.099225 1.429489 18.357145 -48.691585 -5.723659 0.000000 0.000000 0.000000 23.043589 3.668562 0.506476 51.232855 29.715209 5.235861 58.882166 77.103173 54.388184 0.000000 0.000000 0.000000 
-0.046418 0.946874 -0.014711 -2.332457 -3.617891 12.137454 11.454690 -0.219173 -11.449847 -6.654505 0.670818 -4.030794 11.184958 21.462890 21.619438 0.000000 0.000000 0.000000 -5.830087 1.154098 -15.198322 5.401801 -0.503589 1.402302 -5.396294 -15.806720 14.118763 0.000000 0.000000 0.000000 4.735577 -1.189292 11.844017 -7.814190 2.762616 -13.628526 -5.354317 2.479948 26.102212 13.592365 -7.660861 -19.532148 0.000000 0.000000 0.000000 -13.440560 -20.422187 9.338142 -31.393440 -30.677812 1.716517 18.430870 -54.013954 -6.528064 0.000000 0.000000 0.000000 22.239091 5.180709 1.824608 48.162641 34.224144 6.551005 14.404999 78.187781 17.729176 0.000000 0.000000 0.000000 
-0.046811 0.946658 -0.014207 -2.013458 -3.099721 12.264595 11.194667 -0.259435 -11.798908 -6.907540 0.686687 -3.857611 11.071726 21.407711 20.962723 0.000000 0.000000 0.000000 -6.272390 1.116539 -15.314402 5.663631 -0.540029 1.523321 -5.322770 -15.571480 13.791232 0.000000 0.000000 0.000000 5.262954 -1.245975 11.439761 -8.070053 2.853273 -13.631446 -4.893159 3.382559 26.321630 13.775428 -7.680949 -19.407188 0.000000 0.000000 0.000000 -12.718800 -20.498885 9.030675 -33.285018 -31.237815 2.140255 17.266038 -59.774788 -6.746834 0.000000 0.000000 0.000000 21.097017 6.956673 3.232945 42.668712 39.696202 7.300844 -16.125851 71.525710 -6.087854 0.000000 0.000000 0.000000 
-0.047142 0.946662 -0.014251 -2.031378 -2.313160 12.257277 11.403308 -0.270170 -12.018843 -6.996518 0.682190 -3.788812 10.793974 21.123479 21.227579 0.000000 0.000000 0.000000 -6.241198 1.098500 -15.310745 5.627279 -0.548962 1.604989 -5.418450 -15.650795 13.864166 0.000000 0.000000 0.000000 6.091339 -1.330950 10.859462 -8.264648 2.977763 -12.693433 -4.660714 4.018823 25.800282 14.303674 -7.816756 -19.661538 0.000000 0.000000 0.000000 -12.800293 -21.126387 9.097571 -34.482550 -32.137828 2.641888 15.685902 -64.095593 -6.519099 0.000000 0.000000 0.000000 19.623847 8.875987 4.560011 36.288332 44.637286 7.177216 -29.238985 61.148070 -12.740926 0.000000 0.000000 0.000000 
-0.047790 0.946907 -0.014583 -1.587034 -1.737223 12.247431 11.158531 -0.307994 -12.339375 -7.138939 0.691784 -3.477997 10.455226 20.761354 21.007173 0.000000 0.000000 0.000000 -6.989598 1.030366 -15.448901 6.205216 -0.626131 1.866842 -5.554222 -15.780894 13.590669 0.000000 0.000000 0.000000 6.459050 -1.413140 11.100759 -8.478416 3.039923 -13.002376 -4.855894 4.585719 25.743422 14.985145 -8.264764 -19.249100 0.000000 0.000000 0.000000 -11.410447 -22.307790 9.275021 -35.459233 -33.685833 3.271287 15.132613 -67.453728 -6.711790 0.000000 0.000000 0.000000 16.908143 10.535698 5.505916 29.650864 50.835338 6.727254 -33.217211 51.404262 -12.276528 0.000000 0.000000 0.000000 
-0.048861 0.946946 -0.014984 -1.378168 -1.035376 12.292999 11.092393 -0.338758 -12.731192 -7.300222 0.712492 -2.768477 9.780724 19.971916 20.650889 0.000000 0.000000 0.000000 -7.071132 1.009119 -15.596949 6.034350 -0.621492 2.067505 -5.943726 -16.391406 13.668878 0.000000 0.000000 0.000000 7.078939 -1.497855 10.913844 -9.031038 3.245266 -12.749343 -5.141716 4.729560 25.509083 15.504425 -8.573948 -19.113996 0.000000 0.000000 0.000000 -10.158097 -23.540674 9.548454 -36.462988 -35.555512 4.037504 14.117414 -69.709161 -6.349201 0.000000 0.000000 0.000000 13.855268 11.700566 5.909779 22.177119 56.439726 5.027170 -34.286104 41.190944 -9.982679 0.000000 0.000000 0.000000 
-0.050171 0.947158 -0.015118 -1.160987 -0.836391 12.285641 11.208165 -0.336947 -12.949370 -7.308048 0.724285 -2.271015 9.313666 19.381916 20.043908 0.000000 0.000000 0.000000 -7.551422 0.966036 -15.669239 6.455277 -0.677824 2.228819 -5.833761 -16.148810 13.450097 0.000000 0.000000 0.000000 7.103054 -1.523595 11.111099 -8.984069 3.201121 -13.291498 -5.608514 5.434732 25.893404 16.402736 -9.151027 -18.946682 0.000000 0.000000 0.000000 -8.498456 -24.952089 9.783205 -38.260953 -37.209345 4.887131 12.765484 -70.986737 -5.612092 0.000000 0.000000 0.000000 10.189160 12.430880 5.955408 13.702765 61.419023 1.871136 -33.826619 33.409270 -7.798052 0.000000 0.000000 0.000000 
-0.051418 0.947355 -0.014909 -1.005951 -0.501361 12.626392 11.459062 -0.337558 -13.307662 -7.270100 0.718500 -2.115344 8.365627 18.151382 19.784040 0.000000 0.000000 0.000000 -7.744842 0.949432 -15.805958 6.195962 -0.649678 2.037738 -5.774345 -15.998006 13.356398 0.000000 0.000000 0.000000 7.460286 -1.561847 10.832895 -9.495614 3.381783 -13.045584 -6.061721 5.549690 25.379564 17.341741 -9.646396 -19.209427 0.000000 0.000000 0.000000 -7.228795 -25.962726 9.956941 -40.027467 -38.867708 5.889151 10.609669 -71.909543 -4.130886 0.000000 0.000000 0.000000 7.085741 12.660276 5.667805 5.231820 64.208742 -2.292079 -32.691218 29.233678 -6.520594 0.000000 0.000000 0.000000 
-0.052525 0.947822 -0.014200 -0.907364 -0.361462 12.523137 11.731792 -0.322507 -13.251697 -7.551944 0.752539 -1.786546 7.915090 17.531887 19.068571 0.000000 0.000000 0.000000 -8.017189 0.928130 -16.041068 6.410903 -0.687053 2.575476 -5.644886 -15.727625 13.111947 0.000000 0.000000 0.000000 7.342476 -1.588229 11.239038 -10.048988 3.544695 -13.308383 -6.182957 5.896323 25.535843 17.887812 -9.876586 -19.560618 0.000000 0.000000 0.000000 -6.473057 -27.250324 10.299127 -41.384461 -39.797400 6.535153 9.424769 -71.962100 -3.300769 0.000000 0.000000 0.000000 4.664424 12.487579 5.294239 -1.725827 65.749074 -6.110928 -32.633957 28.189332 -6.313991 0.000000 0.000000 0.000000 
-0.053483 0.948284 -0.012926 -0.786363 -0.395943 12.327204 11.892701 -0.309151 -12.994519 -7.510800 0.751517 -1.729972 7.431809 16.857456 18.924582 0.000000 0.000000 0.000000 -8.219740 0.900049 -15.754995 6.208482 -0.658537 2.345335 -5.668066 -15.777182 13.227478 0.000000 0.000000 0.000000 7.258057 -1.589079 11.418402 -10.454189 3.683043 -13.218171 -6.542249 6.100924 25.342336 18.213089 -10.546367 -18.040078 0.000000 0.000000 0.000000 -5.842507 -27.443586 10.240148 -42.449023 -39.920814 6.839688 8.922021 -72.476265 -2.967626 0.000000 0.000000 0.000000 3.172585 12.155927 4.965054 -5.578842 66.418638 -8.301158 -32.834587 29.780649 -6.811210 0.000000 0.000000 0.000000 
-0.054177 0.948416 -0.010870 -1.020454 -0.338321 11.980947 12.164361 -0.284944 -12.723250 -7.281786 0.743102 -1.287884 7.180878 16.493205 18.537497 0.000000 0.000000 0.000000 -8.126816 0.889558 -15.376340 6.113364 -0.646541 2.221802 -5.419467 -15.351071 13.518697 0.000000 0.000000 0.000000 7.209826 -1.583489 11.500077 -11.019022 3.905067 -12.803045 -6.417516 6.107202 25.190809 18.653824 -11.137178 -17.194126 0.000000 0.000000 0.000000 -5.603212 -27.800748 10.326802 -42.787857 -39.265094 6.694713 8.048651 -72.640786 -2.376223 0.000000 0.000000 0.000000 2.233351 12.100830 4.801918 -6.751015 65.795535 -8.799657 -34.860786 32.983793 -8.248450 0.000000 0.000000 0.000000 
-0.054545 0.948437 -0.008341 -0.998557 -0.087879 11.803162 12.214339 -0.287113 -12.655811 -6.939826 0.705186 -1.317043 6.801372 16.023117 18.883485 0.000000 0.000000 0.000000 -7.936154 0.882108 -15.041508 5.732420 -0.606654 2.388445 -5.696871 -15.820664 13.610655 0.000000 0.000000 0.000000 7.044439 -1.543712 11.390650 -11.226975 3.983159 -12.804096 -6.571976 6.129785 25.759690 18.492732 -11.227787 -16.656496 0.000000 0.000000 0.000000 -5.244942 -27.889939 10.280152 -42.984680 -38.530806 6.402281 10.543273 -72.574289 -4.221849 0.000000 0.000000 0.000000 1.670573 12.290291 4.794711 -4.733439 63.968060 -7.330969 -37.495512 38.688624 -10.785830 0.000000 0.000000 0.000000 
-0.054407 0.948377 -0.005852 -1.449788 0.037240 11.361022 12.542600 -0.265044 -12.153775 -6.493466 0.662457 -1.248650 6.808192 16.035453 18.797805 0.000000 0.000000 0.000000 -7.552692 0.889239 -14.632311 5.814523 -0.622812 2.658211 -5.752662 -15.927734 13.890755 0.000000 0.000000 0.000000 6.775865 -1.516337 11.590273 -10.926389 3.919508 -12.500862 -6.459391 6.024335 25.813209 18.578110 -11.810219 -15.177424 0.000000 0.000000 0.000000 -5.820415 -27.454686 10.205530 -42.680094 -37.888131 6.092752 10.238341 -71.542866 -3.956773 0.000000 0.000000 0.000000 2.265811 11.970666 4.752304 -0.176752 62.423856 -4.728801 -40.886659 46.283001 -14.631948 0.000000 0.000000 0.000000 
-0.053923 0.947788 -0.004006 -1.563413 0.629719 11.273681 12.414047 -0.291891 -12.306385 -6.375858 0.648145 -0.970298 6.680562 15.885610 18.177125 0.000000 0.000000 0.000000 -7.069279 0.889392 -14.120268 5.427331 -0.581227 2.461373 -6.166910 -16.581053 13.836598 0.000000 0.000000 0.000000 6.293641 -1.533658 12.444657 -10.839783 3.806404 -13.689602 -6.152642 5.579963 26.656196 18.484373 -11.656617 -15.675606 0.000000 0.000000 0.000000 -6.292851 -27.196032 10.211130 -42.796453 -37.199540 5.803177 11.602785 -71.934462 -4.876048 0.000000 0.000000 0.000000 3.361837 11.479801 4.718776 4.508098 60.025484 -2.372187 -44.491872 53.116321 -18.925981 0.000000 0.000000 0.000000 
-0.053293 0.947624 -0.002834 -1.807546 0.856798 11.356291 12.642543 -0.286699 -12.295319 -6.731596 0.681927 -0.873319 7.190451 16.632922 18.412028 0.000000 0.000000 0.000000 -6.986015 0.908009 -14.566828 5.982518 -0.669453 3.497820 -6.633483 -17.380550 13.800555 0.000000 0.000000 0.000000 5.906463 -1.491632 12.594561 -10.655291 3.749227 -13.705169 -6.295523 5.018446 27.145282 17.891768 -11.836095 -14.148133 0.000000 0.000000 0.000000 -6.442355 -26.922871 10.191487 -42.420506 -37.486909 5.802320 17.089053 -69.871520 -8.397496 0.000000 0.000000 0.000000 5.300392 10.674983 4.629360 8.798940 57.347130 -0.577327 -47.559166 59.046973 -23.245290 0.000000 0.000000 0.000000 
-0.052711 0.947674 -0.002249 -2.238992 -0.037059 10.708709 12.541487 -0.239120 -11.936186 -6.189329 0.669959 0.386945 7.129749 16.328333 16.615605 0.000000 0.000000 0.000000 -6.386345 0.971964 -14.612420 6.310977 -0.713500 4.419744 -6.813761 -17.791377 13.569850 0.000000 0.000000 0.000000 5.014800 -1.466212 14.241032 -9.860809 3.378718 -15.409276 -6.046925 5.603369 27.815182 17.289663 -11.816172 -12.957970 0.000000 0.000000 0.000000 -7.038108 -26.960370 10.301305 -41.613567 -36.756288 5.288184 22.764325 -68.478419 -12.094881 0.000000 0.000000 0.000000 8.324801 11.198199 5.279287 11.111239 53.858248 0.050659 -48.817269 61.795075 -25.313195 0.000000 0.000000 0.000000 
-0.052435 0.947429 -0.001768 -2.690271 -0.826226 11.188376 13.040677 -0.169869 -12.388012 -6.679756 0.735548 0.295244 7.700823 17.071164 16.936106 0.000000 0.000000 0.000000 -5.339587 1.147995 -15.818646 5.742699 -0.629602 5.642289 -7.232746 -18.552657 11.162362 0.000000 0.000000 0.000000 5.216963 -1.605770 15.485663 -10.938563 3.597057 -16.656726 -5.414066 4.600682 27.885415 15.118642 -10.015853 -13.623475 0.000000 0.000000 0.000000 -7.097295 -25.351546 9.882080 -43.230807 -37.551442 6.019173 21.763643 -67.736042 -10.763053 0.000000 0.000000 0.000000 8.442313 10.980527 5.005682 15.329608 53.296975 1.609906 -46.410183 62.099711 -24.032078 0.000000 0.000000 0.000000 
-0.052444 0.947530 -0.001226 -2.839236 -1.564560 10.336317 12.539308 -0.137946 -12.515348 -5.853318 0.705239 2.844212 8.066254 17.452333 15.020930 0.000000 0.000000 0.000000 -4.602667 1.195346 -15.487887 5.244068 -0.547825 6.729728 -6.895893 -18.008318 11.301059 0.000000 0.000000 0.000000 3.918106 -1.483320 17.568839 -9.957562 3.293834 -17.004585 -4.921169 4.717255 26.822310 13.567402 -8.849912 -13.255073 0.000000 0.000000 0.000000 -6.336223 -25.711963 9.903545 -41.869237 -36.243363 5.332627 23.068335 -65.363634 -11.287206 0.000000 0.000000 0.000000 9.133236 11.847955 5.403020 18.962480 48.457255 2.484978 -50.688921 62.769642 -27.183789 0.000000 0.000000 0.000000 
