HIERARCHY
ROOT Hips
{
	OFFSET -0.001795 -0.223333 0.028219
	CHANNELS 6 Xposition Yposition Zposition Zrotation Yrotation Xrotation 
	JOINT LeftUpLeg
	{
		OFFSET 0.069520 -0.091406 -0.006815
		CHANNELS 3 Zrotation Yrotation Xrotation
		JOINT LeftLeg
		{
			OFFSET 0.034277 -0.375199 -0.004496
			CHANNELS 3 Zrotation Yrotation Xrotation
			JOINT LeftFoot
			{
				OFFSET -0.013596 -0.397961 -0.043693
				CHANNELS 3 Zrotation Yrotation Xrotation
				JOINT LeftToe
				{
					OFFSET 0.026358 -0.055791 0.119288
					CHANNELS 3 Zrotation Yrotation Xrotation
					End Site
					{
						OFFSET 0.000000 0.000000 0.000000
					}
				}
			}
		}
	}
	JOINT RightUpLeg
	{
		OFFSET -0.067670 -0.090522 -0.004320
		CHANNELS 3 Zrotation Yrotation Xrotation
		JOINT RightLeg
		{
			OFFSET -0.038290 -0.382569 -0.008850
			CHANNELS 3 Zrotation Yrotation Xrotation
			JOINT RightFoot
			{
				OFFSET 0.015774 -0.398415 -0.042312
				CHANNELS 3 Zrotation Yrotation Xrotation
				JOINT RightToe
				{
					OFFSET -0.025372 -0.048144 0.123348
					CHANNELS 3 Zrotation Yrotation Xrotation
					End Site
					{
						OFFSET 0.000000 0.000000 0.000000
					}
				}
			}
		}
	}
	JOINT Spine
	{
		OFFSET -0.002533 0.108963 -0.026696
		CHANNELS 3 Zrotation Yrotation Xrotation
		JOINT Spine1
		{
			OFFSET 0.005487 0.135180 0.001092
			CHANNELS 3 Zrotation Yrotation Xrotation
			JOINT Spine2
			{
				OFFSET 0.001457 0.052922 0.025425
				CHANNELS 3 Zrotation Yrotation Xrotation
				JOINT Neck
				{
					OFFSET -0.002778 0.213870 -0.042857
					CHANNELS 3 Zrotation Yrotation Xrotation
					JOINT Head
					{
						OFFSET 0.005152 0.064970 0.051349
						CHANNELS 3 Zrotation Yrotation Xrotation
						End Site
						{
							OFFSET 0.000000 0.000000 0.000000
						}
					}
				}
				JOINT LeftShoulder
				{
					OFFSET 0.078845 0.121749 -0.034090
					CHANNELS 3 Zrotation Yrotation Xrotation
					JOINT LeftArm
					{
						OFFSET 0.090977 0.030469 -0.008868
						CHANNELS 3 Zrotation Yrotation Xrotation
						JOINT LeftForeArm
						{
							OFFSET 0.259612 -0.012772 -0.027456
							CHANNELS 3 Zrotation Yrotation Xrotation
							JOINT LeftHand
							{
								OFFSET 0.249234 0.008986 -0.001171
								CHANNELS 3 Zrotation Yrotation Xrotation
								End Site
								{
									OFFSET 0.000000 0.000000 0.000000
								}
							}
						}
					}
				}
				JOINT RightShoulder
				{
					OFFSET -0.081759 0.118833 -0.038615
					CHANNELS 3 Zrotation Yrotation Xrotation
					JOINT RightArm
					{
						OFFSET -0.096012 0.032551 -0.009143
						CHANNELS 3 Zrotation Yrotation Xrotation
						JOINT RightForeArm
						{
							OFFSET -0.253742 -0.013329 -0.021401
							CHANNELS 3 Zrotation Yrotation Xrotation
							JOINT RightHand
							{
								OFFSET -0.255298 0.007772 -0.005559
								CHANNELS 3 Zrotation Yrotation Xrotation
								End Site
								{
									OFFSET 0.000000 0.000000 0.000000
								}
							}
						}
					}
				}
			}
		}
	}
}
MOTION
Frames: 112
Frame Time: 0.050000
0.000000 0.951261 0.000000 2.201575 -4.375042 2.947102 2.081547 -0.352014 -4.392422 -1.859591 0.217090 0.163172 12.003398 22.258314 25.297362 0.000000 0.000000 0.000000 -9.442815 0.487051 -5.074010 3.030501 -0.233887 3.387919 -10.730213 -24.417289 16.324863 0.000000 0.000000 0.000000 8.754115 -1.458205 11.739288 -3.631620 1.404249 -24.850372 1.398813 9.893120 23.929758 5.162579 0.281889 -30.104918 0.000000 0.000000 0.000000 20.436514 -17.604010 4.461506 16.331834 -32.928457 -5.993119 64.190441 -14.667579 -11.110386 0.000000 0.000000 0.000000 9.541286 11.422394 5.527875 30.227273 43.916032 5.945867 99.442872 68.541320 85.145032 0.000000 0.000000 0.000000 
0.001053 0.952944 0.000124 1.824585 -4.065956 3.350762 1.696197 -0.381768 -4.614581 -0.555301 0.071293 -0.234384 11.774901 22.003131 25.598471 0.000000 0.000000 0.000000 -9.119669 0.502999 -5.878577 3.064396 -0.242185 3.321875 -11.530925 -25.432192 18.945224 0.000000 0.000000 0.000000 7.781804 -1.326283 11.357010 -1.011705 0.785959 -24.229633 -0.726887 8.550181 23.437666 5.308101 0.166207 -31.357113 0.000000 0.000000 0.000000 20.770079 -16.983735 4.187317 20.081742 -35.112388 -7.338756 59.128403 -15.035813 -9.851964 0.000000 0.000000 0.000000 11.505864 12.761876 6.274342 29.710905 40.995457 4.885380 105.426503 65.084051 87.031233 0.000000 0.000000 0.000000 
0.001518 0.953662 -0.000276 1.456246 -4.278930 3.702929 2.467803 -0.368679 -4.735424 -1.261790 0.162081 -0.662127 11.857701 22.065761 25.811776 0.000000 0.000000 0.000000 -9.146763 0.532888 -6.694143 4.054854 -0.356676 3.891705 -11.896509 -25.957884 19.228449 0.000000 0.000000 0.000000 8.888043 -1.392768 10.739077 -2.303077 1.080433 -23.812336 -0.731742 7.195925 23.417000 4.180757 0.232037 -28.502837 0.000000 0.000000 0.000000 21.310793 -17.469148 3.934509 21.442064 -35.848186 -7.633693 56.374236 -18.519309 -10.712100 0.000000 0.000000 0.000000 10.907977 12.728796 5.932848 31.899034 35.386945 3.929132 104.673433 59.283593 79.092891 0.000000 0.000000 0.000000 
0.001443 0.953501 -0.001118 1.491536 -4.118100 3.815720 2.894117 -0.373850 -4.989337 -2.036456 0.247005 -0.579324 11.763596 21.976264 25.705229 0.000000 0.000000 0.000000 -9.115314 0.535368 -6.857098 3.754659 -0.325007 3.432574 -12.198531 -26.268385 20.486829 0.000000 0.000000 0.000000 8.580110 -1.394532 11.017367 -1.992911 1.006719 -23.626660 -1.177304 6.649036 23.876652 5.182117 -0.379694 -28.618845 0.000000 0.000000 0.000000 23.332773 -18.095949 3.693324 21.785698 -36.425591 -7.822208 56.632440 -21.309073 -12.128145 0.000000 0.000000 0.000000 11.448754 11.878275 5.548226 32.420755 32.809531 3.282996 104.011257 54.695441 72.878755 0.000000 0.000000 0.000000 
0.000989 0.953751 -0.002259 1.863328 -3.266673 3.797114 2.740180 -0.376191 -4.886221 -2.338564 0.283724 -1.099378 11.179148 21.386285 25.556099 0.000000 0.000000 0.000000 -9.334809 0.502827 -6.456405 3.591867 -0.322463 2.620111 -13.016755 -27.205646 21.636467 0.000000 0.000000 0.000000 8.599804 -1.456392 11.449012 -2.568447 1.156577 -23.377156 -1.307194 5.019289 23.981467 4.645258 -0.323034 -28.253703 0.000000 0.000000 0.000000 21.502675 -19.314790 3.871904 22.113617 -37.521051 -8.073456 57.602403 -28.619200 -16.055216 0.000000 0.000000 0.000000 11.927424 10.628366 4.856639 32.043053 28.311447 1.991678 108.697439 53.398968 75.617356 0.000000 0.000000 0.000000 
0.000054 0.953703 -0.003631 2.093204 -3.102157 4.321391 3.039038 -0.406407 -5.420066 -3.154921 0.371102 -1.402876 11.040316 21.233826 25.691729 0.000000 0.000000 0.000000 -9.184980 0.515313 -6.649580 2.766177 -0.234209 2.084643 -12.590377 -26.649299 21.305080 0.000000 0.000000 0.000000 8.049873 -1.458797 11.942892 -1.821201 0.970978 -22.915687 -1.889349 4.385367 23.618575 4.436086 -0.285725 -28.211475 0.000000 0.000000 0.000000 20.033232 -19.685464 4.068003 20.212834 -40.195231 -8.367455 63.117666 -37.847070 -23.333654 0.000000 0.000000 0.000000 12.834492 9.721194 4.422495 31.980827 24.595297 1.064783 111.514701 52.184254 76.820120 0.000000 0.000000 0.000000 
-0.001149 0.953425 -0.005226 2.144315 -3.560926 4.600919 3.153661 -0.413438 -5.594599 -3.336986 0.394337 -1.722835 11.288811 21.463349 25.981162 0.000000 0.000000 0.000000 -9.212829 0.540257 -7.007594 2.676605 -0.222565 1.960027 -12.053938 -26.003474 20.722329 0.000000 0.000000 0.000000 7.928858 -1.480397 12.307245 -1.968768 0.998045 -22.754217 -2.075316 3.644699 24.060599 4.623558 -0.488679 -28.957316 0.000000 0.000000 0.000000 16.745170 -21.190345 4.644309 17.013813 -41.285130 -7.643590 70.867449 -47.607369 -33.621453 0.000000 0.000000 0.000000 13.229147 7.906066 3.397966 32.699173 21.479213 0.346721 114.031871 51.648178 78.384911 0.000000 0.000000 0.000000 
-0.002857 0.953385 -0.006773 2.153211 -4.127716 5.374223 3.343495 -0.458106 -6.399957 -3.502876 0.415022 -1.856726 11.618018 21.762100 26.469593 0.000000 0.000000 0.000000 -8.967632 0.597957 -8.016260 2.200094 -0.165290 1.943886 -11.536427 -25.369798 20.386164 0.000000 0.000000 0.000000 8.011908 -1.504158 12.322742 -2.051912 1.002978 -22.546415 -3.042513 2.663316 23.969028 4.226822 -0.528509 -28.369570 0.000000 0.000000 0.000000 14.020219 -22.289613 5.200676 9.974775 -42.537058 -5.790940 84.677034 -58.591979 -51.390433 0.000000 0.000000 0.000000 13.164256 6.738139 2.583073 33.757048 18.063213 -0.354897 116.504593 52.645588 81.658774 0.000000 0.000000 0.000000 
-0.004646 0.952771 -0.008330 2.127137 -5.142071 6.156187 3.802751 -0.461185 -6.817806 -4.100752 0.483108 -2.578225 12.198136 22.287859 27.049470 0.000000 0.000000 0.000000 -8.714949 0.674275 -9.122474 1.879608 -0.126839 1.823968 -11.074739 -24.856735 19.894693 0.000000 0.000000 0.000000 7.966050 -1.454191 11.840331 -2.030816 0.960211 -21.478302 -4.182691 1.868674 23.670793 4.260989 -0.702650 -28.851139 0.000000 0.000000 0.000000 9.902949 -23.029027 6.076356 2.684224 -43.619481 -3.775253 105.725658 -68.804128 -79.536220 0.000000 0.000000 0.000000 14.007925 5.147978 1.520491 34.266872 14.285104 -1.172057 117.805086 52.617929 82.085948 0.000000 0.000000 0.000000 
-0.006488 0.952509 -0.009880 2.060666 -5.706163 6.480560 4.447411 -0.446203 -7.169459 -4.903146 0.568446 -2.617069 12.514002 22.562599 27.403128 0.000000 0.000000 0.000000 -8.479556 0.710629 -9.452823 1.747002 -0.121015 1.403155 -10.792818 -24.527069 19.632538 0.000000 0.000000 0.000000 8.157560 -1.505929 12.116170 -1.938348 0.922238 -21.389234 -5.452324 0.642428 24.254566 3.785648 -0.656530 -29.426796 0.000000 0.000000 0.000000 4.962372 -25.491339 7.796227 -5.580837 -43.285833 -1.382179 136.739320 -77.039159 -120.571569 0.000000 0.000000 0.000000 14.706560 4.429455 0.820940 34.797378 11.011124 -1.923892 114.777845 55.232637 80.872030 0.000000 0.000000 0.000000 
-0.008065 0.952384 -0.011702 1.968082 -6.420339 7.122725 4.808095 -0.452677 -7.753271 -5.190203 0.602537 -2.846580 12.933053 22.921859 27.927887 0.000000 0.000000 0.000000 -8.313393 0.771681 -10.257578 1.730040 -0.123342 1.120012 -10.450390 -24.127918 19.434710 0.000000 0.000000 0.000000 8.476894 -1.543020 12.016813 -2.140114 0.952162 -20.801023 -6.834468 -0.759767 24.482240 4.216081 -1.035957 -30.866800 0.000000 0.000000 0.000000 0.241879 -27.403290 9.721605 -13.756268 -44.216683 0.995447 -165.859428 -83.800587 171.587592 0.000000 0.000000 0.000000 16.053312 4.093923 0.137397 35.326441 8.843913 -2.350327 107.078630 59.023029 76.109671 0.000000 0.000000 0.000000 
-0.009479 0.952541 -0.013575 1.917830 -6.478048 7.437591 5.057095 -0.455529 -8.096438 -5.331602 0.614854 -3.027732 12.941180 22.903595 28.174736 0.000000 0.000000 0.000000 -8.341568 0.788235 -10.527343 2.036584 -0.161234 0.764270 -10.434732 -24.111402 19.509459 0.000000 0.000000 0.000000 8.758499 -1.629748 12.416434 -2.026101 0.916074 -20.577604 -8.384486 -2.605152 24.581313 3.910596 -1.234458 -30.306767 0.000000 0.000000 0.000000 -3.919355 -29.452342 11.899263 -19.953694 -46.879083 3.270561 -67.881958 -80.875353 66.496432 0.000000 0.000000 0.000000 17.552079 4.615199 -0.204072 35.861346 7.863746 -2.467489 89.465927 63.792311 63.758474 0.000000 0.000000 0.000000 
-0.011062 0.952788 -0.015553 1.947086 -5.879614 7.440674 5.311532 -0.455167 -8.260335 -5.568018 0.629669 -3.105793 12.542283 22.521157 28.121598 0.000000 0.000000 0.000000 -8.280657 0.776079 -10.551927 1.955176 -0.149523 1.045006 -10.334947 -23.922015 19.253476 0.000000 0.000000 0.000000 8.557391 -1.626333 12.532223 -1.900352 0.889314 -20.014333 -9.191394 -4.881609 24.454800 3.143779 -1.137486 -30.311775 0.000000 0.000000 0.000000 -6.356871 -31.733733 13.921178 -23.604859 -52.171824 5.771110 -31.046736 -70.854631 27.905906 0.000000 0.000000 0.000000 18.036059 5.650832 -0.222202 37.675831 8.355146 -2.264201 59.439105 64.379338 39.560118 0.000000 0.000000 0.000000 
-0.013295 0.952936 -0.017405 1.905132 -5.579169 7.298520 5.560550 -0.434778 -8.046247 -5.626879 0.626921 -3.454495 12.301959 22.278353 28.184167 0.000000 0.000000 0.000000 -8.215843 0.756846 -10.232721 2.056531 -0.166929 0.799399 -10.133994 -23.602329 19.090676 0.000000 0.000000 0.000000 8.153368 -1.555668 12.339153 -1.900382 0.885317 -19.375770 -9.835098 -5.791511 24.532579 2.705913 -1.235467 -27.917221 0.000000 0.000000 0.000000 -5.575820 -33.554489 14.481027 -22.117008 -57.192085 6.493422 -14.522511 -64.161175 13.601104 0.000000 0.000000 0.000000 18.150751 7.317931 0.462122 39.393635 9.309083 -2.038604 40.086017 62.447884 25.111544 0.000000 0.000000 0.000000 
-0.016056 0.953500 -0.019081 1.785555 -5.410877 7.216793 6.094021 -0.394057 -7.696856 -5.986223 0.648050 -4.088662 12.082190 22.031595 28.469777 0.000000 0.000000 0.000000 -8.082943 0.761397 -10.408065 2.254004 -0.176052 1.299390 -9.906795 -23.265329 18.873966 0.000000 0.000000 0.000000 7.841913 -1.517765 12.364987 -2.031760 0.918711 -18.670282 -9.544730 -6.069488 24.005837 2.496433 -1.196868 -27.137325 0.000000 0.000000 0.000000 -2.990342 -34.599133 13.930089 -15.636799 -60.817607 4.351855 -0.658642 -62.005029 4.346546 0.000000 0.000000 0.000000 17.830759 8.773906 1.222499 40.151824 11.190954 -1.476197 31.952521 58.215388 18.358415 0.000000 0.000000 0.000000 
-0.018846 0.953890 -0.020561 1.713505 -5.541775 7.357456 6.281875 -0.380076 -7.547583 -5.849215 0.628489 -4.706386 12.067995 21.977521 28.875467 0.000000 0.000000 0.000000 -7.590868 0.782316 -10.401700 2.243253 -0.186116 0.754567 -10.420207 -24.023770 18.962878 0.000000 0.000000 0.000000 7.670717 -1.447118 11.840948 -2.480057 1.040730 -18.523052 -8.962540 -5.024310 24.582502 2.973030 -1.513993 -25.023106 0.000000 0.000000 0.000000 2.157317 -34.465136 11.782596 -6.636225 -61.315739 0.083732 16.245937 -64.530711 -6.337688 0.000000 0.000000 0.000000 16.998750 9.619086 2.008697 40.344921 13.173956 -1.056423 30.054085 57.809435 17.414377 0.000000 0.000000 0.000000 
-0.021277 0.954723 -0.021711 1.685567 -5.906590 7.755664 6.452359 -0.386303 -8.077686 -5.396548 0.605956 -3.657764 10.522972 20.208566 27.010232 0.000000 0.000000 0.000000 -7.575858 0.818732 -10.909107 2.455269 -0.207524 0.575198 -10.203015 -23.747638 19.165439 0.000000 0.000000 0.000000 7.701954 -1.423926 11.504076 -2.711291 1.095802 -18.654742 -8.449552 -3.437562 24.546152 4.242873 -2.263318 -22.749851 0.000000 0.000000 0.000000 5.801014 -33.530734 10.082507 -0.930491 -58.066255 -2.706232 36.352808 -67.259180 -20.407171 0.000000 0.000000 0.000000 16.654814 9.796720 2.473487 38.899907 14.463135 -0.782427 35.108576 58.497425 20.894938 0.000000 0.000000 0.000000 
-0.022894 0.955185 -0.022553 1.576126 -6.164170 8.041570 6.509136 -0.391587 -8.374778 -4.862987 0.562111 -3.183875 9.756173 19.269639 26.082657 0.000000 0.000000 0.000000 -7.561635 0.844562 -11.248605 2.798144 -0.236683 0.615627 -9.937574 -23.399421 18.842376 0.000000 0.000000 0.000000 7.949307 -1.429659 11.188717 -3.446823 1.296761 -18.288279 -7.786665 -2.159074 24.665288 5.575309 -3.125906 -20.833195 0.000000 0.000000 0.000000 7.467709 -31.961382 9.016401 1.339105 -55.621033 -3.727034 52.863813 -67.364858 -32.234357 0.000000 0.000000 0.000000 15.787695 9.518504 2.660814 38.427443 16.088236 -0.453833 37.041016 59.421185 22.752643 0.000000 0.000000 0.000000 
-0.024283 0.955443 -0.023250 1.622891 -6.391161 8.442802 6.360879 -0.414348 -8.775977 -4.510733 0.531096 -2.846533 9.463253 18.886276 25.274906 0.000000 0.000000 0.000000 -7.533414 0.857263 -11.245725 2.714062 -0.231142 0.382470 -9.174690 -22.297627 17.419367 0.000000 0.000000 0.000000 7.912688 -1.392015 10.764404 -3.487852 1.297872 -18.615827 -7.257743 -0.956076 25.089410 6.735663 -3.652296 -21.378022 0.000000 0.000000 0.000000 6.766882 -30.421123 8.767072 -2.787191 -52.262102 -2.147550 64.706047 -66.791724 -40.587988 0.000000 0.000000 0.000000 16.413864 8.999415 2.634079 37.383624 17.106966 -0.306074 36.864028 60.205730 23.305973 0.000000 0.000000 0.000000 
-0.025828 0.954778 -0.023642 1.537913 -5.884161 8.809153 6.737094 -0.415121 -9.152269 -4.797162 0.552901 -2.953113 9.232460 18.671006 24.841549 0.000000 0.000000 0.000000 -7.618207 0.866552 -11.659011 3.258115 -0.278469 0.787824 -9.384185 -22.574617 16.887833 0.000000 0.000000 0.000000 8.300075 -1.380434 9.995666 -4.215796 1.530505 -17.109234 -6.572976 -0.960855 24.699098 7.748251 -4.137674 -21.952829 0.000000 0.000000 0.000000 3.913731 -28.829784 9.146801 -8.313177 -49.637230 -0.313932 64.869474 -68.694768 -41.886887 0.000000 0.000000 0.000000 16.245308 8.089802 2.245523 37.684590 18.888334 0.187803 35.700825 60.378323 22.805249 0.000000 0.000000 0.000000 
-0.028008 0.954439 -0.023831 1.292195 -5.399762 8.602006 7.383886 -0.372614 -8.799641 -5.162829 0.580374 -3.255294 8.952459 18.388726 24.668027 0.000000 0.000000 0.000000 -7.573988 0.819565 -10.832948 3.666525 -0.321813 0.761272 -8.612558 -21.294579 15.248406 0.000000 0.000000 0.000000 8.566505 -1.455122 10.380412 -4.590328 1.653396 -17.112980 -6.258559 -0.831323 25.552884 8.953162 -4.925211 -21.683839 0.000000 0.000000 0.000000 1.055735 -27.360127 9.426230 -14.522584 -45.973186 1.248304 56.126289 -73.634085 -38.201247 0.000000 0.000000 0.000000 17.040180 6.702353 1.614098 36.560022 21.705769 0.767398 26.557618 59.103103 16.978081 0.000000 0.000000 0.000000 
-0.030763 0.953411 -0.023983 1.158580 -4.761524 8.424752 8.010041 -0.344171 -8.747460 -5.616126 0.616724 -3.162504 8.637204 18.079635 24.298116 0.000000 0.000000 0.000000 -7.790277 0.787611 -10.630474 4.178542 -0.376314 1.003996 -8.303222 -20.731670 15.051258 0.000000 0.000000 0.000000 8.378496 -1.398609 10.010093 -4.632820 1.713286 -15.436104 -6.654785 -1.035271 25.209508 10.403258 -5.703298 -22.092651 0.000000 0.000000 0.000000 -1.275929 -26.219255 9.627730 -17.658294 -39.988946 1.341404 36.068832 -79.551706 -24.959519 0.000000 0.000000 0.000000 16.356723 5.588545 1.127732 34.988201 24.758455 1.430620 19.950540 61.175868 13.788030 0.000000 0.000000 0.000000 
-0.033498 0.953512 -0.023986 0.723065 -5.684242 8.186117 8.509938 -0.277421 -8.003839 -5.460148 0.608953 -3.573353 9.100773 18.533194 24.677920 0.000000 0.000000 0.000000 -7.446643 0.826764 -10.897173 4.462227 -0.392961 1.357002 -7.824835 -20.066893 15.385173 0.000000 0.000000 0.000000 7.790944 -1.353046 10.431855 -4.795008 1.749080 -15.176517 -6.795289 -0.203749 25.152488 11.892748 -6.769930 -21.099015 0.000000 0.000000 0.000000 -1.831483 -24.963852 9.286658 -18.937382 -32.402620 0.597045 -41.724334 -84.517321 43.827948 0.000000 0.000000 0.000000 15.548396 5.567995 1.237953 29.012372 27.839528 1.415459 16.824688 67.007646 13.235735 0.000000 0.000000 0.000000 
-0.035861 0.953354 -0.023906 0.613411 -6.137958 8.123015 9.447157 -0.209320 -7.842604 -6.195418 0.690887 -3.236016 8.247243 17.399477 24.318696 0.000000 0.000000 0.000000 -7.189462 0.843706 -10.884664 4.185477 -0.361147 1.334520 -7.281027 -19.227578 15.224012 0.000000 0.000000 0.000000 7.211122 -1.281545 10.480388 -5.476460 1.971477 -14.617549 -7.159315 0.602472 24.946863 13.122225 -7.661222 -20.154498 0.000000 0.000000 0.000000 -1.597908 -23.391421 8.613781 -17.074648 -25.767278 -0.391000 -96.984842 -78.837991 91.312690 0.000000 0.000000 0.000000 12.635870 5.274141 1.367395 22.232624 30.600666 0.873272 -0.789113 76.589774 1.795082 0.000000 0.000000 0.000000 
-0.037587 0.953929 -0.023510 0.379485 -7.025715 8.057106 9.669925 -0.168191 -7.354332 -5.857051 0.666388 -3.479314 8.266404 17.306495 24.771268 0.000000 0.000000 0.000000 -6.584506 0.887409 -11.046427 3.529716 -0.288178 1.405496 -6.705416 -18.417985 15.437874 0.000000 0.000000 0.000000 6.815260 -1.254362 10.867817 -5.594334 1.987475 -14.687610 -7.427788 1.721608 24.688236 14.581116 -8.793095 -18.867697 0.000000 0.000000 0.000000 1.033112 -21.994976 7.534847 -17.264339 -19.214416 -0.973977 -117.838365 -72.315108 106.821095 0.000000 0.000000 0.000000 8.649970 4.888813 1.449677 12.792395 34.913006 -0.436824 -43.359234 80.083948 -34.359609 0.000000 0.000000 0.000000 
-0.038806 0.954093 -0.023040 0.229264 -7.619502 8.181728 9.682971 -0.152698 -6.911479 -5.526707 0.632329 -4.254759 8.597460 17.642991 25.406951 0.000000 0.000000 0.000000 -6.579743 0.917147 -11.349036 3.368574 -0.268823 1.279380 -5.898697 -17.268363 16.114749 0.000000 0.000000 0.000000 6.888360 -1.216583 10.382405 -6.555991 2.300185 -14.300122 -7.698646 3.362240 24.381884 16.232276 -10.079857 -17.578980 0.000000 0.000000 0.000000 2.555752 -21.058968 6.894825 -16.445229 -16.368003 -1.228707 -127.926991 -67.682101 113.424593 0.000000 0.000000 0.000000 4.734630 5.090777 1.753246 3.943938 37.424252 -2.290807 -67.222862 76.129194 -52.277967 0.000000 0.000000 0.000000 
-0.039657 0.954493 -0.023124 0.550414 -7.352012 8.178932 9.363658 -0.179213 -6.732172 -5.462610 0.620043 -4.541872 8.216099 17.201879 25.044583 0.000000 0.000000 0.000000 -6.518486 0.910244 -11.290664 2.739962 -0.210008 1.347551 -5.934071 -17.268441 15.885913 0.000000 0.000000 0.000000 6.980350 -1.255674 10.675296 -7.960770 2.728665 -15.080114 -7.817696 4.151392 24.639170 18.019301 -10.846098 -18.954656 0.000000 0.000000 0.000000 3.602930 -20.900163 6.646009 -17.122354 -16.380030 -1.233498 -136.725373 -67.792980 124.431165 0.000000 0.000000 0.000000 1.652311 5.550361 1.981068 -2.820750 40.316097 -4.148200 -61.233290 71.799568 -43.746727 0.000000 0.000000 0.000000 
-0.040490 0.954433 -0.024107 0.692625 -7.252740 8.091719 9.475873 -0.173314 -6.585721 -5.915935 0.655445 -4.843420 8.327374 17.360192 25.205549 0.000000 0.000000 0.000000 -6.642750 0.928465 -11.776986 2.715717 -0.206444 1.444875 -6.375563 -18.144331 17.545737 0.000000 0.000000 0.000000 7.451863 -1.277247 10.305508 -9.194482 3.131287 -15.102458 -8.383505 4.838515 24.838526 19.682608 -11.317826 -20.932216 0.000000 0.000000 0.000000 3.328085 -21.124042 6.746515 -17.231709 -19.624141 -0.969087 -145.276606 -73.866782 139.983208 0.000000 0.000000 0.000000 -0.504227 6.282058 2.213656 -6.899327 43.646223 -5.716502 -47.984449 70.651013 -32.459581 0.000000 0.000000 0.000000 
-0.041337 0.954418 -0.025615 1.127693 -6.192856 7.922214 9.221965 -0.214333 -6.987757 -6.495662 0.695332 -4.528256 8.546502 17.782454 24.985585 0.000000 0.000000 0.000000 -7.285564 0.861496 -11.421391 2.999406 -0.240297 1.563778 -6.451148 -18.074388 17.082085 0.000000 0.000000 0.000000 7.228581 -1.254735 10.263467 -9.939151 3.404305 -15.009886 -8.668333 4.821187 24.766349 20.548073 -11.593080 -21.723987 0.000000 0.000000 0.000000 1.722065 -22.953361 7.578080 -17.155885 -24.572600 -0.537460 -176.987565 -85.459054 -178.978231 0.000000 0.000000 0.000000 -1.949700 8.317594 2.836031 -7.822135 45.545253 -6.231469 -40.236191 69.984528 -26.142877 0.000000 0.000000 0.000000 
-0.042223 0.954434 -0.027119 1.111284 -5.413502 7.981173 9.541660 -0.220706 -7.290305 -7.165421 0.737629 -4.621710 8.807161 18.212249 24.967550 0.000000 0.000000 0.000000 -7.114793 0.853217 -11.457500 2.797711 -0.224544 1.630554 -6.680346 -18.361093 17.290446 0.000000 0.000000 0.000000 7.220439 -1.191182 9.477678 -10.701940 3.713536 -14.389704 -9.009986 4.478813 24.938759 21.334263 -11.691508 -23.036271 0.000000 0.000000 0.000000 1.241395 -24.261910 8.077920 -17.695038 -28.730444 -0.115361 59.286051 -81.111839 -48.185260 0.000000 0.000000 0.000000 -2.663243 9.420689 3.147210 -9.126281 47.757438 -7.075605 -34.005072 71.089492 -22.038345 0.000000 0.000000 0.000000 
-0.042856 0.953582 -0.027999 1.105611 -5.374993 8.098974 9.675860 -0.219172 -7.424585 -7.291742 0.744630 -4.713993 8.829817 18.244544 24.850519 0.000000 0.000000 0.000000 -7.268516 0.855250 -11.606905 2.801952 -0.222272 1.795430 -6.137085 -17.445987 16.715025 0.000000 0.000000 0.000000 6.868615 -1.146566 9.379090 -11.254255 3.874280 -14.625524 -8.993271 4.854683 25.296382 20.631220 -11.457201 -22.279189 0.000000 0.000000 0.000000 0.538886 -25.518351 8.609144 -17.161795 -30.766601 -0.022965 45.608873 -73.016975 -31.425926 0.000000 0.000000 0.000000 -4.177128 10.028947 3.213168 -8.994382 47.975025 -6.988553 -40.397355 72.313621 -27.238762 0.000000 0.000000 0.000000 
-0.043123 0.953442 -0.028105 0.954226 -5.503010 8.423090 9.992108 -0.204847 -7.904440 -7.513860 0.773451 -4.432332 8.951792 18.375075 24.877633 0.000000 0.000000 0.000000 -7.087278 0.873515 -11.657477 2.936969 -0.245332 1.169029 -6.312196 -17.755814 16.871605 0.000000 0.000000 0.000000 6.833648 -1.146304 9.345987 -12.172985 4.160787 -14.748943 -9.186754 4.725495 25.214238 21.114563 -11.689662 -22.546602 0.000000 0.000000 0.000000 0.417478 -26.157887 8.865117 -18.613717 -30.087373 0.120026 39.344882 -70.110332 -25.084626 0.000000 0.000000 0.000000 -5.789390 9.803076 3.029642 -8.404870 48.043106 -6.788809 -54.866640 71.642337 -37.953186 0.000000 0.000000 0.000000 
-0.042907 0.953164 -0.027707 0.803073 -5.992945 8.820141 9.958781 -0.200999 -8.207147 -7.235505 0.757721 -4.413673 9.289433 18.724099 24.966978 0.000000 0.000000 0.000000 -6.966750 0.903487 -11.818609 2.830698 -0.238200 0.738959 -5.854075 -17.054968 16.550871 0.000000 0.000000 0.000000 6.459946 -1.129603 9.593198 -12.480932 4.171387 -15.576700 -9.498525 5.253536 25.636644 21.605087 -11.955573 -22.726225 0.000000 0.000000 0.000000 0.312357 -25.848289 8.783702 -20.902776 -28.159552 0.121670 29.851429 -70.607777 -18.310776 0.000000 0.000000 0.000000 -5.937240 8.656599 2.673280 -8.565073 49.032420 -7.031784 -67.917351 69.961821 -46.938060 0.000000 0.000000 0.000000 
-0.042569 0.952577 -0.027115 0.615706 -6.200870 9.436226 10.158626 -0.193081 -8.798729 -7.264383 0.764044 -4.376484 9.509402 18.961649 24.934771 0.000000 0.000000 0.000000 -7.123413 0.932415 -12.232412 3.129583 -0.271451 0.180920 -5.509995 -16.572282 16.887360 0.000000 0.000000 0.000000 5.909313 -1.068381 9.510000 -12.367037 4.148271 -15.289665 -9.844584 5.266036 25.208138 22.184326 -12.219781 -22.882749 0.000000 0.000000 0.000000 -0.600295 -25.488978 8.864243 -23.550675 -25.926918 0.092262 20.539580 -69.760539 -11.334591 0.000000 0.000000 0.000000 -5.599025 7.858517 2.478875 -6.551014 50.029230 -6.483096 -80.780171 68.498630 -56.054101 0.000000 0.000000 0.000000 
-0.042166 0.952418 -0.026473 0.031972 -6.414531 10.101279 10.657226 -0.160145 -9.370791 -7.069366 0.749919 -4.350720 9.758933 19.232473 24.934905 0.000000 0.000000 0.000000 -6.725927 0.983301 -12.577194 3.269997 -0.289540 -0.525811 -5.165695 -16.131856 17.456346 0.000000 0.000000 0.000000 5.528004 -1.014527 9.235563 -12.193306 4.117218 -14.816812 -10.182724 5.596300 24.972749 22.756433 -12.456043 -23.039789 0.000000 0.000000 0.000000 -2.218272 -24.864834 8.953900 -26.082818 -24.219791 0.006526 13.952110 -65.854280 -6.225967 0.000000 0.000000 0.000000 -3.397080 6.756014 2.265092 -3.027295 52.105063 -5.456292 -88.175580 69.121493 -62.645408 0.000000 0.000000 0.000000 
-0.041923 0.951860 -0.025785 -0.394985 -6.892787 10.540541 11.056343 -0.123939 -9.367004 -7.031863 0.743205 -4.817252 10.107438 19.592456 24.999919 0.000000 0.000000 0.000000 -6.188880 1.067036 -13.337110 3.523133 -0.301922 -0.227870 -5.766140 -17.179268 17.592247 0.000000 0.000000 0.000000 4.955314 -0.974833 9.568269 -11.910299 3.937275 -15.564756 -10.105406 5.806806 25.911174 24.160445 -13.480158 -23.054821 0.000000 0.000000 0.000000 -4.391595 -24.081191 9.094991 -28.119388 -23.592556 -0.062197 13.445578 -58.791266 -5.032899 0.000000 0.000000 0.000000 0.401545 6.959018 2.530266 2.653081 54.949845 -3.594137 -95.491584 73.155938 -73.009104 0.000000 0.000000 0.000000 
-0.041464 0.951839 -0.024888 -1.186488 -7.157770 11.003830 11.773104 -0.060434 -9.652656 -6.855417 0.732943 -4.765514 10.386125 19.890649 24.966219 0.000000 0.000000 0.000000 -5.553115 1.121319 -13.501371 3.851657 -0.331142 -1.169675 -5.860502 -17.524626 18.979067 0.000000 0.000000 0.000000 4.714280 -0.926307 9.196561 -11.371067 3.856321 -14.324794 -10.355458 5.619934 24.816306 25.065088 -13.750701 -23.640642 0.000000 0.000000 0.000000 -6.628417 -23.676582 9.365573 -29.948934 -22.641601 -0.075825 13.040824 -51.074219 -4.035872 0.000000 0.000000 0.000000 4.482424 7.728028 3.011710 14.305893 56.053024 1.468738 -92.295547 81.704859 -78.070495 0.000000 0.000000 0.000000 
-0.040668 0.951120 -0.023769 -1.473803 -7.612432 10.740796 11.977119 -0.027883 -9.264816 -6.853117 0.745793 -4.546816 10.702596 20.236935 24.712513 0.000000 0.000000 0.000000 -5.495869 1.123137 -13.397149 4.368093 -0.362842 -0.812340 -5.931013 -17.655597 18.649452 0.000000 0.000000 0.000000 3.928242 -0.848994 9.598245 -11.129655 3.734372 -14.726812 -9.920461 5.693274 25.614607 26.575693 -14.755482 -23.933558 0.000000 0.000000 0.000000 -8.133721 -23.477333 9.602294 -30.435276 -22.989458 -0.057962 14.257677 -43.966228 -3.873512 0.000000 0.000000 0.000000 9.091735 8.322927 3.471872 24.336678 53.847199 5.307991 16.795376 87.448231 21.931098 0.000000 0.000000 0.000000 
-0.039360 0.951532 -0.022610 -1.484384 -7.483256 10.589576 12.084892 -0.021254 -9.225663 -7.176413 0.780702 -4.273499 10.615192 20.151746 24.602531 0.000000 0.000000 0.000000 -5.469597 1.080191 -12.801153 4.071157 -0.345888 -1.566615 -5.791259 -17.483465 19.277927 0.000000 0.000000 0.000000 3.660987 -0.798094 9.325992 -11.064215 3.747506 -14.341149 -9.610376 5.483468 25.774718 26.323635 -14.561733 -24.170080 0.000000 0.000000 0.000000 -8.400546 -23.216011 9.560407 -29.877517 -23.888454 0.067188 13.733679 -40.134352 -3.327492 0.000000 0.000000 0.000000 12.465483 8.478421 3.677319 31.274064 48.919623 6.783278 53.437429 79.556559 50.907231 0.000000 0.000000 0.000000 
-0.037715 0.951330 -0.021726 -1.447745 -6.788441 10.444252 11.610435 -0.076583 -9.285994 -6.531554 0.712532 -4.110639 10.290014 19.848290 24.112531 0.000000 0.000000 0.000000 -5.499442 1.028792 -12.243479 3.688693 -0.330836 -2.258517 -5.893365 -17.622431 20.150747 0.000000 0.000000 0.000000 3.720322 -0.771499 8.740522 -10.746695 3.694698 -13.854608 -9.005380 4.787680 25.877507 25.524084 -14.251013 -23.805975 0.000000 0.000000 0.000000 -9.622264 -22.933603 9.706698 -28.832698 -24.291929 0.058740 13.222056 -40.626783 -3.176295 0.000000 0.000000 0.000000 14.208296 8.155571 3.521812 34.274445 43.693698 6.269607 57.602782 74.458245 50.319677 0.000000 0.000000 0.000000 
-0.036011 0.951055 -0.021508 -1.167161 -6.736837 10.293574 11.257336 -0.101281 -9.154681 -6.648668 0.722199 -4.156059 10.250625 19.813269 23.950969 0.000000 0.000000 0.000000 -5.754910 1.001673 -12.026690 3.669344 -0.330989 -2.400121 -6.346154 -18.273842 20.079215 0.000000 0.000000 0.000000 3.874145 -0.787833 8.771025 -10.581471 3.573616 -14.765299 -8.707150 5.031928 26.899781 25.410574 -13.848692 -25.029015 0.000000 0.000000 0.000000 -9.504251 -22.642647 9.550961 -27.885801 -25.095727 0.061644 13.700104 -43.455166 -3.617359 0.000000 0.000000 0.000000 14.948307 7.670020 3.350642 33.894718 40.350261 5.071227 56.371893 73.690231 48.604420 0.000000 0.000000 0.000000 
-0.034548 0.950715 -0.022076 -0.985325 -5.931451 10.441120 10.891794 -0.156105 -9.554396 -6.397115 0.685058 -4.190586 9.854727 19.425834 23.588767 0.000000 0.000000 0.000000 -6.009238 0.962546 -11.732042 3.492493 -0.330293 -2.850477 -6.352243 -18.145909 19.899077 0.000000 0.000000 0.000000 4.337216 -0.841215 8.632043 -10.316573 3.485782 -14.879249 -8.022469 5.000981 26.922089 24.605796 -13.146456 -25.409135 0.000000 0.000000 0.000000 -9.251066 -22.585635 9.406535 -27.212454 -25.992823 0.200859 11.040626 -48.485529 -2.950969 0.000000 0.000000 0.000000 14.741614 7.368171 3.276925 32.980802 39.375194 4.567453 48.501145 74.048571 42.336294 0.000000 0.000000 0.000000 
-0.033375 0.950212 -0.023138 -0.647528 -5.140070 10.726368 10.604184 -0.206411 -10.140414 -6.536609 0.683240 -4.235561 9.453324 19.021946 23.308033 0.000000 0.000000 0.000000 -6.432299 0.948580 -11.992088 3.491554 -0.336521 -2.792235 -6.767020 -18.651158 19.837416 0.000000 0.000000 0.000000 5.258088 -0.942409 8.428053 -10.276708 3.511714 -14.476470 -7.528756 4.727643 26.591149 24.161449 -12.568619 -26.041447 0.000000 0.000000 0.000000 -9.004840 -22.704583 9.380640 -26.428186 -25.963652 0.169750 7.637704 -55.733318 -1.696438 0.000000 0.000000 0.000000 13.874474 7.792807 3.484605 32.348053 41.221720 4.961399 33.938005 73.968478 30.575630 0.000000 0.000000 0.000000 
-0.032506 0.950162 -0.024101 -0.517972 -4.537332 10.820612 10.398009 -0.242029 -10.399526 -6.432502 0.662430 -4.339035 9.131998 18.692644 23.144427 0.000000 0.000000 0.000000 -6.926623 0.909635 -11.831284 3.737724 -0.359651 -3.087811 -6.510194 -18.181080 19.953433 0.000000 0.000000 0.000000 6.025437 -1.032903 8.372762 -9.909387 3.381766 -14.748308 -6.523627 5.617876 26.969802 23.224443 -11.633617 -26.819710 0.000000 0.000000 0.000000 -9.250607 -23.016728 9.374846 -25.174561 -26.444333 0.138421 1.722987 -61.346814 1.346691 0.000000 0.000000 0.000000 13.997197 8.861148 4.262113 31.234098 43.658127 5.279310 16.072208 71.226117 16.191138 0.000000 0.000000 0.000000 
-0.032004 0.950164 -0.024577 -0.139974 -4.304200 10.761950 9.896329 -0.286043 -10.457543 -6.310113 0.648386 -4.348363 8.967858 18.518320 23.115769 0.000000 0.000000 0.000000 -7.425308 0.889316 -12.000236 3.739765 -0.360140 -2.728000 -6.559216 -18.221678 20.007690 0.000000 0.000000 0.000000 6.958362 -1.139198 8.368762 -9.903112 3.382044 -14.796901 -5.517907 6.193900 26.782672 22.012871 -10.612922 -27.310466 0.000000 0.000000 0.000000 -8.727103 -23.079673 9.209286 -23.554414 -26.864948 0.089323 -2.602770 -68.909469 4.318346 0.000000 0.000000 0.000000 13.143109 9.786901 4.776433 31.945900 46.315436 6.340044 6.687711 65.573801 8.599302 0.000000 0.000000 0.000000 
-0.031858 0.950430 -0.024578 -0.024820 -4.006990 10.716350 9.881991 -0.294218 -10.326177 -6.493417 0.653587 -4.624863 8.759701 18.293837 23.160107 0.000000 0.000000 0.000000 -7.468179 0.874528 -11.903050 3.608343 -0.354212 -2.722223 -6.706300 -18.408090 20.125441 0.000000 0.000000 0.000000 8.005080 -1.249954 8.288371 -9.264778 3.144282 -15.427897 -4.980666 7.252586 27.083323 20.516335 -9.489705 -27.559339 0.000000 0.000000 0.000000 -7.607897 -22.872837 8.788210 -20.829323 -28.662132 0.037615 -0.492389 -76.522002 2.863777 0.000000 0.000000 0.000000 12.696715 10.851749 5.458611 30.861088 48.200298 6.568418 2.850386 60.247460 5.549661 0.000000 0.000000 0.000000 
-0.032268 0.950450 -0.024080 0.427068 -3.636726 10.364705 9.432433 -0.330675 -10.075210 -6.514092 0.651289 -4.540221 8.487202 18.001118 23.065557 0.000000 0.000000 0.000000 -8.129286 0.819067 -11.589094 4.000621 -0.383800 -2.450080 -6.953579 -18.705744 19.995683 0.000000 0.000000 0.000000 8.450632 -1.228791 7.704379 -8.914489 3.020362 -15.915805 -3.881770 7.700701 27.453883 19.951413 -8.927372 -28.166209 0.000000 0.000000 0.000000 -5.367558 -22.548215 8.281556 -18.837435 -31.703501 0.058219 37.843368 -83.212644 -31.235360 0.000000 0.000000 0.000000 12.272247 11.693723 5.914663 30.238046 49.456620 6.742141 2.703113 56.036711 4.937901 0.000000 0.000000 0.000000 
-0.033058 0.951036 -0.023379 0.480579 -3.030958 9.974136 9.412322 -0.340683 -9.641874 -6.459477 0.634633 -4.678786 8.083712 17.566901 23.010398 0.000000 0.000000 0.000000 -8.230610 0.776994 -11.120200 4.260654 -0.408865 -2.234894 -7.237836 -19.047579 20.131924 0.000000 0.000000 0.000000 8.931418 -1.266627 7.621553 -7.912271 2.723690 -15.986440 -3.807410 7.855154 27.128364 18.656561 -8.096912 -27.996019 0.000000 0.000000 0.000000 -2.207253 -22.348834 7.753056 -14.451295 -37.097367 -0.351723 93.238725 -77.165275 -77.754862 0.000000 0.000000 0.000000 12.520984 11.920711 6.139673 28.914048 48.813421 6.119290 4.696190 54.806069 5.769079 0.000000 0.000000 0.000000 
-0.034066 0.951384 -0.022614 0.533391 -2.406889 9.627861 9.331583 -0.355822 -9.569752 -6.264603 0.618456 -4.267983 7.722391 17.184097 22.815818 0.000000 0.000000 0.000000 -8.166684 0.738812 -10.529612 4.258778 -0.415834 -2.301741 -7.528777 -19.397818 20.247947 0.000000 0.000000 0.000000 8.830314 -1.207096 7.224967 -7.000319 2.460796 -15.979799 -3.562281 7.126985 27.104348 17.606693 -7.664532 -27.488514 0.000000 0.000000 0.000000 0.450402 -22.077135 7.342728 -9.373928 -43.331379 -1.472434 96.930029 -66.183852 -70.051693 0.000000 0.000000 0.000000 12.320457 12.162007 6.149796 28.593624 46.829352 5.496908 7.470882 55.982439 7.281221 0.000000 0.000000 0.000000 
-0.034881 0.951925 -0.021676 0.431591 -2.006398 9.226024 9.320805 -0.358322 -9.680936 -5.941993 0.604641 -3.318946 7.513825 16.964365 22.592752 0.000000 0.000000 0.000000 -8.053446 0.712424 -10.098606 3.560835 -0.361214 -1.603852 -6.112585 -17.163395 19.570395 0.000000 0.000000 0.000000 8.692551 -1.217398 7.510825 -5.911689 2.138342 -16.141453 -3.518688 6.434906 26.698551 16.387967 -7.115353 -26.916131 0.000000 0.000000 0.000000 2.794295 -22.333097 7.129719 -4.979831 -47.705371 -2.920222 93.895236 -58.457247 -59.287112 0.000000 0.000000 0.000000 12.821397 11.803945 5.966673 28.566755 43.834861 4.722700 12.580393 58.069881 10.404918 0.000000 0.000000 0.000000 
-0.035504 0.951546 -0.020523 0.572927 -1.385750 9.082438 9.192687 -0.378892 -9.570429 -5.870509 0.589612 -3.328815 7.180352 16.605720 22.319431 0.000000 0.000000 0.000000 -8.221477 0.667729 -9.403761 3.006719 -0.325712 -2.071812 -5.237262 -15.708900 19.526895 0.000000 0.000000 0.000000 8.822490 -1.193999 7.181904 -5.880444 2.147654 -16.003424 -3.775807 4.780497 26.859511 15.351919 -6.854213 -26.286493 0.000000 0.000000 0.000000 4.109610 -22.540339 7.004687 -1.889878 -51.381366 -4.128094 85.014669 -54.110257 -47.548196 0.000000 0.000000 0.000000 12.698196 11.230410 5.445562 29.001656 40.714138 4.054823 18.775149 61.640268 14.766318 0.000000 0.000000 0.000000 
-0.035743 0.951350 -0.019200 0.849225 -0.642758 8.976014 9.109405 -0.399474 -9.346566 -6.167464 0.597090 -3.642766 6.743270 16.132203 22.153572 0.000000 0.000000 0.000000 -8.743836 0.616705 -8.881938 3.061538 -0.341366 -2.546047 -5.020693 -15.312601 20.182946 0.000000 0.000000 0.000000 8.921780 -1.152209 6.719933 -5.640692 2.111916 -15.399853 -4.500303 3.397618 26.397582 14.759527 -6.887355 -25.087189 0.000000 0.000000 0.000000 3.696942 -23.408765 7.330967 -3.634393 -52.858510 -3.391286 75.844528 -55.763052 -41.943313 0.000000 0.000000 0.000000 13.065214 9.582764 4.515926 30.372422 38.393358 3.848386 25.919956 64.968652 20.394199 0.000000 0.000000 0.000000 
-0.035753 0.951164 -0.017650 0.977162 -0.316995 8.866910 9.019993 -0.406088 -8.987978 -6.239655 0.590579 -3.998401 6.542837 15.909335 22.046613 0.000000 0.000000 0.000000 -9.052279 0.585791 -8.382900 3.412775 -0.375155 -2.910619 -5.178475 -15.500822 20.201519 0.000000 0.000000 0.000000 9.339688 -1.160199 6.458810 -5.736286 2.146661 -15.480651 -5.079298 2.106192 26.807612 14.385543 -6.985059 -24.567202 0.000000 0.000000 0.000000 1.228028 -24.245997 8.041810 -7.726064 -52.819486 -1.644835 62.534630 -59.978537 -35.474325 0.000000 0.000000 0.000000 14.133216 8.007805 3.615048 31.386170 37.184631 3.705030 31.466320 68.705640 25.722272 0.000000 0.000000 0.000000 
-0.035618 0.951051 -0.016170 1.310064 0.059578 8.985242 8.549342 -0.441797 -9.019849 -6.038995 0.567429 -4.137198 6.320977 15.671583 21.973913 0.000000 0.000000 0.000000 -9.868181 0.551550 -8.111938 4.237535 -0.443094 -3.293464 -5.389222 -15.767353 20.311784 0.000000 0.000000 0.000000 9.756820 -1.088706 5.511525 -6.100471 2.301095 -14.462517 -5.750722 0.873030 26.730665 14.391241 -7.104707 -24.654346 0.000000 0.000000 0.000000 -1.385021 -24.823279 8.790635 -12.571459 -50.597994 0.257700 47.370426 -63.723861 -27.166782 0.000000 0.000000 0.000000 14.124473 6.410575 2.625177 32.194127 36.660311 3.755227 35.536835 74.027177 31.415453 0.000000 0.000000 0.000000 
-0.035651 0.951044 -0.014662 1.348089 -0.555648 9.125920 8.439791 -0.425493 -8.412230 -5.989820 0.555871 -5.094167 6.592016 15.960377 22.287695 0.000000 0.000000 0.000000 -10.103932 0.568630 -8.272997 4.489630 -0.455051 -3.355037 -5.095282 -15.393084 20.192662 0.000000 0.000000 0.000000 9.586679 -1.056870 5.387409 -5.561937 2.113662 -14.593172 -6.685573 0.491317 26.945171 14.529381 -7.355146 -24.407581 0.000000 0.000000 0.000000 -3.399245 -24.287817 9.064027 -16.847871 -46.444227 1.391359 33.940593 -67.972054 -19.658512 0.000000 0.000000 0.000000 13.828125 5.280176 1.922424 31.315119 37.203194 3.668916 38.843859 79.854895 37.402033 0.000000 0.000000 0.000000 
-0.035976 0.950836 -0.013280 1.371818 -1.281364 9.307057 8.314011 -0.416300 -8.210146 -5.858996 0.552904 -5.399555 6.975011 16.368294 22.489574 0.000000 0.000000 0.000000 -10.182800 0.593962 -8.298173 4.509022 -0.447893 -3.793852 -4.743999 -14.943034 20.060344 0.000000 0.000000 0.000000 9.627595 -0.920715 4.257344 -5.923549 2.230165 -14.026746 -6.845474 0.797849 27.577698 14.937608 -7.608334 -24.687946 0.000000 0.000000 0.000000 -4.839452 -23.345910 9.013330 -19.298160 -42.733160 1.597692 25.616777 -72.618965 -15.084484 0.000000 0.000000 0.000000 13.379772 4.686260 1.613572 29.591728 38.397152 3.488913 22.078949 86.853741 25.913380 0.000000 0.000000 0.000000 
-0.036559 0.950743 -0.012209 1.372601 -2.391863 9.650726 8.532176 -0.386252 -7.974907 -6.294335 0.587321 -5.989694 7.536029 16.960788 22.976292 0.000000 0.000000 0.000000 -10.346010 0.638236 -8.802453 4.683093 -0.445423 -3.894758 -4.229728 -14.289393 19.868998 0.000000 0.000000 0.000000 9.327553 -0.834605 3.716718 -5.680044 2.141932 -13.491182 -7.094953 1.474794 27.224739 15.225676 -7.925128 -23.861424 0.000000 0.000000 0.000000 -4.532516 -22.043451 8.459491 -21.536036 -39.669694 1.732419 26.135942 -76.738195 -16.534975 0.000000 0.000000 0.000000 12.887166 3.994771 1.284730 28.167892 40.500245 3.619328 -84.168573 87.293407 -76.134508 0.000000 0.000000 0.000000 
-0.037202 0.950099 -0.011769 1.284340 -3.106916 9.777268 8.904128 -0.352379 -7.508986 -6.787091 0.614089 -6.746889 7.901350 17.336939 23.222214 0.000000 0.000000 0.000000 -10.129169 0.670898 -8.982997 4.440034 -0.421448 -4.046242 -3.910687 -13.861420 19.559877 0.000000 0.000000 0.000000 9.340511 -0.794952 3.383487 -5.991157 2.230154 -13.431851 -6.847741 1.931967 27.736018 15.204166 -8.117748 -23.156705 0.000000 0.000000 0.000000 -4.600470 -20.760250 7.990860 -23.222539 -38.559000 1.867692 35.702693 -79.821464 -25.368760 0.000000 0.000000 0.000000 12.492193 3.718694 1.170815 27.939861 42.702789 3.984566 -110.665132 84.497782 -99.707043 0.000000 0.000000 0.000000 
-0.037688 0.949610 -0.012200 1.082652 -3.876766 10.118575 9.191291 -0.332594 -8.024381 -6.912832 0.646414 -6.264222 8.411587 17.884923 23.301544 0.000000 0.000000 0.000000 -9.875531 0.714573 -9.434978 4.317158 -0.405028 -4.247970 -3.552119 -13.401322 19.414988 0.000000 0.000000 0.000000 9.383397 -0.823253 3.539378 -6.230582 2.281785 -13.629417 -6.488547 2.482271 27.529153 15.343708 -8.062500 -23.593076 0.000000 0.000000 0.000000 -5.456566 -20.108176 7.886402 -24.442684 -37.958628 2.004928 47.635530 -80.378455 -35.846329 0.000000 0.000000 0.000000 12.884844 3.672779 1.148373 28.903028 44.273432 4.638369 -96.832337 83.964708 -84.995163 0.000000 0.000000 0.000000 
-0.038154 0.949273 -0.013199 0.652102 -4.190981 10.262623 9.808945 -0.296073 -8.471882 -7.123995 0.680225 -5.685426 8.687160 18.188252 23.211851 0.000000 0.000000 0.000000 -9.354913 0.750022 -9.977084 4.244288 -0.396918 -3.764660 -3.402871 -13.202778 19.256432 0.000000 0.000000 0.000000 9.645613 -0.864991 3.704589 -6.462638 2.348387 -13.620121 -5.965785 2.545518 27.375481 15.241054 -7.986832 -23.715607 0.000000 0.000000 0.000000 -6.723505 -19.726194 7.962014 -25.897837 -38.236431 2.355752 51.744574 -79.825042 -38.906111 0.000000 0.000000 0.000000 13.788911 4.369600 1.443816 31.214150 44.996965 5.542882 -57.141549 85.248838 -47.654009 0.000000 0.000000 0.000000 
-0.038930 0.948858 -0.014459 0.628327 -3.883480 10.489325 10.065974 -0.295387 -9.124547 -7.359113 0.703376 -5.220945 8.584743 18.093183 23.071921 0.000000 0.000000 0.000000 -9.279615 0.753550 -10.190252 4.273789 -0.401590 -3.847759 -3.586792 -13.443073 19.239529 0.000000 0.000000 0.000000 9.759725 -0.866856 3.565850 -6.543206 2.389068 -13.335396 -5.854221 2.534097 27.052293 15.052737 -7.828911 -23.710164 0.000000 0.000000 0.000000 -8.586815 -20.328916 8.493381 -26.481518 -39.016306 2.641797 43.002350 -77.971981 -30.369913 0.000000 0.000000 0.000000 15.400238 4.877736 1.702871 34.899553 44.058936 6.478076 -4.028338 83.458052 1.824801 0.000000 0.000000 0.000000 
-0.040345 0.948653 -0.015609 0.337675 -3.776876 10.476055 10.690561 -0.258610 -9.462704 -7.692309 0.742088 -4.711290 8.579789 18.095573 22.983520 0.000000 0.000000 0.000000 -8.946857 0.765480 -10.393055 4.436846 -0.412327 -3.528340 -3.639358 -13.500294 19.139520 0.000000 0.000000 0.000000 10.037313 -0.896678 3.630715 -6.672082 2.443975 -13.032998 -5.439549 2.443097 26.727498 15.212640 -7.941001 -23.648119 0.000000 0.000000 0.000000 -10.151876 -20.869199 8.993583 -27.660872 -39.607358 3.050392 33.759638 -76.068282 -21.878328 0.000000 0.000000 0.000000 17.271685 5.501287 1.988181 38.470851 42.525150 7.128876 16.379936 78.350769 18.401690 0.000000 0.000000 0.000000 
-0.042386 0.948185 -0.016955 0.344726 -3.280221 10.474993 11.091747 -0.248311 -9.829596 -8.081751 0.773475 -4.388766 8.332628 17.838961 22.861046 0.000000 0.000000 0.000000 -8.822501 0.756928 -10.403128 4.508065 -0.422292 -3.472317 -3.923360 -13.850970 18.988196 0.000000 0.000000 0.000000 10.177061 -0.901756 3.539131 -6.667785 2.457648 -12.843062 -5.403225 2.162230 26.710389 14.858452 -7.825400 -23.215088 0.000000 0.000000 0.000000 -11.037028 -21.616417 9.475930 -27.904543 -40.100243 3.223360 26.231288 -74.017862 -15.360039 0.000000 0.000000 0.000000 18.248785 5.919399 2.208009 41.726573 40.638580 7.426643 22.472501 73.271325 21.494461 0.000000 0.000000 0.000000 
-0.044844 0.947935 -0.018561 0.163459 -3.139121 10.361168 11.629842 -0.214072 -9.907522 -8.355886 0.799249 -4.221893 8.258456 17.760794 22.891984 0.000000 0.000000 0.000000 -8.345497 0.768383 -10.481011 4.339081 -0.413415 -3.224200 -4.003130 -13.935925 18.781725 0.000000 0.000000 0.000000 10.259158 -0.929022 3.722941 -6.423200 2.382869 -12.739154 -5.320482 1.833042 26.401622 14.728750 -7.762550 -23.186043 0.000000 0.000000 0.000000 -10.998512 -22.079882 9.712083 -27.990350 -40.465033 3.369260 23.514624 -71.761474 -12.736970 0.000000 0.000000 0.000000 18.448480 6.192599 2.287301 43.956246 39.187358 7.550157 24.332663 69.351599 21.281267 0.000000 0.000000 0.000000 
-0.047277 0.947678 -0.020603 -0.052256 -2.935366 10.300747 12.131629 -0.180738 -10.228533 -8.488110 0.822344 -3.804149 8.175829 17.678028 22.871459 0.000000 0.000000 0.000000 -8.124440 0.774491 -10.619468 4.687262 -0.438967 -3.012271 -4.111068 -14.066193 18.675448 0.000000 0.000000 0.000000 10.638762 -0.946317 3.646996 -6.804019 2.523379 -12.554481 -5.123878 1.393113 26.546194 14.111957 -7.460267 -23.086007 0.000000 0.000000 0.000000 -10.520096 -22.487546 9.862998 -27.124385 -40.878198 3.258654 24.672996 -70.490185 -13.255156 0.000000 0.000000 0.000000 18.006779 6.800244 2.533163 44.421234 38.813331 7.528421 21.544353 66.829844 18.281759 0.000000 0.000000 0.000000 
-0.049309 0.947645 -0.022973 -0.208921 -2.846699 10.362654 12.423922 -0.161235 -10.449497 -8.425207 0.815192 -3.800400 8.130546 17.633211 23.013868 0.000000 0.000000 0.000000 -8.130169 0.794858 -11.262361 5.241638 -0.482831 -2.234445 -4.197142 -14.180931 18.575595 0.000000 0.000000 0.000000 10.509944 -0.906004 3.380457 -6.785978 2.524388 -12.399551 -4.732562 1.342948 26.560731 13.523844 -7.137707 -22.879507 0.000000 0.000000 0.000000 -9.704462 -22.954351 9.905803 -24.987536 -41.679538 2.897555 30.936051 -68.835755 -17.331794 0.000000 0.000000 0.000000 17.574529 6.857667 2.566862 43.558890 39.083864 7.392619 16.726404 65.748297 14.680432 0.000000 0.000000 0.000000 
-0.050755 0.947639 -0.025252 -0.264100 -2.723962 10.234740 12.504756 -0.154107 -10.528030 -8.267644 0.803042 -3.707595 8.050295 17.548539 23.070951 0.000000 0.000000 0.000000 -8.192062 0.797470 -11.608339 5.647534 -0.521640 -1.598790 -4.283958 -14.293370 18.491247 0.000000 0.000000 0.000000 10.524236 -0.944891 3.700445 -6.622860 2.472125 -12.417425 -4.718649 1.437876 26.372548 13.213905 -6.911040 -22.872056 0.000000 0.000000 0.000000 -8.209408 -22.559221 9.414676 -23.576602 -42.798443 2.748865 40.632601 -68.001200 -23.867246 0.000000 0.000000 0.000000 16.888043 7.532893 2.961397 40.884387 40.515586 7.198648 9.296701 65.107499 9.650157 0.000000 0.000000 0.000000 
-0.051564 0.947701 -0.027231 -0.187844 -2.706170 10.016369 12.355040 -0.162752 -10.329621 -8.058804 0.779300 -3.873830 7.994073 17.484617 23.166956 0.000000 0.000000 0.000000 -8.461659 0.782424 -11.684670 6.085137 -0.562283 -1.275317 -4.302588 -14.314088 18.462134 0.000000 0.000000 0.000000 10.278575 -0.934916 3.829947 -6.886970 2.560663 -12.539688 -4.462553 1.840879 26.580622 12.803106 -6.759091 -22.131676 0.000000 0.000000 0.000000 -5.992812 -22.237143 8.808583 -22.248198 -43.746966 2.535090 51.374535 -66.896716 -31.065556 0.000000 0.000000 0.000000 15.259383 8.015521 3.284340 37.664587 42.285646 6.857342 -2.350341 65.370141 2.281550 0.000000 0.000000 0.000000 
-0.051849 0.947903 -0.028628 -0.021055 -3.121998 9.794146 12.046519 -0.169281 -9.957278 -7.859349 0.763153 -4.114196 8.148364 17.636204 23.395990 0.000000 0.000000 0.000000 -8.874697 0.773267 -11.790955 6.491384 -0.595201 -0.974778 -4.108411 -14.052246 18.401334 0.000000 0.000000 0.000000 9.909338 -0.940352 4.179742 -7.022913 2.577108 -13.104555 -4.299294 2.559162 26.835143 13.200541 -6.924679 -22.244396 0.000000 0.000000 0.000000 -3.621948 -21.315222 7.983338 -22.106342 -43.601403 2.442928 62.149799 -66.800280 -39.005162 0.000000 0.000000 0.000000 13.322226 8.538595 3.586216 32.694090 44.849668 6.099566 -14.584492 66.071109 -5.592297 0.000000 0.000000 0.000000 
-0.051695 0.948187 -0.029536 0.266811 -3.474635 9.911672 11.509219 -0.199114 -9.758193 -7.523718 0.724494 -4.698242 8.273962 17.760451 23.736157 0.000000 0.000000 0.000000 -9.517267 0.767884 -12.273927 6.991830 -0.638777 -0.609004 -3.978919 -13.894903 18.434456 0.000000 0.000000 0.000000 9.833770 -0.859130 3.574166 -7.345297 2.687472 -12.922087 -4.479838 3.715363 26.983920 13.602214 -6.985832 -22.504623 0.000000 0.000000 0.000000 -1.989794 -20.417698 7.316955 -22.498975 -42.978782 2.385285 71.073898 -68.006205 -47.120261 0.000000 0.000000 0.000000 10.157611 8.541096 3.602611 28.332519 48.911134 5.749394 -31.414315 64.683320 -15.943892 0.000000 0.000000 0.000000 
-0.051402 0.948386 -0.029981 0.662309 -3.536027 9.526257 11.134452 -0.218828 -9.324231 -7.689346 0.735067 -4.819015 8.212853 17.683774 23.823240 0.000000 0.000000 0.000000 -10.087522 0.729326 -12.043058 7.213699 -0.663550 -0.377376 -3.963844 -13.857461 18.347397 0.000000 0.000000 0.000000 9.628376 -0.850733 3.734265 -7.536056 2.742853 -13.238019 -4.653156 4.809511 27.085228 14.573705 -7.542395 -22.079656 0.000000 0.000000 0.000000 -0.834226 -20.166551 6.996110 -23.818494 -42.046566 2.511143 76.474282 -69.656328 -53.249081 0.000000 0.000000 0.000000 7.116194 8.612058 3.577064 21.307847 54.130464 4.243716 -46.644528 60.539342 -23.767488 0.000000 0.000000 0.000000 
-0.051171 0.948747 -0.030266 0.982606 -3.558786 9.191843 10.910453 -0.225529 -9.234972 -7.953794 0.770027 -4.421316 8.160303 17.620974 23.863241 0.000000 0.000000 0.000000 -10.372499 0.704951 -11.821182 7.089029 -0.657337 -0.183367 -3.952731 -13.831353 18.286844 0.000000 0.000000 0.000000 9.506935 -0.787863 3.384924 -8.044617 2.953329 -12.614463 -5.168762 5.780595 26.887701 15.383605 -7.969651 -21.885854 0.000000 0.000000 0.000000 -0.784131 -20.363602 7.000773 -25.005130 -40.444840 2.477286 76.937125 -73.383356 -57.276383 0.000000 0.000000 0.000000 4.227802 8.232374 3.284093 13.255567 59.590480 1.531285 -57.961379 54.608645 -27.287716 0.000000 0.000000 0.000000 
-0.050953 0.948753 -0.030463 1.037832 -3.726242 8.882575 10.859589 -0.217451 -9.060242 -8.024522 0.790378 -4.108991 8.233408 17.693554 23.808012 0.000000 0.000000 0.000000 -10.394180 0.696931 -11.437626 7.004990 -0.643964 -0.349160 -3.845364 -13.671190 18.223593 0.000000 0.000000 0.000000 9.207047 -0.793492 3.690821 -8.280712 3.018181 -12.954999 -5.481852 6.648170 27.040929 16.743871 -8.754795 -21.918463 0.000000 0.000000 0.000000 -0.792540 -20.620865 7.049104 -26.774273 -38.873144 2.541123 69.095028 -77.824016 -54.366264 0.000000 0.000000 0.000000 1.529722 7.955759 2.986321 1.270894 64.029649 -4.419388 -64.969426 46.415586 -26.101202 0.000000 0.000000 0.000000 
-0.050746 0.949342 -0.030682 1.029372 -3.747174 8.770776 11.239619 -0.189537 -9.161424 -8.688849 0.862498 -3.748537 8.200558 17.653616 23.938820 0.000000 0.000000 0.000000 -10.304617 0.696991 -11.308562 6.848235 -0.628950 -0.394164 -3.792122 -13.613479 18.379759 0.000000 0.000000 0.000000 9.025502 -0.809886 3.962242 -8.520982 3.102581 -12.933167 -6.406996 6.967426 26.809223 18.080885 -9.685430 -21.621673 0.000000 0.000000 0.000000 -0.416145 -21.246611 7.193599 -28.041927 -37.299789 2.505130 49.549508 -81.271176 -39.632394 0.000000 0.000000 0.000000 -1.360413 7.497846 2.571713 -11.446268 66.447049 -11.867416 -68.995050 39.161603 -23.391028 0.000000 0.000000 0.000000 
-0.050403 0.949910 -0.030869 0.702347 -3.925143 8.538838 11.481917 -0.164721 -8.905800 -8.555538 0.859042 -3.653397 8.283921 17.737210 23.980897 0.000000 0.000000 0.000000 -9.615671 0.721400 -11.093516 6.076759 -0.557808 -0.433199 -3.398488 -13.068824 18.672949 0.000000 0.000000 0.000000 8.484723 -0.837282 4.601453 -8.753242 3.167834 -13.163239 -6.741633 6.932426 26.940359 18.819811 -10.183333 -21.734534 0.000000 0.000000 0.000000 -0.487453 -21.903614 7.431087 -29.977431 -35.669677 2.543067 10.619514 -83.210342 -5.769165 0.000000 0.000000 0.000000 -3.210304 6.521213 2.089391 -23.716054 68.036305 -19.932180 -70.533670 33.427093 -20.332759 0.000000 0.000000 0.000000 
-0.049888 0.950784 -0.030968 0.406091 -4.423924 8.537262 11.696733 -0.135636 -8.761356 -8.475304 0.861813 -3.677898 8.526787 17.980213 24.252379 0.000000 0.000000 0.000000 -9.126396 0.751510 -10.952887 5.627052 -0.506820 -0.881008 -2.961563 -12.529191 19.089615 0.000000 0.000000 0.000000 8.002256 -0.885414 5.401597 -8.895799 3.211968 -13.083712 -7.441600 6.742425 26.370639 19.297183 -10.732747 -21.033089 0.000000 0.000000 0.000000 -0.381883 -22.097444 7.508739 -31.470393 -34.593941 2.634133 -20.271388 -81.194560 21.179606 0.000000 0.000000 0.000000 -4.115000 5.813428 1.815844 -30.874960 67.977118 -24.580959 -72.679809 29.913050 -18.823593 0.000000 0.000000 0.000000 
-0.049234 0.951184 -0.031145 -0.031906 -4.767856 8.633097 12.160542 -0.095855 -8.721214 -8.549969 0.873886 -3.737595 8.732475 18.190693 24.368922 0.000000 0.000000 0.000000 -8.489524 0.796605 -11.276794 5.404519 -0.484164 -0.751102 -3.060063 -12.836603 19.565840 0.000000 0.000000 0.000000 7.306668 -0.890297 5.993371 -9.088289 3.261301 -13.204854 -7.725780 6.016091 26.192434 19.252508 -10.874382 -20.753594 0.000000 0.000000 0.000000 -0.708872 -22.484283 7.741255 -32.452768 -33.555349 2.628083 -33.803342 -79.092314 32.212402 0.000000 0.000000 0.000000 -3.904419 4.341399 1.398653 -31.736134 68.510035 -25.750828 -76.451930 29.990571 -20.255654 0.000000 0.000000 0.000000 
-0.048449 0.951688 -0.031413 -0.446029 -5.154105 8.842048 12.299384 -0.079311 -8.569891 -8.129603 0.826706 -4.191017 8.962278 18.421930 24.563582 0.000000 0.000000 0.000000 -7.580761 0.849965 -11.423251 4.980879 -0.442505 -1.060260 -3.616308 -13.815730 19.774856 0.000000 0.000000 0.000000 6.496553 -0.895107 6.774249 -9.186747 3.274951 -13.369807 -7.966081 5.033739 26.267474 18.822267 -10.990634 -19.850228 0.000000 0.000000 0.000000 -1.306502 -22.191050 7.814194 -32.705078 -32.953972 2.567049 -36.372890 -77.664329 34.048416 0.000000 0.000000 0.000000 -2.232342 3.769420 1.306793 -26.170594 68.506358 -22.559170 -81.861230 34.049136 -25.670650 0.000000 0.000000 0.000000 
-0.047470 0.951818 -0.031631 -1.057403 -5.391343 9.392761 12.592513 -0.054505 -8.935235 -7.586537 0.776023 -4.395332 9.206271 18.683086 24.610459 0.000000 0.000000 0.000000 -6.624994 0.927332 -11.944283 4.531709 -0.403275 -1.247721 -3.788201 -14.180555 20.037880 0.000000 0.000000 0.000000 5.843806 -0.797356 6.220099 -8.790996 3.196271 -12.241891 -8.276729 4.459146 25.597340 18.344207 -10.799671 -19.437947 0.000000 0.000000 0.000000 -2.460972 -22.270532 8.084385 -32.453223 -32.785983 2.552997 -28.464048 -76.574705 27.079087 0.000000 0.000000 0.000000 0.974337 3.500822 1.271657 -12.160293 67.664043 -13.564435 -88.204057 41.426058 -35.240604 0.000000 0.000000 0.000000 
-0.046341 0.951432 -0.031350 -1.422705 -5.591410 9.902022 12.544169 -0.054206 -9.202137 -6.939324 0.715226 -4.700815 9.434530 18.931438 24.551336 0.000000 0.000000 0.000000 -6.364544 0.984079 -12.569706 4.581403 -0.403852 -1.063313 -3.660330 -14.020306 19.987141 0.000000 0.000000 0.000000 5.040709 -0.773236 6.746821 -8.741724 3.119751 -13.028707 -8.059366 3.642789 25.831462 17.932615 -10.666898 -19.288368 0.000000 0.000000 0.000000 -3.386535 -21.661725 8.110299 -32.696016 -32.734994 2.589038 -18.985670 -75.630127 19.432418 0.000000 0.000000 0.000000 4.691172 3.600162 1.276373 4.873369 64.955403 -3.362348 -96.548420 51.469186 -50.692574 0.000000 0.000000 0.000000 
-0.045028 0.951018 -0.030543 -1.812617 -5.407697 10.230027 12.654461 -0.052717 -9.413206 -6.509089 0.672789 -4.860690 9.449922 18.967721 24.292597 0.000000 0.000000 0.000000 -6.002828 1.019215 -12.859757 4.255444 -0.379888 -1.092150 -3.343671 -13.585932 20.400746 0.000000 0.000000 0.000000 4.430073 -0.696126 6.436844 -8.443637 3.036509 -12.645239 -8.128081 2.532956 25.285013 17.185530 -10.317856 -18.961467 0.000000 0.000000 0.000000 -5.043772 -21.317573 8.358211 -32.495460 -32.346465 2.513173 -8.202006 -72.471013 10.509678 0.000000 0.000000 0.000000 9.057106 3.980920 1.267248 20.249591 58.653841 4.193390 -107.927413 63.208132 -73.689824 0.000000 0.000000 0.000000 
-0.043660 0.949983 -0.029317 -2.116250 -5.797834 10.135459 12.444500 -0.051641 -9.169072 -5.790156 0.621707 -4.727608 9.781890 19.336601 23.899590 0.000000 0.000000 0.000000 -5.633018 1.035675 -12.734098 4.210790 -0.370802 -0.586899 -3.293916 -13.326220 18.939726 0.000000 0.000000 0.000000 3.914940 -0.656230 6.633583 -8.155708 2.928492 -12.722191 -7.926777 1.843808 25.157702 15.771523 -9.597998 -18.387998 0.000000 0.000000 0.000000 -6.250192 -20.572095 8.383608 -33.496446 -32.143922 2.629477 -1.412102 -67.956468 5.291721 0.000000 0.000000 0.000000 12.216867 4.486129 1.257593 31.424062 52.572734 7.843796 -122.246137 73.162078 -99.930780 0.000000 0.000000 0.000000 
-0.042438 0.949655 -0.028080 -2.320383 -6.224112 10.345760 12.472335 -0.031509 -9.320147 -5.650050 0.618676 -4.491864 10.100199 19.682926 23.808480 0.000000 0.000000 0.000000 -5.537973 1.047592 -12.680170 4.092870 -0.357691 -0.831431 -2.751987 -12.458688 18.534360 0.000000 0.000000 0.000000 4.060479 -0.657511 6.425228 -8.602156 3.060779 -12.858537 -7.541423 1.261344 25.403211 14.693821 -8.957807 -18.569735 0.000000 0.000000 0.000000 -7.572283 -20.807471 8.847906 -32.626542 -32.257448 2.484891 2.453582 -62.701446 2.451544 0.000000 0.000000 0.000000 14.924042 4.881712 1.172872 39.107076 46.943835 8.983375 -146.134019 80.595477 -133.991368 0.000000 0.000000 0.000000 
-0.041439 0.948914 -0.027202 -2.552387 -6.749718 10.196937 12.581706 -0.006533 -8.931198 -5.603864 0.621885 -4.495342 10.448824 20.064430 23.624948 0.000000 0.000000 0.000000 -5.537208 1.044306 -12.502310 4.127201 -0.353726 -0.546477 -2.010335 -11.156642 17.686712 0.000000 0.000000 0.000000 3.860317 -0.678772 7.083108 -8.492197 2.989006 -13.302201 -7.321755 0.710518 25.761571 13.554534 -8.414084 -18.197709 0.000000 0.000000 0.000000 -8.510540 -21.341241 9.398612 -31.830080 -32.132014 2.293331 4.232469 -57.726410 1.222190 0.000000 0.000000 0.000000 16.818605 5.217611 1.047945 44.256261 43.174562 9.286741 172.949799 83.606772 178.175093 0.000000 0.000000 0.000000 
-0.040768 0.948741 -0.026735 -2.763645 -7.162163 10.374237 12.835932 0.032716 -9.117747 -5.776711 0.646516 -4.209556 10.734401 20.371850 23.622829 0.000000 0.000000 0.000000 -5.270785 1.085306 -12.803496 3.993772 -0.337117 -0.267992 -1.878331 -10.941883 17.382733 0.000000 0.000000 0.000000 3.981282 -0.695307 7.129547 -8.634677 3.034609 -13.151122 -7.456293 0.056843 25.752222 12.816268 -7.992869 -18.444208 0.000000 0.000000 0.000000 -9.132715 -21.958156 9.937765 -30.555004 -32.360043 2.150081 3.685578 -52.186344 1.246285 0.000000 0.000000 0.000000 18.820227 5.759019 0.974504 46.914560 40.394779 9.001067 129.443732 83.440151 129.573916 0.000000 0.000000 0.000000 
-0.040469 0.948669 -0.026382 -2.906655 -7.370285 10.274077 13.022275 0.061189 -9.138306 -5.902737 0.667411 -3.805346 10.872853 20.525858 23.536976 0.000000 0.000000 0.000000 -5.115627 1.091756 -12.762881 4.085227 -0.341172 -0.092084 -1.965329 -11.076151 17.205074 0.000000 0.000000 0.000000 3.624828 -0.722041 8.153901 -8.440323 2.932302 -13.682781 -7.388934 -0.385865 25.769379 11.874706 -7.670491 -17.250376 0.000000 0.000000 0.000000 -9.907521 -23.034539 10.696008 -28.640811 -32.169063 1.787330 3.399437 -47.520321 1.091634 0.000000 0.000000 0.000000 19.981708 6.166244 0.953656 48.767358 38.034749 8.557149 109.166159 81.572599 105.967108 0.000000 0.000000 0.000000 
-0.040493 0.948573 -0.025929 -2.900409 -7.343507 10.337233 13.105164 0.071758 -9.309544 -6.055709 0.685666 -3.587425 10.875230 20.533345 23.477190 0.000000 0.000000 0.000000 -5.049333 1.127751 -13.230000 4.074967 -0.337007 0.455437 -2.296821 -11.691665 17.482923 0.000000 0.000000 0.000000 3.265320 -0.717630 8.746508 -8.083141 2.828235 -13.394504 -7.791090 -0.942185 25.565370 11.507146 -7.529281 -16.996100 0.000000 0.000000 0.000000 -10.572093 -23.478307 11.141931 -26.904026 -32.270975 1.534765 4.710036 -43.727231 0.363147 0.000000 0.000000 0.000000 20.944987 6.281984 0.788550 49.999793 35.596524 7.862499 100.450102 79.166624 94.160184 0.000000 0.000000 0.000000 
-0.040761 0.948747 -0.025293 -2.985565 -7.117019 10.444843 13.135932 0.067339 -9.535873 -5.888129 0.668873 -3.397445 10.773860 20.432264 23.419140 0.000000 0.000000 0.000000 -5.063049 1.138573 -13.428650 4.438968 -0.369249 0.737717 -2.630734 -12.207050 17.515633 0.000000 0.000000 0.000000 3.125859 -0.760275 9.716871 -7.870729 2.750632 -13.523290 -8.000746 -1.249783 25.608523 11.553164 -7.698538 -16.330288 0.000000 0.000000 0.000000 -11.237579 -24.128249 11.659085 -24.499471 -32.500505 1.174450 7.066513 -40.138327 -0.626014 0.000000 0.000000 0.000000 21.642913 5.739531 0.360362 51.163209 33.087517 7.037696 96.381813 76.047351 86.631818 0.000000 0.000000 0.000000 
-0.041069 0.949032 -0.024599 -2.936122 -6.587578 10.722061 13.076164 0.042145 -9.872701 -5.763493 0.647421 -3.514872 10.492545 20.135163 23.399914 0.000000 0.000000 0.000000 -5.090035 1.161221 -13.868152 4.398280 -0.370517 0.906061 -2.945985 -12.794922 18.242342 0.000000 0.000000 0.000000 3.077395 -0.800813 10.416380 -7.497674 2.631303 -13.517937 -8.469135 -1.449329 25.626329 11.537846 -7.698895 -16.173960 0.000000 0.000000 0.000000 -12.038045 -24.122233 11.860006 -22.340315 -33.104274 0.888073 9.790578 -37.167153 -1.542888 0.000000 0.000000 0.000000 22.366535 5.156721 -0.008529 52.411349 30.350947 6.059308 93.078616 73.476230 80.686258 0.000000 0.000000 0.000000 
-0.041308 0.949084 -0.023787 -2.804154 -6.052788 10.975006 12.809310 0.001463 -10.273098 -5.444134 0.609985 -3.484642 10.222998 19.859959 23.293486 0.000000 0.000000 0.000000 -5.393177 1.169319 -14.353416 4.770314 -0.410436 1.372039 -3.389445 -13.466333 18.487390 0.000000 0.000000 0.000000 3.050975 -0.856132 11.325948 -7.494993 2.597501 -14.313404 -8.370192 -1.405681 26.262655 11.906549 -7.850246 -16.711636 0.000000 0.000000 0.000000 -12.445049 -24.452706 12.098042 -21.310229 -33.575874 0.729587 12.292916 -35.004447 -2.254819 0.000000 0.000000 0.000000 22.793033 4.514358 -0.312731 53.361570 28.191987 5.149754 90.946058 71.507385 76.771395 0.000000 0.000000 0.000000 
-0.041632 0.948783 -0.022847 -2.555794 -5.519711 11.114600 12.457105 -0.048540 -10.507284 -5.196223 0.579352 -3.537126 9.945030 19.577053 23.104836 0.000000 0.000000 0.000000 -5.492448 1.164753 -14.536656 4.831742 -0.423130 1.566160 -4.209646 -14.681861 18.447793 0.000000 0.000000 0.000000 2.941233 -0.892158 12.141774 -7.272649 2.520834 -14.602654 -8.430701 -1.336507 26.482735 11.684041 -7.658910 -16.682282 0.000000 0.000000 0.000000 -12.369592 -23.521545 11.573467 -21.649580 -33.947474 0.806776 13.657366 -34.162693 -2.588075 0.000000 0.000000 0.000000 23.627577 3.943168 -0.610747 53.272850 26.385720 4.283447 90.243250 70.125697 74.811733 0.000000 0.000000 0.000000 
-0.042226 0.948485 -0.021527 -2.469033 -5.272833 11.414191 12.406789 -0.066288 -10.762534 -5.170497 0.572661 -3.633909 9.841828 19.476471 23.043024 0.000000 0.000000 0.000000 -5.771402 1.168185 -14.891334 5.356597 -0.477811 1.537071 -4.758060 -15.579207 18.973531 0.000000 0.000000 0.000000 2.916974 -0.925019 12.690066 -7.057033 2.438124 -14.953300 -7.911079 -0.790118 26.492606 11.992291 -7.708314 -17.050196 0.000000 0.000000 0.000000 -13.013951 -23.003549 11.363162 -22.613673 -33.555567 0.879123 14.675533 -35.530494 -2.998046 0.000000 0.000000 0.000000 23.861250 3.352603 -0.760636 53.161284 25.470935 3.812379 89.930583 69.894584 74.586381 0.000000 0.000000 0.000000 
-0.043182 0.948016 -0.019807 -2.317879 -4.838566 11.619597 12.049309 -0.118653 -10.849538 -4.674461 0.521679 -3.891725 9.628675 19.262004 22.890330 0.000000 0.000000 0.000000 -5.985397 1.152028 -14.984171 5.495206 -0.496279 1.285393 -5.095516 -16.112489 19.605920 0.000000 0.000000 0.000000 3.368647 -1.018067 12.900940 -7.337882 2.539648 -14.755010 -7.473182 -0.440758 26.359776 12.078768 -7.625331 -17.248491 0.000000 0.000000 0.000000 -13.617583 -22.091981 10.943726 -24.033352 -32.746228 0.955061 15.914927 -38.594975 -3.647321 0.000000 0.000000 0.000000 24.012506 3.275641 -0.619806 52.881202 25.569795 3.797172 85.682528 71.061693 72.016787 0.000000 0.000000 0.000000 
-0.044489 0.947572 -0.017751 -2.358351 -4.604621 11.596922 11.785988 -0.153430 -10.619833 -3.980836 0.460226 -4.088300 9.520486 19.155438 22.726563 0.000000 0.000000 0.000000 -5.946069 1.140561 -14.838576 5.604304 -0.510274 1.271314 -5.200095 -16.246138 19.698760 0.000000 0.000000 0.000000 3.499122 -1.066162 13.271058 -7.340035 2.541087 -14.812079 -6.756833 0.564273 26.368389 12.682827 -7.794036 -17.753232 0.000000 0.000000 0.000000 -14.106402 -21.310798 10.420170 -26.123810 -31.615355 1.064613 17.179130 -42.998219 -4.570327 0.000000 0.000000 0.000000 24.217508 3.159181 -0.307545 51.816712 26.699140 4.066077 78.256686 73.141588 67.656654 0.000000 0.000000 0.000000 
-0.045665 0.947281 -0.015939 -2.231954 -3.931535 11.776363 11.394388 -0.207851 -10.934513 -3.315914 0.399719 -3.986110 9.177680 18.804277 22.500851 0.000000 0.000000 0.000000 -5.914844 1.123105 -14.743239 5.479097 -0.505414 0.986949 -5.640088 -16.850741 20.023158 0.000000 0.000000 0.000000 4.052759 -1.154967 13.044755 -7.593776 2.643163 -14.567289 -6.062124 1.342535 26.141738 13.048531 -7.731228 -18.408641 0.000000 0.000000 0.000000 -14.090913 -20.778016 9.902595 -28.660024 -30.838415 1.313860 18.165692 -48.721505 -5.658054 0.000000 0.000000 0.000000 23.659737 3.810972 0.522842 50.619117 29.493598 5.057024 59.034226 77.006177 54.324250 0.000000 0.000000 0.000000 
-0.046418 0.946874 -0.014711 -2.313086 -3.627095 11.888947 11.358579 -0.219313 -11.159563 -2.969593 0.367564 -3.773573 9.060682 18.691464 22.285055 0.000000 0.000000 0.000000 -5.779596 1.135464 -14.896114 5.295037 -0.493140 1.334418 -5.459273 -16.516209 19.822143 0.000000 0.000000 0.000000 4.684122 -1.227982 12.540291 -7.941457 2.795197 -13.785053 -5.294962 2.364920 25.707791 13.654589 -7.834336 -18.997812 0.000000 0.000000 0.000000 -14.006231 -20.507851 9.480359 -30.933738 -30.408825 1.601042 18.208721 -54.040393 -6.436493 0.000000 0.000000 0.000000 22.856362 5.312246 1.854610 47.555758 33.991150 6.338739 15.054784 78.136005 18.137871 0.000000 0.000000 0.000000 
-0.046811 0.946658 -0.014207 -1.995098 -3.106367 12.014033 11.099253 -0.259059 -11.506031 -3.003642 0.365682 -3.639030 8.771558 18.387102 22.135113 0.000000 0.000000 0.000000 -6.219918 1.098923 -15.009276 5.555420 -0.529026 1.454724 -5.807758 -16.966364 19.813401 0.000000 0.000000 0.000000 5.226017 -1.290738 12.136942 -8.222227 2.892413 -13.784239 -4.828957 3.259219 25.925575 13.840639 -7.861409 -18.874683 0.000000 0.000000 0.000000 -13.282109 -20.594699 9.169527 -32.825352 -30.962177 2.019610 16.997514 -59.797443 -6.614730 0.000000 0.000000 0.000000 21.720034 7.078285 3.280557 42.076240 39.455252 7.059141 -15.553603 71.569508 -5.771873 0.000000 0.000000 0.000000 
-0.047142 0.946662 -0.014251 -2.015811 -2.321752 12.006587 11.309573 -0.269917 -11.725759 -3.181484 0.374630 -3.595302 8.355246 17.945908 21.916336 0.000000 0.000000 0.000000 -6.186255 1.081232 -15.004019 5.520044 -0.537905 1.532545 -6.057127 -17.269818 20.343034 0.000000 0.000000 0.000000 6.059017 -1.381213 11.554320 -8.407972 3.019171 -12.825356 -4.613183 3.894481 25.377809 14.365052 -8.003153 -19.109753 0.000000 0.000000 0.000000 -13.366498 -21.211219 9.229983 -34.030328 -31.857520 2.516823 15.316747 -64.110630 -6.301487 0.000000 0.000000 0.000000 20.247998 9.006029 4.631057 35.726648 44.373288 6.919890 -28.862467 61.267000 -12.622088 0.000000 0.000000 0.000000 
-0.047790 0.946907 -0.014583 -1.572981 -1.742273 11.997118 11.066230 -0.307030 -12.044531 -3.458075 0.391748 -3.381429 7.985329 17.548733 21.911376 0.000000 0.000000 0.000000 -6.930596 1.015388 -15.143338 6.092736 -0.613536 1.797424 -6.443654 -17.777734 20.686370 0.000000 0.000000 0.000000 6.441945 -1.468432 11.795903 -8.644508 3.086578 -13.138600 -4.807281 4.451999 25.325622 15.054061 -8.466107 -18.695110 0.000000 0.000000 0.000000 -11.971812 -22.402409 9.410733 -35.020299 -33.394021 3.138854 14.690040 -67.473452 -6.429713 0.000000 0.000000 0.000000 17.546451 10.661787 5.598439 29.124550 50.574757 6.449889 -32.911228 51.578345 -12.230951 0.000000 0.000000 0.000000 
-0.048861 0.946946 -0.014984 -1.365610 -1.039202 12.042773 11.000702 -0.337519 -12.435143 -3.522318 0.390599 -3.160144 7.589255 17.127723 21.818753 0.000000 0.000000 0.000000 -7.010818 0.994866 -15.290612 5.922570 -0.608575 1.996367 -6.752272 -18.156629 21.110259 0.000000 0.000000 0.000000 7.069507 -1.557969 11.608611 -9.204932 3.296105 -12.881465 -5.098562 4.583703 25.085296 15.573110 -8.782986 -18.550727 0.000000 0.000000 0.000000 -10.724632 -23.634056 9.689401 -36.029843 -35.256395 3.893298 13.570804 -69.728938 -5.974272 0.000000 0.000000 0.000000 14.502036 11.840570 6.022209 21.706545 56.180254 4.750284 -34.047333 41.409812 -9.991052 0.000000 0.000000 0.000000 
-0.050171 0.947158 -0.015118 -1.149484 -0.838648 12.035500 11.116269 -0.336015 -12.653309 -3.963454 0.424840 -2.889365 7.446504 16.975479 21.915199 0.000000 0.000000 0.000000 -7.488649 0.952968 -15.362701 6.340809 -0.664118 2.157469 -6.595822 -17.889752 21.230920 0.000000 0.000000 0.000000 7.101505 -1.585379 11.804067 -9.169011 3.252958 -13.428163 -5.569487 5.287024 25.482326 16.482275 -9.374042 -18.399111 0.000000 0.000000 0.000000 -9.061350 -25.056285 9.928249 -37.833674 -36.899354 4.730947 12.178401 -71.005736 -5.202347 0.000000 0.000000 0.000000 10.843304 12.573408 6.087198 13.297886 61.190245 1.610068 -33.627776 33.649720 -7.826955 0.000000 0.000000 0.000000 
-0.051418 0.947355 -0.014909 -0.994890 -0.502467 12.375355 11.365619 -0.337109 -13.011475 -4.483357 0.463576 -3.047743 7.249017 16.771834 22.101086 0.000000 0.000000 0.000000 -7.681233 0.936919 -15.498980 6.082342 -0.636303 1.967138 -5.950049 -16.864389 21.246587 0.000000 0.000000 0.000000 7.464116 -1.626760 11.528449 -9.692237 3.437608 -13.178969 -6.023279 5.389241 24.961029 17.428291 -9.880856 -18.659868 0.000000 0.000000 0.000000 -7.792153 -26.070154 10.106909 -39.604147 -38.548116 5.718738 9.958706 -71.924494 -3.664378 0.000000 0.000000 0.000000 7.737281 12.813046 5.807775 4.915036 64.005490 -2.505124 -32.510023 29.483418 -6.554606 0.000000 0.000000 0.000000 
-0.052525 0.947822 -0.014200 -0.896893 -0.361839 12.271849 11.637622 -0.322395 -12.955752 -5.921289 0.588526 -2.525625 8.357149 18.179465 20.905397 0.000000 0.000000 0.000000 -7.951772 0.916393 -15.732357 6.295111 -0.672644 2.501803 -5.786786 -16.633894 21.858532 0.000000 0.000000 0.000000 7.347598 -1.653317 11.937938 -10.257725 3.602583 -13.451575 -6.139930 5.726547 25.126655 17.979228 -10.117848 -19.018950 0.000000 0.000000 0.000000 -7.038717 -27.359827 10.455685 -40.962085 -39.471884 6.355607 8.764539 -71.972669 -2.825005 0.000000 0.000000 0.000000 5.308696 12.647902 5.439527 -1.992128 65.572233 -6.296240 -32.456233 28.443434 -6.349521 0.000000 0.000000 0.000000 
-0.053483 0.948284 -0.012926 -0.776405 -0.395269 12.076471 11.798315 -0.309164 -12.700123 -6.757893 0.670470 -2.176803 8.767750 18.696904 20.229499 0.000000 0.000000 0.000000 -8.153575 0.888589 -15.447088 6.093087 -0.644538 2.272323 -5.115856 -15.693540 22.640807 0.000000 0.000000 0.000000 7.264918 -1.654014 12.117619 -10.672500 3.743889 -13.361418 -6.497242 5.920914 24.930966 18.298929 -10.799915 -17.474402 0.000000 0.000000 0.000000 -6.409481 -27.556337 10.397879 -42.022230 -39.590582 6.655431 8.244048 -72.485302 -2.472569 0.000000 0.000000 0.000000 3.820493 12.321776 5.113087 -5.828916 66.257500 -8.479860 -32.633861 30.040545 -6.840366 0.000000 0.000000 0.000000 
-0.054177 0.948416 -0.010870 -1.010262 -0.339685 11.731716 12.069548 -0.285289 -12.429507 -7.060713 0.711524 -1.675395 9.204829 19.272264 19.757246 0.000000 0.000000 0.000000 -8.060711 0.877968 -15.070812 5.997303 -0.632596 2.149700 -4.400325 -14.738463 23.780214 0.000000 0.000000 0.000000 7.213004 -1.647452 12.195381 -11.248936 3.970652 -12.936363 -6.360639 5.918086 24.769742 18.734554 -11.399098 -16.611831 0.000000 0.000000 0.000000 -6.175740 -27.914847 10.488547 -42.360659 -38.932291 6.513788 7.378878 -72.644944 -1.883284 0.000000 0.000000 0.000000 2.877020 12.270003 4.950227 -6.999502 65.640697 -8.976206 -34.635418 33.256477 -8.276485 0.000000 0.000000 0.000000 
-0.054545 0.948437 -0.008341 -0.985623 -0.087484 11.554942 12.115978 -0.287770 -12.363855 -7.220263 0.721267 -1.717418 9.554790 19.766421 20.632796 0.000000 0.000000 0.000000 -7.874742 0.869853 -14.736572 5.619051 -0.592977 2.314635 -4.313387 -14.551481 23.622411 0.000000 0.000000 0.000000 7.042884 -1.605961 12.080212 -11.457516 4.049312 -12.931497 -6.514247 5.936536 25.343953 18.573431 -11.494576 -16.070256 0.000000 0.000000 0.000000 -5.820614 -28.006885 10.443111 -42.548091 -38.199568 6.223619 9.904049 -72.585938 -3.751219 0.000000 0.000000 0.000000 2.320494 12.460927 4.947777 -5.031136 63.811144 -7.533142 -37.234734 38.966313 -10.805029 0.000000 0.000000 0.000000 
-0.054407 0.948377 -0.005852 -1.434558 0.034537 11.113830 12.442112 -0.265954 -11.862118 -7.226926 0.719546 -1.744012 10.153592 20.546597 20.866297 0.000000 0.000000 0.000000 -7.494476 0.876148 -14.329117 5.700797 -0.608670 2.584307 -4.110073 -14.292543 24.132851 0.000000 0.000000 0.000000 6.761735 -1.575146 12.274849 -11.143492 3.983359 -12.617273 -6.401422 5.839809 25.390210 18.649461 -12.083584 -14.565537 0.000000 0.000000 0.000000 -6.397831 -27.569832 10.365400 -42.238827 -37.558301 5.918122 9.647951 -71.552956 -3.532276 0.000000 0.000000 0.000000 2.913046 12.138942 4.901828 -0.507130 62.258149 -4.944398 -40.573917 46.567844 -14.632057 0.000000 0.000000 0.000000 
-0.053923 0.947788 -0.004006 -1.548220 0.625792 11.027435 12.314217 -0.292405 -12.013925 -7.100594 0.704337 -1.497759 10.559937 21.135726 20.640969 0.000000 0.000000 0.000000 -7.012566 0.875611 -13.818636 5.314645 -0.567466 2.386857 -4.707648 -15.006801 23.593389 0.000000 0.000000 0.000000 6.271907 -1.590223 13.133204 -11.047761 3.863027 -13.834272 -6.090835 5.407687 26.263425 18.561276 -11.930330 -15.074166 0.000000 0.000000 0.000000 -6.873092 -27.311625 10.371859 -42.341846 -36.876632 5.626627 11.023731 -71.947555 -4.458073 0.000000 0.000000 0.000000 4.006783 11.641910 4.862635 4.125748 59.851759 -2.606835 -44.143835 53.398262 -18.909221 0.000000 0.000000 0.000000 
-0.053293 0.947624 -0.002834 -1.790447 0.851377 11.109865 12.539898 -0.287858 -12.004862 -7.067452 0.694125 -1.617890 10.486794 21.064923 20.449555 0.000000 0.000000 0.000000 -6.931414 0.894263 -14.264906 5.868616 -0.653967 3.421764 -5.195967 -15.637490 22.961627 0.000000 0.000000 0.000000 5.874407 -1.545143 13.284972 -10.854308 3.803182 -13.847449 -6.228661 4.849586 26.752514 17.955311 -12.112211 -13.512381 0.000000 0.000000 0.000000 -7.022206 -27.036327 10.352810 -41.963441 -37.169551 5.623757 16.580394 -69.903503 -8.048738 0.000000 0.000000 0.000000 5.943223 10.833041 4.762698 8.380093 57.164169 -0.814775 -47.181736 59.318929 -23.208351 0.000000 0.000000 0.000000 
-0.052711 0.947674 -0.002249 -2.222380 -0.047013 10.469230 12.442535 -0.240309 -11.647903 -6.303684 0.663317 -0.524423 11.005006 21.648883 20.327660 0.000000 0.000000 0.000000 -6.331930 0.957360 -14.317201 6.194956 -0.696744 4.340371 -6.117642 -17.156463 23.068807 0.000000 0.000000 0.000000 4.968317 -1.511304 14.928575 -10.036650 3.420863 -15.590572 -5.984614 5.458543 27.458096 17.341248 -12.091178 -12.304741 0.000000 0.000000 0.000000 -7.619050 -27.072086 10.460957 -41.156063 -36.439509 5.113307 22.301075 -68.529546 -11.793918 0.000000 0.000000 0.000000 8.981506 11.349880 5.417805 10.646384 53.657491 -0.183505 -48.448754 62.045708 -25.275045 0.000000 0.000000 0.000000 
-0.052435 0.947429 -0.001768 -2.675944 -0.842093 10.945350 12.943936 -0.172290 -12.093639 -6.417607 0.695090 -0.200446 11.554403 22.271656 20.531623 0.000000 0.000000 0.000000 -5.282568 1.131825 -15.519418 5.627055 -0.611918 5.560347 -6.679452 -18.096108 22.278318 0.000000 0.000000 0.000000 5.167030 -1.650205 16.187109 -11.126465 3.637229 -16.863647 -5.333025 4.450149 27.549324 15.165356 -10.252061 -12.999324 0.000000 0.000000 0.000000 -7.656151 -25.458253 10.036871 -42.769633 -37.262592 5.832075 21.339421 -67.778278 -10.490915 0.000000 0.000000 0.000000 9.067799 11.127434 5.121725 14.882556 53.096317 1.382397 -46.033606 62.330063 -23.970705 0.000000 0.000000 0.000000 
-0.052444 0.947530 -0.001226 -2.822213 -1.580384 10.103081 12.442792 -0.141074 -12.227612 -5.425381 0.634182 2.068768 11.956948 22.731628 20.384636 0.000000 0.000000 0.000000 -4.552603 1.177308 -15.195233 5.133404 -0.530587 6.636662 -7.149176 -18.873425 21.494305 0.000000 0.000000 0.000000 3.850815 -1.514993 18.263463 -10.110230 3.324106 -17.228107 -4.849773 4.589363 26.492351 13.604805 -9.056488 -12.647554 0.000000 0.000000 0.000000 -6.893802 -25.823719 10.058256 -41.429468 -35.950144 5.159441 22.693277 -65.411438 -11.062723 0.000000 0.000000 0.000000 9.739143 11.986413 5.516546 18.532059 48.249287 2.289605 -50.380891 62.984168 -27.166746 0.000000 0.000000 0.000000 
