HIERARCHY
ROOT Hips
{
	OFFSET -0.001795 -0.223333 0.028219
	CHANNELS 6 Xposition Yposition Zposition Zrotation Yrotation Xrotation 
	JOINT LeftUpLeg
	{
		OFFSET 0.069520 -0.091406 -0.006815
		CHANNELS 3 Zrotation Yrotation Xrotation
		JOINT LeftLeg
		{
			OFFSET 0.034277 -0.375199 -0.004496
			CHANNELS 3 Zrotation Yrotation Xrotation
			JOINT LeftFoot
			{
				OFFSET -0.013596 -0.397961 -0.043693
				CHANNELS 3 Zrotation Yrotation Xrotation
				JOINT LeftToe
				{
					OFFSET 0.026358 -0.055791 0.119288
					CHANNELS 3 Zrotation Yrotation Xrotation
					End Site
					{
						OFFSET 0.000000 0.000000 0.000000
					}
				}
			}
		}
	}
	JOINT RightUpLeg
	{
		OFFSET -0.067670 -0.090522 -0.004320
		CHANNELS 3 Zrotation Yrotation Xrotation
		JOINT RightLeg
		{
			OFFSET -0.038290 -0.382569 -0.008850
			CHANNELS 3 Zrotation Yrotation Xrotation
			JOINT RightFoot
			{
				OFFSET 0.015774 -0.398415 -0.042312
				CHANNELS 3 Zrotation Yrotation Xrotation
				JOINT RightToe
				{
					OFFSET -0.025372 -0.048144 0.123348
					CHANNELS 3 Zrotation Yrotation Xrotation
					End Site
					{
						OFFSET 0.000000 0.000000 0.000000
					}
				}
			}
		}
	}
	JOINT Spine
	{
		OFFSET -0.002533 0.108963 -0.026696
		CHANNELS 3 Zrotation Yrotation Xrotation
		JOINT Spine1
		{
			OFFSET 0.005487 0.135180 0.001092
			CHANNELS 3 Zrotation Yrotation Xrotation
			JOINT Spine2
			{
				OFFSET 0.001457 0.052922 0.025425
				CHANNELS 3 Zrotation Yrotation Xrotation
				JOINT Neck
				{
					OFFSET -0.002778 0.213870 -0.042857
					CHANNELS 3 Zrotation Yrotation Xrotation
					JOINT Head
					{
						OFFSET 0.005152 0.064970 0.051349
						CHANNELS 3 Zrotation Yrotation Xrotation
						End Site
						{
							OFFSET 0.000000 0.000000 0.000000
						}
					}
				}
				JOINT LeftShoulder
				{
					OFFSET 0.078845 0.121749 -0.034090
					CHANNELS 3 Zrotation Yrotation Xrotation
					JOINT LeftArm
					{
						OFFSET 0.090977 0.030469 -0.008868
						CHANNELS 3 Zrotation Yrotation Xrotation
						JOINT LeftForeArm
						{
							OFFSET 0.259612 -0.012772 -0.027456
							CHANNELS 3 Zrotation Yrotation Xrotation
							JOINT LeftHand
							{
								OFFSET 0.249234 0.008986 -0.001171
								CHANNELS 3 Zrotation Yrotation Xrotation
								End Site
								{
									OFFSET 0.000000 0.000000 0.000000
								}
							}
						}
					}
				}
				JOINT RightShoulder
				{
					OFFSET -0.081759 0.118833 -0.038615
					CHANNELS 3 Zrotation Yrotation Xrotation
					JOINT RightArm
					{
						OFFSET -0.096012 0.032551 -0.009143
						CHANNELS 3 Zrotation Yrotation Xrotation
						JOINT RightForeArm
						{
							OFFSET -0.253742 -0.013329 -0.021401
							CHANNELS 3 Zrotation Yrotation Xrotation
							JOINT RightHand
							{
								OFFSET -0.255298 0.007772 -0.005559
								CHANNELS 3 Zrotation Yrotation Xrotation
								End Site
								{
									OFFSET 0.000000 0.000000 0.000000
								}
							}
						}
					}
				}
			}
		}
	}
}
MOTION
Frames: 112
Frame Time: 0.050000
0.000000 0.946952 0.000000 -0.404444 2.075717 -0.048282 -0.423594 0.402588 4.284724 1.432638 -0.051371 -2.144719 -3.178374 -2.613596 7.262590 0.000000 0.000000 0.000000 -1.620188 0.582887 -6.430039 0.476339 0.158253 6.313805 2.159515 0.971435 8.552621 0.000000 0.000000 0.000000 2.639520 -0.279750 4.032475 -0.128402 0.009506 1.516967 -1.545183 0.791697 1.607886 4.566231 -2.166210 -9.895036 0.000000 0.000000 0.000000 -27.127495 -2.719379 -1.972337 -43.021085 -4.736037 -2.986879 -10.402033 -23.452214 2.903566 0.000000 0.000000 0.000000 26.584831 -0.567223 -2.296947 46.318055 4.176303 -2.903156 4.737673 23.413828 1.728135 0.000000 0.000000 0.000000 
-0.002408 0.946232 0.005045 -0.342773 1.280231 0.567558 -0.235820 0.412884 4.456145 1.099937 0.009450 -2.909260 -2.846726 -2.058286 7.303227 0.000000 0.000000 0.000000 -1.673046 0.657479 -7.274400 0.718223 0.147090 7.031955 2.359304 1.547266 8.041334 0.000000 0.000000 0.000000 2.712440 -0.242520 3.329389 -0.687589 0.264197 2.551287 -1.205381 0.911429 0.653439 3.985185 -1.778642 -9.917487 0.000000 0.000000 0.000000 -27.410850 -2.011985 -2.351988 -43.168129 -4.429359 -3.055145 -10.235651 -23.925945 2.936131 0.000000 0.000000 0.000000 26.356962 -0.642976 -2.492636 47.046672 3.654331 -2.998365 4.666240 24.465144 1.777583 0.000000 0.000000 0.000000 
-0.006360 0.945979 0.010143 0.034511 1.317306 0.946285 -0.247024 0.370631 3.981463 0.867212 0.000172 -2.220684 -2.845680 -2.070809 7.274806 0.000000 0.000000 0.000000 -1.328498 0.744297 -8.095171 -0.126428 0.344228 8.396553 2.123390 1.386798 7.327690 0.000000 0.000000 0.000000 3.156906 -0.263320 3.317723 -0.792976 0.370244 0.363480 -1.378630 0.149265 2.409067 3.181668 -1.323712 -9.886606 0.000000 0.000000 0.000000 -26.881130 -1.876803 -2.038373 -43.665966 -4.636641 -3.251929 -10.461569 -22.710403 2.874775 0.000000 0.000000 0.000000 27.383282 -0.563474 -2.731848 45.711623 3.317365 -3.131947 4.694440 25.006710 1.811943 0.000000 0.000000 0.000000 
-0.012446 0.946459 0.015833 0.110762 1.223626 1.423064 0.056437 0.349727 3.916580 0.889521 0.005064 -2.385667 -2.874152 -1.957857 7.636692 0.000000 0.000000 0.000000 -1.082627 0.802553 -8.595507 0.021160 0.340097 8.985691 2.090341 1.410385 7.114160 0.000000 0.000000 0.000000 3.054810 -0.272710 3.441314 -0.829306 0.376625 0.808273 -0.846156 -0.384529 1.499741 2.791116 -1.207034 -8.866933 0.000000 0.000000 0.000000 -27.346724 -0.856241 -2.510451 -43.361711 -4.725212 -3.192974 -10.073677 -22.345749 2.772861 0.000000 0.000000 0.000000 27.068707 -0.855034 -3.177439 45.659228 3.065742 -3.052356 5.216847 25.515826 1.915202 0.000000 0.000000 0.000000 
-0.020559 0.946793 0.021883 0.087638 1.089703 1.636676 0.437936 0.329120 3.902138 1.191672 -0.034598 -2.083095 -2.816190 -1.766454 7.842043 0.000000 0.000000 0.000000 -0.247466 0.855770 -8.696211 -0.433523 0.445345 9.421019 2.046805 1.466055 6.779909 0.000000 0.000000 0.000000 3.403086 -0.318646 3.837824 -0.341454 0.152135 0.363833 -1.257214 -0.532319 1.448598 3.027013 -1.411930 -8.515442 0.000000 0.000000 0.000000 -27.019354 -0.955590 -2.370757 -43.322400 -4.583910 -3.243585 -10.369765 -21.724836 2.753793 0.000000 0.000000 0.000000 26.747842 -1.324946 -3.478655 45.800061 3.334042 -2.941481 5.788770 26.431415 2.108022 0.000000 0.000000 0.000000 
-0.030350 0.946235 0.028534 0.017371 0.945894 2.092921 1.037097 0.255977 3.390416 1.376859 -0.087977 -1.287401 -2.649476 -1.530354 7.733282 0.000000 0.000000 0.000000 0.524131 0.925834 -8.992644 -0.494986 0.474928 9.801766 1.964911 1.545642 6.230098 0.000000 0.000000 0.000000 3.720337 -0.375629 4.317875 -0.295776 0.146035 -0.213812 -1.183532 -0.776842 1.291407 2.807126 -1.244413 -8.833200 0.000000 0.000000 0.000000 -26.803991 -0.684500 -2.401145 -43.450906 -4.254357 -3.382591 -9.699868 -21.694833 2.635344 0.000000 0.000000 0.000000 26.305981 -1.660886 -3.755609 46.317938 3.384379 -2.899115 5.838461 26.555838 2.109290 0.000000 0.000000 0.000000 
-0.040914 0.945125 0.036027 0.077728 0.454148 2.375081 1.386782 0.205310 2.937535 1.731591 -0.183975 -0.063364 -2.276236 -1.001818 7.505085 0.000000 0.000000 0.000000 1.372466 0.983163 -9.118204 -0.878745 0.579095 10.294093 1.961344 1.919740 5.399459 0.000000 0.000000 0.000000 4.026554 -0.438327 4.879658 -0.425679 0.216707 -0.597069 -1.544507 -0.685968 1.447558 3.016923 -1.357505 -9.160909 0.000000 0.000000 0.000000 -26.505266 -0.501877 -2.446939 -43.598670 -4.073004 -3.473347 -9.105895 -22.000407 2.564787 0.000000 0.000000 0.000000 26.143991 -1.796537 -3.839634 46.920588 3.458101 -2.911640 5.753859 27.292402 2.153461 0.000000 0.000000 0.000000 
-0.051288 0.943787 0.044300 0.125164 -0.218847 2.139476 1.894563 0.138308 2.274543 1.730907 -0.344208 3.140305 -1.709667 -0.607899 6.175736 0.000000 0.000000 0.000000 2.098679 0.969511 -8.683927 -1.057619 0.654253 10.892124 2.029892 2.511926 4.494185 0.000000 0.000000 0.000000 4.420923 -0.561264 6.196162 -0.670861 0.348451 -1.491556 -1.493438 -0.445286 1.810681 3.111025 -1.377357 -9.702652 0.000000 0.000000 0.000000 -26.678109 -0.434612 -2.448893 -43.305747 -3.896850 -3.555034 -8.939904 -22.951360 2.656137 0.000000 0.000000 0.000000 26.085505 -2.189975 -4.104387 46.911865 3.595184 -2.882618 5.963102 27.593090 2.223975 0.000000 0.000000 0.000000 
-0.060651 0.942436 0.053018 0.120691 -0.301872 2.089481 2.448335 -0.044894 -0.056754 1.774553 -0.643084 9.019883 -1.402064 -0.750289 4.570712 0.000000 0.000000 0.000000 2.698143 0.906201 -7.943529 -0.995249 0.634385 10.722350 1.915825 2.683610 3.699761 0.000000 0.000000 0.000000 4.829117 -0.665070 7.115583 -0.527893 0.286818 -1.711052 -1.724243 -0.248050 2.240191 3.269265 -1.365172 -10.720394 0.000000 0.000000 0.000000 -26.468669 -0.413979 -2.490052 -43.973022 -4.551710 -3.400906 -8.319455 -23.503291 2.592071 0.000000 0.000000 0.000000 25.876670 -2.036092 -3.894782 46.962502 4.074725 -2.767769 4.831605 27.544853 1.983644 0.000000 0.000000 0.000000 
-0.068447 0.941439 0.062175 0.258506 -0.111619 1.898148 2.972423 -0.304219 -3.911841 1.335308 -0.985322 18.030729 -1.325232 -1.048814 3.580168 0.000000 0.000000 0.000000 2.616779 0.742070 -6.626275 -0.175847 0.430346 9.862228 1.807564 2.773625 3.104527 0.000000 0.000000 0.000000 5.153792 -0.793524 8.348185 -0.374521 0.226344 -2.095543 -1.917623 -0.035415 2.479310 3.498435 -1.463037 -10.999244 0.000000 0.000000 0.000000 -26.419154 -0.033374 -2.831959 -44.266765 -5.265415 -3.160549 -8.144308 -23.731747 2.569097 0.000000 0.000000 0.000000 24.432541 -1.920047 -3.503075 47.714358 4.757660 -2.609077 3.672412 26.707509 1.689450 0.000000 0.000000 0.000000 
-0.074575 0.940547 0.071953 0.116202 -1.361424 2.120056 3.075109 -0.587228 -8.475466 0.641057 -1.067753 27.219989 0.096612 1.949842 4.171789 0.000000 0.000000 0.000000 2.793954 0.715653 -6.432907 0.300332 0.367274 10.124695 2.234149 3.969950 2.729028 0.000000 0.000000 0.000000 6.155587 -0.931178 8.923735 -1.034972 0.527611 -2.894244 -1.590491 0.839899 3.477467 3.228130 -1.158090 -12.200157 0.000000 0.000000 0.000000 -27.506103 0.331955 -3.201260 -43.693745 -5.126993 -3.236647 -8.176117 -25.047329 2.731564 0.000000 0.000000 0.000000 23.672573 -2.119704 -3.445164 46.784768 5.218009 -2.495356 4.713643 26.036358 1.883266 0.000000 0.000000 0.000000 
-0.079202 0.939520 0.082853 0.259219 -1.033180 1.578346 2.115526 -0.967369 -13.004466 0.273098 -1.294557 36.761331 1.567006 5.022868 4.808636 0.000000 0.000000 0.000000 3.273514 0.659556 -5.853785 -0.185387 0.518703 11.500860 1.904869 3.640922 1.977334 0.000000 0.000000 0.000000 5.993363 -1.079870 10.800923 -0.536223 0.282815 -1.463656 -1.190457 2.038391 1.260524 2.398041 -0.333979 -13.677025 0.000000 0.000000 0.000000 -28.493357 0.022427 -3.733694 -43.309016 -5.502869 -2.736852 -10.246542 -26.488837 3.273254 0.000000 0.000000 0.000000 23.245097 -2.929808 -3.537123 45.418628 5.142067 -2.380366 6.294117 25.176190 2.182033 0.000000 0.000000 0.000000 
-0.082878 0.938649 0.095184 -0.216754 -1.234950 1.046892 2.275481 -1.293039 -18.049017 -1.083444 -0.867432 47.939755 2.835068 6.947690 3.150936 0.000000 0.000000 0.000000 4.199957 0.490945 -4.436613 -0.524859 0.591092 11.480161 1.941120 3.928415 1.649081 0.000000 0.000000 0.000000 7.251561 -1.343121 12.191517 -1.132935 0.561398 -1.699528 -0.224598 2.301321 1.586917 2.235497 -0.221991 -13.886410 0.000000 0.000000 0.000000 -29.521701 -0.100408 -3.770031 -42.701035 -5.548654 -2.711453 -10.779596 -27.142020 3.493699 0.000000 0.000000 0.000000 21.572505 -2.254114 -2.958096 44.854928 4.416881 -2.625942 6.801654 26.184585 2.387202 0.000000 0.000000 0.000000 
-0.086226 0.938264 0.109281 -0.154804 -1.567443 0.980665 2.700867 -1.555006 -23.325033 -3.222456 0.510500 54.102762 3.208215 7.285164 1.782709 0.000000 0.000000 0.000000 4.376052 0.297403 -3.038577 -0.717319 0.599086 10.755977 2.065680 4.409768 1.367766 0.000000 0.000000 0.000000 7.552652 -1.436243 12.814618 -0.669936 0.345319 -1.626433 -1.118448 3.209645 1.752352 3.338979 -0.899342 -13.219319 0.000000 0.000000 0.000000 -29.921139 -1.162135 -3.516458 -42.194917 -5.324700 -2.642555 -10.718648 -28.009079 3.538168 0.000000 0.000000 0.000000 24.003877 -2.485899 -3.063192 42.781402 5.188148 -2.398637 5.627043 26.330549 2.202789 0.000000 0.000000 0.000000 
-0.089052 0.938499 0.126066 0.627721 -3.763675 1.348512 2.541367 -1.657397 -26.608878 -5.286788 2.497208 52.526246 3.224496 6.587992 -0.677902 0.000000 0.000000 0.000000 3.735233 0.184001 -2.328147 -1.474781 0.761835 10.512008 2.794571 6.419190 1.041161 0.000000 0.000000 0.000000 6.465770 -1.233261 12.421957 -1.432909 0.686688 -2.283284 -0.688658 4.930365 2.457646 3.560800 -1.279885 -11.036474 0.000000 0.000000 0.000000 -28.772470 -1.120945 -3.527711 -42.876691 -4.415726 -3.007150 -11.656208 -28.764678 3.852023 0.000000 0.000000 0.000000 23.382153 -2.668109 -2.936229 43.688339 5.207961 -2.527333 5.688501 25.953170 2.217743 0.000000 0.000000 0.000000 
-0.091333 0.939625 0.145997 1.220277 -4.435892 1.063696 2.356977 -1.729478 -28.028985 -6.053969 2.721146 45.721858 2.548057 5.714329 1.156653 0.000000 0.000000 0.000000 3.131043 0.010820 -0.913694 -1.701884 0.824567 10.673334 3.163885 7.095278 1.351631 0.000000 0.000000 0.000000 5.349486 -1.126296 12.990713 -1.628966 0.771231 -2.457504 -0.018987 5.151812 3.012578 2.926889 -0.798263 -11.799569 0.000000 0.000000 0.000000 -29.037488 -0.914091 -3.564513 -42.846036 -4.119448 -3.183918 -11.584308 -29.223164 3.925289 0.000000 0.000000 0.000000 23.090390 -2.207809 -2.705796 44.343479 6.080870 -2.270359 4.996129 25.301898 1.998957 0.000000 0.000000 0.000000 
-0.092744 0.940384 0.169117 1.481832 -4.645679 1.301097 2.017299 -1.832955 -28.705636 -5.150945 1.727502 35.777515 1.944099 4.860643 2.419427 0.000000 0.000000 0.000000 2.824884 -0.181576 0.710185 -1.759397 0.801428 10.146569 3.210129 7.151052 1.410373 0.000000 0.000000 0.000000 4.419743 -1.027928 13.228420 -1.106943 0.532723 -2.267277 0.118682 5.465430 2.653341 2.200321 -0.295605 -11.928085 0.000000 0.000000 0.000000 -29.508237 0.089323 -4.366369 -42.389252 -3.432481 -3.320586 -12.836667 -28.775856 4.168209 0.000000 0.000000 0.000000 23.172982 -1.792107 -2.423503 44.371687 6.178933 -2.222229 5.046219 25.175298 2.002746 0.000000 0.000000 0.000000 
-0.093095 0.939139 0.195263 1.167057 -5.925321 1.806629 1.990108 -1.723158 -28.264377 -3.631019 0.728192 21.336685 0.536026 3.747182 7.974624 0.000000 0.000000 0.000000 2.882926 -0.367738 2.187011 -1.934167 0.816281 9.744948 3.514177 8.082621 1.142415 0.000000 0.000000 0.000000 4.256187 -0.960460 12.669753 -1.459874 0.689429 -1.428162 0.287461 6.503041 1.924282 2.190014 -0.256102 -11.913733 0.000000 0.000000 0.000000 -29.437952 0.165409 -4.587951 -42.413207 -2.524540 -3.514396 -12.957219 -28.761926 4.160129 0.000000 0.000000 0.000000 22.995141 -1.472671 -2.123380 45.306284 6.784885 -2.001611 5.016260 25.274869 2.022209 0.000000 0.000000 0.000000 
-0.092331 0.936162 0.224563 1.236168 -7.594667 1.846537 2.471210 -1.438865 -27.101600 -3.476325 0.498438 8.931770 -1.448274 2.497618 15.818731 0.000000 0.000000 0.000000 2.576166 -0.578917 4.221749 -2.291583 0.895280 9.756064 3.179279 8.160730 -0.046276 0.000000 0.000000 0.000000 3.602996 -0.874701 13.016631 -2.342036 1.083174 -1.833468 0.692636 8.091096 1.861187 2.326947 -0.316709 -11.698484 0.000000 0.000000 0.000000 -30.167585 0.091660 -4.925926 -41.510035 -2.022809 -3.499335 -12.473810 -27.996788 3.891050 0.000000 0.000000 0.000000 23.557212 -1.798640 -2.169945 45.373972 7.062379 -1.963509 6.899966 27.078358 2.651150 0.000000 0.000000 0.000000 
-0.090353 0.931032 0.257135 1.392397 -7.172986 1.107588 1.290173 -1.701186 -26.073576 -2.668492 0.313566 5.202853 -3.862143 0.440687 20.514307 0.000000 0.000000 0.000000 2.259500 -0.843894 7.014918 -1.937904 0.834692 9.852289 2.224608 5.773307 -0.175270 0.000000 0.000000 0.000000 2.940067 -0.824484 13.780247 -1.828104 0.843833 -2.275951 0.003110 8.132697 2.504529 3.067573 -0.632310 -12.754216 0.000000 0.000000 0.000000 -29.477290 -0.501353 -4.543943 -42.092832 -2.355947 -3.475125 -11.117584 -26.560288 3.353778 0.000000 0.000000 0.000000 24.314458 -0.829296 -1.481339 46.472810 7.839282 -1.831417 4.904832 26.876018 2.213110 0.000000 0.000000 0.000000 
-0.086770 0.925158 0.293473 1.111347 -7.991139 1.286422 0.668117 -1.820467 -26.645507 -2.062754 0.212426 7.940306 -4.016717 0.280273 21.045712 0.000000 0.000000 0.000000 1.932735 -0.969487 8.702986 -2.192107 0.952886 10.682028 2.324819 5.996723 -0.162414 0.000000 0.000000 0.000000 2.612718 -0.757235 13.448758 -2.306938 1.056135 -2.275669 0.368110 8.771509 2.572270 3.494739 -0.846836 -13.109490 0.000000 0.000000 0.000000 -29.113560 -1.243868 -4.066897 -42.730996 -2.570239 -3.449720 -9.698930 -25.617937 2.905624 0.000000 0.000000 0.000000 25.362707 -0.599200 -1.345112 45.808210 8.017401 -1.804244 3.528863 27.326151 1.954587 0.000000 0.000000 0.000000 
-0.081854 0.920497 0.334613 0.780182 -8.308602 1.775472 -0.307390 -2.045956 -27.003730 -1.000848 -0.013004 12.016176 -3.742484 -0.205878 18.496620 0.000000 0.000000 0.000000 1.235788 -0.964305 9.570003 -2.201931 1.147943 12.975792 3.263242 7.268803 1.184460 0.000000 0.000000 0.000000 2.342287 -0.684205 12.504812 -2.421467 1.111679 -2.012831 0.501831 8.883265 2.794543 4.333739 -1.351353 -13.383390 0.000000 0.000000 0.000000 -28.510921 -1.439007 -3.796709 -43.172313 -2.044573 -3.705840 -9.118520 -24.927848 2.708881 0.000000 0.000000 0.000000 25.477549 -0.234921 -1.143684 46.229233 7.175574 -2.122890 3.755272 29.030812 2.155119 0.000000 0.000000 0.000000 
-0.076270 0.921542 0.380106 0.955675 -8.591202 1.613657 -1.112794 -2.135546 -25.606069 -1.482366 0.127029 15.045709 -2.772319 -0.214176 14.128966 0.000000 0.000000 0.000000 0.595497 -0.952446 10.502383 -3.401190 1.751061 16.413982 4.989505 8.130718 5.237627 0.000000 0.000000 0.000000 1.395801 -0.524362 11.372583 -2.251739 1.043697 -1.526747 0.563285 9.184474 2.594574 4.269883 -1.296678 -13.379493 0.000000 0.000000 0.000000 -29.021228 -2.091700 -3.547461 -43.015439 -2.397146 -3.510245 -7.290257 -23.500626 2.169606 0.000000 0.000000 0.000000 25.266005 -0.727884 -1.397412 46.487336 7.159612 -2.126019 4.468496 28.900524 2.326302 0.000000 0.000000 0.000000 
-0.071088 0.927292 0.427912 1.577834 -7.354582 1.465605 -3.066059 -2.368024 -22.531687 -1.206160 0.018456 15.296852 -2.834410 -1.151831 11.396564 0.000000 0.000000 0.000000 -0.660965 -0.665862 8.543880 -2.741216 2.360087 24.315668 6.794664 8.107066 10.799434 0.000000 0.000000 0.000000 0.476612 -0.401798 10.363591 -2.225612 1.018496 -2.483468 0.506292 7.633533 3.707873 4.986793 -1.923412 -12.868019 0.000000 0.000000 0.000000 -29.229873 -1.894799 -3.276761 -42.607700 -3.881654 -3.177077 -6.409782 -22.456361 1.954178 0.000000 0.000000 0.000000 25.400353 -0.964830 -1.832774 46.569755 6.630493 -2.337479 5.890134 28.599361 2.594025 0.000000 0.000000 0.000000 
-0.066805 0.935443 0.474114 2.146433 -6.491862 1.048493 -5.073803 -2.264459 -17.937540 -0.366243 -0.207763 13.359887 -3.075920 -2.059381 9.954393 0.000000 0.000000 0.000000 -2.436716 -0.194214 4.165176 -1.496124 3.119587 36.045842 9.537665 9.173293 17.421165 0.000000 0.000000 0.000000 -1.025040 -0.243547 10.059986 -1.710834 0.800779 -1.629729 0.572018 6.622561 2.666155 4.793305 -2.008981 -11.630745 0.000000 0.000000 0.000000 -28.570925 -1.627077 -3.175898 -42.494222 -4.805248 -2.851065 -7.607565 -23.115421 2.262559 0.000000 0.000000 0.000000 23.840969 -1.665091 -2.369555 48.376762 6.323381 -2.320831 7.717160 28.447440 2.967352 0.000000 0.000000 0.000000 
-0.063810 0.941238 0.515650 2.099536 -4.545669 0.904604 -6.078736 -1.822143 -13.244596 0.252347 -0.333234 10.283398 -3.973725 -3.967216 8.817282 0.000000 0.000000 0.000000 -2.646203 0.277918 -2.499223 0.558160 3.023949 48.636722 9.378856 6.599460 21.996152 0.000000 0.000000 0.000000 -1.514890 -0.220809 10.599539 -1.384458 0.658320 -3.343867 0.836191 4.159146 4.418410 5.089840 -2.158259 -13.172996 0.000000 0.000000 0.000000 -28.446823 -2.811855 -1.691996 -42.078121 -6.272792 -2.690197 -7.064813 -23.669926 2.301009 0.000000 0.000000 0.000000 23.322112 -0.511021 -2.074411 48.854933 6.097387 -2.443050 7.659389 29.574254 2.996104 0.000000 0.000000 0.000000 
-0.062183 0.944504 0.553844 1.769513 -2.858188 0.496744 -6.339546 -1.228862 -8.809394 0.692887 -0.366732 7.787146 -4.758445 -5.803049 7.694598 0.000000 0.000000 0.000000 -2.515888 0.800205 -9.239826 2.488435 1.925473 56.731971 5.931177 3.816172 16.636463 0.000000 0.000000 0.000000 -0.860340 -0.333522 11.483335 -0.611848 0.330459 -3.173248 -0.511216 2.131376 4.202156 5.663016 -2.533709 -13.664204 0.000000 0.000000 0.000000 -27.852212 -2.772810 -1.340406 -40.931834 -7.979440 -2.170089 -7.680829 -24.507478 2.550810 0.000000 0.000000 0.000000 23.087527 -0.481693 -2.304673 49.477417 5.983118 -2.423195 7.353599 31.171953 3.032291 0.000000 0.000000 0.000000 
-0.061607 0.947204 0.591901 1.172480 -1.409934 -0.066652 -5.958234 -0.646112 -4.896803 0.979117 -0.377749 6.445579 -5.449997 -7.440160 6.850449 0.000000 0.000000 0.000000 -1.583818 1.338596 -14.842044 2.871384 1.233526 58.819726 2.642453 2.605484 6.767718 0.000000 0.000000 0.000000 -0.046653 -0.469078 12.203344 -0.034764 0.096313 -3.562739 -1.104352 0.979753 4.836192 5.691816 -2.583318 -13.798502 0.000000 0.000000 0.000000 -28.317453 -3.512124 -0.772050 -39.856983 -9.348190 -1.788485 -6.917142 -25.583092 2.513668 0.000000 0.000000 0.000000 23.534414 -0.376850 -2.356367 49.020327 6.195439 -2.364333 7.480643 32.373713 3.184254 0.000000 0.000000 0.000000 
-0.061956 0.948696 0.630933 0.440991 0.013099 -0.597849 -5.337806 -0.089472 -1.047392 1.519377 -0.415976 5.191628 -6.113020 -9.045282 6.105283 0.000000 0.000000 0.000000 -1.099713 1.769206 -19.206545 3.138591 0.428192 54.906591 0.985962 0.508389 3.688283 0.000000 0.000000 0.000000 0.890302 -0.622661 12.739700 0.616810 -0.185210 -3.321613 -1.827920 0.024864 4.783115 5.900310 -2.878490 -12.709830 0.000000 0.000000 0.000000 -28.234203 -3.813354 -0.564328 -39.619130 -10.586848 -1.401081 -6.422566 -26.348718 2.476326 0.000000 0.000000 0.000000 23.547444 -0.409838 -2.391019 48.599687 6.310231 -2.300499 7.798718 33.236719 3.363535 0.000000 0.000000 0.000000 
-0.063495 0.947664 0.670999 -0.055423 0.621788 -1.111493 -4.694934 0.402982 2.700253 1.791547 -0.408114 4.181795 -6.324322 -10.019222 5.172807 0.000000 0.000000 0.000000 -0.481439 2.172025 -22.611104 2.201805 0.659197 46.365615 0.810653 0.867631 2.210860 0.000000 0.000000 0.000000 1.440153 -0.736333 13.474316 1.197640 -0.424963 -3.676257 -1.928121 0.043190 4.763959 6.078297 -3.025437 -12.296382 0.000000 0.000000 0.000000 -28.211413 -3.095672 -1.176448 -40.222254 -11.563382 -1.058311 -6.509239 -26.994581 2.539929 0.000000 0.000000 0.000000 23.217935 -1.346072 -2.788332 48.705660 5.889508 -2.502949 7.636749 33.985763 3.440246 0.000000 0.000000 0.000000 
-0.065946 0.943857 0.712377 -0.364428 1.647705 -1.538184 -4.634022 0.907828 6.641480 3.119896 -0.511571 2.768288 -6.550346 -11.208313 4.010664 0.000000 0.000000 0.000000 0.044400 2.387517 -24.257968 1.642944 0.468801 31.395365 1.395366 1.191254 4.373559 0.000000 0.000000 0.000000 1.636130 -0.798885 13.871049 1.879760 -0.704187 -3.938719 -2.253472 -0.155290 4.634868 6.836505 -3.529599 -12.051771 0.000000 0.000000 0.000000 -27.715393 -2.888993 -1.427859 -40.751620 -11.531086 -1.015388 -7.286708 -27.586192 2.760845 0.000000 0.000000 0.000000 23.566096 -2.238533 -3.234197 48.317613 5.024258 -2.845392 8.498695 34.169371 3.747094 0.000000 0.000000 0.000000 
-0.068802 0.937394 0.755513 -0.203915 2.144286 -2.075097 -4.750085 1.382305 10.352946 3.468953 -0.545256 2.588112 -5.684052 -10.814276 2.035287 0.000000 0.000000 0.000000 0.822643 2.508260 -24.128440 1.939220 0.068747 15.162567 3.628494 1.313798 14.225408 0.000000 0.000000 0.000000 1.568552 -0.820851 14.286921 2.097263 -0.799388 -3.897235 -2.115047 -0.717834 4.539604 6.345681 -3.260522 -11.876351 0.000000 0.000000 0.000000 -27.185869 -2.164267 -1.710252 -41.413300 -11.227468 -1.160063 -8.517478 -29.160743 3.261564 0.000000 0.000000 0.000000 22.771548 -2.340928 -3.300206 49.122111 4.229076 -3.166747 7.845303 33.495364 3.444701 0.000000 0.000000 0.000000 
-0.071895 0.928385 0.801201 0.221906 1.948322 -1.922112 -5.472086 1.870556 13.392561 3.934113 -0.591912 2.369922 -4.336281 -8.944291 0.621561 0.000000 0.000000 0.000000 1.261051 2.601388 -24.106448 3.425208 -0.329845 7.000289 4.355718 -0.318726 21.267903 0.000000 0.000000 0.000000 1.951386 -0.825279 13.668648 1.839209 -0.749308 -2.674762 -2.077172 -1.280979 3.365402 5.711688 -3.007229 -10.826351 0.000000 0.000000 0.000000 -26.042278 -0.994828 -2.118884 -43.337995 -10.531436 -1.409389 -10.181471 -29.796197 3.812499 0.000000 0.000000 0.000000 22.729752 -2.951152 -3.887819 49.360298 3.482579 -3.307615 7.595678 30.990825 3.006973 0.000000 0.000000 0.000000 
-0.075383 0.918369 0.850298 0.821513 2.641240 -1.700895 -5.231846 2.111822 15.580232 3.338174 -0.633309 4.185172 -4.028159 -9.069277 -0.531600 0.000000 0.000000 0.000000 1.482160 2.607548 -24.055297 3.733773 -0.391840 7.946441 3.867547 -0.821109 20.811191 0.000000 0.000000 0.000000 2.354693 -0.869187 13.447587 2.244355 -0.909096 -2.998157 -2.702290 -2.087664 3.237508 5.787358 -3.213190 -9.887288 0.000000 0.000000 0.000000 -27.115976 -0.365335 -2.513169 -42.795212 -9.943875 -1.622189 -12.478973 -29.887592 4.462623 0.000000 0.000000 0.000000 23.755781 -2.651601 -3.968813 49.051411 3.130688 -3.379415 5.402239 27.855771 2.135946 0.000000 0.000000 0.000000 
-0.079474 0.910977 0.903746 1.242017 3.054263 -1.833263 -4.509246 2.159288 16.972851 2.348684 -0.715525 7.925395 -4.590323 -8.768050 1.581900 0.000000 0.000000 0.000000 2.458954 2.751808 -23.761112 2.706066 -0.161673 13.439835 3.360844 0.259316 15.876980 0.000000 0.000000 0.000000 3.023922 -0.895460 12.678254 2.627382 -1.205913 -1.036064 -3.339729 -3.536671 1.103065 5.334672 -2.975310 -9.400667 0.000000 0.000000 0.000000 -26.481149 0.862306 -2.923185 -44.907238 -8.078133 -2.266607 -13.219902 -29.653306 4.669950 0.000000 0.000000 0.000000 24.097407 -2.034893 -4.069683 47.478760 1.384613 -3.630169 4.625314 25.288945 1.667431 0.000000 0.000000 0.000000 
-0.084923 0.910722 0.959768 0.946605 2.403794 -1.497279 -2.755193 1.684615 14.925154 0.826499 -0.894210 16.990220 -6.816761 -9.329614 7.417874 0.000000 0.000000 0.000000 3.917695 3.081529 -23.916120 2.331248 0.014910 19.761347 2.464273 0.878750 10.114825 0.000000 0.000000 0.000000 4.024404 -0.870167 11.012914 3.101023 -1.499269 -0.055049 -3.073873 -3.526249 -0.311308 4.650654 -2.584534 -8.621545 0.000000 0.000000 0.000000 -28.625776 2.595710 -4.220727 -43.836799 -5.972755 -2.878127 -14.876234 -29.294444 5.049926 0.000000 0.000000 0.000000 24.351250 -3.203251 -4.951012 45.336022 0.216661 -3.700994 5.563261 22.636911 1.618787 0.000000 0.000000 0.000000 
-0.092732 0.916564 1.013967 -0.019531 2.699774 -2.429823 0.614748 0.773649 9.625249 -0.783812 -1.192543 32.376585 -11.255054 -11.543202 15.959369 0.000000 0.000000 0.000000 6.245958 3.073698 -20.755463 1.682144 0.217818 22.485322 1.815280 0.806865 7.345045 0.000000 0.000000 0.000000 5.052154 -0.982985 11.211796 3.558562 -1.719872 -0.156198 -2.795433 -3.123464 -0.382790 4.109156 -2.244079 -8.171886 0.000000 0.000000 0.000000 -29.402507 3.184258 -4.915129 -43.664811 -4.665925 -3.262407 -15.707427 -29.426137 5.248511 0.000000 0.000000 0.000000 23.040403 -3.567961 -4.769582 46.343478 -1.224989 -4.389646 6.006963 22.102469 1.678572 0.000000 0.000000 0.000000 
-0.101988 0.923209 1.062635 -0.458471 1.834872 -3.572603 2.876671 0.029563 0.757584 -1.814366 -1.339521 48.350945 -14.788081 -10.857869 25.896436 0.000000 0.000000 0.000000 8.529100 2.655344 -15.802372 0.378675 0.661846 21.864218 1.937694 1.833220 5.633802 0.000000 0.000000 0.000000 4.975914 -1.010228 11.948972 3.302568 -1.553280 -0.862717 -1.807221 -2.255894 0.398855 4.946343 -2.791792 -8.534999 0.000000 0.000000 0.000000 -29.675539 3.695104 -5.329049 -43.715043 -4.063685 -3.534302 -15.939257 -29.385667 5.298365 0.000000 0.000000 0.000000 22.384183 -3.955968 -4.791285 46.090160 -1.059572 -4.410275 6.893016 21.166556 1.762585 0.000000 0.000000 0.000000 
-0.112037 0.928682 1.107326 0.109043 -0.528851 -4.280633 2.703330 -0.489462 -7.217325 -0.683499 -1.643538 55.683631 -14.680292 -10.331813 26.980608 0.000000 0.000000 0.000000 9.777462 1.861807 -10.564133 -1.309492 1.190676 19.558653 2.758729 4.394842 4.132974 0.000000 0.000000 0.000000 3.867159 -0.940651 13.123959 2.478059 -1.128384 -1.641423 -0.935382 -0.307972 1.158590 5.571814 -3.147795 -9.041737 0.000000 0.000000 0.000000 -29.384258 3.110816 -5.070726 -43.476492 -4.249399 -3.464249 -14.862716 -29.020266 4.913159 0.000000 0.000000 0.000000 23.090598 -3.692076 -4.577663 45.139024 0.040127 -4.043250 6.745749 21.712508 1.817280 0.000000 0.000000 0.000000 
-0.123145 0.933913 1.149940 0.388501 -3.727496 -4.637735 1.227223 -1.124021 -14.512136 -0.145785 -0.842144 49.891507 -1.795936 3.719896 19.014386 0.000000 0.000000 0.000000 11.095469 0.804736 -4.792846 -3.310207 1.524201 15.311068 4.195479 7.887408 3.728136 0.000000 0.000000 0.000000 2.501635 -0.753610 13.391589 2.274455 -1.086169 -0.848706 -0.177062 1.648549 0.649050 5.313682 -3.018365 -8.500807 0.000000 0.000000 0.000000 -29.415559 4.085439 -5.792412 -42.944403 -2.869498 -3.823579 -13.626241 -29.821357 4.701198 0.000000 0.000000 0.000000 22.182259 -3.392507 -4.234140 46.023561 1.640394 -3.519509 6.797436 23.966553 2.038437 0.000000 0.000000 0.000000 
-0.135188 0.935979 1.191007 0.756669 -7.893804 -4.949307 -0.282428 -1.592187 -18.980157 -2.226920 0.779570 32.729909 11.074140 20.381808 29.504502 0.000000 0.000000 0.000000 11.379626 -0.195396 0.194570 -4.414134 1.549434 12.184933 6.118585 12.218422 3.764592 0.000000 0.000000 0.000000 1.258676 -0.574032 14.193450 1.621067 -0.783168 -1.226759 0.628486 3.968011 1.056703 5.248528 -2.868457 -9.290242 0.000000 0.000000 0.000000 -29.618054 5.235829 -6.569053 -41.774169 -2.470066 -3.870992 -12.626413 -28.325298 4.198286 0.000000 0.000000 0.000000 21.627431 -3.165717 -4.003620 46.675686 4.799683 -2.439057 5.816539 26.351172 2.057803 0.000000 0.000000 0.000000 
-0.148305 0.935818 1.231521 1.135140 -13.287647 -4.836039 -0.699020 -1.614586 -21.139338 -5.809729 1.760559 18.301706 -3.920450 1.265473 26.102923 0.000000 0.000000 0.000000 11.381220 -0.827174 3.506453 -5.879843 1.779090 11.185968 8.549749 17.240574 4.265936 0.000000 0.000000 0.000000 0.261865 -0.357022 13.970836 1.005086 -0.512127 -0.572144 0.969578 6.139786 0.440719 4.560508 -2.514732 -8.501544 0.000000 0.000000 0.000000 -28.258089 6.778205 -7.121696 -42.445618 -1.289626 -4.324335 -9.569449 -26.190587 3.181836 0.000000 0.000000 0.000000 20.733166 -2.834807 -3.858798 47.555279 7.578626 -1.316527 6.515215 29.441375 2.441224 0.000000 0.000000 0.000000 
-0.163178 0.931380 1.272244 2.195721 -17.943837 -5.359956 -2.809675 -1.870486 -21.089510 -6.463991 1.765108 12.768554 -11.960907 -10.780218 23.467147 0.000000 0.000000 0.000000 10.094042 -1.373980 7.598233 -6.856662 1.775260 9.642418 10.398550 21.930488 3.819451 0.000000 0.000000 0.000000 -0.387179 -0.180170 14.738045 -1.059635 0.417666 -1.646116 1.830782 6.916485 1.609329 4.068672 -2.361118 -7.994208 0.000000 0.000000 0.000000 -27.483307 8.405361 -7.354345 -43.256595 -0.717868 -4.852174 -6.945653 -24.913202 2.558229 0.000000 0.000000 0.000000 20.553327 -1.993514 -3.826671 48.609353 9.958598 -0.377389 6.833452 34.126705 2.792615 0.000000 0.000000 0.000000 
-0.180894 0.923558 1.313196 2.709807 -23.500525 -5.300100 -3.696361 -1.817471 -20.772640 -6.067034 2.043240 14.110623 -11.550802 -13.353654 17.977970 0.000000 0.000000 0.000000 9.650051 -1.593728 10.372821 -8.245233 2.179651 10.457134 10.350245 24.853747 1.276841 0.000000 0.000000 0.000000 -0.895277 -0.022503 14.101859 -1.017756 0.444920 -0.367501 -0.202974 8.971869 1.010820 3.747141 -2.252083 -6.878084 0.000000 0.000000 0.000000 -26.791408 9.782261 -8.069589 -43.176266 0.202804 -5.105399 -4.145423 -24.456536 1.914108 0.000000 0.000000 0.000000 22.333717 -0.290498 -3.222985 48.580347 11.475051 0.295151 6.226955 39.053714 3.009146 0.000000 0.000000 0.000000 
-0.203373 0.913093 1.353522 2.734483 -28.285648 -5.121609 -5.009020 -1.872650 -20.242643 -2.082717 1.470216 18.294687 -11.367727 -16.582795 10.812626 0.000000 0.000000 0.000000 8.668583 -1.484660 11.504883 -7.781251 2.889024 14.721683 9.980500 27.480689 -1.180854 0.000000 0.000000 0.000000 -1.919054 0.150043 13.104953 -2.772177 1.372316 0.391744 0.470090 10.403492 1.608609 4.054398 -2.546779 -6.779476 0.000000 0.000000 0.000000 -26.340156 8.778787 -7.008444 -41.984041 0.014566 -5.031709 -1.353155 -22.629543 1.270231 0.000000 0.000000 0.000000 23.518375 -0.270012 -3.729302 47.696091 13.018589 0.959677 10.185494 42.189387 4.584455 0.000000 0.000000 0.000000 
-0.230225 0.905728 1.391582 2.643041 -31.250126 -5.142935 -6.090785 -1.954404 -19.399373 1.256786 1.031494 22.761664 -8.988271 -16.207565 2.713257 0.000000 0.000000 0.000000 7.797645 -1.096945 8.236156 -4.656719 4.942954 26.996481 10.469218 25.148826 1.193818 0.000000 0.000000 0.000000 -3.122319 0.421335 13.898055 -2.934471 1.409168 -0.035967 0.279378 8.859637 2.077012 2.442115 -1.431028 -8.938169 0.000000 0.000000 0.000000 -27.704614 9.526363 -6.774008 -39.897162 -1.181230 -4.755028 1.141307 -22.739456 0.926598 0.000000 0.000000 0.000000 23.437805 0.555150 -4.134227 47.807117 12.395256 0.916393 13.246520 45.113056 5.700925 0.000000 0.000000 0.000000 
-0.258611 0.905155 1.426891 2.911758 -34.831481 -4.431525 -5.886613 -1.777527 -19.188090 2.082983 1.573638 26.314184 -7.329759 -14.629249 -1.461830 0.000000 0.000000 0.000000 5.179337 -0.281340 0.600320 2.379299 7.184706 43.005827 13.246574 19.730170 10.482188 0.000000 0.000000 0.000000 -4.383325 0.629133 13.150031 -2.604088 1.294569 0.226029 -0.029139 7.782305 1.613653 1.859284 -1.222314 -8.671076 0.000000 0.000000 0.000000 -29.378575 9.141391 -5.833460 -37.129120 -2.891902 -4.295506 0.375814 -22.386178 1.144928 0.000000 0.000000 0.000000 24.152262 1.055101 -4.849699 46.930741 9.369409 0.032159 18.730458 45.662982 7.597073 0.000000 0.000000 0.000000 
-0.287045 0.910384 1.459131 2.493062 -37.442411 -3.618132 -4.823091 -1.465506 -16.152084 1.596814 1.901696 25.186675 -6.202973 -12.972161 -3.753214 0.000000 0.000000 0.000000 3.666738 0.752855 -7.818184 9.534755 7.797196 55.052500 12.410793 9.775926 19.601958 0.000000 0.000000 0.000000 -4.101857 0.643964 13.215454 -3.025656 1.490032 0.008758 -0.066289 5.151342 1.545704 0.081706 -0.243386 -9.473414 0.000000 0.000000 0.000000 -28.686852 7.726413 -3.470518 -36.655692 -5.267533 -4.005270 0.950066 -23.815770 1.263980 0.000000 0.000000 0.000000 22.852470 1.086157 -5.671947 47.453148 6.819211 -0.757847 22.767345 44.351125 8.322288 0.000000 0.000000 0.000000 
-0.316425 0.918542 1.489186 1.196351 -39.270518 -3.389196 -3.362855 -1.079413 -11.201605 1.283040 1.800215 22.688673 -5.483105 -11.556926 -4.605949 0.000000 0.000000 0.000000 2.308132 1.858399 -14.466019 13.817715 6.746910 58.567097 7.729488 1.483485 20.264755 0.000000 0.000000 0.000000 -3.046684 0.586242 14.102552 -2.493191 1.225340 -0.107494 -0.327278 2.761923 1.196613 -0.945657 0.249562 -10.268585 0.000000 0.000000 0.000000 -29.858797 7.116010 -1.956572 -35.168629 -8.479316 -3.467686 1.553543 -26.608268 1.422342 0.000000 0.000000 0.000000 21.339010 1.110112 -6.095805 48.276876 4.077081 -1.790808 24.405669 40.366009 7.610525 0.000000 0.000000 0.000000 
-0.347644 0.925103 1.518608 -0.581275 -40.424978 -3.274833 -2.382587 -0.668165 -6.037384 2.419094 1.139070 20.700750 -4.956951 -10.461312 -5.095977 0.000000 0.000000 0.000000 0.166278 2.852796 -19.840531 15.998956 4.975435 55.668408 -1.492126 -8.487624 7.498058 0.000000 0.000000 0.000000 -1.686163 0.536325 15.753531 -2.592456 1.129889 -1.179706 0.347649 0.375892 2.563925 -2.789079 1.212500 -11.477944 0.000000 0.000000 0.000000 -29.400847 5.900308 0.095486 -35.349006 -13.254445 -2.665322 2.730982 -29.672470 1.507342 0.000000 0.000000 0.000000 21.333607 -0.223677 -7.575901 46.905251 1.297316 -2.726093 24.853920 37.124377 6.791186 0.000000 0.000000 0.000000 
-0.381122 0.927428 1.547181 -1.122892 -39.575637 -3.682000 -2.128603 -0.224120 -1.424582 3.656422 0.393689 18.920227 -5.089878 -11.037660 -5.408961 0.000000 0.000000 0.000000 -1.821740 3.345618 -22.924510 12.294981 4.382793 46.285190 -4.616959 -10.082259 -1.709236 0.000000 0.000000 0.000000 -0.943126 0.460930 16.405869 -1.710778 0.692838 -1.328632 0.130254 -2.684730 2.623352 -2.722335 0.989057 -11.589978 0.000000 0.000000 0.000000 -29.130487 5.129905 1.523500 -34.798542 -17.573875 -1.772730 4.359639 -32.493091 1.391490 0.000000 0.000000 0.000000 20.986441 -1.034022 -8.500083 45.951332 -2.236617 -3.898495 21.676146 33.307809 5.018205 0.000000 0.000000 0.000000 
-0.416489 0.923311 1.575272 -1.565826 -38.491500 -4.117633 -1.330008 0.354058 2.801978 4.528092 -0.102112 17.829632 -5.285359 -12.184279 -6.952741 0.000000 0.000000 0.000000 -3.580955 3.479633 -24.555013 4.585530 3.970740 32.907460 1.315171 -2.253936 5.871229 0.000000 0.000000 0.000000 -0.884115 0.436723 16.575665 -0.829918 0.325599 -0.922439 0.057055 -4.543298 2.838778 -2.645708 0.845627 -11.698556 0.000000 0.000000 0.000000 -28.111256 3.656569 2.942736 -35.040630 -22.129097 -0.626964 5.847694 -34.512765 1.209239 0.000000 0.000000 0.000000 21.508019 -2.757688 -9.875858 44.809481 -5.756514 -4.978092 17.424624 30.940888 3.585429 0.000000 0.000000 0.000000 
-0.453861 0.916801 1.602743 -1.915338 -37.374921 -4.406153 -0.755205 0.941054 6.543924 6.229282 -0.759141 17.148710 -5.355760 -13.178748 -8.332686 0.000000 0.000000 0.000000 -4.795310 3.251548 -24.391023 -2.698889 2.572241 18.041534 12.652388 10.686857 17.419841 0.000000 0.000000 0.000000 -0.412364 0.333146 16.553572 0.195536 -0.108606 -0.482929 -0.669354 -6.290444 2.676324 -1.992380 0.436610 -10.640886 0.000000 0.000000 0.000000 -27.540154 1.974895 4.326427 -33.919110 -25.280935 0.149714 7.403689 -34.708205 0.721788 0.000000 0.000000 0.000000 20.998340 -4.423619 -10.642030 44.208521 -9.136680 -6.228941 15.223113 28.170902 2.771261 0.000000 0.000000 0.000000 
-0.493225 0.907993 1.629647 -1.945962 -36.567747 -4.364801 0.555507 1.451722 9.558636 6.656906 -0.980418 16.805308 -5.507337 -14.278452 -9.233241 0.000000 0.000000 0.000000 -6.143360 3.120644 -24.657078 -5.843564 1.969978 11.676636 16.139104 18.314877 17.460045 0.000000 0.000000 0.000000 -0.078309 0.215245 15.892808 -0.172335 0.142240 0.363684 -0.275549 -7.672901 2.418542 -1.647235 0.191948 -10.226013 0.000000 0.000000 0.000000 -27.008592 1.449633 4.944909 -34.731460 -28.334228 1.119324 8.068168 -36.657755 0.722410 0.000000 0.000000 0.000000 22.104227 -5.962500 -12.176339 42.991394 -12.527389 -7.067170 14.034803 25.715215 2.292283 0.000000 0.000000 0.000000 
-0.535025 0.898912 1.655855 -2.377387 -35.414888 -3.653176 1.704622 1.907325 12.366535 8.542162 -1.610379 15.766718 -5.553633 -14.951751 -9.319688 0.000000 0.000000 0.000000 -6.503040 3.243989 -25.737818 -6.563988 2.533665 13.844899 14.026246 17.136424 14.654083 0.000000 0.000000 0.000000 1.560183 -0.070512 15.279724 0.020132 0.224196 2.028977 -0.663440 -9.537667 0.391567 -2.588155 1.048933 -8.549468 0.000000 0.000000 0.000000 -26.400055 2.079030 4.489598 -37.714744 -28.180414 1.754722 8.369041 -39.440491 0.942195 0.000000 0.000000 0.000000 22.723315 -6.871821 -13.066624 41.546164 -15.365847 -7.597439 12.572578 25.590164 1.997913 0.000000 0.000000 0.000000 
-0.579912 0.891418 1.680866 -2.648156 -34.786745 -2.706460 2.869091 2.101051 13.813631 10.174114 -2.040840 16.334681 -5.839127 -14.907255 -6.632987 0.000000 0.000000 0.000000 -6.385841 3.511081 -27.127450 -5.289578 3.456067 19.544219 12.549908 14.885060 13.943226 0.000000 0.000000 0.000000 2.605448 -0.214225 15.414150 -0.980076 0.659526 1.521821 0.066099 -9.582601 -0.158810 -2.304088 1.082740 -6.967961 0.000000 0.000000 0.000000 -28.136841 1.561460 5.134002 -36.405126 -28.567758 1.538606 6.336774 -41.585723 1.616353 0.000000 0.000000 0.000000 23.492085 -7.989238 -13.895046 40.527412 -17.353865 -8.026327 11.591584 26.168698 1.902331 0.000000 0.000000 0.000000 
-0.626496 0.888585 1.704881 -3.068003 -33.265837 -2.363999 4.483194 2.128942 14.718649 10.869848 -2.269609 18.646951 -5.086053 -11.400620 -1.079036 0.000000 0.000000 0.000000 -4.357000 3.534743 -26.252249 -5.054645 4.417711 23.909775 9.799227 12.004530 11.171306 0.000000 0.000000 0.000000 4.363271 -0.458791 15.315026 -1.653609 1.182398 3.143494 0.741039 -11.114921 -2.702012 -3.384004 1.874486 -7.488989 0.000000 0.000000 0.000000 -28.036146 3.252097 3.849834 -39.711852 -26.322547 1.535018 5.014260 -44.086462 2.542755 0.000000 0.000000 0.000000 24.371833 -7.816529 -14.316180 39.839857 -18.215975 -7.903728 11.778338 26.122045 1.924926 0.000000 0.000000 0.000000 
-0.671172 0.893842 1.727735 -4.742571 -32.961813 -0.092221 5.936541 1.632634 12.056228 11.648025 -2.298960 24.524886 -4.588907 -8.023872 6.436640 0.000000 0.000000 0.000000 -1.768416 3.932319 -26.300009 -3.434086 4.605934 26.796549 7.783448 8.773192 9.950807 0.000000 0.000000 0.000000 6.484308 -0.714540 14.119797 -2.170905 1.476484 3.222230 1.003158 -9.892305 -2.827255 -3.270149 1.920358 -6.917230 0.000000 0.000000 0.000000 -29.176878 3.225035 3.657434 -40.905811 -23.830810 0.824377 4.130042 -45.523331 2.927603 0.000000 0.000000 0.000000 23.833142 -8.202556 -13.871008 40.725253 -16.287670 -7.580941 12.755706 24.413424 2.036970 0.000000 0.000000 0.000000 
-0.709409 0.903021 1.748904 -5.834825 -31.098866 0.278578 6.944317 0.920659 5.965931 13.044373 -2.184660 37.179337 -4.478341 -5.159860 13.928643 0.000000 0.000000 0.000000 0.167482 3.412535 -23.091313 -2.353583 4.120216 26.678710 6.456389 7.857221 7.938397 0.000000 0.000000 0.000000 8.078384 -0.911087 14.811154 -2.846436 1.731123 2.731971 2.788545 -9.587593 -1.961175 -5.006072 2.615116 -11.012388 0.000000 0.000000 0.000000 -30.973800 4.199083 3.062755 -42.037172 -22.135079 0.115962 3.004225 -45.095427 3.326969 0.000000 0.000000 0.000000 22.232082 -6.404033 -12.090243 42.454920 -12.669754 -6.835886 13.293341 23.914498 2.070894 0.000000 0.000000 0.000000 
-0.740679 0.911577 1.768515 -5.853351 -28.812247 0.525305 7.186758 0.434815 -2.203071 12.500220 -1.141932 50.236979 -3.444896 -2.857575 13.142389 0.000000 0.000000 0.000000 0.502486 2.637622 -19.503672 -1.106445 3.099169 24.299580 5.388790 7.069130 6.295940 0.000000 0.000000 0.000000 8.470646 -1.025271 15.294684 -2.153779 1.169508 1.101845 1.706612 -7.180236 -0.641970 -4.668082 2.439908 -12.086364 0.000000 0.000000 0.000000 -31.853644 3.949834 2.165012 -41.983586 -19.808540 -0.582649 1.186758 -43.257817 3.511711 0.000000 0.000000 0.000000 21.887945 -5.639517 -10.747959 43.332983 -9.174680 -5.919724 13.592596 24.756040 2.337921 0.000000 0.000000 0.000000 
-0.766355 0.920064 1.788876 -5.253324 -26.035557 0.336849 6.424142 0.198459 -10.068204 9.851562 0.296178 57.014709 -0.927143 -0.768337 3.682324 0.000000 0.000000 0.000000 0.236534 1.885733 -15.697415 -0.248507 2.234580 21.501489 4.452930 5.825976 5.374990 0.000000 0.000000 0.000000 7.721030 -1.053935 16.097204 -2.150917 1.122204 0.792098 2.138939 -4.939907 -0.293924 -4.879898 2.706557 -13.135345 0.000000 0.000000 0.000000 -31.890897 3.774452 1.003158 -42.830597 -17.556512 -0.969173 -1.619383 -41.723474 4.118692 0.000000 0.000000 0.000000 22.497409 -4.668620 -9.700858 42.435631 -5.287728 -4.380037 14.695905 25.831242 2.826840 0.000000 0.000000 0.000000 
-0.788432 0.927112 1.811416 -4.507955 -22.237646 0.306612 5.928359 0.101180 -16.598190 5.746103 1.428421 55.754800 0.135543 -0.625164 -2.917689 0.000000 0.000000 0.000000 -0.362477 1.277342 -11.995426 0.802471 1.421926 18.612361 3.177891 3.553297 4.774069 0.000000 0.000000 0.000000 7.453735 -1.134862 15.959136 -1.537254 0.804380 0.809292 0.882391 -1.121627 -1.328112 -3.435811 2.253564 -11.745973 0.000000 0.000000 0.000000 -32.836937 2.846833 -0.783580 -41.034023 -13.516752 -1.589206 -7.777693 -38.862863 5.260820 0.000000 0.000000 0.000000 21.789511 -4.802541 -8.010485 42.819770 -1.385244 -3.337525 14.088384 27.505436 3.214499 0.000000 0.000000 0.000000 
-0.807144 0.932218 1.836277 -3.590327 -19.305487 -0.217327 6.196098 0.165024 -21.033693 1.221595 2.330928 47.957860 1.835950 2.856662 -4.135477 0.000000 0.000000 0.000000 -0.751143 0.734915 -7.582298 0.999234 0.922158 15.263976 2.203540 1.946792 4.149095 0.000000 0.000000 0.000000 6.696615 -1.125977 16.165961 -2.234035 1.101655 0.298835 0.791419 2.125708 -0.572454 -2.661882 2.064483 -11.141346 0.000000 0.000000 0.000000 -32.392390 2.611749 -2.499084 -41.186242 -10.489808 -1.988029 -10.256222 -34.892547 5.050453 0.000000 0.000000 0.000000 21.512220 -4.676085 -6.666845 42.401622 2.418370 -2.362598 12.768360 28.877043 3.417567 0.000000 0.000000 0.000000 
-0.822088 0.932010 1.863521 -2.827768 -15.604094 -0.800421 6.321859 0.040071 -23.093092 -2.296429 1.770835 32.764462 3.702629 8.368483 5.689154 0.000000 0.000000 0.000000 -1.060557 0.319584 -3.237582 1.349663 0.545384 12.611747 0.581015 -0.548043 2.697976 0.000000 0.000000 0.000000 6.298587 -1.188034 16.587887 -1.819784 0.882539 0.114279 -1.243263 5.040992 -1.254031 -1.925984 1.934215 -11.059913 0.000000 0.000000 0.000000 -32.302336 3.186748 -5.088305 -38.845061 -7.065875 -2.238591 -13.212793 -30.552483 4.792469 0.000000 0.000000 0.000000 21.306000 -4.539807 -5.226584 43.453116 6.988555 -1.189435 10.123976 29.125127 3.187605 0.000000 0.000000 0.000000 
-0.832636 0.929717 1.893211 -2.462615 -13.250527 -0.956670 6.537216 -0.058067 -23.142374 -3.035151 0.700943 14.912970 7.494395 15.188304 20.045557 0.000000 0.000000 0.000000 -0.991131 0.013653 0.413823 1.302790 0.369276 10.456733 -0.501246 -2.189570 1.470993 0.000000 0.000000 0.000000 5.866948 -1.196653 16.641430 -2.525925 1.160409 -1.461218 -1.087524 7.753399 0.139741 -1.518795 1.969665 -11.607772 0.000000 0.000000 0.000000 -32.336008 4.202620 -7.184098 -38.208938 -3.528631 -2.918281 -12.461862 -27.167228 3.868494 0.000000 0.000000 0.000000 21.286021 -3.754279 -3.820271 42.415579 11.879041 0.086052 6.735645 28.539450 2.583192 0.000000 0.000000 0.000000 
-0.838560 0.925137 1.925450 -2.328898 -9.829119 -1.457200 5.477267 -0.508541 -22.365192 -1.762228 0.191629 3.446179 7.804508 16.243904 25.321823 0.000000 0.000000 0.000000 -0.675859 -0.340238 4.530213 1.313663 0.221696 8.618470 -1.902267 -4.923203 0.512154 0.000000 0.000000 0.000000 5.339499 -1.225812 16.888126 -2.576372 1.183150 -2.052559 -1.370306 8.948316 0.181863 -1.192842 1.916754 -10.809074 0.000000 0.000000 0.000000 -31.885960 5.024436 -8.766297 -37.419111 -1.678559 -3.080315 -10.287837 -23.252811 2.728582 0.000000 0.000000 0.000000 21.346870 -2.574929 -2.381210 42.612749 16.840569 1.538058 4.159015 28.158668 2.130188 0.000000 0.000000 0.000000 
-0.839031 0.920208 1.960285 -2.599082 -8.602569 -1.586626 5.525832 -0.559468 -21.812441 -2.138188 0.259081 1.236656 7.975482 16.694319 25.560037 0.000000 0.000000 0.000000 -0.724930 -0.573231 7.501395 0.923548 0.275534 8.724604 -1.592893 -3.381867 -0.971658 0.000000 0.000000 0.000000 4.608264 -1.150013 16.749822 -3.741240 1.706954 -2.836525 -0.386436 11.344048 0.601984 -0.422782 1.582958 -10.479402 0.000000 0.000000 0.000000 -31.343581 4.932182 -9.580534 -37.637924 1.943509 -3.915545 -7.619143 -20.549371 1.846927 0.000000 0.000000 0.000000 23.660529 -2.388723 -1.629244 40.108547 19.236137 1.797695 4.688697 30.452279 2.637722 0.000000 0.000000 0.000000 
-0.833852 0.915888 1.998545 -2.578102 -5.425757 -1.771061 4.012378 -0.986864 -20.779153 -2.686341 0.312372 1.791491 7.717846 16.860657 24.925172 0.000000 0.000000 0.000000 -1.093195 -0.740281 9.500922 0.883162 0.349448 11.009120 -1.521159 -3.448405 -0.678464 0.000000 0.000000 0.000000 3.640241 -1.042162 15.822398 -3.203059 1.483533 -2.983287 -1.311283 12.452524 1.216320 0.795648 1.105259 -11.284318 0.000000 0.000000 0.000000 -28.768098 4.918754 -9.806314 -39.880860 3.047929 -4.419442 -4.701022 -19.108519 1.133789 0.000000 0.000000 0.000000 25.036402 -1.698853 -0.288827 39.642597 21.681513 2.129239 4.263146 31.051025 2.774160 0.000000 0.000000 0.000000 
-0.822270 0.914251 2.040087 -2.419457 -3.147960 -1.964661 2.956576 -1.220505 -19.790124 -4.122097 0.504032 4.490700 6.867277 15.914431 20.788522 0.000000 0.000000 0.000000 -1.799222 -0.857232 11.417249 0.258949 0.579797 14.040072 -0.666871 -2.027642 0.659979 0.000000 0.000000 0.000000 2.619155 -0.866916 14.312143 -3.614052 1.696132 -2.721328 -0.740688 13.016199 1.756090 1.256319 0.947051 -11.391602 0.000000 0.000000 0.000000 -29.151294 4.847484 -10.442030 -39.872844 5.136775 -4.933425 -2.827708 -19.034019 0.767207 0.000000 0.000000 0.000000 26.499212 -1.221876 0.612515 38.966295 23.051755 2.179758 6.129462 33.105248 3.642545 0.000000 0.000000 0.000000 
-0.805024 0.916544 2.083261 -1.932290 0.366748 -2.303545 0.311381 -1.638951 -18.209437 -4.204736 0.476115 6.917563 5.795398 14.436685 15.779918 0.000000 0.000000 0.000000 -3.717322 -0.651303 10.307680 0.743511 0.664049 22.358311 1.947447 1.321854 6.478540 0.000000 0.000000 0.000000 1.465737 -0.745675 13.658851 -3.203888 1.534492 -3.483254 -0.461004 12.385676 2.574934 1.215819 0.996766 -10.884428 0.000000 0.000000 0.000000 -28.703143 5.114142 -10.817327 -40.451584 5.588072 -5.137486 -3.294640 -18.627798 0.788149 0.000000 0.000000 0.000000 26.518833 -1.521835 0.806404 39.748900 22.842870 2.031152 7.259587 34.271257 4.249702 0.000000 0.000000 0.000000 
-0.785155 0.921807 2.124320 -1.483868 4.149199 -2.915695 -2.841173 -1.758581 -14.802012 -3.190029 0.248087 6.999236 4.232036 11.955391 12.328963 0.000000 0.000000 0.000000 -6.087121 -0.310416 6.374895 1.022757 0.472768 35.084879 6.081237 6.316280 13.984871 0.000000 0.000000 0.000000 0.182954 -0.645354 13.533038 -2.382781 1.205513 -3.184654 -0.334647 11.705032 2.655467 1.831759 0.696557 -10.955717 0.000000 0.000000 0.000000 -29.301899 4.270002 -10.988234 -40.801529 5.025515 -4.841091 -4.615004 -18.826603 0.963357 0.000000 0.000000 0.000000 26.125545 -1.874913 0.958911 41.603390 21.745939 1.787153 8.075647 35.734794 4.880856 0.000000 0.000000 0.000000 
-0.765890 0.927521 2.161486 -1.604152 9.092908 -3.615873 -4.806397 -1.423840 -10.772092 -2.723019 0.135303 5.940234 1.886871 8.048991 9.949728 0.000000 0.000000 0.000000 -6.351637 -0.098302 0.575656 -0.504693 0.137110 47.076415 9.645501 8.637093 22.345646 0.000000 0.000000 0.000000 0.272196 -0.745851 13.710413 -1.570505 0.905410 -3.528536 -0.692320 9.600617 3.114528 1.936283 0.695229 -11.096424 0.000000 0.000000 0.000000 -29.147827 2.205537 -9.905802 -40.816834 4.071874 -4.481866 -5.789061 -19.890232 1.200655 0.000000 0.000000 0.000000 26.080502 -1.771263 1.188959 42.919747 20.919753 1.587907 8.004361 34.942536 4.745535 0.000000 0.000000 0.000000 
-0.747006 0.933169 2.195801 -2.409493 14.898414 -5.176506 -5.957164 -0.716491 -5.620005 -1.653027 0.003956 4.213568 -0.994649 3.069403 8.377163 0.000000 0.000000 0.000000 -5.260852 0.052605 -3.672776 -2.885649 -0.405009 52.389386 9.841639 8.535313 24.120476 0.000000 0.000000 0.000000 1.095512 -0.992972 14.368214 -0.923189 0.574145 -1.598163 -0.909927 6.776427 2.031951 1.723865 0.796857 -10.950580 0.000000 0.000000 0.000000 -29.795811 0.877120 -9.384864 -40.150986 1.774725 -3.512272 -6.906570 -21.849065 1.509308 0.000000 0.000000 0.000000 24.920267 -0.731393 1.751136 44.309595 19.342026 1.320564 7.461744 34.358509 4.463365 0.000000 0.000000 0.000000 
-0.727280 0.939424 2.229207 -3.554967 21.316723 -6.803007 -6.593776 -0.094482 -1.258293 -0.016033 -0.172993 3.654243 -4.213000 -2.255013 7.879183 0.000000 0.000000 0.000000 -3.712840 0.281849 -7.784392 -5.583689 -0.913134 52.908685 7.285478 9.540976 14.498184 0.000000 0.000000 0.000000 1.983405 -1.258720 14.759013 -0.109425 0.289647 -2.203953 -1.055969 5.129385 2.902411 2.815168 0.139107 -10.437398 0.000000 0.000000 0.000000 -29.713891 -1.412807 -8.703610 -39.972719 -0.061309 -2.728468 -8.263623 -24.654963 1.884641 0.000000 0.000000 0.000000 25.311191 -1.623904 1.828950 44.895422 18.047475 0.594946 6.062785 32.416866 3.877783 0.000000 0.000000 0.000000 
-0.706348 0.943456 2.261870 -5.267539 27.534062 -8.492171 -6.208904 0.335013 2.446360 1.518894 -0.324082 3.557098 -7.207448 -7.360554 7.518421 0.000000 0.000000 0.000000 -1.916572 0.535621 -11.138091 -6.615697 -1.602416 47.931701 4.044978 7.880766 4.727422 0.000000 0.000000 0.000000 3.291755 -1.531282 14.706104 1.227938 -0.408445 -1.201523 -1.911052 3.546273 1.986608 3.450392 -0.482592 -8.938898 0.000000 0.000000 0.000000 -28.781268 -2.865469 -8.236665 -40.721539 -1.837593 -2.009555 -10.326498 -28.077309 2.457831 0.000000 0.000000 0.000000 25.107716 -2.118881 1.969725 45.389706 15.449395 -0.380678 6.597638 31.660373 3.984154 0.000000 0.000000 0.000000 
-0.684417 0.945552 2.293596 -6.683002 33.747536 -10.313631 -6.033205 0.573183 6.266569 3.396059 -0.469675 3.230178 -10.236547 -12.212342 7.709124 0.000000 0.000000 0.000000 0.143203 0.795313 -13.467125 -6.268737 -2.034027 40.335465 3.795047 7.768648 3.735435 0.000000 0.000000 0.000000 3.590815 -1.685760 14.728488 2.885176 -1.099300 -1.708470 -2.659751 2.504346 2.199454 4.508650 -1.144601 -8.552245 0.000000 0.000000 0.000000 -26.976266 -3.561682 -8.101427 -41.722580 -3.460969 -1.474835 -13.296827 -31.322356 3.259107 0.000000 0.000000 0.000000 25.686323 -3.356489 1.995159 45.389497 13.568801 -1.372977 6.011979 29.757322 3.637602 0.000000 0.000000 0.000000 
-0.661219 0.943778 2.324369 -7.782382 39.121139 -11.498574 -5.397742 0.536202 9.809448 4.227451 -0.434649 2.181120 -12.776749 -16.489111 7.765790 0.000000 0.000000 0.000000 1.846598 0.980462 -15.368995 -4.368071 -2.040984 31.292128 3.634015 7.508593 3.111049 0.000000 0.000000 0.000000 3.788765 -1.738980 14.336278 4.011019 -1.634451 -1.678238 -3.570629 2.148826 2.499998 6.029534 -2.045482 -8.560117 0.000000 0.000000 0.000000 -25.858239 -5.012972 -7.839795 -41.416948 -4.194789 -1.048311 -16.721240 -35.847556 4.470324 0.000000 0.000000 0.000000 26.265813 -4.862338 1.869785 45.012788 11.502221 -2.376460 5.941455 28.722091 3.545603 0.000000 0.000000 0.000000 
-0.635968 0.939337 2.354417 -8.707616 43.734530 -12.990992 -4.949694 0.207076 14.156685 5.135606 -0.346245 0.443213 -14.815451 -19.941850 7.742162 0.000000 0.000000 0.000000 3.367852 1.123692 -15.904488 0.688970 -1.887711 17.791580 3.841591 7.435774 7.112854 0.000000 0.000000 0.000000 4.229073 -1.967621 14.766823 3.962519 -1.308109 -3.068012 -3.859370 1.427423 3.815653 7.000753 -2.590154 -8.544305 0.000000 0.000000 0.000000 -24.388191 -5.440729 -7.832278 -42.263974 -5.073109 -0.824724 -21.395379 -39.902564 6.157467 0.000000 0.000000 0.000000 26.327618 -6.581881 1.500200 46.412702 10.025833 -3.205181 4.630683 27.399303 3.190903 0.000000 0.000000 0.000000 
-0.608262 0.932251 2.383872 -8.855396 47.584211 -13.016620 -5.363509 -0.184427 17.534018 6.469511 -0.303442 -1.265777 -16.287866 -22.664980 7.529057 0.000000 0.000000 0.000000 5.594424 1.391303 -17.370922 4.407186 -1.637439 6.599652 4.224743 7.399796 16.962755 0.000000 0.000000 0.000000 4.817300 -1.963371 14.024947 4.633577 -1.813710 -2.148914 -5.297289 1.561454 2.172512 7.238689 -2.852166 -7.889535 0.000000 0.000000 0.000000 -23.844388 -6.773974 -7.658743 -42.333315 -3.756289 -0.997637 -25.445078 -44.004250 7.993958 0.000000 0.000000 0.000000 25.880291 -7.973048 0.978941 47.511908 8.047070 -3.702430 5.130449 25.926272 3.128142 0.000000 0.000000 0.000000 
-0.578079 0.924608 2.413030 -8.363205 50.942683 -12.701116 -5.948858 -0.604733 19.924803 6.527190 -0.374465 -0.214684 -15.478548 -22.590330 5.943807 0.000000 0.000000 0.000000 6.672317 1.413045 -18.086407 5.607797 -1.887772 4.626698 4.035927 7.128404 20.142881 0.000000 0.000000 0.000000 5.118191 -2.018758 13.772219 3.729801 -1.231702 -2.799491 -4.811962 -0.573396 2.878709 7.568127 -3.533492 -6.548787 0.000000 0.000000 0.000000 -25.374360 -4.291365 -9.466414 -40.936853 -3.687302 -1.003840 -28.410966 -44.589523 9.603747 0.000000 0.000000 0.000000 25.775602 -6.628044 2.087697 48.376184 7.648262 -4.071493 1.888169 23.632711 2.124068 0.000000 0.000000 0.000000 
-0.543402 0.917000 2.442540 -8.900006 54.473398 -12.884320 -4.803468 -1.445472 21.980950 5.154454 -0.375741 1.264501 -15.492301 -22.965247 5.340684 0.000000 0.000000 0.000000 7.965879 1.474961 -18.644388 4.409537 -2.221149 8.913490 2.524343 5.572964 15.269171 0.000000 0.000000 0.000000 6.244882 -2.042051 12.812370 4.972160 -1.744149 -3.097892 -6.849562 0.581694 2.845106 9.284578 -4.288659 -7.451879 0.000000 0.000000 0.000000 -24.919738 -6.742251 -9.300197 -41.097015 -2.915811 -0.847145 -28.685913 -44.162925 9.093465 0.000000 0.000000 0.000000 28.134987 -10.107678 1.003646 46.362904 8.003631 -4.325919 1.871379 21.449696 1.914723 0.000000 0.000000 0.000000 
-0.503770 0.913538 2.472653 -8.896267 57.112716 -12.268147 -3.103621 -2.152252 22.315609 2.507653 -0.513679 5.152936 -17.025120 -22.216190 7.817511 0.000000 0.000000 0.000000 9.001264 1.516273 -18.852611 2.440395 -2.475544 13.336624 1.957839 4.576716 8.501267 0.000000 0.000000 0.000000 6.792992 -1.944956 11.766372 6.008944 -2.007501 -4.006447 -7.251152 -1.045860 2.751818 8.528057 -3.848080 -6.992846 0.000000 0.000000 0.000000 -25.739669 -5.236551 -10.470646 -41.770215 -0.014370 -1.867513 -27.633350 -39.809570 7.881080 0.000000 0.000000 0.000000 28.025492 -10.456621 0.709687 44.642852 6.846661 -4.638510 1.431686 19.557029 1.578189 0.000000 0.000000 0.000000 
-0.461929 0.915518 2.502257 -9.489652 57.653523 -11.867435 -1.112740 -2.086058 19.468730 0.170033 -1.502555 14.040160 -18.881998 -19.945393 12.342695 0.000000 0.000000 0.000000 10.387879 1.688894 -18.981941 0.351251 -2.822819 17.989109 2.276401 4.645155 3.259500 0.000000 0.000000 0.000000 7.564976 -1.574524 9.476362 7.011298 -2.642674 -3.499867 -7.887657 -0.486582 1.754250 8.519249 -4.030555 -6.361715 0.000000 0.000000 0.000000 -24.539634 -3.068948 -11.313207 -43.339225 2.523009 -3.083586 -26.846879 -34.165419 6.272309 0.000000 0.000000 0.000000 28.122595 -11.487235 0.257508 43.434497 5.980497 -4.900353 2.747641 18.029357 1.594926 0.000000 0.000000 0.000000 
-0.422950 0.920832 2.529004 -9.328597 57.222455 -11.534611 2.065589 -1.368100 11.755981 -7.075807 -3.857228 29.963065 -19.263153 -12.598088 20.467157 0.000000 0.000000 0.000000 10.960757 1.866711 -16.362983 -0.319944 -2.802268 18.792632 2.614078 4.959110 0.152098 0.000000 0.000000 0.000000 8.111400 -1.378348 8.063029 6.772429 -2.654495 -3.069638 -7.657467 0.568302 2.148809 9.180910 -3.971536 -7.572920 0.000000 0.000000 0.000000 -23.478263 -2.505867 -11.395523 -45.287217 3.661854 -3.935904 -22.895187 -29.696480 4.335683 0.000000 0.000000 0.000000 27.073986 -11.421415 0.396050 43.212734 6.374331 -4.698314 4.080774 16.928672 1.623981 0.000000 0.000000 0.000000 
-0.389615 0.925381 2.551222 -8.325215 55.939525 -11.684086 5.049243 -0.937593 3.472335 -16.607060 -5.061065 44.004277 -15.854501 -4.738363 26.661642 0.000000 0.000000 0.000000 11.500596 1.858204 -11.679713 -1.270463 -2.096087 17.504416 3.001278 5.509533 -2.159122 0.000000 0.000000 0.000000 7.979973 -1.629829 9.606052 5.441947 -2.079714 -2.743590 -6.494926 2.020964 2.108918 9.718044 -4.394204 -7.527352 0.000000 0.000000 0.000000 -24.100015 -2.605026 -11.757730 -45.024723 5.694189 -4.558250 -20.971586 -27.174280 3.604236 0.000000 0.000000 0.000000 26.196502 -9.923729 1.429907 43.552803 7.066179 -4.449465 3.496536 17.564062 1.601758 0.000000 0.000000 0.000000 
-0.360545 0.930611 2.570216 -6.346054 54.057434 -10.338963 6.475854 -0.876238 -4.991364 -21.534336 -4.793436 50.615184 -10.683247 -0.085015 25.224454 0.000000 0.000000 0.000000 10.676065 1.508909 -7.748081 -1.217524 -1.570662 15.504436 3.658795 7.113749 -3.299196 0.000000 0.000000 0.000000 6.724020 -1.381744 9.444792 4.958114 -1.913759 -2.499830 -5.914796 4.295244 3.703805 10.708535 -4.034054 -10.142901 0.000000 0.000000 0.000000 -24.144003 -3.028285 -12.033664 -44.967146 6.428472 -4.789261 -17.411011 -25.475332 2.654324 0.000000 0.000000 0.000000 26.316412 -9.245729 2.576597 43.746184 10.466134 -3.798434 2.369841 18.550655 1.604380 0.000000 0.000000 0.000000 
-0.333416 0.935197 2.587335 -4.143942 49.750189 -8.772969 7.175588 -1.219435 -11.158704 -20.732052 -4.010688 49.440972 0.216106 7.357428 10.872966 0.000000 0.000000 0.000000 9.821012 0.990068 -3.983817 -1.847822 -0.755738 13.419094 5.007035 11.032918 -3.723024 0.000000 0.000000 0.000000 5.668744 -1.358155 10.297462 3.361518 -1.230179 -2.176225 -5.106288 6.432290 4.218569 10.994130 -4.306007 -10.186151 0.000000 0.000000 0.000000 -24.569856 -2.376059 -12.403302 -43.527463 7.315867 -4.872777 -14.860063 -24.873739 2.199442 0.000000 0.000000 0.000000 25.885018 -7.980221 3.303397 44.180084 13.659682 -2.715145 1.290873 21.085055 1.783133 0.000000 0.000000 0.000000 
-0.306732 0.937975 2.602685 -2.049179 45.089436 -7.113013 7.365879 -1.478139 -14.423241 -13.839405 -3.751017 41.074080 4.865587 9.688706 1.136842 0.000000 0.000000 0.000000 8.565558 0.440667 -0.969746 -3.046950 0.032304 11.679981 6.433804 15.481893 -4.206506 0.000000 0.000000 0.000000 4.682520 -1.248700 10.617119 1.847314 -0.644822 -1.610057 -4.279129 8.070889 4.284285 10.312951 -3.671823 -10.858352 0.000000 0.000000 0.000000 -25.774327 -1.237487 -13.105889 -41.549356 8.266824 -4.841959 -12.825727 -24.474249 1.942808 0.000000 0.000000 0.000000 25.705047 -6.885335 3.654628 44.518556 16.882510 -1.450728 0.405356 24.317131 2.052197 0.000000 0.000000 0.000000 
-0.278976 0.938453 2.616626 -0.895001 39.380600 -5.606215 8.195147 -1.498813 -15.603790 -4.665753 -2.397139 25.392490 -0.876172 1.595788 4.169284 0.000000 0.000000 0.000000 7.066974 0.138195 0.380733 -3.967382 0.505205 11.283452 8.199655 21.116690 -4.627609 0.000000 0.000000 0.000000 4.533768 -1.187832 10.550063 0.923939 -0.155596 -2.000767 -4.512739 8.853994 4.700597 8.892101 -2.679877 -11.243449 0.000000 0.000000 0.000000 -26.337444 0.156164 -13.373706 -40.505015 8.436010 -4.843481 -11.052229 -23.064762 1.642648 0.000000 0.000000 0.000000 25.235106 -5.457261 3.941648 44.626723 19.887381 -0.158013 0.755903 28.182463 2.649275 0.000000 0.000000 0.000000 
-0.249419 0.936476 2.629817 -0.789936 34.157013 -4.667383 8.996966 -1.306456 -14.982494 1.692750 -0.949628 9.762511 -10.998146 -8.189688 13.983801 0.000000 0.000000 0.000000 6.251814 0.079624 0.448625 -5.431448 0.971279 12.522362 9.619608 26.324149 -5.553553 0.000000 0.000000 0.000000 5.169148 -1.188833 10.265899 -0.442686 0.439937 -1.988992 -3.851710 9.497987 4.340056 8.056879 -2.068718 -11.881792 0.000000 0.000000 0.000000 -26.985541 1.260047 -13.442375 -39.473196 9.024708 -4.976609 -9.864303 -21.898409 1.496492 0.000000 0.000000 0.000000 24.021998 -4.407459 3.607777 45.036759 21.289734 0.911534 3.310787 31.754330 3.787168 0.000000 0.000000 0.000000 
-0.217511 0.934617 2.642683 -0.433346 28.999831 -4.488635 8.888835 -1.079908 -13.878184 3.458131 -0.523493 3.624537 -17.058117 -14.639654 19.378967 0.000000 0.000000 0.000000 4.776935 -0.186596 1.804700 -7.044667 1.509966 12.753264 10.948269 31.600556 -6.166729 0.000000 0.000000 0.000000 4.903458 -1.146782 10.511671 -0.548956 0.469991 -1.863696 -3.659630 9.512242 4.427862 7.285698 -1.618101 -12.483472 0.000000 0.000000 0.000000 -27.863913 1.396486 -12.852166 -38.558907 8.807176 -4.906736 -8.952799 -19.714268 1.376744 0.000000 0.000000 0.000000 25.291655 -3.051925 3.828929 43.064226 24.156595 1.844730 5.129547 34.460453 4.496955 0.000000 0.000000 0.000000 
-0.182966 0.931628 2.654792 -0.377755 23.872572 -3.967759 8.886738 -0.951839 -13.881436 3.020544 -0.681645 5.710788 -17.536790 -16.818018 18.955177 0.000000 0.000000 0.000000 3.087777 -0.279559 2.266579 -8.612798 2.005742 13.004606 12.226425 36.871591 -6.638424 0.000000 0.000000 0.000000 5.257917 -1.056650 9.865821 -1.288577 0.721162 -1.151502 -3.479189 10.219351 4.167369 8.595725 -2.461851 -13.276791 0.000000 0.000000 0.000000 -28.483004 -0.222299 -11.536902 -38.940729 8.043178 -4.718185 -7.323276 -18.334299 1.119355 0.000000 0.000000 0.000000 26.083507 -3.273406 3.168206 42.811440 24.574353 2.026058 6.123747 35.187561 4.851267 0.000000 0.000000 0.000000 
-0.147158 0.929686 2.665781 -0.948467 20.020512 -3.380197 8.082323 -0.840017 -12.874408 3.126656 -0.883244 7.624633 -15.028913 -16.025267 15.594288 0.000000 0.000000 0.000000 1.283948 -0.252781 2.053221 -8.852027 2.195214 14.028462 12.886563 40.143333 -6.978239 0.000000 0.000000 0.000000 5.753090 -0.944116 8.726870 -1.960369 1.007129 -1.001952 -2.803235 9.275828 4.154102 8.955825 -3.107878 -12.774157 0.000000 0.000000 0.000000 -29.115597 -1.242829 -10.124157 -38.819678 7.071113 -4.531752 -7.830927 -17.966001 1.282382 0.000000 0.000000 0.000000 27.459946 -3.734414 2.072981 42.691909 22.378533 1.303939 7.589676 35.471716 5.193794 0.000000 0.000000 0.000000 
-0.113424 0.930404 2.675863 -1.102400 16.166408 -2.536071 7.053971 -0.778403 -12.268613 2.593126 -0.918277 9.012688 -11.866076 -14.341188 11.578887 0.000000 0.000000 0.000000 -0.345837 -0.125496 1.012554 -9.724551 2.612327 15.781438 13.433081 42.120292 -6.576255 0.000000 0.000000 0.000000 5.831366 -0.849280 7.981890 -2.418602 1.184013 -0.575785 -2.745109 8.259797 3.553998 9.109118 -3.528038 -12.610561 0.000000 0.000000 0.000000 -29.768180 -2.827418 -8.227875 -37.421737 4.817912 -3.793693 -9.001594 -18.572834 1.629771 0.000000 0.000000 0.000000 28.138787 -4.399668 0.568343 43.335320 19.163357 0.534722 8.927328 34.981390 5.325861 0.000000 0.000000 0.000000 
-0.083932 0.934302 2.684678 -1.116236 13.515474 -1.822234 5.706961 -0.727891 -10.968476 2.250429 -0.791117 8.384105 -10.120019 -12.714877 9.929203 0.000000 0.000000 0.000000 -1.312557 0.025920 -0.454650 -10.449181 3.041300 17.894338 14.104146 41.442556 -4.399928 0.000000 0.000000 0.000000 5.619687 -0.770931 7.480809 -3.153589 1.500767 -0.123143 -2.097354 6.340714 2.791363 8.420077 -3.404887 -12.402600 0.000000 0.000000 0.000000 -29.837788 -2.987504 -6.750517 -36.564827 1.214167 -2.956651 -10.407802 -20.481593 2.157831 0.000000 0.000000 0.000000 28.200167 -4.543883 -0.806899 44.693556 15.057038 -0.382784 8.735835 33.224273 4.687273 0.000000 0.000000 0.000000 
-0.058835 0.938896 2.692164 -1.349159 11.720573 -1.615826 4.817226 -0.654679 -9.497411 1.709427 -0.624425 7.491167 -9.173055 -11.498019 9.393431 0.000000 0.000000 0.000000 -1.914225 0.124903 -1.572472 -9.300175 2.990908 20.397137 13.331138 36.720265 -2.156645 0.000000 0.000000 0.000000 5.136707 -0.724033 7.459172 -2.379031 1.174716 -0.903281 -3.005286 4.312759 3.559263 8.318551 -3.633778 -12.164138 0.000000 0.000000 0.000000 -28.821752 -4.379430 -4.564367 -36.116466 -3.132477 -2.049712 -9.313393 -24.768061 2.467354 0.000000 0.000000 0.000000 29.206049 -4.075058 -1.415524 44.845032 12.355282 -1.179419 8.642018 29.780801 3.873338 0.000000 0.000000 0.000000 
-0.037607 0.941545 2.698493 -1.356801 9.510727 -1.550141 4.294299 -0.530048 -7.535470 0.462221 -0.321208 5.845286 -8.096716 -10.025803 8.915511 0.000000 0.000000 0.000000 -1.980566 0.268761 -3.185313 -8.656043 3.123417 23.197163 12.035332 30.813773 0.199725 0.000000 0.000000 0.000000 4.413877 -0.670418 7.618308 -2.554289 1.242514 -0.558556 -2.840099 2.581537 2.977230 7.846163 -3.540701 -12.215291 0.000000 0.000000 0.000000 -27.587073 -5.407185 -2.580904 -34.800046 -8.651906 -0.788775 -5.811247 -26.827235 1.977691 0.000000 0.000000 0.000000 29.643269 -3.372576 -2.083253 44.624856 8.941116 -2.020291 9.022013 26.590351 3.276071 0.000000 0.000000 0.000000 
-0.019488 0.943060 2.703855 -1.639654 7.804220 -1.496988 3.757383 -0.446005 -6.134402 -0.004979 -0.190350 4.663702 -7.209254 -8.917136 8.357682 0.000000 0.000000 0.000000 -2.128065 0.368895 -4.388930 -6.968291 2.798412 24.819749 10.357764 24.007293 2.818002 0.000000 0.000000 0.000000 4.067069 -0.664957 7.938766 -2.099047 1.045397 -1.103314 -3.319279 1.303683 3.185050 7.260054 -3.357219 -12.038957 0.000000 0.000000 0.000000 -26.702668 -6.886766 -0.777137 -32.970509 -12.728540 0.030076 -3.043410 -29.462323 1.559754 0.000000 0.000000 0.000000 30.372639 -2.853714 -2.543559 44.386678 5.720347 -2.937958 9.726662 24.619605 3.032933 0.000000 0.000000 0.000000 
-0.004271 0.943578 2.708337 -1.831287 5.968432 -1.429099 3.169124 -0.374566 -4.964380 -0.292766 -0.104965 3.691578 -6.239396 -7.686365 7.733965 0.000000 0.000000 0.000000 -1.958586 0.426864 -4.929308 -5.756788 2.498992 24.430812 8.302020 16.534086 5.814164 0.000000 0.000000 0.000000 3.841106 -0.635894 7.900824 -2.451436 1.198589 -0.848454 -2.974848 0.062529 2.216728 6.625865 -3.234015 -11.228265 0.000000 0.000000 0.000000 -25.891455 -7.905658 0.727212 -30.621320 -15.829346 0.526819 -0.449142 -30.561034 1.042709 0.000000 0.000000 0.000000 29.514946 -2.354538 -3.071885 44.914399 3.026186 -3.520254 10.317976 23.552805 2.885096 0.000000 0.000000 0.000000 
0.008156 0.943259 2.711973 -1.982415 3.477854 -1.222720 2.871815 -0.312857 -4.097727 -0.919778 0.010422 2.944754 -4.959330 -5.931739 7.051350 0.000000 0.000000 0.000000 -1.714043 0.467974 -5.199954 -4.629148 2.234709 23.528016 5.296025 8.680788 7.108000 0.000000 0.000000 0.000000 3.426934 -0.607445 8.069359 -2.742797 1.332543 -1.150383 -2.743566 -0.450413 1.748291 5.785369 -2.919200 -10.460541 0.000000 0.000000 0.000000 -25.367895 -9.153975 2.170383 -29.804573 -17.361929 0.673521 2.669509 -31.736066 0.311316 0.000000 0.000000 0.000000 29.352307 -1.751745 -3.393001 45.091200 0.964467 -3.993254 11.494050 23.765375 3.052556 0.000000 0.000000 0.000000 
0.017666 0.943449 2.714708 -2.169312 1.825172 -1.137088 2.301981 -0.266455 -3.366397 -0.697383 0.007998 2.256607 -4.136615 -4.725185 6.696443 0.000000 0.000000 0.000000 -1.279889 0.424307 -4.499760 -4.035540 1.942223 20.654360 2.773794 1.808405 9.458668 0.000000 0.000000 0.000000 3.267773 -0.579209 7.948556 -3.008819 1.451371 -1.083984 -2.405513 -1.397781 0.938729 5.197995 -2.701011 -9.979682 0.000000 0.000000 0.000000 -25.213532 -9.328076 2.913452 -29.444475 -18.472600 0.765377 5.042671 -30.537395 -0.239690 0.000000 0.000000 0.000000 28.793149 -0.942089 -3.552162 45.834177 -0.486566 -4.285673 11.739762 23.250416 2.926074 0.000000 0.000000 0.000000 
0.024609 0.943112 2.716815 -2.301729 -0.362442 -0.666857 2.188437 -0.245723 -3.116483 -1.136467 0.085451 1.667032 -3.085400 -3.080341 6.401628 0.000000 0.000000 0.000000 -0.977203 0.408068 -4.212644 -3.898010 1.787599 17.932325 0.997325 -2.658350 10.819798 0.000000 0.000000 0.000000 2.870259 -0.516669 7.541925 -3.092903 1.481354 -1.153010 -1.977990 -1.386965 0.584334 4.751815 -2.557117 -9.300009 0.000000 0.000000 0.000000 -25.134300 -9.475860 3.429786 -29.942065 -18.946635 0.799205 6.187372 -28.930282 -0.452502 0.000000 0.000000 0.000000 27.999751 -0.564963 -3.681590 45.830458 -1.279329 -4.397691 13.766666 23.631570 3.301664 0.000000 0.000000 0.000000 
0.029729 0.942474 2.718416 -2.354260 -1.290218 -0.417519 1.970123 -0.241666 -3.029566 -1.306615 0.115414 1.421713 -2.595594 -2.382255 6.086601 0.000000 0.000000 0.000000 -0.523932 0.344595 -3.478926 -3.969844 1.602467 15.092636 -1.049175 -7.261558 12.393496 0.000000 0.000000 0.000000 2.801723 -0.492214 7.259224 -3.078628 1.469800 -1.222645 -1.977411 -1.499930 0.502592 4.362538 -2.350919 -9.100370 0.000000 0.000000 0.000000 -25.377443 -9.567862 3.696063 -30.785231 -18.413298 0.673769 6.527955 -27.779159 -0.488152 0.000000 0.000000 0.000000 27.920439 -0.289230 -3.717608 46.160526 -1.550931 -4.457713 14.067248 24.065102 3.396592 0.000000 0.000000 0.000000 
0.033774 0.941471 2.719752 -2.535925 -2.402792 -0.068400 1.655612 -0.230032 -2.817971 -0.946220 0.089252 0.770122 -1.992992 -1.514050 5.667309 0.000000 0.000000 0.000000 -0.385989 0.306347 -3.080798 -3.878383 1.422045 12.931950 -1.974872 -9.348092 13.246809 0.000000 0.000000 0.000000 3.039418 -0.468735 6.653181 -3.137261 1.496931 -0.855074 -1.979641 -1.209722 0.294467 4.581002 -2.488185 -9.253548 0.000000 0.000000 0.000000 -26.138642 -9.410969 3.705980 -31.629934 -17.763319 0.545256 5.579885 -26.026108 -0.231282 0.000000 0.000000 0.000000 27.443770 -0.036468 -3.596965 46.415278 -1.380555 -4.376859 14.619930 24.001704 3.477079 0.000000 0.000000 0.000000 
0.037114 0.940522 2.721112 -2.336653 -2.968905 -0.051035 1.182859 -0.220018 -2.599073 -0.946480 0.094801 0.597755 -1.676368 -1.084806 5.357715 0.000000 0.000000 0.000000 -0.712715 0.237944 -2.352188 -3.593878 1.213921 11.049083 -3.013135 -11.437088 13.928901 0.000000 0.000000 0.000000 3.108269 -0.454919 6.410078 -3.361680 1.608631 -0.502554 -2.035552 -0.891620 0.158842 4.683631 -2.566947 -9.117542 0.000000 0.000000 0.000000 -27.124719 -9.547921 3.789650 -32.685207 -16.558010 0.306593 4.597708 -24.847561 -0.013819 0.000000 0.000000 0.000000 27.548556 0.203752 -3.451393 46.646878 -1.440609 -4.415634 14.437872 24.183086 3.471628 0.000000 0.000000 0.000000 
0.039781 0.940038 2.722795 -2.306281 -3.944510 0.022599 0.714678 -0.199787 -2.274627 -0.572222 0.060239 0.254758 -1.189818 -0.306366 5.140404 0.000000 0.000000 0.000000 -1.045136 0.169889 -1.558281 -3.502731 1.058660 9.267145 -2.865295 -11.279953 13.841115 0.000000 0.000000 0.000000 3.424469 -0.425587 5.719273 -3.719450 1.796638 0.183051 -1.798290 -0.195464 0.113768 4.666759 -2.517469 -9.349457 0.000000 0.000000 0.000000 -27.848004 -8.708623 3.198205 -34.887015 -14.978093 -0.016423 3.003955 -23.117786 0.300744 0.000000 0.000000 0.000000 26.872497 0.286552 -3.249524 47.097458 -0.911374 -4.288128 14.120258 24.130929 3.409068 0.000000 0.000000 0.000000 
0.041663 0.939701 2.724813 -2.239690 -4.216906 0.030944 0.474933 -0.164268 -1.828388 -0.539494 0.071618 -0.288272 -1.073912 -0.129422 5.069739 0.000000 0.000000 0.000000 -1.281632 0.124336 -0.983879 -3.325898 0.924999 7.977047 -3.211987 -12.075052 14.580301 0.000000 0.000000 0.000000 3.629269 -0.397782 5.164582 -3.766607 1.833660 0.661712 -1.868492 0.368639 0.047909 4.712871 -2.559291 -9.027118 0.000000 0.000000 0.000000 -28.487569 -8.028074 2.569635 -36.366368 -12.921096 -0.501330 1.178020 -21.940399 0.615081 0.000000 0.000000 0.000000 26.478419 0.114898 -3.141857 47.238022 -0.269710 -4.107833 13.908697 24.066241 3.381391 0.000000 0.000000 0.000000 
0.042729 0.939347 2.726923 -2.167027 -4.892337 0.090542 0.339870 -0.147899 -1.626388 -0.642104 0.087538 -0.407579 -0.754916 0.388955 4.928206 0.000000 0.000000 0.000000 -1.589726 0.084431 -0.398435 -3.121516 0.784283 6.586171 -3.194784 -12.202172 14.925742 0.000000 0.000000 0.000000 3.896721 -0.373005 4.641681 -4.141599 2.018082 0.591809 -1.624266 1.140112 0.658946 4.981244 -2.693934 -9.357211 0.000000 0.000000 0.000000 -28.974607 -6.624415 1.530296 -38.061275 -10.599706 -1.185725 -0.650497 -20.807655 0.904315 0.000000 0.000000 0.000000 26.556702 -0.024303 -3.093943 46.984066 0.505104 -3.884407 14.005652 24.131655 3.436668 0.000000 0.000000 0.000000 
0.042948 0.939030 2.728532 -2.217149 -4.493940 0.178362 0.831530 -0.078817 -0.874509 -1.428350 0.206476 -1.803849 -1.058485 -0.084313 5.153334 0.000000 0.000000 0.000000 -1.658476 0.038322 0.176383 -2.994119 0.672913 5.362812 -3.288517 -12.478914 15.781935 0.000000 0.000000 0.000000 4.035432 -0.345539 4.153114 -4.232095 2.073732 0.973400 -1.590397 1.271796 0.559268 5.431179 -2.931754 -9.659519 0.000000 0.000000 0.000000 -29.128366 -5.453106 0.611389 -39.049340 -8.362404 -1.826889 -2.822468 -19.724397 1.214548 0.000000 0.000000 0.000000 26.639663 -0.041174 -2.999865 47.207477 0.759129 -3.834438 13.727663 24.189562 3.408496 0.000000 0.000000 0.000000 
0.042620 0.939387 2.729386 -2.177496 -4.340703 -0.035898 0.727755 -0.068640 -0.756856 -1.273342 0.183903 -1.520457 -1.123354 -0.201847 5.146732 0.000000 0.000000 0.000000 -1.681373 -0.014501 0.817490 -2.508144 0.545014 4.540993 -4.223544 -14.108007 16.385191 0.000000 0.000000 0.000000 4.205607 -0.337493 3.986207 -4.237974 2.054066 0.314274 -1.716158 1.782195 1.890513 5.944618 -3.241463 -9.935805 0.000000 0.000000 0.000000 -29.613926 -4.864238 0.028203 -39.634443 -6.335260 -2.511084 -3.987451 -19.031540 1.353215 0.000000 0.000000 0.000000 27.996511 0.275839 -2.700581 46.137145 1.920779 -3.501787 12.491723 24.471894 3.252851 0.000000 0.000000 0.000000 
0.041938 0.938886 2.729639 -2.225791 -3.914227 -0.132121 1.026650 -0.044445 -0.474275 -1.600481 0.223986 -1.868507 -1.326513 -0.598719 5.062424 0.000000 0.000000 0.000000 -1.410431 -0.060642 1.218349 -1.992091 0.432068 3.888418 -5.886182 -16.799573 16.907275 0.000000 0.000000 0.000000 4.031476 -0.295426 3.524809 -4.517100 2.244183 1.829798 -1.283293 2.140405 0.769561 6.424296 -3.529680 -9.706385 0.000000 0.000000 0.000000 -29.421167 -4.028329 -0.784776 -39.998416 -4.056710 -3.074895 -6.170327 -19.006448 1.688116 0.000000 0.000000 0.000000 26.325138 -0.391893 -2.779042 47.869577 2.320066 -3.438784 12.327840 25.208462 3.347206 0.000000 0.000000 0.000000 
0.041315 0.939863 2.729341 -1.857804 -3.012701 -0.171556 0.367360 -0.086557 -0.942908 -0.994791 0.144565 -1.202487 -1.739938 -1.220526 5.341053 0.000000 0.000000 0.000000 -1.629249 -0.118364 1.979076 -1.653111 0.319284 2.713254 -6.960902 -18.440371 17.459466 0.000000 0.000000 0.000000 3.421860 -0.274775 3.543372 -4.432856 2.175133 1.249282 -0.577769 2.579728 1.592926 5.811878 -3.054332 -9.996191 0.000000 0.000000 0.000000 -29.987220 -3.631028 -1.328877 -39.152809 -2.702858 -3.398076 -7.268428 -17.631877 1.718934 0.000000 0.000000 0.000000 26.997822 0.911429 -1.750703 46.916018 3.485983 -3.092777 11.018528 23.881775 2.935437 0.000000 0.000000 0.000000 
