HIERARCHY
ROOT Hips
{
	OFFSET -0.001795 -0.223333 0.028219
	CHANNELS 6 Xposition Yposition Zposition Zrotation Yrotation Xrotation 
	JOINT LeftUpLeg
	{
		OFFSET 0.069520 -0.091406 -0.006815
		CHANNELS 3 Zrotation Yrotation Xrotation
		JOINT LeftLeg
		{
			OFFSET 0.034277 -0.375199 -0.004496
			CHANNELS 3 Zrotation Yrotation Xrotation
			JOINT LeftFoot
			{
				OFFSET -0.013596 -0.397961 -0.043693
				CHANNELS 3 Zrotation Yrotation Xrotation
				JOINT LeftToe
				{
					OFFSET 0.026358 -0.055791 0.119288
					CHANNELS 3 Zrotation Yrotation Xrotation
					End Site
					{
						OFFSET 0.000000 0.000000 0.000000
					}
				}
			}
		}
	}
	JOINT RightUpLeg
	{
		OFFSET -0.067670 -0.090522 -0.004320
		CHANNELS 3 Zrotation Yrotation Xrotation
		JOINT RightLeg
		{
			OFFSET -0.038290 -0.382569 -0.008850
			CHANNELS 3 Zrotation Yrotation Xrotation
			JOINT RightFoot
			{
				OFFSET 0.015774 -0.398415 -0.042312
				CHANNELS 3 Zrotation Yrotation Xrotation
				JOINT RightToe
				{
					OFFSET -0.025372 -0.048144 0.123348
					CHANNELS 3 Zrotation Yrotation Xrotation
					End Site
					{
						OFFSET 0.000000 0.000000 0.000000
					}
				}
			}
		}
	}
	JOINT Spine
	{
		OFFSET -0.002533 0.108963 -0.026696
		CHANNELS 3 Zrotation Yrotation Xrotation
		JOINT Spine1
		{
			OFFSET 0.005487 0.135180 0.001092
			CHANNELS 3 Zrotation Yrotation Xrotation
			JOINT Spine2
			{
				OFFSET 0.001457 0.052922 0.025425
				CHANNELS 3 Zrotation Yrotation Xrotation
				JOINT Neck
				{
					OFFSET -0.002778 0.213870 -0.042857
					CHANNELS 3 Zrotation Yrotation Xrotation
					JOINT Head
					{
						OFFSET 0.005152 0.064970 0.051349
						CHANNELS 3 Zrotation Yrotation Xrotation
						End Site
						{
							OFFSET 0.000000 0.000000 0.000000
						}
					}
				}
				JOINT LeftShoulder
				{
					OFFSET 0.078845 0.121749 -0.034090
					CHANNELS 3 Zrotation Yrotation Xrotation
					JOINT LeftArm
					{
						OFFSET 0.090977 0.030469 -0.008868
						CHANNELS 3 Zrotation Yrotation Xrotation
						JOINT LeftForeArm
						{
							OFFSET 0.259612 -0.012772 -0.027456
							CHANNELS 3 Zrotation Yrotation Xrotation
							JOINT LeftHand
							{
								OFFSET 0.249234 0.008986 -0.001171
								CHANNELS 3 Zrotation Yrotation Xrotation
								End Site
								{
									OFFSET 0.000000 0.000000 0.000000
								}
							}
						}
					}
				}
				JOINT RightShoulder
				{
					OFFSET -0.081759 0.118833 -0.038615
					CHANNELS 3 Zrotation Yrotation Xrotation
					JOINT RightArm
					{
						OFFSET -0.096012 0.032551 -0.009143
						CHANNELS 3 Zrotation Yrotation Xrotation
						JOINT RightForeArm
						{
							OFFSET -0.253742 -0.013329 -0.021401
							CHANNELS 3 Zrotation Yrotation Xrotation
							JOINT RightHand
							{
								OFFSET -0.255298 0.007772 -0.005559
								CHANNELS 3 Zrotation Yrotation Xrotation
								End Site
								{
									OFFSET 0.000000 0.000000 0.000000
								}
							}
						}
					}
				}
			}
		}
	}
}
MOTION
Frames: 132
Frame Time: 0.050000
0.000000 0.936662 0.000000 -0.279478 0.906207 2.349965 2.118570 0.076556 1.647534 -0.844169 0.228552 -5.240686 -0.572274 1.059147 4.868122 0.000000 0.000000 0.000000 2.418832 -0.244644 1.446598 2.414971 -0.290781 -1.770930 0.613516 -0.507401 4.111355 0.000000 0.000000 0.000000 3.197032 0.187100 -3.525179 -0.961020 0.362438 4.489653 -3.663062 1.785923 3.029549 5.692826 -2.358410 -13.307521 0.000000 0.000000 0.000000 -29.870168 -9.237571 1.698498 -22.664697 5.483749 -3.074027 4.975965 -22.424056 -0.207322 0.000000 0.000000 0.000000 21.735167 5.094524 1.722899 25.380954 -7.513076 -3.751087 10.126321 44.493032 5.726853 0.000000 0.000000 0.000000 
-0.000655 0.935562 0.000082 -0.304701 1.222163 2.739293 2.649711 0.077889 2.015335 -1.619411 0.301617 -6.724367 -0.816166 0.721596 5.127444 0.000000 0.000000 0.000000 2.321716 -0.187393 0.996364 2.812195 -0.327283 -1.688697 0.428366 -0.771420 3.789931 0.000000 0.000000 0.000000 4.204766 0.250585 -4.274830 -1.587568 0.671894 5.212205 -4.551109 2.396917 2.796194 7.122467 -2.835331 -15.354330 0.000000 0.000000 0.000000 -28.825352 -10.462920 2.129793 -24.370634 5.237177 -3.197493 7.246416 -22.609455 -0.688995 0.000000 0.000000 0.000000 22.601277 3.652559 1.173430 24.311329 -9.109713 -3.880450 14.845315 46.229662 8.068348 0.000000 0.000000 0.000000 
-0.001118 0.935105 0.000304 -0.143121 1.922968 2.923685 3.035045 -0.002790 1.079606 -2.448894 0.321906 -5.544131 -1.023924 0.186470 4.733985 0.000000 0.000000 0.000000 2.561478 -0.201967 1.049586 2.288517 -0.289172 -2.066520 0.103981 -1.417262 3.615510 0.000000 0.000000 0.000000 5.178412 0.254161 -4.192437 -1.888506 0.844496 3.425755 -4.909635 1.576433 4.263733 7.049666 -2.895577 -15.215095 0.000000 0.000000 0.000000 -28.420206 -10.476401 2.420082 -24.952729 5.558680 -3.448708 5.585766 -23.993452 -0.374567 0.000000 0.000000 0.000000 22.170448 4.529373 1.604432 25.036068 -10.222531 -4.211911 14.093293 47.580174 7.965327 0.000000 0.000000 0.000000 
-0.001936 0.934769 0.000789 0.061617 2.187468 2.909420 3.257190 -0.025541 0.854144 -3.100309 0.353411 -5.105263 -1.135914 -0.058304 4.641454 0.000000 0.000000 0.000000 2.843677 -0.229607 1.190536 1.544116 -0.225497 -2.198551 -0.081762 -1.726735 3.346747 0.000000 0.000000 0.000000 5.390006 0.261656 -4.251989 -2.012364 0.899265 3.751299 -5.009452 1.814370 3.776805 7.587388 -3.167096 -15.272397 0.000000 0.000000 0.000000 -29.737575 -10.548601 2.216419 -23.815105 6.110862 -3.296441 5.985635 -24.797746 -0.480302 0.000000 0.000000 0.000000 22.236093 4.295998 1.571445 23.086725 -11.985967 -4.079789 14.996046 48.345883 8.522097 0.000000 0.000000 0.000000 
-0.003094 0.935108 0.001849 0.428098 1.853291 2.826141 2.752451 -0.006447 0.854182 -2.828604 0.337423 -4.726688 -1.010400 0.202797 4.723150 0.000000 0.000000 0.000000 2.855262 -0.259495 1.418511 0.860684 -0.167390 -2.323494 -0.000055 -1.508239 3.248362 0.000000 0.000000 0.000000 5.717207 0.269493 -4.237843 -1.864410 0.825435 3.976804 -5.877432 2.347108 2.999211 8.464273 -3.865417 -14.022945 0.000000 0.000000 0.000000 -29.276217 -11.065640 2.284378 -23.634420 6.936626 -3.317680 4.882748 -27.192397 -0.291309 0.000000 0.000000 0.000000 21.803089 3.622230 1.324960 22.748019 -12.007271 -4.007774 17.341215 48.296378 9.629409 0.000000 0.000000 0.000000 
-0.004571 0.934695 0.003737 0.577042 1.526584 2.704471 2.271837 0.018642 0.969164 -2.135464 0.290999 -4.387359 -0.781976 0.495486 4.435589 0.000000 0.000000 0.000000 2.848351 -0.291595 1.670556 0.687124 -0.151596 -2.323206 0.073142 -1.228140 2.973256 0.000000 0.000000 0.000000 6.046940 0.248519 -3.897635 -1.802588 0.793346 4.432587 -5.935831 2.417109 2.550597 8.371459 -3.766859 -14.177402 0.000000 0.000000 0.000000 -29.440626 -10.899481 2.162510 -23.832418 6.942738 -3.330580 5.656783 -28.757585 -0.513076 0.000000 0.000000 0.000000 21.298959 3.406063 1.166773 22.323245 -11.700061 -3.855511 16.490729 48.129677 9.218027 0.000000 0.000000 0.000000 
-0.006341 0.934317 0.006375 0.836794 1.033746 2.412304 2.039378 0.045848 1.192345 -2.093759 0.281941 -3.779908 -0.520236 0.866050 4.184686 0.000000 0.000000 0.000000 2.840786 -0.330609 1.988133 0.286701 -0.105299 -2.022678 0.157760 -0.845660 2.533741 0.000000 0.000000 0.000000 6.380014 0.226886 -3.519850 -1.965923 0.890264 4.317640 -6.053453 2.718370 2.666728 8.472374 -3.891514 -13.857294 0.000000 0.000000 0.000000 -29.289340 -10.538536 1.910147 -23.817115 7.354437 -3.399660 6.195479 -31.483838 -0.732270 0.000000 0.000000 0.000000 21.111481 3.295877 1.128691 22.129694 -11.691034 -3.825772 14.837980 48.006526 8.466219 0.000000 0.000000 0.000000 
-0.008217 0.933820 0.009386 1.034585 0.542087 2.102990 1.739338 0.028738 0.798691 -1.804699 0.230942 -1.996998 -0.123324 1.342730 3.541520 0.000000 0.000000 0.000000 2.864702 -0.410013 2.617827 -0.046889 -0.083385 -2.215966 0.291849 -0.396709 2.233801 0.000000 0.000000 0.000000 6.550011 0.194200 -3.057007 -2.039952 0.939055 4.348532 -5.979912 3.198524 2.648239 8.420833 -3.807357 -14.036295 0.000000 0.000000 0.000000 -29.101423 -10.597197 1.861546 -23.730471 7.684709 -3.422047 7.991638 -34.237777 -1.378223 0.000000 0.000000 0.000000 21.827285 3.197367 1.135707 21.780129 -11.607889 -3.766817 11.736502 47.397302 7.006884 0.000000 0.000000 0.000000 
-0.010063 0.933443 0.012515 1.048293 -0.169395 1.958462 1.486993 -0.004273 0.261802 -1.302392 0.147610 -0.228203 0.376371 2.069471 2.972494 0.000000 0.000000 0.000000 2.796178 -0.436770 2.859395 0.090422 -0.088686 -2.047162 0.527293 0.269668 2.000454 0.000000 0.000000 0.000000 6.947692 0.157070 -2.575676 -1.922595 0.891958 4.307723 -5.908053 3.635430 2.757230 8.234268 -3.714742 -13.891896 0.000000 0.000000 0.000000 -28.743072 -10.275488 1.651315 -24.152548 7.710397 -3.501997 10.069031 -36.542679 -2.189053 0.000000 0.000000 0.000000 22.112950 3.050443 1.075459 22.030331 -11.679623 -3.841264 8.642160 47.096095 5.645110 0.000000 0.000000 0.000000 
-0.011897 0.932853 0.015735 0.856309 -0.713703 1.509991 1.657911 -0.103468 -1.024702 -1.142536 0.045021 3.463082 0.916867 2.773676 2.040944 0.000000 0.000000 0.000000 2.883296 -0.544785 3.709862 0.369111 -0.123215 -2.341769 0.777093 0.895047 1.938050 0.000000 0.000000 0.000000 7.316803 0.114606 -2.003793 -1.869228 0.873083 4.713613 -5.405268 3.865920 2.831686 7.752017 -3.398250 -14.039970 0.000000 0.000000 0.000000 -28.431360 -10.096817 1.619459 -24.521285 7.481282 -3.546381 11.983445 -37.856702 -2.939359 0.000000 0.000000 0.000000 22.141431 3.249407 1.144783 22.900815 -11.231354 -3.957427 3.862271 46.033840 3.523384 0.000000 0.000000 0.000000 
-0.013579 0.931988 0.019280 0.747504 -1.374285 1.152281 1.691872 -0.247448 -2.933802 -0.984579 -0.083101 8.128900 1.488072 3.681601 1.380556 0.000000 0.000000 0.000000 2.888645 -0.659955 4.663001 0.572358 -0.160536 -2.961841 1.068569 1.632080 1.856695 0.000000 0.000000 0.000000 7.664273 0.029069 -1.076531 -1.429116 0.653339 4.742972 -5.390135 4.311483 2.998176 7.824656 -3.488095 -13.781550 0.000000 0.000000 0.000000 -28.452987 -10.377470 1.752074 -24.954710 7.170968 -3.563418 14.626773 -37.890475 -3.870423 0.000000 0.000000 0.000000 22.653166 3.324673 1.236108 23.792764 -10.829200 -4.106696 0.207712 45.025272 1.997151 0.000000 0.000000 0.000000 
-0.015037 0.930794 0.023883 0.695808 -1.403770 1.199812 1.545298 -0.470257 -5.781299 -1.305893 -0.139384 14.221305 2.693401 5.729391 0.052776 0.000000 0.000000 0.000000 3.236761 -0.756679 5.233458 0.189067 -0.151866 -3.518926 1.036697 1.714582 1.574681 0.000000 0.000000 0.000000 7.842005 0.000704 -0.830842 -1.560675 0.722813 4.940245 -4.507457 3.670288 3.019295 6.955302 -3.002742 -13.827556 0.000000 0.000000 0.000000 -28.806434 -10.210577 1.987200 -25.527782 6.280446 -3.574246 16.340148 -37.006854 -4.292019 0.000000 0.000000 0.000000 22.825671 3.668797 1.163182 25.113834 -10.514683 -4.264057 -2.825462 43.765936 0.702911 0.000000 0.000000 0.000000 
-0.016258 0.929856 0.030470 0.466022 -1.979117 0.935948 1.826856 -0.675694 -8.757873 -2.312415 0.092042 18.886096 4.624029 10.673857 4.664130 0.000000 0.000000 0.000000 3.434395 -0.920079 6.434218 0.200643 -0.184213 -4.391549 1.336577 2.403361 1.631885 0.000000 0.000000 0.000000 7.842170 -0.086348 0.054087 -1.207593 0.551270 4.123971 -4.123203 4.034716 3.710228 6.703010 -2.831885 -14.017205 0.000000 0.000000 0.000000 -28.690437 -10.140565 1.995972 -26.329556 5.200162 -3.547200 17.019178 -35.661694 -4.343584 0.000000 0.000000 0.000000 23.314228 4.119372 1.444912 27.206556 -10.260064 -4.664827 -6.209460 42.466907 -0.558186 0.000000 0.000000 0.000000 
-0.017105 0.929107 0.039050 0.505531 -3.074420 1.373556 2.472997 -0.868468 -12.470432 -4.109256 0.635799 16.838367 14.445560 24.458748 33.880022 0.000000 0.000000 0.000000 3.395144 -0.882285 6.165902 -0.074821 -0.143699 -3.812239 1.590806 3.320800 1.121742 0.000000 0.000000 0.000000 8.164901 -0.092683 0.018300 -1.518171 0.732683 4.239042 -3.496594 4.166873 3.311771 5.590746 -1.996176 -15.176584 0.000000 0.000000 0.000000 -29.255063 -9.272425 1.605813 -26.394780 5.154420 -3.571891 16.274656 -35.461942 -4.039846 0.000000 0.000000 0.000000 23.171021 4.268975 1.343836 29.041207 -9.302713 -4.769600 -7.409409 41.145568 -0.988592 0.000000 0.000000 0.000000 
-0.017403 0.927711 0.050509 0.687807 -4.385979 1.406470 2.804317 -0.989563 -15.506093 -4.304981 0.570674 6.293061 57.629459 25.964801 117.952676 0.000000 0.000000 0.000000 2.808831 -0.928611 7.060227 0.121291 -0.169568 -4.218001 2.019665 4.602256 0.766882 0.000000 0.000000 0.000000 7.970025 -0.127525 0.400092 -1.847135 0.929096 4.231955 -2.890212 5.472148 2.998739 4.817688 -1.360400 -15.917251 0.000000 0.000000 0.000000 -29.173807 -9.139473 1.276859 -27.374075 5.083159 -3.637281 14.889218 -35.353540 -3.625813 0.000000 0.000000 0.000000 23.344086 3.654973 1.139229 30.779938 -7.768639 -4.798447 -7.100047 41.776078 -0.809242 0.000000 0.000000 0.000000 
-0.016982 0.927134 0.065207 0.460174 -5.968917 0.883842 3.117111 -1.020146 -17.859205 -2.878164 0.376753 -3.160031 56.455586 27.343187 114.640444 0.000000 0.000000 0.000000 2.993259 -1.111411 8.684734 -0.621294 -0.135665 -4.479551 2.627352 6.049734 0.819321 0.000000 0.000000 0.000000 8.126945 -0.204294 1.278328 -1.335779 0.674354 3.243462 -2.814482 6.025767 3.981452 4.639798 -1.171546 -16.859358 0.000000 0.000000 0.000000 -29.590012 -7.737079 0.494007 -29.110970 6.458592 -4.269676 13.777878 -38.835434 -3.614344 0.000000 0.000000 0.000000 22.838688 4.978643 1.873963 33.574143 -5.770374 -4.849027 -7.992200 43.408617 -1.165953 0.000000 0.000000 0.000000 
-0.015744 0.924549 0.083705 0.814855 -7.341570 0.924896 2.777375 -1.110126 -19.634031 -1.897104 0.391364 -7.839224 55.119079 25.284552 121.606792 0.000000 0.000000 0.000000 2.269997 -1.105743 9.607633 -0.972527 -0.105117 -4.218454 2.826159 7.265981 -0.122230 0.000000 0.000000 0.000000 7.786632 -0.239294 1.688611 -1.676574 0.861939 2.959223 -2.610443 6.965178 4.027924 4.443823 -0.949913 -17.512941 0.000000 0.000000 0.000000 -30.175843 -7.229364 0.033864 -30.793918 7.997422 -4.872219 13.104326 -42.812590 -3.789488 0.000000 0.000000 0.000000 23.438763 5.699224 2.377427 35.652835 -4.077333 -4.771114 -8.629974 45.151235 -1.413332 0.000000 0.000000 0.000000 
-0.013600 0.921813 0.105982 0.693677 -8.401083 0.869496 2.798171 -1.087218 -20.208537 -1.836646 0.307193 -4.262978 48.022949 29.359333 104.626514 0.000000 0.000000 0.000000 2.190151 -1.145763 10.318121 -1.718240 0.003028 -2.858461 2.844691 8.132891 -1.106885 0.000000 0.000000 0.000000 7.550375 -0.272808 2.108581 -1.582550 0.813133 2.385382 -2.527480 7.796318 3.984519 5.180209 -1.263321 -18.189659 0.000000 0.000000 0.000000 -30.286457 -6.446673 -0.614177 -32.764449 10.374885 -5.770008 11.290074 -48.780554 -3.631258 0.000000 0.000000 0.000000 24.715188 5.739093 2.514618 36.797777 -2.517329 -4.567082 -8.058164 47.145068 -1.183224 0.000000 0.000000 0.000000 
-0.010495 0.918587 0.132554 0.751528 -9.165988 0.283536 2.761164 -1.038055 -19.576159 -2.501606 0.334678 -1.352362 12.032745 20.889441 35.667737 0.000000 0.000000 0.000000 1.522201 -1.205098 12.272558 -1.959519 0.051102 -2.242515 2.963823 8.828486 -1.555929 0.000000 0.000000 0.000000 7.439490 -0.368148 3.242419 -1.834701 0.937053 2.005313 -2.605251 9.041345 4.054782 5.810424 -1.451862 -18.809204 0.000000 0.000000 0.000000 -30.439261 -7.099970 -0.565481 -34.590942 11.797005 -6.431728 10.711271 -56.055327 -4.119825 0.000000 0.000000 0.000000 26.275404 5.116469 2.458435 38.212011 -1.511839 -4.589643 -7.602794 50.348508 -0.910687 0.000000 0.000000 0.000000 
-0.006571 0.914436 0.162977 0.844550 -9.280467 0.268521 2.372758 -1.089748 -19.232474 -3.109482 0.403108 1.325751 3.016918 7.922027 8.526559 0.000000 0.000000 0.000000 1.140432 -1.239540 13.486052 -2.650523 0.181231 -0.941068 2.768090 8.737702 -2.050935 0.000000 0.000000 0.000000 6.970915 -0.339755 3.080645 -1.834876 0.944953 2.227323 -2.715109 9.015632 4.349334 7.878922 -2.573227 -19.393569 0.000000 0.000000 0.000000 -30.016998 -6.916217 -0.596701 -36.523258 12.701299 -7.139212 8.617529 -63.774092 -3.563793 0.000000 0.000000 0.000000 27.906046 5.109374 2.469502 39.350118 -0.801410 -4.558406 -7.768198 51.188798 -0.998114 0.000000 0.000000 0.000000 
-0.001760 0.910674 0.197129 0.956934 -9.546758 0.283469 1.757604 -1.154096 -18.450727 -3.535412 0.485228 3.748324 2.296905 5.476860 2.603324 0.000000 0.000000 0.000000 0.213518 -1.094901 13.662892 -2.235446 0.402944 3.143173 2.070170 7.755713 -3.050833 0.000000 0.000000 0.000000 6.290929 -0.293542 2.763267 -1.940654 1.019098 2.764600 -2.475701 9.456387 4.194482 8.459092 -3.129177 -17.953643 0.000000 0.000000 0.000000 -30.610771 -7.043367 -0.694808 -36.590281 13.104813 -7.218656 0.497404 -70.901439 1.617138 0.000000 0.000000 0.000000 29.565297 4.413350 2.124837 39.327282 -1.339828 -4.753443 -7.836052 51.593069 -1.023244 0.000000 0.000000 0.000000 
0.003532 0.909063 0.234356 1.499670 -9.439635 0.178459 0.743023 -1.285238 -17.634231 -4.333657 0.676428 6.638291 2.660076 5.156830 -2.343837 0.000000 0.000000 0.000000 -0.444169 -0.926818 12.645091 -2.637602 0.933364 9.354809 1.470001 5.116099 -1.867112 0.000000 0.000000 0.000000 5.532999 -0.233485 2.281673 -1.767071 0.929987 2.817063 -2.873544 9.910838 4.246877 9.610365 -3.817748 -17.662423 0.000000 0.000000 0.000000 -31.068436 -7.902135 -0.427710 -36.266714 12.733910 -6.971712 -12.678086 -76.602913 12.073463 0.000000 0.000000 0.000000 29.604872 3.544063 1.778629 41.215125 -2.086808 -5.270333 -5.379739 51.036448 0.236135 0.000000 0.000000 0.000000 
0.008599 0.910866 0.272116 2.129788 -9.345723 -0.533019 -0.183684 -1.297148 -15.494781 -5.448708 0.960741 8.487679 3.017727 5.135143 -5.924063 0.000000 0.000000 0.000000 -1.161076 -0.724934 11.047619 -3.261706 1.840301 17.387620 2.220788 3.551961 2.657615 0.000000 0.000000 0.000000 4.483924 -0.201211 2.292683 -1.499009 0.804263 3.310549 -3.241817 10.076735 3.972128 8.851889 -3.370818 -17.390353 0.000000 0.000000 0.000000 -31.117189 -8.782699 -0.024466 -35.978711 10.629015 -6.265953 -26.597307 -79.487308 24.249775 0.000000 0.000000 0.000000 29.419629 2.829249 1.414145 42.876937 -3.800611 -6.036204 -2.448556 50.326940 1.617788 0.000000 0.000000 0.000000 
0.012577 0.915207 0.307084 2.804642 -8.252173 -1.223976 -1.900465 -1.326223 -12.881793 -5.165370 0.897122 9.141425 2.885408 4.089954 -8.169199 0.000000 0.000000 0.000000 -2.171393 -0.330809 6.144387 -1.967811 2.913563 30.756590 2.265346 1.086985 6.841955 0.000000 0.000000 0.000000 3.338785 -0.216325 3.001308 -1.221789 0.617295 1.859958 -3.166147 8.677736 5.818865 9.141104 -3.489777 -18.560709 0.000000 0.000000 0.000000 -31.475301 -9.692797 1.127426 -36.030863 6.650975 -5.431868 -33.706055 -80.962628 31.405763 0.000000 0.000000 0.000000 28.515497 2.628364 0.949321 45.158679 -4.837509 -6.729350 0.839768 49.028912 2.959526 0.000000 0.000000 0.000000 
0.014730 0.919724 0.338497 2.958579 -8.903232 -1.644340 -2.460797 -1.049261 -9.415712 -5.325807 0.899225 7.549451 3.055493 4.298975 -9.427162 0.000000 0.000000 0.000000 -2.619685 0.232776 -1.851842 1.013076 3.551264 45.970222 -0.056725 -4.158368 7.664345 0.000000 0.000000 0.000000 2.454382 -0.221681 3.583103 -0.532122 0.277182 2.060377 -3.474113 7.748285 6.371116 8.925635 -3.423410 -19.056323 0.000000 0.000000 0.000000 -30.353283 -10.912255 2.607804 -37.576538 3.143258 -4.921911 -24.131454 -81.869528 23.771055 0.000000 0.000000 0.000000 27.241743 2.929011 0.696463 47.446594 -5.169663 -7.072238 2.761847 48.711444 3.637722 0.000000 0.000000 0.000000 
0.015032 0.924076 0.367403 2.841235 -9.065826 -1.941698 -2.799082 -0.747356 -6.307916 -5.117072 0.818915 6.121964 3.041674 4.048375 -10.341453 0.000000 0.000000 0.000000 -2.656091 0.811813 -9.162419 2.665170 2.846617 47.174106 -3.756628 -9.005613 -0.769918 0.000000 0.000000 0.000000 2.347685 -0.264253 4.469362 0.052950 -0.021260 1.529343 -4.295225 5.198722 7.629908 8.252345 -3.180970 -20.146391 0.000000 0.000000 0.000000 -30.093454 -12.090015 4.653903 -38.022670 -0.314713 -4.449287 4.071856 -83.044727 0.137907 0.000000 0.000000 0.000000 26.462016 3.837557 0.368419 48.803617 -5.517260 -7.248621 3.883621 49.094582 3.809448 0.000000 0.000000 0.000000 
0.014241 0.927465 0.395364 1.934946 -9.571646 -1.987817 -2.455251 -0.438657 -3.665192 -4.439078 0.675872 5.191518 3.171743 4.192587 -11.465336 0.000000 0.000000 0.000000 -2.036331 1.431618 -15.091346 3.057069 1.503434 34.651342 -6.334386 -15.912697 2.124736 0.000000 0.000000 0.000000 2.899883 -0.358175 5.750578 0.869914 -0.424604 1.930452 -5.347503 3.003101 7.502986 8.017819 -3.230838 -20.577033 0.000000 0.000000 0.000000 -30.140586 -13.393205 6.530334 -37.969473 -3.411459 -3.857750 39.598475 -80.074661 -29.236886 0.000000 0.000000 0.000000 25.931247 5.415218 0.552399 49.777976 -6.263852 -7.466151 4.481228 49.739358 3.762598 0.000000 0.000000 0.000000 
0.012552 0.929309 0.423016 1.383826 -10.372110 -2.447775 -2.441521 -0.083348 -0.543262 -3.798243 0.553075 4.093307 3.366738 4.649103 -12.559752 0.000000 0.000000 0.000000 -1.643977 1.987366 -19.426673 2.522273 0.670629 20.589733 -14.399713 -27.827758 40.833618 0.000000 0.000000 0.000000 3.039462 -0.489621 8.204301 1.754019 -0.859061 1.281356 -5.913108 1.444308 7.785311 7.224432 -2.838928 -21.782889 0.000000 0.000000 0.000000 -29.968998 -15.315533 8.683395 -37.840996 -7.443295 -2.977441 56.337183 -74.393411 -39.313433 0.000000 0.000000 0.000000 24.767511 6.368666 0.524616 50.323446 -6.181711 -7.379768 4.610614 49.613345 3.487550 0.000000 0.000000 0.000000 
0.009872 0.928076 0.450531 1.027094 -11.599080 -1.814311 -2.693029 0.106680 1.025684 -3.116823 0.442786 3.586919 3.743763 5.777027 -14.055017 0.000000 0.000000 0.000000 -1.227025 2.532769 -22.820764 1.831480 0.407738 13.191825 -36.497785 -27.710314 97.222934 0.000000 0.000000 0.000000 3.448418 -0.562672 9.065268 1.824152 -0.883928 1.822775 -6.327895 -0.679380 7.202817 6.918987 -2.847638 -22.515266 0.000000 0.000000 0.000000 -28.397352 -16.641362 10.470349 -37.948949 -12.298628 -1.849858 59.061324 -67.212723 -35.887399 0.000000 0.000000 0.000000 23.691379 7.819132 0.519623 51.546882 -6.943044 -7.614641 4.263298 49.408570 2.822961 0.000000 0.000000 0.000000 
0.005618 0.924801 0.478700 0.959879 -12.658229 -1.462440 -3.200390 0.430432 3.425665 -2.451083 0.334433 2.164344 3.994689 6.663182 -15.491120 0.000000 0.000000 0.000000 -0.548929 2.854067 -23.952953 0.955971 0.446153 10.807386 -12.179070 -24.664360 58.152066 0.000000 0.000000 0.000000 3.765853 -0.653072 10.446517 2.355119 -1.134445 2.101846 -7.056500 -1.910449 6.124880 6.699652 -2.858306 -22.461188 0.000000 0.000000 0.000000 -26.877427 -18.502930 11.983198 -36.693891 -16.929833 -0.567492 58.717325 -59.970480 -30.759128 0.000000 0.000000 0.000000 23.918069 8.776638 0.476679 52.033727 -7.258912 -7.577026 2.945890 48.503398 1.897954 0.000000 0.000000 0.000000 
-0.000419 0.921361 0.507860 1.239696 -12.429313 -0.897909 -3.664145 0.569573 4.278437 -2.103806 0.274905 3.022736 4.085931 6.536753 -17.391056 0.000000 0.000000 0.000000 -0.077561 2.837366 -23.384318 -0.296392 0.768971 12.148266 3.590614 -2.970887 17.954053 0.000000 0.000000 0.000000 3.675123 -0.663809 10.620758 3.523409 -1.715777 2.837432 -8.219860 -3.421105 5.147897 7.470728 -3.284297 -22.743892 0.000000 0.000000 0.000000 -25.337596 -21.456181 13.897479 -34.359360 -21.610987 0.666674 54.359903 -50.570660 -22.836963 0.000000 0.000000 0.000000 25.081595 10.004747 0.666546 52.236362 -7.407905 -7.412477 -0.665997 46.734483 0.157984 0.000000 0.000000 0.000000 
-0.008040 0.918701 0.537139 1.348697 -11.521449 -0.771281 -3.868769 0.701344 5.117260 -1.418435 0.144851 4.832417 4.139255 5.908699 -19.236498 0.000000 0.000000 0.000000 0.558684 2.765422 -22.443347 -1.487966 1.156432 14.024704 4.014877 0.681889 12.805471 0.000000 0.000000 0.000000 3.789203 -0.705147 11.036804 4.267529 -2.126853 3.973548 -8.542918 -4.569441 4.011461 6.514781 -2.855063 -22.079924 0.000000 0.000000 0.000000 -24.602024 -24.224778 15.590147 -29.979991 -26.407188 1.560183 49.301484 -41.264530 -16.197312 0.000000 0.000000 0.000000 25.332555 10.040864 0.447331 52.864933 -7.903188 -7.575355 -2.904474 45.507376 -0.846577 0.000000 0.000000 0.000000 
-0.016405 0.919355 0.565028 0.832403 -10.667808 0.059422 -3.494450 0.719631 5.333679 -0.367996 -0.066109 6.308509 4.188937 5.457826 -20.052407 0.000000 0.000000 0.000000 1.563886 2.752544 -21.528877 -2.052596 1.324732 14.684812 2.961196 0.325428 10.025242 0.000000 0.000000 0.000000 4.459172 -0.812968 11.376715 5.308437 -2.645682 3.521569 -8.793603 -5.848647 3.786686 6.030330 -2.685844 -21.922992 0.000000 0.000000 0.000000 -23.665549 -26.465503 17.038223 -25.664351 -30.066019 1.771242 43.779248 -32.259703 -10.688739 0.000000 0.000000 0.000000 26.334538 10.654329 0.371148 52.076229 -8.434043 -7.454680 -3.844790 43.674423 -1.247032 0.000000 0.000000 0.000000 
-0.024579 0.923881 0.590399 0.077180 -10.439608 1.478400 -2.729890 0.599331 4.672452 0.259636 -0.206593 7.784966 4.229657 5.609948 -19.710643 0.000000 0.000000 0.000000 2.757288 2.792335 -20.745611 -2.363851 1.328836 14.062548 2.686281 0.270562 9.187449 0.000000 0.000000 0.000000 5.330096 -0.923073 11.243038 6.055614 -2.987220 3.213033 -8.571131 -6.521321 4.001722 5.124031 -2.252905 -22.232455 0.000000 0.000000 0.000000 -23.634210 -28.605138 18.678481 -20.728418 -32.527708 1.351811 39.341529 -24.255944 -6.926735 0.000000 0.000000 0.000000 26.710966 10.818922 0.173318 51.262903 -8.888447 -7.382133 -3.763312 43.524520 -1.281289 0.000000 0.000000 0.000000 
-0.031776 0.928888 0.613158 -0.297063 -10.258306 2.828957 -2.144137 0.411706 3.361837 0.385503 -0.259540 9.949942 4.246904 5.768594 -19.055528 0.000000 0.000000 0.000000 3.290916 2.830201 -20.604002 -2.263659 1.313830 14.179084 2.559363 0.154665 8.968516 0.000000 0.000000 0.000000 6.083914 -1.022902 11.112661 6.873287 -3.416802 4.014240 -8.436828 -7.842069 3.134074 4.037419 -1.796657 -21.872987 0.000000 0.000000 0.000000 -22.581928 -29.648610 19.360785 -17.594906 -33.862756 1.005210 36.922784 -18.575041 -4.761635 0.000000 0.000000 0.000000 26.530040 11.363359 0.046676 50.453498 -9.215066 -7.130559 -3.197555 43.888636 -1.255329 0.000000 0.000000 0.000000 
-0.037830 0.932912 0.633871 -0.609104 -10.455558 3.874689 -1.773675 0.267519 2.252092 -0.318401 -0.103080 10.659377 4.760261 8.135491 -16.966718 0.000000 0.000000 0.000000 3.911710 2.769681 -19.781647 -2.460805 1.279497 13.340958 2.662456 0.489598 8.714300 0.000000 0.000000 0.000000 6.726534 -1.111345 11.103554 7.472834 -3.716296 4.447144 -8.211649 -8.542232 3.185566 2.751031 -1.180941 -22.361416 0.000000 0.000000 0.000000 -21.917331 -31.030917 20.295050 -14.917679 -35.117535 0.622418 35.269999 -13.510111 -3.133469 0.000000 0.000000 0.000000 26.529900 11.682745 -0.095577 49.293159 -9.162406 -6.762065 -2.640559 45.477531 -1.227390 0.000000 0.000000 0.000000 
-0.042918 0.935419 0.652198 -0.846892 -10.145342 4.922553 -1.196690 0.186821 1.660850 -1.243976 0.095546 9.844080 5.263456 10.042440 -14.551483 0.000000 0.000000 0.000000 4.349639 2.705790 -19.188739 -2.605398 1.234593 12.614385 2.501978 0.425874 8.299916 0.000000 0.000000 0.000000 7.383079 -1.211618 11.083264 8.188715 -4.106726 5.087334 -8.608003 -9.481788 2.807511 2.498293 -1.072032 -22.711929 0.000000 0.000000 0.000000 -19.798409 -31.663953 20.057378 -13.508318 -36.227071 0.529050 34.039351 -9.639064 -1.955340 0.000000 0.000000 0.000000 26.224452 12.220844 0.002109 49.156777 -9.269208 -6.659246 -2.536373 47.012567 -1.386120 0.000000 0.000000 0.000000 
-0.047540 0.936807 0.667939 -1.055586 -10.754505 6.032055 -0.836092 0.084635 0.795536 -2.204660 0.307970 8.927424 6.154988 13.087092 -11.684954 0.000000 0.000000 0.000000 4.648763 2.661158 -18.755843 -2.523022 1.133178 11.638483 2.728672 1.099494 7.883162 0.000000 0.000000 0.000000 7.817100 -1.273742 11.007337 7.986112 -3.995459 5.670755 -8.174238 -9.608762 2.657877 1.433919 -0.562405 -22.901867 0.000000 0.000000 0.000000 -18.231445 -32.237241 19.943056 -11.575457 -37.455908 0.266888 33.003347 -6.359313 -1.039834 0.000000 0.000000 0.000000 26.238541 12.096096 -0.271495 47.869301 -9.254867 -6.321838 -0.285571 48.764192 -0.563127 0.000000 0.000000 0.000000 
-0.051891 0.937574 0.681279 -1.196458 -10.749499 6.609513 -0.021688 0.059684 0.689497 -3.133105 0.473605 7.171713 6.743244 14.695513 -8.420978 0.000000 0.000000 0.000000 5.035910 2.611899 -18.268225 -2.698836 1.140625 11.358808 2.643500 1.241790 7.364431 0.000000 0.000000 0.000000 8.069087 -1.318640 11.013907 8.205823 -4.097171 5.720890 -8.169062 -10.296802 3.012780 1.050100 -0.412229 -23.787935 0.000000 0.000000 0.000000 -16.442429 -32.366663 19.517082 -10.530780 -38.661289 0.161385 32.406694 -3.913107 -0.373658 0.000000 0.000000 0.000000 26.057209 12.612605 -0.230095 48.052204 -9.100523 -6.229387 -0.150367 50.870515 -0.725040 0.000000 0.000000 0.000000 
-0.055842 0.937665 0.692848 -1.351026 -11.105375 7.165935 0.468646 0.027705 0.446691 -3.176336 0.473856 6.297558 7.064035 15.487382 -5.839608 0.000000 0.000000 0.000000 5.420855 2.551191 -17.712039 -2.867379 1.119397 10.767150 2.709803 1.711270 6.809963 0.000000 0.000000 0.000000 8.310478 -1.382060 11.315660 8.407139 -4.141540 5.234597 -8.128831 -10.173713 3.805206 1.082350 -0.447721 -24.261508 0.000000 0.000000 0.000000 -15.156562 -32.413248 19.068859 -10.251569 -39.552487 0.186503 32.280368 -2.598475 -0.026874 0.000000 0.000000 0.000000 25.889443 12.582746 -0.255899 47.693404 -8.512004 -5.992151 1.241759 52.507212 -0.132120 0.000000 0.000000 0.000000 
-0.059265 0.937607 0.702933 -1.173999 -11.187315 7.335834 0.661023 0.024831 0.449461 -2.985780 0.436772 6.185945 6.839322 14.905711 -4.227186 0.000000 0.000000 0.000000 5.245092 2.451465 -17.291423 -2.676087 1.094170 10.868932 2.589856 1.881357 6.156474 0.000000 0.000000 0.000000 8.617230 -1.445504 11.578576 8.394422 -4.149845 5.570147 -8.131981 -10.244837 3.867377 1.048669 -0.433546 -24.429470 0.000000 0.000000 0.000000 -14.651507 -32.500309 18.938267 -10.153625 -39.693195 0.196177 32.863946 -2.382841 0.042176 0.000000 0.000000 0.000000 25.899222 12.960438 -0.084539 47.978739 -7.734674 -5.709080 0.366265 53.721399 -0.654343 0.000000 0.000000 0.000000 
-0.062002 0.937367 0.711563 -0.981648 -10.690555 7.351477 0.994441 0.027150 0.534174 -2.659224 0.362951 5.799302 6.256803 13.503747 -2.445025 0.000000 0.000000 0.000000 5.230480 2.377410 -16.931185 -2.814220 1.150037 11.240872 2.218145 1.533229 5.492128 0.000000 0.000000 0.000000 8.989806 -1.547873 12.074872 8.572029 -4.277905 5.840445 -8.306246 -9.966622 3.721803 1.811671 -0.752558 -24.139263 0.000000 0.000000 0.000000 -14.657382 -32.681600 18.897153 -11.378595 -39.880552 0.522831 34.517805 -3.435353 -0.226457 0.000000 0.000000 0.000000 25.732065 12.968513 0.187434 48.180368 -6.780410 -5.438174 0.405136 54.497151 -0.572272 0.000000 0.000000 0.000000 
-0.063937 0.937141 0.718308 -0.669756 -10.594837 7.371961 0.960034 0.023059 0.487880 -2.500029 0.332153 5.826073 5.917013 12.769203 -1.167387 0.000000 0.000000 0.000000 4.955906 2.343184 -16.913906 -2.792268 1.207699 11.903047 2.010172 1.436520 4.949905 0.000000 0.000000 0.000000 9.459188 -1.653322 12.533544 8.568889 -4.276081 5.771922 -8.455936 -9.234520 3.905645 2.448163 -1.002756 -23.891687 0.000000 0.000000 0.000000 -14.931887 -32.605487 18.750251 -13.784381 -39.510870 1.083629 37.249331 -6.282859 -1.062632 0.000000 0.000000 0.000000 25.719973 13.372592 0.765034 48.460193 -5.415854 -5.052760 -1.522860 54.872391 -1.402627 0.000000 0.000000 0.000000 
-0.065293 0.937213 0.723097 -0.443997 -10.289052 7.502793 0.994745 -0.005152 0.191612 -2.480572 0.322362 5.539661 5.843596 12.659717 0.642877 0.000000 0.000000 0.000000 4.715786 2.308163 -16.888853 -2.705573 1.208088 12.133023 1.811325 1.184175 4.678164 0.000000 0.000000 0.000000 9.927834 -1.758689 12.862751 8.489494 -4.269855 6.128316 -8.170559 -7.939006 3.737640 3.454504 -1.376882 -23.456001 0.000000 0.000000 0.000000 -15.505179 -32.624499 18.606476 -16.225469 -38.850982 1.612123 39.871147 -10.115865 -2.383743 0.000000 0.000000 0.000000 25.262215 13.530449 1.512222 49.021187 -4.002215 -4.782053 -3.127447 54.986886 -1.932929 0.000000 0.000000 0.000000 
-0.066149 0.937631 0.725925 0.100166 -9.748496 7.597045 0.610901 -0.044054 -0.279362 -2.456103 0.310012 5.319448 5.867191 12.774708 2.482505 0.000000 0.000000 0.000000 4.445756 2.292914 -17.005415 -3.184762 1.320654 12.379612 1.526581 0.687966 4.482368 0.000000 0.000000 0.000000 10.397604 -1.888244 13.353935 8.553391 -4.321381 6.112770 -8.370284 -6.354875 3.859498 4.753516 -1.800673 -23.735384 0.000000 0.000000 0.000000 -15.993348 -32.923419 18.451796 -18.537235 -37.954026 2.062215 42.051574 -13.631377 -3.786752 0.000000 0.000000 0.000000 24.757960 13.621845 2.392535 48.926720 -2.189693 -4.332569 -5.451408 54.895133 -2.679980 0.000000 0.000000 0.000000 
-0.066802 0.937979 0.726980 0.475743 -8.708211 7.698063 0.745691 -0.080830 -0.664445 -2.649312 0.328077 4.551529 5.559908 12.294411 4.564179 0.000000 0.000000 0.000000 4.122298 2.247540 -17.011680 -3.206494 1.304218 12.313455 1.103421 -0.194003 4.434553 0.000000 0.000000 0.000000 10.717445 -2.004947 13.715436 8.990191 -4.598592 6.263532 -8.477564 -4.669231 4.024776 6.104192 -2.261350 -23.584676 0.000000 0.000000 0.000000 -16.857558 -33.792582 18.659853 -19.238038 -37.083751 2.118093 43.841775 -16.348199 -5.082846 0.000000 0.000000 0.000000 23.820087 13.651897 3.358719 49.358022 0.118593 -3.803184 -7.548080 54.099910 -3.183515 0.000000 0.000000 0.000000 
-0.067222 0.937942 0.726791 1.055505 -7.690162 7.974088 0.592452 -0.144645 -1.386817 -2.674828 0.319986 4.303586 4.939218 11.253088 5.807088 0.000000 0.000000 0.000000 3.578870 2.217451 -17.277017 -3.260416 1.288847 12.191179 0.648217 -1.084144 4.273136 0.000000 0.000000 0.000000 10.889443 -2.105615 14.016911 9.243593 -4.794650 6.599428 -8.428351 -3.247432 3.547464 6.988001 -2.522887 -23.197935 0.000000 0.000000 0.000000 -16.962652 -34.118680 18.329966 -19.461748 -36.489151 2.159476 44.461328 -17.353842 -5.660719 0.000000 0.000000 0.000000 22.860795 14.109173 4.398532 49.285485 1.802968 -3.346925 -9.300428 53.268972 -3.560984 0.000000 0.000000 0.000000 
-0.067657 0.937886 0.725908 1.415887 -6.492690 7.956239 0.517981 -0.177665 -1.771275 -2.869244 0.337991 3.983660 4.941844 11.434413 6.931282 0.000000 0.000000 0.000000 3.162724 2.194425 -17.520848 -3.057332 1.269334 12.628427 0.134397 -2.163271 4.218846 0.000000 0.000000 0.000000 10.979641 -2.208463 14.464333 9.545790 -5.062510 7.149440 -8.260764 -1.965650 3.066127 7.767308 -2.874762 -21.968833 0.000000 0.000000 0.000000 -17.450802 -34.506163 18.176767 -17.848987 -36.171438 1.823313 43.776643 -16.547985 -5.408973 0.000000 0.000000 0.000000 21.816889 14.164465 5.091724 49.352715 3.466673 -2.875958 -9.681663 51.823621 -3.253666 0.000000 0.000000 0.000000 
-0.067999 0.937616 0.724998 1.640114 -5.571862 8.046402 0.490059 -0.197146 -2.000103 -2.839074 0.324515 3.326551 4.784641 11.332118 7.990271 0.000000 0.000000 0.000000 2.557609 2.138786 -17.677021 -2.306365 1.102697 12.688364 -0.248876 -2.954575 4.156364 0.000000 0.000000 0.000000 11.139468 -2.324150 14.951865 9.791913 -5.203887 6.832644 -8.195296 -0.599786 3.018462 8.525423 -3.155656 -21.531960 0.000000 0.000000 0.000000 -17.276175 -34.737872 17.741289 -16.924647 -36.203269 1.679474 42.506043 -15.396496 -4.940046 0.000000 0.000000 0.000000 21.385560 14.319904 5.774081 49.049278 4.678845 -2.549048 -10.236985 50.684316 -3.089237 0.000000 0.000000 0.000000 
-0.068381 0.937281 0.724351 1.820023 -4.504839 8.077595 0.299990 -0.208196 -2.150700 -3.088649 0.353516 1.892410 6.016347 13.791599 10.669533 0.000000 0.000000 0.000000 2.265530 2.050697 -17.379990 -2.012313 0.983623 12.144028 -0.670712 -3.798525 4.030647 0.000000 0.000000 0.000000 11.104423 -2.350874 14.918323 10.094996 -5.454869 7.182537 -7.963425 0.478731 2.732589 8.786349 -3.188036 -21.145093 0.000000 0.000000 0.000000 -17.163543 -34.961887 17.381023 -16.276303 -36.054460 1.579675 41.552782 -14.719984 -4.681013 0.000000 0.000000 0.000000 21.099102 14.258380 6.227576 49.108880 5.352572 -2.399436 -11.005762 49.084324 -3.057890 0.000000 0.000000 0.000000 
-0.068592 0.936924 0.724225 2.049216 -3.411940 8.041758 0.383917 -0.196296 -2.026346 -3.825057 0.437684 -0.152336 7.435731 16.368552 14.435467 0.000000 0.000000 0.000000 1.862428 1.959232 -17.126831 -1.624987 0.868560 11.875276 -1.120981 -4.702076 3.882213 0.000000 0.000000 0.000000 11.122334 -2.368540 14.773601 9.989769 -5.438396 7.058113 -7.633643 0.694358 2.783736 8.624093 -3.040447 -21.140833 0.000000 0.000000 0.000000 -17.464034 -34.545574 17.047159 -16.608994 -35.880919 1.653472 41.675734 -15.431465 -4.980390 0.000000 0.000000 0.000000 21.039435 13.945855 6.239459 49.471726 5.430979 -2.435122 -11.179056 47.866610 -2.944306 0.000000 0.000000 0.000000 
-0.068755 0.936484 0.724465 2.207127 -2.294397 7.971599 0.477548 -0.192971 -1.995732 -4.711093 0.512261 -1.963433 9.816152 19.939636 18.642640 0.000000 0.000000 0.000000 1.565807 1.838033 -16.512674 -1.289779 0.736857 11.100625 -1.558730 -5.568428 3.696396 0.000000 0.000000 0.000000 10.795966 -2.272239 14.211105 10.360152 -5.745279 7.425394 -7.451914 0.991358 2.569001 8.152285 -2.738322 -20.901265 0.000000 0.000000 0.000000 -18.216213 -34.118379 16.761512 -17.959482 -35.359778 1.943538 42.599761 -17.054637 -5.747272 0.000000 0.000000 0.000000 20.987001 13.676520 6.316804 49.859174 5.578379 -2.431934 -11.575031 46.135335 -2.875653 0.000000 0.000000 0.000000 
-0.068936 0.936114 0.725115 2.269885 -1.178163 7.536091 0.631711 -0.170325 -1.734227 -5.357202 0.547937 -2.978993 11.933373 22.678998 21.962318 0.000000 0.000000 0.000000 1.335714 1.692463 -15.567964 -0.848514 0.602639 10.511829 -1.986925 -6.425686 3.520778 0.000000 0.000000 0.000000 10.826352 -2.254527 13.931002 10.353980 -5.858721 7.775195 -7.387505 0.958533 2.427514 8.463316 -3.010704 -19.954994 0.000000 0.000000 0.000000 -19.391339 -33.436405 16.501084 -19.772861 -34.248302 2.240091 44.614418 -20.596776 -7.463638 0.000000 0.000000 0.000000 20.977297 13.287230 6.218574 50.390099 5.198534 -2.626125 -11.626399 45.043041 -2.762245 0.000000 0.000000 0.000000 
-0.069372 0.936044 0.725865 2.227798 -0.244815 7.179479 0.832611 -0.189000 -1.937070 -6.026414 0.587350 -3.186009 14.704236 25.795985 25.313505 0.000000 0.000000 0.000000 1.200985 1.561667 -14.591544 -0.364699 0.458432 9.687897 -2.302401 -7.097589 3.510401 0.000000 0.000000 0.000000 10.892716 -2.197944 13.358858 10.483601 -6.071562 8.327420 -7.537652 1.218979 2.308110 8.520562 -2.991639 -19.812995 0.000000 0.000000 0.000000 -20.594133 -32.823912 16.171147 -22.118299 -33.378855 2.669707 46.338470 -24.856015 -9.605092 0.000000 0.000000 0.000000 21.141275 12.864978 6.196882 50.674192 5.114922 -2.714888 -11.747415 43.796260 -2.635455 0.000000 0.000000 0.000000 
-0.070174 0.935644 0.726690 2.022239 0.618237 6.906038 0.915243 -0.180728 -1.837702 -5.465350 0.536736 -2.808690 14.320218 25.475766 24.604564 0.000000 0.000000 0.000000 1.347293 1.449802 -13.524055 -0.022744 0.337016 8.529769 -2.582765 -7.688393 3.477446 0.000000 0.000000 0.000000 11.030187 -2.106575 12.472010 10.371200 -6.156394 8.939574 -7.754478 1.246589 2.131222 8.970465 -3.275721 -19.323236 0.000000 0.000000 0.000000 -22.058396 -32.484130 16.130325 -24.778154 -32.055877 3.042742 47.531319 -28.718351 -11.597647 0.000000 0.000000 0.000000 21.419641 12.300277 6.018654 50.605127 4.411683 -3.020462 -10.364336 43.786820 -2.060326 0.000000 0.000000 0.000000 
-0.071335 0.935216 0.727387 1.614328 0.809377 6.621813 1.310924 -0.190119 -1.892576 -5.193816 0.521541 -2.091960 14.377604 25.588512 24.218011 0.000000 0.000000 0.000000 2.010633 1.380560 -12.464978 -0.226595 0.322055 7.293064 -2.592494 -7.694010 3.462002 0.000000 0.000000 0.000000 11.029884 -2.003902 11.783794 10.075253 -6.051736 9.253539 -7.869947 1.430075 2.302533 9.230266 -3.472138 -18.924805 0.000000 0.000000 0.000000 -23.204116 -31.697633 15.768812 -27.889442 -30.688555 3.393383 48.401452 -32.276900 -13.469103 0.000000 0.000000 0.000000 21.846358 11.648090 5.755523 50.705876 3.719764 -3.352727 -9.782469 44.302172 -1.820950 0.000000 0.000000 0.000000 
-0.072636 0.935038 0.727814 1.350062 1.192091 6.486897 1.590573 -0.186170 -1.791918 -4.927304 0.494914 -2.008507 14.221320 25.456762 23.894019 0.000000 0.000000 0.000000 2.401426 1.333823 -11.839605 -0.201419 0.283904 6.516072 -2.686213 -7.918445 3.554336 0.000000 0.000000 0.000000 10.958328 -1.909448 11.150907 10.104853 -6.133536 9.498850 -8.220085 1.209619 2.094775 9.243226 -3.511839 -18.671259 0.000000 0.000000 0.000000 -24.528417 -30.819165 15.449058 -30.516885 -29.629829 3.668385 48.314314 -34.672458 -14.528796 0.000000 0.000000 0.000000 22.057534 11.279542 5.556950 50.947299 3.022551 -3.636505 -8.991229 45.369382 -1.552008 0.000000 0.000000 0.000000 
-0.073908 0.934718 0.727796 1.186990 1.377816 6.240414 1.976290 -0.190513 -1.782917 -5.095880 0.512444 -1.573418 14.175449 25.433882 23.649878 0.000000 0.000000 0.000000 2.723489 1.310485 -11.458154 -0.268826 0.286492 6.331223 -2.751687 -8.040026 3.487741 0.000000 0.000000 0.000000 11.035745 -1.883102 10.940819 9.773677 -5.937101 9.348300 -8.422562 1.068136 2.464029 9.297865 -3.635228 -18.255079 0.000000 0.000000 0.000000 -25.415806 -30.236510 15.264999 -32.243234 -28.849700 3.757854 48.767709 -36.444857 -15.493237 0.000000 0.000000 0.000000 22.285184 10.744671 5.245543 51.369126 2.362744 -3.966082 -8.101358 46.659992 -1.224950 0.000000 0.000000 0.000000 
-0.075023 0.934927 0.727028 1.058926 1.550461 6.065655 2.118175 -0.209548 -2.024238 -4.923231 0.500985 -0.930135 14.130470 25.398238 23.581358 0.000000 0.000000 0.000000 2.926808 1.285165 -11.136181 -0.228316 0.266069 6.006044 -2.772297 -8.126987 3.664129 0.000000 0.000000 0.000000 10.800262 -1.770307 10.382124 9.612389 -5.837528 9.187512 -8.592662 1.294275 2.698658 9.422950 -3.680638 -18.276933 0.000000 0.000000 0.000000 -26.151092 -29.714725 14.928664 -33.129270 -28.404814 3.820202 49.278961 -37.773735 -16.355827 0.000000 0.000000 0.000000 22.674315 10.279311 5.101773 51.815387 1.752725 -4.301156 -7.579269 46.955693 -0.963800 0.000000 0.000000 0.000000 
-0.076037 0.935348 0.725556 0.914779 1.737080 5.941149 2.281310 -0.244704 -2.496321 -4.767014 0.490843 -0.070151 14.080568 25.356803 23.582544 0.000000 0.000000 0.000000 2.978033 1.280071 -11.058989 0.094220 0.210338 5.924621 -2.790251 -8.237962 3.958567 0.000000 0.000000 0.000000 10.713278 -1.707226 10.021539 9.527511 -5.810752 9.235969 -8.908781 1.699779 2.601943 9.899663 -3.926461 -18.131919 0.000000 0.000000 0.000000 -26.289304 -29.532271 14.579948 -33.316189 -28.528167 3.958570 49.989846 -38.330450 -17.010043 0.000000 0.000000 0.000000 22.769768 9.894876 5.057921 52.306624 1.440659 -4.500979 -6.950457 46.825868 -0.626629 0.000000 0.000000 0.000000 
-0.077034 0.935510 0.723677 0.861089 2.156995 5.841743 2.355333 -0.295022 -3.199019 -4.576344 0.473272 1.065822 13.920706 25.219967 23.420812 0.000000 0.000000 0.000000 2.829836 1.283984 -11.159141 0.612220 0.129517 6.087227 -2.928834 -8.581541 4.156087 0.000000 0.000000 0.000000 10.341247 -1.655651 9.949549 9.388215 -5.673924 8.686076 -8.786716 2.397801 2.959894 10.280852 -4.078767 -18.156495 0.000000 0.000000 0.000000 -26.493027 -29.560573 14.296952 -32.770642 -29.020016 4.062535 51.055655 -38.959569 -17.878565 0.000000 0.000000 0.000000 22.676347 9.220887 4.927138 53.257922 1.324927 -4.707909 -6.446894 45.751472 -0.287686 0.000000 0.000000 0.000000 
-0.078048 0.935598 0.721810 0.544746 2.229905 5.853799 2.771574 -0.322001 -3.578409 -4.570573 0.473824 1.458724 13.950477 25.269189 23.344127 0.000000 0.000000 0.000000 3.179800 1.294171 -11.060033 0.717439 0.098135 5.627134 -2.891448 -8.567644 4.454120 0.000000 0.000000 0.000000 10.168003 -1.563830 9.412135 9.195394 -5.566993 8.675217 -8.748479 3.185205 2.964636 10.775031 -4.348583 -17.890322 0.000000 0.000000 0.000000 -26.169884 -29.230404 13.670473 -33.144935 -28.839103 4.156791 52.439946 -39.814404 -19.063789 0.000000 0.000000 0.000000 22.946732 8.785694 4.942902 53.695592 1.715027 -4.629330 -6.643058 44.002295 -0.268435 0.000000 0.000000 0.000000 
-0.078878 0.935233 0.720388 0.366175 2.011558 5.881921 3.015877 -0.344828 -3.939878 -4.619015 0.484470 1.911565 14.167596 25.514160 23.322006 0.000000 0.000000 0.000000 3.178431 1.283190 -10.971792 1.144761 0.020862 5.198341 -2.766437 -8.312190 4.507762 0.000000 0.000000 0.000000 10.012834 -1.527907 9.300604 8.859859 -5.327879 8.419318 -8.604830 3.812296 3.225862 11.021559 -4.425746 -18.050136 0.000000 0.000000 0.000000 -25.820040 -28.760424 13.105957 -32.821019 -28.371898 4.001644 54.059169 -40.285580 -20.120648 0.000000 0.000000 0.000000 22.957714 8.436820 4.894806 54.460967 1.842427 -4.677393 -6.647449 42.953858 -0.205621 0.000000 0.000000 0.000000 
-0.079496 0.934990 0.719508 0.090012 1.891505 5.857626 3.551757 -0.363676 -4.295021 -4.987330 0.534990 2.492271 14.314027 25.683180 23.283513 0.000000 0.000000 0.000000 3.395069 1.274147 -10.791222 1.362013 -0.022124 4.780369 -2.673069 -8.138487 4.619851 0.000000 0.000000 0.000000 10.159473 -1.539504 9.277383 8.261104 -4.903513 7.845464 -8.099467 4.189903 3.881154 11.138219 -4.503486 -18.059656 0.000000 0.000000 0.000000 -25.499806 -28.434896 12.802776 -32.807500 -27.676963 3.770934 55.283415 -40.476316 -20.790670 0.000000 0.000000 0.000000 22.796844 8.076372 4.737958 55.013757 1.981111 -4.716599 -7.090498 42.346848 -0.321831 0.000000 0.000000 0.000000 
-0.080055 0.934546 0.719163 -0.093167 1.752725 5.942060 3.673809 -0.377967 -4.553370 -4.819886 0.518069 2.775790 14.489393 25.890697 23.189254 0.000000 0.000000 0.000000 3.579589 1.263283 -10.626497 1.448870 -0.047035 4.253550 -2.588416 -7.958206 4.624326 0.000000 0.000000 0.000000 10.124735 -1.477338 8.838261 8.137938 -4.866206 8.146242 -8.254825 4.320983 3.774662 11.410845 -4.644194 -18.095167 0.000000 0.000000 0.000000 -25.039674 -28.277199 12.580553 -32.683779 -26.387692 3.430711 56.153993 -40.311909 -21.143932 0.000000 0.000000 0.000000 22.945224 7.763423 4.593788 55.139242 2.171703 -4.645453 -7.290189 42.380950 -0.372769 0.000000 0.000000 0.000000 
-0.080646 0.933932 0.719104 -0.263818 1.686917 5.845505 3.845147 -0.384923 -4.725611 -4.742053 0.512513 3.284117 14.628474 26.067534 23.004613 0.000000 0.000000 0.000000 3.734120 1.258923 -10.515260 1.586331 -0.067244 4.225990 -2.574207 -7.888274 4.470982 0.000000 0.000000 0.000000 10.217668 -1.451395 8.601150 7.947644 -4.720118 7.860112 -8.291344 4.121876 4.161909 11.422061 -4.791955 -17.632257 0.000000 0.000000 0.000000 -24.767881 -28.136052 12.559196 -32.326319 -25.837335 3.179003 56.071099 -39.203431 -20.440192 0.000000 0.000000 0.000000 23.538906 7.686282 4.533730 55.088858 1.910648 -4.818115 -7.676764 42.881540 -0.522265 0.000000 0.000000 0.000000 
-0.081338 0.933755 0.718913 -0.337668 2.007405 5.890358 4.109516 -0.382070 -4.679323 -4.907416 0.527598 3.017819 14.437854 25.885129 22.756572 0.000000 0.000000 0.000000 4.001344 1.245851 -10.300421 1.361851 -0.049193 3.737080 -2.677498 -8.119779 4.534552 0.000000 0.000000 0.000000 10.106642 -1.421414 8.419702 7.908747 -4.717003 7.894414 -8.290715 3.959888 3.973106 11.513682 -4.887870 -17.414234 0.000000 0.000000 0.000000 -24.675579 -28.853019 13.012983 -31.464659 -25.419786 2.969698 54.189766 -37.372650 -18.640028 0.000000 0.000000 0.000000 24.008154 7.498913 4.444515 54.695674 1.602910 -4.928678 -7.833987 43.482803 -0.590046 0.000000 0.000000 0.000000 
-0.082044 0.933322 0.718233 -0.468353 2.500877 5.895781 4.509682 -0.381302 -4.655324 -5.164537 0.550799 2.769566 14.172245 25.638223 22.300355 0.000000 0.000000 0.000000 4.176509 1.249037 -10.245379 1.428250 -0.066039 3.549360 -2.868201 -8.522130 4.541356 0.000000 0.000000 0.000000 9.736997 -1.334314 7.994895 8.345775 -5.023106 8.159479 -8.579402 3.520200 3.718830 11.569528 -4.988868 -17.120192 0.000000 0.000000 0.000000 -24.115702 -28.991390 13.058300 -30.782983 -26.252427 3.067107 50.848928 -35.158161 -16.179929 0.000000 0.000000 0.000000 24.067973 7.397651 4.333855 54.868773 1.470055 -4.968942 -8.343170 43.617465 -0.798131 0.000000 0.000000 0.000000 
-0.082753 0.933313 0.716905 -0.576038 3.133980 5.933398 4.958952 -0.386715 -4.714243 -5.522958 0.582156 2.476917 13.786953 25.247491 21.953849 0.000000 0.000000 0.000000 4.378850 1.239971 -10.086335 1.398176 -0.078225 3.025244 -3.073734 -9.007339 4.795033 0.000000 0.000000 0.000000 9.538889 -1.340311 8.129368 8.402671 -5.031104 7.760339 -8.481506 3.034440 3.693694 11.607971 -5.085417 -16.865913 0.000000 0.000000 0.000000 -23.559320 -29.406789 13.327299 -30.170551 -27.532674 3.241784 47.248342 -32.534524 -13.626259 0.000000 0.000000 0.000000 23.876835 7.219641 4.131667 54.511931 1.472194 -4.908557 -7.811673 43.435030 -0.626587 0.000000 0.000000 0.000000 
-0.083349 0.933277 0.715213 -0.593673 3.286092 5.938449 5.060864 -0.398127 -4.939711 -5.573080 0.587684 2.623974 13.713193 25.178318 21.873806 0.000000 0.000000 0.000000 4.416204 1.268109 -10.277653 1.431066 -0.080583 3.152089 -3.137882 -9.157439 4.867393 0.000000 0.000000 0.000000 9.179613 -1.294296 8.057571 8.312569 -4.940741 7.423212 -8.413546 2.581258 3.828122 11.649016 -5.197423 -16.665273 0.000000 0.000000 0.000000 -22.392425 -29.255086 13.193264 -30.760434 -28.258238 3.431135 44.236583 -31.523211 -12.151164 0.000000 0.000000 0.000000 23.793487 7.135166 3.947308 54.233508 1.262943 -4.963900 -7.038319 43.572964 -0.379467 0.000000 0.000000 0.000000 
-0.083816 0.932712 0.713466 -0.628164 3.225541 5.763802 5.304414 -0.392036 -4.908965 -5.908213 0.631102 2.719497 13.782062 25.267872 21.691981 0.000000 0.000000 0.000000 4.491454 1.233840 -9.978424 1.420715 -0.088705 2.743251 -3.106164 -9.072620 4.790473 0.000000 0.000000 0.000000 9.056846 -1.294277 8.215039 7.962151 -4.733991 7.344886 -8.277649 2.325359 3.958795 11.418710 -5.147244 -16.406151 0.000000 0.000000 0.000000 -21.955358 -29.018622 13.081712 -31.925227 -28.242467 3.571818 42.814305 -31.949167 -11.829079 0.000000 0.000000 0.000000 23.560961 6.933654 3.714908 54.239030 1.346840 -4.916022 -6.332346 43.799755 -0.135263 0.000000 0.000000 0.000000 
-0.083945 0.932463 0.711850 -0.689433 2.993413 5.674328 5.120004 -0.394611 -5.004333 -5.515103 0.589538 2.937461 13.982310 25.497624 21.657484 0.000000 0.000000 0.000000 4.464435 1.223216 -9.906371 1.585171 -0.113354 2.580924 -3.000238 -8.850248 4.800520 0.000000 0.000000 0.000000 9.206412 -1.330171 8.412791 7.486367 -4.406940 6.959349 -8.382791 2.151326 4.061210 11.482034 -5.242284 -16.273511 0.000000 0.000000 0.000000 -21.702105 -28.657244 12.903225 -34.043492 -26.773286 3.482280 41.657505 -33.791655 -12.135108 0.000000 0.000000 0.000000 23.421984 6.789574 3.546569 53.859315 0.940375 -5.057239 -5.560514 44.291264 0.138989 0.000000 0.000000 0.000000 
-0.083684 0.931632 0.710262 -0.555344 2.810754 5.500067 4.961229 -0.397515 -5.109248 -5.579984 0.606157 3.347360 14.158038 25.713255 21.467107 0.000000 0.000000 0.000000 4.254391 1.187192 -9.710946 1.668184 -0.127667 2.397502 -2.961617 -8.706118 4.512787 0.000000 0.000000 0.000000 9.169762 -1.322503 8.451090 7.098877 -4.206025 7.108979 -8.591888 2.219309 4.125666 11.556714 -5.354496 -15.973644 0.000000 0.000000 0.000000 -22.064748 -28.199170 12.658966 -36.331287 -24.641926 3.206729 41.284485 -36.660119 -13.121199 0.000000 0.000000 0.000000 23.212582 6.377759 3.307484 53.902823 0.973279 -5.057457 -5.416481 44.675958 0.226075 0.000000 0.000000 0.000000 
-0.082997 0.931425 0.708585 -0.418421 2.900983 5.436004 4.573943 -0.410926 -5.281307 -5.237839 0.562899 3.582386 14.145834 25.718913 21.320077 0.000000 0.000000 0.000000 4.187451 1.208431 -9.891181 1.431522 -0.090277 2.675346 -3.042090 -8.854494 4.395369 0.000000 0.000000 0.000000 9.286204 -1.356433 8.627726 6.820513 -4.038676 6.970829 -8.939593 2.361126 4.273331 11.742793 -5.465628 -15.915872 0.000000 0.000000 0.000000 -22.251776 -27.447082 12.131936 -38.951739 -22.384437 2.842055 40.412319 -39.508213 -13.935220 0.000000 0.000000 0.000000 23.166464 5.939872 3.128199 53.477359 0.653415 -5.188169 -5.109610 45.450810 0.401562 0.000000 0.000000 0.000000 
-0.081937 0.931312 0.706677 -0.152453 3.266788 5.292577 3.973243 -0.438799 -5.611367 -4.757853 0.497551 4.177777 13.970771 25.552011 21.105879 0.000000 0.000000 0.000000 4.024278 1.236038 -10.153029 1.081763 -0.029435 3.262501 -3.259153 -9.289430 4.234863 0.000000 0.000000 0.000000 9.273170 -1.357065 8.652569 6.524082 -3.870280 6.793055 -9.109070 2.548485 4.638067 11.936542 -5.465629 -16.365601 0.000000 0.000000 0.000000 -22.793970 -26.700030 11.616863 -41.247885 -20.464829 2.454448 39.575574 -41.231473 -14.320492 0.000000 0.000000 0.000000 23.432761 5.367143 2.925317 53.048249 0.395867 -5.332863 -5.458651 45.854322 0.340455 0.000000 0.000000 0.000000 
-0.080770 0.931497 0.704793 0.034536 3.801295 4.942858 3.139794 -0.443170 -5.477743 -3.700971 0.347165 4.332105 13.676567 25.248787 20.794559 0.000000 0.000000 0.000000 4.143660 1.265487 -10.292403 0.377550 0.092499 4.059170 -3.539874 -9.882936 4.172419 0.000000 0.000000 0.000000 9.189894 -1.334074 8.588283 6.366851 -3.807315 6.787082 -9.540038 2.844277 4.543976 11.901472 -5.369826 -16.413184 0.000000 0.000000 0.000000 -22.725879 -25.737079 10.753015 -43.425287 -18.921520 2.164418 38.503747 -42.587552 -14.541731 0.000000 0.000000 0.000000 23.822127 4.789072 2.796472 52.800183 -0.390616 -5.693095 -5.249354 46.222749 0.518931 0.000000 0.000000 0.000000 
-0.079527 0.931481 0.703132 -0.081645 4.405744 4.389292 2.597483 -0.435830 -5.277446 -2.571156 0.180563 4.757994 13.398738 24.971821 20.297070 0.000000 0.000000 0.000000 4.168769 1.274856 -10.299724 0.445430 0.107786 5.001809 -3.823347 -10.490740 4.168793 0.000000 0.000000 0.000000 9.191220 -1.283734 8.274224 6.177775 -3.699879 6.534711 -9.679687 3.404996 4.935043 11.714490 -5.146075 -16.611608 0.000000 0.000000 0.000000 -22.509258 -25.429163 10.218274 -44.795065 -17.671733 1.849847 38.139001 -42.986069 -14.725142 0.000000 0.000000 0.000000 23.793727 4.326421 2.805587 52.867602 -1.044597 -6.069238 -5.550034 46.040427 0.522677 0.000000 0.000000 0.000000 
-0.078227 0.931208 0.701736 -0.194456 5.168917 3.287505 2.008505 -0.377184 -4.433564 -1.346500 -0.006089 5.116806 13.025508 24.575074 19.589996 0.000000 0.000000 0.000000 4.326036 1.252112 -9.951048 0.301153 0.167411 6.442571 -4.208698 -11.296685 3.991325 0.000000 0.000000 0.000000 8.946176 -1.217211 8.164059 6.139777 -3.716804 6.512703 -10.088788 3.831471 5.194231 11.911597 -5.180430 -16.711328 0.000000 0.000000 0.000000 -22.000089 -25.471190 9.863413 -45.193557 -17.385268 1.818698 37.684302 -42.653208 -14.603176 0.000000 0.000000 0.000000 23.844884 3.517837 2.592088 53.110854 -1.371929 -6.320386 -5.473592 45.472718 0.674314 0.000000 0.000000 0.000000 
-0.076552 0.930905 0.699903 -0.549280 5.848207 2.525255 1.572300 -0.350195 -4.068683 0.010086 -0.223502 5.583452 12.756256 24.295080 18.925605 0.000000 0.000000 0.000000 4.323894 1.256007 -9.906816 0.835851 0.093092 7.627151 -4.510701 -11.960748 4.072968 0.000000 0.000000 0.000000 8.791273 -1.133263 7.744570 5.670538 -3.446462 6.183894 -9.761774 4.006751 5.848023 11.728667 -5.066899 -16.661239 0.000000 0.000000 0.000000 -22.263265 -25.520040 9.771738 -44.475984 -17.310459 1.759210 37.243256 -41.984963 -14.217701 0.000000 0.000000 0.000000 23.822710 3.212550 2.549061 53.370448 -1.730914 -6.581390 -5.011752 44.531599 0.888609 0.000000 0.000000 0.000000 
-0.074290 0.930448 0.696520 -0.877893 5.564313 1.584429 1.508882 -0.317312 -3.684045 0.383401 -0.316312 6.403926 13.038053 24.627543 18.688582 0.000000 0.000000 0.000000 4.150601 1.312864 -10.359806 1.501937 0.002486 9.837173 -4.471075 -11.870381 4.062072 0.000000 0.000000 0.000000 8.577812 -1.103918 7.924773 5.160518 -3.109347 5.705992 -9.739596 4.590781 6.387116 11.858781 -5.012736 -17.152888 0.000000 0.000000 0.000000 -21.906795 -25.639895 9.653693 -43.788533 -17.216489 1.680983 37.130070 -41.306992 -13.999828 0.000000 0.000000 0.000000 23.951984 3.383563 2.841460 53.728246 -1.143967 -6.485143 -5.773565 43.439663 0.648304 0.000000 0.000000 0.000000 
-0.071202 0.930487 0.690058 -1.076879 4.496394 1.179028 1.693876 -0.323976 -3.821152 -0.189319 -0.241843 6.928409 13.709610 25.392488 19.030739 0.000000 0.000000 0.000000 3.982665 1.490718 -11.813666 1.730101 0.006932 12.407447 -4.114615 -11.156435 4.444955 0.000000 0.000000 0.000000 8.165846 -1.081923 8.246342 3.919340 -2.364348 5.302632 -8.841487 4.683559 6.538928 11.380041 -4.662314 -17.669500 0.000000 0.000000 0.000000 -21.090427 -25.021465 9.436276 -43.743542 -17.780856 1.754245 36.338482 -41.036407 -13.470156 0.000000 0.000000 0.000000 23.653442 3.830054 2.918211 53.915250 -0.715746 -6.299772 -4.789438 42.014082 0.887507 0.000000 0.000000 0.000000 
-0.068028 0.930677 0.680379 -1.160760 3.730438 0.437162 1.574593 -0.287137 -3.375395 -0.399238 -0.190672 6.630546 14.151799 25.886787 19.183200 0.000000 0.000000 0.000000 3.889316 1.686972 -13.343917 1.613856 0.092791 15.395423 -3.854845 -10.742602 5.247904 0.000000 0.000000 0.000000 7.231993 -1.098771 9.408919 3.763420 -2.186742 4.394929 -8.767611 4.881341 7.169013 12.092611 -4.831544 -19.060499 0.000000 0.000000 0.000000 -19.235205 -24.791700 9.243133 -44.250715 -18.598783 1.916532 36.093318 -39.092949 -12.681934 0.000000 0.000000 0.000000 23.300550 4.448041 3.244457 54.796016 0.330947 -5.978105 -5.543752 41.415165 0.614793 0.000000 0.000000 0.000000 
-0.065377 0.931328 0.668543 -1.513043 2.519506 -0.469248 2.398197 -0.236747 -2.880645 -1.723531 0.041186 6.354623 14.769466 26.549852 19.646684 0.000000 0.000000 0.000000 3.471498 1.835134 -14.721731 2.658796 -0.110897 18.011965 -3.275931 -9.840755 6.662238 0.000000 0.000000 0.000000 6.359932 -1.122105 10.774453 3.326484 -1.917755 4.163897 -7.587658 5.095842 7.646705 11.382959 -4.212766 -20.339164 0.000000 0.000000 0.000000 -18.722514 -24.534063 9.241627 -43.642413 -19.744393 2.181812 35.839755 -37.886967 -12.073054 0.000000 0.000000 0.000000 21.967782 4.417804 2.966262 55.222915 1.239526 -5.576241 -4.072765 41.710067 1.125700 0.000000 0.000000 0.000000 
-0.063785 0.932358 0.656328 -2.125846 1.787389 -1.405257 3.141027 -0.181488 -2.275284 -2.155956 0.129376 5.776117 15.084698 26.868024 19.998445 0.000000 0.000000 0.000000 3.512513 1.910123 -15.143148 3.530413 -0.317477 18.949750 -2.808764 -9.251143 8.184194 0.000000 0.000000 0.000000 5.657761 -1.120517 11.791920 3.229589 -1.738673 2.496098 -6.574155 4.632463 8.740995 11.119514 -4.082392 -20.976933 0.000000 0.000000 0.000000 -17.710938 -23.568400 8.954682 -42.999099 -20.006053 2.025204 34.804262 -36.566626 -11.073730 0.000000 0.000000 0.000000 19.984297 4.275777 2.506560 56.574476 1.231750 -5.637496 -1.957401 42.194034 1.854593 0.000000 0.000000 0.000000 
-0.062947 0.933219 0.644332 -2.391651 0.931182 -1.718048 3.519285 -0.156636 -2.037437 -2.513540 0.209783 4.709534 15.463940 27.230990 20.595962 0.000000 0.000000 0.000000 3.538577 1.896395 -14.923618 3.610590 -0.289726 20.790103 -1.611590 -5.355536 3.380715 0.000000 0.000000 0.000000 4.801258 -0.926666 10.827479 3.420617 -1.821243 2.369492 -5.815172 3.983805 9.284517 9.814391 -3.557867 -20.586148 0.000000 0.000000 0.000000 -17.686043 -22.632439 8.822683 -42.605406 -19.810650 1.780342 33.183114 -35.650618 -9.994991 0.000000 0.000000 0.000000 18.052588 4.843060 2.417506 57.729454 -0.074330 -6.258048 0.458725 43.965955 2.742980 0.000000 0.000000 0.000000 
-0.062996 0.933352 0.632128 -2.361225 -0.086140 -1.824362 3.474394 -0.166822 -2.323976 -2.580752 0.235766 4.204461 16.021642 27.771851 21.341345 0.000000 0.000000 0.000000 4.180422 1.672858 -12.708379 2.229898 0.269919 24.944553 -1.686043 0.501250 -9.228716 0.000000 0.000000 0.000000 4.535445 -0.829070 10.119469 2.715723 -1.410533 1.664749 -5.056366 3.889298 9.733780 8.806245 -2.992703 -21.012875 0.000000 0.000000 0.000000 -16.805413 -21.254933 8.253794 -42.910570 -20.196841 1.802244 31.514906 -34.938816 -9.095188 0.000000 0.000000 0.000000 16.629114 4.930968 2.245683 58.789447 -0.553736 -6.559239 2.087804 44.067411 3.302019 0.000000 0.000000 0.000000 
-0.063539 0.932804 0.618088 -2.041234 0.026250 -1.618347 3.093582 -0.226521 -3.146762 -2.472602 0.227440 3.534171 15.939913 27.660391 21.479459 0.000000 0.000000 0.000000 4.324964 1.275371 -9.779045 1.727970 0.536046 28.939455 0.465618 -11.719166 45.904065 0.000000 0.000000 0.000000 4.574140 -0.720977 8.716713 2.536623 -1.360167 2.375078 -5.200528 3.899975 8.648213 8.574094 -3.083244 -19.435169 0.000000 0.000000 0.000000 -16.030008 -20.801261 7.899129 -43.078796 -18.719291 1.378737 29.521421 -34.753789 -8.433732 0.000000 0.000000 0.000000 16.097924 4.673175 2.095334 59.406776 -0.635182 -6.525535 3.242480 43.913386 3.717444 0.000000 0.000000 0.000000 
-0.064192 0.930709 0.601141 -1.182740 -0.034847 -1.137634 2.151623 -0.385415 -5.055716 -2.422529 0.215617 3.951950 16.107228 27.827836 21.699576 0.000000 0.000000 0.000000 4.384401 0.758030 -6.087501 1.395112 0.755622 31.556934 4.121687 -11.794053 65.972651 0.000000 0.000000 0.000000 4.874074 -0.665636 7.712522 2.169677 -1.207488 3.091358 -5.861601 4.125842 6.835814 9.173737 -3.535362 -18.392433 0.000000 0.000000 0.000000 -16.523123 -20.074147 7.406078 -42.766020 -16.751243 0.875748 26.743475 -35.270426 -7.727560 0.000000 0.000000 0.000000 17.358280 4.682538 2.173715 58.187488 -1.190575 -6.552927 3.180840 43.299559 3.594184 0.000000 0.000000 0.000000 
-0.065007 0.926876 0.579573 -0.040775 -0.207382 -0.883057 1.579363 -0.567190 -7.122515 -3.537178 0.378291 4.524515 16.389782 28.140013 21.793086 0.000000 0.000000 0.000000 4.501848 0.295574 -2.795715 -0.050662 1.301692 30.162147 2.777265 -7.537288 36.603721 0.000000 0.000000 0.000000 4.978614 -0.605859 6.907798 1.374504 -0.844228 4.277298 -5.863927 4.982452 5.081137 8.488291 -3.161682 -17.424756 0.000000 0.000000 0.000000 -16.335068 -19.927396 7.046445 -43.561800 -15.005481 0.498192 24.881266 -35.214078 -7.247922 0.000000 0.000000 0.000000 17.024190 4.533988 2.236390 58.418236 -0.743864 -6.195132 1.402123 42.089575 2.867606 0.000000 0.000000 0.000000 
-0.065827 0.922247 0.552012 0.645732 -0.625203 -0.899092 0.848419 -0.803991 -9.488017 -3.400809 0.360231 5.469825 16.899783 28.661576 22.152012 0.000000 0.000000 0.000000 4.525319 0.067451 -1.187412 -1.305611 1.774279 29.165493 1.650192 -3.632844 16.599206 0.000000 0.000000 0.000000 6.393281 -0.792100 7.926797 0.406301 -0.315272 3.985503 -6.197325 6.089685 4.481943 9.198029 -3.503787 -17.287244 0.000000 0.000000 0.000000 -16.660308 -19.318463 6.459808 -43.952752 -14.152394 0.324713 21.625843 -35.433003 -6.335249 0.000000 0.000000 0.000000 18.184467 3.894818 2.170954 56.539597 0.444176 -5.529684 0.696258 40.935942 2.626722 0.000000 0.000000 0.000000 
-0.066149 0.918586 0.519843 0.861050 -1.065087 -0.730849 0.886769 -1.069345 -12.759974 -3.627249 0.402249 7.064606 17.275227 28.852159 23.528639 0.000000 0.000000 0.000000 4.765290 0.191756 -2.120751 -2.356065 2.305936 30.368105 0.900801 -0.203280 4.591824 0.000000 0.000000 0.000000 7.453365 -0.991357 9.083028 0.095025 -0.138615 3.737319 -6.333989 7.209124 3.975045 9.166596 -3.152019 -18.409297 0.000000 0.000000 0.000000 -17.360154 -18.860546 5.947039 -44.385860 -13.051130 0.071863 19.529651 -34.895955 -5.658019 0.000000 0.000000 0.000000 18.479961 3.987830 2.467784 55.249913 1.549244 -4.946185 -1.329623 40.102469 1.940557 0.000000 0.000000 0.000000 
-0.065830 0.919420 0.489024 0.816147 -1.414064 0.448758 1.508146 -1.305518 -16.765308 -4.275652 0.528144 8.095747 17.094893 28.151833 26.780181 0.000000 0.000000 0.000000 4.730001 0.615864 -5.232235 -2.244970 2.300190 30.412832 0.502350 0.056374 2.221393 0.000000 0.000000 0.000000 8.237288 -1.079084 9.000251 -0.013615 -0.071382 3.529949 -5.560951 6.805448 3.334348 7.679245 -2.283380 -18.675668 0.000000 0.000000 0.000000 -18.954698 -16.316755 4.771697 -45.236599 -11.441159 -0.460504 16.505084 -36.393694 -4.815919 0.000000 0.000000 0.000000 17.295253 5.283910 2.926052 54.432994 2.188170 -4.470381 -0.518390 38.573310 1.987491 0.000000 0.000000 0.000000 
-0.065664 0.924681 0.464635 1.554492 -1.102499 0.963479 1.786730 -1.358291 -17.881128 -5.981687 0.792786 5.995353 15.953977 26.521601 30.400684 0.000000 0.000000 0.000000 4.167973 0.723682 -6.135275 -2.648712 2.267657 28.409720 0.205635 -0.086342 1.125679 0.000000 0.000000 0.000000 8.495043 -0.987236 7.834085 -0.149632 -0.008747 3.743899 -5.636936 7.340175 3.211477 7.376408 -2.055264 -18.528709 0.000000 0.000000 0.000000 -18.805110 -16.983928 4.936192 -46.483437 -9.739295 -1.067056 13.568388 -36.504088 -3.901635 0.000000 0.000000 0.000000 17.215905 3.902407 2.333804 53.361632 1.610265 -4.652936 0.157187 39.326843 2.355920 0.000000 0.000000 0.000000 
-0.065900 0.930936 0.445938 1.886553 -1.074378 0.652691 2.129400 -1.283722 -17.533703 -7.017100 0.900323 3.798350 13.982253 24.530152 29.464632 0.000000 0.000000 0.000000 4.106762 0.578243 -5.060840 -3.361702 2.247173 25.045644 0.240967 0.208005 0.741078 0.000000 0.000000 0.000000 8.746533 -0.880613 6.834111 -0.153178 0.000817 3.372348 -5.375984 6.801509 3.806765 7.071850 -2.005510 -18.228566 0.000000 0.000000 0.000000 -19.440338 -14.422339 3.741947 -47.240040 -8.412024 -1.697922 9.660750 -36.489039 -2.513300 0.000000 0.000000 0.000000 16.140410 3.831949 2.097822 53.537780 1.707727 -4.588149 1.969859 37.656009 2.735152 0.000000 0.000000 0.000000 
-0.066112 0.934892 0.430878 1.980423 -0.220940 0.195675 2.125781 -1.205427 -16.184712 -7.197571 0.915069 3.983566 15.538063 26.275351 29.406369 0.000000 0.000000 0.000000 3.712225 0.472312 -4.242496 -2.717305 1.816424 22.877579 0.134955 -0.112363 0.862311 0.000000 0.000000 0.000000 8.964697 -0.796555 6.061075 0.135804 -0.137589 2.577673 -5.635930 6.522282 4.461572 7.274544 -2.222151 -17.632162 0.000000 0.000000 0.000000 -19.852093 -14.074835 3.507297 -47.114653 -7.076371 -2.232385 6.931812 -35.450179 -1.536713 0.000000 0.000000 0.000000 16.870806 3.175006 1.835434 52.756042 0.895106 -4.997117 2.953330 36.453620 2.953413 0.000000 0.000000 0.000000 
-0.065849 0.936815 0.417288 2.042305 0.596881 0.062335 2.570313 -0.986488 -13.683128 -7.755857 1.072563 6.798205 27.577150 36.613360 35.985302 0.000000 0.000000 0.000000 2.932087 0.406561 -3.757494 -1.429950 1.251861 20.880607 -0.009670 -0.330225 0.595772 0.000000 0.000000 0.000000 9.251316 -0.680835 4.943907 0.063387 -0.103222 2.400116 -5.873042 6.820697 4.294327 7.280838 -2.232702 -17.102807 0.000000 0.000000 0.000000 -19.957938 -13.146906 2.758013 -47.146869 -5.189683 -2.870085 4.011686 -34.671035 -0.656846 0.000000 0.000000 0.000000 16.784094 1.959222 1.349943 52.430276 -0.062987 -5.376696 4.191757 34.945070 3.235997 0.000000 0.000000 0.000000 
-0.065001 0.936964 0.403866 2.012775 0.819305 0.321061 3.176314 -0.779849 -11.446492 -7.880859 1.341556 14.163842 25.428471 36.603209 28.498550 0.000000 0.000000 0.000000 2.651983 0.451169 -4.147846 -0.991846 1.049496 19.653433 -0.136930 -0.356202 0.010326 0.000000 0.000000 0.000000 9.626939 -0.526381 3.469034 -0.212609 0.045345 2.015272 -5.701712 6.859450 4.528321 6.913181 -2.075944 -16.680743 0.000000 0.000000 0.000000 -21.052045 -12.240078 2.153948 -46.744190 -2.883480 -3.665941 2.355442 -34.387871 -0.128263 0.000000 0.000000 0.000000 17.180925 2.055673 1.441670 51.268264 -1.248711 -5.795940 5.015821 33.564891 3.286522 0.000000 0.000000 0.000000 
-0.063823 0.936977 0.390051 1.893133 1.097744 0.584237 3.542781 -0.617943 -9.266272 -6.899484 1.327359 23.575088 15.117132 27.300133 16.634140 0.000000 0.000000 0.000000 2.321362 0.497207 -4.568633 -0.324926 0.793365 18.401844 -0.238237 -0.407153 -0.406947 0.000000 0.000000 0.000000 9.928359 -0.376451 2.104199 -0.233110 0.062646 1.698256 -5.937470 7.216706 4.288636 6.391408 -1.709342 -16.584105 0.000000 0.000000 0.000000 -20.911982 -11.425494 1.537903 -46.186851 -0.724916 -4.348564 -0.656151 -34.470076 0.749416 0.000000 0.000000 0.000000 17.646669 0.524598 0.751964 50.272769 -2.187085 -6.092143 6.174168 32.544704 3.532316 0.000000 0.000000 0.000000 
-0.062284 0.936567 0.375824 1.617782 2.261739 0.225395 3.744828 -0.422504 -6.136608 -5.899452 0.938659 28.129102 9.446823 19.609999 11.026390 0.000000 0.000000 0.000000 2.212341 0.495890 -4.509657 0.472730 0.496638 17.525420 -0.609460 -1.280671 -0.614659 0.000000 0.000000 0.000000 9.935581 -0.314469 1.641067 -0.279357 0.090612 1.325135 -5.830213 7.068487 4.586480 7.147214 -2.137895 -16.560830 0.000000 0.000000 0.000000 -20.590688 -11.460793 1.481091 -45.641083 -0.195344 -4.483290 -1.888669 -33.961040 1.094024 0.000000 0.000000 0.000000 18.556074 -0.201990 0.470773 49.065933 -3.406155 -6.503361 6.652894 32.558497 3.684548 0.000000 0.000000 0.000000 
-0.060102 0.935838 0.360296 1.289523 3.148351 0.367930 3.981775 -0.273576 -3.558870 -4.850266 0.476844 26.486636 6.926933 15.212392 6.594607 0.000000 0.000000 0.000000 2.025556 0.470759 -4.295836 1.270588 0.201235 15.218022 -0.876060 -1.813989 -1.010619 0.000000 0.000000 0.000000 9.850553 -0.164297 0.372055 -0.062926 -0.033142 1.637241 -6.422595 6.994476 4.468139 7.664688 -2.443471 -16.333882 0.000000 0.000000 0.000000 -19.237638 -11.507483 1.497924 -45.927303 0.171688 -4.665594 -3.057148 -33.363814 1.368701 0.000000 0.000000 0.000000 18.709947 -0.532877 0.412215 49.351465 -4.252265 -6.861441 5.513956 32.348035 3.373081 0.000000 0.000000 0.000000 
-0.056633 0.934906 0.343551 0.523409 4.367665 1.195884 4.354269 -0.166252 -1.214879 -3.069277 -0.042214 19.672524 5.522257 12.173166 3.448040 0.000000 0.000000 0.000000 2.029282 0.638213 -5.719338 2.481039 -0.152417 14.215754 -1.212008 -2.811629 -0.780575 0.000000 0.000000 0.000000 9.745653 -0.029730 -1.017692 0.023422 -0.098352 1.929143 -5.869368 6.130546 4.203911 7.719937 -2.611089 -15.807440 0.000000 0.000000 0.000000 -19.046165 -11.191543 1.465172 -44.703584 0.722775 -4.715580 -5.354946 -33.466442 2.098615 0.000000 0.000000 0.000000 19.274261 -1.124151 -0.016135 48.042035 -4.837970 -6.877030 6.145608 32.412143 3.513484 0.000000 0.000000 0.000000 
-0.051560 0.934144 0.325828 0.007182 4.790871 1.845460 4.487073 -0.081360 0.814155 -1.804222 -0.135257 12.050937 4.493083 10.104680 2.871983 0.000000 0.000000 0.000000 1.545882 0.804041 -7.361549 3.629455 -0.446466 13.768556 -1.288961 -3.160274 -0.400409 0.000000 0.000000 0.000000 9.719012 0.045886 -1.851776 0.098601 -0.114094 1.381903 -5.700179 6.065232 4.372200 8.450736 -3.125549 -15.472572 0.000000 0.000000 0.000000 -18.469585 -11.478257 1.649243 -44.053523 1.551930 -4.928136 -6.702542 -33.578757 2.497738 0.000000 0.000000 0.000000 18.549261 -1.636042 -0.283320 47.692605 -5.515454 -7.044256 7.075501 32.755294 3.842308 0.000000 0.000000 0.000000 
-0.045031 0.933371 0.308236 -0.267530 4.819339 2.190142 4.338628 -0.041821 1.610225 -1.252105 -0.069543 6.855146 3.954425 9.428019 4.031766 0.000000 0.000000 0.000000 1.077050 0.876274 -8.253822 4.035884 -0.532834 12.646354 -1.268092 -3.198112 -0.149558 0.000000 0.000000 0.000000 9.645481 0.099473 -2.389819 -0.103518 0.001693 0.998557 -5.526064 6.276772 4.519839 8.810927 -3.294304 -15.668368 0.000000 0.000000 0.000000 -17.654704 -10.995451 1.448365 -43.063216 1.126348 -4.666444 -7.598496 -33.471293 2.728656 0.000000 0.000000 0.000000 18.324288 -1.695226 -0.262517 46.898207 -5.654144 -7.001847 7.352988 33.044241 3.981905 0.000000 0.000000 0.000000 
-0.037451 0.932973 0.292181 -0.380488 4.948420 2.502410 3.758829 0.002461 2.047643 -0.508354 -0.048619 3.007095 3.354419 8.544480 4.743379 0.000000 0.000000 0.000000 0.630251 0.948359 -9.213132 3.987727 -0.517886 11.922342 -1.291394 -3.406165 0.264872 0.000000 0.000000 0.000000 9.279676 0.185658 -3.207663 -0.059165 -0.022235 1.024953 -5.612025 6.431218 4.515689 9.152721 -3.599316 -15.131169 0.000000 0.000000 0.000000 -16.259769 -10.813588 1.465626 -41.957603 0.700179 -4.405668 -8.299295 -33.930872 2.932952 0.000000 0.000000 0.000000 17.641074 -1.899268 -0.327963 46.091121 -5.658805 -6.874617 8.504210 33.280141 4.375668 0.000000 0.000000 0.000000 
-0.029265 0.933125 0.278425 -0.528799 4.578857 2.397978 3.217636 0.054316 2.432230 -0.481142 0.012070 1.117073 3.502508 8.716173 4.454354 0.000000 0.000000 0.000000 0.252203 0.942830 -9.380586 3.779543 -0.452049 10.813406 -1.075340 -3.086608 0.881615 0.000000 0.000000 0.000000 9.227145 0.230800 -3.534677 -0.325180 0.132080 0.465253 -5.477299 6.749942 5.022178 9.503517 -3.848700 -15.029870 0.000000 0.000000 0.000000 -15.541714 -10.659979 1.469865 -40.790871 0.013459 -4.084322 -8.377921 -33.526694 2.913266 0.000000 0.000000 0.000000 17.000198 -2.346884 -0.546998 44.988840 -5.290439 -6.630781 9.737286 33.278626 4.760557 0.000000 0.000000 0.000000 
-0.020844 0.932992 0.267030 -0.623438 4.400348 2.480980 2.805160 0.085705 2.595854 -0.730553 0.088218 -0.542272 3.551018 8.733584 4.232127 0.000000 0.000000 0.000000 -0.137945 0.934758 -9.544209 3.511371 -0.386064 9.630781 -0.931385 -2.937380 1.442148 0.000000 0.000000 0.000000 9.025906 0.294872 -4.110007 -0.497559 0.236761 -0.103453 -5.443283 6.635276 5.611390 9.872038 -4.057341 -15.319291 0.000000 0.000000 0.000000 -14.388340 -10.068832 1.401302 -39.619889 -0.662414 -3.824408 -8.337380 -33.322898 2.891986 0.000000 0.000000 0.000000 16.229000 -2.851902 -0.865512 44.280237 -4.886726 -6.404798 11.189458 33.198913 5.173315 0.000000 0.000000 0.000000 
-0.012569 0.932685 0.257334 -0.685079 4.110732 2.446804 2.542144 0.106221 2.671814 -1.305241 0.167538 -1.603618 3.650909 8.844941 4.009279 0.000000 0.000000 0.000000 -0.309684 0.929005 -9.585857 2.829158 -0.246140 8.654998 -0.772446 -2.717500 1.882216 0.000000 0.000000 0.000000 8.790537 0.338683 -4.487687 -0.657681 0.313277 -0.111603 -5.348493 6.316481 5.497357 10.016271 -4.259174 -15.038595 0.000000 0.000000 0.000000 -13.932925 -9.735458 1.405168 -38.467808 -0.944240 -3.636899 -8.014788 -32.871871 2.801571 0.000000 0.000000 0.000000 15.678540 -3.119815 -1.114304 43.727292 -4.667338 -6.209732 11.669844 33.054686 5.250728 0.000000 0.000000 0.000000 
-0.004755 0.932114 0.249195 -0.597233 3.875974 2.327914 2.097665 0.142472 2.841954 -1.759554 0.223348 -2.495695 3.724236 8.915092 3.800800 0.000000 0.000000 0.000000 -0.586996 0.878806 -9.213151 2.124179 -0.123367 7.304330 -0.624506 -2.491084 2.215577 0.000000 0.000000 0.000000 8.389724 0.352450 -4.616890 -0.673366 0.331642 -0.421616 -5.440810 5.868675 5.837022 10.259185 -4.550158 -14.739046 0.000000 0.000000 0.000000 -13.921072 -9.410837 1.379873 -37.190772 -0.937786 -3.540757 -8.060048 -32.976285 2.873767 0.000000 0.000000 0.000000 15.518272 -3.138669 -1.221611 43.172117 -4.782275 -6.179305 12.061507 33.416113 5.394832 0.000000 0.000000 0.000000 
0.002323 0.932005 0.242557 -0.600879 3.483990 2.270747 1.758936 0.159141 2.795159 -2.157859 0.262593 -2.950385 3.868829 9.159168 3.731979 0.000000 0.000000 0.000000 -0.583824 0.853695 -8.917309 1.189151 0.021123 6.082000 -0.390080 -2.136567 2.721113 0.000000 0.000000 0.000000 8.198177 0.387369 -4.918120 -0.763175 0.360431 0.009813 -5.414331 5.541358 5.481857 10.269355 -4.648871 -14.502206 0.000000 0.000000 0.000000 -13.365018 -9.222632 1.456984 -36.272513 -0.483148 -3.579858 -8.496054 -32.783025 3.022266 0.000000 0.000000 0.000000 14.722936 -3.573484 -1.550302 42.993125 -4.914609 -6.109107 12.850895 33.557592 5.620010 0.000000 0.000000 0.000000 
0.008458 0.931771 0.237499 -0.581241 3.564625 2.230783 1.473349 0.160725 2.628531 -2.453920 0.286367 -3.141177 3.837795 9.050336 3.546755 0.000000 0.000000 0.000000 -0.632186 0.795502 -8.308043 0.444517 0.097182 4.516900 -0.309449 -2.142417 3.236283 0.000000 0.000000 0.000000 7.922768 0.410789 -5.196930 -0.613159 0.287183 0.066971 -5.562005 4.905636 5.471376 10.646723 -4.979831 -14.371454 0.000000 0.000000 0.000000 -13.208299 -8.931753 1.452685 -35.235446 -0.152774 -3.578607 -8.803152 -32.873980 3.167133 0.000000 0.000000 0.000000 13.993127 -3.718018 -1.710373 42.572920 -5.293016 -6.114994 13.995389 33.999622 6.004215 0.000000 0.000000 0.000000 
0.013501 0.931996 0.233788 -0.491340 3.446324 2.188675 1.086846 0.184194 2.683297 -2.605304 0.302132 -3.536959 3.830423 9.071928 3.673315 0.000000 0.000000 0.000000 -0.802930 0.746895 -7.861127 -0.082203 0.136215 3.362024 -0.146173 -1.982584 3.793545 0.000000 0.000000 0.000000 7.728424 0.404010 -5.151072 -0.708141 0.335652 -0.024364 -5.615645 4.516228 5.506332 10.654607 -5.092428 -14.081938 0.000000 0.000000 0.000000 -13.318966 -8.495478 1.329514 -34.495720 0.753879 -3.751970 -9.688778 -33.877904 3.565276 0.000000 0.000000 0.000000 13.508288 -3.851477 -1.836943 42.478942 -5.966183 -6.274640 15.486944 35.052891 6.659478 0.000000 0.000000 0.000000 
0.017268 0.931941 0.231084 -0.435828 3.288819 2.120616 0.681344 0.190440 2.512192 -2.503536 0.294238 -3.360934 3.925073 9.217851 3.567295 0.000000 0.000000 0.000000 -1.049065 0.669915 -7.115765 -0.238026 0.098503 1.807480 0.053338 -1.744258 4.338440 0.000000 0.000000 0.000000 7.649297 0.404202 -5.138736 -0.878056 0.409520 0.220534 -5.684858 4.307037 5.307042 10.789783 -5.299699 -13.650966 0.000000 0.000000 0.000000 -13.632720 -8.586251 1.387335 -33.944468 1.652925 -3.904851 -9.914602 -34.455643 3.724556 0.000000 0.000000 0.000000 13.228839 -3.742254 -1.822526 42.338581 -6.694644 -6.441745 16.185534 35.988266 7.062220 0.000000 0.000000 0.000000 
0.019619 0.932002 0.229237 -0.423897 3.509196 1.949414 0.461326 0.216991 2.719904 -2.381492 0.287711 -3.633404 3.809373 9.004213 3.569992 0.000000 0.000000 0.000000 -0.855256 0.612826 -6.403730 -0.911542 0.134277 0.699735 0.062920 -1.865783 4.742093 0.000000 0.000000 0.000000 7.509585 0.408832 -5.193881 -0.928144 0.428340 0.392345 -5.882263 4.021762 5.495890 10.527995 -5.244039 -13.222615 0.000000 0.000000 0.000000 -13.663494 -8.824098 1.526696 -34.178932 2.272359 -4.115379 -9.347665 -35.136367 3.635729 0.000000 0.000000 0.000000 13.363889 -3.662211 -1.806073 42.038995 -7.275477 -6.588730 16.675801 36.615141 7.351889 0.000000 0.000000 0.000000 
0.020747 0.932156 0.228145 -0.404848 3.277872 1.796349 0.286995 0.239910 2.884714 -2.298697 0.284439 -3.712831 3.890662 9.176327 3.652400 0.000000 0.000000 0.000000 -0.785934 0.520863 -5.370815 -1.224413 0.084141 -1.058808 0.315914 -1.544052 5.340689 0.000000 0.000000 0.000000 7.294617 0.414446 -5.244349 -0.974730 0.448226 0.511449 -5.862720 3.956741 5.670424 10.312972 -5.203440 -12.873561 0.000000 0.000000 0.000000 -13.975691 -8.638302 1.454521 -34.201161 2.644878 -4.235271 -9.216435 -35.210943 3.626741 0.000000 0.000000 0.000000 13.464669 -3.446423 -1.730238 41.811275 -7.464118 -6.622953 16.525219 36.993838 7.363917 0.000000 0.000000 0.000000 
0.020836 0.932528 0.227559 -0.505512 3.009822 1.657996 0.240136 0.255920 3.036567 -2.085673 0.271833 -3.754209 3.996149 9.404481 3.779497 0.000000 0.000000 0.000000 -0.412046 0.465384 -4.688049 -1.717100 0.072546 -2.174774 0.549956 -1.241551 5.841832 0.000000 0.000000 0.000000 7.206530 0.435701 -5.421680 -1.138565 0.522915 0.715389 -5.807617 3.910714 6.025228 10.076463 -5.025640 -13.098829 0.000000 0.000000 0.000000 -13.986370 -8.840969 1.604222 -34.313734 2.982723 -4.378470 -9.201049 -35.500587 3.677866 0.000000 0.000000 0.000000 13.359825 -3.023335 -1.539984 42.034752 -7.456473 -6.681142 16.038636 37.258212 7.241928 0.000000 0.000000 0.000000 
0.020376 0.932741 0.227156 -0.721906 2.766693 1.522429 0.392160 0.262629 3.193829 -1.929488 0.262921 -3.800864 4.110201 9.624438 3.821084 0.000000 0.000000 0.000000 -0.051924 0.405450 -4.012729 -1.881269 0.024743 -3.270403 0.781431 -0.952836 6.340002 0.000000 0.000000 0.000000 7.049683 0.415026 -5.202960 -1.149506 0.528258 0.758083 -5.842428 3.949298 6.122739 10.254881 -5.147624 -13.132317 0.000000 0.000000 0.000000 -13.543980 -8.943078 1.711603 -34.518179 2.967184 -4.428260 -9.221526 -35.964260 3.736128 0.000000 0.000000 0.000000 13.126317 -2.747225 -1.403411 42.064026 -7.093050 -6.577262 15.891161 37.345084 7.206622 0.000000 0.000000 0.000000 
0.019699 0.932911 0.226670 -0.943414 2.249321 1.438131 0.440400 0.262809 3.199672 -1.613021 0.239771 -3.638008 4.374789 10.115140 3.842019 0.000000 0.000000 0.000000 0.465986 0.346474 -3.388121 -2.295908 -0.014782 -4.441897 1.138760 -0.444476 6.880441 0.000000 0.000000 0.000000 7.020264 0.392101 -4.916426 -1.319782 0.614036 0.699702 -5.548532 3.974562 6.327959 10.347663 -5.157069 -13.533488 0.000000 0.000000 0.000000 -13.267876 -9.126984 1.890992 -34.529481 3.096779 -4.504469 -9.256917 -36.869788 3.872838 0.000000 0.000000 0.000000 12.735068 -2.252991 -1.189311 41.443591 -6.466834 -6.300880 16.148338 37.799873 7.364685 0.000000 0.000000 0.000000 
0.019217 0.933246 0.226115 -1.295335 1.523816 1.380278 0.523827 0.265098 3.238812 -1.169733 0.208006 -3.558681 4.728206 10.789560 3.945019 0.000000 0.000000 0.000000 0.827787 0.276855 -2.734392 -2.181096 -0.104563 -5.768869 1.647522 0.247873 7.642533 0.000000 0.000000 0.000000 7.142057 0.377974 -4.666143 -1.450691 0.682609 0.561888 -5.435568 4.247548 6.501563 10.273026 -5.100479 -13.636387 0.000000 0.000000 0.000000 -12.752480 -9.091723 1.949676 -34.462315 3.150237 -4.542482 -9.988184 -37.738118 4.221308 0.000000 0.000000 0.000000 12.574060 -1.621632 -0.890485 40.587353 -5.823585 -5.996144 16.423009 38.253659 7.543236 0.000000 0.000000 0.000000 
0.018883 0.933560 0.225538 -1.508516 1.255914 1.471421 0.622194 0.248082 3.080219 -0.948327 0.190119 -3.487388 4.867145 11.062148 4.027702 0.000000 0.000000 0.000000 1.122607 0.238007 -2.391966 -2.243974 -0.158917 -6.714975 1.911746 0.514672 8.234530 0.000000 0.000000 0.000000 7.039736 0.356127 -4.478659 -1.495552 0.707581 0.381470 -5.243029 4.440321 6.681954 10.545850 -5.237359 -13.868922 0.000000 0.000000 0.000000 -12.111053 -9.199059 2.057054 -34.570815 2.922135 -4.528526 -10.583027 -38.675590 4.528887 0.000000 0.000000 0.000000 12.163892 -1.210178 -0.676383 39.745597 -5.094334 -5.670778 17.032186 38.728553 7.863745 0.000000 0.000000 0.000000 
0.018707 0.934017 0.225015 -1.737874 0.796489 1.542262 0.815166 0.230874 2.955311 -0.921025 0.186520 -3.391078 5.069803 11.467199 4.187649 0.000000 0.000000 0.000000 1.451407 0.208818 -2.162388 -2.352462 -0.198547 -7.435971 2.252461 0.918016 8.800469 0.000000 0.000000 0.000000 6.978641 0.338540 -4.300549 -1.610415 0.762844 0.444166 -4.949400 4.484996 6.519260 10.466508 -5.108678 -14.289248 0.000000 0.000000 0.000000 -11.495671 -8.674331 1.915555 -34.731252 2.693284 -4.515563 -11.084267 -39.379724 4.807832 0.000000 0.000000 0.000000 11.678351 -0.812862 -0.516730 39.230728 -4.315582 -5.347937 17.323464 38.868626 7.963053 0.000000 0.000000 0.000000 
0.018704 0.934310 0.224563 -1.968976 0.609901 1.589244 0.993438 0.208002 2.762926 -0.827565 0.173406 -3.161928 5.182671 11.674502 4.195799 0.000000 0.000000 0.000000 1.553997 0.185731 -1.973572 -2.067852 -0.241674 -7.968682 2.447786 1.094661 9.245489 0.000000 0.000000 0.000000 6.964491 0.305505 -3.972276 -1.726920 0.823984 0.042875 -4.729654 4.523821 6.820590 10.820541 -5.234459 -14.865289 0.000000 0.000000 0.000000 -11.329933 -8.382944 1.827540 -34.670719 2.264410 -4.427625 -11.003431 -39.623662 4.821091 0.000000 0.000000 0.000000 11.719832 -0.643432 -0.446839 38.468088 -3.599971 -5.069806 17.909993 38.894531 8.161220 0.000000 0.000000 0.000000 
0.018811 0.934410 0.224142 -2.161312 0.285449 1.561677 1.031238 0.197487 2.635692 -0.601454 0.147253 -2.864381 5.371189 12.012958 4.158279 0.000000 0.000000 0.000000 1.491819 0.171834 -1.856290 -1.573650 -0.273662 -8.235086 2.662359 1.369608 9.517146 0.000000 0.000000 0.000000 6.919841 0.272092 -3.624792 -1.801712 0.859447 0.097686 -4.553708 4.555552 6.554142 10.939054 -5.340929 -14.772444 0.000000 0.000000 0.000000 -11.195140 -8.125083 1.747846 -34.602916 2.023346 -4.354578 -10.764163 -39.855231 4.777703 0.000000 0.000000 0.000000 11.600960 -0.272349 -0.297180 38.129881 -3.100862 -4.866662 18.232146 39.037876 8.281777 0.000000 0.000000 0.000000 
0.019099 0.934460 0.223662 -2.332781 0.130863 1.615128 1.181200 0.169248 2.352983 -0.604598 0.136859 -2.486699 5.484255 12.203883 4.062875 0.000000 0.000000 0.000000 1.437012 0.180995 -1.938221 -1.163080 -0.289282 -8.277262 2.767858 1.487607 9.685593 0.000000 0.000000 0.000000 6.868732 0.257056 -3.486754 -1.775064 0.847912 -0.028514 -4.371685 4.573661 6.431526 10.968468 -5.376683 -14.712206 0.000000 0.000000 0.000000 -11.142409 -7.765829 1.606485 -34.698855 1.728099 -4.291438 -10.183988 -39.321016 4.514021 0.000000 0.000000 0.000000 11.599387 -0.328994 -0.340015 37.844193 -2.350490 -4.617228 18.419784 38.730260 8.260719 0.000000 0.000000 0.000000 
0.019458 0.934387 0.223128 -2.434864 -0.138548 1.760256 1.081855 0.145436 2.006737 -0.334330 0.103378 -2.157621 5.659210 12.516312 4.001000 0.000000 0.000000 0.000000 1.575858 0.197873 -2.111855 -1.252775 -0.290210 -8.360852 2.910818 1.688471 9.804196 0.000000 0.000000 0.000000 6.829389 0.251134 -3.451738 -1.805948 0.862746 -0.072762 -4.148874 4.589519 6.167393 10.959084 -5.325494 -14.938740 0.000000 0.000000 0.000000 -11.188190 -7.624962 1.561698 -35.026755 1.830478 -4.356042 -9.186323 -38.850216 4.128317 0.000000 0.000000 0.000000 11.679670 -0.104136 -0.263737 38.061709 -1.855693 -4.484893 18.349294 38.460299 8.146358 0.000000 0.000000 0.000000 
0.019807 0.934429 0.222631 -2.409260 -0.355939 1.768693 1.116966 0.135245 1.885908 -0.537792 0.116494 -1.973519 5.753129 12.695275 4.027080 0.000000 0.000000 0.000000 1.633704 0.223547 -2.348440 -1.452757 -0.266773 -8.042324 2.973449 1.833984 9.712081 0.000000 0.000000 0.000000 6.645781 0.225213 -3.209960 -1.600809 0.764123 0.037673 -4.131689 4.530571 5.633342 11.097686 -5.454739 -14.733941 0.000000 0.000000 0.000000 -11.338425 -7.508042 1.510504 -34.990424 1.999245 -4.364572 -8.158773 -37.882158 3.688388 0.000000 0.000000 0.000000 11.931979 -0.064268 -0.286745 38.304365 -1.616398 -4.402880 18.055796 38.326468 7.982937 0.000000 0.000000 0.000000 
0.020061 0.934349 0.222281 -2.508838 -0.288759 1.892642 1.209489 0.114859 1.679166 -0.527951 0.113299 -1.900233 5.750313 12.675862 3.942478 0.000000 0.000000 0.000000 1.943369 0.225401 -2.385751 -1.848766 -0.265152 -8.255891 2.972117 1.780012 9.834303 0.000000 0.000000 0.000000 6.608081 0.207821 -3.073273 -1.369227 0.655204 -0.136090 -4.120105 4.458344 5.411234 11.164274 -5.413780 -15.076760 0.000000 0.000000 0.000000 -11.196546 -7.508823 1.522410 -35.539878 1.840209 -4.388992 -7.274092 -36.750817 3.287903 0.000000 0.000000 0.000000 11.813811 -0.261775 -0.388639 39.103169 -1.482786 -4.422910 18.042235 37.887805 7.871858 0.000000 0.000000 0.000000 
0.020190 0.933991 0.222044 -2.537335 -0.187463 2.019672 1.290186 0.099034 1.522462 -0.614623 0.121640 -1.914277 5.726870 12.608195 3.795117 0.000000 0.000000 0.000000 2.167352 0.237729 -2.504084 -2.219384 -0.256646 -8.310480 2.910374 1.696685 9.772494 0.000000 0.000000 0.000000 6.619923 0.213568 -3.166047 -1.231888 0.589140 -0.104528 -4.139520 4.391478 5.201831 10.974687 -5.289946 -15.042118 0.000000 0.000000 0.000000 -10.976817 -7.445575 1.509329 -36.082884 1.875839 -4.466133 -6.543411 -36.049724 2.988299 0.000000 0.000000 0.000000 11.761174 -0.352800 -0.435953 40.380838 -2.091832 -4.713408 17.723610 38.054217 7.807990 0.000000 0.000000 0.000000 
0.020262 0.934187 0.221758 -2.465673 0.122182 2.054666 1.350732 0.061734 1.088025 -0.809465 0.122893 -1.309315 5.616080 12.386721 3.703319 0.000000 0.000000 0.000000 2.202255 0.228973 -2.422199 -2.439986 -0.262082 -8.515808 2.799948 1.452725 9.892337 0.000000 0.000000 0.000000 6.354683 0.173718 -2.813002 -0.862375 0.423548 -0.660854 -4.291171 4.253908 5.141298 10.843959 -5.224874 -14.911089 0.000000 0.000000 0.000000 -11.140665 -7.216376 1.381444 -36.299461 2.034326 -4.528738 -6.305486 -35.600198 2.869471 0.000000 0.000000 0.000000 11.932508 -0.454146 -0.479854 41.087419 -2.734643 -4.984839 18.192439 37.860688 7.934333 0.000000 0.000000 0.000000 
0.020311 0.933912 0.221407 -2.442200 0.521021 2.288224 1.403618 0.037873 0.828214 -0.877476 0.132001 -1.430547 5.453569 12.064731 3.586180 0.000000 0.000000 0.000000 2.061491 0.238178 -2.486136 -2.245128 -0.288977 -8.848706 2.643522 1.140083 9.988573 0.000000 0.000000 0.000000 6.351045 0.178653 -2.941290 -1.069780 0.524695 -0.858411 -4.198762 4.347785 5.203634 10.556010 -4.861202 -15.615654 0.000000 0.000000 0.000000 -10.365324 -6.815186 1.238487 -37.029420 1.703149 -4.549505 -5.898668 -35.720904 2.714469 0.000000 0.000000 0.000000 11.553096 -1.339176 -0.849627 42.857966 -3.498739 -5.417708 17.888504 37.208092 7.722591 0.000000 0.000000 0.000000 
0.020379 0.934778 0.220916 -2.288501 0.724238 2.094415 1.223319 0.024031 0.592514 -0.818807 0.107630 -0.739130 5.350987 11.905788 3.756090 0.000000 0.000000 0.000000 2.048031 0.193116 -2.089020 -2.534997 -0.303002 -9.204163 2.641200 0.998974 10.338109 0.000000 0.000000 0.000000 6.518650 0.151585 -2.612566 -1.174848 0.576347 -0.963254 -4.311134 3.813647 5.376981 9.946289 -4.766770 -14.438253 0.000000 0.000000 0.000000 -11.620600 -6.616778 1.101196 -37.377792 2.202419 -4.756011 -5.577656 -35.911399 2.681154 0.000000 0.000000 0.000000 12.744097 -1.402774 -0.979812 43.484133 -3.279272 -5.464349 16.483455 37.632168 7.308277 0.000000 0.000000 0.000000 
0.020479 0.935005 0.220426 -2.364493 0.483374 2.518368 1.702106 -0.024252 0.121085 -1.588083 0.185627 -0.750263 5.420288 12.065033 3.912887 0.000000 0.000000 0.000000 1.653221 0.267316 -2.726700 -1.682398 -0.312958 -8.989930 2.753934 1.135349 10.468754 0.000000 0.000000 0.000000 6.382234 0.160365 -2.805159 -1.825691 0.871171 -0.272596 -3.805797 4.043539 4.718024 11.066530 -5.502728 -14.263872 0.000000 0.000000 0.000000 -11.191774 -5.948938 0.832864 -38.303983 1.504956 -4.655500 -5.891854 -37.526816 2.888560 0.000000 0.000000 0.000000 11.688571 -2.017804 -1.239932 45.929100 -3.452854 -5.726720 14.877928 37.297704 6.714422 0.000000 0.000000 0.000000 
0.020634 0.935998 0.219751 -1.909782 1.046567 2.043951 1.531302 -0.004125 0.331999 -2.063987 0.226012 -0.399766 5.057803 11.459396 4.218585 0.000000 0.000000 0.000000 1.097530 0.154657 -1.655551 -1.595653 -0.369656 -9.958357 2.650622 0.759636 10.999518 0.000000 0.000000 0.000000 5.750488 0.107941 -2.197305 -1.674441 0.806606 -0.705640 -3.529017 3.896101 4.802802 9.580608 -4.870661 -12.678514 0.000000 0.000000 0.000000 -12.354285 -6.815575 1.093395 -37.822643 2.031122 -4.723071 -5.645153 -36.516810 2.742969 0.000000 0.000000 0.000000 13.333402 -1.216360 -0.908022 45.400806 -2.630689 -5.444606 12.689710 35.106522 5.553789 0.000000 0.000000 0.000000 
