HIERARCHY
ROOT Hips
{
	OFFSET -0.001795 -0.223333 0.028219
	CHANNELS 6 Xposition Yposition Zposition Zrotation Yrotation Xrotation 
	JOINT LeftUpLeg
	{
		OFFSET 0.069520 -0.091406 -0.006815
		CHANNELS 3 Zrotation Yrotation Xrotation
		JOINT LeftLeg
		{
			OFFSET 0.034277 -0.375199 -0.004496
			CHANNELS 3 Zrotation Yrotation Xrotation
			JOINT LeftFoot
			{
				OFFSET -0.013596 -0.397961 -0.043693
				CHANNELS 3 Zrotation Yrotation Xrotation
				JOINT LeftToe
				{
					OFFSET 0.026358 -0.055791 0.119288
					CHANNELS 3 Zrotation Yrotation Xrotation
					End Site
					{
						OFFSET 0.000000 0.000000 0.000000
					}
				}
			}
		}
	}
	JOINT RightUpLeg
	{
		OFFSET -0.067670 -0.090522 -0.004320
		CHANNELS 3 Zrotation Yrotation Xrotation
		JOINT RightLeg
		{
			OFFSET -0.038290 -0.382569 -0.008850
			CHANNELS 3 Zrotation Yrotation Xrotation
			JOINT RightFoot
			{
				OFFSET 0.015774 -0.398415 -0.042312
				CHANNELS 3 Zrotation Yrotation Xrotation
				JOINT RightToe
				{
					OFFSET -0.025372 -0.048144 0.123348
					CHANNELS 3 Zrotation Yrotation Xrotation
					End Site
					{
						OFFSET 0.000000 0.000000 0.000000
					}
				}
			}
		}
	}
	JOINT Spine
	{
		OFFSET -0.002533 0.108963 -0.026696
		CHANNELS 3 Zrotation Yrotation Xrotation
		JOINT Spine1
		{
			OFFSET 0.005487 0.135180 0.001092
			CHANNELS 3 Zrotation Yrotation Xrotation
			JOINT Spine2
			{
				OFFSET 0.001457 0.052922 0.025425
				CHANNELS 3 Zrotation Yrotation Xrotation
				JOINT Neck
				{
					OFFSET -0.002778 0.213870 -0.042857
					CHANNELS 3 Zrotation Yrotation Xrotation
					JOINT Head
					{
						OFFSET 0.005152 0.064970 0.051349
						CHANNELS 3 Zrotation Yrotation Xrotation
						End Site
						{
							OFFSET 0.000000 0.000000 0.000000
						}
					}
				}
				JOINT LeftShoulder
				{
					OFFSET 0.078845 0.121749 -0.034090
					CHANNELS 3 Zrotation Yrotation Xrotation
					JOINT LeftArm
					{
						OFFSET 0.090977 0.030469 -0.008868
						CHANNELS 3 Zrotation Yrotation Xrotation
						JOINT LeftForeArm
						{
							OFFSET 0.259612 -0.012772 -0.027456
							CHANNELS 3 Zrotation Yrotation Xrotation
							JOINT LeftHand
							{
								OFFSET 0.249234 0.008986 -0.001171
								CHANNELS 3 Zrotation Yrotation Xrotation
								End Site
								{
									OFFSET 0.000000 0.000000 0.000000
								}
							}
						}
					}
				}
				JOINT RightShoulder
				{
					OFFSET -0.081759 0.118833 -0.038615
					CHANNELS 3 Zrotation Yrotation Xrotation
					JOINT RightArm
					{
						OFFSET -0.096012 0.032551 -0.009143
						CHANNELS 3 Zrotation Yrotation Xrotation
						JOINT RightForeArm
						{
							OFFSET -0.253742 -0.013329 -0.021401
							CHANNELS 3 Zrotation Yrotation Xrotation
							JOINT RightHand
							{
								OFFSET -0.255298 0.007772 -0.005559
								CHANNELS 3 Zrotation Yrotation Xrotation
								End Site
								{
									OFFSET 0.000000 0.000000 0.000000
								}
							}
						}
					}
				}
			}
		}
	}
}
MOTION
Frames: 120
Frame Time: 0.050000
0.000000 0.961522 0.000000 -1.519182 11.668209 -1.857493 1.623188 0.391985 7.909934 -2.161274 0.235855 -4.322841 0.641916 8.884482 17.742401 0.000000 0.000000 0.000000 1.713011 -0.510284 3.954493 0.916824 -0.091122 1.282307 -1.733424 -6.942420 13.303210 0.000000 0.000000 0.000000 -0.597327 -0.483573 10.827961 3.923988 -0.065263 -24.507886 -0.535620 -1.287243 27.341691 1.473936 0.866674 -16.571713 0.000000 0.000000 0.000000 -29.168790 -1.810470 -3.249290 -46.635420 -2.557422 -6.152408 -9.466128 -21.934977 2.658540 0.000000 0.000000 0.000000 21.203441 5.115457 3.722301 51.485494 9.122747 -4.232994 0.522693 24.378152 1.408223 0.000000 0.000000 0.000000 
0.001266 0.960437 0.001089 -1.493484 12.349716 -1.492463 1.562712 0.373285 7.648812 -2.139981 0.230318 -4.365520 0.458685 8.465849 16.927722 0.000000 0.000000 0.000000 1.396179 -0.275762 2.217911 2.088069 -0.245581 4.057766 -2.944970 -9.063574 12.318407 0.000000 0.000000 0.000000 -0.230225 -0.510492 10.631523 3.797914 0.016930 -25.325871 -1.431385 -1.168239 28.222663 1.974900 0.546926 -16.178262 0.000000 0.000000 0.000000 -28.518600 -1.482069 -3.561373 -47.707662 -2.601678 -6.333556 -9.323385 -22.400641 2.680836 0.000000 0.000000 0.000000 22.368287 5.208099 4.088005 51.866044 8.682914 -4.601318 -0.534209 24.711746 1.263216 0.000000 0.000000 0.000000 
0.002535 0.959543 0.003222 -1.309727 11.926072 -1.175796 1.465722 0.351777 6.837414 -2.465460 0.238348 -2.927196 0.648285 8.422945 16.115620 0.000000 0.000000 0.000000 1.415725 -0.058396 0.457435 2.253067 -0.272821 6.676602 -3.928788 -10.999338 11.984203 0.000000 0.000000 0.000000 -0.660716 -0.490442 11.076937 3.839186 0.028371 -25.942066 -1.408314 -1.300094 29.223036 1.424121 0.878992 -16.181326 0.000000 0.000000 0.000000 -28.748979 -1.427345 -3.406058 -47.854737 -3.553802 -6.159394 -9.029844 -22.210624 2.638605 0.000000 0.000000 0.000000 21.919275 5.079688 3.875587 51.469505 8.413026 -4.748926 1.620444 25.173161 1.700392 0.000000 0.000000 0.000000 
0.003584 0.958282 0.006854 -1.211462 11.407632 -1.440615 0.819380 0.464719 7.656994 -1.548259 0.177857 -2.231875 0.617432 7.401256 13.390605 0.000000 0.000000 0.000000 1.434021 0.185595 -1.609528 3.354076 -0.586733 11.852414 -5.467251 -14.037818 9.985535 0.000000 0.000000 0.000000 -0.896364 -0.488304 11.509562 4.274434 -0.098543 -25.741804 -1.514868 -1.212620 29.666535 1.731471 0.628862 -16.284979 0.000000 0.000000 0.000000 -29.934545 -0.759169 -3.935346 -47.638458 -3.466473 -6.180527 -9.819591 -22.859166 2.900335 0.000000 0.000000 0.000000 21.613307 5.137158 3.823809 51.523720 8.464827 -4.750813 1.668868 24.883847 1.683117 0.000000 0.000000 0.000000 
0.004367 0.957242 0.012691 -1.212386 11.254385 -1.765824 1.190032 0.456738 8.163215 -2.139072 0.199862 -1.048023 0.602861 6.662262 11.489326 0.000000 0.000000 0.000000 0.833003 0.576344 -5.398454 4.742301 -1.301056 19.490823 -6.112661 -15.302371 11.161239 0.000000 0.000000 0.000000 -1.604461 -0.490083 12.886360 5.582008 -0.426085 -25.543973 -2.544856 -1.133215 29.283625 2.437781 0.022631 -15.572629 0.000000 0.000000 0.000000 -30.252247 -0.227488 -4.326532 -47.278423 -3.731140 -5.981600 -9.814441 -23.578730 2.994212 0.000000 0.000000 0.000000 21.769092 4.937375 3.672936 51.364452 8.524163 -4.674059 1.739095 24.811811 1.688645 0.000000 0.000000 0.000000 
0.004605 0.956582 0.021518 -1.445063 11.441826 -2.413754 1.786968 0.448976 9.499824 -2.365214 0.206105 -0.349317 0.296220 5.369712 9.463706 0.000000 0.000000 0.000000 0.473487 0.920073 -9.323868 5.836672 -2.335980 27.794752 -6.428320 -15.856340 14.728654 0.000000 0.000000 0.000000 -2.343584 -0.469342 13.898216 6.042527 -0.553997 -25.489813 -2.129840 -2.712490 29.962482 1.517107 0.579981 -16.981894 0.000000 0.000000 0.000000 -31.130774 -0.135971 -3.857169 -46.338064 -4.482095 -5.831695 -11.615332 -23.542763 3.434830 0.000000 0.000000 0.000000 20.968287 4.562023 2.994924 51.514940 8.128387 -4.808613 2.393872 24.831970 1.788496 0.000000 0.000000 0.000000 
0.004098 0.956957 0.034322 -2.009805 10.574285 -2.895740 2.643019 0.438312 11.511244 -2.633508 0.241205 -1.003000 0.436323 5.269606 8.875538 0.000000 0.000000 0.000000 -0.444082 1.158574 -13.415789 8.235218 -3.832759 33.371534 -6.711080 -16.503669 22.431589 0.000000 0.000000 0.000000 -2.379531 -0.510304 14.922661 6.998132 -0.797638 -25.786463 -3.185536 -3.474625 30.390937 2.209742 -0.115471 -17.412420 0.000000 0.000000 0.000000 -31.474391 0.252228 -3.544448 -45.219483 -4.782648 -5.801933 -11.821383 -23.433075 3.514586 0.000000 0.000000 0.000000 21.663160 4.222061 2.430637 51.062789 7.440829 -5.041447 3.571040 25.615781 2.066877 0.000000 0.000000 0.000000 
0.002474 0.956844 0.051534 -2.676864 8.679392 -3.439700 3.271138 0.483380 13.789147 -2.747979 0.267935 -1.629435 1.422997 6.819568 9.063245 0.000000 0.000000 0.000000 -1.199228 1.330967 -16.918565 10.201283 -4.476262 33.998004 -8.596216 -19.290238 32.412780 0.000000 0.000000 0.000000 -2.444998 -0.518757 15.853354 7.830656 -1.017080 -26.103273 -3.012148 -3.773029 30.835737 0.455149 1.002751 -18.737955 0.000000 0.000000 0.000000 -31.686813 0.488954 -3.006283 -45.100839 -5.582400 -5.777983 -12.565489 -23.688479 3.794081 0.000000 0.000000 0.000000 20.254795 3.769186 1.720136 52.373205 6.657370 -5.379102 3.825072 26.362472 2.168914 0.000000 0.000000 0.000000 
-0.000629 0.955170 0.072567 -3.182884 6.823900 -3.661598 3.500553 0.605350 16.433455 -2.584289 0.281714 -3.219870 2.763056 9.093492 9.766652 0.000000 0.000000 0.000000 -1.167140 1.502705 -18.628187 10.441848 -3.766078 29.639883 -10.602073 -21.891356 32.028328 0.000000 0.000000 0.000000 -2.131036 -0.548172 16.337121 8.503927 -1.255574 -25.626570 -3.498032 -3.855535 30.437016 0.302913 1.006831 -20.140956 0.000000 0.000000 0.000000 -31.845752 0.723183 -2.648495 -44.849609 -5.902666 -5.760087 -12.503613 -24.080172 3.895165 0.000000 0.000000 0.000000 20.199474 3.624365 1.263528 52.612609 6.152648 -5.491985 4.155728 25.969532 2.144550 0.000000 0.000000 0.000000 
-0.005309 0.952713 0.096920 -3.497892 5.297514 -3.594299 3.728910 0.721865 18.818007 -2.316557 0.286949 -4.620214 3.599445 10.606810 10.844107 0.000000 0.000000 0.000000 -1.111184 1.723925 -20.887550 9.616848 -2.708822 23.783620 -9.606414 -21.389571 20.270471 0.000000 0.000000 0.000000 -1.663246 -0.620543 17.200142 8.651914 -1.232375 -26.565376 -3.812949 -4.475366 30.481714 -0.214678 1.107567 -20.366208 0.000000 0.000000 0.000000 -31.580018 1.227854 -2.264098 -45.008153 -6.573482 -5.768113 -12.833563 -24.804818 4.180121 0.000000 0.000000 0.000000 19.670932 3.154882 0.575542 53.481111 4.763853 -6.068670 4.239629 26.602228 2.168290 0.000000 0.000000 0.000000 
-0.011822 0.947959 0.124902 -3.612324 3.679238 -3.176498 3.690878 0.894963 20.534726 -2.064801 0.288548 -5.226698 4.925092 12.819991 12.085981 0.000000 0.000000 0.000000 -1.058462 1.940981 -22.716015 8.597272 -1.818868 17.367693 -9.732710 -21.858765 18.784064 0.000000 0.000000 0.000000 -1.161137 -0.673967 17.660920 8.831355 -1.231209 -27.138751 -4.111200 -4.625988 30.316443 -0.244277 1.020804 -21.997324 0.000000 0.000000 0.000000 -31.201397 1.785056 -2.145751 -45.156317 -7.101692 -5.712115 -12.849838 -25.735005 4.409904 0.000000 0.000000 0.000000 20.453297 2.835801 0.007600 53.125723 3.833792 -6.338211 3.433473 26.099426 1.883253 0.000000 0.000000 0.000000 
-0.020296 0.941740 0.156973 -3.134723 1.978997 -2.557156 3.103772 1.231063 22.344071 -1.061444 0.232465 -4.971485 4.639664 12.264281 12.024678 0.000000 0.000000 0.000000 -0.436293 2.210803 -23.535146 7.253666 -1.186552 12.837491 -9.225784 -21.221167 21.259700 0.000000 0.000000 0.000000 -1.183361 -0.641696 18.249271 9.720186 -1.315708 -28.306671 -5.248126 -4.558220 30.319316 0.242859 0.587984 -22.975965 0.000000 0.000000 0.000000 -30.880027 1.952043 -1.798921 -45.288031 -7.107541 -5.844558 -12.881358 -26.948433 4.703977 0.000000 0.000000 0.000000 20.939510 3.056847 -0.227310 53.707985 2.985843 -6.681086 1.985725 25.036572 1.452763 0.000000 0.000000 0.000000 
-0.031211 0.935698 0.195159 -2.972202 1.682979 -2.817722 3.393698 1.274106 23.825971 -0.355515 0.103403 -2.105787 4.320417 11.689508 11.697303 0.000000 0.000000 0.000000 0.507076 2.427407 -23.733428 7.084416 -1.175796 14.149843 -9.268969 -21.211462 24.597804 0.000000 0.000000 0.000000 -0.814680 -0.699509 18.445615 8.989926 -1.267336 -27.326127 -4.933369 -5.984369 29.200144 0.480034 0.188188 -23.185571 0.000000 0.000000 0.000000 -30.712160 1.799820 -1.122138 -45.536451 -8.907005 -5.301937 -12.722973 -26.962903 4.715145 0.000000 0.000000 0.000000 21.388495 3.392030 -0.594453 54.098331 1.603615 -7.094774 0.171753 24.310189 0.967016 0.000000 0.000000 0.000000 
-0.044501 0.933032 0.240697 -2.309400 0.365356 -2.781031 3.235045 1.498078 24.821707 -0.559679 0.024373 1.255321 4.501323 12.284087 13.934383 0.000000 0.000000 0.000000 0.687786 2.498351 -23.495567 8.246652 -1.505808 17.405014 -10.221613 -22.672635 25.734566 0.000000 0.000000 0.000000 -1.183196 -0.556061 17.348245 10.150103 -1.643169 -26.373092 -5.919984 -6.722946 28.479841 0.030209 0.236375 -23.176815 0.000000 0.000000 0.000000 -31.386364 2.594033 -1.171410 -44.827054 -8.554777 -5.452231 -12.215464 -28.091100 4.844720 0.000000 0.000000 0.000000 22.292533 4.024958 -0.863593 52.962870 0.147680 -7.328455 -0.286668 24.335324 0.779419 0.000000 0.000000 0.000000 
-0.059802 0.937272 0.291327 -2.397828 -1.558377 -2.440450 4.703077 1.282884 23.783117 -1.776664 0.076098 7.222495 3.396088 11.403160 19.389597 0.000000 0.000000 0.000000 2.734389 2.811746 -22.285940 7.467791 -1.253139 20.547865 -9.110931 -21.542124 23.741680 0.000000 0.000000 0.000000 0.214568 -0.635127 15.160426 10.662329 -1.775953 -26.360205 -6.806530 -6.555662 28.578420 -0.602880 0.416442 -21.273841 0.000000 0.000000 0.000000 -31.498447 3.126120 -1.102718 -44.606343 -7.934484 -5.815290 -13.148837 -28.279350 5.187784 0.000000 0.000000 0.000000 21.342577 3.951072 -1.095142 53.057180 -0.204907 -7.501113 0.395212 22.606951 0.798640 0.000000 0.000000 0.000000 
-0.075806 0.947062 0.341778 -2.158644 -3.610730 -3.127401 6.026283 0.964678 19.676844 -2.793276 0.289121 20.208204 0.959616 9.063887 25.673386 0.000000 0.000000 0.000000 4.693138 2.540025 -17.862033 6.652254 -0.874888 21.104448 -8.351173 -20.740217 19.757115 0.000000 0.000000 0.000000 1.275521 -0.698845 14.356590 10.421212 -1.850337 -25.628418 -6.205732 -6.754080 27.948628 -0.985248 0.457667 -21.580760 0.000000 0.000000 0.000000 -32.520603 2.652511 -0.206411 -44.431616 -7.395652 -6.143241 -13.360563 -28.459034 5.315519 0.000000 0.000000 0.000000 19.191009 4.535175 -0.906109 53.331657 -0.629740 -7.696647 1.953535 22.817891 1.010286 0.000000 0.000000 0.000000 
-0.091700 0.956283 0.388292 -2.182303 -6.983332 -4.071020 6.506584 0.699849 12.633449 -3.195979 1.129674 35.074508 -0.626031 7.631228 30.053682 0.000000 0.000000 0.000000 6.697354 1.868930 -12.187919 5.192391 -0.270458 19.309686 -6.246478 -17.794603 17.175264 0.000000 0.000000 0.000000 2.315567 -0.783015 14.844191 9.816391 -1.600109 -26.904515 -5.989309 -4.926946 29.085776 -0.196239 -0.160575 -20.227610 0.000000 0.000000 0.000000 -32.440364 2.515498 0.183754 -44.338087 -7.079828 -6.438489 -14.137591 -29.050274 5.698965 0.000000 0.000000 0.000000 18.837299 4.227152 -1.098599 52.825196 -0.481027 -7.681805 4.179665 23.413335 1.439048 0.000000 0.000000 0.000000 
-0.107361 0.964859 0.431450 -1.470426 -11.549842 -5.228848 5.393603 0.518741 6.171988 -3.043596 2.709429 44.456158 0.895127 8.195121 25.785229 0.000000 0.000000 0.000000 7.582112 0.792025 -5.730910 3.155948 0.294391 15.812586 -3.421651 -13.526614 15.409241 0.000000 0.000000 0.000000 1.454504 -0.588880 15.092197 10.288378 -1.963164 -25.461250 -5.248401 -2.512204 28.765601 0.137336 -0.420522 -19.400870 0.000000 0.000000 0.000000 -32.521929 2.484143 0.399309 -45.039502 -7.242197 -6.496343 -13.335335 -29.579417 5.628339 0.000000 0.000000 0.000000 19.241897 5.269873 -0.753524 51.489848 0.108369 -7.152276 5.417757 26.297830 1.846364 0.000000 0.000000 0.000000 
-0.123839 0.972051 0.472986 -0.691227 -16.792291 -5.831169 3.878785 0.214563 0.631046 -2.589007 4.206114 46.241418 3.792779 10.468325 18.454363 0.000000 0.000000 0.000000 7.874112 -0.173232 -0.005010 1.024063 0.568260 11.592909 -0.415539 -9.366218 15.606969 0.000000 0.000000 0.000000 0.504749 -0.368515 14.688130 9.694755 -1.912782 -25.257854 -3.741077 0.092621 29.694097 -0.428452 -0.111305 -19.790963 0.000000 0.000000 0.000000 -32.418041 2.941775 0.538984 -45.332050 -7.236009 -6.739312 -13.705148 -29.896175 5.884695 0.000000 0.000000 0.000000 17.993756 5.831935 -0.493372 51.696377 1.417668 -6.792870 7.675845 29.356314 2.562310 0.000000 0.000000 0.000000 
-0.141528 0.976534 0.513767 0.309481 -22.003596 -5.853124 3.075064 -0.142375 -5.269911 -2.496978 4.951970 42.310002 5.494099 11.989690 13.185447 0.000000 0.000000 0.000000 7.552762 -0.846960 4.955678 -0.632383 0.574463 7.883116 1.714867 -6.070157 14.485587 0.000000 0.000000 0.000000 -0.690910 -0.154760 13.371250 9.714314 -2.208529 -23.425087 -3.044404 2.338853 29.162892 -1.263244 0.343060 -19.068597 0.000000 0.000000 0.000000 -32.117852 3.958955 0.260321 -46.403793 -7.344160 -6.863893 -13.499717 -29.690578 5.889989 0.000000 0.000000 0.000000 17.633452 7.023907 -0.164930 51.135293 3.001105 -5.971017 9.357692 31.687962 3.096074 0.000000 0.000000 0.000000 
-0.160202 0.976405 0.554835 1.126041 -26.957503 -6.682350 1.970437 -0.352631 -8.747750 -2.084945 4.004033 33.562308 6.580667 13.123691 10.222802 0.000000 0.000000 0.000000 6.788179 -1.190449 10.044658 -1.893332 0.516483 5.327468 3.631470 -2.896121 13.495376 0.000000 0.000000 0.000000 -1.812000 0.068820 13.645500 9.639894 -2.167638 -23.773278 -2.297982 4.645647 30.114977 -2.212169 0.876051 -20.853777 0.000000 0.000000 0.000000 -31.977056 4.732322 0.183380 -46.186928 -6.997295 -7.182092 -14.663520 -29.425155 6.226658 0.000000 0.000000 0.000000 17.193227 7.548940 -0.068614 50.904058 4.844717 -5.301887 10.370384 33.135125 3.443767 0.000000 0.000000 0.000000 
-0.180382 0.971687 0.596603 1.505443 -31.360714 -6.559163 1.804272 -0.341307 -10.913074 -2.309798 2.279446 20.872158 6.818270 12.754609 10.613614 0.000000 0.000000 0.000000 5.845586 -1.116335 13.945483 -2.218577 0.386700 3.505778 4.692561 -0.514372 11.955403 0.000000 0.000000 0.000000 -2.426167 0.138935 12.263009 9.894259 -2.445342 -22.308991 -1.985863 7.064595 29.898861 -3.896068 1.976033 -21.805562 0.000000 0.000000 0.000000 -31.610911 4.814973 0.346499 -46.705633 -6.326441 -7.504337 -15.383823 -29.222600 6.433690 0.000000 0.000000 0.000000 17.693995 8.048592 -0.051934 50.387676 5.959802 -4.698632 10.901246 33.929128 3.615279 0.000000 0.000000 0.000000 
-0.202493 0.963365 0.639791 1.738380 -35.155478 -6.647496 0.799136 -0.439511 -11.862929 -0.562238 0.398757 7.775396 4.613041 8.335938 10.708316 0.000000 0.000000 0.000000 4.643672 -0.718467 17.188286 -2.631109 0.445493 3.827542 5.874847 3.032230 9.748356 0.000000 0.000000 0.000000 -3.235036 0.258591 11.636886 9.780274 -2.700479 -20.218248 -1.580249 8.247436 28.147304 -3.921941 1.855694 -21.846563 0.000000 0.000000 0.000000 -31.336538 6.304414 -0.508317 -47.134953 -5.175422 -7.792474 -15.824637 -29.730728 6.766479 0.000000 0.000000 0.000000 17.248954 8.487678 -0.064943 50.462808 6.380715 -4.342592 11.793539 34.144750 3.749909 0.000000 0.000000 0.000000 
-0.226778 0.954396 0.685390 1.908771 -38.955662 -7.231493 0.399433 -0.425687 -11.050005 -0.220778 0.115101 -2.589707 3.580740 5.740300 15.989424 0.000000 0.000000 0.000000 3.006840 0.061859 20.414511 -2.530786 0.562765 5.275789 6.971918 6.114430 8.349139 0.000000 0.000000 0.000000 -3.426444 0.318042 11.696868 10.250065 -2.982810 -19.238288 -2.086647 11.017658 27.127635 -4.639991 2.582040 -20.784059 0.000000 0.000000 0.000000 -31.568836 6.108218 -0.720486 -46.294028 -4.287294 -7.917265 -15.579424 -29.216911 6.458398 0.000000 0.000000 0.000000 18.808703 8.209826 -0.254212 49.797817 6.166335 -4.286638 12.784137 33.065359 3.993767 0.000000 0.000000 0.000000 
-0.253713 0.946941 0.734860 2.496126 -41.312743 -7.841045 -1.891981 -0.768117 -10.531184 0.584881 0.053932 -4.653853 5.007252 7.111837 22.498103 0.000000 0.000000 0.000000 1.454292 0.955477 22.907611 -2.637562 0.829146 7.667520 7.750117 7.153987 8.622770 0.000000 0.000000 0.000000 -4.115846 0.316918 10.076620 9.636283 -3.062971 -17.526864 -2.046796 11.665321 27.393534 -4.792863 2.430824 -22.486620 0.000000 0.000000 0.000000 -32.025013 6.631131 -0.680126 -45.886214 -4.974145 -7.781172 -13.234640 -27.513580 5.439343 0.000000 0.000000 0.000000 19.615535 8.626017 -0.489885 50.682811 7.168156 -3.847929 9.916794 31.698267 3.006588 0.000000 0.000000 0.000000 
-0.284046 0.942189 0.789271 2.581465 -42.764904 -8.675096 -2.786752 -0.877667 -10.085024 -0.167126 0.110909 0.447448 6.151448 8.554904 22.506862 0.000000 0.000000 0.000000 -0.278879 1.556106 22.720994 -2.050338 1.748629 14.633287 10.711563 7.398274 14.020255 0.000000 0.000000 0.000000 -4.780183 0.330153 8.978874 8.529108 -2.943744 -16.564446 -1.431791 12.535371 27.326598 -5.842689 3.293109 -19.666085 0.000000 0.000000 0.000000 -30.814349 6.791462 -0.786350 -46.886557 -4.518529 -7.965089 -10.626380 -25.908659 4.480854 0.000000 0.000000 0.000000 20.894503 8.870936 -0.651708 51.298672 6.105015 -4.173091 7.976240 29.959612 2.370134 0.000000 0.000000 0.000000 
-0.315308 0.946549 0.845702 2.525463 -44.016822 -9.041364 -3.842092 -0.972423 -8.981027 -0.234657 0.379542 5.941047 7.834541 11.335227 19.499178 0.000000 0.000000 0.000000 -3.157525 1.708551 17.844324 0.353013 3.977831 27.320039 14.262779 5.932831 23.275655 0.000000 0.000000 0.000000 -6.092256 0.388315 7.341450 8.712770 -3.068503 -15.308698 -1.051061 12.422191 27.421646 -5.203442 2.719374 -18.924525 0.000000 0.000000 0.000000 -30.305397 7.332445 -0.875051 -47.008090 -3.664732 -8.300880 -10.878706 -26.964084 4.848675 0.000000 0.000000 0.000000 20.140852 8.188844 -1.125354 51.915462 4.826563 -4.781803 9.354667 29.857144 2.607473 0.000000 0.000000 0.000000 
-0.344231 0.953987 0.899077 2.140309 -43.456926 -9.473668 -5.011406 -0.883275 -5.607488 -0.383370 0.561783 7.766377 8.710889 13.446761 17.260436 0.000000 0.000000 0.000000 -4.176728 0.915916 9.655728 5.475865 7.047005 43.464985 12.004093 -1.318592 32.519910 0.000000 0.000000 0.000000 -7.064681 0.496493 7.403022 8.919194 -3.141851 -15.058031 -0.741442 9.961580 26.878639 -6.730466 3.632989 -17.080688 0.000000 0.000000 0.000000 -29.334756 8.404321 -1.156660 -47.739721 -3.535767 -8.297844 -12.046907 -26.774928 5.187572 0.000000 0.000000 0.000000 18.355789 8.155405 -1.309339 53.200340 3.183983 -5.646188 9.449710 28.224331 2.333458 0.000000 0.000000 0.000000 
-0.370593 0.960661 0.947648 1.676725 -42.337276 -9.807554 -5.421267 -0.458235 -1.571826 -0.124020 0.469929 7.873199 7.156071 11.478196 15.987605 0.000000 0.000000 0.000000 -5.676244 0.711198 1.944065 12.653357 6.790749 53.836850 5.327999 -9.005667 35.693723 0.000000 0.000000 0.000000 -7.381922 0.547017 7.916469 9.772648 -3.347994 -15.000070 -2.340168 8.126319 26.503460 -7.192077 3.888489 -16.514691 0.000000 0.000000 0.000000 -28.692055 9.001015 -1.373872 -47.054146 -3.217469 -8.291176 -13.203274 -28.274504 5.883213 0.000000 0.000000 0.000000 18.418497 7.791314 -1.743047 53.662901 1.721347 -6.306337 9.645608 29.422325 2.406883 0.000000 0.000000 0.000000 
-0.395341 0.966805 0.992627 0.849699 -42.433353 -10.203956 -5.483760 0.172241 2.491430 0.047323 0.461803 8.343857 6.659944 11.033434 15.128402 0.000000 0.000000 0.000000 -5.384937 0.753920 -5.116681 15.649900 6.418383 57.490973 -1.297414 -14.633956 27.707294 0.000000 0.000000 0.000000 -6.454694 0.505520 9.188010 9.478906 -3.190605 -16.423869 -3.016524 6.690410 27.943630 -9.213567 5.358108 -15.717200 0.000000 0.000000 0.000000 -28.343831 9.264825 -0.952274 -46.747775 -4.270539 -8.165876 -12.859411 -30.346207 6.416882 0.000000 0.000000 0.000000 19.133357 7.522073 -2.500837 52.576472 0.526934 -6.629854 11.786814 29.955724 2.858204 0.000000 0.000000 0.000000 
-0.419310 0.969543 1.034873 -0.102822 -39.935755 -10.006434 -5.842953 0.980458 6.570362 0.901311 0.091720 7.264292 5.894962 10.358254 13.952869 0.000000 0.000000 0.000000 -4.885943 1.156916 -10.945673 14.456876 5.508883 53.515027 -4.366360 -16.614107 16.716318 0.000000 0.000000 0.000000 -6.173727 0.524776 10.260891 10.797472 -3.386970 -17.012730 -4.795087 4.568455 28.557508 -8.541315 4.717080 -15.730776 0.000000 0.000000 0.000000 -27.148537 9.574470 -1.048132 -47.375098 -6.284170 -7.504976 -12.555072 -31.091022 6.628499 0.000000 0.000000 0.000000 19.303948 7.316312 -2.823092 52.072752 0.782932 -6.421122 12.137881 29.127526 2.830220 0.000000 0.000000 0.000000 
-0.442404 0.967660 1.075037 -1.287283 -37.888136 -9.273658 -5.117874 1.710907 9.947669 2.064726 -0.241266 7.182595 3.383792 6.549611 10.699889 0.000000 0.000000 0.000000 -3.304735 1.598476 -14.392077 8.323645 5.113400 42.370391 -3.458212 -14.744043 12.948886 0.000000 0.000000 0.000000 -5.722704 0.498030 11.033012 11.187048 -3.396451 -17.653378 -4.946402 3.356744 29.781609 -8.463655 4.545448 -16.800981 0.000000 0.000000 0.000000 -26.680900 8.641787 -0.404799 -47.513684 -8.164705 -6.932593 -11.235808 -33.393365 6.824050 0.000000 0.000000 0.000000 20.482694 6.353043 -3.599252 50.147626 -0.305181 -6.514755 12.934629 30.075493 3.136179 0.000000 0.000000 0.000000 
-0.465440 0.962121 1.114338 -1.826910 -34.453515 -8.892028 -4.653444 2.272649 12.553067 2.764867 -0.460700 7.139458 2.142722 4.649383 9.133743 0.000000 0.000000 0.000000 -1.970427 1.768441 -15.244774 2.140370 3.160299 26.834311 0.250335 -8.762691 12.267670 0.000000 0.000000 0.000000 -5.730864 0.501403 11.645913 11.836573 -3.651221 -16.992231 -5.175294 1.908990 29.347250 -8.362028 4.516510 -17.178131 0.000000 0.000000 0.000000 -26.475737 7.840604 -0.181584 -47.318797 -10.160266 -6.083412 -11.243697 -35.384001 7.285905 0.000000 0.000000 0.000000 20.565932 5.355021 -3.858184 49.488869 -0.654258 -6.532844 13.266810 28.395396 3.098910 0.000000 0.000000 0.000000 
-0.488728 0.953707 1.154591 -1.775140 -31.093564 -8.620531 -4.189561 2.579864 14.217281 3.232179 -0.580995 9.073738 0.583903 1.826137 6.247247 0.000000 0.000000 0.000000 -1.636147 1.817295 -15.598619 -0.539259 1.049097 11.756063 7.632658 2.704891 14.996292 0.000000 0.000000 0.000000 -5.378661 0.426869 11.798972 11.814429 -3.560379 -17.521849 -5.087222 1.531370 30.141655 -7.854894 4.415924 -16.547040 0.000000 0.000000 0.000000 -26.765645 6.378439 0.437960 -47.247018 -12.057853 -5.434137 -10.280848 -36.688619 7.170267 0.000000 0.000000 0.000000 20.530729 3.567563 -4.290164 48.917421 -1.944109 -7.151153 13.798383 29.017391 3.405711 0.000000 0.000000 0.000000 
-0.513344 0.944994 1.196350 -2.106399 -27.588850 -7.988719 -3.893589 2.885263 15.979848 5.426619 -1.133582 10.082987 -0.838331 -0.998266 5.170670 0.000000 0.000000 0.000000 -1.432004 2.001241 -16.848803 -1.636435 0.439073 4.721156 14.186979 10.119687 21.541605 0.000000 0.000000 0.000000 -4.165973 0.221426 11.696621 12.432192 -3.897603 -16.250302 -5.924550 0.608104 28.843952 -8.457781 5.372315 -14.600038 0.000000 0.000000 0.000000 -27.788721 6.208462 -0.019814 -46.938573 -12.267866 -5.149634 -11.586287 -38.272743 7.824783 0.000000 0.000000 0.000000 20.419940 2.993858 -4.054114 49.575566 -3.534048 -7.969516 12.519167 29.361983 3.284530 0.000000 0.000000 0.000000 
-0.541058 0.937681 1.239466 -1.548830 -22.800326 -7.878813 -2.668041 2.853024 17.136694 5.791648 -1.337483 12.447193 -2.641540 -4.361664 5.392070 0.000000 0.000000 0.000000 -2.411204 1.904130 -17.283119 -1.261922 0.384098 4.524940 16.421912 10.508271 27.133671 0.000000 0.000000 0.000000 -3.612152 0.102707 11.703802 12.239375 -3.628915 -17.847536 -6.502915 -0.682583 30.328030 -8.472458 5.855215 -12.221490 0.000000 0.000000 0.000000 -30.189687 6.219246 -0.272450 -44.767126 -13.661474 -4.868550 -12.573722 -39.000458 8.197558 0.000000 0.000000 0.000000 20.880526 1.657833 -4.463595 49.756172 -4.572778 -8.640285 10.679091 30.695274 3.115976 0.000000 0.000000 0.000000 
-0.571903 0.934451 1.282172 -1.641153 -18.412888 -7.611543 -0.244928 2.379732 17.066519 7.894653 -2.106040 16.895278 -7.787467 -12.775581 8.184477 0.000000 0.000000 0.000000 -2.718228 1.739288 -16.906093 -0.646110 0.669126 9.158284 13.728085 9.715878 23.544163 0.000000 0.000000 0.000000 -1.902738 -0.128761 11.448449 11.352326 -3.313886 -18.425155 -6.987241 -1.334137 31.294839 -9.344034 6.873110 -12.150712 0.000000 0.000000 0.000000 -30.498910 5.770881 -0.606186 -46.079227 -13.286965 -4.999222 -11.874791 -39.330929 7.959687 0.000000 0.000000 0.000000 22.523771 1.278047 -4.449951 49.259831 -5.783143 -9.123090 10.078797 32.183495 3.317376 0.000000 0.000000 0.000000 
-0.601649 0.938841 1.321017 -2.047904 -14.801058 -6.894673 0.455460 1.759015 14.484470 9.841809 -3.103825 23.073460 -7.503444 -9.872713 12.000864 0.000000 0.000000 0.000000 -2.734037 1.605379 -16.380710 0.423735 0.727736 12.640552 11.450308 9.517367 19.526066 0.000000 0.000000 0.000000 -0.666702 -0.278340 11.108160 10.629651 -3.157045 -17.855635 -6.497969 -1.636447 31.119249 -9.867778 7.788251 -10.564003 0.000000 0.000000 0.000000 -31.372482 5.944155 -1.581186 -45.966875 -12.467131 -5.068306 -12.628884 -39.782920 8.153953 0.000000 0.000000 0.000000 22.830219 1.291505 -3.838687 49.416027 -5.414478 -9.123125 8.281035 32.769230 3.070358 0.000000 0.000000 0.000000 
-0.627092 0.948058 1.353673 -3.155080 -9.501238 -6.093141 3.436758 0.807068 9.520567 8.334640 -3.450640 30.541197 -5.055745 -3.041803 16.382284 0.000000 0.000000 0.000000 -1.455184 1.473453 -14.814717 0.491253 0.720085 14.325773 8.629085 7.122448 17.015672 0.000000 0.000000 0.000000 0.772330 -0.462367 11.373171 10.214489 -2.815857 -18.894020 -5.384005 -1.784654 31.513598 -11.319313 9.192249 -11.910205 0.000000 0.000000 0.000000 -32.319183 5.987944 -2.939726 -46.844683 -11.359961 -5.243411 -13.471256 -40.674867 8.480299 0.000000 0.000000 0.000000 21.416386 1.615118 -2.334831 49.565606 -3.610023 -8.798833 8.477818 31.813980 3.278856 0.000000 0.000000 0.000000 
-0.647557 0.955999 1.381516 -2.420289 -3.396180 -6.474269 2.680701 0.477821 6.297625 6.938415 -3.667589 31.719421 -0.048506 6.108339 18.600775 0.000000 0.000000 0.000000 -2.217862 0.903482 -10.490587 1.870566 0.160168 12.016526 4.554970 1.743068 15.081570 0.000000 0.000000 0.000000 -0.383731 -0.464133 13.230384 11.290648 -2.570292 -22.248656 -4.613027 -0.288043 33.743045 -11.639295 9.837633 -14.330464 0.000000 0.000000 0.000000 -34.290089 5.867328 -5.101751 -46.448164 -10.964810 -5.023553 -16.987756 -39.883847 9.208334 0.000000 0.000000 0.000000 21.904727 1.176632 -1.029837 48.406909 -2.119038 -8.563301 8.625592 31.430024 3.663635 0.000000 0.000000 0.000000 
-0.663501 0.961677 1.405110 -1.240426 3.181218 -5.450814 1.873472 0.091218 1.472234 2.719926 -2.588414 30.666469 2.797274 9.613429 12.522690 0.000000 0.000000 0.000000 -3.140241 0.605699 -8.277033 1.741794 0.009157 10.682924 1.664882 -1.856912 13.407208 0.000000 0.000000 0.000000 -1.417258 -0.418887 12.916073 10.411944 -2.306378 -21.315941 -4.150725 -0.288681 31.907019 -11.178127 9.830126 -14.174634 0.000000 0.000000 0.000000 -33.026573 7.514788 -8.068122 -48.052295 -9.207301 -4.967827 -20.956228 -39.645061 10.184866 0.000000 0.000000 0.000000 21.472213 2.275143 0.816272 48.359496 -0.300312 -7.950577 6.041898 30.697481 3.125655 0.000000 0.000000 0.000000 
-0.676436 0.966332 1.425752 -1.375321 11.088134 -5.758931 2.142223 -0.034245 0.331146 -1.334586 -1.485728 26.657042 6.481788 15.766090 12.785782 0.000000 0.000000 0.000000 -3.040505 0.245770 -3.962979 2.584314 -0.332378 7.689815 -1.532955 -6.700804 13.654013 0.000000 0.000000 0.000000 -1.283046 -0.632736 14.663301 9.324428 -1.473244 -24.751990 -1.654828 -0.371418 34.149430 -12.015657 11.119642 -14.578405 0.000000 0.000000 0.000000 -34.970900 5.421224 -9.324300 -45.858502 -7.431621 -4.850686 -23.638169 -37.625995 9.943960 0.000000 0.000000 0.000000 20.059377 0.315947 1.191189 46.982114 2.132511 -7.412450 5.851469 28.464540 3.058391 0.000000 0.000000 0.000000 
-0.687067 0.968730 1.443072 -1.269657 19.340929 -5.870730 1.855651 -0.058139 0.476709 -3.602761 -0.930895 21.931621 9.895140 20.853871 14.756732 0.000000 0.000000 0.000000 -2.871372 -0.049939 -0.830040 2.889704 -0.504505 5.542395 -4.631160 -11.402966 15.135052 0.000000 0.000000 0.000000 -1.796843 -0.778617 15.504179 10.242183 -1.439181 -26.095838 -1.464958 0.352436 34.447680 -12.388392 12.039938 -14.787598 0.000000 0.000000 0.000000 -35.946281 4.569468 -11.979286 -44.505104 -4.785541 -4.692809 -25.729759 -35.150776 9.272334 0.000000 0.000000 0.000000 19.354912 0.504418 2.731614 47.314872 2.955631 -7.389317 4.905923 27.445518 2.873562 0.000000 0.000000 0.000000 
-0.695749 0.968637 1.457282 -1.024369 26.630128 -6.165207 2.524380 -0.153021 0.090759 -5.005409 -0.878331 20.687980 9.989559 21.077800 15.260066 0.000000 0.000000 0.000000 -2.672281 -0.314018 1.426559 3.015728 -0.615687 4.272883 -7.585991 -15.654421 17.530341 0.000000 0.000000 0.000000 -1.297233 -1.056680 16.285975 9.606579 -1.190481 -24.702870 -0.957654 1.035183 32.494266 -12.181671 12.179377 -14.250547 0.000000 0.000000 0.000000 -35.295239 2.949494 -13.281191 -44.371935 -2.776931 -4.408821 -24.883564 -33.536537 7.983737 0.000000 0.000000 0.000000 18.638969 0.747564 3.885732 47.909819 3.197228 -7.188175 3.343617 26.761963 2.519731 0.000000 0.000000 0.000000 
-0.702865 0.969449 1.469254 -0.809043 34.335188 -6.106019 2.528459 -0.210088 0.035921 -4.530369 -1.065519 18.333924 9.971829 21.130877 16.200643 0.000000 0.000000 0.000000 -2.456472 -0.581768 3.213570 3.439835 -0.797962 3.078115 -10.968020 -20.037888 20.739226 0.000000 0.000000 0.000000 -1.011280 -1.266267 16.442513 9.190642 -0.929925 -23.234219 -0.374597 1.275182 31.285849 -12.485863 12.636085 -13.668044 0.000000 0.000000 0.000000 -34.506264 1.180599 -14.294492 -43.659242 0.200943 -4.568733 -26.118157 -32.666700 7.639098 0.000000 0.000000 0.000000 18.442910 1.300325 5.249777 47.856521 3.434142 -7.029096 2.399105 26.316978 2.264963 0.000000 0.000000 0.000000 
-0.708547 0.968724 1.479876 -0.517846 40.165962 -6.190812 2.365806 -0.242952 -0.112811 -3.848487 -1.287084 17.442629 9.618684 20.829237 17.126969 0.000000 0.000000 0.000000 -2.587287 -0.829076 4.491573 4.121087 -1.116535 3.678418 -12.229487 -21.683890 20.754849 0.000000 0.000000 0.000000 -0.855730 -1.439743 16.679941 8.972619 -0.813508 -21.337611 -0.154942 2.419105 29.367420 -12.852202 12.837075 -13.417667 0.000000 0.000000 0.000000 -33.940195 0.111817 -15.572569 -43.438273 2.913233 -4.742756 -25.454292 -31.767803 6.843684 0.000000 0.000000 0.000000 17.158080 1.898004 6.017879 48.724004 3.916205 -6.363637 2.162593 26.372068 2.163433 0.000000 0.000000 0.000000 
-0.712752 0.967277 1.489124 -0.515915 46.673726 -6.263721 2.996918 -0.391740 -1.851055 -4.899648 -1.642931 18.947219 9.666695 20.597785 16.453462 0.000000 0.000000 0.000000 -2.365888 -1.106110 5.779774 3.854708 -1.222062 3.872537 -12.743423 -21.559406 21.592064 0.000000 0.000000 0.000000 -0.444341 -1.679645 16.964142 8.978186 -0.632835 -20.697680 -0.354764 3.479851 28.476323 -13.848393 13.336052 -12.429331 0.000000 0.000000 0.000000 -33.490103 -0.589319 -17.453581 -42.400790 5.808747 -4.857964 -25.637607 -30.752521 6.299873 0.000000 0.000000 0.000000 17.915676 1.431219 7.014505 48.629661 5.403667 -5.743695 1.904119 26.753238 2.132362 0.000000 0.000000 0.000000 
-0.714892 0.965846 1.496943 -0.602249 53.284424 -6.642689 3.904117 -0.584081 -3.645624 -6.741587 -2.116637 21.027852 11.748977 22.265129 17.078115 0.000000 0.000000 0.000000 -1.817768 -1.529929 7.719138 3.289367 -1.192515 3.319705 -13.380385 -21.630745 22.602542 0.000000 0.000000 0.000000 -0.738259 -1.959704 17.777004 9.287638 -0.486395 -21.414573 0.038871 3.901920 29.179886 -14.717963 13.819236 -12.929214 0.000000 0.000000 0.000000 -32.997236 -1.047370 -19.510741 -42.755006 7.520661 -4.908944 -23.912707 -29.653107 5.296906 0.000000 0.000000 0.000000 17.595671 1.442482 7.975515 49.746121 7.207650 -4.944718 1.044376 27.266358 1.986457 0.000000 0.000000 0.000000 
-0.713142 0.963751 1.502976 -0.901048 59.823238 -6.586671 5.391440 -0.930615 -6.526928 -9.585900 -2.656698 23.117776 13.983768 23.718310 16.977703 0.000000 0.000000 0.000000 -1.605252 -1.782998 8.349266 2.521882 -1.251887 4.211001 -12.650094 -19.012502 23.355985 0.000000 0.000000 0.000000 -0.839258 -2.203277 18.208044 9.346914 -0.222258 -21.985893 0.286774 5.019251 29.096191 -14.812153 13.634993 -12.527027 0.000000 0.000000 0.000000 -32.400107 -1.492753 -21.824820 -42.546605 10.256969 -5.171916 -24.438404 -28.621144 4.885215 0.000000 0.000000 0.000000 17.260160 1.115473 8.816354 50.717166 8.585530 -4.079775 1.218795 27.998871 2.053391 0.000000 0.000000 0.000000 
-0.706772 0.961717 1.506857 -0.489170 65.575365 -5.687741 6.629324 -1.266744 -8.232552 -13.036391 -2.809731 22.638647 16.864162 25.632073 19.447077 0.000000 0.000000 0.000000 -2.044364 -2.071509 8.868102 2.145933 -1.454929 5.060851 -11.576126 -16.128611 23.529440 0.000000 0.000000 0.000000 -1.274760 -2.364358 18.653505 7.995987 0.511132 -23.884479 1.897530 6.084436 29.789852 -15.916191 13.915418 -12.128315 0.000000 0.000000 0.000000 -32.850039 -2.607763 -24.538785 -41.352501 13.509639 -5.287069 -23.126325 -27.458772 4.266405 0.000000 0.000000 0.000000 17.872665 -0.400706 9.391447 50.616869 9.824979 -3.608685 1.989648 29.793370 2.434510 0.000000 0.000000 0.000000 
-0.695844 0.958202 1.508039 -0.342576 71.922189 -5.344479 7.532209 -1.616906 -9.601793 -13.944520 -3.080172 20.877521 18.999468 25.899615 18.856016 0.000000 0.000000 0.000000 -2.258604 -2.636809 10.359436 2.022524 -1.743095 5.442355 -10.951225 -14.500441 23.223523 0.000000 0.000000 0.000000 -1.207348 -2.710990 19.173712 7.924777 0.606235 -25.771786 1.500764 7.170805 31.130833 -15.571454 13.235500 -11.727279 0.000000 0.000000 0.000000 -31.654038 -1.600282 -27.454920 -41.539082 15.906407 -5.911815 -24.027715 -26.456169 4.041652 0.000000 0.000000 0.000000 18.283738 -0.383292 11.100528 51.316270 12.406885 -2.413989 0.311335 29.274139 1.763181 0.000000 0.000000 0.000000 
-0.680543 0.954118 1.506289 1.372996 77.567812 -3.697875 7.611219 -1.878988 -11.039966 -14.507226 -3.137772 17.093573 25.267519 28.247009 22.091852 0.000000 0.000000 0.000000 -3.091120 -3.358721 11.914011 2.120313 -2.157197 5.915511 -10.642644 -13.111622 24.155521 0.000000 0.000000 0.000000 -3.222098 -2.686396 19.665745 7.909722 0.904018 -26.124577 3.475536 8.994203 31.241149 -15.363400 12.447021 -11.560464 0.000000 0.000000 0.000000 -31.316660 -1.764172 -30.527820 -41.156070 18.777168 -6.205976 -23.842802 -23.781332 3.444865 0.000000 0.000000 0.000000 17.463739 -0.712533 11.902130 51.072688 13.279747 -1.618001 1.868120 30.986488 2.131973 0.000000 0.000000 0.000000 
-0.661335 0.949036 1.501009 -1.039826 84.138571 -5.755721 7.441296 -2.318900 -13.594268 -13.165065 -3.164938 12.998763 28.469356 26.998176 31.197671 0.000000 0.000000 0.000000 -2.308228 -4.355637 14.424517 2.404869 -2.329914 4.629110 -12.151182 -15.111491 25.338370 0.000000 0.000000 0.000000 -3.701897 -2.995159 20.045177 8.029856 0.939835 -26.679416 3.690532 9.403498 32.477015 -13.211480 11.122435 -12.136544 0.000000 0.000000 0.000000 -29.736396 -2.258252 -32.263645 -41.389988 21.989681 -7.262029 -23.111004 -23.301323 3.062048 0.000000 0.000000 0.000000 16.285027 -0.368870 12.819016 52.718432 15.724821 0.586110 -0.283621 30.648734 1.362674 0.000000 0.000000 0.000000 
-0.638280 0.942110 1.491699 4.938099 89.360157 1.348417 5.689902 -2.630447 -16.011915 -11.754615 -3.366695 12.610859 27.694877 24.873972 33.283867 0.000000 0.000000 0.000000 -2.426705 -5.072501 15.647840 2.670226 -2.656924 4.288159 -12.885341 -16.110236 25.813579 0.000000 0.000000 0.000000 -4.503268 -3.054430 20.085372 5.815486 1.613812 -26.264999 5.761867 9.581212 31.796980 -11.472698 10.095601 -12.576537 0.000000 0.000000 0.000000 -28.389525 -2.961868 -33.513479 -42.372700 24.382354 -8.302550 -21.313598 -21.312334 2.293282 0.000000 0.000000 0.000000 15.589512 -0.921600 13.076021 53.451192 16.144887 1.688866 -0.792337 33.455957 1.406001 0.000000 0.000000 0.000000 
-0.610741 0.934949 1.477088 -176.040619 86.918481 -177.510546 4.697480 -3.074152 -17.922700 -11.239235 -3.620998 12.816371 27.239641 23.607321 33.198497 0.000000 0.000000 0.000000 -2.415109 -5.061246 15.071539 3.992979 -3.672248 4.725824 -15.438588 -18.914586 28.493693 0.000000 0.000000 0.000000 -4.312003 -2.640080 18.374446 4.948913 1.673832 -27.039145 7.062851 9.613058 34.163382 -9.357579 9.491290 -14.362573 0.000000 0.000000 0.000000 -26.716972 -3.287715 -35.300392 -43.156326 27.594101 -9.785796 -21.282463 -20.909238 1.991416 0.000000 0.000000 0.000000 14.887262 -0.911446 13.901358 53.316390 18.185240 3.445820 -3.186314 34.926039 0.756560 0.000000 0.000000 0.000000 
-0.577454 0.931411 1.455893 -178.350584 82.906855 -178.300607 3.019206 -3.064436 -18.117874 -11.317235 -4.092350 13.481619 26.856707 22.331629 29.538764 0.000000 0.000000 0.000000 -3.287823 -5.678838 15.714564 3.827916 -4.358260 6.164800 -13.574164 -14.029436 30.181096 0.000000 0.000000 0.000000 -4.639832 -2.763504 18.439603 3.517259 1.911499 -26.377780 8.340488 11.589355 32.635894 -7.777862 8.413480 -15.922032 0.000000 0.000000 0.000000 -25.578909 -3.516363 -37.335172 -43.718058 30.339924 -10.882823 -21.521132 -20.275845 1.759754 0.000000 0.000000 0.000000 13.075760 -1.537947 13.581979 55.772790 17.633394 5.444689 -3.438063 37.485333 0.904198 0.000000 0.000000 0.000000 
-0.538399 0.930746 1.427820 -177.935842 77.846556 -177.181059 1.122857 -2.631654 -16.962896 -11.486141 -4.790055 14.945110 25.782909 20.155537 24.428801 0.000000 0.000000 0.000000 -3.798685 -6.468714 16.554883 4.183895 -6.191531 8.879378 -13.049445 -10.454831 35.239079 0.000000 0.000000 0.000000 -5.177338 -2.863765 18.287715 3.168039 1.917803 -26.449284 9.528928 13.159950 32.356267 -4.748023 6.406265 -15.234479 0.000000 0.000000 0.000000 -23.707685 -4.746229 -39.021660 -44.529390 32.775091 -12.130397 -23.945964 -19.045795 1.719735 0.000000 0.000000 0.000000 11.896831 -2.783782 13.724706 56.987172 17.579257 7.204070 -4.937092 39.076997 0.584803 0.000000 0.000000 0.000000 
-0.495020 0.931512 1.394662 -177.885609 73.259616 -176.254237 -1.292316 -2.165095 -15.730539 -10.409682 -5.205897 15.995096 26.509348 17.970142 23.847765 0.000000 0.000000 0.000000 -4.821596 -6.262732 14.491441 1.725219 -11.211691 18.248957 -5.647857 -0.493729 37.102718 0.000000 0.000000 0.000000 -6.084241 -2.924442 18.147863 3.083789 1.985925 -26.531763 10.659465 13.401696 31.566346 -4.310000 4.838652 -14.559914 0.000000 0.000000 0.000000 -22.553308 -5.100743 -41.292593 -44.446553 35.481158 -13.030120 -27.462315 -18.636067 2.057267 0.000000 0.000000 0.000000 11.739991 -3.797307 14.653292 58.229668 17.277485 7.960501 -6.164013 39.240593 0.133935 0.000000 0.000000 0.000000 
-0.448465 0.930733 1.360258 -176.926679 67.673055 -174.996243 -2.962370 -1.421026 -13.181345 -8.274794 -5.472015 16.899181 25.062304 13.896483 20.716676 0.000000 0.000000 0.000000 -3.255979 -4.490295 8.797638 -8.842407 -19.968330 34.232485 3.771541 6.487904 41.819528 0.000000 0.000000 0.000000 -6.711968 -3.487243 19.102206 3.269194 1.966915 -26.803973 11.079334 12.869465 30.723381 -3.452318 3.953857 -15.837493 0.000000 0.000000 0.000000 -20.665682 -5.311636 -43.016168 -45.157288 37.120475 -14.271568 -32.127980 -18.855082 2.528919 0.000000 0.000000 0.000000 11.232169 -5.249712 15.127003 61.050888 17.199826 9.775880 -7.972936 39.810439 -0.453302 0.000000 0.000000 0.000000 
-0.399535 0.923504 1.326506 -175.377112 62.299559 -174.138365 -3.427054 -0.745760 -9.799058 -6.608803 -6.267555 19.220882 25.848460 10.258787 15.829997 0.000000 0.000000 0.000000 -0.499623 -2.654552 2.214714 -29.248114 -26.665371 54.269974 15.992272 11.048346 45.651983 0.000000 0.000000 0.000000 -6.841804 -4.603455 21.249517 4.407516 1.993818 -26.971665 10.218299 12.270230 30.685692 -3.550249 3.752695 -18.391791 0.000000 0.000000 0.000000 -20.301112 -6.586159 -44.924177 -44.148756 35.586024 -12.724023 -36.131866 -19.319882 3.480826 0.000000 0.000000 0.000000 11.029686 -6.707098 15.897596 63.499073 16.824246 10.809009 -9.678313 40.575305 -0.929085 0.000000 0.000000 0.000000 
-0.347097 0.914919 1.292396 -173.868225 55.702255 -173.871575 -2.880258 -0.558362 -5.644403 -4.655116 -7.302702 21.645985 28.116178 6.545205 11.270497 0.000000 0.000000 0.000000 2.825021 -1.616255 -4.745263 -49.465373 -27.515353 70.395314 24.900754 15.011630 45.654573 0.000000 0.000000 0.000000 -6.175449 -6.511168 24.259603 4.184370 2.159987 -26.733482 9.431250 9.822787 29.905723 -3.588294 3.976803 -20.454942 0.000000 0.000000 0.000000 -20.387062 -7.860818 -46.484022 -43.087265 34.089938 -10.998116 -39.727218 -22.463611 5.374283 0.000000 0.000000 0.000000 11.019854 -7.366698 16.360892 63.612614 15.583209 10.129475 -9.759891 42.338905 -0.822965 0.000000 0.000000 0.000000 
-0.290854 0.913066 1.255343 -172.363700 50.910447 -172.548634 -1.129689 -1.568340 -0.107760 -3.115748 -6.442122 19.882201 29.325176 3.582607 8.951435 0.000000 0.000000 0.000000 5.229922 -3.466787 -14.967713 -60.207341 -24.387347 76.727383 31.815100 24.315632 35.676856 0.000000 0.000000 0.000000 -5.457213 -8.507991 26.740136 4.112138 2.065979 -27.321423 9.356363 7.711351 29.741104 -4.372118 4.659483 -23.227856 0.000000 0.000000 0.000000 -18.872460 -7.448864 -45.756967 -44.348096 31.252938 -11.067487 -46.396115 -25.683841 7.884271 0.000000 0.000000 0.000000 10.792395 -9.567620 14.434711 62.793896 14.287350 9.787295 -8.817470 43.608090 0.044534 0.000000 0.000000 0.000000 
-0.227727 0.929229 1.211696 -171.456097 47.144314 -170.508345 0.860802 -4.356856 6.095206 -1.777919 -4.035904 14.203805 20.733196 1.017190 12.790153 0.000000 0.000000 0.000000 7.486074 -7.546505 -23.872759 -48.541997 -24.582529 65.886984 29.249996 26.816873 19.376536 0.000000 0.000000 0.000000 -3.122103 -8.561170 25.888826 2.940503 2.004140 -27.813591 8.871846 2.387894 29.284576 -7.249720 4.919668 -24.906244 0.000000 0.000000 0.000000 -16.767829 -4.910269 -44.749883 -47.074638 29.132056 -12.654488 -52.247868 -30.058611 10.524025 0.000000 0.000000 0.000000 8.381370 -9.110709 12.011434 63.022014 10.312970 9.458887 -6.282445 45.178234 1.541211 0.000000 0.000000 0.000000 
-0.156449 0.959580 1.160351 -170.451868 44.190043 -169.059090 2.448822 -8.302836 11.483411 -2.926207 -3.019059 10.541132 14.058366 3.843594 25.325642 0.000000 0.000000 0.000000 10.247946 -11.235931 -30.287931 -31.354520 -21.952157 49.566693 34.423737 23.973572 19.239008 0.000000 0.000000 0.000000 -0.800289 -8.603492 24.843097 1.627325 1.415125 -29.852985 8.980828 -2.123707 29.534946 -9.649884 4.509881 -25.286921 0.000000 0.000000 0.000000 -14.617930 -3.892363 -43.513507 -48.450140 29.305125 -14.533980 -58.695284 -30.609347 11.802519 0.000000 0.000000 0.000000 8.751507 -9.703470 11.333141 60.812973 7.635178 7.604027 -3.513964 46.943050 3.160062 0.000000 0.000000 0.000000 
-0.079749 0.991856 1.102826 -170.925764 41.909262 -169.209837 2.583635 -9.055533 11.972322 -3.439109 -4.119942 14.876677 9.039201 6.587606 37.066986 0.000000 0.000000 0.000000 11.155989 -11.489697 -30.731719 -14.965707 -17.179436 33.122778 32.143645 16.363885 19.262694 0.000000 0.000000 0.000000 1.326156 -7.993663 23.196937 2.608274 1.644725 -29.940828 6.814324 -3.466029 29.507063 -11.228236 2.765425 -24.703817 0.000000 0.000000 0.000000 -14.894918 -3.430302 -45.313513 -45.317319 31.996135 -14.244685 -65.460442 -26.665612 12.104085 0.000000 0.000000 0.000000 4.861745 -10.057122 8.583544 64.911807 2.967253 10.056157 -3.035069 46.095705 3.544557 0.000000 0.000000 0.000000 
-0.001301 1.014083 1.042086 -171.687553 38.692068 -171.662766 3.019643 -8.574333 9.879510 -5.394975 -7.447510 23.049641 10.190378 6.274345 48.270913 0.000000 0.000000 0.000000 10.311687 -8.847905 -26.232581 -6.514248 -11.518774 19.986880 25.954814 7.063413 23.673376 0.000000 0.000000 0.000000 2.246506 -9.116178 23.905837 1.188756 1.311104 -30.531545 7.821985 -3.363222 28.412604 -9.929106 1.167979 -21.504871 0.000000 0.000000 0.000000 -14.152957 -4.691328 -47.264509 -43.242980 35.755090 -14.732490 -69.357171 -21.815511 10.005983 0.000000 0.000000 0.000000 4.908312 -9.670814 10.354017 64.370967 1.408985 9.507497 -4.134763 47.792643 3.075339 0.000000 0.000000 0.000000 
0.077501 1.014534 0.980286 -173.181109 38.455730 -173.166412 3.249441 -5.279095 3.286745 -11.904973 -12.851903 32.735208 15.396460 5.013855 52.636922 0.000000 0.000000 0.000000 10.887626 -5.498094 -21.640697 -4.334311 -9.613475 15.307879 15.470161 3.693243 25.802481 0.000000 0.000000 0.000000 2.033010 -8.042997 22.834108 2.342109 1.767173 -29.780232 7.104966 -1.277483 27.486222 -8.962018 -1.660023 -17.162494 0.000000 0.000000 0.000000 -13.770268 -5.820072 -48.936319 -40.108370 39.908697 -14.674361 -69.401587 -17.918049 7.651637 0.000000 0.000000 0.000000 7.422170 -11.935525 12.374557 62.308465 1.883377 8.091223 -3.154471 47.713836 3.184176 0.000000 0.000000 0.000000 
0.155099 0.993288 0.918323 -173.744766 39.335655 -175.416875 4.482292 -3.578990 -4.555141 -25.885978 -17.719998 42.978447 27.792104 6.081278 51.750459 0.000000 0.000000 0.000000 11.958407 -1.930135 -15.332576 -5.218145 -11.124544 16.666987 11.387430 1.147425 19.448506 0.000000 0.000000 0.000000 1.761516 -8.785498 24.138985 0.080223 1.118242 -31.073934 10.481697 2.816423 28.443314 -8.768312 -4.645442 -13.654291 0.000000 0.000000 0.000000 -15.542860 -7.597655 -54.091893 -33.610822 46.648548 -12.027402 -67.478018 -14.505559 7.181390 0.000000 0.000000 0.000000 7.997656 -12.313085 14.959963 61.026885 5.589299 9.439281 -5.207389 46.881399 1.850264 0.000000 0.000000 0.000000 
0.227770 0.964715 0.857453 -174.624550 40.982703 -178.584608 4.373863 -3.488182 -13.114984 -35.504363 -19.836338 49.345573 43.599134 11.622451 46.185110 0.000000 0.000000 0.000000 13.087599 0.238733 -8.594330 -9.759580 -14.958222 22.619620 18.589932 2.236364 7.206832 0.000000 0.000000 0.000000 -0.052069 -9.445642 25.872014 0.762472 1.526468 -30.276678 11.636262 6.649803 29.169627 -6.458977 -3.733768 -15.875115 0.000000 0.000000 0.000000 -17.879210 -7.164748 -57.046945 -28.296901 48.435365 -8.646425 -63.852952 -11.999612 6.867805 0.000000 0.000000 0.000000 8.970811 -11.594959 17.411893 58.965022 11.246921 10.563098 -6.050609 45.737989 1.234833 0.000000 0.000000 0.000000 
0.298048 0.951924 0.797096 -174.730035 44.300545 -179.246418 4.979681 -5.399924 -20.328980 -30.529320 -17.952620 41.628538 45.349777 11.308531 44.459886 0.000000 0.000000 0.000000 13.361231 0.542776 -1.543470 -9.406087 -14.792595 22.312901 20.770314 3.354097 3.772211 0.000000 0.000000 0.000000 -0.607235 -9.050606 25.836604 -1.132857 0.924905 -30.797653 14.569411 10.233567 30.947176 -6.454627 -4.322777 -15.274494 0.000000 0.000000 0.000000 -18.420324 -8.257942 -58.424805 -26.246299 51.773870 -7.516750 -58.193965 -12.086917 5.918452 0.000000 0.000000 0.000000 8.739092 -10.821650 18.746213 58.748240 17.442496 14.226102 -8.647902 46.378135 0.551992 0.000000 0.000000 0.000000 
0.369831 0.960362 0.734592 -173.784484 47.449118 -177.977932 6.025867 -6.548761 -23.090064 -15.014942 -11.100698 25.519633 33.066718 8.159396 26.112921 0.000000 0.000000 0.000000 12.844216 -1.001797 5.162309 -7.188276 -12.188156 18.803218 19.441952 3.315293 10.365462 0.000000 0.000000 0.000000 -0.918744 -7.638261 24.213902 -2.278947 0.074110 -32.668771 17.455848 11.661998 33.642415 -5.863983 -4.228408 -15.877684 0.000000 0.000000 0.000000 -17.804337 -7.975158 -60.537010 -24.255088 54.321854 -6.831398 -55.504731 -9.773879 3.839608 0.000000 0.000000 0.000000 8.297951 -10.769372 19.768937 59.974451 21.697746 17.951533 -13.497183 47.671056 -0.650944 0.000000 0.000000 0.000000 
0.445518 0.977898 0.668851 -174.160494 49.167497 -177.212039 5.874699 -6.185480 -22.604235 -7.754352 -5.580296 6.273811 17.225729 3.657197 26.569928 0.000000 0.000000 0.000000 11.747888 -3.776449 11.064821 -7.058452 -8.909086 15.664140 16.030898 3.375053 19.809453 0.000000 0.000000 0.000000 -1.695488 -4.585153 19.749905 -1.967258 1.014600 -29.823977 16.497322 11.252682 31.447699 -4.963920 -4.688103 -14.650964 0.000000 0.000000 0.000000 -15.605082 -7.737057 -59.546803 -25.718401 56.597825 -9.287285 -53.955065 -8.825273 1.767819 0.000000 0.000000 0.000000 7.468630 -11.004055 18.682993 61.618209 21.891634 19.991190 -12.483592 51.196912 0.596324 0.000000 0.000000 0.000000 
0.525650 0.985791 0.600750 -174.760046 52.087194 -179.292803 5.766217 -4.410045 -18.104069 -5.880054 -5.402367 -2.412355 8.013473 6.586584 34.995780 0.000000 0.000000 0.000000 9.120866 -6.235295 15.291949 -7.874160 -9.543336 17.629698 9.316866 6.083090 36.267141 0.000000 0.000000 0.000000 -3.539685 -3.297106 17.603562 -1.150153 1.504609 -28.136897 15.398027 10.901511 31.374057 -1.064028 -4.263778 -12.698544 0.000000 0.000000 0.000000 -13.902596 -4.520457 -56.922648 -32.097605 57.602941 -15.511123 -54.251631 -9.270289 0.708273 0.000000 0.000000 0.000000 4.635973 -7.939113 17.655575 64.981228 20.413898 22.037665 -13.111030 54.965256 0.793975 0.000000 0.000000 0.000000 
0.605062 0.973036 0.531281 -177.374997 54.727480 176.299011 2.078428 -2.591425 -15.025047 -3.860258 -3.479120 4.154719 8.261254 6.207440 31.281708 0.000000 0.000000 0.000000 5.734883 -6.801754 16.315314 -17.340914 -16.147743 30.778757 15.699828 10.061774 38.849682 0.000000 0.000000 0.000000 -5.703945 -3.541645 18.375002 -2.647268 0.996842 -29.083762 17.223652 10.963334 31.674300 -1.814914 -1.813983 -14.453582 0.000000 0.000000 0.000000 -13.545448 -3.706785 -54.261557 -33.426359 56.456404 -16.764384 -55.712264 -10.702233 1.203957 0.000000 0.000000 0.000000 3.037052 -7.433835 14.473767 68.465966 15.223711 21.064954 -7.435074 59.530715 4.822200 0.000000 0.000000 0.000000 
0.676911 0.946149 0.464447 -179.353525 54.812174 172.897984 0.635021 -1.868980 -13.203442 -6.755704 -5.685044 14.862909 15.001375 5.559256 20.476605 0.000000 0.000000 0.000000 3.969294 -4.400778 11.500931 -43.964181 -24.547044 56.816931 29.892796 14.402966 46.677963 0.000000 0.000000 0.000000 -8.274621 -4.287577 20.130577 -0.322723 1.724147 -28.591687 14.473891 8.631435 30.843215 -2.524558 0.678431 -15.487191 0.000000 0.000000 0.000000 -15.743787 -3.613924 -50.225718 -36.234915 51.092679 -16.120202 -55.268895 -15.621819 4.193382 0.000000 0.000000 0.000000 4.755656 -5.424937 14.591761 67.703040 14.443696 16.887221 -3.789547 60.012848 6.080207 0.000000 0.000000 0.000000 
0.740079 0.925900 0.404822 -179.229019 54.637595 170.667821 -1.245456 -0.998779 -9.987243 -7.832698 -8.192497 22.434601 24.565122 7.482750 17.299310 0.000000 0.000000 0.000000 4.448108 -1.751469 3.560433 -76.191289 -19.252206 78.075086 43.693053 13.978525 60.026763 0.000000 0.000000 0.000000 -8.489956 -5.281486 22.570568 1.250417 2.270430 -27.307275 10.814552 6.599174 30.223118 -3.609988 3.582738 -18.629192 0.000000 0.000000 0.000000 -19.947772 -4.987689 -49.267552 -35.027356 44.142052 -11.432293 -57.609070 -22.836548 10.013341 0.000000 0.000000 0.000000 8.793597 -6.246542 15.873847 66.277792 17.014201 12.972985 0.166413 53.858985 6.092866 0.000000 0.000000 0.000000 
0.800607 0.926145 0.351884 -177.480212 53.049847 171.138713 -2.105150 -0.593278 -4.612103 -6.636883 -8.278776 23.225851 31.721019 7.507610 18.722214 0.000000 0.000000 0.000000 7.062135 -0.445361 -4.140889 -82.658321 -16.806797 83.124679 50.800798 28.113931 51.920788 0.000000 0.000000 0.000000 -7.125652 -6.009706 23.888605 0.643783 2.095217 -28.270873 9.100400 2.240698 30.671179 -3.295499 5.609703 -19.594146 0.000000 0.000000 0.000000 -22.143135 -6.095263 -48.715004 -36.713726 39.073409 -9.583886 -61.172546 -28.363237 15.122455 0.000000 0.000000 0.000000 9.913601 -6.602087 14.940890 66.890046 14.475788 10.345493 1.076035 49.295116 5.009947 0.000000 0.000000 0.000000 
0.861466 0.942730 0.302808 -175.499856 53.417076 172.346945 -1.737222 -1.961451 3.514668 -6.381643 -6.342547 19.691059 35.031173 7.861931 20.734154 0.000000 0.000000 0.000000 8.385066 -1.184018 -11.675444 -62.659284 -23.039260 75.693743 38.156278 36.234311 24.161877 0.000000 0.000000 0.000000 -4.500591 -5.957428 23.558262 0.992150 2.304241 -27.239859 6.075896 -3.248067 29.047137 -4.089717 7.510700 -18.965509 0.000000 0.000000 0.000000 -21.561057 -4.505319 -42.901094 -42.598325 32.751420 -10.965461 -66.361536 -35.968199 20.053997 0.000000 0.000000 0.000000 11.096221 -7.607413 11.960643 63.717442 9.593690 5.098189 6.009215 45.830747 6.618368 0.000000 0.000000 0.000000 
0.924569 0.966960 0.255109 -174.884537 53.969937 173.482536 -2.493892 -4.267787 10.218647 -4.816428 -4.316924 15.478979 27.917419 8.086931 24.060411 0.000000 0.000000 0.000000 9.172429 -1.918899 -15.010409 -25.564448 -24.452908 47.380150 24.449420 23.553871 3.276396 0.000000 0.000000 0.000000 -2.664809 -5.461422 22.256449 0.180979 1.979072 -28.524786 5.120317 -8.600486 30.289298 -3.174896 9.817868 -21.330648 0.000000 0.000000 0.000000 -20.350211 -1.706076 -39.936560 -45.489221 29.008458 -11.925563 -75.222942 -40.146849 26.029061 0.000000 0.000000 0.000000 8.706861 -9.454335 6.876200 63.314325 1.826369 2.311193 10.502455 46.648453 10.038051 0.000000 0.000000 0.000000 
0.991265 0.986949 0.208156 -175.124178 56.337905 174.441153 -3.092607 -5.158086 12.786173 -5.284564 -3.922119 14.840730 20.678470 9.817751 35.199778 0.000000 0.000000 0.000000 9.933104 -1.449244 -14.720883 -1.134374 -9.919120 16.063362 3.881435 2.973111 17.084832 0.000000 0.000000 0.000000 -0.862718 -4.070100 19.414835 0.616844 2.006105 -29.058783 1.374258 -12.485630 29.316795 -2.481278 9.517122 -19.245142 0.000000 0.000000 0.000000 -19.281269 0.700229 -35.684829 -47.549628 27.467719 -13.571422 -77.307356 -42.431249 27.017530 0.000000 0.000000 0.000000 8.221344 -7.898805 6.053383 60.781054 -2.223994 -0.546220 13.292994 44.955070 10.578933 0.000000 0.000000 0.000000 
1.060672 0.991299 0.161691 -176.993071 57.336274 171.872917 -2.471003 -5.014692 12.431173 -12.154813 -7.125040 23.677439 16.005907 13.146253 40.989576 0.000000 0.000000 0.000000 9.639576 -0.721545 -12.174001 2.448598 -5.097518 5.023623 -7.437114 -0.076396 36.356208 0.000000 0.000000 0.000000 0.229152 -3.116553 17.052094 -2.700580 1.682788 -26.343084 3.185039 -13.600494 27.130315 -3.500527 8.849639 -15.607270 0.000000 0.000000 0.000000 -18.022637 1.169095 -33.631651 -48.510617 27.707535 -14.942123 -80.064280 -40.312557 25.530328 0.000000 0.000000 0.000000 7.292380 -9.275895 3.581933 59.952287 -6.718070 -1.889239 18.535996 43.719652 12.758843 0.000000 0.000000 0.000000 
1.129913 0.975814 0.116851 -176.278356 56.830977 170.181525 3.019916 -5.391473 8.932002 -28.899317 -12.554409 39.277125 14.394220 16.820886 46.731743 0.000000 0.000000 0.000000 10.560304 -0.168005 -10.441487 1.002940 -8.272683 11.681453 -10.234196 -3.944025 32.136479 0.000000 0.000000 0.000000 0.613152 -2.790441 16.168497 -1.322181 2.051805 -25.835209 0.957798 -14.040689 27.766802 -1.881014 8.004459 -15.130258 0.000000 0.000000 0.000000 -17.996049 1.557650 -33.214329 -46.840317 27.381622 -14.271950 -76.742455 -37.955644 21.875519 0.000000 0.000000 0.000000 7.497957 -8.634641 4.268349 60.788345 -6.909477 -1.868816 13.827677 40.485404 8.938445 0.000000 0.000000 0.000000 
1.192003 0.953606 0.075885 -174.785555 60.007688 168.953129 7.458648 -4.884417 2.926401 -46.560594 -13.820616 53.489313 20.234240 20.600199 53.244617 0.000000 0.000000 0.000000 12.449498 0.553428 -7.713210 -2.764279 -11.202462 18.788044 -7.907030 -3.996779 26.252809 0.000000 0.000000 0.000000 1.093061 -3.721181 18.099272 -2.902539 1.617019 -27.892462 3.419007 -11.457863 28.529677 -1.482938 8.215415 -14.761070 0.000000 0.000000 0.000000 -19.003005 1.394060 -34.164113 -43.602494 29.631772 -13.556238 -71.273933 -35.085662 18.016542 0.000000 0.000000 0.000000 10.550381 -9.481427 5.596730 57.137016 -4.137795 -2.939381 13.176703 37.289649 7.443943 0.000000 0.000000 0.000000 
1.245043 0.941126 0.040004 -175.728454 65.301940 167.891898 9.656307 -3.927656 -3.797180 -48.823108 -13.123853 57.473943 29.707840 26.696593 46.809630 0.000000 0.000000 0.000000 13.616880 0.777419 -4.448599 -6.070369 -11.425245 22.358716 -4.037006 -4.038741 16.863592 0.000000 0.000000 0.000000 0.342555 -3.125731 17.394567 -1.526933 2.009192 -28.100513 3.539440 -9.104726 29.192615 0.918924 7.391270 -13.992596 0.000000 0.000000 0.000000 -20.549532 1.378393 -34.206584 -43.277752 31.069214 -13.546200 -59.421657 -32.928797 12.780168 0.000000 0.000000 0.000000 12.987359 -10.068277 6.545919 55.303485 1.373957 -2.419464 11.805071 35.555237 6.582156 0.000000 0.000000 0.000000 
1.291429 0.946631 0.007106 -175.860730 72.398715 168.607150 10.618696 -3.580145 -8.064032 -32.220952 -13.030237 48.922494 28.777012 26.948728 29.817663 0.000000 0.000000 0.000000 12.747048 0.413345 -0.382817 -7.207732 -9.579906 22.462196 3.569402 3.861276 12.202849 0.000000 0.000000 0.000000 -0.079882 -2.451869 16.152890 0.680497 2.316730 -28.153966 2.452097 -6.957339 28.564447 2.066018 6.816582 -13.814420 0.000000 0.000000 0.000000 -20.628056 3.982993 -32.107260 -42.849308 30.952500 -13.985517 -50.305843 -29.688177 8.424100 0.000000 0.000000 0.000000 12.389243 -9.035108 5.816967 56.459230 3.139707 -1.558414 10.881607 36.180849 6.762402 0.000000 0.000000 0.000000 
1.333658 0.953468 -0.026208 -175.768866 79.375310 170.876359 12.296034 -3.848889 -9.034241 -12.361036 -8.254151 31.598391 10.985338 14.920835 16.923325 0.000000 0.000000 0.000000 10.298161 0.135137 1.110047 -7.221313 -8.131298 22.369710 9.350538 11.133331 12.252632 0.000000 0.000000 0.000000 0.449421 -1.516809 13.199774 0.450482 2.305528 -27.900641 3.160034 -5.692109 28.414984 2.035034 7.015793 -14.075541 0.000000 0.000000 0.000000 -20.233050 3.930891 -29.357802 -45.747865 32.611021 -16.435502 -44.951786 -29.140678 6.528658 0.000000 0.000000 0.000000 12.070619 -8.292213 5.016901 58.247458 2.605757 -1.474132 9.564404 40.581348 8.048464 0.000000 0.000000 0.000000 
1.372083 0.957863 -0.060396 157.648116 88.456612 145.417203 12.802335 -3.579154 -7.288032 -0.782607 -2.756822 15.787099 -5.926124 5.105121 17.905818 0.000000 0.000000 0.000000 7.261700 -0.297596 2.732416 -8.257890 -6.073611 22.436763 12.721984 16.180381 12.770596 0.000000 0.000000 0.000000 -0.983366 -0.920722 11.418311 4.295112 2.020086 -27.110590 1.185864 -4.113034 29.550241 3.183581 7.001056 -17.199818 0.000000 0.000000 0.000000 -20.219032 6.575223 -27.230244 -49.199894 31.635760 -18.198263 -40.918374 -27.733077 5.209283 0.000000 0.000000 0.000000 12.423262 -6.866503 5.254109 57.335862 5.942012 -1.052710 10.551397 45.375797 10.630495 0.000000 0.000000 0.000000 
1.406279 0.958721 -0.095907 12.632712 84.164384 1.414758 12.790443 -3.292970 -5.465767 5.493653 -1.192648 8.147081 -21.635920 -3.881299 26.661749 0.000000 0.000000 0.000000 4.895254 -0.401021 2.480825 -9.848951 -4.713492 23.322085 13.827716 18.445184 14.857802 0.000000 0.000000 0.000000 -1.704702 -0.816928 11.184386 5.906647 1.562100 -27.367856 0.955877 -4.100494 29.034737 1.971310 7.002983 -16.950095 0.000000 0.000000 0.000000 -22.376620 6.001114 -25.840852 -49.137605 31.311362 -17.532122 -38.067173 -28.135538 5.344144 0.000000 0.000000 0.000000 11.313922 -4.645728 4.897045 58.221420 3.968830 -2.154861 11.745449 49.040382 12.815365 0.000000 0.000000 0.000000 
1.433723 0.955340 -0.134547 4.962162 74.823154 -5.196812 12.948676 -3.276969 -1.186194 5.780292 -1.172098 7.940963 -23.155661 -9.663982 24.604435 0.000000 0.000000 0.000000 2.689696 -0.155642 -0.311982 -13.082382 -4.197672 28.159929 16.854802 23.328754 13.984117 0.000000 0.000000 0.000000 -0.953622 -0.684679 10.236347 7.828344 0.683635 -28.649491 -1.031520 -3.455241 32.949219 2.872195 6.711447 -19.599634 0.000000 0.000000 0.000000 -23.213145 5.959760 -23.717727 -50.969750 27.376288 -16.727564 -36.290099 -27.648346 5.162524 0.000000 0.000000 0.000000 13.916278 -3.075325 6.280431 54.924013 7.913589 -2.702042 10.656411 50.722531 12.995827 0.000000 0.000000 0.000000 
1.451888 0.953619 -0.174914 4.312406 67.749463 -4.492295 11.748917 -2.646167 -0.010897 3.002227 -1.291069 10.071731 -14.321671 -4.204978 18.075726 0.000000 0.000000 0.000000 -0.081929 -0.226573 -4.524613 -14.191430 -4.040942 32.642291 15.199452 22.850195 12.416027 0.000000 0.000000 0.000000 -1.262062 -0.899114 11.795373 9.751907 -0.057520 -28.089674 -2.257641 -2.017156 31.386685 3.819855 4.965200 -18.079720 0.000000 0.000000 0.000000 -24.981745 2.765383 -20.857492 -48.012285 21.521037 -12.412360 -36.736896 -29.203890 6.271756 0.000000 0.000000 0.000000 15.855195 -3.498969 6.018515 51.678564 7.307894 -4.130083 15.820642 52.953583 16.589999 0.000000 0.000000 0.000000 
1.462690 0.955264 -0.212455 5.765456 60.568535 -1.396959 9.671147 -1.784148 -0.114756 1.099427 -1.381063 11.767848 -9.336473 -0.892896 14.855147 0.000000 0.000000 0.000000 -2.220136 -0.603083 -10.332626 -12.314712 -4.319621 36.431424 6.075120 10.961305 10.549593 0.000000 0.000000 0.000000 -2.683899 -1.068282 13.935114 11.618852 -0.738134 -26.622754 -2.845911 -2.554095 28.032751 2.451412 4.733724 -18.487882 0.000000 0.000000 0.000000 -28.585290 1.938652 -19.106359 -44.355641 16.484444 -9.045780 -36.434866 -33.247546 8.619453 0.000000 0.000000 0.000000 15.972179 -2.356960 5.337828 50.637846 6.254908 -4.896250 17.918064 53.123596 17.292100 0.000000 0.000000 0.000000 
1.470803 0.958390 -0.242834 6.627762 54.872843 1.139458 7.124795 -1.110478 -0.004173 0.485297 -1.037924 10.295119 -7.472734 0.929118 14.405490 0.000000 0.000000 0.000000 -2.308156 -0.653618 -14.065469 -8.933166 -4.724007 37.315564 -2.994756 -6.070688 6.710544 0.000000 0.000000 0.000000 -3.216631 -1.110153 15.011119 11.536034 -0.877500 -27.882030 -3.582390 -3.418301 28.106869 2.557896 3.779922 -17.425282 0.000000 0.000000 0.000000 -27.730574 1.156878 -15.785201 -42.209997 12.773296 -7.794107 -40.773865 -37.230042 11.802294 0.000000 0.000000 0.000000 17.744357 -2.396567 5.019195 49.677598 5.036519 -5.890177 20.307300 55.359375 19.251783 0.000000 0.000000 0.000000 
1.478762 0.962353 -0.265315 5.624978 47.782993 0.773330 5.824816 -0.770752 0.686365 -1.020531 -0.648988 8.766868 -4.262461 6.658772 17.617032 0.000000 0.000000 0.000000 -1.046296 -0.023362 -14.215675 -2.388085 -6.080329 35.794841 -6.070109 -14.734615 2.528272 0.000000 0.000000 0.000000 -3.049339 -1.200590 16.276727 11.603907 -1.062272 -26.849323 -3.718854 -2.646789 26.495918 1.747961 3.706905 -17.316739 0.000000 0.000000 0.000000 -26.955916 1.678874 -13.711023 -40.922860 8.371957 -6.428588 -46.274487 -40.631809 15.486313 0.000000 0.000000 0.000000 18.255888 -2.044344 4.430375 49.746040 2.674308 -6.852745 23.383786 56.127124 21.044420 0.000000 0.000000 0.000000 
1.486687 0.966373 -0.279555 5.758096 40.247004 0.755038 3.849217 -0.382797 2.249336 -1.936417 -0.380165 7.521577 -0.704910 11.185605 20.000848 0.000000 0.000000 0.000000 0.227293 0.546341 -12.674515 3.049771 -6.843407 33.631111 -6.737183 -15.579909 5.215672 0.000000 0.000000 0.000000 -3.848521 -1.013798 16.753043 12.051292 -1.347148 -27.463508 -4.038768 -1.167403 28.257110 0.930914 4.035812 -18.665946 0.000000 0.000000 0.000000 -26.113807 1.500657 -11.658924 -40.723739 5.625516 -6.092542 -51.958747 -45.695827 20.891691 0.000000 0.000000 0.000000 18.548032 -1.909263 3.849157 49.523760 1.296465 -7.556017 25.139906 56.834901 22.057233 0.000000 0.000000 0.000000 
1.492893 0.968237 -0.285859 5.800467 34.370726 1.057065 2.488493 -0.133304 3.709822 -2.039543 -0.174277 5.509068 1.003249 13.196912 22.034426 0.000000 0.000000 0.000000 1.380003 0.825148 -10.568932 7.738575 -7.261775 30.218823 -7.025277 -14.526085 14.329183 0.000000 0.000000 0.000000 -3.068104 -0.804466 15.288650 10.871987 -1.130791 -27.537854 -4.942517 -2.265469 29.210155 0.196267 3.717534 -17.365402 0.000000 0.000000 0.000000 -25.734564 1.715434 -9.822309 -41.264837 4.024303 -6.260855 -54.471304 -48.683225 24.689170 0.000000 0.000000 0.000000 18.946366 -0.775135 3.612929 49.557920 -1.285639 -8.598064 27.256820 55.274303 21.715406 0.000000 0.000000 0.000000 
1.496188 0.970703 -0.285630 6.260581 26.829828 2.397835 1.171680 0.087044 3.403039 -2.205809 -0.116654 5.923226 1.377533 13.420388 23.963783 0.000000 0.000000 0.000000 2.117400 0.902897 -8.949825 10.559111 -5.914296 24.562743 -10.331643 -19.906104 21.845054 0.000000 0.000000 0.000000 -3.402625 -0.526351 14.280879 10.379510 -1.025731 -29.381703 -5.220319 -1.806759 30.741130 -0.124229 3.426535 -17.803989 0.000000 0.000000 0.000000 -25.354527 2.424541 -8.385083 -43.372332 2.817052 -7.010755 -56.230678 -50.667845 28.069722 0.000000 0.000000 0.000000 20.469622 0.414918 3.609102 48.641460 -2.814955 -9.294486 27.492200 53.844269 20.241116 0.000000 0.000000 0.000000 
1.494632 0.972535 -0.279286 6.887350 19.192766 3.105532 0.806151 0.134798 2.630805 -2.662211 -0.129207 8.875977 0.525007 11.762594 24.972942 0.000000 0.000000 0.000000 2.942844 0.614590 -5.038008 9.955374 -3.264965 16.108263 -13.285819 -24.791393 25.079958 0.000000 0.000000 0.000000 -3.247818 -0.291938 12.088500 9.379486 -1.059998 -26.643001 -5.311828 -0.907671 28.188622 -0.002085 2.627166 -16.512925 0.000000 0.000000 0.000000 -25.747952 2.973991 -7.472093 -44.395373 1.522430 -6.883980 -52.895373 -49.820741 26.678073 0.000000 0.000000 0.000000 20.386970 1.399586 3.007961 49.813342 -5.857714 -10.122304 27.299453 51.382635 18.191944 0.000000 0.000000 0.000000 
1.487181 0.972036 -0.270006 6.366370 12.124616 3.428495 2.448015 -0.067348 0.429066 -6.172681 0.447464 14.239152 5.191371 16.213405 25.809802 0.000000 0.000000 0.000000 4.927712 0.170587 -1.609444 6.682459 -1.390753 11.014948 -10.000477 -21.420673 20.450380 0.000000 0.000000 0.000000 -3.235482 -0.176614 11.277084 10.626727 -1.488438 -26.215926 -5.774249 0.893424 27.015714 0.143950 2.078664 -15.534123 0.000000 0.000000 0.000000 -27.805004 4.106741 -7.723345 -42.706839 1.033585 -6.530189 -50.210214 -47.099758 24.350470 0.000000 0.000000 0.000000 21.819686 2.566455 2.993933 48.204667 -6.541178 -9.966103 24.342192 48.857993 14.977453 0.000000 0.000000 0.000000 
1.475478 0.966644 -0.260584 5.724106 4.336694 3.126048 4.560451 -0.243975 -2.380043 -8.064806 1.341245 20.586644 9.914255 20.712224 27.324895 0.000000 0.000000 0.000000 6.164971 -0.315329 1.047539 4.486204 -0.567077 8.060682 -6.695504 -17.192181 17.318538 0.000000 0.000000 0.000000 -3.286246 -0.088059 10.907605 10.691283 -1.704506 -25.372976 -5.213982 1.792723 27.325183 0.171346 1.737744 -18.333932 0.000000 0.000000 0.000000 -30.907643 4.192967 -6.843788 -41.844396 -0.008668 -6.483903 -43.501604 -46.317785 21.575530 0.000000 0.000000 0.000000 19.717544 4.475581 2.794319 49.668266 -5.796224 -9.748835 24.414579 45.712685 13.314165 0.000000 0.000000 0.000000 
1.462646 0.957906 -0.251251 5.640495 -3.680709 1.601420 3.930526 -0.421599 -6.764385 -6.627228 1.994296 29.418296 12.589956 23.209436 23.199052 0.000000 0.000000 0.000000 6.474491 -0.822382 4.113564 2.084734 0.003909 7.957251 -2.670185 -10.487021 12.117886 0.000000 0.000000 0.000000 -3.711456 0.034860 12.374614 11.001521 -2.116082 -23.558594 -5.167785 3.442139 26.308547 0.553559 1.100956 -19.719987 0.000000 0.000000 0.000000 -32.021123 4.948548 -6.121761 -43.519844 -1.166011 -6.721680 -36.160595 -43.998361 17.729517 0.000000 0.000000 0.000000 19.358542 5.843677 2.505648 49.508700 -4.222527 -8.835317 25.793591 44.152362 12.758762 0.000000 0.000000 0.000000 
1.448737 0.953590 -0.240143 5.766730 -11.592086 0.789591 1.330020 -0.823271 -11.508811 -4.124752 2.378578 33.244434 13.196285 24.038854 16.598067 0.000000 0.000000 0.000000 6.145866 -1.062174 6.173621 0.273157 0.331994 7.182209 0.610219 -5.068399 11.261386 0.000000 0.000000 0.000000 -4.628524 0.289146 13.056461 9.712867 -2.148248 -21.688656 -3.372495 4.314057 25.682236 -0.752075 1.403039 -20.258715 0.000000 0.000000 0.000000 -33.166369 5.057787 -4.615426 -45.308610 -1.644202 -7.293291 -28.653057 -42.118121 14.330914 0.000000 0.000000 0.000000 18.505035 6.349730 1.657671 50.356851 -2.335034 -7.999350 25.933292 43.320383 11.916567 0.000000 0.000000 0.000000 
1.432615 0.952091 -0.225873 5.511739 -19.716724 0.574993 -0.477146 -1.124812 -16.012656 -2.307352 2.595552 31.678445 9.896016 19.034974 10.345602 0.000000 0.000000 0.000000 5.729383 -1.156781 8.024142 -0.859346 0.497756 6.743116 3.865665 0.317820 10.733409 0.000000 0.000000 0.000000 -4.818951 0.454573 12.930548 10.165414 -2.614936 -19.484985 -4.307711 7.228186 25.303542 -0.797795 1.252482 -22.140918 0.000000 0.000000 0.000000 -31.738717 5.580200 -4.027817 -46.997833 -2.337397 -7.455911 -25.682930 -39.564579 12.451177 0.000000 0.000000 0.000000 19.030230 6.762579 1.305907 50.640373 -0.222240 -7.119623 24.550120 43.870398 11.220690 0.000000 0.000000 0.000000 
1.413148 0.951461 -0.207260 5.458375 -27.116748 0.348880 -3.302259 -1.475881 -20.220663 0.238903 1.616947 26.290995 3.251538 6.827285 1.645392 0.000000 0.000000 0.000000 5.289471 -1.118423 9.870689 -2.165508 0.634771 6.304291 6.818065 3.856299 12.086757 0.000000 0.000000 0.000000 -5.855235 0.814707 13.484958 10.427932 -2.777749 -18.814071 -4.229708 9.599944 24.928111 -0.830188 0.994371 -22.553389 0.000000 0.000000 0.000000 -30.395073 7.094091 -4.192522 -48.068920 -2.183677 -7.776845 -26.455423 -38.743297 12.788378 0.000000 0.000000 0.000000 18.461368 6.479680 0.643073 51.254296 1.560601 -6.405829 26.081836 44.088544 11.564001 0.000000 0.000000 0.000000 
1.389236 0.949713 -0.183768 5.285445 -33.719718 0.240083 -4.905851 -1.490482 -21.586070 1.418078 0.544570 17.185123 -3.542921 -6.600779 1.552985 0.000000 0.000000 0.000000 4.913799 -0.969263 12.646307 -3.360553 0.696322 5.625340 9.003569 6.718563 12.416954 0.000000 0.000000 0.000000 -6.346667 1.100813 13.945215 11.380669 -3.007805 -18.468288 -5.267209 12.915914 23.909251 -0.884539 0.957328 -20.255405 0.000000 0.000000 0.000000 -29.094535 7.001146 -3.873212 -48.704222 -2.120875 -7.844257 -24.545918 -37.710957 11.731664 0.000000 0.000000 0.000000 18.771046 6.001909 0.250071 51.424896 1.879996 -6.276497 29.019740 44.627411 12.857908 0.000000 0.000000 0.000000 
1.359181 0.945222 -0.155069 5.726855 -39.398914 0.012244 -6.622605 -1.502691 -22.801175 0.052746 0.547967 10.977469 -3.686339 -5.771919 9.495277 0.000000 0.000000 0.000000 4.094264 -0.562653 14.473176 -4.289659 0.967655 7.065233 10.163918 8.052339 12.454885 0.000000 0.000000 0.000000 -7.126210 1.271946 12.811835 11.120665 -3.017354 -17.618799 -5.322693 13.924269 23.123296 -1.445191 0.945176 -20.367244 0.000000 0.000000 0.000000 -28.126078 8.678853 -4.212810 -48.848205 -2.514399 -7.709333 -23.022682 -36.422748 10.961976 0.000000 0.000000 0.000000 18.911329 7.142169 0.165524 52.299945 2.261085 -6.045219 28.084311 44.525565 11.984340 0.000000 0.000000 0.000000 
1.321951 0.941632 -0.120600 6.152388 -43.505766 -1.237097 -7.138822 -1.411065 -22.067358 -0.706324 0.847569 10.394779 -1.352650 -2.032824 14.956886 0.000000 0.000000 0.000000 2.946119 0.113622 17.379322 -3.633199 1.076666 8.525286 11.393297 6.648209 15.588523 0.000000 0.000000 0.000000 -8.179583 1.419877 11.631396 9.640693 -2.768137 -17.309020 -3.844272 14.951189 23.605103 -1.281078 0.521311 -17.043677 0.000000 0.000000 0.000000 -26.473235 8.283824 -3.219232 -50.406646 -2.541209 -7.939166 -18.656163 -35.941611 9.472451 0.000000 0.000000 0.000000 19.639672 7.773243 -0.136044 52.597306 0.547975 -6.694299 27.422755 44.053834 11.233381 0.000000 0.000000 0.000000 
1.279701 0.939431 -0.080682 5.143775 -46.379011 -1.229742 -7.797314 -1.403668 -21.458435 2.234335 0.765624 15.605407 0.343750 0.187978 13.199156 0.000000 0.000000 0.000000 2.306060 0.457673 17.408421 -2.204063 1.887964 14.700912 13.210162 4.942955 20.695091 0.000000 0.000000 0.000000 -8.735802 1.258578 8.918575 10.750127 -3.026386 -16.039429 -4.022694 15.986342 24.534131 0.002532 -0.541682 -18.674056 0.000000 0.000000 0.000000 -24.353541 7.954286 -2.628344 -51.831828 -2.298792 -8.139806 -17.461804 -38.568456 10.048978 0.000000 0.000000 0.000000 20.118033 7.640493 -0.565339 51.944092 0.700286 -6.529230 25.680793 42.720948 9.990447 0.000000 0.000000 0.000000 
1.237401 0.939022 -0.040601 5.588399 -47.272018 -2.696030 -8.944376 -1.670108 -19.060274 3.220024 1.462547 20.814420 2.102791 3.304657 8.734946 0.000000 0.000000 0.000000 -0.151155 0.552576 12.508016 2.715224 4.009205 28.451366 12.417138 -0.785489 28.455367 0.000000 0.000000 0.000000 -9.462246 1.324027 8.415814 10.843746 -2.964563 -16.956270 -4.006363 14.645345 25.509586 -0.058219 -0.876618 -18.441091 0.000000 0.000000 0.000000 -24.064828 7.926811 -1.933879 -50.798214 -3.009751 -7.977940 -16.048006 -38.595227 9.756528 0.000000 0.000000 0.000000 19.469816 7.992957 -0.870866 52.304301 -0.640563 -7.154215 25.409228 41.024436 9.087304 0.000000 0.000000 0.000000 
1.198486 0.938952 -0.005216 5.086257 -47.251110 -4.000343 -8.634458 -1.655246 -13.764717 3.954122 1.534020 21.917538 0.849289 1.723151 4.064230 0.000000 0.000000 0.000000 -1.708321 0.327305 4.530987 10.912736 5.676645 43.205443 6.111208 -9.892823 36.717918 0.000000 0.000000 0.000000 -9.937688 1.520423 9.632375 12.967199 -3.292024 -17.135460 -5.745109 13.177410 25.819868 -0.186752 -0.971026 -17.917046 0.000000 0.000000 0.000000 -24.105587 7.440659 -1.243430 -49.844230 -5.114392 -7.274534 -16.375238 -40.301326 10.507475 0.000000 0.000000 0.000000 18.991559 7.679919 -1.225119 52.779758 -1.475271 -7.680159 21.823904 41.773832 7.852720 0.000000 0.000000 0.000000 
1.161910 0.941471 0.025402 4.078046 -48.250788 -4.798117 -7.843215 -1.327031 -8.594107 3.928938 1.479302 20.866911 1.369545 2.807368 4.101999 0.000000 0.000000 0.000000 -2.773405 0.596125 -4.490573 18.895878 5.375302 52.738352 -3.179241 -18.576182 38.709764 0.000000 0.000000 0.000000 -8.031465 1.329587 11.403748 10.253754 -3.029291 -16.778874 -4.523778 11.047678 24.858428 -0.621679 -1.016644 -17.488664 0.000000 0.000000 0.000000 -25.265057 6.700179 0.105830 -46.734831 -7.848877 -6.299143 -15.565354 -42.506537 10.912534 0.000000 0.000000 0.000000 19.362853 8.323016 -1.866498 52.537111 -3.102758 -7.883654 20.837630 42.174091 7.102415 0.000000 0.000000 0.000000 
1.125067 0.946394 0.054056 3.091151 -47.353182 -5.436939 -6.457132 -0.606854 -2.364406 3.208011 1.017604 17.512866 0.794002 1.665629 4.950998 0.000000 0.000000 0.000000 -2.423055 1.387284 -12.367151 21.496034 4.379607 53.787081 -11.151233 -26.443540 27.532949 0.000000 0.000000 0.000000 -7.616977 1.559142 13.896635 11.821805 -3.089417 -18.461038 -5.557424 9.386231 25.808773 -0.790267 -1.056383 -17.031825 0.000000 0.000000 0.000000 -24.567161 5.777366 0.968411 -45.996449 -10.577635 -5.369706 -15.672796 -46.542752 12.340004 0.000000 0.000000 0.000000 20.197042 7.975084 -2.579215 50.547788 -4.212333 -7.820443 20.890137 41.099913 6.839767 0.000000 0.000000 0.000000 
1.087212 0.950449 0.082246 1.658325 -46.405561 -5.350115 -4.077172 0.297064 3.000624 1.912256 0.941974 15.033994 0.185541 0.439236 5.997224 0.000000 0.000000 0.000000 -2.243030 2.405981 -18.014921 16.302755 4.589434 45.976520 -13.707618 -29.785869 12.958430 0.000000 0.000000 0.000000 -5.770381 1.343234 15.407048 10.364852 -2.927044 -18.655752 -4.856169 6.798371 26.390226 0.328769 -2.146579 -20.053278 0.000000 0.000000 0.000000 -24.678582 5.104932 2.063439 -45.112539 -14.260211 -4.232056 -14.481190 -51.237273 13.604972 0.000000 0.000000 0.000000 21.959299 7.482573 -4.127685 49.125056 -6.164680 -7.829318 20.640630 41.393474 6.516364 0.000000 0.000000 0.000000 
1.048007 0.949383 0.111786 0.636691 -44.356228 -5.218399 -2.722792 1.317127 8.263904 2.150101 0.290158 11.790644 0.156315 0.363426 6.930057 0.000000 0.000000 0.000000 -1.785998 2.834221 -19.935103 7.534271 3.725690 31.919813 -11.073225 -25.923887 10.556883 0.000000 0.000000 0.000000 -4.505852 1.110816 16.107144 11.327887 -3.126031 -18.728548 -5.693665 4.539696 26.720011 0.716879 -2.503237 -22.053380 0.000000 0.000000 0.000000 -25.045025 5.075937 2.392641 -45.126567 -15.753539 -3.813283 -16.189537 -55.932955 16.437752 0.000000 0.000000 0.000000 22.384772 6.803253 -4.908509 48.788560 -7.559580 -8.226426 19.595366 39.699641 5.854859 0.000000 0.000000 0.000000 
1.006386 0.944615 0.143256 0.765858 -42.708051 -5.121250 -0.775608 2.256098 12.730042 1.231561 0.307395 10.285397 -1.384493 -2.523334 5.194204 0.000000 0.000000 0.000000 -3.188367 2.856813 -20.609963 2.430753 1.499562 16.283791 -6.304022 -18.631719 9.377528 0.000000 0.000000 0.000000 -4.099359 0.922128 15.571587 11.561697 -3.191093 -18.621461 -6.264770 3.064147 26.824418 0.278108 -2.323418 -24.136497 0.000000 0.000000 0.000000 -26.399508 4.681160 3.122169 -44.301373 -18.013808 -3.321236 -15.461200 -59.094766 17.354469 0.000000 0.000000 0.000000 23.239032 6.037917 -5.848145 47.889830 -9.532742 -8.612940 21.177337 38.748402 6.155874 0.000000 0.000000 0.000000 
0.959852 0.938998 0.177276 0.043788 -40.379512 -3.962881 -0.181673 2.877910 15.681765 4.593069 -0.678012 9.698894 -2.456958 -4.628568 6.144096 0.000000 0.000000 0.000000 -4.354186 2.697546 -20.428794 -0.210899 0.342475 4.744394 -0.822724 -14.402664 17.529066 0.000000 0.000000 0.000000 -2.951857 0.514032 14.172245 14.077126 -3.628928 -18.292010 -9.279647 1.799558 25.332535 0.663174 -2.531238 -21.354701 0.000000 0.000000 0.000000 -25.512949 6.072357 1.774905 -45.935630 -17.176088 -3.200847 -22.739245 -60.029098 22.393045 0.000000 0.000000 0.000000 22.962824 5.703974 -5.804046 48.519965 -12.091127 -9.785073 20.590126 36.986257 5.754527 0.000000 0.000000 0.000000 
0.906207 0.932877 0.213097 0.231660 -39.456914 -3.473313 1.334055 3.052688 16.962346 5.171164 -0.707186 12.328074 -3.878312 -6.946301 8.795891 0.000000 0.000000 0.000000 -6.095612 2.670748 -20.897171 0.557809 0.235469 3.943155 2.948004 -12.663552 25.779990 0.000000 0.000000 0.000000 -2.164173 0.191501 11.898009 12.406359 -3.531754 -17.207850 -7.263084 0.214239 25.279794 -2.880780 -0.389565 -21.091677 0.000000 0.000000 0.000000 -28.533393 7.735311 1.481826 -43.928236 -16.841271 -3.851837 -30.312814 -60.012604 27.333201 0.000000 0.000000 0.000000 21.563589 5.736164 -5.757408 49.556562 -13.949226 -10.904031 19.982826 37.148412 5.401222 0.000000 0.000000 0.000000 
0.846485 0.929616 0.249207 -1.645647 -37.488395 -2.192326 3.383887 2.765033 16.727547 10.286254 -1.752124 18.077216 -7.307594 -10.929856 15.201286 0.000000 0.000000 0.000000 -3.365877 2.623460 -19.920917 -0.013341 0.923935 10.627551 2.482382 -10.867466 20.861536 0.000000 0.000000 0.000000 0.980387 -0.234523 11.253120 13.086900 -3.167253 -20.181803 -8.480848 0.235657 26.455766 -2.460266 -0.577109 -19.597222 0.000000 0.000000 0.000000 -29.760340 8.304822 1.172112 -46.227954 -14.330370 -4.991333 -29.649845 -59.212916 26.638265 0.000000 0.000000 0.000000 20.796392 4.704021 -5.854518 50.570555 -15.357182 -12.108612 20.355442 36.276835 5.465874 0.000000 0.000000 0.000000 
0.786528 0.930831 0.282260 -2.819585 -37.840918 -2.651499 4.211453 2.361465 14.817532 13.226016 -1.761355 28.607949 -6.572087 -7.296613 22.559682 0.000000 0.000000 0.000000 -1.288209 2.516406 -18.631060 0.614062 1.886686 17.553966 3.333488 -7.296734 16.919549 0.000000 0.000000 0.000000 2.781047 -0.396874 11.587965 9.735909 -2.796966 -19.499878 -5.367838 0.255646 27.169695 -1.977018 -0.935572 -20.473883 0.000000 0.000000 0.000000 -30.626296 8.373773 1.380317 -47.538996 -13.189551 -5.589238 -27.719249 -54.925935 23.197677 0.000000 0.000000 0.000000 20.952332 5.078835 -5.826358 50.310001 -14.873865 -11.771513 21.167256 35.133087 5.469916 0.000000 0.000000 0.000000 
0.734316 0.933970 0.310519 -2.175842 -39.121776 -4.681604 3.305337 1.627777 10.303557 16.060156 -0.923493 41.286896 -9.540624 -8.384185 28.217125 0.000000 0.000000 0.000000 -0.957889 1.838761 -15.096936 1.900998 2.093197 19.901770 4.264135 -4.242959 14.725335 0.000000 0.000000 0.000000 3.056888 -0.310967 14.072398 7.378436 -2.391982 -19.482837 -3.919336 0.645620 27.145857 -2.019036 -0.934389 -22.865559 0.000000 0.000000 0.000000 -32.096909 9.913260 0.233424 -48.099739 -11.236370 -6.340955 -25.415028 -51.335093 19.947171 0.000000 0.000000 0.000000 22.750956 7.143550 -5.380271 47.211698 -11.964431 -9.309334 19.749189 34.872976 5.090327 0.000000 0.000000 0.000000 
0.688710 0.940435 0.336159 -1.455048 -35.830687 -5.281829 2.468443 0.524132 2.645913 13.236450 0.838827 47.192377 -5.747228 -6.212978 17.113899 0.000000 0.000000 0.000000 -0.043080 1.094112 -10.353873 2.173695 1.533061 17.589800 0.770880 -8.917535 13.493976 0.000000 0.000000 0.000000 3.689469 -0.429417 13.314322 4.798434 -1.866326 -18.699201 -2.925438 3.550025 26.752006 0.968411 -2.172813 -19.096088 0.000000 0.000000 0.000000 -31.555406 3.949035 3.045482 -47.780430 -8.827152 -6.865246 -17.324274 -43.494391 11.675449 0.000000 0.000000 0.000000 23.612169 5.705905 -4.849594 48.139392 -11.032031 -9.449114 18.400620 38.265239 5.687363 0.000000 0.000000 0.000000 
