HIERARCHY
ROOT Hips
{
	OFFSET -0.001795 -0.223333 0.028219
	CHANNELS 6 Xposition Yposition Zposition Zrotation Yrotation Xrotation 
	JOINT LeftUpLeg
	{
		OFFSET 0.069520 -0.091406 -0.006815
		CHANNELS 3 Zrotation Yrotation Xrotation
		JOINT LeftLeg
		{
			OFFSET 0.034277 -0.375199 -0.004496
			CHANNELS 3 Zrotation Yrotation Xrotation
			JOINT LeftFoot
			{
				OFFSET -0.013596 -0.397961 -0.043693
				CHANNELS 3 Zrotation Yrotation Xrotation
				JOINT LeftToe
				{
					OFFSET 0.026358 -0.055791 0.119288
					CHANNELS 3 Zrotation Yrotation Xrotation
					End Site
					{
						OFFSET 0.000000 0.000000 0.000000
					}
				}
			}
		}
	}
	JOINT RightUpLeg
	{
		OFFSET -0.067670 -0.090522 -0.004320
		CHANNELS 3 Zrotation Yrotation Xrotation
		JOINT RightLeg
		{
			OFFSET -0.038290 -0.382569 -0.008850
			CHANNELS 3 Zrotation Yrotation Xrotation
			JOINT RightFoot
			{
				OFFSET 0.015774 -0.398415 -0.042312
				CHANNELS 3 Zrotation Yrotation Xrotation
				JOINT RightToe
				{
					OFFSET -0.025372 -0.048144 0.123348
					CHANNELS 3 Zrotation Yrotation Xrotation
					End Site
					{
						OFFSET 0.000000 0.000000 0.000000
					}
				}
			}
		}
	}
	JOINT Spine
	{
		OFFSET -0.002533 0.108963 -0.026696
		CHANNELS 3 Zrotation Yrotation Xrotation
		JOINT Spine1
		{
			OFFSET 0.005487 0.135180 0.001092
			CHANNELS 3 Zrotation Yrotation Xrotation
			JOINT Spine2
			{
				OFFSET 0.001457 0.052922 0.025425
				CHANNELS 3 Zrotation Yrotation Xrotation
				JOINT Neck
				{
					OFFSET -0.002778 0.213870 -0.042857
					CHANNELS 3 Zrotation Yrotation Xrotation
					JOINT Head
					{
						OFFSET 0.005152 0.064970 0.051349
						CHANNELS 3 Zrotation Yrotation Xrotation
						End Site
						{
							OFFSET 0.000000 0.000000 0.000000
						}
					}
				}
				JOINT LeftShoulder
				{
					OFFSET 0.078845 0.121749 -0.034090
					CHANNELS 3 Zrotation Yrotation Xrotation
					JOINT LeftArm
					{
						OFFSET 0.090977 0.030469 -0.008868
						CHANNELS 3 Zrotation Yrotation Xrotation
						JOINT LeftForeArm
						{
							OFFSET 0.259612 -0.012772 -0.027456
							CHANNELS 3 Zrotation Yrotation Xrotation
							JOINT LeftHand
							{
								OFFSET 0.249234 0.008986 -0.001171
								CHANNELS 3 Zrotation Yrotation Xrotation
								End Site
								{
									OFFSET 0.000000 0.000000 0.000000
								}
							}
						}
					}
				}
				JOINT RightShoulder
				{
					OFFSET -0.081759 0.118833 -0.038615
					CHANNELS 3 Zrotation Yrotation Xrotation
					JOINT RightArm
					{
						OFFSET -0.096012 0.032551 -0.009143
						CHANNELS 3 Zrotation Yrotation Xrotation
						JOINT RightForeArm
						{
							OFFSET -0.253742 -0.013329 -0.021401
							CHANNELS 3 Zrotation Yrotation Xrotation
							JOINT RightHand
							{
								OFFSET -0.255298 0.007772 -0.005559
								CHANNELS 3 Zrotation Yrotation Xrotation
								End Site
								{
									OFFSET 0.000000 0.000000 0.000000
								}
							}
						}
					}
				}
			}
		}
	}
}
MOTION
Frames: 92
Frame Time: 0.050000
0.000000 0.952719 0.000000 -1.131284 -2.609750 -0.900197 -0.261794 0.554598 5.695843 0.740148 0.001197 -2.144998 0.210220 3.621583 8.536464 0.000000 0.000000 0.000000 -0.165289 0.374101 -3.777045 -0.274501 0.303705 6.141374 3.366058 2.554678 9.290252 0.000000 0.000000 0.000000 4.454851 -0.260907 3.014582 -1.949510 0.951019 2.925147 -2.393919 1.724316 2.662703 5.048551 -2.310052 -12.001952 0.000000 0.000000 0.000000 -28.655748 -2.620661 -1.703922 -47.600649 0.873963 -5.689387 -8.083436 -22.548554 2.392510 0.000000 0.000000 0.000000 25.539847 -1.430313 -3.114801 49.252740 -1.695901 -5.329990 14.233292 31.434382 4.877972 0.000000 0.000000 0.000000 
-0.006941 0.950768 0.009254 -1.123860 -2.456823 -0.219234 0.281661 0.543880 5.924306 0.566604 0.042575 -2.766478 0.197247 3.482721 8.148469 0.000000 0.000000 0.000000 0.500155 0.406370 -4.041413 0.343173 0.198802 5.956857 1.764791 -0.583077 8.949340 0.000000 0.000000 0.000000 4.995930 -0.181178 1.741308 -2.150644 1.065610 5.077599 -2.791104 1.346099 1.431708 4.808597 -1.872423 -14.023639 0.000000 0.000000 0.000000 -28.336430 -2.218355 -1.925143 -48.608732 0.515088 -5.586213 -6.832196 -22.643665 2.149585 0.000000 0.000000 0.000000 25.258301 -1.524898 -3.234111 50.395129 -1.404887 -5.208765 13.823039 32.137582 4.855243 0.000000 0.000000 0.000000 
-0.014844 0.949440 0.018610 -0.449755 -2.597156 -0.009812 -0.136023 0.525410 5.460253 0.827751 -0.043090 -1.268702 0.400874 3.722126 7.813291 0.000000 0.000000 0.000000 1.052117 0.437366 -4.292526 -0.522174 0.349839 6.294178 0.836492 -2.589605 9.102583 0.000000 0.000000 0.000000 5.213120 -0.237554 2.305922 -2.632973 1.292995 2.370459 -2.521795 1.138601 3.481766 3.704671 -1.295199 -13.801333 0.000000 0.000000 0.000000 -28.184879 -2.334213 -1.561540 -48.613661 -0.268088 -5.523052 -6.797731 -21.779097 2.099031 0.000000 0.000000 0.000000 25.954888 -1.364471 -3.301268 50.313856 -1.021280 -5.203528 13.048570 32.382506 4.685514 0.000000 0.000000 0.000000 
-0.023882 0.948177 0.028462 -0.222646 -2.913646 0.313012 -0.114981 0.538871 5.583267 1.264239 -0.105781 -0.887221 0.628433 4.068278 7.701754 0.000000 0.000000 0.000000 1.743820 0.493328 -4.735574 -1.178996 0.529455 7.624512 0.678902 -2.480741 8.020256 0.000000 0.000000 0.000000 5.790105 -0.245994 2.178723 -3.027587 1.507919 3.026237 -2.539483 0.561574 2.870489 3.272546 -1.069008 -13.856158 0.000000 0.000000 0.000000 -28.463364 -2.041671 -1.534154 -48.638995 -0.149976 -5.584537 -6.837857 -22.108297 2.161379 0.000000 0.000000 0.000000 25.585317 -1.121351 -3.372571 50.855964 -0.769837 -5.032903 12.527153 33.298311 4.607738 0.000000 0.000000 0.000000 
-0.033629 0.947313 0.038958 -0.069047 -3.262728 0.174870 0.046951 0.492288 5.170713 1.632296 -0.254420 1.412867 0.953381 4.569085 7.511028 0.000000 0.000000 0.000000 2.374450 0.424365 -4.106695 -1.540423 0.617116 8.025781 0.650016 -2.200180 7.182953 0.000000 0.000000 0.000000 6.138959 -0.352003 3.254098 -2.831083 1.408183 2.832073 -2.749859 0.817359 2.298205 2.946128 -0.889360 -13.397929 0.000000 0.000000 0.000000 -27.817611 -2.964687 -0.966120 -48.583923 -0.271090 -5.467185 -7.495771 -22.210392 2.286486 0.000000 0.000000 0.000000 25.256915 -1.334714 -3.430530 51.865883 -0.164217 -4.853148 12.242942 34.087461 4.651420 0.000000 0.000000 0.000000 
-0.043565 0.946554 0.050357 0.028595 -2.835353 0.286735 0.668764 0.293613 3.370443 1.438703 -0.420642 5.791267 1.034464 4.577588 6.939933 0.000000 0.000000 0.000000 2.463593 0.350641 -3.483148 -0.723457 0.479061 8.139270 0.399701 -2.438968 6.625931 0.000000 0.000000 0.000000 6.150441 -0.375129 3.464219 -2.354817 1.168412 3.718481 -2.813310 0.083475 1.285683 2.149485 -0.432127 -13.193633 0.000000 0.000000 0.000000 -26.556422 -1.778629 -1.489976 -49.006525 -0.344384 -5.430932 -7.986617 -22.333314 2.403211 0.000000 0.000000 0.000000 23.937796 -1.024540 -3.253522 53.590515 0.213926 -4.728789 10.543294 34.295088 4.112372 0.000000 0.000000 0.000000 
-0.053091 0.947095 0.062445 -0.035905 -3.644700 0.896949 1.595912 -0.025828 -0.176698 0.478135 -0.448044 12.147990 1.546973 5.874136 8.501315 0.000000 0.000000 0.000000 2.934372 0.381687 -3.790517 -0.535249 0.491209 8.854843 0.733668 -1.776273 6.596015 0.000000 0.000000 0.000000 6.988399 -0.425655 3.554456 -2.144156 1.048709 1.879964 -3.290270 0.930414 2.637674 1.570391 0.020164 -13.946467 0.000000 0.000000 0.000000 -26.052479 -0.306193 -2.448182 -48.659718 0.822186 -5.917869 -8.968066 -24.604425 2.871356 0.000000 0.000000 0.000000 22.493533 -1.097551 -2.917009 54.905166 0.760174 -4.785772 10.632864 34.071894 4.194453 0.000000 0.000000 0.000000 
-0.061615 0.946804 0.075707 0.274347 -3.829541 -0.226303 1.581806 -0.269967 -3.348525 -0.342910 -0.415322 21.498007 2.673252 7.856142 8.515092 0.000000 0.000000 0.000000 3.317674 0.104489 -1.560673 -0.976189 0.559434 8.641791 0.764323 -1.492904 6.116143 0.000000 0.000000 0.000000 7.004198 -0.600342 5.582486 -2.856231 1.383821 0.422274 -2.203766 2.076158 4.106358 1.880536 -0.019066 -15.073806 0.000000 0.000000 0.000000 -25.174604 -1.683746 -1.701482 -49.200431 0.818410 -6.073180 -9.369658 -26.181650 3.138431 0.000000 0.000000 0.000000 21.707058 -2.191095 -3.178853 55.010871 0.076116 -5.308756 12.907092 36.633106 5.409989 0.000000 0.000000 0.000000 
-0.069430 0.946305 0.090144 0.096424 -4.093885 -0.550747 1.246207 -0.520452 -6.437541 -0.234554 -0.504216 28.008755 3.355548 9.182785 9.272011 0.000000 0.000000 0.000000 4.259304 -0.191188 0.557609 -1.635827 0.588607 7.235010 0.920141 -1.085501 5.939068 0.000000 0.000000 0.000000 7.226447 -0.725489 6.808117 -2.573718 1.234072 -0.434657 -2.647490 3.158971 4.729339 3.559821 -1.074732 -14.096980 0.000000 0.000000 0.000000 -24.630858 -0.760086 -2.506102 -49.522999 0.888933 -6.123630 -9.375694 -27.392202 3.237755 0.000000 0.000000 0.000000 22.065884 -2.327149 -2.983534 55.428657 0.053481 -5.489322 10.718558 36.875879 4.895183 0.000000 0.000000 0.000000 
-0.076874 0.944631 0.105316 0.347145 -4.626889 -0.105938 -0.455343 -0.945958 -10.156814 1.135673 -1.030996 32.095931 3.679531 9.569725 8.588911 0.000000 0.000000 0.000000 3.904882 -0.288914 1.341993 -0.904228 0.461455 7.051100 1.006966 -0.312131 4.757249 0.000000 0.000000 0.000000 6.839488 -0.693982 6.662557 -2.414501 1.188309 1.513517 -2.819591 4.215428 3.088773 3.200337 -0.909455 -12.649428 0.000000 0.000000 0.000000 -23.563656 -0.860659 -2.651506 -50.302857 1.759804 -6.373715 -9.040811 -28.457618 3.196299 0.000000 0.000000 0.000000 22.562131 -2.395287 -2.877038 54.946845 -1.217846 -5.891656 10.305000 38.495833 5.062585 0.000000 0.000000 0.000000 
-0.083743 0.943464 0.122216 -0.297338 -6.409789 0.615605 0.022687 -1.266813 -14.957441 0.889060 -0.694613 37.719696 3.778714 9.347331 6.971397 0.000000 0.000000 0.000000 5.135763 -0.432017 1.906476 -1.850049 0.637982 7.314050 1.618958 1.742785 3.462159 0.000000 0.000000 0.000000 7.837261 -0.744716 6.503355 -3.391313 1.715135 2.286617 -2.296941 5.977688 2.415072 2.995652 -0.511779 -14.257045 0.000000 0.000000 0.000000 -23.751498 0.154430 -3.544336 -49.587440 3.065846 -6.660929 -10.285072 -30.055866 3.633332 0.000000 0.000000 0.000000 21.566614 -3.128929 -2.992350 54.561127 -2.238749 -6.252325 13.372021 39.764083 6.428911 0.000000 0.000000 0.000000 
-0.089695 0.941560 0.142456 -0.437000 -6.345103 0.138319 0.458396 -1.478152 -18.831076 0.426350 -0.481365 40.912652 3.726677 9.045559 5.851331 0.000000 0.000000 0.000000 5.095984 -0.679725 3.790737 -1.575265 0.622322 7.752738 2.056872 3.347667 2.606791 0.000000 0.000000 0.000000 7.297311 -0.860492 8.148675 -2.696001 1.340279 1.551910 -1.815377 7.190367 2.543056 3.374615 -0.535953 -15.137237 0.000000 0.000000 0.000000 -24.804558 0.237346 -4.120528 -49.055069 5.347619 -7.377097 -11.405144 -30.541885 3.914091 0.000000 0.000000 0.000000 21.251188 -4.221284 -3.296170 53.125143 -2.563554 -6.266713 16.449261 41.683498 8.112463 0.000000 0.000000 0.000000 
-0.095119 0.938938 0.166689 -0.043224 -6.744463 -0.113819 -0.101844 -1.856552 -23.199720 -0.772348 0.171794 40.386157 3.131390 7.562805 4.209304 0.000000 0.000000 0.000000 5.244853 -1.006838 6.199247 -2.352154 0.740019 7.592647 1.592580 3.527489 0.689108 0.000000 0.000000 0.000000 7.001433 -0.949421 9.471787 -2.860445 1.382780 0.086923 -1.474583 8.089913 3.445017 3.467768 -0.555125 -15.037743 0.000000 0.000000 0.000000 -25.570088 2.577025 -5.787645 -47.253769 8.307079 -8.188908 -14.991821 -32.487480 5.177767 0.000000 0.000000 0.000000 19.862650 -4.078796 -2.920274 53.489106 -3.379394 -6.727482 17.025267 44.075939 9.037874 0.000000 0.000000 0.000000 
-0.100639 0.935926 0.194777 0.356891 -8.128708 -0.564542 -0.380193 -2.006895 -25.843606 -2.480922 0.984000 34.128969 2.913866 7.119644 4.535952 0.000000 0.000000 0.000000 4.757354 -1.231523 8.476294 -3.110775 0.886920 7.809968 2.276396 5.689838 0.070242 0.000000 0.000000 0.000000 6.231713 -0.945947 10.519202 -2.896785 1.422924 0.685813 -1.473722 10.116344 2.881326 3.448337 -0.409216 -15.012789 0.000000 0.000000 0.000000 -25.527722 2.287025 -6.069727 -47.693051 11.749583 -9.458912 -15.536353 -33.722174 5.407627 0.000000 0.000000 0.000000 20.444221 -4.362134 -2.808587 52.382373 -4.174450 -6.943466 20.719707 47.588748 11.784585 0.000000 0.000000 0.000000 
-0.106509 0.930846 0.226893 0.379992 -9.797224 -0.728304 -0.477395 -2.022527 -27.812328 -2.778254 0.760432 22.583464 3.204148 9.260476 15.735142 0.000000 0.000000 0.000000 4.666259 -1.473000 10.905027 -3.719197 0.962907 7.506257 2.556991 6.613177 -0.238640 0.000000 0.000000 0.000000 6.187228 -0.997454 11.589751 -3.804730 1.878036 0.657805 -1.097863 11.288989 2.665888 2.844885 -0.033895 -14.812890 0.000000 0.000000 0.000000 -25.332918 3.362491 -6.731999 -47.677665 14.678456 -10.571830 -16.776990 -35.033690 5.987114 0.000000 0.000000 0.000000 20.150705 -4.527381 -2.825129 52.112725 -4.523389 -7.031960 24.701716 51.798552 15.129888 0.000000 0.000000 0.000000 
-0.112659 0.923572 0.262983 0.107867 -10.844337 -0.705651 -0.801014 -2.072791 -28.894577 -1.318414 0.122437 11.946005 1.871547 8.442887 24.214298 0.000000 0.000000 0.000000 4.900319 -1.720377 13.149159 -3.986121 1.040215 7.856888 2.331638 6.305990 -0.604227 0.000000 0.000000 0.000000 5.729981 -0.970066 12.034961 -4.135806 2.059305 0.871809 -1.036527 12.304187 2.726795 3.550847 -0.361802 -15.238610 0.000000 0.000000 0.000000 -24.787518 3.704263 -6.944693 -48.850023 16.628383 -11.674746 -16.698273 -37.561049 6.353700 0.000000 0.000000 0.000000 20.546574 -4.291965 -2.596408 51.413052 -3.564684 -6.590923 31.571331 56.130148 20.689145 0.000000 0.000000 0.000000 
-0.118832 0.913269 0.303180 0.190420 -11.893208 -0.647219 -1.214707 -2.155468 -30.497287 -0.727401 -0.004777 8.971252 0.079249 6.095202 24.840359 0.000000 0.000000 0.000000 4.060848 -1.787030 15.617996 -3.803148 1.030476 8.065782 2.711059 7.546021 -0.955379 0.000000 0.000000 0.000000 4.672547 -0.866559 12.371399 -4.672526 2.365721 1.348730 -1.066981 13.173053 3.272930 4.312639 -0.670163 -16.101631 0.000000 0.000000 0.000000 -24.080648 4.304819 -7.184762 -49.336978 16.992495 -12.036545 -17.059862 -40.303815 6.937913 0.000000 0.000000 0.000000 20.260868 -3.380714 -1.948935 52.022452 -2.176135 -6.161092 38.977700 60.343916 27.487160 0.000000 0.000000 0.000000 
-0.124756 0.902543 0.346997 0.357141 -12.412896 -0.037660 -1.576051 -2.280568 -32.965273 -0.648867 -0.003887 12.751089 -0.193733 5.144589 22.044138 0.000000 0.000000 0.000000 3.589601 -1.835222 17.459251 -4.072591 1.192016 9.216266 2.644564 7.747648 -1.400877 0.000000 0.000000 0.000000 3.473783 -0.802532 13.969523 -5.631421 2.734824 -0.123547 -0.738432 14.507390 4.427005 5.966191 -1.305639 -17.884529 0.000000 0.000000 0.000000 -24.209193 2.377972 -6.400340 -50.539397 15.482965 -11.775249 -13.412174 -42.878016 5.881486 0.000000 0.000000 0.000000 20.727541 -3.912701 -2.002440 51.763266 -0.773104 -5.714028 49.821846 62.890836 36.865444 0.000000 0.000000 0.000000 
-0.130404 0.893089 0.395430 0.326587 -12.794834 0.709435 -1.580795 -2.285226 -35.210375 -1.125022 0.263048 19.660480 0.553138 5.552351 18.788535 0.000000 0.000000 0.000000 2.557289 -1.699026 18.632753 -3.934424 1.420010 11.621508 4.223759 10.224649 0.248483 0.000000 0.000000 0.000000 1.532478 -0.570026 14.865621 -5.017727 2.376703 -0.814429 -1.899889 15.526908 5.486970 6.392761 -1.162868 -19.691907 0.000000 0.000000 0.000000 -25.670027 1.532064 -6.607841 -50.132121 12.041400 -10.157012 -8.853840 -45.613589 4.238643 0.000000 0.000000 0.000000 22.191860 -2.399876 -0.797817 50.995582 1.395834 -5.062539 54.510510 64.797951 42.184718 0.000000 0.000000 0.000000 
-0.135257 0.891395 0.449797 0.539276 -10.933116 2.764461 -2.484153 -2.884711 -37.731779 -1.549608 0.471415 26.075924 0.525230 5.069730 15.016807 0.000000 0.000000 0.000000 2.417028 -1.735622 17.805417 -3.682939 1.827263 16.035110 5.167670 9.562619 3.669059 0.000000 0.000000 0.000000 -0.245803 -0.355563 15.235414 -5.005247 2.338508 -1.148120 -1.469629 14.939874 5.171334 7.218787 -1.356060 -21.167086 0.000000 0.000000 0.000000 -26.798256 -0.232618 -6.035794 -49.128875 8.054209 -8.088401 -7.826946 -51.519164 4.202720 0.000000 0.000000 0.000000 20.162442 -2.014807 -0.491513 51.937285 0.475105 -5.311706 63.135365 64.296426 48.621040 0.000000 0.000000 0.000000 
-0.139245 0.896800 0.511627 1.274567 -10.084008 4.886578 -3.437543 -3.307082 -38.043392 -2.422753 0.869288 29.543663 0.825805 4.845210 11.376279 0.000000 0.000000 0.000000 0.558621 -1.285120 15.767256 -2.589846 2.104089 21.294798 7.664567 9.624796 10.537813 0.000000 0.000000 0.000000 -2.843918 0.059818 15.257420 -4.151056 1.850165 -2.769238 -1.519910 14.880048 6.073969 8.059580 -1.454988 -23.172610 0.000000 0.000000 0.000000 -28.639954 -1.465977 -5.860881 -47.329482 3.676283 -5.921515 -8.142528 -58.060486 4.947718 0.000000 0.000000 0.000000 18.924935 -2.752493 -0.815281 53.684270 -0.572834 -5.819181 69.644084 63.051494 53.060247 0.000000 0.000000 0.000000 
-0.142683 0.904606 0.578795 1.552287 -9.166236 7.007450 -4.487301 -3.668016 -36.974651 -2.413181 0.862684 31.561922 0.864351 4.297835 8.504967 0.000000 0.000000 0.000000 0.226513 -1.042528 12.428264 -2.567085 2.796810 27.611885 8.458723 6.842388 17.038204 0.000000 0.000000 0.000000 -3.371620 0.141534 14.656975 -4.151568 1.785625 -4.292136 -1.757326 12.946687 7.540919 8.222399 -1.812304 -22.732800 0.000000 0.000000 0.000000 -28.750719 -2.518343 -4.592002 -47.000566 -0.491908 -4.558815 -15.956035 -67.430624 11.594719 0.000000 0.000000 0.000000 17.717712 -2.405737 -0.908527 54.376612 -2.335701 -6.625704 79.014397 61.946881 59.368829 0.000000 0.000000 0.000000 
-0.145419 0.910769 0.648692 1.336295 -8.172531 7.193580 -4.933844 -3.620869 -33.391056 -2.826389 1.021367 32.997088 1.039824 4.178261 6.607003 0.000000 0.000000 0.000000 0.363156 -0.774642 8.382584 -2.176693 3.749803 36.924493 7.289094 3.401806 20.012982 0.000000 0.000000 0.000000 -3.501553 0.145168 14.828666 -3.429220 1.486246 -4.259243 -2.708549 12.484201 7.422996 8.931654 -2.264469 -22.184507 0.000000 0.000000 0.000000 -28.235970 -4.900216 -3.099448 -46.165108 -3.502130 -3.314081 -21.310265 -74.925012 17.320561 0.000000 0.000000 0.000000 18.483636 -3.721131 -1.614053 53.474481 -4.497786 -7.445669 88.706846 60.845900 66.883730 0.000000 0.000000 0.000000 
-0.147695 0.906670 0.718325 1.168120 -7.141815 6.581827 -5.439434 -3.348863 -28.237125 -3.253578 1.173694 34.197589 1.570407 3.576755 0.822384 0.000000 0.000000 0.000000 -0.306072 -0.111006 1.340623 0.482701 3.914584 50.437883 4.013515 0.394932 15.439254 0.000000 0.000000 0.000000 -2.838879 0.011006 16.020757 -3.081831 1.351009 -4.205142 -3.313546 9.902986 8.128001 8.817435 -2.380258 -22.631379 0.000000 0.000000 0.000000 -28.142958 -6.009521 -1.572663 -45.000457 -8.963509 -1.553362 -31.960372 -80.239506 28.915747 0.000000 0.000000 0.000000 16.969561 -4.377851 -2.319213 54.476601 -6.029416 -8.214618 97.514313 60.753212 74.423747 0.000000 0.000000 0.000000 
-0.149824 0.896835 0.786204 0.395341 -7.630307 4.873102 -5.918228 -2.792957 -22.220317 -2.613063 1.115897 36.578861 2.588694 3.769223 -5.825276 0.000000 0.000000 0.000000 -0.560412 0.769231 -7.817271 3.695717 3.520663 64.444876 0.296377 -4.493092 11.040243 0.000000 0.000000 0.000000 -1.672249 -0.197420 17.197583 -2.572259 1.183459 -1.781573 -4.233992 6.801914 7.461185 8.198293 -2.334448 -23.131107 0.000000 0.000000 0.000000 -27.484037 -7.796596 0.883657 -43.316620 -14.664814 0.096628 -32.966772 -85.213351 33.644771 0.000000 0.000000 0.000000 17.080719 -2.390109 -1.934334 53.378147 -8.069562 -8.883624 106.781903 60.300534 81.447837 0.000000 0.000000 0.000000 
-0.152796 0.888333 0.854784 -0.264402 -8.074589 3.748205 -6.724490 -2.202201 -16.238569 -1.795132 0.899962 37.877285 3.554697 4.986434 -9.942363 0.000000 0.000000 0.000000 0.004231 2.065046 -18.670393 5.713638 2.846225 73.481785 -2.718771 -9.110443 6.852819 0.000000 0.000000 0.000000 -0.678681 -0.382555 19.609201 -1.689902 0.776572 -2.116531 -4.680259 2.520680 8.312324 6.582516 -1.834530 -24.673611 0.000000 0.000000 0.000000 -27.640800 -9.745596 4.018847 -39.290008 -20.637583 1.211005 75.630737 -85.782038 -66.148330 0.000000 0.000000 0.000000 15.782254 -2.913389 -2.984837 52.219621 -10.380825 -9.653849 111.227325 58.541367 81.438201 0.000000 0.000000 0.000000 
-0.157868 0.894723 0.929040 -1.886640 -8.453758 4.517213 -6.201981 -1.219240 -9.179679 -0.600958 0.247141 33.241455 3.339651 5.039022 -8.500162 0.000000 0.000000 0.000000 0.740678 3.866823 -30.099356 7.514487 1.082587 72.911587 -4.662779 -12.732619 4.215822 0.000000 0.000000 0.000000 0.879583 -0.690359 19.686627 -0.045608 0.036559 -1.759974 -5.061683 -2.914480 7.899252 4.689735 -1.448156 -25.414820 0.000000 0.000000 0.000000 -24.582666 -8.431502 5.122620 -39.099666 -26.882062 2.658120 88.985123 -79.991140 -71.008884 0.000000 0.000000 0.000000 16.070762 -2.874911 -4.157978 47.779784 -14.283708 -10.006032 111.774509 57.185846 76.886014 0.000000 0.000000 0.000000 
-0.166018 0.919423 1.013330 -4.231280 -9.098821 5.601735 -4.721201 0.033293 -0.216161 1.800808 -0.756214 24.072587 0.676621 2.087694 1.950917 0.000000 0.000000 0.000000 2.940459 5.807447 -37.252607 6.944486 0.956560 61.664004 -4.361557 -12.332751 4.366645 0.000000 0.000000 0.000000 2.614159 -0.996752 18.608946 1.680050 -0.746177 -0.896269 -4.772894 -7.361896 7.037647 3.297264 -1.219272 -26.271680 0.000000 0.000000 0.000000 -20.222406 -7.563362 5.617296 -41.847857 -29.409854 3.871173 106.462502 -74.404550 -79.687094 0.000000 0.000000 0.000000 15.469402 -3.101192 -5.078870 43.546023 -19.091391 -10.476429 109.549838 55.003311 69.409043 0.000000 0.000000 0.000000 
-0.176780 0.953816 1.108187 -5.804021 -8.317520 7.660587 -2.984297 1.065123 7.834406 3.951235 -1.197986 13.875682 -4.349970 -1.421187 18.064492 0.000000 0.000000 0.000000 5.106568 6.913102 -39.757397 4.274546 1.201210 43.383233 -1.954731 -7.950471 6.564532 0.000000 0.000000 0.000000 4.248718 -1.202814 15.596297 3.928951 -1.796209 0.547074 -5.370000 -10.920902 4.094246 2.346591 -1.129905 -23.947381 0.000000 0.000000 0.000000 -16.823831 -6.630945 5.260724 -45.363943 -29.413523 4.969337 117.597886 -74.114422 -89.042708 0.000000 0.000000 0.000000 12.870520 -5.971779 -6.119925 39.674564 -23.256825 -10.655266 106.160604 49.127281 57.306838 0.000000 0.000000 0.000000 
-0.188752 0.982053 1.210961 -5.662287 -8.419561 7.915107 -2.205798 1.817996 13.769872 3.835437 -0.982963 9.532569 -7.681565 -1.242693 31.074068 0.000000 0.000000 0.000000 6.837921 6.641534 -36.194810 1.064602 1.064630 22.397090 1.227799 -3.279792 10.831754 0.000000 0.000000 0.000000 4.736368 -1.126742 13.115710 4.646193 -2.102946 0.020491 -5.650099 -13.010874 3.998059 1.036599 -0.857919 -20.959671 0.000000 0.000000 0.000000 -15.872061 -7.803813 6.258285 -47.066239 -28.255837 4.861277 128.799198 -75.317005 -101.180059 0.000000 0.000000 0.000000 10.023042 -8.036931 -6.257299 38.759267 -25.950010 -11.516460 104.036248 44.832151 48.932547 0.000000 0.000000 0.000000 
-0.199848 0.986890 1.316894 -5.262373 -7.522025 7.836839 -1.651320 1.686772 13.555304 3.421112 -1.190640 16.408152 -8.245138 -0.314878 34.789489 0.000000 0.000000 0.000000 7.077728 5.949270 -33.300145 2.175226 0.225625 12.831064 0.367252 -6.413508 14.474865 0.000000 0.000000 0.000000 5.878676 -1.052580 9.869404 5.949863 -2.719053 0.335590 -8.452492 -14.961893 3.938825 1.859267 -1.417912 -19.715023 0.000000 0.000000 0.000000 -15.683908 -6.251379 5.560846 -49.867590 -25.953139 4.410429 162.689666 -76.927023 -141.360808 0.000000 0.000000 0.000000 11.007222 -7.429813 -6.518741 37.278862 -30.446033 -12.384996 102.469707 42.664608 45.021043 0.000000 0.000000 0.000000 
-0.209842 0.966085 1.422432 -4.928889 -7.821795 5.884091 -1.025809 1.423227 12.188281 2.416902 -1.111487 26.678763 -4.907907 2.758031 32.292657 0.000000 0.000000 0.000000 7.893609 5.724172 -31.085044 1.955163 0.565845 18.604671 0.160016 -7.041968 15.234689 0.000000 0.000000 0.000000 6.522652 -1.124651 10.438719 4.638716 -2.118039 -0.203489 -7.070560 -13.095930 4.614380 0.728130 -0.748133 -18.322254 0.000000 0.000000 0.000000 -19.939433 -7.634923 6.861363 -48.788346 -23.890173 2.744318 -168.393623 -76.165607 -178.708286 0.000000 0.000000 0.000000 11.719543 -7.991677 -6.814755 39.984827 -31.063029 -13.686513 102.564711 45.540844 49.379206 0.000000 0.000000 0.000000 
-0.217419 0.931812 1.520267 -5.770549 -9.203789 3.162132 0.424928 0.714570 7.182183 1.034240 -0.160529 41.953962 2.151773 9.132180 20.936694 0.000000 0.000000 0.000000 10.971474 6.009844 -28.461865 0.565740 2.021629 30.893315 -1.667082 -7.164510 6.013917 0.000000 0.000000 0.000000 7.774496 -1.451010 13.536478 2.526177 -1.190702 0.820170 -5.057478 -10.683667 3.710123 1.888437 -1.043561 -21.947850 0.000000 0.000000 0.000000 -22.648131 -5.360776 5.379473 -51.583210 -18.610095 0.694928 -139.572328 -73.649192 142.207686 0.000000 0.000000 0.000000 14.880139 -4.351845 -6.078565 44.856393 -26.103583 -13.414385 104.345412 52.231534 59.708283 0.000000 0.000000 0.000000 
-0.222188 0.907441 1.609373 -5.887552 -10.407456 0.964844 1.289385 -0.059863 -0.824293 0.438797 1.082328 54.301268 6.014650 13.666054 9.656837 0.000000 0.000000 0.000000 11.485397 4.826228 -23.023287 0.766635 2.840160 37.813875 -3.454894 -6.930136 -3.892179 0.000000 0.000000 0.000000 7.613717 -1.648228 17.295785 0.578277 -0.267059 1.017649 -2.834855 -5.948542 4.948262 1.845074 -0.432014 -25.476429 0.000000 0.000000 0.000000 -27.376922 -4.789472 4.268468 -47.432280 -11.706903 -2.502075 -128.550387 -68.158595 120.777700 0.000000 0.000000 0.000000 17.337666 -1.478255 -4.654499 50.201891 -15.307693 -10.775169 104.973524 60.715760 71.984975 0.000000 0.000000 0.000000 
-0.224493 0.913051 1.699336 -5.585825 -11.333520 0.776812 1.343046 -0.685478 -9.519515 1.300248 0.975202 56.834925 5.635082 12.548882 6.049115 0.000000 0.000000 0.000000 11.487347 3.465286 -17.476530 -0.516917 3.608392 37.840272 -3.657042 -5.973670 -6.385297 0.000000 0.000000 0.000000 7.527015 -1.642666 17.938487 -0.168066 0.073969 -0.796944 -2.606231 0.629018 7.061332 1.562709 0.374005 -25.503840 0.000000 0.000000 0.000000 -26.779244 -2.653269 0.738585 -46.741291 -2.110562 -5.526235 -122.267020 -61.506770 102.637006 0.000000 0.000000 0.000000 16.144551 -1.335882 -3.015442 52.947016 -3.855879 -6.944365 112.285189 64.122723 86.930640 0.000000 0.000000 0.000000 
-0.226243 0.937087 1.795398 -3.594460 -12.045231 0.825042 -0.479448 -1.186502 -14.254710 1.857788 0.363819 48.951414 5.267812 11.691815 5.810600 0.000000 0.000000 0.000000 9.485367 2.051347 -12.329220 -2.116262 3.951570 34.510073 -2.558781 -4.908432 -2.672041 0.000000 0.000000 0.000000 5.244793 -1.170735 16.103266 0.266254 -0.130075 -0.762279 -2.803291 4.892648 6.751823 2.624862 0.343755 -25.630805 0.000000 0.000000 0.000000 -24.335150 1.184468 -2.840475 -46.402322 6.328450 -8.037757 -120.577754 -55.541333 91.111400 0.000000 0.000000 0.000000 14.397448 -0.967317 -1.844203 54.957418 2.066817 -4.644571 122.421491 62.959872 99.839866 0.000000 0.000000 0.000000 
-0.229005 0.961727 1.899227 -2.398616 -10.851959 0.803399 -0.741897 -1.318638 -15.353901 1.332968 -0.145340 38.063109 4.779837 10.943835 7.564613 0.000000 0.000000 0.000000 8.081103 1.097717 -7.962022 -2.872201 3.560885 30.769435 -1.682696 -5.354067 2.180299 0.000000 0.000000 0.000000 4.849375 -0.997659 13.492696 -1.641055 0.772527 -0.670029 -1.817308 6.607162 6.577238 2.590762 0.397044 -23.167727 0.000000 0.000000 0.000000 -19.963118 3.374894 -4.068434 -47.742196 12.759167 -10.526478 -120.832407 -49.963156 83.084266 0.000000 0.000000 0.000000 12.978099 -2.435297 -2.064869 56.755208 2.414234 -4.572135 128.295709 58.579132 103.632943 0.000000 0.000000 0.000000 
-0.232979 0.978510 2.006253 -1.423907 -8.574080 -1.110217 -1.618661 -1.307217 -13.207735 1.701636 -0.800125 31.082350 2.443343 7.121784 8.703712 0.000000 0.000000 0.000000 6.416600 0.466737 -4.251963 -1.978925 3.004244 30.964743 -1.941757 -4.851939 0.047731 0.000000 0.000000 0.000000 3.874508 -0.768189 11.302254 -1.310398 0.644125 0.824984 -1.860624 7.308586 5.723936 3.595734 -0.085124 -21.344874 0.000000 0.000000 0.000000 -18.177500 4.457506 -4.794607 -47.327546 15.258203 -11.258105 -122.914282 -47.928868 81.617855 0.000000 0.000000 0.000000 12.111948 -3.322772 -2.136370 57.106989 0.889689 -5.167927 127.838157 56.948880 102.339648 0.000000 0.000000 0.000000 
-0.237936 0.981110 2.110886 -1.612792 -8.631275 -2.558956 -1.464274 -1.154887 -11.607779 1.235038 -0.622567 29.304020 2.057747 6.395034 8.498054 0.000000 0.000000 0.000000 6.610182 0.225377 -2.551352 -2.515624 3.118266 30.234016 -1.322807 1.784857 -7.591451 0.000000 0.000000 0.000000 3.764783 -0.684597 10.346494 -0.906095 0.457585 1.793647 -1.657292 7.776763 5.801830 3.877747 -0.338567 -20.004605 0.000000 0.000000 0.000000 -17.967320 4.907086 -5.071142 -47.587520 15.547680 -11.460506 -125.325517 -48.189623 84.760348 0.000000 0.000000 0.000000 12.615175 -3.525294 -2.207154 56.671463 0.347143 -5.414032 124.924238 56.166911 97.885962 0.000000 0.000000 0.000000 
-0.243394 0.964108 2.211212 -2.346990 -7.647030 -4.249134 -1.110507 -1.185292 -12.265319 2.392021 -1.263337 34.458220 2.228592 5.310470 2.163237 0.000000 0.000000 0.000000 6.855298 0.188578 -2.055782 -1.106773 2.287103 28.475669 -1.508665 3.793363 -10.821994 0.000000 0.000000 0.000000 5.287968 -0.729542 9.485060 -0.549740 0.279009 3.062357 -1.944032 5.784194 5.839009 4.324393 -0.988153 -18.011738 0.000000 0.000000 0.000000 -19.526960 6.665265 -6.008772 -46.187719 15.273742 -11.002437 -128.349148 -47.242673 88.233951 0.000000 0.000000 0.000000 13.292996 -1.077733 -1.285710 56.110458 0.616461 -5.321582 121.074273 57.546234 93.759047 0.000000 0.000000 0.000000 
-0.247892 0.935968 2.306082 -1.740487 -8.090688 -5.857643 -1.421328 -1.460377 -14.964497 2.316899 -1.171355 43.184897 2.823504 5.680125 -1.053429 0.000000 0.000000 0.000000 6.881133 0.042716 -0.964491 -1.369929 2.478436 28.972955 -1.675605 2.718567 -10.170557 0.000000 0.000000 0.000000 5.354465 -0.671981 9.126135 -1.146358 0.612715 3.971487 -1.536920 7.877421 5.966774 4.938183 -1.054666 -18.715230 0.000000 0.000000 0.000000 -21.319925 4.241478 -5.545841 -43.692837 15.081403 -10.154775 -133.027962 -47.317438 93.851830 0.000000 0.000000 0.000000 14.690134 -1.840999 -1.444544 55.950800 2.084773 -4.664456 116.946408 59.968054 92.946892 0.000000 0.000000 0.000000 
-0.250046 0.911715 2.394864 -1.640165 -8.930920 -6.458194 -0.821977 -1.627886 -18.595104 2.495038 -1.069616 46.136701 3.145912 5.706815 -3.536288 0.000000 0.000000 0.000000 7.929816 -0.367279 1.586419 -3.290510 3.498581 30.712923 -2.304415 0.005572 -9.233133 0.000000 0.000000 0.000000 6.094070 -0.763766 9.959466 -2.932887 1.579054 3.701090 -0.455795 10.257801 4.873179 6.603218 -1.804872 -18.803475 0.000000 0.000000 0.000000 -22.121183 3.340495 -5.741148 -43.096494 15.107169 -9.809182 -133.156498 -48.866029 95.129206 0.000000 0.000000 0.000000 17.077894 -2.059542 -1.362490 54.540371 4.331063 -3.577736 113.258801 63.496310 93.723387 0.000000 0.000000 0.000000 
-0.250401 0.908583 2.481242 -1.441257 -9.643602 -6.382643 -0.992787 -1.800858 -20.989535 3.658913 -1.585313 39.734644 2.634579 4.977696 -2.155842 0.000000 0.000000 0.000000 7.258041 -1.098160 6.633526 -3.731709 3.524037 29.286152 -2.090036 -3.222675 -3.448113 0.000000 0.000000 0.000000 5.951669 -0.720551 9.600234 -3.197164 1.698169 3.044457 -0.340819 12.741664 3.545953 6.959721 -1.927610 -17.798039 0.000000 0.000000 0.000000 -21.520610 4.665689 -6.878211 -41.885348 17.359782 -10.074402 -130.342779 -47.573756 88.280238 0.000000 0.000000 0.000000 17.422654 -1.162437 -0.498285 53.747341 7.770352 -1.961920 110.259706 67.198721 95.528719 0.000000 0.000000 0.000000 
-0.250094 0.919695 2.569967 -1.072888 -11.018646 -5.126974 -0.826537 -1.834462 -23.204238 4.018777 -1.448990 23.602266 1.009091 3.639871 5.788317 0.000000 0.000000 0.000000 5.098173 -1.579788 12.181144 -4.465072 3.172843 24.507437 0.974227 -1.940241 6.902890 0.000000 0.000000 0.000000 5.715481 -0.523139 7.029858 -3.783630 1.993222 2.555747 -0.138532 16.872993 3.295490 8.146786 -2.559130 -16.386517 0.000000 0.000000 0.000000 -20.671070 5.153566 -7.736430 -40.135749 18.252264 -9.711384 -128.369843 -45.546268 81.052964 0.000000 0.000000 0.000000 16.549561 -1.785144 -0.166615 53.984902 10.046078 -0.899426 110.334311 67.677160 98.260439 0.000000 0.000000 0.000000 
-0.249841 0.934128 2.661417 -1.152407 -11.343091 -3.775652 -1.126820 -1.838791 -22.521904 5.015001 -0.994373 5.503358 -3.100566 1.207739 21.944022 0.000000 0.000000 0.000000 3.482645 -1.682955 15.600857 -4.789415 3.068944 23.041895 4.774939 0.132507 16.631070 0.000000 0.000000 0.000000 6.309479 -0.363389 4.553602 -4.113129 2.175918 2.704181 -1.020353 18.847291 2.153024 10.438015 -3.747222 -16.508944 0.000000 0.000000 0.000000 -19.081723 5.560944 -7.925525 -41.042199 18.646905 -10.045964 -122.927303 -46.662968 74.525392 0.000000 0.000000 0.000000 15.678820 -3.661250 -0.848902 54.426842 11.373665 -0.064036 106.965277 64.658289 92.375004 0.000000 0.000000 0.000000 
-0.250225 0.944055 2.754185 -0.885018 -12.440606 -3.947404 -1.464498 -1.808318 -21.531227 4.246128 -0.639662 1.551343 -4.901890 0.785909 29.121572 0.000000 0.000000 0.000000 1.685259 -1.367868 16.102613 -4.018256 3.747093 28.828267 7.014224 0.525040 23.124533 0.000000 0.000000 0.000000 5.242611 -0.166587 2.488029 -3.531864 2.018433 4.756918 -1.521581 19.572078 1.388242 10.395535 -3.968449 -15.286770 0.000000 0.000000 0.000000 -18.598927 5.382369 -7.774266 -42.642155 18.679782 -10.520342 -115.376154 -48.236801 67.799984 0.000000 0.000000 0.000000 14.793200 -3.124205 -0.561145 55.309520 11.955173 0.456507 103.206599 62.142182 85.482472 0.000000 0.000000 0.000000 
-0.250669 0.939143 2.843569 -0.427866 -12.500760 -5.715531 -2.650533 -1.898846 -19.143372 3.016320 -0.724017 7.423125 -3.471234 1.047000 23.861590 0.000000 0.000000 0.000000 0.617275 -1.042502 13.779572 -3.839620 5.698553 40.170294 7.680024 1.434320 23.922660 0.000000 0.000000 0.000000 4.194556 -0.261785 4.263858 -4.214054 2.282851 3.210547 -0.110388 17.424605 2.600933 9.411702 -3.883969 -14.021276 0.000000 0.000000 0.000000 -21.586381 4.519462 -7.671307 -40.012843 18.246527 -9.581069 -112.244628 -51.125072 69.938165 0.000000 0.000000 0.000000 15.122975 -2.877416 -0.856615 54.544911 8.474871 -1.363753 106.681528 57.902751 82.892010 0.000000 0.000000 0.000000 
-0.250955 0.926390 2.924354 0.484248 -12.918571 -7.902724 -4.143923 -1.837864 -15.266986 1.525107 -0.505227 13.226091 -0.720764 2.352472 13.897570 0.000000 0.000000 0.000000 -0.474795 -0.577091 8.539663 -2.121787 7.213947 51.288920 3.996558 -1.197230 17.346908 0.000000 0.000000 0.000000 3.673937 -0.352902 6.316867 -3.148825 1.769237 4.001066 -2.789364 14.725148 2.177707 8.744194 -3.312481 -15.712016 0.000000 0.000000 0.000000 -23.213420 2.085399 -6.225271 -40.545317 15.870107 -8.988017 -102.453389 -56.692956 67.832539 0.000000 0.000000 0.000000 18.777529 -2.156438 -0.904070 52.394728 4.520383 -3.375603 103.093045 55.792908 74.972242 0.000000 0.000000 0.000000 
-0.251394 0.923214 2.993352 0.535409 -13.217487 -9.426841 -5.099541 -1.587059 -11.438758 0.973472 -0.324262 17.452302 0.584424 2.887695 6.562987 0.000000 0.000000 0.000000 0.518289 -0.222479 2.621170 -1.742066 7.713325 53.852635 -1.286368 -5.714448 5.089731 0.000000 0.000000 0.000000 3.458837 -0.440103 8.431475 -3.308576 1.807130 3.190919 -2.940520 11.144009 3.570822 8.096200 -3.241273 -16.124603 0.000000 0.000000 0.000000 -26.298128 -0.384769 -4.269878 -38.974612 9.829181 -7.001156 -91.118718 -62.074907 64.786078 0.000000 0.000000 0.000000 22.276884 -2.017196 -1.849074 49.378437 -0.784937 -5.455545 92.858912 54.374328 61.321161 0.000000 0.000000 0.000000 
-0.252061 0.935495 3.052950 0.058101 -13.839223 -9.786070 -5.760533 -1.045986 -6.446602 1.447691 -0.443168 16.516079 0.883614 3.182792 5.461645 0.000000 0.000000 0.000000 2.374660 0.396009 -3.742582 -2.852843 7.258631 47.920608 -3.234888 -2.899783 -8.752125 0.000000 0.000000 0.000000 3.643427 -0.492523 9.508351 -2.482883 1.342911 2.835080 -3.089907 7.634478 3.987741 6.132456 -2.563071 -15.131862 0.000000 0.000000 0.000000 -26.766078 -1.661829 -2.251276 -40.816459 4.610667 -6.122248 -78.123801 -64.406211 57.033312 0.000000 0.000000 0.000000 22.335636 -2.816256 -3.354256 46.731410 -7.501996 -7.414077 82.170575 52.163818 48.397158 0.000000 0.000000 0.000000 
-0.253405 0.949581 3.106274 -0.757203 -13.868119 -9.585620 -6.426460 -0.473480 -2.157793 2.849751 -0.829440 14.940540 0.636732 2.950137 6.549966 0.000000 0.000000 0.000000 4.325613 0.931044 -7.234050 -5.138661 5.746611 35.640399 -0.986475 6.029788 -10.130816 0.000000 0.000000 0.000000 4.356075 -0.531583 9.466868 -1.616108 0.883445 2.916862 -2.863956 3.642906 4.104058 4.499683 -2.054310 -14.081587 0.000000 0.000000 0.000000 -27.232567 -0.727839 -1.468149 -42.272010 -0.149913 -5.217050 -71.376865 -65.523345 53.809117 0.000000 0.000000 0.000000 20.969339 -4.222212 -4.982154 44.137789 -13.924849 -8.938245 71.223531 48.471554 36.046683 0.000000 0.000000 0.000000 
-0.255955 0.956348 3.155818 -1.160627 -13.142578 -9.088728 -6.859631 0.074332 1.300310 3.565156 -1.008033 13.237125 0.079143 2.139661 7.329331 0.000000 0.000000 0.000000 4.634406 1.171612 -8.692907 -4.982171 3.122776 21.992317 4.937806 10.693638 2.150022 0.000000 0.000000 0.000000 5.194836 -0.578838 9.328873 -1.172141 0.669782 3.584778 -3.024854 0.946747 3.029791 3.664626 -1.798016 -12.959100 0.000000 0.000000 0.000000 -25.773091 -1.363143 -0.302819 -43.898371 -2.664389 -4.651271 -69.693978 -65.966064 53.552934 0.000000 0.000000 0.000000 20.828814 -6.032526 -6.486468 41.425658 -19.156700 -9.822409 61.874910 46.491871 28.557173 0.000000 0.000000 0.000000 
-0.260001 0.955090 3.201918 -1.223436 -12.322117 -8.754336 -6.369846 0.439705 3.496100 2.792726 -0.848149 13.698416 -0.902192 0.190782 6.647657 0.000000 0.000000 0.000000 4.848785 1.047734 -7.800853 -3.840705 1.805935 14.873056 7.940668 7.169631 14.214537 0.000000 0.000000 0.000000 5.617131 -0.610665 9.288144 -1.328984 0.699347 2.387952 -3.281160 -0.870005 3.466925 3.697759 -2.037579 -12.029954 0.000000 0.000000 0.000000 -25.843549 -1.406165 0.230367 -43.540563 -3.583964 -4.482479 -73.141223 -65.734215 56.807192 0.000000 0.000000 0.000000 21.129867 -7.557310 -7.718142 39.067037 -22.642298 -10.218593 56.174823 45.265681 24.566685 0.000000 0.000000 0.000000 
-0.264819 0.952568 3.243764 -1.383266 -11.275129 -8.202738 -6.302439 0.590322 4.359158 2.793390 -0.911907 15.570065 -1.340755 -0.572283 6.591695 0.000000 0.000000 0.000000 5.385760 0.915446 -6.761705 -3.799851 1.675385 13.999994 7.196473 2.300970 19.995128 0.000000 0.000000 0.000000 6.370299 -0.641270 8.939080 -2.567987 1.390212 3.279611 -2.429408 -1.909547 1.487885 3.610428 -1.999192 -11.514100 0.000000 0.000000 0.000000 -25.691353 -1.761381 0.535856 -43.785766 -3.887802 -4.263505 -66.067545 -63.283442 48.877846 0.000000 0.000000 0.000000 21.181730 -8.656939 -8.487060 38.965795 -24.139866 -10.507478 50.024166 44.708610 21.190957 0.000000 0.000000 0.000000 
-0.269310 0.951149 3.279642 -1.781540 -9.490917 -7.718247 -5.419178 0.505913 3.926650 2.193443 -0.872876 19.200685 -2.238940 -1.709703 7.662368 0.000000 0.000000 0.000000 5.721526 0.662730 -4.991397 -3.886991 1.661184 13.996217 5.851669 0.994469 18.849004 0.000000 0.000000 0.000000 6.522536 -0.630166 8.386564 -1.922079 1.026962 3.351371 -2.898088 -2.168792 1.400128 3.133203 -1.658042 -11.210563 0.000000 0.000000 0.000000 -25.438021 -1.496540 0.141177 -44.182050 -3.060350 -4.495353 -56.104104 -60.208246 38.794617 0.000000 0.000000 0.000000 23.260610 -8.369198 -8.778532 39.427567 -22.821037 -10.166314 41.994780 44.451900 17.624387 0.000000 0.000000 0.000000 
-0.272481 0.952882 3.309068 -2.511784 -8.871281 -5.923766 -3.192627 0.188725 1.791375 0.959607 -0.545250 22.968785 -4.901324 -5.630240 9.608479 0.000000 0.000000 0.000000 5.639254 0.464953 -3.827193 -2.793031 1.292759 12.869137 5.604527 1.914727 16.552433 0.000000 0.000000 0.000000 7.068063 -0.613402 7.419258 -1.410502 0.769458 4.129986 -3.197312 -0.667002 -0.625516 3.620076 -1.842089 -10.433490 0.000000 0.000000 0.000000 -25.562018 -0.939670 -0.960828 -43.947600 0.566019 -5.336393 -47.064229 -56.117671 29.393298 0.000000 0.000000 0.000000 23.246812 -6.753604 -7.387760 42.602828 -19.263603 -9.838282 32.952008 43.400792 13.662436 0.000000 0.000000 0.000000 
-0.273631 0.955635 3.333509 -2.326753 -8.164517 -5.133024 -2.234334 0.051837 0.630146 0.498363 -0.440128 21.965294 -0.231493 -0.014073 1.265123 0.000000 0.000000 0.000000 4.578441 0.142486 -1.697063 -1.777735 0.946614 11.426747 5.287430 2.874030 14.019801 0.000000 0.000000 0.000000 6.669851 -0.612553 7.353014 -1.971366 1.030574 3.081635 -2.382143 2.127293 -0.094476 4.543579 -2.014893 -12.609441 0.000000 0.000000 0.000000 -25.327720 -2.000027 -1.195873 -44.525619 2.600487 -5.899749 -36.835088 -50.298001 19.922367 0.000000 0.000000 0.000000 23.514774 -7.222473 -6.922613 44.566818 -13.623180 -8.579688 29.326037 43.217058 12.586989 0.000000 0.000000 0.000000 
-0.272914 0.957442 3.354972 -2.186333 -7.525400 -4.687042 -1.307644 0.048924 0.538258 0.539131 -0.459695 17.172368 2.040816 3.629456 -2.657387 0.000000 0.000000 0.000000 4.103411 -0.185816 0.807624 -1.407527 0.705260 9.234576 4.476928 2.297635 12.481972 0.000000 0.000000 0.000000 6.463078 -0.673899 8.022463 -2.036213 1.004750 0.898463 -2.148490 3.640071 1.246741 5.347544 -2.400653 -12.848370 0.000000 0.000000 0.000000 -24.841961 -0.844858 -2.303366 -43.974541 5.693439 -6.845262 -30.055304 -45.323010 14.435340 0.000000 0.000000 0.000000 23.404092 -6.040384 -5.730587 47.692338 -7.694013 -7.276054 24.585646 45.696873 11.733960 0.000000 0.000000 0.000000 
-0.270458 0.957932 3.373974 -1.776252 -6.814807 -4.269741 -1.852207 0.071206 0.735401 2.027811 -0.740355 11.919153 1.737282 4.463445 2.516727 0.000000 0.000000 0.000000 3.342785 -0.316599 2.020938 -1.447934 0.594840 7.586231 4.553784 1.660247 14.076266 0.000000 0.000000 0.000000 5.618395 -0.617839 7.735266 -2.111380 1.051641 1.397907 -2.624341 5.405188 0.641208 6.779884 -3.157765 -12.606996 0.000000 0.000000 0.000000 -24.337875 -0.130984 -3.379166 -42.789442 7.630306 -7.051712 -26.316894 -40.068757 10.858301 0.000000 0.000000 0.000000 24.510967 -4.044733 -4.078444 49.123548 -2.203076 -5.506423 20.604666 48.906535 11.300593 0.000000 0.000000 0.000000 
-0.266287 0.957349 3.390680 -1.861217 -5.747806 -3.905150 -2.286132 0.234763 2.100132 2.909965 -0.768438 7.847312 1.046152 4.432253 7.054551 0.000000 0.000000 0.000000 2.819610 -0.462094 3.415854 -1.236852 0.512562 6.911625 4.478068 2.343343 12.891058 0.000000 0.000000 0.000000 5.462321 -0.601117 7.462700 -2.696422 1.367157 2.379683 -2.287964 6.987893 -1.036539 7.205980 -3.619481 -10.442417 0.000000 0.000000 0.000000 -23.315534 -0.348472 -3.776085 -42.248644 10.204919 -7.532276 -23.934651 -37.487710 9.002654 0.000000 0.000000 0.000000 24.573898 -3.873131 -3.401221 49.269383 2.861239 -3.548094 20.011808 51.440995 12.094146 0.000000 0.000000 0.000000 
-0.260874 0.957947 3.405283 -1.863760 -5.059647 -3.122333 -2.630507 0.476182 4.005670 3.091057 -0.613333 4.278723 0.449635 3.541853 7.566532 0.000000 0.000000 0.000000 2.690898 -0.524543 3.951329 -1.867975 0.559945 6.131210 4.556222 2.444141 13.181941 0.000000 0.000000 0.000000 5.490704 -0.519922 6.239670 -2.989680 1.519986 2.745711 -2.111197 8.131253 -1.123166 7.659721 -3.917829 -9.971518 0.000000 0.000000 0.000000 -22.315191 0.557376 -4.491472 -41.632986 12.273691 -7.998963 -24.087514 -37.019807 8.768844 0.000000 0.000000 0.000000 24.671569 -2.981833 -2.419654 48.523207 6.840927 -2.081551 21.830977 55.735316 14.685448 0.000000 0.000000 0.000000 
-0.254532 0.957884 3.418064 -1.857866 -3.448324 -2.196775 -2.249466 0.647646 5.563693 2.691577 -0.384292 1.272015 -1.445862 0.026055 7.086657 0.000000 0.000000 0.000000 2.634480 -0.596534 4.505660 -2.498814 0.615117 5.548563 4.112079 2.400753 12.149654 0.000000 0.000000 0.000000 5.336688 -0.437371 5.067278 -2.459595 1.226131 2.851231 -2.989778 9.046717 -1.240971 7.958694 -4.158965 -9.210943 0.000000 0.000000 0.000000 -20.834300 1.458617 -5.149521 -41.766840 13.566141 -8.397038 -24.168875 -36.801766 8.499388 0.000000 0.000000 0.000000 25.314973 -2.746810 -1.692343 47.814796 9.415063 -1.272696 20.968173 59.086356 15.811419 0.000000 0.000000 0.000000 
-0.247774 0.958329 3.429394 -1.913952 -2.093576 -1.868039 -2.119052 0.764576 6.687510 2.473142 -0.250640 -0.559097 -2.795916 -1.941916 8.011582 0.000000 0.000000 0.000000 2.475711 -0.633477 4.847531 -2.742121 0.630799 5.242748 3.965641 1.549279 13.702929 0.000000 0.000000 0.000000 5.492275 -0.346067 3.828880 -2.670805 1.319177 2.904330 -2.866795 9.454055 -0.775906 8.650551 -4.727689 -8.601050 0.000000 0.000000 0.000000 -20.246021 2.369398 -5.720630 -41.856742 14.587005 -8.767624 -24.353827 -36.209190 8.284223 0.000000 0.000000 0.000000 25.350293 -2.970583 -1.490681 46.943228 9.857934 -1.244499 25.453294 60.838010 19.436339 0.000000 0.000000 0.000000 
-0.240766 0.956757 3.439826 -1.846548 -0.428764 -1.701416 -1.884648 0.875108 7.948600 2.155387 -0.110348 -2.431525 -4.618079 -4.784033 8.642826 0.000000 0.000000 0.000000 2.034329 -0.773740 6.214460 -2.470484 0.565989 4.872123 3.035620 1.012201 11.629007 0.000000 0.000000 0.000000 5.398466 -0.248899 2.683834 -2.459749 1.189528 2.992950 -3.208440 9.787346 -0.260416 8.731027 -4.771775 -8.411453 0.000000 0.000000 0.000000 -20.004223 2.900306 -6.217064 -42.189927 14.764616 -8.908392 -24.179629 -35.972375 8.017950 0.000000 0.000000 0.000000 25.841727 -3.939786 -1.699663 45.651264 9.139051 -1.711848 28.099914 61.067969 21.533695 0.000000 0.000000 0.000000 
-0.234035 0.954905 3.449214 -1.841128 1.099342 -1.457849 -1.808818 0.926903 8.647265 2.044294 -0.037575 -3.537456 -6.025688 -6.915671 9.105315 0.000000 0.000000 0.000000 1.588205 -0.846611 7.018916 -2.315226 0.528732 4.648763 2.792276 1.085248 10.913645 0.000000 0.000000 0.000000 5.298068 -0.141552 1.401617 -2.490350 1.177536 4.107880 -3.425678 9.717347 -0.995406 8.897680 -4.998877 -7.760258 0.000000 0.000000 0.000000 -19.954371 3.562391 -6.724480 -42.561616 14.539353 -8.861316 -22.221860 -35.303858 7.139425 0.000000 0.000000 0.000000 26.344842 -4.634676 -1.943376 44.886799 6.551985 -2.651781 30.268087 59.405629 22.237286 0.000000 0.000000 0.000000 
-0.227777 0.952489 3.457791 -1.782188 2.764375 -1.471267 -1.717793 0.996903 9.656481 1.812405 0.038122 -4.639803 -7.262535 -8.886327 9.249006 0.000000 0.000000 0.000000 1.022603 -0.962113 8.260363 -2.082666 0.472911 4.274995 2.717065 1.642301 9.862772 0.000000 0.000000 0.000000 5.019188 -0.056921 0.430070 -2.067598 0.921384 4.292503 -3.917152 9.685632 -0.704624 8.720024 -4.741056 -8.107999 0.000000 0.000000 0.000000 -20.021420 4.275566 -7.308636 -43.163846 13.710425 -8.717621 -19.653959 -33.641978 5.931506 0.000000 0.000000 0.000000 26.948338 -5.824367 -2.433715 44.463652 3.629552 -3.768026 28.616491 54.996990 19.459325 0.000000 0.000000 0.000000 
-0.222385 0.949973 3.465445 -1.620390 3.466686 -1.221384 -2.037444 1.024527 9.712232 1.694186 0.034206 -4.357032 -7.441857 -9.573453 8.585103 0.000000 0.000000 0.000000 0.628422 -0.980255 8.640389 -2.019367 0.471198 4.428080 2.285604 1.226934 8.982882 0.000000 0.000000 0.000000 4.852402 0.029476 -0.666060 -2.398488 1.069024 4.942986 -4.142000 9.549091 -0.891144 8.605427 -4.638738 -8.113828 0.000000 0.000000 0.000000 -20.570508 4.518210 -7.676137 -43.701507 12.875359 -8.499692 -16.604196 -31.584946 4.699503 0.000000 0.000000 0.000000 27.448663 -6.947419 -3.108587 45.121653 0.285377 -4.965326 26.026897 48.494400 15.473071 0.000000 0.000000 0.000000 
-0.217863 0.947661 3.472230 -1.401041 4.209080 -1.199036 -2.315794 1.108761 10.390170 1.547802 0.065854 -4.816751 -7.757867 -10.307430 8.253669 0.000000 0.000000 0.000000 0.222075 -1.058630 9.554933 -2.070841 0.469138 4.244989 2.023524 1.285304 7.776694 0.000000 0.000000 0.000000 4.428093 0.064970 -1.139673 -2.180742 0.948062 4.470817 -4.105492 9.189705 -0.359884 8.306170 -4.424483 -8.155017 0.000000 0.000000 0.000000 -21.686121 5.258758 -8.413655 -43.701713 12.442756 -8.323567 -14.028195 -29.355461 3.734160 0.000000 0.000000 0.000000 27.401581 -7.966252 -3.776912 46.054181 -3.058015 -6.208033 21.737597 41.072548 10.966529 0.000000 0.000000 0.000000 
-0.214296 0.946072 3.478093 -1.240453 4.861607 -1.361349 -2.543013 1.175777 10.950938 1.518838 0.068343 -4.817793 -8.016693 -10.916255 7.979256 0.000000 0.000000 0.000000 -0.088977 -1.109614 10.166896 -2.008204 0.473273 4.503912 1.782994 1.027934 7.316724 0.000000 0.000000 0.000000 4.321464 0.109646 -1.717188 -2.156098 0.901986 5.214320 -4.458644 8.566091 -0.899159 8.344565 -4.441948 -8.201516 0.000000 0.000000 0.000000 -21.543301 6.222013 -8.802624 -44.506886 12.415010 -8.519526 -11.984766 -27.843300 3.053129 0.000000 0.000000 0.000000 26.951871 -8.733906 -4.368413 48.019313 -6.258875 -7.446389 17.055165 34.372570 7.329687 0.000000 0.000000 0.000000 
-0.211570 0.944425 3.482867 -0.997550 5.209013 -1.592860 -2.944551 1.290563 11.727804 1.646904 0.075340 -5.142545 -8.148177 -11.287265 7.758371 0.000000 0.000000 0.000000 -0.436008 -1.201793 11.227939 -2.168892 0.491042 4.365345 1.688023 1.402697 6.046727 0.000000 0.000000 0.000000 4.269658 0.095651 -1.496307 -2.136720 0.905510 4.551054 -4.513124 8.275353 -0.491826 8.871307 -4.713850 -8.647057 0.000000 0.000000 0.000000 -21.964986 6.341818 -8.990039 -44.911012 12.910235 -8.800605 -10.127513 -27.344537 2.572481 0.000000 0.000000 0.000000 26.692556 -9.540774 -4.915181 49.187344 -9.042685 -8.608777 14.306713 28.194181 5.080106 0.000000 0.000000 0.000000 
-0.209857 0.943102 3.486438 -0.810513 5.521246 -1.586704 -3.207132 1.362525 12.195390 1.719158 0.088905 -5.533566 -8.279857 -11.602892 7.624034 0.000000 0.000000 0.000000 -0.453462 -1.285226 11.910128 -2.213083 0.475840 3.953981 1.086620 0.358461 5.347243 0.000000 0.000000 0.000000 4.344590 0.149813 -2.228925 -2.035499 0.837716 4.773362 -4.738026 7.716400 -0.361895 8.908131 -4.756213 -8.671493 0.000000 0.000000 0.000000 -21.585475 7.023551 -9.110298 -45.369750 13.011538 -9.019124 -9.521706 -26.695994 2.393890 0.000000 0.000000 0.000000 25.816616 -10.360710 -5.515763 50.100195 -12.903352 -10.084185 12.984626 24.267753 3.938596 0.000000 0.000000 0.000000 
-0.208955 0.941612 3.488700 -0.641235 5.506904 -1.667063 -3.480208 1.428578 12.513440 1.804654 0.087887 -5.614366 -8.178980 -11.688026 7.252928 0.000000 0.000000 0.000000 -0.918084 -1.291711 12.445584 -2.094641 0.437561 3.559177 1.343650 1.112365 4.967316 0.000000 0.000000 0.000000 4.291004 0.175982 -2.578179 -1.926795 0.761772 5.310568 -4.833235 7.300198 -0.730064 9.014329 -4.828187 -8.740019 0.000000 0.000000 0.000000 -21.475699 6.532669 -8.728981 -45.727630 13.174008 -9.156930 -8.918904 -26.526092 2.265404 0.000000 0.000000 0.000000 25.258058 -11.162690 -6.139841 50.528658 -15.722745 -11.101434 12.440448 21.882409 3.352630 0.000000 0.000000 0.000000 
-0.208841 0.940067 3.489412 -0.403213 5.293318 -1.762852 -3.646843 1.499215 12.939162 1.576214 0.116519 -6.005186 -8.048617 -11.663678 6.982492 0.000000 0.000000 0.000000 -1.136067 -1.292356 12.746891 -2.071618 0.435921 3.593166 1.023708 0.785118 3.966275 0.000000 0.000000 0.000000 4.153864 0.175373 -2.570734 -1.800155 0.699626 5.311935 -4.515466 6.142235 -0.506227 8.506200 -4.590796 -8.579481 0.000000 0.000000 0.000000 -22.136980 6.722722 -8.696898 -45.562551 13.499867 -9.277643 -8.655943 -26.985772 2.342133 0.000000 0.000000 0.000000 24.403821 -11.007272 -6.339254 49.869126 -17.920952 -11.685879 13.240564 21.485738 3.362664 0.000000 0.000000 0.000000 
-0.209340 0.938823 3.488759 -0.224112 4.649034 -2.000490 -3.799584 1.540730 13.005979 1.326523 0.113599 -5.633480 -7.626079 -11.301819 6.457792 0.000000 0.000000 0.000000 -1.398087 -1.258652 12.909103 -1.880327 0.424727 3.920098 0.721993 0.524023 2.843405 0.000000 0.000000 0.000000 3.892145 0.155450 -2.276884 -1.748597 0.681044 5.566469 -4.006855 5.234565 -0.706444 8.154939 -4.417848 -8.570724 0.000000 0.000000 0.000000 -22.878699 6.561938 -8.486847 -45.417081 13.254135 -9.168806 -8.535913 -27.217358 2.434036 0.000000 0.000000 0.000000 24.160122 -10.479341 -6.363611 49.072192 -18.702267 -11.721879 13.129684 21.008226 3.190276 0.000000 0.000000 0.000000 
-0.210313 0.938061 3.486813 -0.160110 3.979119 -2.174875 -3.803933 1.592392 13.320619 1.078497 0.141771 -6.004658 -7.306493 -10.882676 6.270318 0.000000 0.000000 0.000000 -1.605309 -1.192843 12.713277 -1.886672 0.446006 4.307051 0.882030 1.146964 2.286833 0.000000 0.000000 0.000000 3.930041 0.124088 -1.776761 -1.553626 0.584068 5.819911 -3.836584 4.639784 -1.057805 8.094930 -4.423228 -8.564745 0.000000 0.000000 0.000000 -23.183431 6.014845 -8.026828 -45.586375 12.676204 -9.006912 -8.361745 -27.618417 2.494541 0.000000 0.000000 0.000000 24.192014 -9.970713 -6.330688 48.649737 -18.157943 -11.377378 12.044835 21.040748 2.959071 0.000000 0.000000 0.000000 
-0.211470 0.937524 3.484148 -0.154844 3.382163 -2.017341 -3.668259 1.559030 13.021659 0.704556 0.162660 -6.034924 -6.990067 -10.498203 6.024724 0.000000 0.000000 0.000000 -1.658576 -1.107810 12.109723 -1.813641 0.461956 4.829265 0.834501 1.380323 1.529571 0.000000 0.000000 0.000000 3.961459 0.105113 -1.523458 -1.565618 0.597081 6.134943 -3.650493 3.983512 -1.334796 7.759012 -4.312320 -8.200022 0.000000 0.000000 0.000000 -23.697099 5.026934 -7.362273 -45.371211 11.746568 -8.617879 -7.608676 -27.966493 2.416445 0.000000 0.000000 0.000000 24.212657 -9.015683 -6.031163 48.410950 -16.995228 -10.853929 10.741416 21.506079 2.757300 0.000000 0.000000 0.000000 
-0.212659 0.937142 3.481046 -0.146442 2.584486 -2.037310 -3.590421 1.551951 12.869828 0.375296 0.180166 -6.022193 -6.586838 -9.942125 5.796422 0.000000 0.000000 0.000000 -1.928424 -1.007218 11.618458 -1.575027 0.441969 5.140934 1.035990 2.008075 1.251579 0.000000 0.000000 0.000000 4.057448 0.080745 -1.161572 -1.751341 0.715317 6.370799 -3.162562 3.613304 -1.716206 7.591440 -4.208021 -8.318744 0.000000 0.000000 0.000000 -24.068489 4.079080 -6.684077 -45.204396 10.416693 -8.106753 -6.985116 -27.004406 2.252371 0.000000 0.000000 0.000000 24.357720 -8.350944 -5.907165 48.444174 -15.231625 -10.167111 9.156895 21.350770 2.418175 0.000000 0.000000 0.000000 
-0.213827 0.936717 3.477592 -0.210052 1.556273 -1.822042 -3.647653 1.542594 12.502176 0.332759 0.187342 -6.123616 -6.039516 -9.158800 5.498616 0.000000 0.000000 0.000000 -2.068912 -0.900087 10.921627 -1.400070 0.425813 5.329669 1.174734 2.562281 0.835876 0.000000 0.000000 0.000000 4.061697 0.057149 -0.869466 -1.893575 0.815475 6.816023 -2.609056 3.356940 -2.299532 7.079733 -3.983144 -7.810696 0.000000 0.000000 0.000000 -24.600767 3.396450 -6.180316 -44.965372 9.568623 -7.744352 -6.748662 -26.619134 2.219663 0.000000 0.000000 0.000000 24.244229 -7.221898 -5.474363 48.768046 -13.286973 -9.441985 7.844019 22.022017 2.231015 0.000000 0.000000 0.000000 
-0.215225 0.936778 3.473721 -0.228210 0.993738 -1.838607 -3.761828 1.550916 12.353478 0.516133 0.182734 -6.250346 -5.740036 -8.679669 5.403926 0.000000 0.000000 0.000000 -2.093741 -0.839932 10.423889 -1.318924 0.432602 5.694375 1.218679 2.832302 0.541011 0.000000 0.000000 0.000000 3.916056 0.017526 -0.333037 -2.111763 0.954678 6.870852 -2.161831 3.378881 -2.648068 6.919947 -3.829293 -8.084824 0.000000 0.000000 0.000000 -24.955750 2.672080 -5.747287 -44.885466 8.837144 -7.451265 -6.132271 -25.773467 2.033674 0.000000 0.000000 0.000000 24.553118 -6.565212 -5.231809 48.574406 -11.087677 -8.547946 7.066046 22.567909 2.135479 0.000000 0.000000 0.000000 
-0.217231 0.936989 3.469439 -0.261668 0.200974 -1.771818 -3.547671 1.510935 12.083789 0.145747 0.207521 -6.346266 -5.408596 -8.087415 5.414870 0.000000 0.000000 0.000000 -1.935921 -0.785750 9.810435 -1.274020 0.422544 5.596249 1.128976 2.396822 0.869420 0.000000 0.000000 0.000000 3.868143 -0.029162 0.291746 -2.452936 1.170585 6.792284 -1.804323 3.254058 -3.039804 6.518121 -3.708426 -7.331988 0.000000 0.000000 0.000000 -25.435407 2.172717 -5.388078 -44.614648 8.049072 -7.117394 -5.423591 -24.778916 1.834901 0.000000 0.000000 0.000000 25.242474 -4.989811 -4.549850 48.728645 -9.304233 -7.864428 5.894238 24.086794 2.038654 0.000000 0.000000 0.000000 
-0.219761 0.937263 3.465099 -0.348196 -0.444946 -1.813671 -3.480297 1.476672 11.767553 0.258435 0.195593 -6.167860 -5.044690 -7.518233 5.262182 0.000000 0.000000 0.000000 -1.676540 -0.775812 9.533581 -1.265436 0.419112 5.520116 1.030571 2.237669 0.692898 0.000000 0.000000 0.000000 3.689736 -0.070900 0.886153 -2.484854 1.208743 6.568363 -1.686373 3.363337 -2.915887 6.410902 -3.651481 -7.313576 0.000000 0.000000 0.000000 -25.369750 1.472494 -4.893704 -44.754491 7.662590 -7.031829 -5.404574 -24.014483 1.790513 0.000000 0.000000 0.000000 25.676776 -4.216591 -4.190966 49.008723 -7.740396 -7.329201 5.867098 25.299581 2.141490 0.000000 0.000000 0.000000 
-0.222695 0.937258 3.460851 -0.436275 -1.019749 -1.774840 -3.361221 1.418107 11.313380 0.354008 0.180095 -5.881687 -4.682566 -7.008538 4.994193 0.000000 0.000000 0.000000 -1.447088 -0.764391 9.260231 -1.538663 0.453054 5.349462 1.335824 3.148484 0.454969 0.000000 0.000000 0.000000 3.645859 -0.096169 1.235700 -2.640578 1.313174 6.770329 -1.666180 3.440750 -3.293266 6.400884 -3.772174 -6.589585 0.000000 0.000000 0.000000 -25.398111 1.065828 -4.616396 -44.618307 7.192029 -6.820630 -5.198413 -23.255984 1.700040 0.000000 0.000000 0.000000 25.883824 -3.431999 -3.804460 49.476842 -6.383467 -6.840721 5.876460 26.285717 2.223253 0.000000 0.000000 0.000000 
-0.225642 0.937386 3.456508 -0.536827 -1.186023 -1.817297 -3.097996 1.341576 10.902925 0.358097 0.167259 -5.547666 -4.521104 -6.819422 4.790851 0.000000 0.000000 0.000000 -1.102349 -0.798921 9.281368 -1.678837 0.443183 4.788782 1.414217 3.308046 0.516016 0.000000 0.000000 0.000000 3.457709 -0.126562 1.703451 -2.511700 1.244548 6.466331 -1.959547 3.839701 -3.241274 6.429686 -3.790961 -6.524095 0.000000 0.000000 0.000000 -25.291609 0.450229 -4.365543 -44.641669 6.773853 -6.647841 -5.676654 -22.806726 1.746598 0.000000 0.000000 0.000000 26.229326 -2.956757 -3.409224 50.014069 -5.186442 -6.498528 5.956156 26.701982 2.304067 0.000000 0.000000 0.000000 
-0.228382 0.937662 3.451584 -0.658242 -1.283092 -1.750535 -2.946444 1.252930 10.290764 0.591529 0.136370 -5.147764 -4.366892 -6.633180 4.594127 0.000000 0.000000 0.000000 -0.605132 -0.831327 9.093400 -1.896727 0.448005 4.321274 1.325955 3.020415 0.613698 0.000000 0.000000 0.000000 3.539406 -0.151962 2.026788 -2.695945 1.350210 6.575504 -2.213309 4.275079 -3.349895 6.705681 -4.041854 -6.114754 0.000000 0.000000 0.000000 -25.378681 -0.062867 -4.238294 -44.681997 6.213831 -6.403085 -5.985949 -22.691982 1.777453 0.000000 0.000000 0.000000 26.722642 -2.490940 -3.006781 50.230155 -4.316204 -6.228911 5.843368 26.766983 2.309508 0.000000 0.000000 0.000000 
-0.230952 0.937935 3.446143 -0.645318 -1.365824 -1.722724 -2.911670 1.155371 9.506514 0.755206 0.095619 -4.433835 -4.211212 -6.451662 4.379867 0.000000 0.000000 0.000000 -0.482052 -0.821828 8.872933 -1.748939 0.410194 4.032001 1.253215 2.884125 0.532466 0.000000 0.000000 0.000000 3.419087 -0.186386 2.544011 -2.731321 1.367978 6.083627 -2.524724 5.177413 -2.953540 7.029005 -4.239147 -6.166141 0.000000 0.000000 0.000000 -25.684301 -0.811876 -4.152902 -44.509850 5.443096 -6.036453 -5.962517 -22.937428 1.753981 0.000000 0.000000 0.000000 27.358591 -2.390185 -2.652793 50.281769 -3.479429 -6.043070 5.882517 26.467314 2.342809 0.000000 0.000000 0.000000 
-0.233418 0.938177 3.440514 -0.750633 -1.681626 -1.641032 -2.789267 1.061667 8.787649 0.922214 0.061334 -3.930206 -3.967114 -6.091504 4.190378 0.000000 0.000000 0.000000 -0.235710 -0.830165 8.754356 -1.861118 0.401455 3.618281 1.398500 3.470549 0.184538 0.000000 0.000000 0.000000 3.586815 -0.195861 2.605471 -2.756871 1.392625 6.317894 -2.814698 5.769153 -3.019930 7.113526 -4.389796 -5.632620 0.000000 0.000000 0.000000 -25.965893 -0.980052 -4.284394 -44.410384 4.848392 -5.751498 -5.810315 -22.830188 1.692460 0.000000 0.000000 0.000000 27.898250 -1.908455 -2.190146 50.194707 -2.497073 -5.707873 5.142418 25.654251 2.124563 0.000000 0.000000 0.000000 
-0.235812 0.938151 3.435145 -0.760134 -1.791201 -1.564683 -2.653624 0.995132 8.313995 0.942234 0.055846 -3.842788 -3.873211 -5.949889 4.119006 0.000000 0.000000 0.000000 -0.171310 -0.819742 8.594943 -1.904311 0.385306 3.245623 1.626701 4.209724 -0.046063 0.000000 0.000000 0.000000 3.592485 -0.213323 2.834522 -2.757664 1.393743 6.137794 -2.987406 6.293426 -2.879568 7.406958 -4.650061 -5.345312 0.000000 0.000000 0.000000 -26.151655 -1.445043 -4.217161 -44.206494 4.496579 -5.548497 -5.554099 -22.952240 1.630494 0.000000 0.000000 0.000000 27.903941 -1.583992 -1.785168 50.222566 -2.045864 -5.597196 4.980561 25.382156 2.088082 0.000000 0.000000 0.000000 
-0.238072 0.938370 3.429966 -0.626853 -2.092517 -1.498134 -2.646338 0.914894 7.620015 0.847397 0.040831 -3.316632 -3.704607 -5.644817 4.094863 0.000000 0.000000 0.000000 -0.116173 -0.777769 8.145362 -1.952907 0.382665 3.098438 1.617402 4.106603 0.067322 0.000000 0.000000 0.000000 3.428869 -0.227100 3.083253 -2.769319 1.399580 5.440343 -2.942875 6.547338 -2.068578 7.401513 -4.584906 -5.714076 0.000000 0.000000 0.000000 -26.350639 -1.462461 -4.235839 -44.144830 4.359255 -5.546424 -5.237827 -23.222480 1.591257 0.000000 0.000000 0.000000 27.992745 -1.504384 -1.673086 49.747830 -1.470305 -5.414725 5.464171 25.135178 2.176406 0.000000 0.000000 0.000000 
-0.240281 0.938190 3.424654 -0.631183 -2.117889 -1.189594 -2.154525 0.841045 7.279239 0.233679 0.114970 -3.916645 -3.775494 -5.677450 4.294430 0.000000 0.000000 0.000000 -0.082375 -0.701122 7.304656 -1.903490 0.382769 3.215769 1.836413 4.618022 0.147639 0.000000 0.000000 0.000000 3.491530 -0.211707 2.786891 -3.147383 1.612544 5.919026 -2.773047 6.258227 -2.309363 7.717632 -4.823569 -5.684489 0.000000 0.000000 0.000000 -25.773543 -1.366543 -4.071680 -44.250097 4.300444 -5.571800 -4.976415 -22.709555 1.520361 0.000000 0.000000 0.000000 27.750585 -1.368344 -1.710328 49.888695 -2.109631 -5.605867 5.499224 24.942721 2.142137 0.000000 0.000000 0.000000 
-0.242454 0.939593 3.419213 -0.580373 -2.359097 -0.965044 -2.075581 0.723550 6.281415 0.189541 0.092619 -3.210504 -3.698638 -5.354534 4.636725 0.000000 0.000000 0.000000 -0.227140 -0.587596 6.257897 -1.442416 0.327373 3.321561 2.102347 4.446343 1.397894 0.000000 0.000000 0.000000 3.684604 -0.236324 3.014774 -3.523239 1.797200 4.708348 -2.379140 6.194451 -1.224725 7.399346 -4.576692 -5.948092 0.000000 0.000000 0.000000 -26.737935 -1.341801 -4.110883 -43.767359 4.600666 -5.692733 -4.468729 -22.521334 1.440755 0.000000 0.000000 0.000000 28.308006 -1.367633 -1.813077 48.907263 -1.540303 -5.369530 5.100469 24.911820 2.054524 0.000000 0.000000 0.000000 
-0.244709 0.939241 3.414060 -0.565016 -2.404917 -0.842679 -1.609463 0.646381 5.840135 -0.410283 0.145461 -3.244566 -3.694173 -5.345368 4.640914 0.000000 0.000000 0.000000 -0.264123 -0.501767 5.375146 -1.030990 0.296192 3.773178 2.052629 4.205584 1.572667 0.000000 0.000000 0.000000 3.121888 -0.189352 2.551677 -3.453109 1.807276 6.818580 -1.792206 6.011041 -2.635932 7.962415 -4.999340 -5.730393 0.000000 0.000000 0.000000 -26.371951 -1.384980 -3.965639 -44.030634 5.056462 -5.814967 -4.898455 -22.936270 1.550048 0.000000 0.000000 0.000000 27.269905 -1.595218 -2.073861 49.426438 -1.717997 -5.289681 3.736650 24.551609 1.722692 0.000000 0.000000 0.000000 
-0.246974 0.941163 3.409823 -0.340206 -2.025394 -1.120072 -1.872177 0.605571 5.364337 -0.008616 0.083407 -2.442434 -3.931228 -5.492196 5.187004 0.000000 0.000000 0.000000 -0.343192 -0.502699 5.416219 -0.817109 0.250123 3.433517 2.028073 3.455184 2.674948 0.000000 0.000000 0.000000 3.315681 -0.238722 3.235149 -4.105564 2.123005 5.402440 -1.030856 5.025519 -1.492484 6.720895 -4.240716 -5.372781 0.000000 0.000000 0.000000 -27.745713 -1.333831 -3.826638 -42.683840 4.211431 -5.470639 -3.215172 -21.165783 1.183096 0.000000 0.000000 0.000000 28.230320 -0.827850 -1.955363 48.082463 -1.227613 -5.019484 2.555302 23.603444 1.389564 0.000000 0.000000 0.000000 
