HIERARCHY
ROOT Hips
{
	OFFSET -0.001795 -0.223333 0.028219
	CHANNELS 6 Xposition Yposition Zposition Zrotation Yrotation Xrotation 
	JOINT LeftUpLeg
	{
		OFFSET 0.069520 -0.091406 -0.006815
		CHANNELS 3 Zrotation Yrotation Xrotation
		JOINT LeftLeg
		{
			OFFSET 0.034277 -0.375199 -0.004496
			CHANNELS 3 Zrotation Yrotation Xrotation
			JOINT LeftFoot
			{
				OFFSET -0.013596 -0.397961 -0.043693
				CHANNELS 3 Zrotation Yrotation Xrotation
				JOINT LeftToe
				{
					OFFSET 0.026358 -0.055791 0.119288
					CHANNELS 3 Zrotation Yrotation Xrotation
					End Site
					{
						OFFSET 0.000000 0.000000 0.000000
					}
				}
			}
		}
	}
	JOINT RightUpLeg
	{
		OFFSET -0.067670 -0.090522 -0.004320
		CHANNELS 3 Zrotation Yrotation Xrotation
		JOINT RightLeg
		{
			OFFSET -0.038290 -0.382569 -0.008850
			CHANNELS 3 Zrotation Yrotation Xrotation
			JOINT RightFoot
			{
				OFFSET 0.015774 -0.398415 -0.042312
				CHANNELS 3 Zrotation Yrotation Xrotation
				JOINT RightToe
				{
					OFFSET -0.025372 -0.048144 0.123348
					CHANNELS 3 Zrotation Yrotation Xrotation
					End Site
					{
						OFFSET 0.000000 0.000000 0.000000
					}
				}
			}
		}
	}
	JOINT Spine
	{
		OFFSET -0.002533 0.108963 -0.026696
		CHANNELS 3 Zrotation Yrotation Xrotation
		JOINT Spine1
		{
			OFFSET 0.005487 0.135180 0.001092
			CHANNELS 3 Zrotation Yrotation Xrotation
			JOINT Spine2
			{
				OFFSET 0.001457 0.052922 0.025425
				CHANNELS 3 Zrotation Yrotation Xrotation
				JOINT Neck
				{
					OFFSET -0.002778 0.213870 -0.042857
					CHANNELS 3 Zrotation Yrotation Xrotation
					JOINT Head
					{
						OFFSET 0.005152 0.064970 0.051349
						CHANNELS 3 Zrotation Yrotation Xrotation
						End Site
						{
							OFFSET 0.000000 0.000000 0.000000
						}
					}
				}
				JOINT LeftShoulder
				{
					OFFSET 0.078845 0.121749 -0.034090
					CHANNELS 3 Zrotation Yrotation Xrotation
					JOINT LeftArm
					{
						OFFSET 0.090977 0.030469 -0.008868
						CHANNELS 3 Zrotation Yrotation Xrotation
						JOINT LeftForeArm
						{
							OFFSET 0.259612 -0.012772 -0.027456
							CHANNELS 3 Zrotation Yrotation Xrotation
							JOINT LeftHand
							{
								OFFSET 0.249234 0.008986 -0.001171
								CHANNELS 3 Zrotation Yrotation Xrotation
								End Site
								{
									OFFSET 0.000000 0.000000 0.000000
								}
							}
						}
					}
				}
				JOINT RightShoulder
				{
					OFFSET -0.081759 0.118833 -0.038615
					CHANNELS 3 Zrotation Yrotation Xrotation
					JOINT RightArm
					{
						OFFSET -0.096012 0.032551 -0.009143
						CHANNELS 3 Zrotation Yrotation Xrotation
						JOINT RightForeArm
						{
							OFFSET -0.253742 -0.013329 -0.021401
							CHANNELS 3 Zrotation Yrotation Xrotation
							JOINT RightHand
							{
								OFFSET -0.255298 0.007772 -0.005559
								CHANNELS 3 Zrotation Yrotation Xrotation
								End Site
								{
									OFFSET 0.000000 0.000000 0.000000
								}
							}
						}
					}
				}
			}
		}
	}
}
MOTION
Frames: 92
Frame Time: 0.050000
0.000000 0.990814 0.000000 0.691743 -2.671134 1.271990 5.016638 -0.042104 0.036369 -0.002491 0.222290 -6.393777 -2.056318 4.787851 24.387191 0.000000 0.000000 0.000000 -0.031554 -0.243085 2.515405 -3.887807 0.205761 -2.571426 0.871946 -6.232870 19.277498 0.000000 0.000000 0.000000 3.863231 -0.219545 2.331442 -3.163527 1.487893 -1.684832 -3.157129 2.898487 -2.419555 2.812926 -1.708061 -3.672017 0.000000 0.000000 0.000000 -13.754529 2.379710 -2.961758 -17.226144 -12.463159 -0.335459 13.115603 1.732623 0.151195 0.000000 0.000000 0.000000 11.368322 -8.214498 -4.595653 21.691609 6.957345 -0.879574 -12.820803 1.640057 0.191810 0.000000 0.000000 0.000000 
-0.002963 0.993281 0.002822 0.262606 -3.671876 1.880365 5.519694 -0.035031 0.162420 0.108277 0.255156 -7.372522 -1.114961 5.817395 24.344680 0.000000 0.000000 0.000000 0.426485 -0.199569 1.838528 -3.681180 0.175417 -2.664465 0.167330 -6.492882 15.733763 0.000000 0.000000 0.000000 4.610052 -0.235164 2.135796 -3.309688 1.556372 -1.283219 -4.016217 3.682015 -4.095121 1.824856 -0.778200 -5.313737 0.000000 0.000000 0.000000 -13.247085 3.182343 -3.363109 -15.443825 -11.097400 -0.393705 11.311161 3.759654 0.244839 0.000000 0.000000 0.000000 10.770671 -12.032744 -6.168249 20.522561 5.142116 -1.032525 -12.397863 2.408132 0.139370 0.000000 0.000000 0.000000 
-0.006924 0.994885 0.006084 0.614070 -4.331149 1.792348 5.874653 -0.036670 -0.073167 0.336852 0.179451 -5.792203 -0.835574 6.165827 24.809069 0.000000 0.000000 0.000000 0.305840 -0.218360 2.105262 -3.772094 0.136282 -3.266461 0.392534 -6.432313 16.389383 0.000000 0.000000 0.000000 4.482234 -0.299683 3.025003 -3.243316 1.447780 -4.877358 -4.612363 4.316020 -0.890347 3.761639 -2.276625 -4.532355 0.000000 0.000000 0.000000 -10.074414 5.812716 -3.869921 -17.452597 -12.619222 -0.367483 13.396590 6.775686 0.548648 0.000000 0.000000 0.000000 10.483415 -13.317669 -6.639166 18.681611 5.023653 -1.130527 -12.439939 -1.462755 0.444317 0.000000 0.000000 0.000000 
-0.011776 0.995340 0.009071 0.693532 -4.791249 2.707527 6.462476 -0.066641 -0.686364 0.796887 0.168736 -6.225378 -1.246062 5.717336 25.578535 0.000000 0.000000 0.000000 0.661670 -0.185152 1.567335 -3.783114 0.139256 -3.182269 0.389708 -6.290120 15.700480 0.000000 0.000000 0.000000 4.177774 -0.217012 1.943693 -3.053527 1.378529 -3.736851 -4.463004 3.441091 -1.831262 2.603276 -1.451120 -4.619486 0.000000 0.000000 0.000000 -9.399901 7.764072 -4.450537 -17.518833 -11.507149 -0.498849 15.174838 8.047419 0.799120 0.000000 0.000000 0.000000 8.590067 -13.954685 -6.605789 17.607064 4.918044 -1.000341 -11.704647 -1.834861 0.422821 0.000000 0.000000 0.000000 
-0.017339 0.995162 0.012039 0.744787 -5.174474 2.726085 7.012251 -0.057484 -0.683943 1.409074 0.102087 -5.670169 -1.363343 5.334465 24.963252 0.000000 0.000000 0.000000 1.027756 -0.164830 1.188071 -3.964294 0.190913 -2.617801 0.552822 -5.799073 14.905483 0.000000 0.000000 0.000000 3.983548 -0.214982 1.997006 -2.334217 1.050274 -4.362426 -4.851182 4.017137 -1.165218 3.100279 -1.905595 -3.853296 0.000000 0.000000 0.000000 -8.218607 7.534218 -4.137250 -17.756970 -9.965831 -0.679972 14.576124 7.604441 0.706590 0.000000 0.000000 0.000000 8.578363 -14.230602 -6.694874 16.632357 5.121401 -0.983829 -12.492976 -3.189147 0.571705 0.000000 0.000000 0.000000 
-0.022897 0.994693 0.014546 0.997187 -5.865748 2.761148 6.972653 -0.086803 -1.921397 2.037089 -0.076177 -3.223969 -1.740208 4.599639 24.573713 0.000000 0.000000 0.000000 0.719112 -0.153394 1.221117 -3.417107 0.195594 -1.885165 0.423344 -5.808147 13.992136 0.000000 0.000000 0.000000 3.780919 -0.196906 1.833684 -2.964283 1.328882 -3.635856 -4.166555 3.345592 -1.488932 2.608392 -1.558336 -3.978287 0.000000 0.000000 0.000000 -8.476247 7.925602 -4.261702 -16.640634 -10.046106 -0.690107 15.581606 6.109916 0.654705 0.000000 0.000000 0.000000 7.722287 -13.527901 -6.277395 16.609849 6.420290 -0.801871 -13.255760 -1.850483 0.475964 0.000000 0.000000 0.000000 
-0.027463 0.994277 0.015917 0.871057 -6.063247 2.359898 7.607114 -0.095161 -3.182468 1.592886 -0.200321 0.232123 -2.357723 3.308462 22.954677 0.000000 0.000000 0.000000 1.043023 -0.219454 1.720794 -2.943639 0.177496 -1.560959 0.724002 -4.883135 12.931426 0.000000 0.000000 0.000000 4.004200 -0.296455 3.150164 -2.756159 1.226570 -4.142117 -4.334183 3.987490 -1.320433 2.231997 -1.302563 -3.713251 0.000000 0.000000 0.000000 -8.423571 7.087581 -3.950533 -16.655777 -11.241429 -0.556783 16.549982 2.382102 0.285319 0.000000 0.000000 0.000000 8.035493 -12.943637 -6.070849 16.285744 8.491356 -0.636997 -15.879713 1.099714 0.283900 0.000000 0.000000 0.000000 
-0.030204 0.991921 0.015595 0.853018 -4.190250 1.753297 8.260633 -0.160846 -6.585965 1.059466 -0.366900 6.295967 -3.156414 2.009292 21.049201 0.000000 0.000000 0.000000 1.160397 -0.264370 2.112882 -2.749506 0.270877 0.000235 0.676870 -4.130690 11.522110 0.000000 0.000000 0.000000 3.592080 -0.381345 4.680194 -2.637608 1.204612 -3.814503 -3.827519 3.011911 -1.278842 2.755454 -1.663417 -3.904726 0.000000 0.000000 0.000000 -9.148149 4.489015 -3.009896 -15.605640 -13.034587 -0.391999 19.169205 -3.124248 -0.388446 0.000000 0.000000 0.000000 7.366076 -10.836392 -5.064433 15.637687 10.269086 -0.478615 -18.550223 3.284996 0.042696 0.000000 0.000000 0.000000 
-0.030814 0.987164 0.014118 0.780682 -2.508235 1.153325 8.930068 -0.210712 -12.796108 -0.145394 -0.423710 15.871614 -3.831609 0.892854 19.586214 0.000000 0.000000 0.000000 0.883425 -0.240536 2.028916 -2.520856 0.396496 2.217917 0.303637 -4.176066 10.379588 0.000000 0.000000 0.000000 2.691565 -0.474331 7.019517 -1.549370 0.748646 -3.245648 -3.743932 2.851698 -2.197875 2.719015 -1.589635 -4.043563 0.000000 0.000000 0.000000 -10.739260 1.739036 -2.209969 -14.087446 -16.209314 -0.097790 25.045582 -9.566169 -1.804851 0.000000 0.000000 0.000000 7.654189 -7.739561 -3.789382 13.528734 12.604980 -0.331292 -23.825853 5.906946 -0.384024 0.000000 0.000000 0.000000 
-0.028990 0.981587 0.013423 0.535254 -0.812195 1.395598 10.052227 -0.165950 -19.696258 -1.932104 -0.147143 24.317743 -4.701636 -0.732808 17.920929 0.000000 0.000000 0.000000 0.619931 -0.073030 0.530330 -1.437003 0.450168 5.629902 -0.525025 -4.785170 8.066574 0.000000 0.000000 0.000000 2.267758 -0.577176 9.134392 -1.619555 0.795770 -3.121021 -2.689934 2.658854 -3.395345 2.565413 -1.258043 -5.582153 0.000000 0.000000 0.000000 -10.636288 -0.953305 -1.119055 -12.483966 -18.909029 0.054131 31.503273 -16.974513 -4.276035 0.000000 0.000000 0.000000 5.966186 -4.971325 -2.411873 13.661901 14.895382 -0.134954 -31.346133 8.011529 -1.001686 0.000000 0.000000 0.000000 
-0.024431 0.974546 0.016771 0.414045 -1.284953 1.312665 11.673467 0.203116 -24.048068 -3.954151 0.591608 27.256507 -4.042822 0.391252 18.408554 0.000000 0.000000 0.000000 0.077546 -0.057871 0.556137 -1.180729 0.506260 7.400649 -0.246186 -3.868842 7.077053 0.000000 0.000000 0.000000 2.320929 -0.676541 10.793885 -1.768372 0.856533 -2.783193 -2.646490 3.724339 -4.029052 1.700547 -0.587443 -5.942651 0.000000 0.000000 0.000000 -9.707401 -2.002208 -0.660815 -11.202853 -23.696447 0.240386 38.458144 -22.671919 -7.371418 0.000000 0.000000 0.000000 6.609057 -1.258007 -0.910639 11.614754 18.661804 -0.034135 -41.275728 11.399008 -2.414432 0.000000 0.000000 0.000000 
-0.016552 0.967222 0.024674 0.346162 -2.036701 0.599843 13.079173 0.616432 -25.262541 -4.505465 0.786348 23.182026 -1.892589 3.953324 20.014353 0.000000 0.000000 0.000000 -0.151445 -0.047386 0.531365 -1.166847 0.651059 9.953263 -0.377717 -3.663900 5.719282 0.000000 0.000000 0.000000 1.187667 -0.671196 13.472742 -2.075164 0.989214 -3.278740 -0.791604 4.701678 -3.701562 1.131538 0.092244 -8.534694 0.000000 0.000000 0.000000 -9.527177 -3.699983 0.066161 -9.331823 -26.149577 0.089979 48.513136 -26.816009 -11.524725 0.000000 0.000000 0.000000 7.147977 2.662993 0.713402 9.366709 21.330291 -0.130344 -52.409334 16.974078 -5.753708 0.000000 0.000000 0.000000 
-0.004435 0.960759 0.037142 0.471037 -2.589625 0.963656 14.525059 0.994593 -25.466399 -2.268231 0.130039 13.963493 -2.709776 4.554014 26.292246 0.000000 0.000000 0.000000 -1.406788 0.014888 0.325537 -0.584660 0.634439 11.616399 -0.224192 -3.032119 4.959629 0.000000 0.000000 0.000000 0.223905 -0.571691 14.407585 -0.851977 0.428331 -2.133400 -1.608694 5.437535 -4.421359 0.891698 0.338540 -9.091291 0.000000 0.000000 0.000000 -8.421586 -5.697835 0.922615 -5.449509 -29.275303 -0.478156 56.606391 -22.740822 -11.845558 0.000000 0.000000 0.000000 8.837471 6.860945 2.607574 6.957698 23.432379 -0.351700 -64.271159 21.873626 -10.204423 0.000000 0.000000 0.000000 
0.012310 0.953343 0.052692 0.188509 -3.458820 1.241875 15.609567 1.307961 -25.170084 0.546605 -0.323375 7.448130 -3.804424 3.497509 27.975272 0.000000 0.000000 0.000000 -2.029540 0.071854 -0.065937 -0.663454 0.760483 13.271615 -0.174490 -2.465466 3.872606 0.000000 0.000000 0.000000 -0.260863 -0.509928 15.057566 -2.043543 0.979159 0.027185 -0.412082 6.859322 -5.434773 0.359882 0.780545 -9.865616 0.000000 0.000000 0.000000 -6.767858 -9.491381 2.504300 -1.431614 -31.726480 -1.303671 62.621681 -19.475417 -11.582084 0.000000 0.000000 0.000000 7.947599 9.883069 3.998914 5.540800 26.383188 -0.472140 -72.538703 25.818602 -14.556827 0.000000 0.000000 0.000000 
0.033822 0.947186 0.070558 -0.477030 -3.647200 2.178139 16.760069 1.585504 -25.431345 0.599494 -0.250417 5.055769 -5.168724 2.191895 29.318832 0.000000 0.000000 0.000000 -2.487610 0.158838 -0.935228 -0.388305 0.777928 14.586039 -0.566184 -3.176000 3.457412 0.000000 0.000000 0.000000 -0.014875 -0.573284 15.980920 -1.887714 0.897883 -0.734106 -1.051419 8.113095 -4.204126 1.705259 0.040705 -10.096717 0.000000 0.000000 0.000000 -4.246430 -12.615564 3.775198 1.561732 -33.755119 -2.204668 68.219608 -16.976687 -11.615923 0.000000 0.000000 0.000000 7.256495 12.935349 5.517834 4.865368 30.920476 -0.594817 -82.325711 25.456337 -16.710234 0.000000 0.000000 0.000000 
0.061254 0.941949 0.090175 -0.992425 -4.608309 3.425456 16.961112 1.762620 -26.054189 0.423392 -0.230315 5.481701 -5.530885 2.593021 32.558241 0.000000 0.000000 0.000000 -2.973489 0.339327 -3.053058 -0.299746 0.931881 17.027346 -1.246426 -4.115730 1.989976 0.000000 0.000000 0.000000 -0.118054 -0.585223 17.819932 -2.034042 0.956618 -1.349083 -0.583969 9.239471 -3.419740 1.361500 0.474469 -11.622661 0.000000 0.000000 0.000000 -2.247179 -13.263828 4.102029 3.397218 -36.121038 -2.979172 72.832983 -14.926663 -11.380358 0.000000 0.000000 0.000000 3.758287 14.162778 5.744892 5.590253 35.177366 -0.356746 -91.710675 24.651557 -18.462603 0.000000 0.000000 0.000000 
0.094082 0.940329 0.111202 -1.589329 -5.828001 5.378871 16.274904 1.868184 -28.063133 0.099441 -0.249430 8.923643 -4.269969 3.974901 33.194190 0.000000 0.000000 0.000000 -3.840446 0.600125 -6.327661 -0.249704 1.182646 20.246845 -1.400359 -4.972910 2.973700 0.000000 0.000000 0.000000 0.005342 -0.612739 19.597825 -2.492828 1.149166 -1.948237 -0.574110 10.913849 -3.447942 1.430311 0.509554 -11.764576 0.000000 0.000000 0.000000 -2.155481 -15.050009 4.666908 5.015008 -36.860347 -3.574601 76.842264 -14.058251 -11.678987 0.000000 0.000000 0.000000 2.374339 15.871639 6.411538 6.102384 35.370574 -0.199877 -98.590719 23.959314 -19.411113 0.000000 0.000000 0.000000 
0.130593 0.936963 0.134412 -1.365721 -5.476415 7.219590 14.101675 1.368618 -30.141334 -0.232117 -0.247199 12.416142 -2.669810 5.028906 30.076778 0.000000 0.000000 0.000000 -5.641141 0.877759 -10.979266 0.723426 1.231760 25.676076 -2.597418 -8.501464 5.098657 0.000000 0.000000 0.000000 -0.473282 -0.572449 22.403133 -2.137048 0.990749 -1.673415 -0.764502 10.752172 -4.381623 1.266232 0.718633 -12.765565 0.000000 0.000000 0.000000 -2.542893 -14.613357 4.481774 4.499371 -35.771565 -3.301170 83.435522 -13.219712 -12.273590 0.000000 0.000000 0.000000 1.935722 15.186129 6.126164 7.380542 34.606116 0.089469 -106.566978 22.425250 -20.091191 0.000000 0.000000 0.000000 
0.167348 0.926968 0.159410 -0.888347 -5.338321 8.454304 11.726630 0.779148 -32.161906 -1.205792 -0.048933 16.907234 -0.112231 7.022325 25.011870 0.000000 0.000000 0.000000 -7.793009 1.043032 -16.271618 0.960402 1.759274 35.147004 -3.693814 -11.394204 6.994429 0.000000 0.000000 0.000000 -0.854985 -0.510521 24.707519 -1.764554 0.826341 -1.185187 -1.302312 10.931413 -4.954139 1.161720 0.963113 -14.146043 0.000000 0.000000 0.000000 -4.371254 -13.450528 3.881851 2.964931 -33.179911 -2.628294 88.262808 -13.273778 -13.328168 0.000000 0.000000 0.000000 2.326889 12.801310 5.272487 11.001275 30.063249 0.561959 -114.494862 21.219469 -20.978381 0.000000 0.000000 0.000000 
0.200002 0.912788 0.183921 -0.753817 -4.665789 9.641889 10.603599 0.452792 -34.614420 -2.370906 0.283796 22.280306 0.601539 6.505699 17.724469 0.000000 0.000000 0.000000 -9.269600 1.234265 -25.139536 2.882867 1.408048 47.169697 -5.552525 -15.411381 8.366094 0.000000 0.000000 0.000000 -0.254226 -0.769189 28.459240 -1.946031 0.891373 -3.142846 -0.684343 8.799294 -4.028962 0.127755 1.292867 -12.942434 0.000000 0.000000 0.000000 -5.574798 -8.574301 2.139443 -1.574453 -30.178116 -1.417056 95.013192 -14.433397 -15.503736 0.000000 0.000000 0.000000 2.937981 10.753143 4.361233 14.805558 23.584182 0.542700 -123.333935 18.544917 -21.727459 0.000000 0.000000 0.000000 
0.225256 0.892599 0.206517 -0.535263 -3.689059 11.180751 9.430638 0.028248 -38.499408 -3.177752 0.562341 27.844927 0.929842 5.554587 11.193483 0.000000 0.000000 0.000000 -10.000932 1.403391 -35.617707 7.594458 -1.664296 56.227369 -5.240355 -12.859137 -2.558238 0.000000 0.000000 0.000000 0.286763 -1.099803 32.071405 -0.764226 0.404411 -4.400306 -1.807892 7.781304 -3.523247 -1.488026 2.409550 -15.574347 0.000000 0.000000 0.000000 -7.226311 -4.879875 0.515454 -4.546269 -27.286408 -0.821556 101.276122 -12.770036 -15.111432 0.000000 0.000000 0.000000 2.302047 6.011702 2.416986 21.486305 21.325483 1.066717 -130.014369 14.050660 -16.379489 0.000000 0.000000 0.000000 
0.242908 0.869512 0.228600 -0.828749 -4.299133 12.880203 9.394272 0.234596 -42.493462 -4.200790 1.210625 34.309756 2.179222 5.842797 4.060427 0.000000 0.000000 0.000000 -9.042495 2.252454 -44.989160 11.086946 -3.956932 57.264178 -3.375889 -4.162484 -10.841804 0.000000 0.000000 0.000000 1.317226 -1.485625 35.413615 -0.204287 0.208278 -6.902481 -4.012403 6.709336 -3.007996 -0.065649 1.596125 -15.799386 0.000000 0.000000 0.000000 -6.192858 -3.250875 0.103086 -6.165393 -25.732570 -0.612275 106.487069 -9.130948 -11.625563 0.000000 0.000000 0.000000 4.198443 6.664820 2.746291 21.253867 21.129091 0.942069 -131.135234 9.510091 -8.230192 0.000000 0.000000 0.000000 
0.254026 0.841362 0.251879 -0.643412 -3.859891 14.353815 9.534096 0.317622 -46.811421 -6.051764 2.355773 41.674198 3.629622 6.657306 -3.885273 0.000000 0.000000 0.000000 -7.441023 3.262412 -52.481388 11.612339 -4.556518 57.618435 -3.102336 -4.842233 -8.029097 0.000000 0.000000 0.000000 1.407888 -1.656025 37.535731 -0.271946 0.272202 -8.793113 -4.310505 7.072941 -3.813154 -0.332839 1.831784 -16.565071 0.000000 0.000000 0.000000 -7.279067 -5.255520 0.661280 -4.418378 -25.188957 -0.845777 109.489193 -4.926524 -6.447050 0.000000 0.000000 0.000000 6.734033 5.775822 2.532821 18.180534 23.436609 0.849039 -130.968056 6.440615 -1.404224 0.000000 0.000000 0.000000 
0.259755 0.814799 0.278335 0.362100 -1.644975 14.307502 7.305016 -1.124459 -49.091217 -5.034798 1.629684 48.557540 4.726030 6.595799 -12.094788 0.000000 0.000000 0.000000 -6.266289 3.392250 -56.056044 10.386866 -4.780180 63.967760 -5.089384 -11.710352 -6.212737 0.000000 0.000000 0.000000 2.200942 -2.373209 39.216630 -0.503566 0.391723 -9.030642 -4.570681 5.118219 -4.720377 -0.078817 1.616909 -16.429215 0.000000 0.000000 0.000000 -4.441967 -7.335035 1.899525 -1.234475 -27.898213 -1.433313 109.781710 -0.706053 -0.429231 0.000000 0.000000 0.000000 5.877452 9.424787 4.002550 12.803877 25.623010 0.373322 -127.591583 3.007365 4.953731 0.000000 0.000000 0.000000 
0.260671 0.795048 0.309740 1.646174 -0.242937 13.245006 5.201561 -2.339685 -48.428321 -4.383523 0.966369 53.573753 5.807638 7.016751 -18.780333 0.000000 0.000000 0.000000 -6.056288 3.035847 -56.097910 9.799898 -5.107149 68.442099 -7.484134 -18.631316 -3.929738 0.000000 0.000000 0.000000 1.662941 -2.400247 39.948112 -0.165494 0.339477 -10.870423 -4.044485 4.245840 -3.092625 -1.001232 2.178640 -17.601405 0.000000 0.000000 0.000000 -1.621466 -11.770724 3.825358 5.273184 -28.659839 -2.671168 108.244521 2.897471 4.343626 0.000000 0.000000 0.000000 4.683366 13.651626 5.701369 4.350821 28.849786 -0.898966 -123.426096 2.291814 5.500542 0.000000 0.000000 0.000000 
0.257158 0.788992 0.348073 1.605356 -0.559684 13.187136 3.955117 -2.597442 -45.179863 -2.471318 -0.216291 54.965558 6.870864 8.036648 -25.353353 0.000000 0.000000 0.000000 -4.572504 3.607705 -52.855389 9.085882 -4.565334 71.499676 -7.470731 -18.095444 -11.789980 0.000000 0.000000 0.000000 1.175974 -2.005775 37.426036 0.281198 0.244915 -13.077352 -3.737674 4.297118 -0.007644 -0.730211 2.252686 -20.562560 0.000000 0.000000 0.000000 4.292379 -12.293630 4.269227 12.154795 -30.924578 -4.407800 105.272883 6.036040 7.641115 0.000000 0.000000 0.000000 -0.471660 16.015738 6.101159 -2.271922 31.995208 -2.271230 -116.097873 -0.438378 8.977695 0.000000 0.000000 0.000000 
0.251326 0.804819 0.398263 0.522799 -2.064290 12.739857 4.026769 -1.952672 -37.995521 -0.756722 -0.830969 52.630567 6.806964 7.429276 -26.982821 0.000000 0.000000 0.000000 -1.699270 4.664232 -47.324644 8.724462 -3.388337 69.534634 -7.882429 -19.462964 -10.434102 0.000000 0.000000 0.000000 -0.359285 -1.095972 33.831068 1.189002 -0.074740 -13.150755 -2.562512 4.546801 0.652006 0.152203 1.678844 -19.752906 0.000000 0.000000 0.000000 10.819025 -11.876240 4.301920 18.870409 -31.187526 -5.764036 101.685922 7.713551 9.072111 0.000000 0.000000 0.000000 -5.355962 16.078402 5.511202 -9.641446 33.960076 -3.972294 -108.802097 -2.456360 10.160677 0.000000 0.000000 0.000000 
0.244994 0.850161 0.467111 -0.612716 -3.954179 12.500490 3.677137 -1.497352 -29.251563 0.706579 -1.060498 46.083656 5.462192 8.236842 -14.524706 0.000000 0.000000 0.000000 1.544209 4.817952 -37.837896 6.622878 -0.615799 61.997476 -6.732137 -16.401631 -4.925509 0.000000 0.000000 0.000000 -1.700361 -0.381678 28.422744 2.215441 -0.351252 -15.274461 -1.083192 4.018318 3.576366 0.730980 1.260773 -20.794819 0.000000 0.000000 0.000000 16.298582 -9.634411 3.627482 19.898910 -30.224174 -5.444979 95.815889 9.108766 9.783372 0.000000 0.000000 0.000000 -10.007558 14.296048 4.516432 -12.760582 34.359893 -4.871203 -102.582125 -4.522949 10.420829 0.000000 0.000000 0.000000 
0.240374 0.917959 0.554526 -1.745429 -6.111877 12.241094 5.910546 -0.706245 -19.512455 -1.724620 0.638383 37.972912 1.232533 4.699973 6.796706 0.000000 0.000000 0.000000 1.186030 3.213987 -26.384928 6.224978 0.102912 48.396536 -2.231903 -8.925430 8.620410 0.000000 0.000000 0.000000 -1.644212 -0.238818 19.701995 2.722784 -0.739697 -11.368053 -0.319223 5.635250 1.096408 1.203434 0.398423 -13.222350 0.000000 0.000000 0.000000 17.275465 -8.262390 3.495645 20.446284 -32.564074 -6.181603 95.446206 4.487485 4.963819 0.000000 0.000000 0.000000 -13.144597 9.829407 3.226395 -11.684624 36.159541 -4.794858 -97.263598 -0.360135 5.273068 0.000000 0.000000 0.000000 
0.238791 0.983997 0.642520 -1.614066 -6.095026 11.439745 5.079998 -0.696956 -14.335288 -1.722149 0.454145 32.454595 -2.375815 4.347919 26.147552 0.000000 0.000000 0.000000 -0.077209 1.785479 -16.788874 4.931222 0.270364 35.798374 2.438429 -6.102857 25.592236 0.000000 0.000000 0.000000 -1.103660 -0.278065 12.965247 2.270819 -0.686674 -9.137557 0.537512 4.340312 -1.731652 2.583145 -1.434961 -4.788423 0.000000 0.000000 0.000000 19.770426 -9.513411 3.663478 18.178797 -31.649763 -5.251869 89.383825 0.640454 1.506717 0.000000 0.000000 0.000000 -16.664660 9.478958 3.343648 -12.050994 34.597650 -4.709612 -89.331058 2.957700 0.909085 0.000000 0.000000 0.000000 
0.239835 1.036860 0.719420 -1.578420 -6.693234 9.336304 3.942780 -0.759208 -13.612479 -2.444969 0.718155 29.831478 -2.002223 6.923742 35.139804 0.000000 0.000000 0.000000 -0.490715 1.232380 -12.135530 3.696906 0.721967 32.844299 2.965586 -6.727313 29.837103 0.000000 0.000000 0.000000 -1.858132 -0.134865 11.009655 3.015027 -0.995236 -8.794448 -0.087478 6.081623 -2.068175 3.872107 -2.494732 -3.447026 0.000000 0.000000 0.000000 20.527376 -11.896875 4.293019 20.172292 -32.044730 -5.961910 82.107887 1.083286 0.950479 0.000000 0.000000 0.000000 -16.281671 8.353497 2.889696 -14.991169 33.790153 -5.019868 -81.341073 3.718942 0.681220 0.000000 0.000000 0.000000 
0.242705 1.066377 0.790219 -2.074547 -7.854162 7.313220 3.809094 -0.730766 -13.627693 -2.737482 0.710664 23.801402 -0.907380 6.871158 30.552465 0.000000 0.000000 0.000000 0.358177 1.341961 -12.626370 2.754659 1.022865 29.592824 1.727422 -7.472994 25.278538 0.000000 0.000000 0.000000 -0.194560 -0.392154 12.395871 2.571626 -0.893660 -8.333810 -1.039956 6.948841 -4.215829 4.407484 -3.222752 -1.165430 0.000000 0.000000 0.000000 22.263144 -12.095256 4.538913 20.256115 -32.668172 -6.239746 76.371089 1.948820 1.261229 0.000000 0.000000 0.000000 -18.701454 8.511763 2.899581 -14.670683 34.652027 -4.996183 -75.774815 4.244216 0.474294 0.000000 0.000000 0.000000 
0.246545 1.075357 0.858573 -2.597111 -8.777585 6.236948 3.296951 -0.749392 -13.455184 -0.318416 -0.133925 11.257932 -0.126302 6.471482 25.708838 0.000000 0.000000 0.000000 2.304204 1.447952 -12.462475 0.947464 1.128350 21.837838 2.915612 -5.640491 23.957342 0.000000 0.000000 0.000000 0.966788 -0.552922 12.678272 3.016073 -1.027521 -9.899569 -1.498697 8.825777 -1.951011 6.696435 -4.234479 -5.067700 0.000000 0.000000 0.000000 23.214105 -12.242721 4.690068 20.722040 -34.980833 -7.238646 73.158170 4.505389 2.300279 0.000000 0.000000 0.000000 -19.338598 7.637204 2.390075 -14.648184 36.963361 -5.216476 -73.945821 6.471694 -0.851400 0.000000 0.000000 0.000000 
0.251050 1.062261 0.926269 -2.887068 -10.615457 4.197238 3.783273 -0.625292 -13.144093 1.936319 -0.192959 -1.046246 -0.722940 6.393999 30.746084 0.000000 0.000000 0.000000 4.741345 1.456572 -11.377462 -1.934459 1.223142 13.792614 4.199027 -3.204011 21.402802 0.000000 0.000000 0.000000 1.401042 -0.618565 14.033559 3.247806 -1.179107 -9.736395 -1.796146 8.797875 -1.652188 5.364023 -3.390027 -4.669267 0.000000 0.000000 0.000000 24.441332 -11.780369 4.458365 19.349712 -36.906013 -7.291482 71.983124 4.448805 2.337124 0.000000 0.000000 0.000000 -18.991347 10.670005 3.035957 -16.513933 37.461301 -5.914342 -71.307869 7.841801 -2.186331 0.000000 0.000000 0.000000 
0.255572 1.029939 0.994756 -2.354827 -12.192590 2.489442 3.721007 -0.647971 -15.560081 2.298243 -0.107545 -3.552372 -0.299780 6.834126 31.957755 0.000000 0.000000 0.000000 5.447063 1.694089 -12.377333 -2.036428 1.025081 11.159113 5.044331 -1.097803 19.057426 0.000000 0.000000 0.000000 1.962421 -0.659718 14.221660 1.391274 -0.622670 -5.046329 -1.604659 8.694682 -4.373453 4.957934 -3.221020 -3.838357 0.000000 0.000000 0.000000 25.948632 -13.245809 4.618441 21.404679 -38.457369 -8.159054 69.416465 6.806392 4.018099 0.000000 0.000000 0.000000 -20.754965 11.160813 3.288243 -15.443135 38.964239 -6.012367 -69.802279 6.318416 -1.267815 0.000000 0.000000 0.000000 
0.260555 0.982455 1.062917 -2.210861 -14.291052 0.251296 3.300908 -0.662068 -17.044117 2.191489 -0.391833 2.561656 1.599401 7.647138 25.917358 0.000000 0.000000 0.000000 6.437154 1.848982 -12.609072 -2.957054 1.897997 16.970371 3.200671 -0.736621 11.665760 0.000000 0.000000 0.000000 1.746493 -0.620248 17.362804 0.934126 -0.480069 -5.440554 -1.577803 9.243405 -3.485167 5.407247 -3.521288 -4.191299 0.000000 0.000000 0.000000 23.648441 -15.152796 4.674551 27.150404 -39.458348 -10.047605 66.595288 7.109271 4.150530 0.000000 0.000000 0.000000 -19.617443 11.805974 3.420715 -19.007885 40.859136 -7.550456 -70.719843 1.958310 1.296391 0.000000 0.000000 0.000000 
0.265240 0.932634 1.132041 -1.829250 -14.550656 -0.864555 2.509022 -0.814051 -18.477948 0.309694 -0.157983 11.956918 4.717564 10.673453 13.113145 0.000000 0.000000 0.000000 5.953663 2.132465 -14.284474 -3.350456 3.921682 29.508340 -2.246953 -1.998212 -5.331665 0.000000 0.000000 0.000000 0.607046 -0.410325 19.953058 1.192662 -0.603918 -4.437147 -3.319334 8.890118 -4.386724 6.321888 -3.652918 -7.074933 0.000000 0.000000 0.000000 25.237312 -16.258646 4.852940 31.417763 -41.263390 -12.180215 65.819383 9.585161 5.584394 0.000000 0.000000 0.000000 -14.995861 12.234152 3.648340 -20.284597 39.755904 -7.619859 -72.918078 -0.123917 2.833991 0.000000 0.000000 0.000000 
0.268941 0.899349 1.207917 -2.369077 -15.981169 -2.252656 2.803101 -0.698951 -18.470190 -1.823820 0.957649 22.929561 6.775396 14.294737 -1.843833 0.000000 0.000000 0.000000 4.832715 2.791553 -18.250559 0.277456 4.947173 43.006545 -4.998148 -7.006296 -10.441698 0.000000 0.000000 0.000000 -0.384130 -0.139299 21.469742 0.565927 -0.331992 -2.182406 -2.611952 8.669113 -6.140461 5.891283 -3.210289 -7.926714 0.000000 0.000000 0.000000 22.747814 -18.779116 5.215689 33.425809 -43.512760 -13.627880 65.460411 7.564237 4.612776 0.000000 0.000000 0.000000 -12.241657 14.375072 4.371514 -18.427444 37.795226 -6.723421 -74.079034 2.936774 0.586989 0.000000 0.000000 0.000000 
0.271775 0.883518 1.295073 -3.596008 -16.566888 -1.946631 2.727080 -0.667111 -16.483499 -2.512022 1.933531 30.384331 7.322241 16.424129 -12.263325 0.000000 0.000000 0.000000 2.488500 3.428458 -23.266908 5.662676 3.170628 49.355620 -4.903051 -9.050366 -7.381190 0.000000 0.000000 0.000000 -0.390834 -0.129013 21.246990 1.711669 -0.822716 0.362199 -3.249042 7.115882 -8.850063 5.730324 -3.115663 -7.648407 0.000000 0.000000 0.000000 19.707370 -21.307019 5.756554 31.775110 -46.146171 -13.804217 65.630895 2.122277 1.735485 0.000000 0.000000 0.000000 -10.200698 15.179491 4.830173 -13.123276 36.867813 -5.231863 -77.983279 9.558054 -4.620861 0.000000 0.000000 0.000000 
0.273404 0.871731 1.393255 -4.751139 -16.130260 -1.442057 2.152675 -0.617349 -11.297908 -2.943116 2.371869 32.940842 7.385861 17.604644 -19.841875 0.000000 0.000000 0.000000 1.336325 3.841216 -26.540717 8.951213 1.025807 47.961830 -6.424443 -11.550037 -12.573938 0.000000 0.000000 0.000000 0.866904 -0.416386 20.415008 2.489832 -1.195439 -0.944020 -3.281953 5.931241 -8.448899 5.218648 -3.091496 -5.687575 0.000000 0.000000 0.000000 16.500127 -22.056845 6.021150 27.729564 -49.099026 -13.105288 69.091772 -3.006171 -1.306677 0.000000 0.000000 0.000000 -6.987828 16.773112 5.443750 -9.063700 35.585590 -4.063323 -84.471823 18.352193 -13.207523 0.000000 0.000000 0.000000 
0.274463 0.862807 1.498600 -5.360201 -17.352119 -0.571335 2.848471 -0.367605 -7.616554 -6.222630 4.743828 36.488468 8.017822 19.231884 -16.308465 0.000000 0.000000 0.000000 0.927824 4.128755 -28.052717 10.095477 0.264944 42.514148 -6.862904 -11.886658 -14.073030 0.000000 0.000000 0.000000 2.476023 -0.669500 19.754763 3.558578 -1.673911 -0.233625 -6.145316 6.595300 -11.281330 6.756576 -4.200656 -4.666608 0.000000 0.000000 0.000000 15.085338 -23.006259 6.554843 21.875090 -49.398898 -11.106683 70.218369 -6.853087 -4.109417 0.000000 0.000000 0.000000 -3.758988 17.664320 5.947840 -4.646180 36.832968 -2.892669 -90.119882 25.463633 -20.879285 0.000000 0.000000 0.000000 
0.275003 0.852961 1.606412 -5.744897 -17.734776 0.696892 0.636129 -0.377058 -4.697628 -5.407038 4.916212 39.310991 9.813213 21.498925 -2.668761 0.000000 0.000000 0.000000 0.966226 4.401899 -29.233840 9.358935 0.737536 43.627222 -6.855748 -11.875730 -14.160016 0.000000 0.000000 0.000000 3.052859 -0.765866 18.382587 2.901304 -1.320651 2.106748 -4.976391 4.283537 -13.715031 4.610981 -2.681782 -4.759489 0.000000 0.000000 0.000000 11.321161 -20.632610 6.241355 16.036694 -49.009966 -8.068606 74.667421 -12.735582 -8.016521 0.000000 0.000000 0.000000 -1.252257 18.815636 6.446837 -1.344969 40.158549 -2.286077 -98.048453 29.890504 -29.690284 0.000000 0.000000 0.000000 
0.274722 0.847742 1.712413 -6.460053 -18.340234 1.487661 -0.177415 -0.434554 -4.811189 -5.619956 6.789996 47.146054 9.790427 19.322449 14.669384 0.000000 0.000000 0.000000 2.499880 5.003710 -30.125529 10.040353 1.332489 52.242370 -6.969887 -13.483781 -12.982888 0.000000 0.000000 0.000000 4.733486 -1.010584 16.818949 1.279811 -0.447894 3.313364 -4.591424 4.457190 -14.222135 6.418371 -3.476637 -6.940781 0.000000 0.000000 0.000000 11.734121 -20.562116 6.231553 5.622643 -47.913017 -3.928813 77.662684 -13.971408 -9.614436 0.000000 0.000000 0.000000 2.503961 18.016238 6.316999 6.856029 42.765240 0.389499 -102.915882 35.488694 -39.288796 0.000000 0.000000 0.000000 
0.273550 0.839505 1.812179 -7.229131 -19.676290 0.234197 6.531558 0.093404 -13.180738 -7.598552 12.271005 61.943817 5.556215 14.215615 27.590969 0.000000 0.000000 0.000000 2.242310 4.742171 -28.839499 11.160526 1.898718 59.764766 -6.943768 -16.204873 -5.246215 0.000000 0.000000 0.000000 4.941270 -1.031511 20.935700 0.001218 0.124070 2.263550 -2.426621 6.455154 -13.343934 5.047282 -2.578613 -7.702437 0.000000 0.000000 0.000000 9.005739 -16.570712 5.298881 -2.632836 -48.140324 -0.939846 80.012250 -21.043948 -16.179611 0.000000 0.000000 0.000000 5.718653 18.284322 6.601800 13.157287 43.204484 2.553030 -108.741864 41.581361 -51.251302 0.000000 0.000000 0.000000 
0.271333 0.824735 1.907897 -6.620382 -17.422914 -1.066532 10.114557 1.602902 -27.622177 -6.698034 9.209890 60.488812 14.308729 26.537723 5.364730 0.000000 0.000000 0.000000 0.393641 3.832381 -27.048966 11.319820 1.668115 66.878973 -6.280201 -14.951536 -3.578922 0.000000 0.000000 0.000000 2.940415 -0.712171 26.233347 0.425540 -0.220754 -0.256887 -2.143282 10.660669 -13.173492 5.888920 -3.193236 -6.724581 0.000000 0.000000 0.000000 2.544154 -19.256930 6.196677 -8.319655 -47.915020 0.742239 84.886323 -28.711352 -26.524446 0.000000 0.000000 0.000000 8.983488 18.356987 7.667073 20.974948 36.576147 4.128703 -118.876174 49.553027 -68.675096 0.000000 0.000000 0.000000 
0.269326 0.798686 2.004976 -4.077546 -14.819926 -2.849343 8.686870 2.064307 -41.271879 -4.231066 2.526588 35.959369 21.586004 32.814886 15.114619 0.000000 0.000000 0.000000 -2.643225 3.365654 -28.820651 12.809663 -0.189478 78.202825 -6.497980 -15.533164 -5.249059 0.000000 0.000000 0.000000 -0.598836 0.200838 31.595591 1.505450 -0.767038 -2.287415 -2.468804 12.448217 -10.262544 8.372588 -2.513099 -17.812542 0.000000 0.000000 0.000000 -4.023469 -14.940527 4.392194 -15.995620 -47.756170 3.350679 93.523772 -39.243130 -42.533840 0.000000 0.000000 0.000000 12.790731 15.219276 7.196425 27.573014 32.670678 4.692030 -128.395621 56.536149 -86.901370 0.000000 0.000000 0.000000 
0.268133 0.760856 2.108244 -4.718717 -15.955584 -2.888672 10.833177 4.574448 -50.036129 -4.601457 2.620132 36.619959 5.572853 12.336973 15.950525 0.000000 0.000000 0.000000 -4.066231 3.245482 -29.354881 13.243131 0.228162 82.464126 -5.874834 -14.466761 -2.750947 0.000000 0.000000 0.000000 0.802084 -0.000918 33.089370 -3.192319 1.176226 -7.225530 0.792842 14.664734 -1.611523 8.561027 -2.792129 -18.162241 0.000000 0.000000 0.000000 -8.630012 -12.286689 3.210282 -24.975080 -43.536834 5.384398 104.281918 -51.235353 -63.628066 0.000000 0.000000 0.000000 17.993269 11.431704 6.064676 30.754002 25.516597 2.789600 -142.788093 61.507161 -110.947235 0.000000 0.000000 0.000000 
0.267923 0.706052 2.213511 -3.690286 -13.540603 -5.380616 9.096429 3.607944 -55.706205 -5.946696 4.427101 53.166237 6.843149 13.456894 0.318323 0.000000 0.000000 0.000000 -9.508868 1.918791 -29.519734 14.579614 -2.988836 89.537781 -5.080909 -9.614145 -13.369082 0.000000 0.000000 0.000000 -0.625502 0.325998 36.268039 -0.217013 0.041259 -1.460115 -2.064602 14.507665 -9.625390 10.062286 -3.486240 -16.976946 0.000000 0.000000 0.000000 -14.915242 -12.480142 2.008927 -27.610236 -30.607718 4.435389 117.785684 -60.274296 -88.852307 0.000000 0.000000 0.000000 19.254548 9.281522 5.375487 34.465147 15.446600 0.951847 -162.178496 68.483028 -143.986905 0.000000 0.000000 0.000000 
0.266410 0.648025 2.306349 -2.097012 -15.363332 -7.949993 6.206117 2.870326 -58.075045 -3.063892 4.736752 73.315107 9.129139 17.129144 -20.885602 0.000000 0.000000 0.000000 -9.919198 2.332455 -32.966353 14.050941 -1.483494 100.849384 -6.692228 -14.694612 -26.930389 0.000000 0.000000 0.000000 -0.793933 0.818560 39.009723 -3.645428 1.731250 -0.717230 1.147939 10.905398 -8.165522 7.359697 -2.237632 -17.543818 0.000000 0.000000 0.000000 -20.523526 -9.856477 1.318540 -28.835284 -20.960176 2.392071 130.775802 -63.347822 -105.074017 0.000000 0.000000 0.000000 20.935172 9.727671 4.355645 35.908084 10.675041 0.004744 -167.748694 74.275770 -157.591051 0.000000 0.000000 0.000000 
0.261742 0.604662 2.373164 -2.653694 -12.585126 -9.356485 5.033194 1.423959 -61.686970 -3.172629 4.762556 88.736941 9.708674 18.458769 -26.450506 0.000000 0.000000 0.000000 -9.055650 2.538526 -35.996142 13.328289 -4.036331 109.839455 -6.890714 -17.042766 -23.778466 0.000000 0.000000 0.000000 2.038465 -0.352906 44.744788 -3.213559 1.438448 -3.267833 -0.934285 11.272740 -4.284773 9.998064 -3.302256 -19.718446 0.000000 0.000000 0.000000 -25.509279 -10.306269 0.576486 -26.899900 -15.569007 1.111692 135.974375 -72.716514 -121.081748 0.000000 0.000000 0.000000 25.583864 6.047055 3.187030 32.954429 7.020117 -1.600002 -174.915577 75.754808 -166.322666 0.000000 0.000000 0.000000 
0.255035 0.577918 2.420869 -2.140919 -12.593490 -9.218484 5.546672 1.845359 -62.706633 -4.464007 7.035118 96.432252 10.295030 20.770986 -30.982461 0.000000 0.000000 0.000000 -8.287911 3.374929 -41.029184 13.952257 -7.011835 115.626118 -7.629368 -21.113021 -21.783105 0.000000 0.000000 0.000000 2.480360 -0.319082 49.513440 -3.628114 1.660472 -3.033723 -1.326073 10.292518 -5.351751 9.946403 -2.933627 -21.578547 0.000000 0.000000 0.000000 -27.601346 -10.687154 0.705187 -29.036617 -9.219182 -0.117507 117.045065 -77.299106 -103.735355 0.000000 0.000000 0.000000 23.967083 7.344732 3.689751 34.002521 3.587608 -2.356279 -175.676786 80.517167 -168.484643 0.000000 0.000000 0.000000 
0.248938 0.575244 2.458505 -1.968910 -10.504300 -6.878474 5.621195 1.152174 -64.100857 -6.087134 8.548928 98.931119 10.432497 21.665349 -31.241036 0.000000 0.000000 0.000000 -8.874258 3.289068 -44.788230 15.004789 -11.724777 115.177697 -8.514276 -24.825885 -22.581375 0.000000 0.000000 0.000000 3.847514 -1.406742 50.581917 -3.616367 1.624290 -4.413191 -1.802190 9.726048 -4.499482 9.560255 -2.564483 -22.465286 0.000000 0.000000 0.000000 -29.103227 -9.669401 -0.088521 -31.636815 -2.964505 -1.679081 70.931277 -80.550805 -60.893720 0.000000 0.000000 0.000000 21.814029 5.596362 2.717114 36.521668 -0.277750 -3.584449 175.658886 85.678053 -178.299501 0.000000 0.000000 0.000000 
0.245000 0.581711 2.490621 -1.772863 -8.519822 -5.013972 5.680135 0.391938 -64.484719 -7.588314 10.029094 100.281373 10.411681 21.562007 -28.914113 0.000000 0.000000 0.000000 -9.031593 3.167005 -47.829136 15.378185 -14.025587 113.192779 -9.993297 -28.853687 -18.254669 0.000000 0.000000 0.000000 4.693159 -2.314418 51.158020 -3.140074 1.392436 -5.963286 -2.555366 9.380757 -5.080946 9.277134 -2.421577 -22.037952 0.000000 0.000000 0.000000 -30.172821 -6.858816 -2.168204 -33.931833 3.841572 -3.542184 13.345220 -77.770750 -9.573869 0.000000 0.000000 0.000000 23.464919 2.677264 1.191302 36.354331 -6.129451 -5.126425 64.687737 86.461842 67.350986 0.000000 0.000000 0.000000 
0.242809 0.594049 2.519796 -1.423636 -6.537106 -3.237701 3.780705 -1.621304 -63.492527 -7.148645 8.664666 100.394785 10.425045 21.705384 -28.439295 0.000000 0.000000 0.000000 -8.445619 3.085318 -49.070081 13.828620 -12.337458 111.316691 -10.198381 -28.718075 -17.183380 0.000000 0.000000 0.000000 5.176202 -2.995367 49.518409 -3.163142 1.425912 -5.462929 -2.841889 8.986365 -7.103526 9.832735 -3.032369 -19.741643 0.000000 0.000000 0.000000 -30.317319 -5.020511 -3.517324 -35.751144 9.645940 -5.226270 -4.099943 -70.837096 3.951677 0.000000 0.000000 0.000000 25.245443 1.140893 0.285244 36.376934 -11.378207 -6.350666 34.341089 83.357166 36.077631 0.000000 0.000000 0.000000 
0.241812 0.609595 2.544771 -1.878316 -5.381245 -1.227351 2.968420 -2.505974 -61.639179 -6.367431 7.062671 100.321769 9.907943 19.164637 -30.811893 0.000000 0.000000 0.000000 -7.159719 3.393554 -49.362973 12.481504 -10.181019 108.242662 -9.874849 -28.116293 -19.928968 0.000000 0.000000 0.000000 6.222223 -3.668598 47.494565 -3.730002 1.609297 -8.273321 -3.161998 9.561156 -6.752538 10.510515 -3.715017 -17.762393 0.000000 0.000000 0.000000 -30.644936 -2.940289 -5.167446 -35.559848 14.331446 -6.422782 -15.702193 -66.644727 11.327013 0.000000 0.000000 0.000000 27.518361 -2.233384 -1.599624 35.181795 -16.046283 -7.320120 42.828577 78.618770 40.619770 0.000000 0.000000 0.000000 
0.241193 0.629784 2.564536 -1.564488 -6.013014 -0.837859 1.864961 -2.783196 -57.882968 -4.885420 5.369473 98.187929 9.514227 16.981427 -31.205244 0.000000 0.000000 0.000000 -5.605166 4.069917 -48.163685 11.481287 -7.124492 104.244908 -9.096014 -25.222033 -21.511800 0.000000 0.000000 0.000000 5.878559 -3.194297 44.329688 -3.713985 1.614308 -6.841886 -3.459305 11.343050 -7.354574 10.920921 -3.347423 -19.862337 0.000000 0.000000 0.000000 -30.603426 -3.935625 -5.161690 -36.099538 15.668604 -6.734949 -11.874568 -66.876482 8.562962 0.000000 0.000000 0.000000 29.798573 -3.400101 -1.923392 34.491697 -15.829803 -7.231183 22.152482 78.624544 23.426904 0.000000 0.000000 0.000000 
0.240733 0.660879 2.580133 -1.763887 -7.005101 -1.145238 1.510963 -2.484704 -51.307743 -2.203550 2.441059 91.944621 8.631601 10.990910 -34.485250 0.000000 0.000000 0.000000 -3.807583 4.498423 -44.364010 11.105568 -4.744014 98.067373 -8.906616 -24.299445 -21.568502 0.000000 0.000000 0.000000 6.144854 -2.935587 41.172543 -4.415203 1.842022 -8.359166 -2.642652 11.366134 -3.305320 10.010326 -2.271438 -23.968760 0.000000 0.000000 0.000000 -30.361154 -3.694801 -4.852339 -35.871292 10.949850 -5.655204 5.009419 -74.019787 -2.910360 0.000000 0.000000 0.000000 27.996331 -1.814103 -0.857373 34.573566 -10.148885 -6.156483 -5.531751 81.165082 1.088095 0.000000 0.000000 0.000000 
0.240558 0.707089 2.595081 -1.254265 -7.997886 -2.132454 1.332734 -2.155815 -43.364580 -0.432305 1.173119 82.097544 7.138456 3.819234 -33.262522 0.000000 0.000000 0.000000 -2.801241 4.382348 -39.895353 11.079614 -3.053571 89.115391 -10.339464 -27.426097 -12.887504 0.000000 0.000000 0.000000 6.635030 -2.718148 37.261967 -4.382230 1.809865 -8.430873 -3.466270 10.786077 -1.474215 11.008537 -2.990123 -23.826827 0.000000 0.000000 0.000000 -26.588496 -4.821978 -2.989856 -33.503774 4.803788 -3.909698 66.546470 -81.998390 -58.249492 0.000000 0.000000 0.000000 24.919031 -0.453268 -0.220204 32.286639 -4.611530 -4.525477 -108.170773 82.887110 -94.046303 0.000000 0.000000 0.000000 
0.241122 0.781730 2.611285 -1.431230 -9.074338 -1.980675 2.032938 -1.555760 -33.573785 -0.968838 1.895438 65.434843 5.062549 1.862718 -25.024745 0.000000 0.000000 0.000000 -2.585852 3.468375 -32.287531 9.470353 -0.307769 74.012220 -9.720628 -23.983026 -4.455132 0.000000 0.000000 0.000000 6.999160 -2.208075 27.891711 -4.961649 2.216946 -3.835055 -3.122552 10.267491 -4.397168 9.123349 -3.145895 -17.802161 0.000000 0.000000 0.000000 -19.637306 -4.111870 -1.887210 -27.975126 -1.772712 -1.840541 120.383085 -74.791113 -104.761861 0.000000 0.000000 0.000000 20.343032 -0.478978 -0.633428 25.554153 -0.444456 -2.575452 -136.423247 72.808602 -114.801915 0.000000 0.000000 0.000000 
0.242162 0.878559 2.627953 -1.662118 -9.021299 -0.895157 2.984001 -1.068505 -22.725024 -2.164630 1.584560 44.784499 -0.037154 -3.435358 -7.515560 0.000000 0.000000 0.000000 -3.208374 2.276319 -24.019625 7.025438 0.892999 56.541998 -5.506149 -15.078042 6.861728 0.000000 0.000000 0.000000 7.284136 -1.593574 17.381241 -4.576311 2.162621 -1.190215 -1.987251 9.838332 -5.003482 8.166365 -3.580983 -12.886675 0.000000 0.000000 0.000000 -12.417920 -2.559560 -1.191476 -20.865397 -7.254883 -0.672223 112.772383 -63.137187 -83.661476 0.000000 0.000000 0.000000 12.273263 -2.715495 -1.707829 18.673354 4.806892 -1.147966 -125.775509 63.663988 -92.144871 0.000000 0.000000 0.000000 
0.242815 0.970655 2.641192 -2.019832 -8.837633 1.780226 5.710821 -0.442897 -15.186443 -3.305546 1.027886 25.214881 -8.730217 -8.639231 16.350779 0.000000 0.000000 0.000000 -4.291236 1.556459 -18.443987 4.639309 0.948244 38.079377 1.287492 -7.833673 24.267239 0.000000 0.000000 0.000000 8.390212 -1.042176 8.935207 -3.005373 1.370047 -2.143499 -3.655741 9.844717 -4.135962 8.666670 -5.390377 -5.950309 0.000000 0.000000 0.000000 -5.302718 -0.709262 -0.703413 -14.722146 -14.111124 -0.065661 101.384191 -51.459381 -59.971163 0.000000 0.000000 0.000000 4.217892 -2.298391 -1.032367 12.300267 7.945361 -0.691365 -109.440457 47.333126 -54.385027 0.000000 0.000000 0.000000 
0.242745 1.033972 2.649288 -1.981130 -7.728395 2.125735 6.749480 -0.304537 -12.760606 -2.785815 0.624821 21.567073 -9.565244 -7.419880 21.282765 0.000000 0.000000 0.000000 -4.905346 1.003952 -12.635768 2.567205 0.838505 26.002029 4.511973 -4.344037 27.959160 0.000000 0.000000 0.000000 8.291854 -0.709402 5.631732 -2.604170 1.176242 -2.759842 -3.119236 8.043933 -3.400134 5.935523 -3.710125 -4.867563 0.000000 0.000000 0.000000 0.814267 1.569534 -0.353638 -4.864398 -20.936531 -0.563911 91.626879 -40.002078 -40.158735 0.000000 0.000000 0.000000 -4.637242 -2.867694 -0.656137 2.840696 12.274397 -0.580581 -92.876565 23.701779 -18.211688 0.000000 0.000000 0.000000 
0.242170 1.053506 2.653200 -1.943202 -5.812470 1.536788 5.911338 -0.431881 -12.144149 -0.695449 -0.178361 23.363932 -7.185936 -5.098738 18.152956 0.000000 0.000000 0.000000 -4.685292 0.772559 -9.646793 1.373251 0.977083 24.423771 3.173839 -3.656585 21.296180 0.000000 0.000000 0.000000 6.457758 -0.564553 5.144617 -1.224023 0.569728 -2.935778 -2.118197 9.138432 -6.390716 7.552872 -5.275272 -2.552791 0.000000 0.000000 0.000000 3.277897 -2.723812 1.383578 5.858172 -23.100599 -1.914006 80.185724 -29.157346 -24.630146 0.000000 0.000000 0.000000 -12.340445 -5.586308 -0.839576 -5.477279 15.993606 -1.009467 -79.301290 15.019772 -6.169126 0.000000 0.000000 0.000000 
0.241759 1.043385 2.653933 -2.796624 -7.520535 -1.307874 6.613411 -0.235001 -10.430684 0.216695 -0.368721 26.251154 -8.913986 -5.834034 22.470690 0.000000 0.000000 0.000000 -2.633563 0.510878 -5.511584 -0.661960 1.703459 23.893163 3.525837 -2.177997 18.177627 0.000000 0.000000 0.000000 6.541892 -0.622449 6.492800 0.194862 -0.093409 -2.014228 -2.052204 8.982316 -6.503891 5.823630 -4.482144 -0.280106 0.000000 0.000000 0.000000 9.487744 -2.190608 2.158663 11.062010 -24.533835 -2.840532 76.291138 -20.345050 -16.343199 0.000000 0.000000 0.000000 -18.652285 -1.672788 0.632873 -10.956235 20.103999 -1.814848 -70.637257 4.527452 1.343313 0.000000 0.000000 0.000000 
0.241593 1.000332 2.651073 -2.327295 -9.317365 -1.218480 6.104195 -0.322150 -14.360407 0.829281 -0.332617 33.170582 -11.912725 -8.686110 25.303322 0.000000 0.000000 0.000000 -1.881945 0.627357 -6.687297 -3.090044 2.638300 24.336523 4.524663 -0.535149 17.630114 0.000000 0.000000 0.000000 5.545378 -0.508546 5.816954 -1.261991 0.552735 -2.799525 -0.207713 9.472494 -5.998541 5.038977 -3.945349 0.051886 0.000000 0.000000 0.000000 15.389650 -2.401132 2.899182 17.988540 -27.744075 -4.626007 72.561806 -14.085733 -10.624469 0.000000 0.000000 0.000000 -23.601456 -0.635581 1.322112 -17.903658 25.090732 -3.435380 -64.342592 -2.597398 4.920439 0.000000 0.000000 0.000000 
0.241891 0.930757 2.644444 -3.045830 -10.663275 -2.925792 6.838491 -0.146293 -15.608235 2.420473 -0.690016 42.246373 -13.381402 -16.490659 15.158047 0.000000 0.000000 0.000000 -0.253398 0.897349 -8.867384 -4.366171 4.835545 34.870430 1.568009 0.925134 4.362803 0.000000 0.000000 0.000000 6.665959 -0.719999 8.161740 -0.962975 0.396901 -2.918330 -1.466048 10.453058 -6.597502 8.920013 -6.576433 -1.572687 0.000000 0.000000 0.000000 21.545883 -4.367405 4.120965 21.981244 -30.254215 -6.268149 70.920787 -4.744667 -4.452198 0.000000 0.000000 0.000000 -26.651261 -1.704640 1.275054 -24.818522 31.654568 -5.954492 -64.386898 -7.964510 8.151585 0.000000 0.000000 0.000000 
0.242743 0.856043 2.633543 -2.714823 -10.070893 -5.539188 4.798870 -0.540524 -18.692293 3.178468 -1.052013 56.508036 -4.349615 -13.758186 -6.512487 0.000000 0.000000 0.000000 0.170041 1.211128 -11.374698 -5.073904 7.782076 48.602587 -3.634416 -3.399787 -10.793705 0.000000 0.000000 0.000000 6.531924 -1.134122 14.241730 -1.267776 0.498913 -5.894795 -2.326695 10.775877 -5.714460 9.458719 -6.690660 -2.957508 0.000000 0.000000 0.000000 22.313053 -6.401995 4.568559 28.265950 -32.182044 -8.550155 71.145812 3.048443 0.532879 0.000000 0.000000 0.000000 -26.520461 0.435659 1.175946 -30.472460 31.746938 -6.814650 -65.931754 -12.001431 10.831571 0.000000 0.000000 0.000000 
0.244232 0.818029 2.619255 -2.323472 -9.495599 -8.271519 3.269072 -0.914705 -20.951244 3.930088 -1.825524 62.979659 -1.784399 -9.995189 -10.100976 0.000000 0.000000 0.000000 -0.281470 1.363603 -13.000061 -3.998383 8.901725 57.611530 -6.476317 -10.839114 -16.594780 0.000000 0.000000 0.000000 6.584590 -1.419347 19.028571 -2.269759 1.020764 -2.860098 -3.193047 9.196603 -9.550810 11.851105 -8.235298 -3.246194 0.000000 0.000000 0.000000 20.137799 -7.447177 4.600940 33.916538 -33.364343 -10.403934 70.007906 7.707098 4.252718 0.000000 0.000000 0.000000 -23.120488 1.874472 1.557356 -35.146811 32.491004 -8.240655 -70.100646 -15.108939 13.681128 0.000000 0.000000 0.000000 
0.245845 0.814947 2.601920 -1.761556 -9.314012 -8.693146 1.837543 -1.263058 -21.827035 2.861456 -1.010386 64.256336 1.926419 -1.423610 -12.883483 0.000000 0.000000 0.000000 -0.637117 1.658671 -15.809855 -3.284794 9.177432 61.493957 -6.509863 -11.574081 -15.978219 0.000000 0.000000 0.000000 5.889596 -1.353994 19.672931 -2.543973 1.175201 -2.094080 -2.772364 8.923310 -10.976271 10.595321 -7.667554 -1.600859 0.000000 0.000000 0.000000 18.974298 -9.925184 4.853230 34.180058 -35.185922 -11.184319 70.734620 8.227416 4.896034 0.000000 0.000000 0.000000 -21.888181 4.617769 2.049688 -33.455774 34.658069 -8.803723 -74.195523 -11.446126 12.143326 0.000000 0.000000 0.000000 
0.246763 0.830480 2.578879 -1.205340 -10.079653 -8.071985 2.402846 -1.108708 -22.070722 0.546237 1.060641 61.501652 3.013654 1.944736 -12.694139 0.000000 0.000000 0.000000 -0.976616 1.925114 -18.199715 -2.904687 8.886856 60.140916 -5.906556 -10.243753 -13.468691 0.000000 0.000000 0.000000 4.556940 -1.139389 19.596881 -2.161015 0.994114 -1.480361 -2.971086 9.359618 -11.778892 10.915982 -8.360639 0.158682 0.000000 0.000000 0.000000 19.273782 -11.185003 5.128475 33.377014 -37.278029 -11.901575 70.934878 9.715980 5.854392 0.000000 0.000000 0.000000 -21.940873 6.067965 2.282380 -29.198541 37.851171 -8.820663 -76.191895 -9.758958 11.439923 0.000000 0.000000 0.000000 
0.246517 0.844842 2.552613 -0.510222 -11.129107 -6.508264 2.796827 -1.006007 -23.734846 -0.922768 2.261226 57.088856 3.188064 3.949534 -9.346792 0.000000 0.000000 0.000000 -2.659982 2.012989 -20.612223 -2.116657 8.366862 58.764876 -5.596605 -9.658508 -12.012939 0.000000 0.000000 0.000000 4.228374 -1.104234 20.424080 -2.868815 1.268393 -3.033513 -2.551127 8.990490 -12.448290 10.818364 -8.147634 -0.011213 0.000000 0.000000 0.000000 18.333648 -12.937246 5.178395 31.903896 -38.009603 -11.451259 73.985906 10.144342 6.820701 0.000000 0.000000 0.000000 -20.811087 6.389498 2.559827 -29.526076 40.245950 -9.979744 -76.349574 -8.289864 10.087661 0.000000 0.000000 0.000000 
0.245085 0.849050 2.527300 0.041886 -10.640756 -4.929202 3.084380 -1.012449 -26.531189 -1.494801 2.262811 54.578550 2.593571 3.190564 -7.247404 0.000000 0.000000 0.000000 -5.017527 1.852975 -22.481534 1.149699 6.157084 60.745434 -6.210094 -12.826050 -9.690861 0.000000 0.000000 0.000000 3.180211 -0.994187 21.272761 -2.735125 1.107854 -6.289194 -1.636330 8.643714 -10.660259 10.544841 -7.561596 -1.680475 0.000000 0.000000 0.000000 18.049228 -14.085854 5.145286 31.423228 -37.013743 -10.708595 75.244764 10.459160 7.339130 0.000000 0.000000 0.000000 -19.789838 7.376557 2.728031 -30.816728 38.598772 -9.947807 -76.193551 -6.820857 8.711671 0.000000 0.000000 0.000000 
0.242295 0.841433 2.504941 -0.025916 -10.696816 -5.368638 3.984795 -0.769393 -26.582670 -1.942502 2.416698 52.793815 3.035354 3.331182 -10.095922 0.000000 0.000000 0.000000 -6.509462 1.582627 -22.062220 3.496813 4.881062 63.574449 -6.926124 -16.535441 -2.948326 0.000000 0.000000 0.000000 3.077897 -0.998906 22.580280 -3.054462 1.210393 -7.539652 -1.078410 8.668953 -8.498474 11.163745 -7.337945 -4.790302 0.000000 0.000000 0.000000 16.661704 -13.899708 4.943145 32.619170 -36.440270 -10.737896 77.595833 9.198338 6.675305 0.000000 0.000000 0.000000 -18.440989 7.710439 2.685896 -32.558298 35.624770 -9.374205 -77.000750 -5.965066 7.953846 0.000000 0.000000 0.000000 
0.237303 0.830675 2.483863 0.528978 -10.878776 -5.843347 3.972350 -0.756292 -27.296811 -1.887593 2.378332 52.054760 3.720891 4.402161 -12.447544 0.000000 0.000000 0.000000 -7.570772 1.315884 -20.606421 3.863685 4.913137 64.809649 -6.859177 -17.549773 5.450457 0.000000 0.000000 0.000000 2.654722 -0.911468 23.591571 -2.504873 0.973709 -7.800630 -2.110853 9.853155 -7.850310 11.952327 -7.516308 -6.448162 0.000000 0.000000 0.000000 15.862083 -13.277675 4.943908 32.695506 -37.534761 -11.487969 83.777527 7.795018 5.756028 0.000000 0.000000 0.000000 -15.873653 8.736607 2.640377 -33.403904 33.363402 -8.419666 -78.965521 -3.274619 6.354319 0.000000 0.000000 0.000000 
0.229159 0.826237 2.461576 0.886197 -11.665230 -5.556807 5.465367 -0.264781 -28.216280 -3.120038 3.263649 50.788308 3.847563 4.484649 -13.528744 0.000000 0.000000 0.000000 -6.934732 1.306299 -18.954959 2.867565 5.925457 63.938557 -7.328406 -18.982088 10.912485 0.000000 0.000000 0.000000 2.746686 -0.881388 23.173593 -2.437136 0.918032 -8.133571 -2.915053 11.546007 -6.792563 13.368431 -7.635720 -9.728258 0.000000 0.000000 0.000000 13.763726 -14.285034 5.166146 31.272634 -38.398305 -11.669216 88.903516 5.709813 3.855616 0.000000 0.000000 0.000000 -14.685072 10.170506 2.760214 -32.046287 34.418370 -8.197833 -83.603556 -1.893775 5.928490 0.000000 0.000000 0.000000 
0.217113 0.828870 2.435801 1.084844 -11.706915 -4.997013 5.985121 -0.119952 -28.053961 -2.669798 2.595381 46.746814 3.814613 4.418545 -13.972055 0.000000 0.000000 0.000000 -5.470796 1.258599 -16.372117 1.202868 6.500058 59.824138 -7.929681 -19.845769 7.755733 0.000000 0.000000 0.000000 3.467416 -1.010447 22.705098 -2.006221 0.730568 -8.882226 -3.542707 12.407882 -4.359740 13.375277 -7.872446 -9.282127 0.000000 0.000000 0.000000 10.277997 -15.484167 5.279453 28.561103 -38.063084 -10.744527 94.111944 2.605418 0.713322 0.000000 0.000000 0.000000 -11.539191 12.571421 3.386487 -31.812051 35.442339 -8.367218 -89.150817 1.698278 2.881177 0.000000 0.000000 0.000000 
0.201692 0.840147 2.407401 0.780636 -11.796245 -4.505962 6.667484 0.087921 -28.303452 -1.131222 1.410699 43.004255 2.967000 3.812955 -9.075028 0.000000 0.000000 0.000000 -3.626729 1.221521 -14.075880 0.201040 6.299842 54.788602 -8.046857 -19.561565 2.437213 0.000000 0.000000 0.000000 3.888556 -1.075457 21.972895 -2.295562 0.883760 -6.973556 -3.459883 12.378603 -5.371711 11.801558 -6.349382 -10.722812 0.000000 0.000000 0.000000 7.126928 -14.695816 4.977310 19.990875 -41.371361 -9.020055 96.543989 -3.350414 -5.696727 0.000000 0.000000 0.000000 -8.028679 14.717286 4.395233 -24.172252 38.398317 -7.574899 -92.679999 9.013032 -3.974228 0.000000 0.000000 0.000000 
0.183921 0.858913 2.380362 0.075228 -12.696468 -4.219152 8.582725 0.646815 -26.634505 -0.604745 0.900298 37.047895 1.948338 3.467119 -2.316517 0.000000 0.000000 0.000000 -2.182623 1.048215 -11.194314 -0.423985 5.637818 47.889769 -6.757011 -14.782635 -5.520944 0.000000 0.000000 0.000000 4.188511 -1.065845 20.593534 -2.648185 1.115830 -3.774628 -2.996659 13.214793 -7.157987 10.262646 -5.821600 -8.350992 0.000000 0.000000 0.000000 -0.032903 -14.123191 4.402132 6.074865 -40.528187 -4.206627 101.932682 -12.602170 -17.148129 0.000000 0.000000 0.000000 -2.566718 14.371821 4.960206 -11.546544 40.626958 -4.681991 -96.942390 22.289574 -18.105952 0.000000 0.000000 0.000000 
0.164919 0.882663 2.358999 -0.296950 -13.204442 -3.326928 9.631932 0.870988 -24.726124 0.476401 0.147314 30.108516 0.807198 3.221064 5.842939 0.000000 0.000000 0.000000 -1.697964 0.834868 -8.793108 -0.482204 4.357431 39.900005 -4.963274 -8.865657 -7.166202 0.000000 0.000000 0.000000 4.737413 -1.087895 18.562875 -2.857719 1.292046 -1.781248 -3.764789 13.197414 -7.011273 9.283182 -4.870205 -9.591741 0.000000 0.000000 0.000000 -7.260819 -9.348225 2.039403 -13.194321 -36.749705 1.517672 107.823753 -30.833297 -42.338918 0.000000 0.000000 0.000000 4.051623 11.076865 4.427723 10.906351 37.416090 1.320180 -110.316051 41.480752 -47.772409 0.000000 0.000000 0.000000 
0.146663 0.907034 2.344424 -1.075862 -13.108035 -2.180295 11.504683 1.170553 -22.315307 -0.002700 0.056166 22.855665 -0.595785 2.350751 12.369291 0.000000 0.000000 0.000000 -0.526852 0.570703 -5.892261 -0.358529 2.960209 31.399029 -3.237563 -4.919901 -5.297901 0.000000 0.000000 0.000000 4.649657 -1.002110 15.943066 -2.883303 1.350589 -0.855238 -3.469754 14.292661 -6.631745 9.411225 -5.151947 -8.606385 0.000000 0.000000 0.000000 -14.987096 -5.330241 -0.944103 -26.117847 -24.536153 2.692522 111.702294 -50.431792 -69.719782 0.000000 0.000000 0.000000 12.314808 5.690006 2.791314 27.681696 24.139669 2.408609 -122.852015 63.030445 -86.655413 0.000000 0.000000 0.000000 
0.130810 0.927833 2.334402 -1.451821 -12.178120 -0.507271 12.480380 1.167989 -20.511401 -0.405558 -0.005755 16.447281 -2.038882 1.188618 16.413534 0.000000 0.000000 0.000000 0.774669 0.319940 -3.469785 -0.891643 2.047178 23.535782 -1.646228 -2.328407 -2.704991 0.000000 0.000000 0.000000 4.888805 -0.964073 13.482419 -3.346128 1.655288 0.569624 -2.890813 14.257388 -5.829974 8.667838 -4.392208 -9.700168 0.000000 0.000000 0.000000 -18.584739 1.864512 -5.108582 -34.672233 -9.555766 -0.234987 82.344126 -73.861988 -66.655495 0.000000 0.000000 0.000000 17.258961 -1.037073 -0.494055 36.899415 9.092332 -0.814643 -74.743145 85.120430 -62.504711 0.000000 0.000000 0.000000 
0.118763 0.941170 2.327196 -1.452294 -11.381430 0.987186 12.666458 1.068367 -19.859699 -0.911235 0.074223 14.034768 -1.661914 1.995729 17.093743 0.000000 0.000000 0.000000 1.464718 0.127697 -1.814382 -1.866066 1.612298 17.595437 0.232519 1.207272 -0.842041 0.000000 0.000000 0.000000 4.459264 -0.860295 11.747035 -3.794026 1.827510 -0.158552 -2.239849 14.090771 -3.357664 7.283803 -3.341517 -10.529331 0.000000 0.000000 0.000000 -21.139500 6.771864 -8.183409 -40.038570 4.141121 -4.850242 9.341858 -64.501331 -5.696482 0.000000 0.000000 0.000000 20.081278 -7.123457 -3.957513 41.489699 -3.909106 -5.044720 12.265960 69.777855 13.608698 0.000000 0.000000 0.000000 
0.111063 0.948473 2.321680 -1.082057 -10.142001 1.356153 12.568542 0.997934 -20.822785 -1.762244 0.316166 17.291073 -0.989259 2.648133 14.963033 0.000000 0.000000 0.000000 1.829709 -0.048903 -0.268497 -2.155106 1.170212 12.797373 -0.632084 -3.845174 3.892674 0.000000 0.000000 0.000000 4.629702 -0.875947 11.401351 -4.275562 2.033636 -0.592223 -2.164630 12.618134 -1.385639 7.431848 -3.462815 -10.838681 0.000000 0.000000 0.000000 -21.752334 9.725198 -9.646041 -43.850906 11.113704 -8.117189 5.967488 -42.215522 -1.840470 0.000000 0.000000 0.000000 20.603938 -11.339761 -6.602042 42.786704 -12.929801 -8.070927 16.395623 53.234613 11.364138 0.000000 0.000000 0.000000 
0.107016 0.951537 2.318728 -0.299693 -7.839840 1.071972 11.644915 0.663920 -21.672428 -2.434755 0.462224 20.095644 0.238810 4.457722 13.278321 0.000000 0.000000 0.000000 1.209759 -0.182167 1.307364 -2.622946 1.036149 10.592786 -0.055770 -3.301307 5.533574 0.000000 0.000000 0.000000 3.937838 -0.889516 12.552194 -4.336237 2.014653 -1.605728 -2.025282 11.464433 -0.285340 6.114259 -2.599521 -10.890444 0.000000 0.000000 0.000000 -21.627526 11.358979 -10.419364 -45.252296 14.336620 -9.735333 5.565883 -30.583523 -1.073043 0.000000 0.000000 0.000000 19.955920 -14.017273 -8.040852 44.186866 -17.992793 -9.974111 14.834967 41.982924 7.883993 0.000000 0.000000 0.000000 
0.106303 0.953632 2.318705 -0.309854 -7.426828 1.840179 11.722735 0.687091 -22.967670 -3.065224 0.669775 21.415490 2.041354 7.375345 13.225840 0.000000 0.000000 0.000000 1.672186 -0.274045 1.929132 -3.103027 0.967373 8.812417 -0.130472 -2.991443 4.660948 0.000000 0.000000 0.000000 4.334129 -0.869336 11.223365 -4.742307 2.340968 1.067432 -2.433548 10.785163 -2.414072 4.701738 -1.649850 -11.039987 0.000000 0.000000 0.000000 -20.409839 12.637770 -10.610054 -46.263322 17.003442 -10.939930 4.643716 -22.358792 -0.543661 0.000000 0.000000 0.000000 19.194485 -14.000833 -8.002740 45.132304 -19.503430 -10.481009 11.780750 34.739737 5.271548 0.000000 0.000000 0.000000 
0.108304 0.954963 2.322047 -0.008443 -7.036917 2.240518 11.250069 0.536746 -22.885550 -3.569083 0.779255 20.523162 3.076917 9.106197 13.538470 0.000000 0.000000 0.000000 1.150792 -0.290263 2.360537 -2.990058 0.904768 8.328066 1.047781 0.035400 4.030695 0.000000 0.000000 0.000000 5.127423 -0.904419 10.402371 -4.920341 2.453287 1.593929 -3.090496 10.712340 -2.930197 2.723990 -0.606648 -9.438553 0.000000 0.000000 0.000000 -19.718461 12.210518 -10.220010 -46.960829 18.738001 -11.804096 2.442663 -18.436814 -0.071918 0.000000 0.000000 0.000000 17.694863 -14.257932 -7.843992 47.280443 -18.595626 -10.616794 9.825336 31.374073 4.176614 0.000000 0.000000 0.000000 
0.112648 0.955676 2.328454 0.075608 -7.834922 2.157953 11.572357 0.636439 -22.066290 -3.235337 0.671676 18.744354 2.536396 8.337768 14.619437 0.000000 0.000000 0.000000 1.411526 -0.412421 3.423634 -3.622326 0.920752 7.264543 2.071128 2.392831 3.939986 0.000000 0.000000 0.000000 5.327397 -0.983000 11.365829 -4.954964 2.381527 -0.084736 -3.375571 11.876121 -2.690788 2.137424 -0.193513 -9.343599 0.000000 0.000000 0.000000 -19.098041 12.050587 -10.070868 -46.198452 19.659463 -11.962867 -0.993065 -16.574510 0.429525 0.000000 0.000000 0.000000 17.654868 -12.847040 -6.928652 47.204854 -15.910759 -9.713361 9.114743 29.273916 3.726775 0.000000 0.000000 0.000000 
0.119465 0.956047 2.338297 0.134905 -8.107249 1.686785 11.357370 0.554514 -20.465137 -1.921789 0.231587 14.316828 1.718672 7.533916 17.410093 0.000000 0.000000 0.000000 1.169571 -0.457640 4.095720 -3.906019 0.941356 6.976020 2.686296 3.035734 5.047711 0.000000 0.000000 0.000000 5.195793 -0.988301 11.829976 -5.352075 2.596429 0.207897 -3.823227 12.372101 -3.003308 2.163584 0.024998 -10.757102 0.000000 0.000000 0.000000 -19.002521 10.808754 -9.534930 -47.022236 17.569749 -11.392284 -1.921241 -16.935977 0.553708 0.000000 0.000000 0.000000 19.219272 -11.549560 -6.302321 46.893798 -11.299678 -8.164874 8.899982 28.533419 3.602027 0.000000 0.000000 0.000000 
0.129014 0.954616 2.351969 0.885467 -6.976103 1.631022 9.767326 0.147997 -19.669799 -0.863394 -0.037657 8.737003 0.703820 6.493442 18.945503 0.000000 0.000000 0.000000 -0.107356 -0.474938 5.374022 -4.160579 0.903758 6.101094 2.540036 2.524945 5.466077 0.000000 0.000000 0.000000 5.000533 -0.985577 11.939043 -5.855002 2.858896 0.543317 -3.793924 11.061177 -2.746128 2.034471 0.304791 -12.579645 0.000000 0.000000 0.000000 -21.319603 9.587360 -9.550095 -46.598043 14.319664 -9.918286 -1.854886 -18.246607 0.613561 0.000000 0.000000 0.000000 19.654983 -9.020822 -5.054585 47.750458 -7.883934 -7.182990 8.818560 32.855636 4.204798 0.000000 0.000000 0.000000 
0.141331 0.952449 2.370321 1.164002 -6.943047 1.207127 8.595789 -0.075208 -18.181831 0.063795 -0.123456 4.139033 0.889729 6.887383 19.678417 0.000000 0.000000 0.000000 -1.276793 -0.494775 7.039352 -3.571151 0.738980 5.176630 1.798154 0.135910 6.732597 0.000000 0.000000 0.000000 4.251703 -0.887605 11.815404 -6.718621 3.307468 0.787673 -2.778009 11.004057 -3.074159 2.906193 -0.360664 -11.851107 0.000000 0.000000 0.000000 -22.885013 6.724272 -8.484717 -47.875541 13.183124 -9.681747 -2.212899 -19.531220 0.727269 0.000000 0.000000 0.000000 23.191623 -6.034818 -3.690322 45.792301 -3.123040 -5.408256 6.620659 35.319514 3.849505 0.000000 0.000000 0.000000 
0.156612 0.947504 2.394675 0.712238 -7.253532 1.225188 8.348060 -0.109308 -16.932427 0.014616 -0.092978 3.280355 0.212640 5.959078 20.048982 0.000000 0.000000 0.000000 -1.931208 -0.404220 6.745667 -2.796397 0.788313 7.274355 0.663457 -3.007051 8.160308 0.000000 0.000000 0.000000 4.754803 -0.849759 10.463717 -7.055114 3.608741 2.392887 -2.565693 10.413737 -3.615752 5.080127 -1.861788 -11.304651 0.000000 0.000000 0.000000 -22.565935 4.895382 -7.260858 -49.227819 11.533787 -9.322102 -5.013366 -21.193210 1.318266 0.000000 0.000000 0.000000 21.922432 -4.089369 -2.642732 47.017176 0.665142 -4.059294 6.608032 36.731383 3.975892 0.000000 0.000000 0.000000 
0.175521 0.943466 2.424231 1.085573 -5.433232 1.192419 6.935805 -0.393604 -15.970287 -0.100753 -0.096685 3.859196 -1.351485 4.251384 20.785818 0.000000 0.000000 0.000000 -3.659715 -0.330645 8.034143 -2.574983 0.749080 7.302887 0.774564 -4.253799 11.997553 0.000000 0.000000 0.000000 4.201427 -0.763590 9.755426 -7.067611 3.623646 2.893866 -1.779996 8.726774 -3.834881 4.376777 -1.666166 -10.101183 0.000000 0.000000 0.000000 -24.602904 2.716147 -6.331886 -47.112116 8.844001 -7.682199 -4.827077 -22.172499 1.398220 0.000000 0.000000 0.000000 22.919451 -1.662312 -1.553351 45.727613 2.794606 -3.162227 8.410758 37.821599 4.573243 0.000000 0.000000 0.000000 
